<?xml version="1.0" encoding="UTF-8"?>
<kml xmlns="http://www.opengis.net/kml/2.2" xmlns:gx="http://www.google.com/kml/ext/2.2" xmlns:kml="http://www.opengis.net/kml/2.2" xmlns:atom="http://www.w3.org/2005/Atom">
<Document>
	<name>I.265.kml</name>
	<Placemark>
		<name>I.265</name>
			<LineString>
				<coordinates>
					-85.70121260000001,38.1091541,0 -85.7011096,38.1094472,0 -85.70107,38.110022,0 -85.701052,38.110736,0 -85.701042,38.110883,0 -85.70100499999999,38.111148,0 -85.70094400000001,38.111347,0 -85.70092200000001,38.111418,0 -85.700864,38.111547,0 -85.70076,38.111729,0 -85.70062799999999,38.111907,0 -85.700479,38.112068,0 -85.700245,38.112263,0 -85.70003800000001,38.112396,0 -85.699797,38.112525,0 -85.699595,38.112614,0 -85.6987822,38.1129636,0 -85.6985715,38.1130528,0 -85.69851989999999,38.1131325,0 -85.6982768,38.1132264,0 -85.698133,38.1132737,0 -85.6979879,38.1133159,0 -85.6977337,38.1133739,0 -85.6974817,38.1134096,0 -85.69732070000001,38.1134242,0 -85.6970689,38.1134303,0 -85.696912,38.1134247,0 -85.69674740000001,38.1134143,0 -85.6966465,38.1134037,0 -85.6964886,38.113381,0 -85.6962821,38.1133379,0 -85.6961464,38.1133086,0 -85.6960016,38.1132708,0 -85.6951682,38.1130679,0 -85.6946165,38.1129359,0 -85.6944788,38.1129033,0 -85.6940656,38.112842,0 -85.6939002,38.1127995,0 -85.69349010000001,38.112694,0 -85.6928319,38.1125259,0 -85.6925458,38.1124563,0 -85.6904473,38.1119004,0 -85.68975469999999,38.1117277,0 -85.685884,38.110785,0 -85.684967,38.110574,0 -85.68456,38.11049,0 -85.68395099999999,38.110381,0 -85.683363,38.110292,0 -85.68326399999999,38.110277,0 -85.6827827,38.1102063,0 -85.6819167,38.1101075,0 -85.68141319999999,38.1100729,0 -85.68079280000001,38.1100391,0 -85.680162,38.110053,0 -85.679627,38.110046,0 -85.67931,38.110049,0 -85.678676,38.110069,0 -85.67836,38.110085,0 -85.677729,38.110131,0 -85.677414,38.11016,0 -85.676787,38.110232,0 -85.675997,38.110344,0 -85.67477649999999,38.1105748,0 -85.674457,38.110629,0 -85.67400499999999,38.110736,0 -85.673738,38.110781,0 -85.672928,38.111,0 -85.67261000000001,38.111093,0 -85.669695,38.11208,0 -85.66872499999999,38.112428,0 -85.666102,38.113333,0 -85.66519099999999,38.113643,0 -85.663697,38.114162,0 -85.66258500000001,38.114549,0 -85.66186500000001,38.114796,0 -85.661422,38.114947,0 -85.66055299999999,38.115219,0 -85.660149,38.115328,0 -85.659177,38.115567,0 -85.658601,38.115693,0 -85.6578026,38.1158373,0 -85.6571503,38.1159454,0 -85.65650650000001,38.1160467,0 -85.65320800000001,38.11654,0 -85.649648,38.117077,0 -85.649272,38.117126,0 -85.647671,38.117384,0 -85.64673000000001,38.117522,0 -85.646468,38.11756,0 -85.64455599999999,38.11788,0 -85.643722,38.118013,0 -85.643146,38.118101,0 -85.64134199999999,38.118379,0 -85.640761,38.118472,0 -85.6394791,38.1186554,0 -85.639156,38.118711,0 -85.63713199999999,38.119024,0 -85.636737,38.119091,0 -85.636375,38.119137,0 -85.63586599999999,38.119212,0 -85.63521900000001,38.119323,0 -85.63517299999999,38.119331,0 -85.63491,38.119387,0 -85.63441,38.119492,0 -85.634075,38.119571,0 -85.633015,38.119836,0 -85.631597,38.12021,0 -85.631,38.120367,0 -85.6276884,38.1212204,0 -85.626902,38.121423,0 -85.624554,38.122039,0 -85.623704,38.122258,0 -85.620986,38.122956,0 -85.619529,38.123338,0 -85.61890200000001,38.123483,0 -85.617484,38.123876,0 -85.61487440000001,38.1245451,0 -85.6142814,38.1247023,0 -85.612041,38.12529,0 -85.611673,38.125395,0 -85.611104,38.125573,0 -85.61055500000001,38.125763,0 -85.610074,38.125937,0 -85.609712,38.126074,0 -85.60909100000001,38.126313,0 -85.608419,38.126626,0 -85.60793200000001,38.126873,0 -85.607332,38.127191,0 -85.60678799999999,38.127497,0 -85.60621999999999,38.127841,0 -85.605695,38.128185,0 -85.605163,38.128559,0 -85.604782,38.128846,0 -85.604412,38.129132,0 -85.60251100000001,38.130699,0 -85.601922,38.131184,0 -85.60181,38.131277,0 -85.600606,38.132269,0 -85.59572900000001,38.136289,0 -85.595381,38.136571,0 -85.594764,38.137055,0 -85.594511,38.137243,0 -85.59442799999999,38.137305,0 -85.594083,38.137549,0 -85.593559,38.137895,0 -85.59324700000001,38.138088,0 -85.59263199999999,38.138448,0 -85.591897,38.138843,0 -85.591425,38.139079,0 -85.590952,38.139299,0 -85.590384,38.139544,0 -85.590025,38.139694,0 -85.589552,38.139874,0 -85.588463,38.140246,0 -85.58828099999999,38.140306,0 -85.588002,38.14039,0 -85.587648,38.140485,0 -85.587335,38.140569,0 -85.58442839999999,38.1413039,0 -85.58371200000001,38.141484,0 -85.582803,38.141724,0 -85.582469,38.141805,0 -85.58217,38.141866,0 -85.58188,38.141914,0 -85.581537,38.141957,0 -85.581281,38.141981,0 -85.580911,38.142001,0 -85.58054199999999,38.142004,0 -85.580209,38.141996,0 -85.5786279,38.1419446,0 -85.576273,38.1417582,0 -85.574692,38.141671,0 -85.572557,38.141544,0 -85.57210499999999,38.141523,0 -85.57158200000001,38.141511,0 -85.570849,38.141511,0 -85.570077,38.141531,0 -85.56953799999999,38.141558,0 -85.568771,38.141616,0 -85.568353,38.141654,0 -85.567714,38.141731,0 -85.567047,38.141826,0 -85.56653,38.14191,0 -85.56574500000001,38.142061,0 -85.5527309,38.1450081,0 -85.55247230000001,38.1450652,0 -85.551796,38.145229,0 -85.544882,38.1468,0 -85.54394000000001,38.147034,0 -85.543773,38.14708,0 -85.543451,38.14718,0 -85.543071,38.147313,0 -85.54267900000001,38.147475,0 -85.54238100000001,38.147615,0 -85.542113,38.147757,0 -85.54174999999999,38.147976,0 -85.541381,38.14822,0 -85.54104769999999,38.1484445,0 -85.54047490000001,38.148902,0 -85.53964999999999,38.149581,0 -85.539157,38.1499654,0 -85.5389247,38.1501593,0 -85.53758740000001,38.1512456,0 -85.5362398,38.1523391,0 -85.53530430000001,38.1530815,0 -85.53314,38.154829,0 -85.532301,38.15547,0 -85.524612,38.161141,0 -85.52413799999999,38.161524,0 -85.523763,38.161849,0 -85.523419,38.162172,0 -85.522994,38.162601,0 -85.522553,38.163093,0 -85.522367,38.163313,0 -85.522096,38.163655,0 -85.521649,38.164268,0 -85.52142000000001,38.164637,0 -85.521017,38.165327,0 -85.52044100000001,38.166351,0 -85.519819,38.167434,0 -85.51899400000001,38.168886,0 -85.518576,38.169627,0 -85.51776,38.171057,0 -85.51731100000001,38.171834,0 -85.51701,38.172374,0 -85.516317,38.173578,0 -85.516181,38.1738,0 -85.515936,38.17415,0 -85.515805,38.174326,0 -85.515389,38.174824,0 -85.51517699999999,38.175053,0 -85.514809,38.1754,0 -85.514616,38.175571,0 -85.514309,38.175823,0 -85.511517,38.177967,0 -85.51081000000001,38.17851,0 -85.510361,38.178862,0 -85.509953,38.179202,0 -85.50970700000001,38.179426,0 -85.50944699999999,38.179687,0 -85.509207,38.179961,0 -85.508989,38.180249,0 -85.508803,38.180531,0 -85.508714,38.180684,0 -85.508566,38.180968,0 -85.50843399999999,38.181272,0 -85.508314,38.181619,0 -85.508245,38.181869,0 -85.50823800000001,38.181904,0 -85.508207,38.182046,0 -85.508151,38.182421,0 -85.508129,38.182809,0 -85.50813599999999,38.183162,0 -85.508191,38.183754,0 -85.50824299999999,38.184172,0 -85.508837,38.187478,0 -85.508897,38.187886,0 -85.508959,38.18846,0 -85.508996,38.189255,0 -85.508988,38.18992,0 -85.508966,38.190338,0 -85.508927,38.190752,0 -85.50888999999999,38.191054,0 -85.50878299999999,38.191739,0 -85.50869899999999,38.1922413,0 -85.508655,38.192504,0 -85.50859440000001,38.1927925,0 -85.50852740000001,38.1931119,0 -85.508449,38.193594,0 -85.50826600000001,38.194755,0 -85.508099,38.195761,0 -85.507981,38.196624,0 -85.507924,38.197134,0 -85.507192,38.204773,0 -85.50691399999999,38.207667,0 -85.506663,38.210287,0 -85.50658300000001,38.211182,0 -85.5063909,38.2135688,0 -85.506156,38.21598,0 -85.5058192,38.2193878,0 -85.5057059,38.2205338,0 -85.50568060000001,38.2208181,0 -85.5055625,38.2221482,0 -85.5055411,38.2223674,0 -85.50548209999999,38.2231007,0 -85.505425,38.223428,0 -85.505405,38.223776,0 -85.5053425,38.2244261,0 -85.5053056,38.2247354,0 -85.5052848,38.224998,0 -85.505278,38.225098,0 -85.505152,38.226415,0 -85.5051402,38.2266711,0 -85.5051354,38.2267322,0 -85.5051014,38.22699,0 -85.5050602,38.2273602,0 -85.50501199999999,38.227848,0 -85.50424599999999,38.235829,0 -85.5041569,38.2365535,0 -85.504182,38.2366658,0 -85.5041767,38.2367385,0 -85.5040102,38.2384706,0 -85.503837,38.240097,0 -85.50382399999999,38.240191,0 -85.50381899999999,38.240277,0 -85.5036812,38.2417116,0 -85.5036278,38.2422679,0 -85.50327,38.245588,0 -85.50308099999999,38.24767,0 -85.503011,38.24864,0 -85.502893,38.249838,0 -85.50249100000001,38.253481,0 -85.5023127,38.255611,0 -85.5022536,38.2561587,0 -85.5021041,38.2575814,0 -85.5020425,38.2582061,0 -85.501734,38.261264,0 -85.5012856,38.2659898,0 -85.500908,38.269766,0 -85.5004538,38.2745438,0 -85.5004441,38.274663,0 -85.5004083,38.2750925,0 -85.500344,38.275571,0 -85.49995800000001,38.279622,0 -85.49992899999999,38.280057,0 -85.49992399999999,38.280266,0 -85.499943,38.280667,0 -85.499999,38.281047,0 -85.500096,38.281459,0 -85.50024999999999,38.281904,0 -85.500441,38.282313,0 -85.500657,38.282686,0 -85.50089800000001,38.283031,0 -85.501186,38.283378,0 -85.501502,38.2837,0 -85.50172499999999,38.283902,0 -85.50214099999999,38.284229,0 -85.50248499999999,38.28446,0 -85.50270399999999,38.284592,0 -85.50292899999999,38.284717,0 -85.50329000000001,38.284896,0 -85.503826,38.285119,0 -85.504375,38.285301,0 -85.504892,38.285435,0 -85.505408,38.28553,0 -85.506015,38.285611,0 -85.50740810000001,38.285752,0 -85.5135283,38.2864001,0 -85.51446749999999,38.2864987,0 -85.515173,38.286569,0 -85.52046900000001,38.287101,0 -85.528368,38.287916,0 -85.530349,38.28812,0 -85.530811,38.288176,0 -85.53133099999999,38.288257,0 -85.53165300000001,38.288315,0 -85.532053,38.288396,0 -85.532568,38.288522,0 -85.533017,38.288642,0 -85.533278,38.288719,0 -85.53363299999999,38.288832,0 -85.53412899999999,38.289007,0 -85.534634,38.289202,0 -85.535312,38.289504,0 -85.535977,38.289845,0 -85.536468,38.290121,0 -85.544196,38.294996,0 -85.54654669999999,38.2964772,0 -85.5470456,38.2968056,0 -85.5474641,38.297068,0 -85.5479629,38.2973697,0 -85.54863349999999,38.2977992,0 -85.55236499999999,38.300199,0 -85.55477,38.301689,0 -85.555358,38.302059,0 -85.555559,38.302183,0 -85.555865,38.302371,0 -85.556319,38.302636,0 -85.556793,38.302896,0 -85.557376,38.303192,0 -85.557872,38.303429,0 -85.558364,38.30365,0 -85.559161,38.303978,0 -85.559606,38.304148,0 -85.562247,38.305066,0 -85.563405,38.305469,0 -85.565744,38.306293,0 -85.566068,38.306417,0 -85.566306,38.306519,0 -85.56665030000001,38.3066306,0 -85.567179,38.306858,0 -85.567342,38.30693,0 -85.56815400000001,38.307307,0 -85.568578,38.307526,0 -85.568926,38.307712,0 -85.5706723,38.3086925,0 -85.5711338,38.3089537,0 -85.57117959999999,38.3089802,0 -85.57133039999999,38.3090853,0 -85.571804,38.3093554,0 -85.5720097,38.3094718,0 -85.5725044,38.3097298,0 -85.5729705,38.3099939,0 -85.5733103,38.3101875,0 -85.5737742,38.3104471,0 -85.574116,38.31064,0 -85.5743559,38.3107734,0 -85.57444219999999,38.3108481,0 -85.575075,38.311208,0 -85.5758245,38.3116267,0 -85.57661899999999,38.3120754,0 -85.57670520000001,38.312125,0 -85.57678629999999,38.3121507,0 -85.5770911,38.312322,0 -85.5774354,38.3125155,0 -85.58051500000001,38.314269,0 -85.580742,38.314414,0 -85.581324,38.314726,0 -85.58222069999999,38.3151595,0 -85.58233199999999,38.3152144,0 -85.5839637657991,38.31583435963653,0 -85.58640068523857,38.31656315628272,0 -85.58885451876208,38.31704033973323,0 -85.59153608874404,38.31734612443093,0 -85.60022476310846,38.31837133985464,0 -85.60577344220593,38.31905380713898,0 -85.60857529408722,38.3195383663967,0 -85.61157330868485,38.32028859415765,0 -85.6148612865051,38.32138255742922,0 -85.6175209583548,38.32246730621377,0 -85.62056462859933,38.32398975137817,0 -85.62328755220976,38.32583562068519,0 -85.62605321158398,38.32810543042304,0 -85.63140269300195,38.33259360215199,0 -85.63444314136159,38.33517477076124,0 -85.64341492252356,38.34290848718548,0 -85.64577574946398,38.34497893965075,0 -85.64974962348562,38.34757978816737,0 -85.65394871923235,38.34915548313473,0 -85.65869614152281,38.35009054886758,0 -85.66343944500822,38.35001432799327,0 -85.66724509196197,38.34943979574285,0 -85.67234395095024,38.34786083152985,0 -85.67716964361399,38.34630993834872,0 -85.6814291787077,38.34502832165283,0 -85.68412303836089,38.34436681620375,0 -85.68636487206462,38.34393534828634,0 -85.68889432697861,38.34375917700061,0 -85.69284343290724,38.3437827410589,0 -85.7009951906069,38.34398546561096,0 -85.71340106156677,38.34444743828123,0 -85.71482420920894,38.34454725124093,0 -85.71618845162126,38.34473220429268,0 -85.71778760435711,38.34511942907255,0 -85.72322552690542,38.34674986100718,0 -85.72902916784132,38.34854921120542,0 -85.73055221374811,38.34889885461651,0 -85.73141870667075,38.34893582582231,0 -85.73256304990807,38.3489159778933,0 -85.73317300928947,38.34882500757781,0 -85.73499066717135,38.34831246115942,0 -85.73775501189571,38.34731339211834,0 -85.74005861460469,38.34654025825638,0 -85.74124762716527,38.34627568375402,0 -85.74394790653011,38.34614027557109,0 -85.75348785519066,38.34589218037272,0 
				
					-85.75376919999999,38.3458889,0 -85.7545257,38.3458757,0 -85.7553145,38.3458536,0 -85.7569939,38.3457908,0 -85.7585606,38.3457495,0 -85.76054929999999,38.3456872,0 -85.76231730000001,38.3456422,0 -85.76319220000001,38.3456203,0 -85.7642247,38.3455868,0 -85.76540420000001,38.3455479,0 -85.7669868,38.3455058,0 -85.76810260000001,38.3454803,0 -85.7688923,38.3454601,0 -85.76938149999999,38.3454467,0 -85.77068199999999,38.345404,0 -85.771005,38.345399,0 -85.772299,38.345358,0 -85.77262399999999,38.345353,0 -85.77270679999999,38.3453504,0 -85.773605,38.345322,0 -85.77393499999999,38.345317,0 -85.775587,38.345266,0 -85.775919,38.345261,0 -85.77718400000001,38.345222,0 -85.7774929,38.3452123,0 -85.777567,38.34521,0 -85.77789199999999,38.345205,0 -85.778857,38.345174,0 -85.779177,38.345169,0 -85.779816,38.345148,0 -85.78013799999999,38.345143,0 -85.781111,38.345112,0 -85.78175899999999,38.345096,0 -85.782732,38.345066,0 -85.78371749999999,38.345021,0 -85.784023,38.345007,0 -85.78429819999999,38.3449915,0 -85.785298,38.344935,0 -85.785922,38.344896,0 -85.78623399999999,38.344872,0 -85.786546,38.344853,0 -85.786861,38.344829,0 -85.787175,38.34481,0 -85.78748899999999,38.344786,0 -85.78780399999999,38.344767,0 -85.788118,38.344743,0 -85.788746,38.344705,0 -85.79261630000001,38.3444336,0 -85.7933149,38.3443788,0 -85.794162,38.344328,0 -85.79449,38.344309,0 -85.79481699999999,38.344285,0 -85.79514399999999,38.344266,0 -85.79546499999999,38.344242,0 -85.795798,38.344218,0 -85.796774,38.344156,0 -85.797752,38.34409,0 -85.798633,38.344029,0 -85.79905599999999,38.344,0 -85.799384,38.343967,0 -85.799708,38.343939,0 -85.80034999999999,38.34386,0 -85.800966,38.343758,0 -85.80126199999999,38.343702,0 -85.80155000000001,38.343638,0 -85.801832,38.343577,0 -85.802103,38.343508,0 -85.802369,38.343443,0 -85.802899,38.343291,0 -85.803166,38.343203,0 -85.803431,38.343112,0 -85.803481,38.343093,0 -85.803695,38.343015,0 -85.803898,38.342938,0 -85.804225,38.342809,0 -85.804489,38.342699,0 -85.80528200000001,38.342328,0 -85.80552,38.342218,0 -85.806534,38.341743,0 -85.806662,38.341685,0 -85.807225,38.34142,0 -85.807501,38.341288,0 -85.80777399999999,38.34116,0 -85.809375,38.340401,0 -85.810063,38.340077,0 -85.81075629999999,38.3397614,0 -85.812664,38.3388614,0 -85.8127855,38.3388032,0 -85.8132562,38.3385817,0 -85.8138519,38.3382996,0 -85.81670250000001,38.336952,0 -85.8169419,38.3368388,0 -85.8175389,38.3365564,0 -85.817826,38.336407,0 -85.818326,38.33617,0 -85.818687,38.336006,0 -85.81908300000001,38.335826,0 -85.82077,38.335026,0 -85.820915,38.334958,0 -85.821083,38.334878,0 -85.8216865,38.3345777,0 -85.8220778,38.3343833,0 -85.82256080000001,38.3341371,0 -85.823048,38.3338546,0 -85.8234281,38.3336128,0 -85.823953,38.333298,0 -85.823981,38.333279,0 -85.82450799999999,38.332925,0 -85.8253686,38.3323452,0 -85.8260191,38.3318997,0 -85.827597,38.330825,0 -85.83010899999999,38.329115,0 -85.83211609999999,38.3277485,0 -85.832368,38.327577,0 -85.83310400000001,38.327076,0 -85.834214,38.326318,0 -85.834459,38.32615,0 -85.834838,38.325891,0 -85.835821,38.325224,0 -85.836556,38.324718,0 -85.83678500000001,38.324536,0 -85.837028,38.324367,0 -85.837485,38.324011,0 -85.837703,38.323828,0 -85.837914,38.323641,0 -85.83811900000001,38.323449,0 -85.83827700000001,38.323294,0 -85.838319,38.323253,0 -85.83869799999999,38.322851,0 -85.83887799999999,38.322646,0 -85.83905,38.32244,0 -85.83921599999999,38.32223,0 -85.83953200000001,38.321801,0 -85.83968,38.321581,0 -85.83982,38.321362,0 -85.840084,38.320905,0 -85.84118100000001,38.318836,0 -85.8419969,38.3172339,0 -85.8422393,38.3167566,0 -85.8424454,38.3163818,0 -85.843389,38.314658,0 -85.84403,38.313443,0 -85.844194,38.313132,0 -85.84440650000001,38.3127785,0 -85.8446522,38.3123896,0 -85.8448295,38.3121158,0 -85.84502879999999,38.3118696,0 -85.845248,38.311606,0 -85.845418,38.311414,0 -85.8456063,38.3111957,0 -85.8460097,38.3108082,0 -85.84615700000001,38.310678,0 -85.84656,38.310332,0 -85.846766,38.310156,0 -85.84738,38.30964,0 -85.847992,38.309114,0 -85.848191,38.308936,0 -85.84828400000001,38.308843,0 -85.84838000000001,38.308748,0 -85.84866049999999,38.3084418,0 -85.848884,38.308163,0 -85.849029,38.307966,0 -85.849164,38.307769,0 -85.849288,38.307572,0 -85.84940400000001,38.307371,0 -85.84949709999999,38.3072134,0 -85.8495765,38.3070326,0 -85.849628,38.3068967,0 -85.8497093,38.3066845,0 -85.84982890000001,38.3064425,0 -85.850182,38.305612,0 -85.85069900000001,38.304319,0 -85.85079,38.304113,0 -85.85089000000001,38.303907,0 -85.85100199999999,38.303709,0 -85.85112700000001,38.303517,0 -85.85127900000001,38.303334,0 -85.851455,38.303164,0 -85.851648,38.302999,0 -85.851859,38.302848,0 -85.852084,38.302711,0 -85.852318,38.302591,0 -85.852574,38.302495,0 -85.85283099999999,38.302407,0 -85.853095,38.302342,0 -85.85336700000001,38.302295,0 -85.853641,38.302262,0 -85.853916,38.302237,0 -85.8551547,38.3021153,0 
				</coordinates>
			</LineString>
		<atom:link rel="app" href="https://www.google.com/earth/about/versions/#earth-pro" title="Google Earth Pro 7.3.6.10201"></atom:link>
	</Placemark>
</Document>
</kml>
