<?xml version="1.0" encoding="UTF-8"?>
<kml xmlns="http://www.opengis.net/kml/2.2" xmlns:gx="http://www.google.com/kml/ext/2.2" xmlns:kml="http://www.opengis.net/kml/2.2" xmlns:atom="http://www.w3.org/2005/Atom">
<Document>
	<name>I.465.kml</name>
	<Placemark>
		<name>I.465</name>
		<LineString>
			<coordinates>
				-86.12646909999999,39.7002758,0 -86.1243917,39.7006126,0 -86.1237441,39.7007176,0 -86.12274600000001,39.7008795,0 -86.1209628,39.70117,0 -86.119114,39.7014742,0 -86.1172869,39.7017719,0 -86.1163383,39.7019237,0 -86.114327,39.702235,0 -86.11394439999999,39.7022877,0 -86.113719,39.7023169,0 -86.1134936,39.702342,0 -86.1132621,39.70236,0 -86.1124734,39.7024146,0 -86.111799,39.7024549,0 -86.1115971,39.7024701,0 -86.11127639999999,39.7025108,0 -86.1109738,39.7025409,0 -86.1106712,39.7025792,0 -86.11018660000001,39.7026475,0 -86.1097073,39.7027199,0 -86.1094671,39.7027641,0 -86.1092269,39.7028125,0 -86.10875950000001,39.7029252,0 -86.1069498,39.7034209,0 -86.10539199999999,39.70382,0 -86.104904,39.703911,0 -86.10472799999999,39.703941,0 -86.104232,39.704,0 -86.103981,39.704025,0 -86.1037475,39.7040435,0 -86.103514,39.704062,0 -86.10319,39.704073,0 -86.10297300000001,39.704076,0 -86.10265510000001,39.704086,0 -86.10190729999999,39.7040614,0 -86.0988937,39.7039958,0 -86.09702679999999,39.703932,0 -86.09562699999999,39.703893,0 -86.0949968,39.7038879,0 -86.0932913,39.7038361,0 -86.092192,39.7038094,0 -86.0920675,39.7038064,0 -86.0919177,39.7038027,0 -86.0917912,39.7037996,0 -86.0895948,39.703728,0 -86.0887079,39.7037179,0 -86.0881773,39.7037081,0 -86.0818166,39.7035376,0 -86.0798977,39.7034887,0 -86.079624,39.7034803,0 -86.0789113,39.7034643,0 -86.0785106,39.7034614,0 -86.0780472,39.7034646,0 -86.0775709,39.7034705,0 -86.0771012,39.7034857,0 -86.07652179999999,39.7035146,0 -86.07617519999999,39.7035348,0 -86.0759439,39.7035488,0 -86.0749316,39.7036416,0 -86.07429399999999,39.7037104,0 -86.07310870000001,39.7038815,0 -86.072422,39.7040015,0 -86.07196500000001,39.7040883,0 -86.07150799999999,39.7041834,0 -86.07105369999999,39.7042846,0 -86.07059940000001,39.7043941,0 -86.07019270000001,39.7044979,0 -86.0697861,39.7046099,0 -86.0693795,39.7047218,0 -86.0689782,39.7048421,0 -86.06858630000001,39.704962,0 -86.0681998,39.7050902,0 -86.0678186,39.7052184,0 -86.0674375,39.705359,0 -86.0670075,39.7055152,0 -86.06658830000001,39.7056797,0 -86.066169,39.7058503,0 -86.0657605,39.7060292,0 -86.0653425,39.7062124,0 -86.06494600000001,39.7063996,0 -86.0645468,39.706591,0 -86.064153,39.7067906,0 -86.06376160000001,39.7069957,0 -86.0633756,39.707209,0 -86.0629976,39.7074244,0 -86.0626196,39.7076522,0 -86.0622467,39.7078816,0 -86.06188450000001,39.7081109,0 -86.06152229999999,39.7083486,0 -86.06117620000001,39.7085903,0 -86.06081469999999,39.7088456,0 -86.0604639,39.709105,0 -86.0601238,39.7093706,0 -86.0597891,39.7096403,0 -86.0595417,39.7098422,0 -86.0592587,39.7100822,0 -86.05880740000001,39.7104852,0 -86.05861489999999,39.7106648,0 -86.058533,39.7107433,0 -86.0584132,39.7108583,0 -86.0583304,39.7109377,0 -86.05676200000001,39.7124623,0 -86.0564136,39.7128039,0 -86.0562425,39.7129772,0 -86.055065,39.714129,0 -86.05399800000001,39.715166,0 -86.05386799999999,39.715295,0 -86.05373899999999,39.715425,0 -86.05361000000001,39.715559,0 -86.053482,39.715689,0 -86.053314,39.715868,0 -86.053146,39.716042,0 -86.052836,39.716377,0 -86.052694,39.716538,0 -86.052532,39.716717,0 -86.05237200000001,39.716901,0 -86.05221400000001,39.717079,0 -86.05205599999999,39.717263,0 -86.051766,39.717607,0 -86.051613,39.717795,0 -86.05148,39.717956,0 -86.05132999999999,39.718144,0 -86.051036,39.71852,0 -86.050873,39.718731,0 -86.0506123,39.7190909,0 -86.0501635,39.7197216,0 -86.0498995,39.720103,0 -86.0496059,39.7205436,0 -86.0493244,39.7209824,0 -86.04902679999999,39.7214602,0 -86.0487802,39.7218731,0 -86.0485911,39.7221988,0 -86.0484075,39.7225246,0 -86.0482264,39.7228567,0 -86.0480508,39.7231889,0 -86.0477988,39.723681,0 -86.0475629,39.7241721,0 -86.047382,39.7245629,0 -86.04721720000001,39.7249165,0 -86.0470467,39.725251,0 -86.0467834,39.7258649,0 -86.04667019999999,39.7261898,0 -86.046412,39.726781,0 -86.0458914,39.7282504,0 -86.0452992,39.730016,0 -86.0450094,39.7309407,0 -86.0448846,39.7312985,0 -86.04429210000001,39.7331262,0 -86.0442054,39.7333628,0 -86.04407070000001,39.7337559,0 -86.0430758,39.736844,0 -86.0429702,39.7371056,0 -86.0427181,39.7379548,0 -86.0425844,39.738457,0 -86.04229530000001,39.739148,0 -86.0422295,39.7392949,0 -86.04202840000001,39.7397035,0 -86.04188499999999,39.73993,0 -86.04177,39.740136,0 -86.04165089999999,39.740368,0 -86.0415119,39.7405819,0 -86.0411321,39.7411379,0 -86.0401154,39.742472,0 -86.038811,39.7441832,0 -86.038419,39.7446735,0 -86.038138,39.745039,0 -86.0375727,39.7457774,0 -86.0373208,39.7461157,0 -86.03707199999999,39.7464337,0 -86.036666,39.7469678,0 -86.0360015,39.7478337,0 -86.0357667,39.7481759,0 -86.0350849,39.7490703,0 -86.0345969,39.7497061,0 -86.0341979,39.7502323,0 -86.0339699,39.750533,0 -86.03344679999999,39.7512168,0 -86.03330320000001,39.7513988,0 -86.03315720000001,39.7516017,0 -86.03237900000001,39.7526163,0 -86.0320827,39.7529696,0 -86.0317802,39.7533939,0 -86.0315251,39.7537408,0 -86.0313151,39.7540118,0 -86.0303816,39.7552362,0 -86.0302942,39.7553503,0 -86.0301317,39.7555663,0 -86.02988120000001,39.7559241,0 -86.0296762,39.7562421,0 -86.0294925,39.7565575,0 -86.0293719,39.7567842,0 -86.0292728,39.7569738,0 -86.02918200000001,39.7571646,0 -86.0290998,39.7573494,0 -86.0290213,39.7575294,0 -86.02892900000001,39.7577555,0 -86.0288606,39.7579461,0 -86.02879470000001,39.7581369,0 -86.02872069999999,39.7583721,0 -86.0286634,39.7585659,0 -86.0286144,39.7587596,0 -86.0285628,39.7589691,0 -86.0285161,39.7591952,0 -86.0284812,39.7594017,0 -86.02844810000001,39.7596203,0 -86.02842010000001,39.7598259,0 -86.0283991,39.7600458,0 -86.02838149999999,39.7602567,0 -86.02837510000001,39.7604955,0 -86.0283685,39.7607044,0 -86.0283665,39.7609116,0 -86.02838180000001,39.7612602,0 -86.0283992,39.7615166,0 -86.0284274,39.761773,0 -86.0284595,39.7619951,0 -86.028717,39.7636229,0 -86.029404,39.7679565,0 -86.02996539999999,39.7714978,0 -86.03013180000001,39.772633,0 -86.0301673,39.7728581,0 -86.03020189999999,39.7730772,0 -86.03059020000001,39.7754171,0 -86.03073430000001,39.7763235,0 -86.030824,39.7769009,0 -86.0308935,39.7772483,0 -86.0309427,39.7777742,0 -86.031217,39.779552,0 -86.03122949999999,39.7796312,0 -86.031288,39.780003,0 -86.03130299999999,39.780103,0 -86.0313214,39.7802145,0 -86.031413,39.780768,0 -86.031452,39.781005,0 -86.03155839999999,39.7816656,0 -86.031615,39.7820152,0 -86.03180399999999,39.783202,0 -86.031837,39.7834135,0 -86.0319133,39.7839017,0 -86.031958,39.784185,0 -86.03206,39.784884,0 -86.032067,39.784925,0 -86.032082,39.78502,0 -86.032122,39.78525,0 -86.032145,39.785367,0 -86.03217600000001,39.785525,0 -86.03221600000001,39.785705,0 -86.032258,39.785886,0 -86.032304,39.786067,0 -86.03234,39.786202,0 -86.03239000000001,39.786383,0 -86.032416,39.786473,0 -86.032472,39.786654,0 -86.032529,39.78683,0 -86.032605,39.787056,0 -86.032653,39.787187,0 -86.032685,39.787277,0 -86.032719,39.787363,0 -86.032771,39.787499,0 -86.03285099999999,39.787684,0 -86.03292399999999,39.787838,0 -86.03299699999999,39.7879986,0 -86.0330877,39.7881836,0 -86.0332033,39.7884134,0 -86.03334839999999,39.7886879,0 -86.033477,39.788933,0 -86.033492,39.788955,0 -86.03360600000001,39.789166,0 -86.034265,39.790385,0 -86.034775,39.7913358,0 -86.0348851,39.7915441,0 -86.03499909999999,39.7917915,0 -86.0350961,39.792025,0 -86.0351682,39.7922245,0 -86.0352314,39.7924108,0 -86.03528300000001,39.7925918,0 -86.0353238,39.792751,0 -86.0354028,39.7930344,0 -86.0354277,39.7931816,0 -86.03546369999999,39.7935007,0 -86.0354737,39.7936205,0 -86.0354804,39.793817,0 -86.03548410000001,39.7939649,0 -86.03548170000001,39.7941141,0 -86.0354675,39.79439,0 -86.0354435,39.7946018,0 -86.03541629999999,39.7947969,0 -86.0353877,39.7949936,0 -86.03535100000001,39.7952335,0 -86.0351952,39.7962296,0 -86.03516190000001,39.7964437,0 -86.03512910000001,39.7966575,0 -86.0350261,39.79735,0 -86.0350117,39.7974308,0 -86.03498930000001,39.797557,0 -86.0349549,39.7977749,0 -86.0349119,39.7980306,0 -86.03488489999999,39.7981781,0 -86.0348542,39.7983231,0 -86.03479040000001,39.7985519,0 -86.0347649,39.798634,0 -86.0347218,39.7987632,0 -86.0346667,39.7989223,0 -86.0346442,39.7989814,0 -86.03457760000001,39.7991587,0 -86.0345611,39.7991962,0 -86.0345071,39.799322,0 -86.0344551,39.7994333,0 -86.0343599,39.7996215,0 -86.0342587,39.7998054,0 -86.0341549,39.7999872,0 -86.034055,39.8001415,0 -86.0339525,39.8002938,0 -86.0338517,39.8004385,0 -86.0337328,39.8005891,0 -86.0336092,39.8007531,0 -86.03303409999999,39.8014943,0 -86.03280839999999,39.8017893,0 -86.0326635,39.8019861,0 -86.0324397,39.8023124,0 -86.0323008,39.8025344,0 -86.0321928,39.8027137,0 -86.0320669,39.8029396,0 -86.0319676,39.8031225,0 -86.0318298,39.803402,0 -86.0314551,39.8040622,0 -86.031409,39.8041911,0 -86.0313599,39.8043337,0 -86.0313108,39.8044783,0 -86.0312687,39.8046229,0 -86.0312227,39.8047689,0 -86.0311834,39.8049129,0 -86.0311445,39.8050573,0 -86.0311102,39.8052014,0 -86.0310747,39.8053484,0 -86.0310331,39.805543,0 -86.030992,39.805738,0 -86.03094369999999,39.8059819,0 -86.0309081,39.8061771,0 -86.0308655,39.8064245,0 -86.03083220000001,39.8066687,0 -86.03080370000001,39.8069131,0 -86.0307729,39.8071663,0 -86.0307517,39.8074151,0 -86.0307354,39.8076309,0 -86.0307243,39.8078174,0 -86.03071989999999,39.8080069,0 -86.0307164,39.8081533,0 -86.0307073,39.8084497,0 -86.0307104,39.8088923,0 -86.03071370000001,39.8092145,0 -86.0307167,39.8092497,0 -86.03071919999999,39.8095132,0 -86.0307335,39.8108288,0 -86.0307328,39.8109957,0 -86.03073139999999,39.8113129,0 -86.03074599999999,39.8121143,0 -86.0307553,39.8127427,0 -86.0307935,39.814274,0 -86.0307949,39.8144958,0 -86.030823,39.8163321,0 -86.0308356,39.8178805,0 -86.03084440000001,39.8185953,0 -86.0308567,39.8194447,0 -86.0308649,39.8204418,0 -86.0308951,39.8211731,0 -86.0309027,39.821765,0 -86.03090400000001,39.8218947,0 -86.03091139999999,39.8221087,0 -86.03092409999999,39.8223391,0 -86.03094350000001,39.8225624,0 -86.0309719,39.8227641,0 -86.0310009,39.8229904,0 -86.0310343,39.8231974,0 -86.0310798,39.8234287,0 -86.031132,39.8236499,0 -86.0311896,39.8238662,0 -86.03124459999999,39.8240779,0 -86.0313116,39.8242864,0 -86.0313814,39.8244965,0 -86.0314565,39.8247056,0 -86.0315169,39.824857,0 -86.03158259999999,39.8250188,0 -86.0316751,39.8252319,0 -86.0317697,39.8254321,0 -86.0319124,39.8257203,0 -86.03203910000001,39.8259488,0 -86.0327628,39.8272511,0 -86.03284549999999,39.827385,0 -86.0345183,39.8302618,0 -86.0354837,39.8319895,0 -86.035791,39.8325234,0 -86.03675130000001,39.8342148,0 -86.0373063,39.8351868,0 -86.03752900000001,39.8355695,0 -86.03800149999999,39.8364141,0 -86.03828729999999,39.836912,0 -86.03862460000001,39.8375005,0 -86.0390405,39.8382262,0 -86.03955550000001,39.8391362,0 -86.0397602,39.8394905,0 -86.039923,39.8397807,0 -86.04015819999999,39.8401872,0 -86.041336,39.842214,0 -86.0418688,39.8432222,0 -86.04228569999999,39.8438783,0 -86.04263419999999,39.8444861,0 -86.042789,39.844758,0 -86.0438506,39.8466146,0 -86.044021,39.846917,0 -86.044586,39.847899,0 -86.045175,39.848945,0 -86.04598900000001,39.850357,0 -86.04628959999999,39.8508951,0 -86.04635,39.851027,0 -86.0464176,39.8511683,0 -86.0464997,39.8513671,0 -86.0465804,39.8515937,0 -86.04662829999999,39.8517297,0 -86.0466783,39.8518923,0 -86.0467036,39.8520159,0 -86.04674660000001,39.852196,0 -86.04677529999999,39.852341,0 -86.046808,39.8525551,0 -86.046826,39.852693,0 -86.046835,39.852837,0 -86.04683799999999,39.852909,0 -86.046874,39.8550343,0 -86.04688400000001,39.8556729,0 -86.046916,39.858077,0 -86.04694000000001,39.859364,0 -86.04696199999999,39.860515,0 -86.0469842,39.8624452,0 -86.04699840000001,39.8629151,0 -86.0469938,39.8637762,0 -86.047009,39.8642736,0 -86.04700939999999,39.864737,0 -86.0470017,39.8652909,0 -86.04699410000001,39.8658328,0 -86.0469459,39.8669099,0 -86.0470048,39.8674158,0 -86.0470187,39.8677838,0 -86.04702140000001,39.8686102,0 -86.0470234,39.869055,0 -86.0470309,39.8699459,0 -86.04705420000001,39.8708528,0 -86.0470586,39.8713416,0 -86.04706419999999,39.8717245,0 -86.04707519999999,39.8721437,0 -86.04708189999999,39.8726611,0 -86.0470912,39.8731919,0 -86.0471088,39.8739886,0 -86.047111,39.8742852,0 -86.04712139999999,39.875233,0 -86.04713510000001,39.8757204,0 -86.0471387,39.8762708,0 -86.0471544,39.8772153,0 -86.0471608,39.8778229,0 -86.0471735,39.8787286,0 -86.04717909999999,39.8794061,0 -86.0471897,39.8800952,0 -86.0472022,39.8807346,0 -86.04721290000001,39.8814172,0 -86.0472192,39.8823344,0 -86.04722870000001,39.8832126,0 -86.0472311,39.8835073,0 -86.0472462,39.8842916,0 -86.047268,39.8848272,0 -86.04727819999999,39.8852352,0 -86.0473365,39.8858485,0 -86.0474215,39.8864439,0 -86.0475027,39.8868807,0 -86.0476453,39.887397,0 -86.0477515,39.8877526,0 -86.04788600000001,39.8881367,0 -86.04813470000001,39.8887749,0 -86.04833379999999,39.8892263,0 -86.0486123,39.8897408,0 -86.0487462,39.8899509,0 -86.0492402,39.8906913,0 -86.0497101,39.8913155,0 -86.0498336,39.8914696,0 -86.0500449,39.8917223,0 -86.0502127,39.8919154,0 -86.05040049999999,39.8921337,0 -86.05060810000001,39.892342,0 -86.05072010000001,39.8924577,0 -86.05103889999999,39.892765,0 -86.0512975,39.8930337,0 -86.0514245,39.8931534,0 -86.05155550000001,39.8932585,0 -86.0516583,39.8933264,0 -86.0518324,39.8934691,0 -86.052032,39.8936168,0 -86.0523094,39.8938317,0 -86.0525373,39.8939913,0 -86.0532379,39.8944705,0 -86.053831,39.8948301,0 -86.0543888,39.8952006,0 -86.05533200000001,39.895807,0 -86.0554877,39.8959157,0 -86.0560747,39.896277,0 -86.0564767,39.8965243,0 -86.0565891,39.8965935,0 -86.0571475,39.8969528,0 -86.0571779,39.8969724,0 -86.0575255,39.8971806,0 -86.0576882,39.8972936,0 -86.0582038,39.8976295,0 -86.0584989,39.897832,0 -86.05881549999999,39.8980507,0 -86.06034579999999,39.8990092,0 -86.0606537,39.8991882,0 -86.06126399999999,39.899584,0 -86.0614515,39.8997015,0 -86.061545,39.8997691,0 -86.062003,39.9000702,0 -86.0624468,39.9003548,0 -86.063035,39.9007021,0 -86.0632382,39.9008985,0 -86.0635456,39.9010931,0 -86.06428870000001,39.90157,0 -86.0646919,39.901829,0 -86.06553359999999,39.9023787,0 -86.06635489999999,39.9029848,0 -86.06801710000001,39.9040626,0 -86.0690781,39.9047187,0 -86.07247750000001,39.9069046,0 -86.0731533,39.9072521,0 -86.0733352,39.9073648,0 -86.0741877,39.9079203,0 -86.0751211,39.908547,0 -86.075484,39.9087559,0 -86.0762713,39.9091862,0 -86.07701350000001,39.9096587,0 -86.0778255,39.9101778,0 -86.0780129,39.9102995,0 -86.07875850000001,39.9107746,0 -86.07919099999999,39.9110512,0 -86.07962329999999,39.9113274,0 -86.079926,39.9115212,0 -86.0802379,39.9117171,0 -86.0803973,39.9118135,0 -86.0805931,39.9119284,0 -86.0807659,39.9120285,0 -86.080961,39.9121323,0 -86.0811159,39.9122108,0 -86.0812337,39.9122688,0 -86.08137859999999,39.9123408,0 -86.08156200000001,39.9124235,0 -86.08171230000001,39.9124935,0 -86.0818893,39.9125713,0 -86.0820478,39.9126332,0 -86.0822245,39.9127019,0 -86.0823796,39.9127636,0 -86.0825445,39.9128222,0 -86.0826428,39.912857,0 -86.0830631,39.9129941,0 -86.0834888,39.9131209,0 -86.0836401,39.9131668,0 -86.0844239,39.9134105,0 -86.0848355,39.913535,0 -86.08568080000001,39.913789,0 -86.08847129999999,39.9146026,0 -86.0905494,39.915206,0 -86.0925671,39.9157938,0 -86.0953798,39.9166166,0 -86.0957641,39.9167273,0 -86.0975917,39.9172577,0 -86.09967260000001,39.9178765,0 -86.1008549,39.9182195,0 -86.10476629999999,39.9193606,0 -86.1053024,39.919517,0 -86.1054841,39.91957,0 -86.10552,39.9195805,0 -86.1087417,39.9205,0 -86.11187510000001,39.9214155,0 -86.1126294,39.9216338,0 -86.11408900000001,39.92206,0 -86.119592,39.9236667,0 -86.1209207,39.9240749,0 -86.13060280000001,39.926899,0 -86.13922530000001,39.9294094,0 -86.13957069999999,39.9295065,0 -86.1398209,39.929578,0 -86.14037279999999,39.9297322,0 -86.1407973,39.9298353,0 -86.1412799,39.9299483,0 -86.141987,39.9300921,0 -86.1424327,39.9301663,0 -86.14289479999999,39.9302414,0 -86.14339029999999,39.9303127,0 -86.1438412,39.9303681,0 -86.1442593,39.9304119,0 -86.1447909,39.930461,0 -86.1452859,39.9304933,0 -86.14569729999999,39.9305148,0 -86.14613850000001,39.9305336,0 -86.1464692,39.930535,0 -86.14692770000001,39.9305398,0 -86.14835650000001,39.9304771,0 -86.1544537,39.9304339,0 -86.1576153,39.9304026,0 -86.15828569999999,39.9303937,0 -86.1614945,39.930355,0 -86.16547850000001,39.9303115,0 -86.167464,39.9303074,0 -86.16868169999999,39.9302939,0 -86.1693458,39.9302881,0 -86.1700687,39.93027,0 -86.1711177,39.9302491,0 -86.17139450000001,39.930241,0 -86.17146649999999,39.9302375,0 -86.17164699999999,39.9302288,0 -86.1717929,39.9302188,0 -86.1720078,39.9301926,0 -86.1721647,39.9301757,0 -86.172405,39.9301479,0 -86.17267579999999,39.9301063,0 -86.17287589999999,39.930075,0 -86.17307719999999,39.93004,0 -86.1733515,39.9299788,0 -86.17367609999999,39.9298963,0 -86.1740963,39.9297819,0 -86.1743501,39.9296965,0 -86.1745626,39.9296198,0 -86.1746816,39.9295783,0 -86.1750849,39.9294116,0 -86.17527029999999,39.9293299,0 -86.1755349,39.9292025,0 -86.17567889999999,39.9291254,0 -86.1757988,39.9290659,0 -86.1758628,39.9290286,0 -86.17627969999999,39.9287795,0 -86.1763794,39.9287201,0 -86.17674580000001,39.9284868,0 -86.17729679999999,39.9280508,0 -86.1785964,39.9269802,0 -86.1793062,39.9264082,0 -86.17947839999999,39.9262762,0 -86.1797007,39.9261186,0 -86.1799298,39.9259711,0 -86.18016679999999,39.9258251,0 -86.1803803,39.9257024,0 -86.18055099999999,39.9256103,0 -86.1807183,39.9255277,0 -86.1808887,39.9254458,0 -86.1810691,39.9253657,0 -86.1812444,39.9252937,0 -86.18150420000001,39.9251897,0 -86.1817549,39.9250996,0 -86.1820197,39.9250133,0 -86.18235749999999,39.9249171,0 -86.182692,39.9248336,0 -86.18299140000001,39.9247708,0 -86.18337529999999,39.9247013,0 -86.18371519999999,39.9246516,0 -86.183955,39.924619,0 -86.18426100000001,39.92459,0 -86.18446,39.924578,0 -86.184658,39.92457,0 -86.184736,39.924566,0 -86.18485699999999,39.924567,0 -86.185761,39.924555,0 -86.192733,39.924437,0 -86.1937246,39.9244217,0 -86.19895,39.924336,0 -86.2034438,39.924252,0 -86.205005,39.9242269,0 -86.2065805,39.9241991,0 -86.2088059,39.9241596,0 -86.2109849,39.9241216,0 -86.2122942,39.9240998,0 -86.213554,39.924082,0 -86.2146,39.92406,0 -86.217039,39.924009,0 -86.21853369999999,39.9239942,0 -86.22020000000001,39.923967,0 -86.220392,39.9239639,0 -86.221394,39.923948,0 -86.2224812,39.9239273,0 -86.223887,39.923902,0 -86.2254853,39.9238742,0 -86.22819680000001,39.9238271,0 -86.22848310000001,39.9238229,0 -86.2287652,39.9238186,0 -86.2303065,39.9237922,0 -86.2313329,39.9237706,0 -86.23461,39.9237152,0 -86.23922399999999,39.923621,0 -86.2408054,39.9236078,0 -86.2411438,39.923601,0 -86.2414136,39.9236026,0 -86.2417129,39.9236105,0 -86.2419817,39.9236249,0 -86.2422703,39.9236457,0 -86.2425575,39.9236738,0 -86.24283560000001,39.9237016,0 -86.24312209999999,39.9237369,0 -86.24340479999999,39.9237792,0 -86.2436821,39.9238257,0 -86.24402000000001,39.9238883,0 -86.24434460000001,39.9239563,0 -86.2446748,39.9240324,0 -86.2449465,39.9241027,0 -86.2483922,39.9249929,0 -86.24998720000001,39.925405,0 -86.2502705,39.9254784,0 -86.25068659999999,39.9255861,0 -86.2510944,39.9256917,0 -86.25139179999999,39.9257687,0 -86.2548831,39.9266599,0 -86.25595850000001,39.9269565,0 -86.2562035,39.9270198,0 -86.2565531,39.9271151,0 -86.2568587,39.9272045,0 -86.2574463,39.9273694,0 -86.25856949999999,39.9276841,0 -86.25961909999999,39.927974,0 -86.2601064,39.9281076,0 -86.2605052,39.9282158,0 -86.26074629999999,39.928291,0 -86.2612967,39.9284413,0 -86.2615086,39.9285012,0 -86.261757,39.9285768,0 -86.26192760000001,39.9286317,0 -86.26211170000001,39.9286961,0 -86.262308,39.9287745,0 -86.2625091,39.9288642,0 -86.26266870000001,39.9289383,0 -86.2628132,39.9290169,0 -86.2630127,39.9291332,0 -86.2633716,39.9293634,0 -86.26401629999999,39.9297989,0 -86.2642127,39.9299316,0 -86.2643478,39.9300217,0 -86.264482,39.9301023,0 -86.2646117,39.9301743,0 -86.2648049,39.9302626,0 -86.26496880000001,39.9303287,0 -86.2651498,39.9303856,0 -86.26532280000001,39.9304293,0 -86.2654883,39.9304645,0 -86.2656805,39.9304945,0 -86.26588479999999,39.9305189,0 -86.2660698,39.9305287,0 -86.2662227,39.9305288,0 -86.2664188,39.93052,0 -86.26657609999999,39.930509,0 -86.2667378,39.9304899,0 -86.2668827,39.9304645,0 -86.26704839999999,39.9304278,0 -86.26719370000001,39.930388,0 -86.2673095,39.9303512,0 -86.26742280000001,39.9303111,0 -86.2675328,39.9302689,0 -86.2676258,39.9302296,0 -86.267732,39.930179,0 -86.2678583,39.9301139,0 -86.2679729,39.9300514,0 -86.2681034,39.9299648,0 -86.2683818,39.9297359,0 -86.2684862,39.9296415,0 -86.26857320000001,39.9295426,0 -86.2686381,39.9294688,0 -86.26870820000001,39.9293764,0 -86.26876590000001,39.9292817,0 -86.26889749999999,39.9290382,0 -86.268945,39.9289223,0 -86.26898129999999,39.9288166,0 -86.2690193,39.9286791,0 -86.2690379,39.9285825,0 -86.2690516,39.9284751,0 -86.2690569,39.9283613,0 -86.2690527,39.9282563,0 -86.26904620000001,39.9281567,0 -86.2690364,39.9280536,0 -86.2690186,39.9279431,0 -86.2689824,39.9278056,0 -86.2688764,39.9274274,0 -86.26863109999999,39.9267268,0 -86.2684452,39.9261892,0 -86.2683723,39.9259657,0 -86.26831850000001,39.9257521,0 -86.26828209999999,39.9255406,0 -86.2682543,39.9253163,0 -86.2682468,39.9250901,0 -86.2682504,39.9249618,0 -86.26826199999999,39.9247964,0 -86.268286,39.924601,0 -86.26832400000001,39.924412,0 -86.268367,39.924241,0 -86.2685645,39.9236049,0 -86.2692153,39.9214729,0 -86.26939729999999,39.9209063,0 -86.2695421,39.9203471,0 -86.26966950000001,39.9196922,0 -86.2697565,39.9191643,0 -86.26982150000001,39.918484,0 -86.2698249,39.9176354,0 -86.269828,39.917074,0 -86.269834,39.916114,0 -86.269831,39.914781,0 -86.2698312,39.9137024,0 -86.2698479,39.9133434,0 -86.2698508,39.912579,0 -86.2698573,39.9108849,0 -86.26985449999999,39.9102908,0 -86.26985790000001,39.9096798,0 -86.2698656,39.9075174,0 -86.2698659,39.9051226,0 -86.2698674,39.9046874,0 -86.2698755,39.9017958,0 -86.26992129999999,39.9004643,0 -86.2699245,39.8992979,0 -86.2699276,39.8984173,0 -86.2699274,39.8981717,0 -86.2699176,39.8961705,0 -86.26991,39.8958712,0 -86.2698893,39.8952244,0 -86.2698516,39.8943129,0 -86.26982649999999,39.8937821,0 -86.2697593,39.8922895,0 -86.2696914,39.890844,0 -86.26968220000001,39.8906345,0 -86.2696273,39.8893879,0 -86.2695721,39.8882042,0 -86.2695599,39.8879061,0 -86.26949310000001,39.8874194,0 -86.26933699999999,39.8839692,0 -86.26932410000001,39.8836569,0 -86.26930059999999,39.8830848,0 -86.26924080000001,39.8818037,0 -86.2692208,39.8813268,0 -86.26915080000001,39.8798696,0 -86.2690613,39.8779039,0 -86.2689599,39.87565,0 -86.2689878,39.8752539,0 -86.2688943,39.8729244,0 -86.2688608,39.872269,0 -86.268799,39.8710863,0 -86.2688107,39.8708277,0 -86.2688198,39.8706697,0 -86.26884579999999,39.8704849,0 -86.26887069999999,39.8703041,0 -86.2689082,39.8701297,0 -86.2689429,39.8699598,0 -86.269001,39.8697616,0 -86.26906580000001,39.8695675,0 -86.2691322,39.8693879,0 -86.2691997,39.869227,0 -86.2692866,39.8690415,0 -86.2693721,39.8688436,0 -86.2694671,39.8686812,0 -86.26956680000001,39.8685204,0 -86.2696888,39.8683308,0 -86.26979609999999,39.8681736,0 -86.2699131,39.8680101,0 -86.2700196,39.8678788,0 -86.2701417,39.8677262,0 -86.2702609,39.8675979,0 -86.2704166,39.8674395,0 -86.270532,39.8673219,0 -86.2706407,39.8672171,0 -86.27074210000001,39.867123,0 -86.27084739999999,39.8670263,0 -86.27153079999999,39.8663942,0 -86.27238730000001,39.8656218,0 -86.272828,39.865232,0 -86.27317499999999,39.8649344,0 -86.2738616,39.8643213,0 -86.2753574,39.8630433,0 -86.27572600000001,39.862705,0 -86.275779,39.86266,0 -86.27583,39.862611,0 -86.275904,39.862535,0 -86.275953,39.862486,0 -86.27600099999999,39.862436,0 -86.276093,39.862329,0 -86.276138,39.862279,0 -86.27618200000001,39.862226,0 -86.276246,39.862145,0 -86.2763321,39.8620303,0 -86.27639480000001,39.8619371,0 -86.2764603,39.8618363,0 -86.2765232,39.8617294,0 -86.2765697,39.8616555,0 -86.2766238,39.8615525,0 -86.27667510000001,39.8614516,0 -86.2767249,39.861346,0 -86.27677199999999,39.8612425,0 -86.27681579999999,39.8611363,0 -86.2768542,39.8610302,0 -86.2768878,39.8609244,0 -86.2769188,39.8608207,0 -86.2769526,39.8607096,0 -86.27698100000001,39.8606027,0 -86.27700280000001,39.8604912,0 -86.2770218,39.860386,0 -86.2770395,39.8602728,0 -86.27705280000001,39.8601632,0 -86.2770594,39.8600557,0 -86.2770666,39.8599428,0 -86.2770672,39.859833,0 -86.27706910000001,39.8597222,0 -86.2770642,39.859612,0 -86.27705659999999,39.8595038,0 -86.27704199999999,39.8593232,0 -86.2769212,39.8586746,0 -86.2768902,39.858273,0 -86.2766068,39.8566781,0 -86.27655179999999,39.8562052,0 -86.2765287,39.8559832,0 -86.2765041,39.8556559,0 -86.27649599999999,39.8555439,0 -86.2764779,39.8552906,0 -86.27646849999999,39.8551154,0 -86.276459,39.8548018,0 -86.2764497,39.8544326,0 -86.2764396,39.8539939,0 -86.27644050000001,39.8536892,0 -86.2763949,39.8519468,0 -86.2763844,39.8512722,0 -86.27635069999999,39.8496098,0 -86.27633710000001,39.8490033,0 -86.2763346,39.8488566,0 -86.2763475,39.8484088,0 -86.276298,39.8458121,0 -86.27626359999999,39.8441217,0 -86.2762163,39.8420297,0 -86.2762105,39.8417716,0 -86.2762075,39.8412747,0 -86.2761893,39.8405702,0 -86.27616879999999,39.8394969,0 -86.27615779999999,39.8389069,0 -86.2761352,39.8379674,0 -86.27612240000001,39.8374318,0 -86.2761062,39.8365896,0 -86.27606350000001,39.8345274,0 -86.27603259999999,39.8330851,0 -86.275954,39.830978,0 -86.2759373,39.8291097,0 -86.27592850000001,39.8286883,0 -86.27585209999999,39.8250433,0 -86.2758436,39.8245201,0 -86.2758365,39.8240824,0 -86.2758108,39.8225886,0 -86.2757378,39.8187551,0 -86.27576620000001,39.8181358,0 -86.2757319,39.8162852,0 -86.27572379999999,39.8158732,0 -86.2757203,39.8156834,0 -86.2756976,39.8147154,0 -86.2756826,39.8138623,0 -86.2756759,39.8133055,0 -86.2756186,39.8124176,0 -86.2755837,39.8106978,0 -86.2754759,39.8049689,0 -86.2754742,39.8048745,0 -86.27547,39.8046529,0 -86.2754274,39.8024428,0 -86.2754334,39.8020546,0 -86.2754583,39.8014927,0 -86.27544349999999,39.8009746,0 -86.2754369,39.8008659,0 -86.275407,39.80034,0 -86.2753932,39.799876,0 -86.2753282,39.7988933,0 -86.27521640000001,39.7979286,0 -86.274835,39.796377,0 -86.2745785,39.7954219,0 -86.27392089999999,39.7938283,0 -86.272564,39.7910518,0 -86.2720825,39.7900466,0 -86.2716691,39.7889815,0 -86.2713791,39.7880589,0 -86.2712251,39.7875304,0 -86.2710926,39.7870246,0 -86.2709739,39.7865302,0 -86.2708453,39.7858925,0 -86.2707958,39.7856207,0 -86.2707041,39.7851998,0 -86.27069090000001,39.7850983,0 -86.27064300000001,39.7847288,0 -86.2705721,39.7840159,0 -86.27054529999999,39.7836129,0 -86.27050920000001,39.7824032,0 -86.2704774,39.779891,0 -86.2704447,39.7768894,0 -86.270428,39.776225,0 -86.2703989,39.7756231,0 -86.2703681,39.7752889,0 -86.270314,39.7747713,0 -86.2702247,39.7740852,0 -86.2701335,39.7735617,0 -86.2700902,39.7733396,0 -86.27002880000001,39.773065,0 -86.26987920000001,39.7724008,0 -86.26973460000001,39.7718752,0 -86.26964049999999,39.7715526,0 -86.2694619,39.7709734,0 -86.2691794,39.7701947,0 -86.2687073,39.7690564,0 -86.26783589999999,39.7670366,0 -86.2668827,39.7648287,0 -86.2665971,39.7641522,0 -86.2662296,39.7632801,0 -86.2660781,39.7629069,0 -86.2659192,39.7624938,0 -86.2657811,39.7621103,0 -86.265657,39.7617482,0 -86.2656032,39.7615767,0 -86.2655639,39.7614708,0 -86.2654356,39.7610347,0 -86.2654022,39.7608966,0 -86.26528140000001,39.7604244,0 -86.26518489999999,39.7600141,0 -86.26509900000001,39.7596141,0 -86.26503409999999,39.7592845,0 -86.2649724,39.7589113,0 -86.2649201,39.7585721,0 -86.2648786,39.7582587,0 -86.2648362,39.757878,0 -86.26480669999999,39.7575047,0 -86.2647705,39.7569676,0 -86.264753,39.756479,0 -86.264745,39.7559449,0 -86.264741,39.7551891,0 -86.2647346,39.7541064,0 -86.2647358,39.7533004,0 -86.2647295,39.752102,0 -86.2647199,39.7486553,0 -86.26471600000001,39.74813,0 -86.2646925,39.7443368,0 -86.26469760000001,39.7440032,0 -86.2646993,39.7435131,0 -86.26469729999999,39.7430453,0 -86.26469609999999,39.7426897,0 -86.2647396,39.741939,0 -86.26472459999999,39.7395903,0 -86.26471050000001,39.7350429,0 -86.2646659,39.7344276,0 -86.26463649999999,39.7258067,0 -86.2646745,39.725135,0 -86.2646642,39.7221943,0 -86.2646256,39.7210613,0 -86.2646178,39.7206296,0 -86.2646211,39.7203482,0 -86.2646159,39.7197227,0 -86.2646106,39.7181272,0 -86.26460659999999,39.7177277,0 -86.2646063,39.7170716,0 -86.2645995,39.7157122,0 -86.26459730000001,39.7149715,0 -86.2646113,39.7127815,0 -86.2646051,39.7116793,0 -86.2646046,39.7110048,0 -86.264568,39.7094868,0 -86.264556,39.7090012,0 -86.2645569,39.708807,0 -86.2645605,39.7085923,0 -86.26456570000001,39.7080106,0 -86.2645569,39.7070762,0 -86.264588,39.7067439,0 -86.2645705,39.7065896,0 -86.26455609999999,39.706438,0 -86.26453359999999,39.7062884,0 -86.26451110000001,39.7061317,0 -86.2644806,39.7059852,0 -86.2644207,39.7057553,0 -86.2643327,39.70548,0 -86.26421449999999,39.7051817,0 -86.2640802,39.7048875,0 -86.263943,39.7046327,0 -86.2639047,39.7045639,0 -86.2637197,39.7042631,0 -86.2635133,39.7039665,0 -86.2632827,39.7036719,0 -86.2630468,39.7033897,0 -86.26284149999999,39.7031762,0 -86.2626344,39.7029811,0 -86.2623514,39.7027355,0 -86.26197740000001,39.7024394,0 -86.2616953,39.7022242,0 -86.2614294,39.7020232,0 -86.2612676,39.7019008,0 -86.2611083,39.7017804,0 -86.26096200000001,39.7016698,0 -86.2608585,39.7015937,0 -86.257644,39.6991635,0 -86.2565334,39.6983246,0 -86.2557884,39.6977642,0 -86.2553599,39.6974573,0 -86.254918,39.6971566,0 -86.2543865,39.6968147,0 -86.2538373,39.6964754,0 -86.2532788,39.6961519,0 -86.2527128,39.6958371,0 -86.25214459999999,39.6955422,0 -86.2515576,39.6952531,0 -86.2509689,39.6949769,0 -86.25037260000001,39.6947123,0 -86.2499626,39.6945396,0 -86.24955249999999,39.6943711,0 -86.2491565,39.6942048,0 -86.24874269999999,39.6940455,0 -86.248319,39.6938919,0 -86.24791430000001,39.6937429,0 -86.24744440000001,39.6935869,0 -86.2471608,39.6934934,0 -86.24676169999999,39.6933731,0 -86.24619180000001,39.6932234,0 -86.2459085,39.6931454,0 -86.2453872,39.6929943,0 -86.24490160000001,39.692878,0 -86.2444284,39.6927742,0 -86.2439624,39.692682,0 -86.2434382,39.6925789,0 -86.2429068,39.6924839,0 -86.24254860000001,39.6924248,0 -86.24213260000001,39.6923578,0 -86.2415651,39.6922822,0 -86.24110760000001,39.6922267,0 -86.24065710000001,39.6921694,0 -86.2394249,39.6920533,0 -86.239248,39.6920147,0 -86.2356226,39.6920283,0 -86.2342549,39.6920234,0 -86.2339113,39.6920233,0 -86.2325099,39.6920231,0 -86.2323841,39.6920239,0 -86.23220980000001,39.692025,0 -86.23209180000001,39.6920258,0 -86.2303639,39.692026,0 -86.2284937,39.6920195,0 -86.2253178,39.6920113,0 -86.22435950000001,39.6920123,0 -86.2242189,39.6920125,0 -86.22386090000001,39.6920129,0 -86.2233976,39.6920135,0 -86.2229406,39.6920141,0 -86.2224784,39.6920146,0 -86.2220054,39.6920152,0 -86.22154999999999,39.6920158,0 -86.2211892,39.6920162,0 -86.2210527,39.6920164,0 -86.22014830000001,39.6920126,0 -86.219757,39.6920211,0 -86.2184355,39.6920119,0 -86.2157127,39.6920216,0 -86.2151666,39.6920226,0 -86.21353089999999,39.6920257,0 -86.21206410000001,39.6920212,0 -86.21173039999999,39.6920202,0 -86.2106544,39.6920426,0 -86.2089934,39.6920884,0 -86.2075018,39.6921192,0 -86.2065597,39.6921479,0 -86.2059704,39.6921501,0 -86.2053185,39.6921702,0 -86.20450839999999,39.6922045,0 -86.20394949999999,39.6922486,0 -86.2032227,39.6923076,0 -86.2022516,39.692415,0 -86.2014776,39.6925161,0 -86.2005451,39.692642,0 -86.19976389999999,39.6927584,0 -86.1989835,39.6928783,0 -86.1983927,39.6929825,0 -86.1977929,39.6930967,0 -86.1967482,39.6933013,0 -86.1959909,39.6934506,0 -86.195196,39.6936264,0 -86.1948847,39.6937094,0 -86.19407,39.6939141,0 -86.1919733,39.694448,0 -86.1909423,39.6947218,0 -86.18995839999999,39.6949768,0 -86.18858729999999,39.6953346,0 -86.1878688,39.6955237,0 -86.1869497,39.695768,0 -86.1868212,39.6957996,0 -86.1866662,39.6958378,0 -86.18643830000001,39.695894,0 -86.1862952,39.6959291,0 -86.1848744,39.6962679,0 -86.18434240000001,39.6963964,0 -86.18276760000001,39.696785,0 -86.1814298,39.697105,0 -86.17867579999999,39.6978036,0 -86.1776405,39.6980778,0 -86.1774618,39.6981231,0 -86.17731120000001,39.6981644,0 -86.177134,39.6982079,0 -86.1760945,39.6984825,0 -86.1754815,39.6986444,0 -86.17510830000001,39.6987363,0 -86.1737017,39.6990975,0 -86.17319980000001,39.6992196,0 -86.1724577,39.699419,0 -86.1723324,39.6994539,0 -86.1720698,39.6995259,0 -86.1719325,39.6995603,0 -86.1710013,39.6997929,0 -86.1701716,39.7000001,0 -86.16958200000001,39.700134,0 -86.16891459999999,39.7003002,0 -86.1687422,39.7003431,0 -86.1666239,39.7008954,0 -86.16625980000001,39.7009899,0 -86.16589569999999,39.7010762,0 -86.1655263,39.7011521,0 -86.1651461,39.7012198,0 -86.16475149999999,39.7012745,0 -86.164357,39.7013168,0 -86.1639624,39.7013508,0 -86.1635678,39.7013724,0 -86.163308,39.7013784,0 -86.1630483,39.7013802,0 -86.1627912,39.7013779,0 -86.1625341,39.7013673,0 -86.1622783,39.7013547,0 -86.16201719999999,39.7013338,0 -86.16175869999999,39.7013088,0 -86.1615056,39.7012796,0 -86.1612351,39.701244,0 -86.16096450000001,39.7012001,0 -86.160702,39.7011521,0 -86.16042330000001,39.7010959,0 -86.15989829999999,39.7009896,0 -86.1593732,39.700875,0 -86.1585343,39.7006981,0 -86.1584106,39.7006726,0 -86.1582585,39.7006411,0 -86.1581111,39.7006106,0 -86.157983,39.7005841,0 -86.15453789999999,39.6998787,0 -86.1541938,39.6997881,0 -86.1529713,39.6995423,0 -86.15173799999999,39.69928,0 -86.14989060000001,39.6988349,0 -86.14569899999999,39.6980218,0 -86.14542470000001,39.6979645,0 -86.1452171,39.697927,0 -86.14500820000001,39.6978927,0 -86.1448024,39.6978623,0 -86.1445927,39.6978351,0 -86.1444529,39.6978192,0 -86.14431,39.6978047,0 -86.14408280000001,39.6977817,0 -86.1437482,39.6977603,0 -86.1434656,39.6977475,0 -86.1429148,39.6977388,0 -86.1425429,39.6977492,0 -86.1423442,39.6977579,0 -86.1422372,39.6977624,0 -86.1421302,39.6977689,0 -86.1419807,39.6977793,0 -86.1418326,39.6977907,0 -86.1417239,39.6978005,0 -86.1416138,39.6978114,0 -86.141402,39.6978332,0 -86.1410542,39.69788,0 -86.13982799999999,39.698075,0 -86.13931700000001,39.698166,0 -86.1391761,39.6981889,0 -86.1373993,39.6984783,0 -86.13544829999999,39.6988084,0 -86.1318806,39.6993898,0 -86.1300621,39.6996888,0 -86.127011,39.7001856,0 -86.1268505,39.7002123,0 -86.1266232,39.7002502,0 -86.12646909999999,39.7002758,0 
			</coordinates>
		</LineString>
		<atom:link rel="app" href="https://www.google.com/earth/about/versions/#earth-pro" title="Google Earth Pro 7.3.6.10201"></atom:link>
	</Placemark>
</Document>
</kml>
