<?xml version="1.0" encoding="UTF-8"?>
<kml xmlns="http://www.opengis.net/kml/2.2" xmlns:gx="http://www.google.com/kml/ext/2.2" xmlns:kml="http://www.opengis.net/kml/2.2" xmlns:atom="http://www.w3.org/2005/Atom">
<Document>
	<name>I.695.DC.kml</name>
	<Placemark>
		<name>I.695.DC</name>
		<LineString>
			<coordinates>
				-76.9916363,38.865939,0 -76.99145729999999,38.86622,0 -76.9910407,38.8667679,0 -76.990477,38.8674936,0 -76.9902154,38.8678063,0 -76.9896645,38.868325,0 -76.98942359999999,38.8685267,0 -76.98872679999999,38.8690576,0 -76.9885355,38.8692282,0 -76.988415,38.8693985,0 -76.98832710000001,38.8695523,0 -76.9882654,38.8697848,0 -76.9882527,38.8699493,0 -76.9882616,38.8700798,0 -76.9882996,38.8702192,0 -76.9884009,38.8704421,0 -76.9884677,38.8705434,0 -76.9885397,38.8706365,0 -76.98863559999999,38.8707518,0 -76.9887181,38.8708519,0 -76.9888488,38.8710593,0 -76.98943559999999,38.8717599,0 -76.9900196,38.8724689,0 -76.9901685,38.8726527,0 -76.9902965,38.8728035,0 -76.9903245,38.8728419,0 -76.99049909999999,38.8730839,0 -76.9906139,38.8732866,0 -76.9907058,38.8734929,0 -76.99083570000001,38.8737458,0 -76.99093360000001,38.8740758,0 -76.9909684,38.8742804,0 -76.99099219999999,38.8744411,0 -76.9909923,38.874556,0 -76.9909895,38.8747016,0 -76.9909761,38.8749443,0 -76.99093860000001,38.8752471,0 -76.9909117,38.8753995,0 -76.9908447,38.8759383,0 -76.99079570000001,38.8763162,0 -76.9907504,38.8766504,0 -76.99073850000001,38.8767664,0 -76.9907324,38.8768774,0 -76.9907331,38.8769836,0 -76.9907515,38.8770955,0 -76.9907729,38.8772011,0 -76.99080960000001,38.8772903,0 -76.9908598,38.8773853,0 -76.9909011,38.8774573,0 -76.9909821,38.8775623,0 -76.99105969999999,38.8776474,0 -76.99114950000001,38.8777344,0 -76.9912733,38.8778292,0 -76.9913839,38.8778949,0 -76.9915048,38.8779587,0 -76.9916351,38.8780097,0 -76.99176869999999,38.8780536,0 -76.9918854,38.8780869,0 -76.99203369999999,38.8781253,0 -76.9925586,38.8782537,0 -76.99298159999999,38.8783492,0 -76.9947672,38.8787436,0 -76.99638539999999,38.8790971,0 -76.99674469999999,38.8791855,0 -76.9971925,38.8792892,0 -76.9984949,38.8796306,0 -76.9988733,38.8797422,0 -77.0000762,38.8800737,0 -77.0003971,38.8801619,0 -77.00075649999999,38.8802669,0 -77.00185399999999,38.8805743,0 -77.0022747,38.8806894,0 -77.0024975,38.8807487,0 -77.002692,38.8807974,0 -77.0028665,38.8808344,0 -77.0030371,38.8808673,0 -77.0032276,38.8808947,0 -77.0033912,38.8809149,0 -77.00363950000001,38.8809385,0 -77.0038541,38.8809539,0 -77.00437669999999,38.8809665,0 -77.0050827,38.8809787,0 -77.00539809999999,38.8809869,0 -77.0057448,38.8809951,0 -77.0060691,38.8810074,0 -77.0066752,38.8810842,0 -77.0069603,38.8811338,0 -77.0072345,38.8811966,0 -77.0077612,38.8813129,0 -77.0107555,38.8821513,0 -77.0109956,38.8822164,0 -77.0111351,38.8822508,0 -77.0112824,38.882286,0 -77.0114209,38.8823156,0 -77.0115625,38.8823452,0 -77.01171170000001,38.8823735,0 -77.0118392,38.8823955,0 -77.01200300000001,38.8824212,0 -77.0121405,38.8824389,0 -77.0122846,38.8824583,0 -77.0124347,38.8824719,0 -77.01258350000001,38.8824842,0 -77.01272729999999,38.88249,0 -77.0129015,38.8824935,0 -77.01302560000001,38.8824945,0 -77.01508320000001,38.8825086,0 -77.0158508,38.8825364,0 
			</coordinates>
		</LineString>
		<atom:link rel="app" href="https://www.google.com/earth/about/versions/#earth-pro" title="Google Earth Pro 7.3.6.10201"></atom:link>
	</Placemark>
</Document>
</kml>
