<?xml version="1.0" encoding="UTF-8"?>
<kml xmlns="http://www.opengis.net/kml/2.2" xmlns:gx="http://www.google.com/kml/ext/2.2" xmlns:kml="http://www.opengis.net/kml/2.2" xmlns:atom="http://www.w3.org/2005/Atom">
<Document>
	<name>I.69C.kml</name>
	<Placemark>
		<name>I.69C</name>
		<LineString>
			<coordinates>
				-98.1812817,26.2105843,0 -98.18114769999998,26.2121132,0 -98.180983,26.2138696,0 -98.18084509999998,26.2151204,0 -98.18031900000001,26.2181326,0 -98.18025040000001,26.2184898,0 -98.1800916,26.2193111,0 -98.1799674,26.2200531,0 -98.17961,26.2221939,0 -98.1795675,26.2224506,0 -98.1793405,26.2237994,0 -98.1787772,26.2272808,0 -98.1778223,26.2328725,0 -98.17770549999999,26.2336943,0 -98.17751350000002,26.2348782,0 -98.1764223,26.2412216,0 -98.1760968,26.2432693,0 -98.1759417,26.24417,0 -98.17576670000001,26.2451789,0 -98.17557229999998,26.2461863,0 -98.175264,26.2472957,0 -98.17500979999998,26.24795930000001,0 -98.1748688,26.2483271,0 -98.17442579999999,26.2492056,0 -98.1741004,26.2497013,0 -98.17373739999999,26.2501983,0 -98.1727482,26.2513778,0 -98.17213080000001,26.2520682,0 -98.171188,26.25315,0 -98.166487,26.258349,0 -98.1656517,26.2592246,0 -98.1644306,26.2605568,0 -98.16395319999999,26.261125,0 -98.16250350000001,26.2627207,0 -98.15970249999998,26.2658849,0 -98.1580975,26.2676398,0 -98.1556427,26.270349,0 -98.1553098,26.2707215,0 -98.15426330000001,26.2718457,0 -98.1537917,26.2723522,0 -98.152693,26.2736239,0 -98.1522765,26.274155,0 -98.1520883,26.2744323,0 -98.15159149999999,26.2752363,0 -98.1510079,26.2764061,0 -98.1507075,26.27722959999999,0 -98.15054050000001,26.2779227,0 -98.150141,26.2802002,0 -98.1496003,26.2834248,0 -98.149467,26.2841314,0 -98.14935550000001,26.2849141,0 -98.14914450000002,26.2860425,0 -98.1486982,26.2883665,0 -98.1485265,26.2895054,0 -98.14818750000001,26.291453,0 -98.14802229999999,26.2922086,0 -98.1478702,26.2932398,0 -98.1474003,26.2960096,0 -98.146879,26.298761,0 -98.1467358,26.2995813,0 -98.14655770000002,26.3005363,0 -98.14627,26.3028779,0 -98.1459782,26.30444749999999,0 -98.14580650000001,26.3056632,0 -98.14578529999999,26.3064183,0 -98.14579430000002,26.3067178,0 -98.1458366,26.3076175,0 -98.14592589999999,26.3085224,0 -98.14604920000001,26.3094876,0 -98.14609810000002,26.3104122,0 -98.14612409999998,26.3106413,0 -98.14619070000001,26.3111189,0 -98.1465104,26.3134102,0 -98.1466006,26.3139404,0 -98.1467933,26.3154082,0 -98.14687750000002,26.3160497,0 -98.14706099999998,26.3174403,0 -98.1472291,26.3191669,0 -98.1472878,26.3202457,0 -98.1472184,26.3213416,0 -98.14711999999999,26.3222607,0 -98.14700860000001,26.3229171,0 -98.1466811,26.3248249,0 -98.1459782,26.3283051,0 -98.14580650000001,26.3292821,0 -98.14539929999998,26.3317802,0 -98.14515419999999,26.3330284,0 -98.14509409999999,26.3337822,0 -98.1450684,26.3348361,0 -98.145055,26.3351559,0 -98.14509379999998,26.3357544,0 -98.1451371,26.3364591,0 -98.1452572,26.3371284,0 -98.14537739999999,26.3377745,0 -98.1454031,26.3379283,0 -98.14592570000002,26.3396986,0 -98.1461145,26.3401985,0 -98.1463205,26.3406677,0 -98.14641469999999,26.3408947,0 -98.14659519999999,26.3413292,0 -98.14684699999998,26.341899,0 -98.14705110000001,26.3423743,0 -98.1473,26.342905,0 -98.1475403,26.3435588,0 -98.1478836,26.3446049,0 -98.14804669999999,26.3451664,0 -98.1482184,26.3459201,0 -98.14826990000002,26.3464278,0 -98.14833,26.3471277,0 -98.1483128,26.347843,0 -98.1482164,26.3487127,0 -98.1480306,26.3498734,0 -98.1479246,26.3505355,0 -98.14784070000002,26.3509349,0 -98.1473562,26.3536965,0 -98.14727040000001,26.3541195,0 -98.1467897,26.356796,0 -98.1466781,26.3575112,0 -98.14632809999999,26.3594109,0 -98.1462166,26.36008,0 -98.14613069999999,26.3605952,0 -98.14598479999999,26.3614489,0 -98.14579599999999,26.3624025,0 -98.14550420000002,26.3641328,0 -98.14533249999999,26.3651941,0 -98.1452767,26.3655135,0 -98.1452038,26.3661861,0 -98.14518659999999,26.3666629,0 -98.145178,26.3680241,0 -98.14515230000001,26.3685932,0 -98.14508360000001,26.3692699,0 -98.14491189999998,26.3701388,0 -98.1445858,26.3720613,0 -98.14418740000001,26.3743546,0 -98.14398499999999,26.3754294,0 -98.14363160000001,26.3774712,0 -98.14362169999998,26.3775283,0 -98.1434871,26.3783053,0 -98.1430496,26.3808128,0 -98.142955,26.3812657,0 -98.142646,26.3829957,0 -98.1423006,26.3850476,0 -98.1422144,26.38556000000001,0 -98.14154700000002,26.389484,0 -98.1414468,26.3901908,0 -98.14111820000001,26.3921915,0 -98.1410534,26.3925833,0 -98.140835,26.3936292,0 -98.14081449999999,26.3937336,0 -98.14078359999999,26.3939198,0 -98.1407803,26.3939384,0 -98.14025100000002,26.3970937,0 -98.13985599999998,26.3994065,0 -98.13937439999998,26.4021889,0 -98.13928289999998,26.4028257,0 -98.139256,26.4031262,0 -98.13924010000001,26.4034455,0 -98.1392997,26.4060414,0 -98.13899230000001,26.4080079,0 -98.13862119999999,26.4100928,0 -98.13825749999999,26.4120384,0 -98.13786270000001,26.4134836,0 -98.1377167,26.4142062,0 -98.1373833,26.4162281,0 -98.1372928,26.416777,0 -98.13684979999999,26.4192641,0 -98.13631770000001,26.4223003,0 -98.13601800000001,26.4240979,0 -98.13594860000001,26.424514,0 -98.1358714,26.4249171,0 -98.1350867,26.4299501,0 -98.13496080000002,26.4307007,0 -98.1336731,26.4383799,0 -98.13324299999998,26.440944,0 -98.13302400000001,26.442163,0 -98.1328352,26.4435626,0 -98.13281580000002,26.4450731,0 -98.1329446,26.4465947,0 -98.1330304,26.4473555,0 -98.1331162,26.4482392,0 -98.1332106,26.4493305,0 -98.13331629999999,26.4504147,0 -98.13339479999999,26.4512194,0 -98.1334939,26.4522352,0 -98.13357970000001,26.4529038,0 -98.13383720000002,26.4552859,0 -98.13398309999999,26.4568305,0 -98.1340141,26.4573916,0 -98.13405179999999,26.4580753,0 
			</coordinates>
		</LineString>
		<atom:link rel="app" href="https://www.google.com/earth/about/versions/#earth-pro" title="Google Earth Pro 7.3.6.10201"></atom:link>
	</Placemark>
</Document>
</kml>
