<?xml version="1.0" encoding="UTF-8"?>
<kml xmlns="http://www.opengis.net/kml/2.2" xmlns:gx="http://www.google.com/kml/ext/2.2" xmlns:kml="http://www.opengis.net/kml/2.2" xmlns:atom="http://www.w3.org/2005/Atom">
<Document>
	<name>I.69W.kml</name>
	<Placemark>
		<name>I.69W</name>
		<LineString>
			<coordinates>
				-99.526286,27.6002853,0 -99.5255894,27.6001306,0 -99.5249166,27.5999834,0 -99.52447130000002,27.59989,0 -99.52415569999999,27.5998339,0 -99.52376390000001,27.5997823,0 -99.52332919999999,27.5997482,0 -99.52284160000001,27.5997295,0 -99.52230489999999,27.5997279,0 -99.52139400000002,27.5998321,0 -99.5207748,27.5999275,0 -99.52016879999999,27.6000699,0 -99.51969890000001,27.6002057,0 -99.51919179999999,27.6003877,0 -99.51823640000001,27.6007439,0 -99.5170193,27.6011922,0 -99.51616569999999,27.6015196,0 -99.51243620000001,27.6029776,0 -99.5108733,27.6035732,0 -99.5080328,27.6046607,0 -99.50693739999998,27.6050784,0 -99.50602309999999,27.6054439,0 -99.5039022,27.6062347,0 -99.50113309999999,27.6073062,0 -99.50073230000001,27.6074555,0 -99.5003165,27.6075923,0 -99.4999614,27.6076932,0 -99.4994348,27.6078014,0 -99.49904090000001,27.6078661,0 -99.49861559999999,27.6079074,0 -99.4982153,27.6079372,0 -99.4976264,27.607949,0 -99.4971352,27.6079304,0 -99.496786,27.6079062,0 -99.49631870000002,27.6078571,0 -99.49583710000002,27.6077718,0 -99.49538400000002,27.6076723,0 -99.493499,27.6072302,0 -99.49280659999998,27.6070645,0 -99.49077750000001,27.6065969,0 -99.49000409999999,27.6064259,0 -99.48977240000002,27.6063771,0 -99.4896172,27.6063473,0 -99.4894139,27.6063108,0 -99.489323,27.6062953,0 -99.48912110000001,27.6062676,0 -99.488968,27.6062452,0 -99.4886958,27.6062111,0 -99.48835080000002,27.6061832,0 -99.48796250000001,27.6061632,0 -99.48764660000001,27.6061569,0 -99.4874727,27.6061577,0 -99.4872209,27.6061648,0 -99.48693419999999,27.606176,0 -99.4865811,27.6062045,0 -99.4862171,27.6062458,0 -99.4859395,27.6062875,0 -99.48565930000001,27.606338,0 -99.4852593,27.6064217,0 -99.48499699999999,27.6064871,0 -99.48473610000002,27.6065595,0 -99.4843968,27.6066601,0 -99.4839669,27.6068042,0 -99.48368240293836,27.60693849840098,0 -99.47616520429837,27.60977994907316,0 -99.47491364030115,27.61025126947079,0 
			</coordinates>
		</LineString>
		<atom:link rel="app" href="https://www.google.com/earth/about/versions/#earth-pro" title="Google Earth Pro 7.3.6.10201"></atom:link>
	</Placemark>
</Document>
</kml>
