<?xml version="1.0" encoding="UTF-8"?>
<kml xmlns="http://www.opengis.net/kml/2.2" xmlns:gx="http://www.google.com/kml/ext/2.2" xmlns:kml="http://www.opengis.net/kml/2.2" xmlns:atom="http://www.w3.org/2005/Atom">
<Document>
	<name>I.695.NY.kml</name>
	<Placemark>
		<name>I.695.NY</name>
		<LineString>
			<coordinates>
				-73.81050089999999,40.8195213,0 -73.81074099999999,40.8196347,0 -73.8108663,40.8196944,0 -73.8109857,40.8197558,0 -73.8111109,40.8198204,0 -73.8119421,40.8202751,0 -73.8120787,40.8203519,0 -73.8122137,40.8204292,0 -73.8123377,40.8205029,0 -73.81245800000001,40.8205754,0 -73.8125764,40.8206478,0 -73.8126963,40.8207237,0 -73.81280479999999,40.8207929,0 -73.8129179,40.8208685,0 -73.81302719999999,40.8209426,0 -73.813121,40.8210091,0 -73.8132246,40.8210864,0 -73.8133282,40.8211625,0 -73.8134264,40.8212391,0 -73.8135257,40.8213178,0 -73.81362470000001,40.8213991,0 -73.81371969999999,40.8214786,0 -73.8138163,40.8215602,0 -73.81391000000001,40.821641,0 -73.81399930000001,40.8217201,0 -73.814092,40.8218062,0 -73.81418290000001,40.8218918,0 -73.8142702,40.8219769,0 -73.8143559,40.8220657,0 -73.814442,40.8221528,0 -73.8145253,40.8222412,0 -73.8146062,40.8223302,0 -73.8146856,40.8224196,0 -73.81476360000001,40.8225096,0 -73.81484140000001,40.8226012,0 -73.81491699999999,40.8226937,0 -73.81506709999999,40.8228831,0 -73.8151324,40.8229755,0 -73.81519950000001,40.8230701,0 -73.8152663,40.8231651,0 -73.81533399999999,40.8232636,0 -73.8153973,40.8233604,0 -73.8154586,40.823458,0 -73.8155182,40.8235566,0 -73.8155769,40.8236559,0 -73.815634,40.8237556,0 -73.81569020000001,40.8238572,0 -73.8157425,40.8239564,0 -73.8157954,40.8240591,0 -73.815845,40.8241596,0 -73.8158932,40.8242624,0 -73.8159397,40.824364,0 -73.8159847,40.8244695,0 -73.8160252,40.8245717,0 -73.8160658,40.8246762,0 -73.8161059,40.8247809,0 -73.8161447,40.8248859,0 -73.81651909999999,40.8259377,0 -73.8165577,40.8260422,0 -73.8165985,40.8261461,0 -73.8166421,40.8262529,0 -73.81668329999999,40.8263553,0 -73.8167284,40.8264604,0 -73.8167754,40.8265659,0 -73.8168225,40.8266671,0 -73.8168725,40.826769,0 -73.816925,40.8268737,0 -73.8169779,40.8269751,0 -73.8170343,40.8270762,0 -73.8170911,40.827176,0 -73.8171499,40.8272774,0 -73.8172113,40.8273756,0 -73.8172732,40.827475,0 -73.8173384,40.8275743,0 -73.8174035,40.8276706,0 -73.81747180000001,40.8277691,0 -73.8175401,40.8278629,0 -73.8176117,40.8279622,0 -73.817694,40.8280695,0 -73.81776120000001,40.8281526,0 -73.8178319,40.8282383,0 -73.8182839,40.8287783,0 -73.8220357,40.8331918,0 -73.82266180000001,40.8339275,0 -73.82450489999999,40.8360996,0 -73.8245976,40.8362101,0 -73.82467080000001,40.8363153,0 -73.82474240000001,40.8364304,0 -73.82481009999999,40.8365303,0 -73.8248741,40.8366321,0 -73.82493340000001,40.8367347,0 -73.82499319999999,40.8368439,0 -73.8250477,40.8369463,0 -73.82509690000001,40.8370469,0 -73.8251482,40.8371648,0 -73.82519019999999,40.837268,0 -73.82523329999999,40.8373775,0 -73.8252739,40.8374879,0 -73.8253076,40.8375892,0 -73.8253433,40.8377012,0 -73.8253792,40.8378222,0 -73.825406,40.8379286,0 -73.8254268,40.8380213,0 -73.82544179999999,40.8381022,0 -73.8254567,40.8381839,0 -73.8254697,40.8382613,0 -73.8254845,40.8383766,0 -73.82549659999999,40.8384946,0 -73.8255034,40.8386002,0 -73.825508,40.8387164,0 -73.8255762,40.8411002,0 -73.8255771,40.841201,0 -73.8255786,40.8413171,0 -73.82558210000001,40.8414289,0 -73.82558280000001,40.8415362,0 -73.825582,40.8416539,0 -73.82558040000001,40.8417674,0 -73.8255668,40.8423337,0 
			</coordinates>
		</LineString>
		<atom:link rel="app" href="https://www.google.com/earth/about/versions/#earth-pro" title="Google Earth Pro 7.3.6.10201"></atom:link>
	</Placemark>
</Document>
</kml>
