<?xml version="1.0" encoding="UTF-8"?>
<kml xmlns="http://www.opengis.net/kml/2.2" xmlns:gx="http://www.google.com/kml/ext/2.2" xmlns:kml="http://www.opengis.net/kml/2.2" xmlns:atom="http://www.w3.org/2005/Atom">
<Document>
	<name>I.69E.kml</name>
	<Placemark>
		<name>I.69E</name>
			<LineString>
				<coordinates>
					-97.4775314,25.8920189,0 -97.4775345,25.8921704,0 -97.47753819999998,25.8923012,0 -97.4775384,25.8924128,0 -97.47754,25.89323,0 -97.47754300000001,25.8938425,0 -97.47754399999999,25.894054,0 -97.477548,25.89473,0 -97.4775491,25.8947773,0 -97.477553,25.8949405,0 -97.47755359999998,25.8949646,0 -97.47755359999998,25.8950628,0 -97.47756090000001,25.8952127,0 -97.47756099999999,25.8953004,0 -97.4775613,25.8954998,0 -97.47756200000001,25.895886,0 -97.47758000000002,25.896229,0 -97.47763099999999,25.896614,0 -97.47770900000002,25.897025,0 -97.4778203,25.8974345,0 -97.47788,25.897594,0 -97.47795199999999,25.897768,0 -97.47804499999999,25.897991,0 -97.478103,25.898112,0 -97.47829900000001,25.898473,0 -97.47849899999999,25.898785,0 -97.47866999999999,25.899016,0 -97.47886099999998,25.899251,0 -97.47925600000002,25.899662,0 -97.4798401,25.9002692,0 -97.481019,25.901461,0 -97.48170600000002,25.902159,0 -97.482105,25.902621,0 -97.48243100000001,25.903046,0 -97.482806,25.903535,0 -97.48333100000001,25.904253,0 -97.48363700000002,25.904645,0 -97.483772,25.904795,0 -97.48385799999998,25.904891,0 -97.4844212,25.9054516,0 -97.4876373,25.9084767,0 -97.48804199999999,25.908874,0 -97.488429,25.909292,0 -97.48875200000001,25.909683,0 -97.48893000000001,25.909914,0 -97.48907199999998,25.910116,0 -97.4892684,25.9104238,0 -97.4896186,25.9109252,0 -97.489975,25.9115676,0 -97.490256,25.9121941,0 -97.49039440000001,25.9125582,0 -97.49051560000001,25.9129334,0 -97.49068789999998,25.9136374,0 -97.49075989999999,25.913985,0 -97.49082370000002,25.9143561,0 -97.49088300000001,25.914824,0 -97.49091799999998,25.9153545,0 -97.4909215,25.9160365,0 -97.49090510000002,25.9165662,0 -97.4905928,25.9201652,0 -97.4905862,25.9211531,0 -97.4905902,25.9218894,0 -97.4906127,25.9226558,0 -97.49065720000002,25.9251236,0 -97.49066500000001,25.925749,0 -97.49071599999999,25.92638000000001,0 -97.49084800000001,25.927116,0 -97.49094700000001,25.927501,0 -97.491186,25.928188,0 -97.491247,25.928325,0 -97.49137500000001,25.928611,0 -97.49154699999998,25.928931,0 -97.491778,25.929359,0 -97.49212200000001,25.929873,0 -97.492536,25.930407,0 -97.49673799999999,25.9350591,0 -97.497316,25.9357075,0 -97.4978303,25.93627740000001,0 -97.498256,25.936749,0 -97.498634,25.937169,0 -97.4991699,25.9377346,0 -97.5026185,25.941575,0 -97.50302500000001,25.9420783,0 -97.503353,25.942582,0 -97.50368880000001,25.9431128,0 -97.5038165,25.943357,0 -97.50403319999999,25.943851,0 -97.50417260000002,25.9442947,0 -97.504221,25.944505,0 -97.504351,25.945037,0 -97.504454,25.94563,0 -97.5047708,25.9485611,0 -97.50482109999999,25.9490039,0 -97.50490680000001,25.9497564,0 -97.50506799999999,25.951628,0 -97.505162,25.952434,0 -97.505244,25.95294,0 -97.505319,25.953224,0 -97.505448,25.953715,0 -97.50561,25.954171,0 -97.5060103,25.9549473,0 -97.5072213,25.9572022,0 -97.5086187,25.9598734,0 -97.509489,25.961556,0 -97.51037110000001,25.9631971,0 -97.5109593,25.9644476,0 -97.51204730000001,25.9665968,0 -97.51242040000001,25.9673145,0 -97.5124964,25.9674633,0 -97.5131311,25.9686045,0 -97.513666,25.9695261,0 -97.5149796,25.9719299,0 -97.51582459999999,25.973541,0 -97.51681149999999,25.9758614,0 -97.51785099999999,25.9783053,0 -97.51810230000001,25.9789011,0 -97.5190224,25.9810863,0 -97.51934799999999,25.9820337,0 -97.5195025,25.9825738,0 -97.5197137,25.9834368,0 -97.51977599999999,25.9838111,0 -97.51988869999998,25.9846724,0 -97.51994019999999,25.9852742,0 -97.51997450000002,25.9856677,0 -97.52006899999999,25.9869099,0 -97.5201376,25.9873496,0 -97.52030929999999,25.9883912,0 -97.52046380000002,25.9890624,0 -97.52077170000001,25.990029,0 -97.5210896,25.9908474,0 -97.52129669999999,25.9913252,0 -97.52156780000001,25.991907,0 -97.5219256,25.9925791,0 -97.52231460000002,25.9932454,0 -97.5227321,25.9938305,0 -97.52402170000001,25.995558,0 -97.52505840000001,25.9968889,0 -97.5256102,25.9975815,0 -97.5266934,25.9989899,0 -97.52850300000001,26.0013146,0 -97.5288439,26.001793,0 -97.52917100000001,26.0023616,0 -97.529473,26.0030278,0 -97.5296838,26.0036395,0 -97.52983709999999,26.0042778,0 -97.52993160000001,26.0048145,0 -97.529995,26.0055239,0 -97.53008939999999,26.0096423,0 -97.53012049999998,26.0107513,0 -97.5302533,26.016037,0 -97.5303163,26.0166649,0 -97.5306604,26.0186481,0 -97.53122350000001,26.0219021,0 -97.53141479999998,26.0230569,0 -97.531417,26.0230701,0 -97.5314224,26.0231029,0 -97.5317118,26.0248161,0 -97.53188710000002,26.0258319,0 -97.53203430000001,26.0265148,0 -97.5322216,26.0271054,0 -97.5323642,26.0274794,0 -97.53267080000001,26.0281403,0 -97.53309729999998,26.028937,0 -97.53344199999999,26.0295561,0 -97.5341913,26.0308967,0 -97.53453150000001,26.0313717,0 -97.5352183,26.0321509,0 -97.53555849999999,26.0324851,0 -97.53648749999999,26.033317,0 -97.53874419999998,26.0353378,0 -97.54001299999999,26.036483,0 -97.54103800000001,26.0373913,0 -97.5432,26.039335,0 -97.54456860000001,26.040652,0 -97.54551840000002,26.0415601,0 -97.54664719999998,26.0425662,0 -97.5473374,26.0431814,0 -97.54971269999999,26.0452394,0 -97.551453,26.046681,0 -97.55227120000001,26.0474007,0 -97.55616210000001,26.0508676,0 -97.5617961,26.05607609999999,0 -97.56232139999999,26.0565962,0 -97.5637038,26.0580792,0 -97.5644691,26.0589839,0 -97.5652601,26.0600199,0 -97.56723890000002,26.0628545,0 -97.568178,26.064365,0 -97.56946670000001,26.0663197,0 -97.5700736,26.0672212,0 -97.57036309999999,26.0676296,0 -97.5718718,26.0697582,0 -97.572795,26.071042,0 -97.57365620000002,26.072185,0 -97.5765245,26.0763531,0 -97.57729500000001,26.077545,0 -97.577983,26.078617,0 -97.57801099999999,26.078657,0 -97.57883,26.079828,0 -97.57940569999998,26.0806321,0 -97.57988090000002,26.0812427,0 -97.5817157,26.0835299,0 -97.582617,26.0846729,0 -97.58337469999998,26.085677,0 -97.58581000000001,26.088793,0 -97.5867034,26.0899723,0 -97.58834319999998,26.0922574,0 -97.589626,26.0939448,0 -97.58992569999999,26.0943212,0 -97.59216489999999,26.097195,0 -97.5925355,26.0976984,0 -97.59274689999998,26.0979596,0 -97.5933244,26.0985979,0 -97.5941249,26.0994685,0 -97.5983616,26.10391540000001,0 -97.598624,26.1041897,0 -97.6000583,26.1056894,0 -97.60114699999998,26.1068285,0 -97.6021573,26.1078667,0 -97.6025303,26.1081996,0 -97.60302100000001,26.1085593,0 -97.6035334,26.1088827,0 -97.60389170000001,26.1090569,0 -97.604237,26.1092174,0 -97.60486999999999,26.1094354,0 -97.6085891,26.1107268,0 -97.6109874,26.1115999,0 -97.6151277,26.1130521,0 -97.6165725,26.1135992,0 -97.61722279999999,26.113895,0 -97.617897,26.114244,0 -97.61841099999999,26.114525,0 -97.618763,26.114738,0 -97.618988,26.114877,0 -97.61942699999999,26.11516,0 -97.62130000000001,26.116512,0 -97.62259759999999,26.1174371,0 -97.6248472,26.1190927,0 -97.6253234,26.1194232,0 -97.6259491,26.1197954,0 -97.62664030000001,26.1201659,0 -97.62851899999998,26.12102,0 -97.62878299999998,26.121159,0 -97.62898300000001,26.121277,0 -97.629166,26.121378,0 -97.629519,26.121605,0 -97.6299831,26.1219258,0 -97.6304837,26.1222815,0 -97.63237169999999,26.1236686,0 -97.6329283,26.124072,0 -97.6362106,26.1264858,0 -97.6367419,26.1268833,0 -97.6394634,26.128888,0 -97.6414597,26.1303462,0 -97.64164700000002,26.130483,0 -97.64212069999999,26.13078670000001,0 -97.64271819999999,26.131181,0 -97.64415699999999,26.13211,0 -97.64541,26.133017,0 -97.64612299999999,26.13354,0 -97.647313,26.1344127,0 -97.64883110000001,26.1355095,0 -97.64932899999999,26.1358742,0 -97.6510004,26.1371003,0 -97.652332,26.138083,0 -97.65294,26.138542,0 -97.653138,26.1387,0 -97.65352300000001,26.139023,0 -97.65408199999999,26.139528,0 -97.65490579999999,26.1402475,0 -97.65541779999998,26.1407186,0 -97.656806,26.142024,0 -97.65720510000001,26.1423616,0 -97.65754579999999,26.1426672,0 -97.6579231,26.1429918,0 -97.65846000000001,26.143453,0 -97.65913639999999,26.1439317,0 -97.6598029,26.1444241,0 -97.6611382,26.1454075,0 -97.6612286,26.1454742,0 -97.6628398,26.1466633,0 -97.66285780000001,26.1466766,0 -97.6670441,26.1497603,0 -97.66770579999999,26.1502458,0 -97.6721976,26.153541,0 -97.6736106,26.1545806,0 -97.67509199999999,26.155658,0 -97.6763973,26.1566287,0 -97.67857999999998,26.158227,0 -97.679419,26.158841,0 -97.68029999999999,26.159486,0 -97.680492,26.159627,0 -97.681072,26.160035,0 -97.68150300000001,26.1603345,0 -97.6820579,26.1607201,0 -97.68338199999998,26.161573,0 -97.683634,26.161731,0 -97.684057,26.161997,0 -97.68425879999999,26.1621237,0 -97.6865339,26.1635528,0 -97.68757789999999,26.1642229,0 -97.6881286,26.164566,0 -97.689187,26.165213,0 -97.689915,26.165672,0 -97.6905112,26.1660111,0 -97.69188080000001,26.1668601,0 -97.6925232,26.1672561,0 -97.69315709999999,26.1676551,0 -97.69428000000001,26.1683863,0 -97.69474200000001,26.1686736,0 -97.69787200000002,26.17062,0 -97.69816,26.170812,0 -97.69843299999998,26.171015,0 -97.698606,26.171143,0 -97.69893399999999,26.17142,0 -97.69925300000001,26.17173,0 -97.699707,26.172213,0 -97.7001387,26.1727433,0 -97.70117620000001,26.1740705,0 -97.7019732,26.1750531,0 -97.70241819999998,26.175636,0 -97.7026978,26.1759685,0 -97.703177,26.176575,0 -97.703452,26.176848,0 -97.703647,26.177031,0 -97.703833,26.177188,0 -97.703913,26.177256,0 -97.70406699999999,26.177374,0 -97.70422600000001,26.177496,0 -97.70444000000001,26.177647,0 -97.704635,26.177775,0 -97.704836,26.177892,0 -97.705071,26.178023,0 -97.70529000000001,26.178131,0 -97.70576800000001,26.178342,0 -97.70618899999999,26.178494,0 -97.70656700000002,26.178607,0 -97.70682899999998,26.178678,0 -97.70980699999998,26.179397,0 -97.7100172,26.1794499,0 -97.7106655,26.1796363,0 -97.71075230000001,26.1796727,0 -97.71085339999999,26.1797152,0 -97.710903,26.179736,0 -97.71141,26.179945,0 -97.712019,26.180242,0 -97.71233599999999,26.180428,0 -97.71243699999999,26.180487,0 -97.712647,26.180625,0 -97.71284800000001,26.180758,0 -97.713221,26.181041,0 -97.71359000000001,26.181347,0 -97.7141945,26.1819198,0 -97.71460179999998,26.1823966,0 -97.71489799999999,26.182842,0 -97.7153311,26.1834404,0 -97.7153847,26.183536,0 -97.7156885,26.1841736,0 -97.7158139,26.1844968,0 -97.7161579,26.1854101,0 -97.71721600000001,26.1885277,0 -97.71845800000001,26.1919933,0 -97.7189923,26.1934591,0 -97.7195639,26.1951107,0 -97.7198167,26.1957944,0 -97.72026600000001,26.1969869,0 -97.7203883,26.1974278,0 -97.72053150000001,26.1978757,0 -97.7206448,26.1983135,0 -97.7206771,26.1985587,0 -97.72084099999999,26.1994523,0 -97.7209445,26.2001969,0 -97.7209945,26.2010732,0 -97.72102,26.202747,0 -97.72101799999999,26.203748,0 -97.72101720000001,26.2041156,0 -97.7210158,26.204777,0 -97.72101000000001,26.207457,0 -97.72101670000001,26.2111704,0 -97.7210176,26.2116762,0 -97.7210231,26.2147115,0 -97.72101549999999,26.2158065,0 -97.7209938,26.2192978,0 -97.72099040000001,26.2227083,0 -97.7209908,26.2259073,0 -97.72098459999998,26.2263516,0 -97.7209797,26.2270994,0 -97.720972,26.228258,0 -97.72096740000001,26.2289645,0 -97.72095800000001,26.231363,0 -97.720957,26.23248,0 -97.72101000000001,26.233695,0 -97.72107200000001,26.234149,0 -97.7211408,26.2346486,0 -97.72132550000002,26.2357033,0 -97.72139799999999,26.2359784,0 -97.721538,26.23651,0 -97.721889,26.237536,0 -97.72223200000001,26.238383,0 -97.722668,26.239278,0 -97.72358099999998,26.241061,0 -97.7243228,26.2425189,0 -97.72606199999998,26.24591,0 -97.72725389999998,26.2482274,0 -97.7274927,26.2486871,0 -97.72950299999998,26.252605,0 -97.72984339999999,26.2533241,0 -97.731162,26.255835,0 -97.731658,26.256672,0 -97.73220699999999,26.257472,0 -97.73312499999999,26.258615,0 -97.73397700000001,26.259512,0 -97.73502310000001,26.2604319,0 -97.74075869999999,26.2652501,0 -97.74126290000001,26.2656638,0 -97.74153110000002,26.2658996,0 -97.746747,26.2703159,0 -97.74688710000001,26.2704343,0 -97.74715329999999,26.2706591,0 -97.74746199999998,26.27092,0 -97.748558,26.271943,0 -97.749486,26.272997,0 -97.74988889999999,26.2735096,0 -97.75042000000001,26.2742624,0 -97.75113880000001,26.2753519,0 -97.7515385,26.2759652,0 -97.75396199999999,26.279685,0 -97.75555000000001,26.28212,0 -97.75703100000001,26.2843833,0 -97.75899,26.287377,0 -97.75936400000002,26.287954,0 -97.76106830000001,26.2905822,0 -97.763193,26.294103,0 -97.7642701,26.295789,0 -97.7645394,26.2962022,0 -97.76549869999998,26.297661,0 -97.7665015,26.2990964,0 -97.7677224,26.3008342,0 -97.76835800000002,26.30174,0 -97.76863500000002,26.302138,0 -97.77048499999998,26.304963,0 -97.77299699999999,26.30881,0 -97.77487960000001,26.3116734,0 -97.77908030000002,26.318029,0 -97.7796597,26.3189163,0 -97.7797509,26.3190949,0 -97.779968,26.319517,0 -97.780169,26.319945,0 -97.78026199999998,26.320163,0 -97.78034700000001,26.320382,0 -97.78050399999998,26.320825,0 -97.78066200000001,26.32132,0 -97.780863,26.322235,0 -97.78100110000001,26.3230799,0 -97.7810807,26.3235192,0 -97.7811049,26.3236526,0 -97.78131999999999,26.325035,0 -97.78146200000002,26.325733,0 -97.781857,26.32734,0 -97.7830668,26.3318796,0 -97.783637,26.334063,0 -97.783767,26.334618,0 -97.78379390000001,26.3347746,0 -97.783852,26.335113,0 -97.78392799999999,26.335812,0 -97.78393329999999,26.3359415,0 -97.78395399999998,26.336449,0 -97.78395769999999,26.3366234,0 -97.7839774,26.3375415,0 -97.78400480000002,26.3424917,0 -97.78401130000002,26.3430601,0 -97.78407319999999,26.3452486,0 -97.7841495,26.34901320000001,0 -97.78414670000001,26.3507005,0 -97.7841617,26.3514495,0 -97.7841588,26.3569865,0 -97.78416129999999,26.35753,0 -97.7841998,26.362591,0 -97.7842296,26.3650619,0 -97.78422620000001,26.3661693,0 -97.78426880000001,26.3679671,0 -97.7843433,26.3697222,0 -97.78448150000001,26.3729134,0 -97.7846517,26.3756153,0 -97.7848113,26.3783704,0 -97.7848113,26.3796362,0 -97.78478999999999,26.3818807,0 -97.78474749999999,26.3856783,0 -97.7846933,26.3897841,0 -97.78468789999999,26.3901602,0 -97.78464079999999,26.3929045,0 -97.7846352,26.393228,0 -97.7846981,26.3958529,0 -97.78475210000002,26.4006043,0 -97.78475489999998,26.4010085,0 -97.784756,26.4011765,0 -97.7847637,26.4026199,0 -97.78483420000001,26.4091783,0 -97.78486079999999,26.4120743,0 -97.78485010000001,26.4152215,0 -97.7848493,26.4187191,0 -97.784842,26.4210439,0 -97.7848633,26.4251074,0 -97.78482080000001,26.4286709,0 -97.78484899999999,26.4309314,0 -97.784842,26.43226629999999,0 -97.78485549999999,26.4354684,0 -97.7848678,26.4368998,0 -97.7848735,26.4374802,0 -97.78489350000001,26.4385016,0 -97.7848565,26.4392898,0 -97.7848024,26.43974499999999,0 -97.78468290000001,26.440388,0 -97.7845264,26.4409485,0 -97.78438250000001,26.4414632,0 -97.78415339999999,26.442058,0 -97.78388569999998,26.4426407,0 -97.7834699,26.4433731,0 -97.7815365,26.4467952,0 -97.78113789999999,26.4475071,0 -97.7786019,26.4520292,0 -97.77825090000002,26.4526483,0 -97.77551490000002,26.4575044,0 -97.7752373,26.4579899,0 -97.7735567,26.4609294,0 -97.77231159999999,26.4632637,0 -97.77170619999998,26.464473,0 -97.7712338,26.4655082,0 -97.7707407,26.4667574,0 -97.7705299,26.4673365,0 -97.77014819999999,26.4685534,0 -97.76987930000001,26.4695117,0 -97.76953640000002,26.4710374,0 -97.7692397,26.4725738,0 -97.769099,26.4735054,0 -97.76901909999999,26.4747058,0 -97.7689639,26.4757619,0 -97.76895500000001,26.4776743,0 -97.7689939,26.4815868,0 -97.76900470000001,26.4824075,0 -97.7690278,26.48465330000001,0 -97.76907489999999,26.4863711,0 -97.76938029999999,26.4892358,0 -97.76950429999999,26.4902674,0 -97.7698402,26.4928323,0 -97.76988540000002,26.493195,0 -97.77033289999999,26.4966375,0 -97.7705206,26.4980141,0 -97.7712035,26.5033544,0 -97.77131040000002,26.5042133,0 -97.7719462,26.5090771,0 -97.7726172,26.5124699,0 -97.7739722,26.5190701,0 -97.77403750000002,26.51939339999999,0 -97.77480610000001,26.523186,0 -97.77514910000001,26.5248188,0 -97.7754193,26.5260568,0 -97.7755092,26.526605,0 -97.77563549999999,26.5281352,0 -97.77564510000002,26.5287026,0 -97.7756473,26.5292578,0 -97.775612,26.529813,0 -97.7755521,26.5306902,0 -97.7746381,26.5373954,0 -97.773301,26.5471123,0 -97.7728462,26.5493691,0 -97.7710625,26.5621678,0 -97.7702184,26.5682382,0 -97.77016520000001,26.5686054,0 -97.76946599999998,26.5734222,0 -97.7692193,26.5753158,0 -97.7689628,26.5768962,0 -97.76861940000001,26.5789122,0 -97.76858730000001,26.5791756,0 -97.76855529999999,26.5794389,0 -97.76829290000001,26.5819708,0 -97.76822890000001,26.5825485,0 -97.7681347,26.5832542,0 -97.7673339,26.5890007,0 -97.7671711,26.5902233,0 -97.76710940000001,26.5907531,0 -97.7670562,26.5912905,0 -97.76694470000001,26.5925462,0 -97.76688109999999,26.5931892,0 -97.76679710000001,26.5938698,0 -97.7666815,26.5946971,0 -97.7666461,26.5950579,0 -97.76661110000001,26.5954429,0 -97.7665877,26.595806,0 -97.76656970000002,26.5961981,0 -97.7665664,26.596471,0 -97.7665696,26.5967586,0 -97.7665811,26.5976195,0 -97.76655218268452,26.59827128417271,0 -97.76652513732978,26.60066756097744,0 -97.7665286536414,26.60352371662862,0 -97.76659208104887,26.60731446640063,0 -97.76660908538317,26.61242759897625,0 -97.76677105006931,26.61869799926689,0 -97.7668307264853,26.63343349275065,0 -97.76718163605284,26.64317614502613,0 -97.76753831358982,26.65723446730277,0 -97.76761804483674,26.66100782824178,0 -97.76788936170013,26.67664557996137,0 -97.76789085717461,26.67790541321342,0 -97.76784328967845,26.67879617471319,0 -97.76787164583261,26.68205330159567,0 -97.76799830262263,26.68630955701343,0 -97.76822546508583,26.69423385055036,0 -97.76836023714922,26.69636238738505,0 -97.76853392151054,26.70301286008784,0 -97.76874822514,26.71499132103054,0 -97.76916868871305,26.73582368831588,0 -97.76919025588036,26.7374367257498,0 -97.76923442195412,26.74219605964113,0 -97.76941661532345,26.74922886063014,0 -97.76949093167303,26.7521802841748,0 -97.76955348418124,26.7528645457385,0 -97.77012834958522,26.75650375536735,0 -97.77139713173524,26.76509702857604,0 -97.77305404655066,26.77496678609006,0 -97.77865161786409,26.81218943924333,0 -97.78237821489309,26.83717824846766,0 -97.78744959600928,26.86989621858958,0 -97.78798194583177,26.8742295921206,0 -97.78811657702695,26.87708397849801,0 -97.78911690109759,26.89187903461671,0 -97.78985191840069,26.90364503743999,0 -97.7910537113605,26.92187484845226,0 -97.791255210104,26.92601243836046,0 -97.79230811062,26.94014384073797,0 -97.79384676647817,26.96170143221656,0 -97.79477399296754,26.97795382704424,0 -97.79489758964861,26.98011080175049,0 -97.79493336630938,26.98167795016215,0 -97.79493528127017,26.98262951751727,0 -97.79497460023893,26.98802143926367,0 -97.79486342081829,26.99407568100312,0 -97.79387698058228,27.03089207907081,0 -97.79360394165076,27.0480495693597,0 -97.79335311691115,27.06034085953559,0 -97.79325542191371,27.0624940856743,0 -97.79295506121041,27.06431779371725,0 -97.79252110668673,27.06653026956177,0 -97.79090320634249,27.07551543038273,0 -97.79069469807678,27.07647894451014,0 -97.79056667453335,27.07791282579235,0 -97.7905176943739,27.07941778860602,0 -97.7900272628181,27.08919803245596,0 -97.78958532351537,27.09906192369188,0 -97.78975376093551,27.10177886169587,0 -97.78992296223656,27.10434837691093,0 -97.79092758331787,27.11488463475904,0 -97.79196927782438,27.12523211689224,0 -97.79227968430446,27.13025404776696,0 -97.79238912336814,27.13395529872121,0 -97.79303907130348,27.15052013290038,0 -97.79332867639081,27.15727879003677,0 -97.79347585356484,27.16190369675134,0 -97.79348444844813,27.16775932976192,0 -97.79315364743495,27.1758170639425,0 -97.79300099142138,27.17942443247262,0 -97.79291079245563,27.18285647238987,0 -97.79284763639085,27.18541927069122,0 -97.79271634034403,27.18670850699386,0 -97.79260111839433,27.18781986111193,0 -97.79230369652824,27.18936110984498,0 -97.79142721315823,27.19389614732584,0 -97.79124557867704,27.19482929197206,0 -97.7896170136536,27.20287711782982,0 -97.78940922071796,27.20422168073923,0 -97.78902679475789,27.20590727150746,0 -97.7888226996614,27.20801224909006,0 -97.78858884659535,27.2100387357108,0 -97.78868630297451,27.21287902857055,0 -97.78877369322694,27.21410629644631,0 -97.78875745004858,27.2152705634812,0 -97.78869769066822,27.21653523936582,0 -97.78861581279141,27.21786939932151,0 -97.78862318974993,27.2190810127229,0 -97.78865367960523,27.22065930911923,0 -97.78869012894286,27.22171609511274,0 -97.78870668852761,27.2229861537546,0 -97.78869814199565,27.22408167426997,0 -97.78876025954048,27.22517691865312,0 -97.78888255387008,27.22598488156791,0 -97.78907559092885,27.22678416470747,0 -97.78943085883463,27.22812136831003,0 -97.7907904384864,27.23342127674891,0 -97.79409448311583,27.24535689954575,0 -97.79848142913025,27.25967132013098,0 -97.80305308977631,27.27544053397291,0 -97.80439932761378,27.2800349145289,0 -97.80476527835562,27.28083910294102,0 -97.80531481009128,27.28189379811693,0 -97.80577140629724,27.28270234709266,0 -97.80617063506158,27.28333155526159,0 -97.80972821593181,27.28896660267052,0 -97.81223838939235,27.29299798044533,0 -97.81369055814658,27.29528435354762,0 -97.81392287190843,27.29568355804411,0 -97.81422567606162,27.29625736198526,0 -97.81445111113052,27.29670022682691,0 -97.81469067991178,27.29734253857743,0 -97.81493688272253,27.29814608143268,0 -97.81603065523461,27.30198741348853,0 -97.81907672365335,27.31195546020214,0 -97.82068817576543,27.31742775575024,0 -97.82845634801222,27.34368271321008,0 -97.83008912830539,27.34901731540767,0 -97.83693332470158,27.37411412285879,0 -97.83938840727158,27.38249440854549,0 -97.84419863464305,27.39956800470213,0 -97.84484242956428,27.40166679261221,0 -97.84674893999305,27.4082629763107,0 -97.84906226011324,27.41601016727143,0 -97.85066822930634,27.42142150627383,0 -97.85390810429675,27.43181787133435,0 -97.85774045673851,27.44496905089214,0 -97.8582087685249,27.44641410125213,0 -97.85832692739352,27.44739505596355,0 -97.85836794539743,27.44827269892113,0 -97.85831099483001,27.44908182663973,0 -97.85813801225703,27.45002869244094,0 -97.85779119432979,27.45107929107056,0 -97.85752088794179,27.45187117956055,0 -97.85703836215168,27.45300811879324,0 -97.85614977703587,27.45490281579892,0 -97.85545437559936,27.45640154955675,0 -97.85521400881899,27.457272091038,0 -97.85495696933002,27.45830259692614,0 -97.85484513452428,27.45909386645567,0 -97.85480703295188,27.46014394452012,0 -97.85483251032493,27.46160219656059,0 -97.85485708838306,27.46326365990584,0 -97.85500383505166,27.47331869524916,0 -97.85491198775345,27.47475029883219,0 -97.85461967737221,27.47624346898236,0 -97.85420758197081,27.47774527502944,0 -97.85379818700011,27.47893385376622,0 -97.85326717556927,27.48000586743215,0 -97.85223514420623,27.48178696146331,0 -97.84722720379389,27.49047074781186,0 -97.84591687309285,27.49271666499981,0 -97.84243174538568,27.49859103658535,0 -97.84155740065201,27.50007880198717,0 -97.84099320527984,27.50140037708457,0 -97.84058887183338,27.50300047640619,0 -97.84046120490451,27.50481408872247,0 -97.84054579199223,27.507828612155,0 -97.8405482858925,27.50917119711191,0 -97.84082719904191,27.52697471050549,0 -97.84074593855003,27.52857155824242,0 -97.84044997601447,27.5298146904545,0 -97.84011851110346,27.53079152511197,0 -97.83960183392324,27.53187032792433,0 -97.83893560066865,27.53290436841351,0 -97.83785527181738,27.53412066912576,0 -97.8368044527283,27.53501067674952,0 -97.83585171387648,27.53568971461748,0 -97.83079028578364,27.53889410795663,0 -97.8198366644029,27.54591523030203,0 -97.81358228014581,27.55000500420481,0 -97.80133253781364,27.55780104623624,0 -97.79931634010045,27.55908118429788,0 -97.79618550058109,27.56105130360412,0 -97.79540860714873,27.561589037255,0 -97.79432218720073,27.56259940105721,0 -97.79350376188218,27.5636314106186,0 -97.79292034770535,27.56465758508232,0 -97.792174072191,27.56667638724587,0 -97.7904923869721,27.57152596701934,0 -97.78313960697727,27.59236900482754,0 -97.78203062773692,27.59559782586959,0 -97.78178370254766,27.59657182393059,0 -97.78169179786116,27.5976208128217,0 -97.78173637911662,27.59902352502394,0 -97.78208177944819,27.60135614828303,0 -97.78236567654514,27.60366699857162,0 -97.7826888440532,27.60681083743776,0 -97.7827285882765,27.60790730729149,0 -97.78264197009725,27.60891556959455,0 -97.78238049634615,27.61002355264996,0 -97.78200818702001,27.61109945006405,0 -97.78146010274185,27.61213169715785,0 -97.78084847596894,27.61316339734469,0 -97.78043784201613,27.61388010859488,0 -97.7797733211564,27.61511582780339,0 -97.77473441242712,27.62452198740403,0 -97.77204449747769,27.62957850676724,0 -97.77011058566055,27.63322033017155,0 -97.76139705669752,27.64931720925365,0 
				
					-97.7613929999431,27.64932953662329,0 -97.75986426984596,27.65222295511307,0 -97.7592878802613,27.65332876583337,0 -97.75865749650599,27.65433219431647,0 -97.75809612726825,27.65503520927876,0 -97.75660870045701,27.65643102815022,0 -97.75540738994653,27.65722064779619,0 -97.75419064295362,27.6578417846016,0 -97.7519851083872,27.65885466256642,0 -97.74895833143015,27.660272486398,0 -97.74802094432341,27.66076752777967,0 -97.74684118096718,27.6615044387142,0 -97.7457176498929,27.66253051565458,0 -97.74485593473273,27.66357606240324,0 -97.74422336544234,27.66454448647547,0 -97.74381987754005,27.66539664917678,0 -97.74338395436195,27.66656805825792,0 -97.73513515162117,27.68937542258866,0 -97.73365615514032,27.69346981985535,0 -97.73320054098662,27.69480447949482,0 -97.7326348118085,27.69640462454409,0 -97.73153824156525,27.69935239497174,0 -97.73107771522342,27.7006384735071,0 -97.73060996903533,27.70150703330534,0 -97.7299509552153,27.70249692568484,0 -97.72843774898149,27.7043405898792,0 -97.7041924,27.7342974,0 -97.7034077,27.7352681,0 -97.70200199999998,27.7370093,0 -97.7000285,27.7394656,0 -97.69945870000001,27.7401762,0 -97.6989286,27.7408252,0 -97.6954805,27.745068,0 -97.69473979999998,27.7459737,0 -97.69454379999999,27.746222,0 -97.694053,27.746819,0 -97.6916504,27.7497894,0 -97.68972700000002,27.7521612,0 -97.68836010000001,27.7538537,0 -97.68786540000001,27.7544651,0 -97.68670729999999,27.7558909,0 -97.6853323,27.7575864,0 -97.684802,27.758248,0 -97.68441360000001,27.7587596,0 -97.6835434,27.7599737,0 -97.68309080000002,27.7606139,0 -97.68274630000001,27.76107500000001,0 -97.68247390000001,27.7614387,0 -97.68218210000001,27.7618029,0 -97.6818924,27.7621587,0 -97.68082339999999,27.7634888,0 -97.680468,27.7639277,0 -97.68011129999999,27.7643645,0 -97.67934529999999,27.765364,0 -97.6790597,27.765741,0 -97.6787779,27.7661018,0 -97.676851,27.7685147,0 -97.676506,27.7689376,0 -97.67622110000002,27.7692826,0 -97.67599030000001,27.7695746,0 -97.67581380000001,27.7697837,0 -97.67563560000001,27.7699873,0 -97.67549209999999,27.7701386,0 -97.6753063,27.7703306,0 -97.6750892,27.7705499,0 -97.6748781,27.7707586,0 -97.67461779999999,27.7709936,0 -97.67440109999998,27.7711753,0 -97.67417620000001,27.77136,0 -97.67392800000002,27.7715589,0 -97.6736337,27.7717835,0 -97.67335060000001,27.7719905,0 -97.67150220000001,27.7732889,0 -97.66887509999999,27.7751484,0 -97.66797099999999,27.7757823,0 -97.66572520000001,27.7773465,0 -97.6653378,27.7775905,0 -97.66480919999999,27.7779337,0 -97.66411189999999,27.7783253,0 -97.66289579999999,27.7789149,0 -97.66221990000001,27.7792044,0 -97.66167000000002,27.7794132,0 -97.661147,27.7795983,0 -97.65940620000001,27.780105,0 -97.65872869999998,27.7803341,0 -97.6581992,27.7805558,0 -97.657813,27.780767,0 -97.65728829999999,27.781097,0 -97.6570164,27.7813105,0 -97.65672910000001,27.7815503,0 -97.6564206,27.7818517,0 -97.65614439999999,27.7821685,0 -97.6558788,27.7825114,0 -97.6556404,27.782879,0 -97.65558139999999,27.7830001,0 -97.65534000000001,27.7834865,0 -97.6550852,27.7842032,0 -97.65500169999999,27.7846755,0 -97.65491179999998,27.78545099999999,0 -97.6548171,27.7862284,0 -97.6547159,27.7870599,0 -97.65457600000001,27.7883989,0 -97.65437510000001,27.7903543,0 -97.65431100000002,27.790821,0 -97.65424520000001,27.7912893,0 -97.65415419999999,27.7916681,0 -97.6541287,27.7917749,0 -97.65403209999999,27.7920383,0 -97.6539034,27.7923801,0 -97.65378240000001,27.7926408,0 -97.6536399,27.7928795,0 -97.65345109999998,27.7931749,0 -97.65323959999999,27.7934577,0 -97.65287050000001,27.7938254,0 -97.6525123,27.7941829,0 -97.6521352,27.79449,0 -97.6519349,27.794653,0 -97.64991729999998,27.796453,0 -97.6458839,27.8000513,0 -97.6451114,27.8008637,0 -97.6443132,27.8018128,0 -97.64338619999999,27.8030655,0 -97.6415365,27.8055945,0 -97.63938650000001,27.8084406,0 -97.6390603,27.8089797,0 -97.6387685,27.8096325,0 -97.63866699999998,27.8100773,0 -97.63856939999999,27.8104259,0 -97.638398,27.8113647,0 -97.63779,27.814476,0 -97.63737399999999,27.8167044,0 -97.6368631,27.8191674,0 -97.6366043,27.8206032,0 -97.6358453,27.8246572,0 -97.63577300000001,27.8250351,0 -97.63545539999998,27.8266519,0 -97.6348078,27.8300638,0 -97.63462140000001,27.8310463,0 -97.6340969,27.8338562,0 -97.6336015,27.8364736,0 -97.63239430000002,27.8426491,0 -97.63160279999998,27.8468027,0 -97.6314143,27.8477839,0 -97.6309985,27.8502059,0 -97.63055649999998,27.8530171,0 -97.6303352,27.8541697,0 -97.630062,27.8555228,0 -97.6298949,27.8564305,0 -97.62960180000002,27.8578143,0 -97.62948160000001,27.8581481,0 -97.6291555,27.8588842,0 -97.6289227,27.8592358,0 -97.6287435,27.8595065,0 -97.62828,27.8600452,0 -97.627765,27.8605157,0 -97.62722340000001,27.8608958,0 -97.6270324,27.8610098,0 -97.6258344,27.8617276,0 -97.6253945,27.8619328,0 -97.62437199999999,27.8623,0 -97.6237363,27.8625442,0 -97.62330689999999,27.8627682,0 -97.62290110000001,27.8630423,0 -97.62261530000001,27.8633065,0 -97.62243789999999,27.86355259999999,0 -97.62216829999998,27.8640288,0 -97.6220278,27.864428,0 -97.62197450000001,27.8649951,0 -97.62201609999998,27.8653968,0 -97.62211240000001,27.8657751,0 -97.6223543,27.8663204,0 -97.6225444,27.8667513,0 -97.62267969999999,27.8672,0 -97.62279839999998,27.8677105,0 -97.62295899999998,27.8687961,0 -97.622980665504,27.86901191723626,0 -97.62334621918345,27.8729933623151,0 -97.62361164734531,27.87694682735865,0 -97.62374566900358,27.87988031957232,0 -97.6238482863744,27.8807542078589,0 -97.62405340460462,27.88153789613566,0 -97.62447991094253,27.88274403443818,0 -97.62649292016638,27.88832323097247,0 -97.62829451568041,27.89318243623766,0 -97.6294382452274,27.89631945478333,0 -97.63065287608413,27.89983696709218,0 -97.63105889516706,27.9015023271707,0 -97.63110066803537,27.90223761710295,0 -97.63114229920723,27.90328086709234,0 -97.63089196538915,27.90430308192343,0 -97.63047477920074,27.90504089656769,0 -97.62994335547916,27.90559251690873,0 -97.62954753592678,27.9059417013946,0 -97.62854174823403,27.90687582530443,0 -97.62737981610822,27.90791802651435,0 -97.62634042412533,27.90887777953157,0 -97.61708205582273,27.9173617479982,0 -97.60687797509337,27.92662899254382,0 -97.60015670021524,27.93281766505999,0 -97.59369440178925,27.93870982852695,0 -97.5888863433083,27.94304805267749,0 -97.58855293746585,27.94332996971302,0 -97.5882857751501,27.94357825179516,0 -97.58806123271184,27.94381373552747,0 -97.58782285424081,27.94411103016888,0 -97.587532920314,27.94443723588323,0 -97.58109873831943,27.95196418329002,0 -97.5800851780746,27.95312349420078,0 -97.57965735439456,27.95352652203271,0 -97.57910712715041,27.95395597877878,0 -97.57849038485847,27.95434141729475,0 -97.57801465323598,27.95463374373852,0 -97.57761308549203,27.95495079694872,0 -97.57343580224405,27.95973662979902,0 -97.57209403325685,27.96127394862945,0 -97.55195186282859,27.98462262637311,0 -97.53354121521082,28.00588973168599,0 -97.53188057394033,28.00836715867288,0 -97.53086116967994,28.00996309710238,0 -97.53023247193643,28.01131972306586,0 -97.52985296561369,28.01261068625395,0 -97.52969102133976,28.01390638872502,0 -97.52967978476472,28.01514918902146,0 -97.53000685282326,28.020711304121,0 -97.530445566449,28.02715332751484,0 -97.53056682761196,28.02911208031526,0 -97.53066593199979,28.03487980263489,0 -97.5306094714612,28.03746665680768,0 -97.53026489115183,28.03917448200687,0 -97.52971648230346,28.04044714697098,0 -97.52889365859735,28.04152453687787,0 -97.52573482020618,28.0447766212672,0 -97.52343161050854,28.0470384392897,0 -97.52275580746642,28.047500940846,0 -97.52214334274363,28.04785186767522,0 -97.52105987093151,28.0484169492207,0 -97.51978578893096,28.04908838707067,0 -97.51661847711118,28.05088053445481,0 -97.51495060185636,28.05205900382605,0 -97.51156007271565,28.05477221512159,0 -97.50782370703359,28.05766211808983,0 -97.50525729567042,28.05966670644874,0 -97.50440173259324,28.06022777169698,0 -97.50331005902649,28.06086860455249,0 -97.50218462562985,28.06150795706837,0 -97.5009841002835,28.06197207381885,0 -97.49896220663922,28.0627575844457,0 -97.49710653730817,28.06339759605727,0 -97.49558354953288,28.06402987215279,0 -97.49396000250469,28.06469022084687,0 -97.49286438645781,28.06523636773309,0 -97.491661503611,28.06594447135118,0 -97.49033685546759,28.06689464499433,0 -97.48937936478546,28.06771734195237,0 -97.4886160885352,28.06846446667632,0 -97.48777387296765,28.0693933851546,0 -97.48521789435796,28.0723094650073,0 -97.47046709560307,28.08933773403746,0 -97.46321180465304,28.09771228903971,0 -97.45647039839388,28.10580935949938,0 -97.44900753165435,28.11425307991379,0 -97.44843610868482,28.11516226664441,0 -97.4479728472016,28.11599359262575,0 -97.44748004974758,28.11675522920121,0 -97.44663364118199,28.11773330106071,0 -97.44487151946986,28.11981052833341,0 -97.44301803532711,28.12194614482465,0 -97.44195319566373,28.12318677990078,0 -97.44099902100785,28.12403833989178,0 -97.44003084120295,28.12469573014279,0 -97.4392413329644,28.1250812057917,0 -97.43833838904169,28.12543424340866,0 -97.43717705559705,28.12578192151143,0 -97.43564966866892,28.12623520465565,0 -97.43503106127234,28.12640005470449,0 -97.43414555812656,28.1265486604536,0 -97.43218541499967,28.12687905075299,0 -97.4258680273125,28.1278885050502,0 -97.42452288893327,28.12820157870715,0 -97.42363890563966,28.1285151583211,0 -97.4226924267245,28.12895854924107,0 -97.42183013195468,28.12949468530139,0 -97.42105140538965,28.13012359747642,0 -97.42037757271379,28.13080825489093,0 -97.41976942593507,28.13164043638226,0 -97.41909587492424,28.13276916167639,0 -97.41653796316096,28.13722055895991,0 -97.40931583674997,28.14957403657992,0 -97.40861520355099,28.15063977005125,0 -97.40772891922107,28.15182770218133,0 -97.40692070880698,28.15275601146143,0 -97.401024137391,28.15963882826721,0 -97.40036054859117,28.16048270399292,0 -97.39986848223779,28.16115606954628,0 -97.39931902352748,28.16198997146473,0 -97.39871233542858,28.16292439696085,0 -97.39792324737353,28.16393878248123,0 -97.39693966838114,28.16503340693779,0 -97.39490454886537,28.16740279104032,0 -97.39106675436426,28.17183996362924,0 -97.39048033365832,28.17240770113489,0 -97.38963784978232,28.17314746688033,0 -97.38897548982729,28.17375106297249,0 -97.38844881701131,28.17425753629414,0 -97.37670623600212,28.18776901521649,0 -97.33573255017924,28.2353595296803,0 -97.33171312491149,28.2402919441648,0 -97.32772279877739,28.24475735415127,0 -97.3265768616958,28.2459204489916,0 -97.32586091127638,28.24670668339643,0 -97.32413669872565,28.24862550918003,0 -97.30853792710975,28.26674922906511,0 -97.30469407982007,28.27118903666625,0 -97.30418617999896,28.27186550801413,0 -97.30386354848822,28.27237002755679,0 -97.30287130512363,28.27371419864972,0 -97.3023648178074,28.27431544714455,0 -97.30131299382283,28.27554370987341,0 -97.29759553746125,28.27990326244222,0 -97.29591434950845,28.28160453630287,0 -97.29457793210959,28.28269939725881,0 -97.29257401690174,28.28398773325738,0 -97.28904640586426,28.2858411852139,0 -97.28783810349574,28.28648722532222,0 -97.28501808593107,28.28822978921415,0 -97.28212047483217,28.2901296255529,0 -97.27917105530159,28.29203344598014,0 -97.27859852607767,28.29242384912015,0 -97.27807829009784,28.29279852197004,0 -97.27774294223187,28.29310598355247,0 -97.27750179798656,28.29339303107145,0 -97.27734327941033,28.29372872791342,0 -97.27724755636545,28.29411347092823,0 -97.27711131197452,28.29482075895126,0 -97.27555767196766,28.30298822323443,0 -97.27504363365551,28.30577926277267,0 -97.27376284720815,28.31208222814438,0 -97.27359218400002,28.31323325922288,0 -97.27335842242707,28.31418633432591,0 -97.27293227732471,28.31530753272007,0 -97.27228356059277,28.31632627369971,0 -97.27162717343197,28.31707600155545,0 -97.27082944156066,28.31788887358437,0 -97.26997427807588,28.31863734230214,0 -97.25738709953255,28.33001124396568,0 -97.25654643692202,28.33073807846043,0 -97.25558743590669,28.33133476088789,0 -97.25458870408201,28.33175825762418,0 -97.25365737850154,28.33198341234861,0 -97.25272438664634,28.33207876299941,0 -97.25165152408832,28.33204329640577,0 -97.25086902718708,28.3319805696506,0 -97.25004837121101,28.33177798526439,0 -97.24946806035909,28.3316336943552,0 -97.24849211430688,28.33141297661829,0 -97.2475629245148,28.33123693333995,0 -97.24676256212319,28.33119599541763,0 -97.24589312130963,28.33118168223266,0 -97.24514756875632,28.3312694400318,0 -97.24440253193492,28.3314328888354,0 -97.24332638287922,28.33179177775931,0 -97.24248569277577,28.33225364737642,0 -97.2419364927831,28.3325921745077,0 -97.24123410475194,28.33314701237253,0 -97.24070665594429,28.33368265709778,0 -97.24029836210447,28.33417350950906,0 -97.23998006396421,28.33471452729891,0 -97.23975416458825,28.33509490075682,0 -97.23683338379715,28.34194238962409,0 -97.23635272426378,28.34293793947716,0 -97.2360473309321,28.34340025043806,0 -97.23546132462469,28.34433302196045,0 -97.23462811952243,28.34544681234946,0 -97.23368305535736,28.34650940633118,0 -97.23235593467516,28.34774627014129,0 -97.21758546510836,28.36146989200206,0 -97.18264896693405,28.39413867990335,0 -97.16758184508336,28.40818932890553,0 -97.1621701989919,28.41330416802313,0 -97.11326867386228,28.45884274558628,0 -97.10946174060682,28.46236994785972,0 -97.07012908357385,28.49905902591207,0 -97.05414042473207,28.51383881751761,0 -97.05234442769078,28.51553801646626,0 -97.0516289504715,28.51614312509497,0 -97.05073680717925,28.51677470319297,0 -97.04967695032087,28.51740624180814,0 -97.04835180919031,28.51810465179803,0 -97.0470757791452,28.51882614779966,0 -97.04617327078572,28.5193932987899,0 -97.04533822447331,28.52017227062448,0 -97.04455758731253,28.52112700564674,0 -97.04411708080269,28.52203263381608,0 -97.04377541990206,28.52304006246359,0 -97.04357437139066,28.5241598832009,0 -97.0432001465897,28.52777011305473,0 -97.04284020558114,28.53157603814328,0 -97.04271856507839,28.53300881273158,0 -97.04273830348666,28.53351573058649,0 -97.04356796558612,28.55980232754825,0 -97.04368187902276,28.564160340447,0 -97.04372514079907,28.56545685839454,0 -97.04366956727276,28.56941970098533,0 -97.04363414527234,28.57282404629954,0 -97.04339749969056,28.59993960233459,0 -97.04348021544627,28.6012686802537,0 -97.04360418623322,28.60281440793936,0 -97.044522411137,28.61406031857941,0 -97.04580448853062,28.62961026016723,0 -97.04590595033972,28.63095439765003,0 -97.04652348086262,28.65477114459179,0 -97.04658199184573,28.65597506331007,0 -97.04674667821998,28.65697267928674,0 -97.0467819982296,28.65776375478058,0 -97.04685467889769,28.65923320820832,0 -97.04696534334887,28.66303488769098,0 -97.0470975828038,28.67085820448377,0 -97.04663466436998,28.68984836389814,0 -97.04663370537865,28.69535816323655,0 -97.04648675818216,28.70012190357286,0 -97.04650803476819,28.70232215743188,0 -97.04638032676422,28.70304122820268,0 -97.04618131726592,28.7042467313841,0 -97.04596783899912,28.70504782892236,0 -97.04567291968482,28.70592621408775,0 -97.04532031544892,28.7067700861518,0 -97.0447849714495,28.70781195251991,0 -97.04358990806801,28.70990626006042,0 -97.04132470015134,28.71397205990091,0 -97.04051408909741,28.71545078450943,0 -97.03471289280056,28.72819471497892,0 -97.03339885675712,28.73099884201653,0 -97.03221780051365,28.73369470399708,0 -97.0380130424746,28.72096520677134,0 
				</coordinates>
			</LineString>
		<atom:link rel="app" href="https://www.google.com/earth/about/versions/#earth-pro" title="Google Earth Pro 7.3.6.10201"></atom:link>
	</Placemark>
</Document>
</kml>
