<?xml version="1.0" encoding="UTF-8"?>
<kml xmlns="http://www.opengis.net/kml/2.2" xmlns:gx="http://www.google.com/kml/ext/2.2" xmlns:kml="http://www.opengis.net/kml/2.2" xmlns:atom="http://www.w3.org/2005/Atom">
<Document>
	<name>I.705.kml</name>
	<Placemark>
		<name>I.705</name>
		<LineString>
			<coordinates>
				-122.4320036,47.2340872,0 -122.4319662,47.234208,0 -122.4319132,47.2343479,0 -122.4316594,47.2352947,0 -122.4315889,47.2355699,0 -122.4315549,47.235726,0 -122.4315136,47.23598930000001,0 -122.4314921,47.2361779,0 -122.4314767,47.23638579999999,0 -122.4314699,47.2366135,0 -122.4314836,47.2368242,0 -122.4315294,47.2370912,0 -122.4315773,47.2373163,0 -122.4316433,47.2375326,0 -122.4317025,47.2376933,0 -122.431753,47.23780620000001,0 -122.4318698,47.23803480000001,0 -122.4319484,47.2381802,0 -122.4324765,47.239067,0 -122.433099,47.24034450000001,0 -122.4333573,47.240886,0 -122.4335493,47.241263,0 -122.4340029,47.2421873,0 -122.4341718,47.2425097,0 -122.4343178,47.2428169,0 -122.4344415,47.2431128,0 -122.4345524,47.2434155,0 -122.4347539,47.2444281,0 -122.4348173,47.244864,0 -122.4349033,47.245328,0 -122.4349791,47.245759,0 -122.4351341,47.24663400000001,0 -122.4352374,47.2470705,0 -122.4354796,47.24812919999999,0 -122.4355445,47.2484656,0 -122.4355886,47.24878729999999,0 -122.4356198,47.2489932,0 -122.4356371,47.2493179,0 -122.4356358,47.24962630000001,0 -122.4356017,47.2501297,0 -122.4355736,47.25050350000001,0 -122.4355583,47.2507492,0 -122.4355615,47.2510562,0 -122.4355807,47.2513487,0 -122.4356099,47.251638,0 -122.4356688,47.2520176,0 -122.435761,47.2523964,0 -122.4358879,47.2528309,0 -122.4359976,47.2531902,0 -122.4360614,47.253412,0 -122.4361984,47.2538673,0 -122.4363007,47.2542568,0 -122.4364423,47.254753,0 -122.4365523,47.25506800000001,0 -122.4366403,47.255303,0 -122.4367263,47.25549,0 -122.4368263,47.25566,0 -122.4368583,47.255714,0 -122.4369993,47.25591,0 -122.437259,47.25625050000001,0 -122.4375561,47.2566399,0 -122.4376113,47.2567016,0 -122.4377105,47.25681470000001,0 
			</coordinates>
		</LineString>
		<atom:link rel="app" href="https://www.google.com/earth/about/versions/#earth-pro" title="Google Earth Pro 7.3.6.10201"></atom:link>
	</Placemark>
</Document>
</kml>
