<?xml version="1.0" encoding="UTF-8"?>
<kml xmlns="http://www.opengis.net/kml/2.2" xmlns:gx="http://www.google.com/kml/ext/2.2" xmlns:kml="http://www.opengis.net/kml/2.2" xmlns:atom="http://www.w3.org/2005/Atom">
<Document>
	<name>I.710.kml</name>
	<Placemark>
		<name>I.710</name>
		<LineString>
			<coordinates>
				-118.24396,33.7567896,0 -118.2433563,33.7569687,0 -118.2408421,33.7577087,0 -118.2401954,33.757898,0 -118.2388415,33.758302,0 -118.2376963,33.7586468,0 -118.2371079,33.7588177,0 -118.2366303,33.7589553,0 -118.2361433,33.7590959,0 -118.2348681,33.7595222,0 -118.2341858,33.7597928,0 -118.2332168,33.7602268,0 -118.2324186,33.760569,0 -118.2317916,33.7608329,0 -118.2311659,33.7610462,0 -118.229005,33.7617699,0 -118.2276645,33.7622586,0 -118.2263497,33.7627615,0 -118.2181777,33.7659117,0 -118.217239,33.7662719,0 -118.2167718,33.766452,0 -118.2162917,33.7666107,0 -118.2158041,33.7667373,0 -118.215295,33.7668317,0 -118.2147774,33.7668987,0 -118.2143979,33.7669264,0 -118.214018,33.7669313,0 -118.2129001,33.7669338,0 -118.210538,33.7669087,0 -118.2103816,33.7669114,0 -118.2102251,33.7669159,0 -118.2100686,33.7669239,0 -118.2099111,33.76694,0 -118.2097487,33.7669632,0 -118.2095906,33.7669953,0 -118.2094357,33.7670337,0 -118.2092809,33.7670765,0 -118.2091318,33.7671241,0 -118.2089794,33.7671788,0 -118.2088357,33.7672363,0 -118.2086941,33.7673026,0 -118.2085603,33.7673687,0 -118.2084286,33.7674438,0 -118.2082964,33.7675273,0 -118.2081771,33.7676108,0 -118.2080666,33.7676956,0 -118.2079615,33.7677814,0 -118.2078628,33.7678671,0 -118.2077652,33.7679609,0 -118.207672,33.7680577,0 -118.2075873,33.7681545,0 -118.2075057,33.7682568,0 -118.2074327,33.7683592,0 -118.2073652,33.7684602,0 -118.207304,33.7685603,0 -118.2072461,33.768664,0 -118.2071957,33.7687632,0 -118.2071483,33.7688763,0 -118.2071062,33.7689893,0 -118.2070679,33.7691033,0 -118.2070363,33.769219,0 -118.2069937,33.7693819,0 -118.2069558,33.7695538,0 -118.2069296,33.7697354,0 -118.2069163,33.7699171,0 -118.2069137,33.7700925,0 -118.2069112,33.7702679,0 -118.2069118,33.7704442,0 -118.2069125,33.7706187,0 -118.2069005,33.7720219,0 -118.2069924,33.774857,0 -118.2069955,33.7759175,0 -118.2069879,33.7761866,0 -118.2069692,33.7763752,0 -118.2069412,33.7765637,0 -118.2068613,33.7770869,0 -118.206817,33.7775617,0 -118.2068323,33.7783356,0 -118.207016,33.7790351,0 -118.2071547,33.7793558,0 -118.2071778,33.7794213,0 -118.2072382,33.7795867,0 -118.2073269,33.7798815,0 -118.2073675,33.7800165,0 -118.2074433,33.7804695,0 -118.207476,33.7809253,0 -118.2075136,33.7820734,0 -118.2075144,33.7824853,0 -118.2075152,33.782875,0 -118.2075207,33.7832736,0 -118.207503,33.785005,0 -118.2075021,33.7852477,0 -118.2074987,33.7862257,0 -118.2075052,33.7866983,0 -118.2075202,33.7871673,0 -118.2075238,33.7872284,0 -118.2076271,33.7880182,0 -118.2077015,33.7886521,0 -118.2077353,33.78905,0 -118.2077549,33.7894369,0 -118.2077258,33.7906521,0 -118.2076563,33.7912975,0 -118.2076119,33.7916554,0 -118.2075287,33.7921191,0 -118.207476,33.7924071,0 -118.2073104,33.7930461,0 -118.2071111,33.7937441,0 -118.2069858,33.7942432,0 -118.2069199,33.7946468,0 -118.2068877,33.7948965,0 -118.2068608,33.7951216,0 -118.2068474,33.7953333,0 -118.2068325,33.7955156,0 -118.2068298,33.7980512,0 -118.2068281,33.8000246,0 -118.2068581,33.8005371,0 -118.206887,33.8007808,0 -118.2070519,33.8017664,0 -118.207158,33.8023091,0 -118.2073148,33.8032956,0 -118.2073437,33.8041189,0 -118.2073557,33.8046496,0 -118.2073503,33.804951,0 -118.2073306,33.805359,0 -118.207199,33.8061945,0 -118.2070048,33.8072414,0 -118.2069377,33.8076161,0 -118.2068898,33.808022,0 -118.206865,33.8084019,0 -118.2068615,33.8088653,0 -118.2068496,33.8184477,0 -118.2068715,33.8213351,0 -118.2068645,33.821669,0 -118.206867,33.8225008,0 -118.2068618,33.8233745,0 -118.2068744,33.8238076,0 -118.2068972,33.8241864,0 -118.2069308,33.8245296,0 -118.2069777,33.8248126,0 -118.2070367,33.8251357,0 -118.2071306,33.8255401,0 -118.2072499,33.8259835,0 -118.2074726,33.8267772,0 -118.207732,33.8276662,0 -118.2078856,33.8282061,0 -118.2080057,33.8286366,0 -118.2083657,33.8299106,0 -118.208473,33.8302771,0 -118.2085385,33.8305496,0 -118.2086152,33.8308832,0 -118.2086756,33.8312362,0 -118.2087238,33.8315794,0 -118.2087493,33.8318167,0 -118.2087707,33.8322096,0 -118.2087866,33.8325388,0 -118.2087791,33.8329316,0 -118.2087587,33.8333618,0 -118.2086995,33.8339141,0 -118.2086552,33.8341793,0 -118.2085145,33.8346935,0 -118.2082416,33.8356667,0 -118.2079313,33.836801,0 -118.2068707,33.8406338,0 -118.2066892,33.8412896,0 -118.2064532,33.8421183,0 -118.2062504,33.8429733,0 -118.2059917,33.8439197,0 -118.2055358,33.8456136,0 -118.2054259,33.8461371,0 -118.2053803,33.846498,0 -118.2053481,33.8468143,0 -118.2053185,33.8472126,0 -118.20517,33.849365,0 -118.2049757,33.8512496,0 -118.2047776,33.8522794,0 -118.2046035,33.8529789,0 -118.2041915,33.8542691,0 -118.2036261,33.855651,0 -118.2028302,33.8571987,0 -118.2021883,33.8581902,0 -118.2015003,33.8591429,0 -118.1994403,33.8621034,0 -118.1983411,33.8638261,0 -118.1978355,33.8646329,0 -118.1971155,33.8658334,0 -118.1962531,33.8672926,0 -118.1954733,33.8686001,0 -118.195039,33.8693267,0 -118.19463,33.870108,0 -118.1939862,33.8716557,0 -118.1938897,33.8720009,0 -118.1935165,33.87343,0 -118.1934155,33.8738015,0 -118.1929751,33.8756242,0 -118.1928061,33.876457,0 -118.1924386,33.8778978,0 -118.1922321,33.8787685,0 -118.1919005,33.8801472,0 -118.1913069,33.8823677,0 -118.1910385,33.8834158,0 -118.1909016,33.8838807,0 -118.1906926,33.8845211,0 -118.1905247,33.8849101,0 -118.1901288,33.8857644,0 -118.1896947,33.8866422,0 -118.1892726,33.8876501,0 -118.1888522,33.8888345,0 -118.1887009,33.8893247,0 -118.1883922,33.8904708,0 -118.1882331,33.8911877,0 -118.1880958,33.8919075,0 -118.1878661,33.893324,0 -118.1876594,33.8947026,0 -118.1874125,33.896446,0 -118.1868629,33.8997757,0 -118.1868086,33.9000431,0 -118.1867523,33.9002613,0 -118.1866033,33.9007581,0 -118.1864578,33.9012486,0 -118.1862931,33.9017201,0 -118.1861332,33.9021269,0 -118.1859276,33.9025839,0 -118.1857348,33.9029511,0 -118.1855281,33.90329,0 -118.18531,33.9035937,0 -118.1852052,33.9037393,0 -118.1847182,33.9043716,0 -118.1833443,33.9058275,0 -118.1827208,33.9064661,0 -118.1824518,33.9067626,0 -118.1821804,33.907085,0 -118.1819164,33.9074233,0 -118.181677,33.9077639,0 -118.1813904,33.9082188,0 -118.1811866,33.9085886,0 -118.1809655,33.9090325,0 -118.1807827,33.909461,0 -118.1806173,33.909917,0 -118.1805279,33.9102064,0 -118.1804428,33.9105161,0 -118.1803677,33.9108387,0 -118.1791077,33.9169565,0 -118.1787642,33.9184863,0 -118.1785003,33.9199692,0 -118.1781584,33.9213776,0 -118.1779078,33.9225769,0 -118.1776382,33.9241052,0 -118.177612,33.9248616,0 -118.1776871,33.9257096,0 -118.177894,33.9265923,0 -118.1782702,33.927625,0 -118.1785588,33.9285095,0 -118.178643,33.9288558,0 -118.1787124,33.9292315,0 -118.1787469,33.9296106,0 -118.1787629,33.9300112,0 -118.1787492,33.9304198,0 -118.1787309,33.9307362,0 -118.1786616,33.9310296,0 -118.1785929,33.9313714,0 -118.1784985,33.9317488,0 -118.1783955,33.932055,0 -118.1782931,33.9323452,0 -118.1781078,33.9327111,0 -118.1779412,33.933028,0 -118.1775543,33.9335883,0 -118.1773378,33.9338712,0 -118.1771017,33.9341382,0 -118.1764929,33.934728,0 -118.1763641,33.9348481,0 -118.1759806,33.9351441,0 -118.1745241,33.9361233,0 -118.1730767,33.9372554,0 -118.1729272,33.9374086,0 -118.1727096,33.9376724,0 -118.1723954,33.938042,0 -118.1720148,33.9386066,0 -118.1718728,33.9388631,0 -118.1718279,33.9389446,0 -118.1716327,33.9393699,0 -118.1714718,33.9397549,0 -118.1713645,33.9400776,0 -118.1712442,33.9405116,0 -118.1711821,33.9408631,0 -118.170515,33.9459294,0 -118.1703213,33.9472585,0 -118.170261,33.9480096,0 -118.1702499,33.948735,0 -118.170269,33.9490516,0 -118.1703027,33.949366,0 -118.1703921,33.9506908,0 -118.1705304,33.9531616,0 -118.1705401,33.9539601,0 -118.1704893,33.9557705,0 -118.1703611,33.9574209,0 -118.1701943,33.9588519,0 -118.1700674,33.9598137,0 -118.1698483,33.9612345,0 -118.1696564,33.9625098,0 -118.1695595,33.9629548,0 -118.1694259,33.9633981,0 -118.1692593,33.9638981,0 -118.1690286,33.9643715,0 -118.1682019,33.966117,0 -118.1679503,33.9669069,0 -118.1678374,33.9673522,0 -118.1677119,33.967905,0 -118.1676138,33.968569,0 -118.1675696,33.9694116,0 -118.1675677,33.9699086,0 -118.1675956,33.9704031,0 -118.1678444,33.9724826,0 -118.1678435,33.9725999,0 -118.1678327,33.9731516,0 -118.1677399,33.9741116,0 -118.1673747,33.976599,0 -118.167313,33.9778762,0 -118.1673352,33.9793474,0 -118.16745,33.9804078,0 -118.1676637,33.9816433,0 -118.167766,33.9820503,0 -118.1678863,33.9824545,0 -118.1684849,33.9842125,0 -118.1688874,33.9852017,0 -118.1693001,33.9860261,0 -118.1698531,33.9869673,0 -118.1702453,33.9875602,0 -118.1708976,33.9884531,0 -118.1713381,33.9889813,0 -118.1718259,33.9895446,0 -118.1727357,33.9904927,0 -118.1731895,33.9909049,0 -118.1739478,33.9915007,0 -118.1751545,33.9924609,0 -118.1754093,33.9927011,0 -118.1756802,33.9930258,0 -118.1762271,33.9938084,0 -118.176491,33.9942997,0 -118.1766855,33.9948256,0 -118.176792,33.9952168,0 -118.1768295,33.9953819,0 -118.1768443,33.9955242,0 -118.1768558,33.9957008,0 -118.1768622,33.9957761,0 -118.1768678,33.9960049,0 -118.176764,33.9970661,0 -118.1766232,33.9975583,0 -118.1764799,33.9979716,0 -118.1763663,33.9982203,0 -118.17621,33.9984772,0 -118.176157,33.9985542,0 -118.1760373,33.9987319,0 -118.1746354,34.0008015,0 -118.1744905,34.0010413,0 -118.1739609,34.0019629,0 -118.1733607,34.0032714,0 -118.1732259,34.003595,0 -118.1730021,34.0042218,0 -118.1728749,34.0045819,0 -118.1727857,34.0048931,0 -118.1726222,34.0054649,0 -118.1724125,34.0066107,0 -118.1723421,34.0071429,0 -118.1722872,34.0077885,0 -118.1722845,34.008211,0 -118.1722764,34.0099897,0 -118.1722657,34.0114616,0 -118.172253,34.0129615,0 -118.1722189,34.0145338,0 -118.1722103,34.01479,0 -118.1722103,34.0150745,0 -118.1722214,34.0152704,0 -118.1722602,34.0155002,0 -118.1723336,34.0157944,0 -118.1724515,34.0161716,0 -118.1725437,34.0164815,0 -118.1729142,34.0172159,0 -118.1730343,34.0175574,0 -118.1731287,34.0178989,0 -118.1732629,34.0187176,0 -118.173266,34.0187921,0 -118.1732707,34.0190573,0 -118.1732744,34.0202919,0 -118.1732644,34.0205926,0 -118.1732128,34.0209419,0 -118.1731509,34.0212872,0 -118.17296,34.0219647,0 -118.172496,34.0234862,0 -118.1724334,34.0237182,0 -118.1723296,34.0241712,0 -118.1721861,34.0250503,0 -118.172137,34.0258344,0 -118.1721581,34.0270717,0 -118.1721581,34.027323,0 -118.1720963,34.0279148,0 -118.1720179,34.0282606,0 -118.1718922,34.028644,0 -118.1716796,34.0291664,0 -118.1711529,34.0304241,0 -118.1708527,34.0310212,0 -118.1700391,34.0329823,0 -118.1698942,34.0336569,0 -118.1698554,34.0339689,0 -118.1698562,34.0350009,0 -118.1698919,34.0360775,0 -118.1699167,34.0370547,0 -118.1699416,34.0384855,0 -118.1699334,34.0407036,0 -118.1699284,34.0429636,0 -118.1699043,34.0437205,0 -118.1698504,34.0441031,0 -118.1698131,34.0442846,0 -118.1695967,34.0449919,0 -118.1695815,34.0450249,0 -118.1693698,34.0455065,0 -118.1689208,34.046185,0 -118.1679103,34.0473944,0 -118.1673517,34.0480453,0 -118.1669164,34.0485899,0 -118.166561,34.0490122,0 -118.1662,34.0494344,0 -118.1658211,34.0498565,0 -118.1652943,34.0504608,0 -118.1650727,34.0507223,0 -118.1650459,34.0507561,0 -118.1648736,34.0509803,0 -118.164708,34.0512249,0 -118.1645671,34.0514647,0 -118.1644431,34.0517076,0 -118.1643379,34.0519602,0 -118.1642458,34.0522295,0 -118.1641655,34.0524883,0 -118.1640962,34.0527709,0 -118.1640427,34.0530388,0 -118.1640016,34.0533109,0 -118.1639814,34.053559,0 -118.1639748,34.0538328,0 -118.1639827,34.0541023,0 -118.1640026,34.0543574,0 -118.164037,34.0546227,0 -118.1641006,34.0548998,0 -118.1641733,34.055169,0 -118.1643629,34.0557164,0 -118.1647926,34.0566622,0 -118.1650601,34.0573238,0 -118.1651835,34.0577172,0 -118.1652299,34.0578989,0 -118.1652876,34.0581717,0 -118.1653237,34.0584139,0 -118.1653435,34.0586551,0 -118.1653497,34.0589793,0 -118.1653335,34.0592725,0 -118.1653088,34.0594655,0 -118.1652325,34.0599846,0 -118.1651159,34.0607123,0 -118.1649923,34.0613938,0 -118.1649543,34.0616377,0 -118.1648025,34.0626832,0 -118.1646645,34.0635964,0 -118.164617,34.0638508,0 -118.164559,34.0640978,0 -118.1645008,34.064348,0 -118.164429,34.0646119,0 -118.1643515,34.0648627,0 -118.1642307,34.0652331,0 -118.1640806,34.0656342,0 -118.1638868,34.0660702,0 -118.1635675,34.066705,0 -118.1629199,34.0679581,0 -118.1621341,34.069463,0 -118.1614907,34.0707011,0 -118.1613694,34.0709443,0 -118.1612721,34.0711584,0 -118.1611787,34.0713988,0 -118.161109,34.0716101,0 -118.1610504,34.0718273,0 
			</coordinates>
		</LineString>
		<atom:link rel="app" href="https://www.google.com/earth/about/versions/#earth-pro" title="Google Earth Pro 7.3.6.10201"></atom:link>
	</Placemark>
</Document>
</kml>
