<?xml version="1.0" encoding="UTF-8"?>
<kml xmlns="http://www.opengis.net/kml/2.2" xmlns:gx="http://www.google.com/kml/ext/2.2" xmlns:kml="http://www.opengis.net/kml/2.2" xmlns:atom="http://www.w3.org/2005/Atom">
<Document>
	<name>I.72.kml</name>
	<Placemark>
		<name>I.72</name>
			<LineString>
				<coordinates>
					-91.3957305,39.7146169,0 -91.3926405,39.7147073,0 -91.3914795,39.7147349,0 -91.3888838,39.7147689,0 -91.3853857,39.7147613,0 -91.38469910000001,39.7148149,0 -91.38387829999999,39.7149429,0 -91.3817583,39.7153514,0 -91.3812319,39.7154528,0 -91.37768149999999,39.7161369,0 -91.37334250000001,39.7169816,0 -91.3725214,39.7171573,0 -91.369017,39.7178091,0 -91.36804100000001,39.7179367,0 -91.36659299999999,39.7180081,0 -91.36507449999999,39.7181428,0 -91.36391989999998,39.7183649,0 -91.3635613,39.7184513,0 -91.36319650000002,39.7185472,0 -91.3628519,39.7186535,0 -91.3625048,39.71877,0 -91.35812089999999,39.7202585,0 -91.34773270000001,39.723757,0 -91.3459859,39.7243422,0 -91.3436372,39.7251413,0 -91.33078929999999,39.7294863,0 -91.32767320000001,39.7305132,0 -91.3162963,39.7343725,0 -91.3156523,39.7345961,0 -91.30827170000002,39.7370693,0 -91.3078256,39.7372372,0 -91.30732829999999,39.7374464,0 -91.3069177,39.7376669,0 -91.3065251,39.7378916,0 -91.3061716,39.7381105,0 -91.30585619999999,39.738322,0 -91.3051019,39.7389342,0 -91.30475959999998,39.7393078,0 -91.3044608,39.7396496,0 -91.30418830000001,39.7400293,0 -91.30404400000002,39.7402929,0 -91.3038095,39.7407239,0 -91.30338399999999,39.7415441,0 -91.30292300000001,39.7428759,0 -91.30109040000002,39.7473905,0 -91.30051830000001,39.7488856,0 -91.30010269999998,39.7498329,0 -91.2999812,39.7501298,0 -91.29988050000001,39.7503679,0 -91.29967710000001,39.7506852,0 -91.29956799999999,39.750867,0 -91.29933519999999,39.7511455,0 -91.29901150000001,39.7514362,0 -91.298699,39.7516726,0 -91.29847340000001,39.7518209,0 -91.29830729999999,39.7519142,0 -91.2980192,39.7520623,0 -91.2977302,39.7521923,0 -91.297393,39.7523221,0 -91.2970253,39.7524205,0 -91.29670680000001,39.7525001,0 -91.2962505,39.7525773,0 -91.29585380000002,39.7526161,0 -91.29553900000001,39.7526274,0 -91.29523690000001,39.7526301,0 -91.2949902,39.7526133,0 -91.29466279999998,39.7525743,0 -91.29427750000001,39.7525111,0 -91.293989,39.7524443,0 -91.2936857,39.7523513,0 -91.2930697,39.7521472,0 -91.29166770000002,39.7516647,0 -91.28974200000002,39.7510508,0 -91.2822269,39.7484483,0 -91.28171219999999,39.7482735,0 -91.2664992,39.742943,0 -91.26345549999999,39.7418718,0 -91.2521615,39.7379226,0 -91.2427323,39.7346074,0 -91.2418638,39.7342968,0 -91.24130049999999,39.7340726,0 -91.24076959999999,39.7338445,0 -91.2402063,39.7335991,0 -91.23959060000001,39.7333039,0 -91.23911699999999,39.7330586,0 -91.23862930000001,39.7328165,0 -91.23791519999999,39.7324207,0 -91.23719560000001,39.7320001,0 -91.2363227,39.7314483,0 -91.23566729999999,39.7310004,0 -91.23503100000001,39.7305203,0 -91.2347461,39.7303179,0 -91.23410029999999,39.7297893,0 -91.23230039999999,39.7281879,0 -91.2313508,39.7273179,0 -91.229213,39.7253924,0 -91.22891639999999,39.7251183,0 -91.22854510000001,39.7248135,0 -91.2281962,39.7245682,0 -91.2278573,39.7243267,0 -91.22744109999999,39.7240583,0 -91.22707470000002,39.7238417,0 -91.2267308,39.7236385,0 -91.2263171,39.7234181,0 -91.2258262,39.7231823,0 -91.22548469999998,39.7230347,0 -91.22501370000001,39.7228316,0 -91.22463740000001,39.7226897,0 -91.22419879999998,39.7225383,0 -91.22367300000001,39.7223715,0 -91.2231845,39.7222259,0 -91.2226312,39.7220936,0 -91.22204809999999,39.7219767,0 -91.2215272,39.7218827,0 -91.2208519,39.7217831,0 -91.21342779999999,39.7208783,0 -91.20081259999999,39.7193199,0 -91.18956059999999,39.7179435,0 -91.18854880000001,39.717817,0 -91.18776629999999,39.7177212,0 -91.1870436,39.7176502,0 -91.18652520000001,39.7176176,0 -91.1859271,39.7175985,0 -91.18503740000001,39.7175927,0 -91.1842225,39.7176426,0 -91.18362190000002,39.717702,0 -91.18303369999998,39.7177748,0 -91.18254279999999,39.7178592,0 -91.18213900000001,39.7179263,0 -91.18161069999999,39.7180413,0 -91.18100759999999,39.7182042,0 -91.1805391,39.7183307,0 -91.1800506,39.7184898,0 -91.1795721,39.7186643,0 -91.17908370000001,39.7188617,0 -91.1785304,39.7191013,0 -91.1780195,39.7193505,0 -91.17749120000001,39.7196285,0 -91.17122350000001,39.7230712,0 -91.16510519999999,39.7264158,0 -91.1631857,39.7274646,0 -91.15976089999998,39.7293544,0 -91.1592575,39.7296226,0 -91.14404949999999,39.7379619,0 -91.1434545,39.7382759,0 -91.1428957,39.7385366,0 -91.14242519999999,39.7387348,0 -91.1420238,39.7388864,0 -91.14148759999999,39.7390674,0 -91.14083539999999,39.7392735,0 -91.14022649999998,39.7394318,0 -91.13945440000002,39.7395947,0 -91.1391157,39.7396588,0 -91.13842870000001,39.7397685,0 -91.1377892,39.7398405,0 -91.1373644,39.7398804,0 -91.136994,39.7399008,0 -91.1365856,39.7399199,0 -91.13620299999999,39.7399296,0 -91.1354821,39.7399262,0 -91.13499400000001,39.7399067,0 -91.1345986,39.7398719,0 -91.13424430000001,39.7398411,0 -91.13383140000002,39.7397867,0 -91.1334588,39.7397405,0 -91.13315770000001,39.7396821,0 -91.1322436,39.7394967,0 -91.13174309999999,39.7393542,0 -91.13124569999999,39.7391879,0 -91.13081630000001,39.7390525,0 -91.13025089999998,39.7388268,0 -91.1296825,39.7385678,0 -91.1291603,39.7382922,0 -91.1286289,39.7379882,0 -91.12815929999999,39.7376912,0 -91.1276866,39.7373514,0 -91.12722009999999,39.7369761,0 -91.12690500000001,39.7366934,0 -91.12660529999998,39.7363893,0 -91.1262902,39.736059,0 -91.12595030000001,39.735648,0 -91.125629,39.7352227,0 -91.12540660000001,39.7348972,0 -91.1251749,39.734529,0 -91.1249648,39.7341203,0 -91.1247145,39.7335596,0 -91.1234293,39.730421,0 -91.1231142,39.7298317,0 -91.12275889999999,39.7293185,0 -91.12236339999998,39.7287649,0 -91.1218629,39.728178,0 -91.12138710000001,39.7276861,0 -91.1205221,39.7269543,0 -91.12000310000001,39.7265694,0 -91.11944389999999,39.7262034,0 -91.118792,39.7258375,0 -91.11799179999998,39.7254597,0 -91.1173306,39.7251389,0 -91.1166386,39.7247991,0 -91.1160825,39.7244831,0 -91.1154399,39.7241694,0 -91.11479420000001,39.7238153,0 -91.1143276,39.7235231,0 -91.11390439999998,39.7232569,0 -91.11354599999999,39.7229908,0 -91.11317219999999,39.722708,0 -91.112786,39.7223896,0 -91.1124585,39.7220688,0 -91.11200429999998,39.7216363,0 -91.1070333,39.7158806,0 -91.10656559999998,39.7153908,0 -91.106044,39.7149366,0 -91.10552879999999,39.7145541,0 -91.10494490000001,39.7141596,0 -91.1042621,39.7137817,0 -91.1035454,39.7134537,0 -91.1028008,39.713159,0 -91.1021427,39.7129594,0 -91.10127180000001,39.7127394,0 -91.1005213,39.7126055,0 -91.10013409999999,39.7125567,0 -91.0997076,39.712522,0 -91.0991939,39.7124825,0 -91.09859710000001,39.7124675,0 -91.09802230000001,39.7124844,0 -91.0974133,39.7125183,0 -91.0965376,39.7126142,0 -91.0954541,39.7127309,0 -91.08088360000001,39.7143246,0 -91.0800838,39.7144055,0 -91.0794307,39.7144977,0 -91.07879229999999,39.7145898,0 -91.0778971,39.7147648,0 -91.0773076,39.7148909,0 -91.0765469,39.7150809,0 -91.07604310000001,39.7152126,0 -91.07512339999998,39.7154854,0 -91.07405209999999,39.7157996,0 -91.0735555,39.7159332,0 -91.07291959999999,39.7160969,0 -91.07250869999999,39.7161741,0 -91.07196810000001,39.7162587,0 -91.0714569,39.7163246,0 -91.07073050000001,39.7163679,0 -91.0702266,39.7163829,0 -91.06972519999999,39.7163735,0 -91.0691822,39.7163415,0 -91.06825430000001,39.7162283,0 -91.0676855,39.7161298,0 -91.0671376,39.716017,0 -91.0666117,39.7158759,0 -91.066191,39.7157498,0 -91.06569450000001,39.7155823,0 -91.065198,39.7153791,0 -91.06483350000002,39.7152079,0 -91.06444219999999,39.7150085,0 -91.0639554,39.7146792,0 -91.0633708,39.7142503,0 -91.06221389999999,39.7133866,0 -91.0610271,39.7124457,0 -91.05991500000002,39.7115705,0 -91.05921280000001,39.7110631,0 -91.0587517,39.7107544,0 -91.05811559999999,39.7103587,0 -91.0575905,39.7100615,0 -91.05688820000002,39.7096904,0 -91.0562393,39.7093669,0 -91.05555200000001,39.7090631,0 -91.05493939999999,39.70882,0 -91.05423930000001,39.7085557,0 -91.05331289999999,39.7082519,0 -91.0519788,39.7078578,0 -91.04840129999999,39.7068511,0 -91.044932,39.7058967,0 -91.0389325,39.7042549,0 -91.03454760000001,39.7030326,0 -91.02663509999999,39.7008414,0 -91.0206112,39.6991879,0 -91.0179938,39.69846,0 -91.01080399999999,39.6964852,0 -91.00664380000001,39.6953356,0 -91.0014516,39.6938931,0 -91.00020189999999,39.6935494,0 -90.9992812,39.6933101,0 -90.99835750000001,39.6930895,0 -90.99747000000002,39.6929176,0 -90.99652820000001,39.6927503,0 -90.9955712,39.692611,0 -90.9940196,39.6924251,0 -90.9925616,39.6923322,0 -90.9910673,39.6922997,0 -90.9889452,39.6923206,0 -90.9868925,39.6923508,0 -90.9759377,39.6925273,0 -90.95491250000002,39.6928641,0 -90.9530862,39.6928943,0 -90.95135950000001,39.6929129,0 -90.94995579999998,39.6928665,0 -90.9490804,39.6928339,0 -90.9478397,39.6927573,0 -90.9468918,39.6926737,0 -90.9455847,39.6925482,0 -90.94430180000001,39.6924112,0 -90.8871534,39.6865661,0 -90.8860636,39.6864197,0 -90.88517909999999,39.6863036,0 -90.8844426,39.6861665,0 -90.88340410000001,39.6859319,0 -90.88268870000002,39.6857507,0 -90.881765,39.6854835,0 -90.88079,39.6851513,0 -90.879824,39.6847587,0 -90.87867080000001,39.6842546,0 -90.87751470000001,39.6836599,0 -90.8711392,39.6803052,0 -90.8629067,39.6759958,0 -90.8615332,39.6753452,0 -90.8606759,39.6749781,0 -90.85979140000001,39.6746389,0 -90.8589039,39.6743438,0 -90.85816730000001,39.6741138,0 -90.8575515,39.6739279,0 -90.85709869999999,39.6737931,0 -90.85590940000002,39.6734934,0 -90.8541857,39.673131,0 -90.8532907,39.6729738,0 -90.84385690000001,39.6719695,0 -90.8384085,39.671383,0 -90.8363942,39.6711843,0 -90.8334321,39.6708546,0 -90.8314687,39.6706704,0 -90.82689530000002,39.6701861,0 -90.8260518,39.6700956,0 -90.82481429999999,39.6699892,0 -90.8239155,39.6699333,0 -90.8228819,39.6698828,0 -90.8217896,39.6698482,0 -90.8207836,39.6698429,0 -90.8196774,39.6698615,0 -90.81865070000001,39.6698881,0 -90.817669,39.6699413,0 -90.81671270000001,39.6700042,0 -90.80155770000002,39.671182,0 -90.79644169999999,39.6715844,0 -90.7902971,39.6720615,0 -90.78972640000001,39.6721301,0 -90.78909539999999,39.6722108,0 -90.78841090000002,39.6723052,0 -90.7878067,39.6724064,0 -90.7872502,39.6725111,0 -90.7831262,39.6732871,0 -90.7824578,39.6734157,0 -90.78194070000002,39.6735115,0 -90.78119029999999,39.6736183,0 -90.780629,39.6736911,0 -90.77998110000001,39.6737603,0 -90.7791912,39.6738185,0 -90.77830209999999,39.6738586,0 -90.77746969999998,39.6738634,0 -90.7737624,39.6738959,0 -90.76838660000001,39.673928,0 -90.7657068,39.6739631,0 -90.7642294,39.6739824,0 -90.76297760000001,39.6739988,0 -90.7615021,39.6739988,0 -90.7566556,39.6740344,0 -90.7541727,39.6740459,0 -90.7499042,39.6740762,0 -90.74847269999999,39.6740835,0 -90.7474007,39.6741102,0 -90.7458336,39.6741805,0 -90.7449355,39.674242,0 -90.74446020000001,39.674285,0 -90.7439648,39.67433,0 -90.7434291,39.6743789,0 -90.7428723,39.6744578,0 -90.7419697,39.6745854,0 -90.7409787,39.6747293,0 -90.73923430000001,39.6750154,0 -90.73820010000001,39.6752314,0 -90.7369779,39.6755042,0 -90.73452360000002,39.6760856,0 -90.7316703,39.6767639,0 -90.73057519999999,39.6769976,0 -90.72958010000002,39.6772204,0 -90.7282889,39.677466,0 -90.72757410000001,39.6775891,0 -90.72676729999999,39.6777133,0 -90.7260452,39.6777996,0 -90.72521829999999,39.6778998,0 -90.7244086,39.6779712,0 -90.72331769999998,39.678061,0 -90.7216813,39.6781508,0 -90.72046539999999,39.6781834,0 -90.7196052,39.6781993,0 -90.71887670000001,39.6781989,0 -90.71095710000002,39.678166,0 -90.7074138,39.6781483,0 -90.70356639999999,39.6781194,0 -90.697964,39.6781241,0 -90.69718840000002,39.6781508,0 -90.6964222,39.6781945,0 -90.69565420000001,39.6782596,0 -90.6947321,39.6783182,0 -90.69385200000002,39.678416,0 -90.69279119999999,39.6785405,0 -90.69186259999999,39.6786611,0 -90.6901917,39.6789225,0 -90.6859786,39.6796202,0 -90.68270010000001,39.6801407,0 -90.6804997,39.6805093,0 -90.6789778,39.6807547,0 -90.67815969999999,39.6808711,0 -90.6775102,39.6809269,0 -90.6769647,39.6809609,0 -90.676621,39.6809973,0 -90.67613230000001,39.6810191,0 -90.67530619999999,39.6810409,0 -90.67425619999999,39.6810434,0 -90.6730391,39.6810507,0 -90.67134599999999,39.6811113,0 -90.66919560000001,39.681155,0 -90.6660394,39.6811477,0 -90.6647782,39.681121,0 -90.66334980000001,39.6810652,0 -90.66238890000001,39.6810433,0 -90.6606532,39.6810503,0 -90.65987519999999,39.6810773,0 -90.65895130000001,39.6811259,0 -90.65784360000001,39.6812468,0 -90.6567021,39.6813849,0 -90.6560401,39.6814716,0 -90.65521099999998,39.6816743,0 -90.65455840000001,39.6818469,0 -90.6537943,39.6820663,0 -90.65314280000001,39.6822593,0 -90.652429,39.6825132,0 -90.65058639999999,39.6832095,0 -90.6488612,39.6838335,0 -90.6450758,39.6852019,0 -90.63454280000001,39.6891342,0 -90.63110399999999,39.690409,0 -90.630651,39.69056,0 -90.63019199999999,39.690705,0 -90.62973,39.69084,0 -90.629513,39.6909,0 -90.62926400000001,39.690969,0 -90.628792,39.691087,0 -90.62831699999998,39.691198,0 -90.627836,39.691297,0 -90.627352,39.691389,0 -90.62686600000002,39.691474,0 -90.6257708,39.6915966,0 -90.6253033,39.6916449,0 -90.62503589999999,39.6916792,0 -90.62463460000001,39.6917134,0 -90.62426739999999,39.691731,0 -90.6238573,39.6917508,0 -90.6233955,39.691763,0 -90.6229127,39.6917673,0 -90.62263729999999,39.6917748,0 -90.6216968,39.6917512,0 -90.61986570000001,39.6917483,0 -90.61894920000002,39.6917471,0 -90.61318100000001,39.691764,0 -90.612679,39.691756,0 -90.61218,39.691739,0 -90.611682,39.691716,0 -90.611349,39.691694,0 -90.610692,39.691651,0 -90.610198,39.691605,0 -90.60970500000001,39.691554,0 -90.609213,39.691495,0 -90.60872199999999,39.69143,0 -90.608233,39.691359,0 -90.607743,39.69128,0 -90.60677200000001,39.691096,0 -90.60628699999999,39.690999,0 -90.60580600000002,39.690892,0 -90.60532800000001,39.690776,0 -90.60485300000002,39.690656,0 -90.604381,39.690528,0 -90.603916,39.690393,0 -90.60345400000001,39.690254,0 -90.602994,39.690109,0 -90.5979792,39.6884153,0 -90.5949566,39.6874124,0 -90.592069,39.686458,0 -90.59169559999999,39.6863374,0 -90.59126729999998,39.6862165,0 -90.59084879999999,39.6860902,0 -90.59034830000002,39.6859523,0 -90.58981780000001,39.6858103,0 -90.58933469999999,39.6857048,0 -90.5888796,39.6856063,0 -90.5884169,39.6855143,0 -90.588036,39.6854447,0 -90.58764979999999,39.6853739,0 -90.58726249999998,39.6853035,0 -90.58655299999999,39.6852028,0 -90.585972,39.6851316,0 -90.5855072,39.6850769,0 -90.5849997,39.6850391,0 -90.584452,39.6850164,0 -90.58401889999999,39.6849966,0 -90.58357469999999,39.6849867,0 -90.58304499999998,39.6849728,0 -90.5820281,39.6849743,0 -90.5775472,39.6849861,0 -90.5752368,39.685003,0 -90.5705196,39.6850232,0 -90.56992839999999,39.6850317,0 -90.5640745,39.6850926,0 -90.563141,39.685095,0 -90.56190000000001,39.685098,0 -90.56066,39.685079,0 -90.559669,39.685041,0 -90.55809000000001,39.684948,0 -90.55793199999999,39.684939,0 -90.554804,39.684744,0 -90.55293099999999,39.684627,0 -90.54676600000001,39.684243,0 -90.54551600000001,39.684166,0 -90.543035,39.684011,0 -90.54178899999999,39.683929,0 -90.540542,39.683834,0 -90.53930499999998,39.683726,0 -90.53831099999999,39.683628,0 -90.53731999999999,39.68352,0 -90.53584600000001,39.683343,0 -90.534122,39.683106,0 -90.52728200000001,39.682127,0 -90.52309200000001,39.681528,0 -90.522111,39.681384,0 -90.521218,39.6812566,0 -90.52066780000001,39.6811973,0 -90.52014800000001,39.681162,0 -90.519981,39.68115,0 -90.519651,39.681127,0 -90.51915099999999,39.681103,0 -90.518654,39.681089,0 -90.51441800000001,39.681069,0 -90.51291000000001,39.681064,0 -90.50366510000001,39.68103,0 -90.49326499999999,39.680991,0 -90.48986999999998,39.680973,0 -90.48952700000001,39.680971,0 -90.488282,39.680969,0 -90.48703,39.680959,0 -90.48578000000001,39.680957,0 -90.484431,39.680948,0 -90.483298,39.680941,0 -90.48080400000001,39.680932,0 -90.470843,39.680882,0 -90.469342,39.680884,0 -90.467348,39.680907,0 -90.46386599999998,39.680958,0 -90.463533,39.680959,0 -90.46309800000002,39.680966,0 -90.46211699999999,39.680984,0 -90.45341000000001,39.681108,0 -90.450294,39.681158,0 -90.44617700000001,39.681215,0 -90.444684,39.681231,0 -90.44344,39.681237,0 -90.44021650000002,39.681237,0 -90.437977,39.681237,0 -90.435964,39.681237,0 -90.43450299999999,39.681234,0 -90.431023,39.681235,0 -90.42888019999999,39.6812341,0 -90.42821499999999,39.6812339,0 -90.414801,39.681228,0 -90.413554,39.681227,0 -90.39737,39.68122,0 -90.396873,39.681217,0 -90.396377,39.681209,0 -90.39588000000001,39.681196,0 -90.39537699999998,39.68117,0 -90.39514869999998,39.6811578,0 -90.39489200000001,39.681144,0 -90.39456970000001,39.6811211,0 -90.3944,39.681109,0 -90.39390800000001,39.681067,0 -90.393415,39.681018,0 -90.38923,39.680518,0 -90.388003,39.680366,0 -90.387507,39.680311,0 -90.38701,39.680264,0 -90.38651400000002,39.680222,0 -90.386017,39.680187,0 -90.38552100000001,39.680158,0 -90.385026,39.680137,0 -90.384529,39.680122,0 -90.384034,39.680117,0 -90.38279400000002,39.680114,0 -90.37986399999998,39.68012,0 -90.37326469999998,39.6801286,0 -90.3639659,39.6801406,0 -90.34937560000002,39.680151,0 -90.33202559999999,39.6801874,0 -90.31846349999998,39.6802186,0 -90.3052531,39.6802343,0 -90.30191189999998,39.680232,0 -90.29543820000001,39.6802641,0 -90.29502909999998,39.6802512,0 -90.29472659999999,39.6802513,0 -90.2941951,39.6802515,0 -90.29333819999998,39.6802578,0 -90.28817979999999,39.6802594,0 -90.2799696,39.6802816,0 -90.27014050000001,39.6803019,0 -90.2689771,39.6803228,0 -90.267877,39.6803784,0 -90.2673838,39.680414,0 -90.266088,39.6805371,0 -90.2644337,39.6807937,0 -90.26301210000001,39.6810454,0 -90.2616408,39.6813697,0 -90.24623440000001,39.685251,0 -90.24506580000002,39.6855362,0 -90.244204,39.6857243,0 -90.24356539999999,39.6858458,0 -90.2426667,39.6859987,0 -90.2417852,39.6861219,0 -90.2412502,39.6861882,0 -90.2407671,39.6862379,0 -90.239867,39.6863158,0 -90.23915440000002,39.6863583,0 -90.23835710000002,39.6863883,0 -90.23764649999998,39.6864067,0 -90.23637410000001,39.6864063,0 -90.2351671,39.6864059,0 -90.23111100000001,39.6864002,0 -90.22892020000002,39.686405,0 -90.2276123,39.6863991,0 -90.2230891,39.6863952,0 -90.2212432,39.686397,0 -90.2194025,39.6863909,0 -90.2188175,39.6863919,0 -90.2158798,39.6863935,0 -90.2144021,39.6863888,0 -90.212549,39.6863896,0 -90.21213119999999,39.6863928,0 -90.2116642,39.6864081,0 -90.2110144,39.6864406,0 -90.2104211,39.6864879,0 -90.20968670000002,39.6865678,0 -90.2088651,39.6866985,0 -90.20804040000002,39.6868576,0 -90.2070341,39.6870978,0 -90.2059359,39.6874312,0 -90.20524839999999,39.6876714,0 -90.20431390000002,39.6880585,0 -90.20363589999999,39.6883698,0 -90.20249520000002,39.6889829,0 -90.2018582,39.6893759,0 -90.2012179,39.689816,0 -90.2006038,39.690288,0 -90.20000450000001,39.6907895,0 -90.19955050000002,39.6912152,0 -90.1990746,39.6916924,0 -90.19665310000001,39.6941082,0 -90.19627370000001,39.6944843,0 -90.1919121,39.6988538,0 -90.188473,39.7022763,0 -90.18707809999999,39.7036858,0 -90.1869313,39.7038329,0 -90.18656190000002,39.7041919,0 -90.1837908,39.7069689,0 -90.18242690000001,39.7083362,0 -90.18159060000001,39.7091749,0 -90.1807601,39.7099867,0 -90.18012900000001,39.7106219,0 -90.17778480000001,39.7129854,0 -90.17702450000002,39.7137214,0 -90.17644660000002,39.7142999,0 -90.17474330000002,39.7160047,0 -90.17342360000001,39.7173325,0 -90.17203019999999,39.7187297,0 -90.1711093,39.7196364,0 -90.16801199999999,39.7227389,0 -90.16529549999998,39.7254512,0 -90.1636092,39.7271118,0 -90.16198749999998,39.7287395,0 -90.16040169999999,39.7303406,0 -90.15813300000001,39.7325952,0 -90.15751710000001,39.7332029,0 -90.1569253,39.7336912,0 -90.15638409999998,39.7341042,0 -90.15576900000002,39.7345293,0 -90.1550568,39.7349693,0 -90.1544622,39.7353005,0 -90.15406970000001,39.7355061,0 -90.1533246,39.735848,0 -90.1526386,39.7361372,0 -90.15187110000001,39.7364188,0 -90.1511587,39.7366482,0 -90.15039789999999,39.736853,0 -90.14967210000002,39.7370279,0 -90.1489892,39.7371583,0 -90.1483568,39.7372648,0 -90.14778250000001,39.7373402,0 -90.1471694,39.7374006,0 -90.14607169999999,39.7374655,0 -90.1437997,39.7375105,0 -90.14074640000001,39.7375589,0 -90.1386511,39.737595,0 -90.1370545,39.7376162,0 -90.1324381,39.7376951,0 -90.1293263,39.737742,0 -90.127579,39.7377695,0 -90.1175135,39.7379264,0 -90.11525190000002,39.7379608,0 -90.11436550000002,39.7379735,0 -90.1054274,39.7381197,0 -90.1024177,39.7381645,0 -90.09393350000001,39.7382884,0 -90.0927315,39.7382869,0 -90.091776,39.7382764,0 -90.089541,39.7382168,0 -90.0879322,39.7381436,0 -90.08699729999999,39.7380872,0 -90.0819245,39.7377501,0 -90.07189780000002,39.7370755,0 -90.0705882,39.7369742,0 -90.0691144,39.736894,0 -90.0682096,39.7368508,0 -90.0670111,39.7368021,0 -90.0660532,39.7367683,0 -90.06438229999999,39.7367323,0 -90.06136210000001,39.7367295,0 -90.06091560000002,39.7367295,0 -90.0572571,39.7367723,0 -90.05478240000001,39.7367968,0 -90.0521971,39.7368046,0 -90.04834630000001,39.7368091,0 -90.0446216,39.7368138,0 -90.0397627,39.7368131,0 -90.03574639999999,39.7368195,0 -90.0272855,39.7368228,0 -90.02306259999999,39.7368262,0 -90.02207689999999,39.7368247,0 -90.0187013,39.7368267,0 -90.01486170000001,39.7368326,0 -90.01165090000001,39.7368328,0 -89.998807,39.7368413,0 -89.989098,39.7368413,0 -89.9885347,39.7368448,0 -89.9850647,39.7368495,0 -89.9844444,39.7368722,0 -89.98402179999999,39.7369013,0 -89.9829156,39.7370187,0 -89.98196249999999,39.7371417,0 -89.981832,39.7371585,0 -89.9807449,39.7373554,0 -89.9801643,39.7374792,0 -89.97957719999999,39.737623,0 -89.9766803,39.7384217,0 -89.97424169999999,39.7390728,0 -89.9734904,39.7392439,0 -89.9724696,39.7394275,0 -89.9716086,39.7395506,0 -89.9708138,39.7396453,0 -89.9696888,39.7397239,0 -89.9691504,39.7397468,0 -89.9672691,39.7397679,0 -89.96403549999999,39.7397775,0 -89.9614839,39.7397908,0 -89.96059409999999,39.739797,0 -89.95854559999999,39.7398026,0 -89.9559859,39.7398221,0 -89.9436637,39.739888,0 -89.94314079999999,39.7398871,0 -89.93429740000001,39.7399251,0 -89.9305981,39.7399783,0 -89.9277476,39.7400134,0 -89.9198509,39.7400861,0 -89.9176994,39.7401001,0 -89.914985,39.7401286,0 -89.9101345,39.7401719,0 -89.9068997,39.740204,0 -89.9018688,39.7402572,0 -89.9008594,39.7402646,0 -89.8993986,39.7402767,0 -89.8977407,39.7402913,0 -89.8887955,39.7403717,0 -89.8864918,39.7404005,0 -89.8752849,39.7404987,0 -89.87146629999999,39.7405262,0 -89.8675578,39.7405948,0 -89.86297159999999,39.7406582,0 -89.8612301,39.7406854,0 -89.845341,39.740916,0 -89.8433727,39.7409442,0 -89.83690559999999,39.7410386,0 -89.828806,39.7411568,0 -89.8275374,39.741226,0 -89.8261981,39.7413767,0 -89.82519670000001,39.7415212,0 -89.8241512,39.7417132,0 -89.82309309999999,39.7419814,0 -89.8220173,39.74227,0 -89.82039899999999,39.7428431,0 -89.8196318,39.7431567,0 -89.81897069999999,39.7434636,0 -89.8159347,39.7448149,0 -89.8135398,39.745881,0 -89.8111493,39.746971,0 -89.8063507,39.7491237,0 -89.804389,39.7499712,0 -89.80332559999999,39.7503416,0 -89.8025525,39.750587,0 -89.8020167,39.7507406,0 -89.8011776,39.7509466,0 -89.80019540000001,39.7511495,0 -89.79965199999999,39.7512379,0 -89.79894059999999,39.751349,0 -89.7981338,39.7514459,0 -89.7976204,39.751498,0 -89.79678370000001,39.7515597,0 -89.7963628,39.7515733,0 -89.7949405,39.7515926,0 -89.79144770000001,39.7516163,0 -89.7845353,39.7516601,0 -89.7816064,39.751677,0 -89.7740771,39.7517205,0 -89.7693919,39.7517438,0 -89.7659252,39.7517712,0 -89.7613435,39.7517898,0 -89.7580512,39.7518107,0 -89.7554844,39.7518249,0 -89.7514377,39.7518466,0 -89.7505633,39.7518542,0 -89.74490969999999,39.7518862,0 -89.74434410000001,39.7518901,0 -89.74271539999999,39.7518988,0 -89.74137639999999,39.7519057,0 -89.7389373,39.7519153,0 -89.73835320000001,39.751908,0 -89.73751230000001,39.7518724,0 -89.7371773,39.7518432,0 -89.73650360000001,39.7517642,0 -89.7361193,39.7517122,0 -89.7356455,39.7516351,0 -89.73524089999999,39.7515562,0 -89.7348762,39.7514733,0 -89.7345624,39.7513972,0 -89.73399329999999,39.7512449,0 -89.73352319999999,39.7511014,0 -89.7328857,39.7508979,0 -89.7322712,39.7506996,0 -89.7312812,39.7503921,0 -89.730474,39.7501366,0 -89.72528730000001,39.7484865,0 -89.7136945,39.7448271,0 -89.71317070000001,39.7446672,0 -89.7124419,39.7444333,0 -89.7119592,39.7442782,0 -89.70918829999999,39.7433999,0 -89.7081584,39.7430699,0 -89.70708550000001,39.7427234,0 -89.70625200000001,39.742478,0 -89.7055391,39.7422681,0 -89.7051283,39.7421635,0 -89.7044891,39.742014,0 -89.70403760000001,39.7419347,0 -89.70357250000001,39.7418667,0 -89.7031284,39.7418124,0 -89.702851,39.7417848,0 -89.7026367,39.741763,0 -89.7024357,39.741749,0 -89.70208719999999,39.7417244,0 -89.7015529,39.7417004,0 -89.70121690000001,39.741696,0 -89.700947,39.7416964,0 -89.69922219999999,39.7417057,0 -89.6906224,39.7417483,0 -89.686114,39.741768,0 -89.67958830000001,39.741803,0 -89.67896759999999,39.7418068,0 -89.6782247,39.7418072,0 -89.67792780000001,39.7418068,0 -89.6775437,39.7417946,0 -89.6771931,39.7417761,0 -89.67678220000001,39.741745,0 -89.67637550000001,39.7417061,0 -89.6760264,39.7416663,0 -89.6755635,39.7415967,0 -89.6750936,39.7415129,0 -89.6744997,39.7413943,0 -89.67372640000001,39.7412314,0 -89.6732611,39.7411332,0 -89.6719367,39.7408659,0 -89.6714475,39.7407943,0 -89.67085640000001,39.7407234,0 -89.6703048,39.7406774,0 -89.6698179,39.7406495,0 -89.6693892,39.7406409,0 -89.6689398,39.7406395,0 -89.6685068,39.7406551,0 -89.6681339,39.7406803,0 -89.66758179999999,39.7407218,0 -89.6670846,39.7407793,0 -89.66676080000001,39.7408208,0 -89.666416,39.7408758,0 -89.665879,39.740977,0 -89.6655363,39.7410539,0 -89.6649366,39.7412005,0 -89.6647182,39.7412625,0 -89.66410070000001,39.741438,0 -89.66310110000001,39.7417309,0 -89.6627457,39.7418353,0 -89.6623841,39.7419287,0 -89.6620604,39.7420098,0 -89.6617366,39.7420815,0 -89.6613765,39.7421501,0 -89.6610184,39.742211,0 -89.6605034,39.7422818,0 -89.6599648,39.7423523,0 -89.6594013,39.7423988,0 -89.6588256,39.7424304,0 -89.6580064,39.7424488,0 -89.6562959,39.742483,0 -89.65553250000001,39.7424989,0 -89.65358756248833,39.742538189808,0 -89.65158555104547,39.74257814394939,0 
				
					-89.65158219999999,39.7425814,0 -89.64908130000001,39.7426326,0 -89.64823,39.7426498,0 -89.64753779999999,39.7426602,0 -89.64581080000001,39.7426876,0 -89.6447003,39.7427109,0 -89.64439640000001,39.7427193,0 -89.6440475,39.742729,0 -89.6438923,39.7427324,0 -89.6423429,39.7427515,0 -89.6406267,39.7427865,0 -89.6404567,39.7427895,0 -89.63936459999999,39.742809,0 -89.6389041,39.7428285,0 -89.6384789,39.7428514,0 -89.6381214,39.7428909,0 -89.6377189,39.742944,0 -89.63740730000001,39.7429997,0 -89.6372161,39.7430387,0 -89.6369335,39.7431006,0 -89.63649650000001,39.7432198,0 -89.6354534,39.7435329,0 -89.63420499999999,39.743851,0 -89.6338396,39.7439486,0 -89.6330401,39.7441567,0 -89.6321428,39.7443753,0 -89.6312983,39.7445644,0 -89.6306431,39.7447001,0 -89.6299597,39.7448342,0 -89.6284071,39.7451348,0 -89.6273625,39.7453334,0 -89.6270162,39.7453918,0 -89.6255616,39.7456718,0 -89.6250544,39.7457712,0 -89.6247492,39.7458374,0 -89.6244382,39.745909,0 -89.624093,39.7459989,0 -89.6237672,39.7460902,0 -89.6234912,39.746175,0 -89.623137,39.7463037,0 -89.6228565,39.7464109,0 -89.62261650000001,39.7465128,0 -89.6223528,39.7466269,0 -89.6221164,39.7467351,0 -89.621833,39.7468779,0 -89.62150560000001,39.7470564,0 -89.6197323,39.7479864,0 -89.61931149999999,39.7482087,0 -89.612792,39.751644,0 -89.61040010000001,39.7529052,0 -89.60993360000001,39.7531497,0 -89.6094727,39.7534087,0 -89.6091326,39.7536222,0 -89.60883889999999,39.7538186,0 -89.60840810000001,39.7541311,0 -89.6082126,39.75429,0 -89.608037,39.754442,0 -89.6075755,39.7548804,0 -89.6071582,39.7553401,0 -89.60681339999999,39.7557985,0 -89.6066989,39.7559642,0 -89.60657260000001,39.7561578,0 -89.6064143,39.7564173,0 -89.60635449999999,39.7565209,0 -89.60624,39.7567506,0 -89.6060519,39.7571458,0 -89.6059243,39.7574419,0 -89.6058692,39.7576243,0 -89.6058367,39.7577258,0 -89.60571880000001,39.7581344,0 -89.6056269,39.7585462,0 -89.6054037,39.7596586,0 -89.60518070000001,39.7607711,0 -89.6047391,39.7629949,0 -89.60447689999999,39.7643021,0 -89.6042794,39.7652841,0 -89.6037737,39.7678101,0 -89.603123,39.7710978,0 -89.6030038,39.7716983,0 -89.6028795,39.7723051,0 -89.60279010000001,39.7727487,0 -89.6026904,39.7732138,0 -89.6025795,39.7736845,0 -89.6024542,39.7741973,0 -89.60227519999999,39.7748959,0 -89.6018949,39.7763091,0 -89.6010929,39.7793256,0 -89.6009628,39.779814,0 -89.6006881,39.7808303,0 -89.6003285,39.782209,0 -89.6002743,39.7824068,0 -89.60022410000001,39.7825902,0 -89.6001085,39.782998,0 -89.59935230000001,39.7858237,0 -89.5993012,39.7860147,0 -89.59917110000001,39.7865108,0 -89.5991179,39.7866931,0 -89.59858490000001,39.7886912,0 -89.59852960000001,39.7889005,0 -89.598376,39.789454,0 -89.5980967,39.7905106,0 -89.5973238,39.7933963,0 -89.59703210000001,39.7944794,0 -89.5967596,39.7955069,0 -89.5965174,39.7964099,0 -89.5963562,39.7970067,0 -89.5962998,39.797215,0 -89.596054,39.7978733,0 -89.59581729999999,39.7985338,0 -89.5957226,39.7988249,0 -89.595657,39.7989964,0 -89.5955728,39.7991539,0 -89.59550520000001,39.7992526,0 -89.5954053,39.7993833,0 -89.5953181,39.7994858,0 -89.59520550000001,39.7995928,0 -89.5950809,39.7996935,0 -89.5949389,39.7997909,0 -89.5948147,39.7998761,0 -89.5946575,39.7999605,0 -89.5944516,39.800056,0 -89.5941964,39.8001643,0 -89.5937741,39.8003414,0 -89.59360030000001,39.8004344,0 -89.59348420000001,39.8005205,0 -89.5933861,39.8006139,0 -89.5933021,39.8007218,0 -89.59319290000001,39.8008835,0 -89.5930371,39.8011246,0 -89.5929187,39.8012945,0 -89.5928007,39.801425,0 -89.5926489,39.8015611,0 -89.5925215,39.8016435,0 -89.5923975,39.8017096,0 -89.59221460000001,39.8017878,0 -89.5919841,39.8018495,0 -89.5917266,39.8018977,0 -89.59114529999999,39.8019938,0 -89.5908075,39.8020527,0 -89.59013400000001,39.8022425,0 -89.58979410000001,39.8023274,0 -89.58930770000001,39.8024606,0 -89.5888035,39.8026244,0 -89.58813189999999,39.8028597,0 -89.58780489999999,39.8029853,0 -89.5870553,39.803305,0 -89.5856418,39.8039084,0 -89.5853517,39.8040323,0 -89.5840568,39.8045835,0 -89.5835498,39.8048025,0 -89.5831833,39.8049608,0 -89.5819757,39.8054698,0 -89.58045250000001,39.8061204,0 -89.5797982,39.8063947,0 -89.5791143,39.8066918,0 -89.57827899999999,39.8070516,0 -89.5762316,39.8079216,0 -89.57574030000001,39.8081303,0 -89.5749649,39.8084597,0 -89.57410659999999,39.8088268,0 -89.57365299999999,39.8090195,0 -89.57270149999999,39.8094228,0 -89.5719567,39.8097256,0 -89.5714036,39.8099315,0 -89.57069180000001,39.8101691,0 -89.5699182,39.8104005,0 -89.5694113,39.8105361,0 -89.5692839,39.8105702,0 -89.56866309999999,39.8107225,0 -89.56805679999999,39.8108502,0 -89.5674576,39.8109623,0 -89.5668668,39.8110601,0 -89.56626780000001,39.8111423,0 -89.5660991,39.811164,0 -89.5652384,39.8112747,0 -89.56056,39.811793,0 -89.55907430000001,39.8119573,0 -89.5579644,39.8120852,0 -89.5575134,39.8121432,0 -89.5570871,39.8122122,0 -89.55665759999999,39.8122906,0 -89.5562157,39.8124021,0 -89.5557685,39.8125295,0 -89.5553274,39.8126759,0 -89.55475939999999,39.812888,0 -89.5543473,39.813075,0 -89.5538751,39.8133113,0 -89.5534917,39.8135287,0 -89.55307879999999,39.8137894,0 -89.5527314,39.8140355,0 -89.55239210000001,39.8143084,0 -89.5519219,39.8147306,0 -89.5514888,39.8151867,0 -89.55121,39.8155238,0 -89.5509406,39.8158807,0 -89.55071770000001,39.8162632,0 -89.5504995,39.8166601,0 -89.5503066,39.8171074,0 -89.550144,39.817553,0 -89.550044,39.8179936,0 -89.5499872,39.8182899,0 -89.54994189999999,39.8186737,0 -89.54992230000001,39.8190547,0 -89.5499208,39.8192385,0 -89.5499567,39.8206324,0 -89.54991680000001,39.8210533,0 -89.5498508,39.8216048,0 -89.54976000000001,39.822049,0 -89.54963050000001,39.8224575,0 -89.5495148,39.8227879,0 -89.549216,39.823409,0 -89.5490327,39.8237399,0 -89.54887739999999,39.8239912,0 -89.54872039999999,39.8241983,0 -89.5484003,39.8246305,0 -89.54780890000001,39.8252833,0 -89.5459961,39.8271175,0 -89.54557269999999,39.8275521,0 -89.5451295,39.8280094,0 -89.5446745,39.8284596,0 -89.544377,39.8287685,0 -89.5441016,39.8290433,0 -89.54355080000001,39.8296001,0 -89.5417934,39.8313789,0 -89.5410689,39.8321127,0 -89.5403685,39.8328267,0 -89.5397658,39.8334453,0 -89.5394294,39.8337788,0 -89.5391304,39.8340514,0 -89.5386879,39.8344014,0 -89.5382793,39.8346941,0 -89.5377735,39.8350105,0 -89.5373144,39.8352588,0 -89.53683959999999,39.8355015,0 -89.53636950000001,39.8357066,0 -89.5357941,39.8359261,0 -89.53518819999999,39.8361113,0 -89.53462020000001,39.8362621,0 -89.53403059999999,39.8363893,0 -89.5327549,39.8365765,0 -89.5304069,39.8368947,0 -89.526803,39.8373658,0 -89.526433,39.8374077,0 -89.5259578,39.8374509,0 -89.525458,39.8374908,0 -89.5246111,39.8375539,0 -89.52359939999999,39.8376075,0 -89.5224321,39.8376479,0 -89.5215532,39.8376619,0 -89.5201136,39.8376675,0 -89.51698620000001,39.8376845,0 -89.51429659999999,39.8376982,0 -89.51386530000001,39.837699,0 -89.5104331,39.837717,0 -89.50722159999999,39.8377338,0 -89.5038971,39.8377496,0 -89.5018427,39.8377696,0 -89.5005726,39.8377932,0 -89.4992402,39.8378213,0 -89.4973825,39.8378616,0 -89.4952807,39.8379039,0 -89.4822861,39.8381851,0 -89.47221519999999,39.8383964,0 -89.4685389,39.8385749,0 -89.4647741,39.838898,0 -89.4631763,39.8390753,0 -89.4616767,39.8391909,0 -89.4601808,39.8392717,0 -89.4587373,39.8393147,0 -89.457307,39.8393076,0 -89.45612629999999,39.8392768,0 -89.4546497,39.8392041,0 -89.4531209,39.8391125,0 -89.4508507,39.8390028,0 -89.44906109999999,39.8389522,0 -89.4454624,39.838932,0 -89.44131,39.838898,0 -89.426782,39.8388385,0 -89.4183582,39.8388062,0 -89.4127685,39.8387684,0 -89.406302,39.8387256,0 -89.4026178,39.8386988,0 -89.3997792,39.838671,0 -89.39849,39.8386701,0 -89.39690880000001,39.8386595,0 -89.39535069999999,39.8386214,0 -89.39457849999999,39.838599,0 -89.3942215,39.8385887,0 -89.39305179999999,39.8385397,0 -89.3913086,39.8384392,0 -89.3888121,39.8382943,0 -89.3865531,39.8382433,0 -89.385103,39.8382441,0 -89.3835191,39.8382688,0 -89.3821087,39.8383315,0 -89.38059579999999,39.8384251,0 -89.3783835,39.8386222,0 -89.376864,39.838804,0 -89.37549129999999,39.8389639,0 -89.3743358,39.8391017,0 -89.3735369,39.8391949,0 -89.37263470000001,39.8392873,0 -89.37159200000001,39.8393774,0 -89.37072860000001,39.8394342,0 -89.369612,39.8394862,0 -89.368979,39.8395052,0 -89.36819989999999,39.83952,0 -89.36738889999999,39.8395184,0 -89.36690609999999,39.8395143,0 -89.36621460000001,39.8394975,0 -89.3655728,39.8394763,0 -89.36485,39.8394437,0 -89.36414739999999,39.8393996,0 -89.3634708,39.8393488,0 -89.3629796,39.8393048,0 -89.36158880000001,39.8391641,0 -89.3605079,39.8390352,0 -89.35912279999999,39.8388354,0 -89.3579835,39.8386753,0 -89.3573923,39.8385994,0 -89.3567882,39.83853,0 -89.35606370000001,39.8384499,0 -89.3554122,39.8383865,0 -89.35408510000001,39.8382769,0 -89.3531576,39.8382118,0 -89.35209949999999,39.8381605,0 -89.3514705,39.8381319,0 -89.35016280000001,39.8380983,0 -89.34891949999999,39.8380815,0 -89.3475766,39.8380685,0 -89.3424361,39.8380098,0 -89.3304801,39.8378876,0 -89.3255236,39.83783,0 -89.31127410000001,39.8376683,0 -89.30616620000001,39.8375994,0 -89.3051275,39.8375581,0 -89.3034419,39.8374693,0 -89.3020594,39.8373705,0 -89.3014333,39.8373219,0 -89.2946768,39.8368648,0 -89.29364769999999,39.8368129,0 -89.29300790000001,39.836787,0 -89.2923782,39.8367629,0 -89.29185459999999,39.8367486,0 -89.29101799999999,39.8367265,0 -89.290052,39.8367136,0 -89.2807935,39.8366861,0 -89.2749244,39.8366492,0 -89.273585,39.8366513,0 -89.26727959999999,39.8366292,0 -89.26724249999999,39.8366291,0 -89.2610612,39.8366077,0 -89.25982140000001,39.836606,0 -89.2589059,39.836598,0 -89.2548517,39.8365878,0 -89.2507377,39.836559,0 -89.24803489999999,39.8365538,0 -89.2441858,39.836537,0 -89.2424101,39.8365391,0 -89.2403578,39.8365273,0 -89.2366942,39.8365225,0 -89.2331918,39.8365217,0 -89.2276841,39.8365279,0 -89.2261918,39.8365251,0 -89.2175465,39.8365172,0 -89.21534870000001,39.8365162,0 -89.2032871,39.8365177,0 -89.1990011,39.8365155,0 -89.184802,39.8365947,0 -89.1793538,39.8366246,0 -89.17509269999999,39.8366531,0 -89.172254,39.8366645,0 -89.16945,39.8366756,0 -89.1689014,39.8366722,0 -89.1683484,39.8366626,0 -89.1678355,39.8366389,0 -89.167356,39.8366066,0 -89.16681060000001,39.8365631,0 -89.16612809999999,39.8364868,0 -89.1654003,39.8363872,0 -89.1648928,39.8363039,0 -89.1640802,39.8361493,0 -89.16269560000001,39.8358434,0 -89.1616298,39.8356,0 -89.156586,39.8344705,0 -89.155567,39.83424,0 -89.1509937,39.8332199,0 -89.14557189999999,39.8319917,0 -89.1443101,39.8317037,0 -89.1435204,39.8315492,0 -89.1427446,39.8314234,0 -89.1420435,39.8313303,0 -89.14137100000001,39.8312584,0 -89.14078480000001,39.8312103,0 -89.1401681,39.8311721,0 -89.1394954,39.8311482,0 -89.1373639,39.8311231,0 -89.1309936,39.8310678,0 -89.1175344,39.8310311,0 -89.1043908,39.8311192,0 -89.1001942,39.8311409,0 -89.0999348,39.8311431,0 -89.0994508,39.8311456,0 -89.0940374,39.8311738,0 -89.08582989999999,39.8312393,0 -89.08520729999999,39.831257,0 -89.0846497,39.8312901,0 -89.0840038,39.831349,0 -89.08325069999999,39.8314388,0 -89.0826118,39.8315457,0 -89.0820418,39.8316444,0 -89.081568,39.831718,0 -89.0725352,39.8333394,0 -89.0670753,39.8342899,0 -89.0660676,39.8344619,0 -89.0587505,39.8357294,0 -89.0584277,39.8358145,0 -89.0552833,39.836381,0 -89.05418779999999,39.8366033,0 -89.052752,39.836998,0 -89.05201599999999,39.837254,0 -89.05133120000001,39.8375557,0 -89.05077470000001,39.8378316,0 -89.0501046,39.8381811,0 -89.0493,39.8387075,0 -89.0485455,39.8393055,0 -89.0477643,39.8400976,0 -89.0470371,39.8410195,0 -89.04672600000001,39.8415232,0 -89.0462964,39.8424217,0 -89.0459718,39.8434423,0 -89.04570459999999,39.8448289,0 -89.0456772,39.84585,0 -89.0456776,39.8463933,0 -89.045693,39.8472345,0 -89.04567729999999,39.8484327,0 -89.0456509,39.8496678,0 -89.045649,39.8503234,0 -89.0456233,39.8523861,0 -89.04561990000001,39.8529678,0 -89.0456301,39.8535837,0 -89.04561630000001,39.8559132,0 -89.0455857,39.8562749,0 -89.0455195,39.8570647,0 -89.04529839999999,39.8582215,0 -89.0449182,39.8592668,0 -89.044614,39.859946,0 -89.0440679,39.8608056,0 -89.0435019,39.8615803,0 -89.04267849999999,39.8624663,0 -89.04166240000001,39.8634055,0 -89.0385933,39.8662546,0 -89.03281440000001,39.8716874,0 -89.02805170000001,39.8761224,0 -89.0217337,39.8820476,0 -89.01753100000001,39.8859038,0 -89.0163558,39.886954,0 -89.01457240000001,39.8884763,0 -89.01392180000001,39.8889949,0 -89.01243650000001,39.8901788,0 -89.0099273,39.8919873,0 -89.00722349999999,39.8939412,0 -89.0065154,39.8944403,0 -89.00643359999999,39.8944979,0 -89.00098629999999,39.8983624,0 -88.9995186,39.8993909,0 -88.99834970000001,39.9001452,0 -88.99373060000001,39.9030894,0 -88.99155380000001,39.9044037,0 -88.9906464,39.9049547,0 -88.9900732,39.9052427,0 -88.989091,39.905709,0 -88.9883169,39.906016,0 -88.9870525,39.9064413,0 -88.98625699999999,39.9066649,0 -88.9854856,39.9068719,0 -88.9847415,39.9070101,0 -88.9840157,39.9071167,0 -88.98353899999999,39.9071743,0 -88.9831667,39.9072128,0 -88.98280750000001,39.9072418,0 -88.9822894,39.9072762,0 -88.9809253,39.9073315,0 -88.9793133,39.9074073,0 -88.97705449999999,39.9074736,0 -88.9693235,39.9077017,0 -88.968594,39.90772,0 -88.96836399999999,39.907728,0 -88.96765600000001,39.90774,0 -88.967421,39.907745,0 -88.967169,39.907754,0 -88.966414,39.907783,0 -88.9639865,39.907876,0 -88.96331120000001,39.9078975,0 -88.96100680000001,39.9079892,0 -88.9555652,39.9081589,0 -88.9543491,39.9081918,0 -88.9502157,39.9083396,0 -88.94759500000001,39.908429,0 -88.947379,39.908436,0 -88.947194,39.908439,0 -88.94640200000001,39.908454,0 -88.9346584,39.9088324,0 -88.9264405,39.9090864,0 -88.92597910000001,39.9090947,0 -88.89525810000001,39.910067,0 -88.8939189,39.910111,0 -88.89386140000001,39.9101108,0 -88.88533649999999,39.9103963,0 -88.8795317,39.9105953,0 -88.8786964,39.9106623,0 -88.8767624,39.9109042,0 -88.8747716,39.9112473,0 -88.8728801,39.9117497,0 -88.8703484,39.9126351,0 -88.86797610000001,39.9137357,0 -88.8660246,39.9148803,0 -88.8597029,39.9192009,0 -88.8507197,39.9253074,0 -88.8485494,39.9268225,0 -88.84507840000001,39.9291869,0 -88.8446294,39.9295444,0 -88.8441967,39.9298839,0 -88.84309639999999,39.9308199,0 -88.842372,39.9314631,0 -88.8419099,39.9319076,0 -88.8411514,39.9326647,0 -88.8406691,39.9331402,0 -88.8403682,39.9334752,0 -88.8399031,39.9340003,0 -88.8395214,39.9344445,0 -88.83666700000001,39.937988,0 -88.8330393,39.942367,0 -88.8305912,39.9453366,0 -88.8283266,39.9481179,0 -88.8258427,39.951128,0 -88.823899,39.953556,0 -88.8201645,39.9581222,0 -88.8171703,39.9617339,0 -88.813405,39.9662932,0 -88.8115725,39.968546,0 -88.80944390000001,39.9711023,0 -88.8091008,39.9714997,0 -88.80884229999999,39.9717766,0 -88.8085392,39.9720818,0 -88.8081401,39.9724317,0 -88.8076822,39.9727883,0 -88.8072973,39.9730923,0 -88.80695830000001,39.9733322,0 -88.8065063,39.9736808,0 -88.806163,39.9739081,0 -88.805629,39.9742549,0 -88.8051111,39.974587,0 -88.80411410000001,39.9751153,0 -88.80330600000001,39.975508,0 -88.7994784,39.9772422,0 -88.79772319999999,39.9780595,0 -88.7968133,39.9784881,0 -88.7961767,39.9787891,0 -88.7954668,39.9791296,0 -88.7949577,39.979385,0 -88.79371380000001,39.9800882,0 -88.79325470000001,39.9803784,0 -88.7927304,39.9807135,0 -88.7922671,39.9810515,0 -88.7917842,39.9814249,0 -88.7913322,39.981801,0 -88.79092350000001,39.9821414,0 -88.7905386,39.9825014,0 -88.79015339999999,39.982883,0 -88.7897404,39.9833163,0 -88.7893693,39.9837232,0 -88.78898599999999,39.9841796,0 -88.78866309999999,39.9845924,0 -88.78840169999999,39.984957,0 -88.7880869,39.9854405,0 -88.7877459,39.9859803,0 -88.7874272,39.9865063,0 -88.78689919999999,39.9873694,0 -88.7859875,39.988843,0 -88.7855196,39.9896047,0 -88.7853095,39.9899538,0 -88.7849429,39.9905578,0 -88.784166,39.9918716,0 -88.7834988,39.9929512,0 -88.7829389,39.9938315,0 -88.7822443,39.9950358,0 -88.7814881,39.9963195,0 -88.7806818,39.9976489,0 -88.7800202,39.9987515,0 -88.77924280000001,39.9999741,0 -88.77874300000001,40.000766,0 -88.77825869999999,40.0015834,0 -88.77744439999999,40.0028648,0 -88.7767277,40.0040918,0 -88.7757215,40.005719,0 -88.7743739,40.0079441,0 -88.7739275,40.0086873,0 -88.7734504,40.0094226,0 -88.7732122,40.0097676,0 -88.77293520000001,40.0101338,0 -88.77264270000001,40.0104804,0 -88.77234540000001,40.0108069,0 -88.77198989999999,40.0111545,0 -88.77147220000001,40.0116092,0 -88.7711018,40.0118973,0 -88.7707199,40.0121948,0 -88.7702426,40.0125076,0 -88.76974319999999,40.0128124,0 -88.7693428,40.0130621,0 -88.7688852,40.0133002,0 -88.7683593,40.0135494,0 -88.7677726,40.0137926,0 -88.7671058,40.0140412,0 -88.76650739999999,40.0142374,0 -88.7659092,40.0144057,0 -88.7652523,40.0145596,0 -88.7645595,40.0146998,0 -88.7638377,40.014816,0 -88.7632164,40.0148887,0 -88.76246759999999,40.0149596,0 -88.7504423,40.0159625,0 -88.7468554,40.0162639,0 -88.74571349999999,40.0163615,0 -88.73987030000001,40.0168604,0 -88.72985799999999,40.0177059,0 -88.7239489,40.0182049,0 -88.71855410000001,40.0187197,0 -88.7160549,40.0190959,0 -88.7124354,40.0196436,0 -88.7042139,40.0209702,0 -88.6944498,40.0225343,0 -88.6858319,40.0238674,0 -88.6748441,40.025636,0 -88.6618655,40.0277015,0 -88.6514809,40.0293447,0 -88.64451769999999,40.0303873,0 -88.6419495,40.030605,0 -88.6404586,40.030671,0 -88.6298414,40.0308096,0 -88.6232152,40.0308816,0 -88.6228304,40.0308858,0 -88.6164836,40.0309548,0 -88.608581,40.0310603,0 -88.6068143,40.0311791,0 -88.6054354,40.0314497,0 -88.6044271,40.031674,0 -88.6030832,40.0321163,0 -88.602054,40.0325404,0 -88.60027359999999,40.0334991,0 -88.5957715,40.036232,0 -88.5929082,40.0379306,0 -88.5834212,40.0436483,0 -88.5787526,40.0464627,0 -88.57676960000001,40.0476748,0 -88.5745227,40.049001,0 -88.57381030000001,40.0494293,0 -88.5707123,40.0513042,0 -88.56909899999999,40.052093,0 -88.5674925,40.0527325,0 -88.5662363,40.0531738,0 -88.5630845,40.0542863,0 -88.5621494,40.0546352,0 -88.5614467,40.0549567,0 -88.5604352,40.0554414,0 -88.5599491,40.0557109,0 -88.5587431,40.0564598,0 -88.5570364,40.0577835,0 -88.55476090000001,40.060039,0 -88.5508845,40.0637692,0 -88.5481733,40.0661605,0 -88.5448055,40.0692863,0 -88.5429851,40.0706359,0 -88.5418245,40.0713673,0 -88.5403682,40.0721073,0 -88.53737150000001,40.0734605,0 -88.5364543,40.0738747,0 -88.5340195,40.0750675,0 -88.5328135,40.0758597,0 -88.5316984,40.0767129,0 -88.5301426,40.0782567,0 -88.5285671,40.0801346,0 -88.5260749,40.0830559,0 -88.5239048,40.0856621,0 -88.5233046,40.0862998,0 -88.5228729,40.0866961,0 -88.52175440000001,40.0876032,0 -88.5203322,40.0885085,0 -88.51922860000001,40.0890569,0 -88.518068,40.0895704,0 -88.5168961,40.0900144,0 -88.5151432,40.0904744,0 -88.51395359999999,40.0906923,0 -88.51263640000001,40.0908647,0 -88.5083288,40.0913113,0 -88.5067928,40.0915985,0 -88.5053934,40.0919902,0 -88.50413039999999,40.0924602,0 -88.5026855,40.093113,0 -88.5012974,40.0938615,0 -88.5002507,40.0945578,0 -88.4993746,40.095228,0 -88.49852129999999,40.0960113,0 -88.497247,40.0974561,0 -88.49680240000001,40.0980334,0 -88.49615060000001,40.0988797,0 -88.4957867,40.0993766,0 -88.4952574,40.1000564,0 -88.49494850000001,40.1004432,0 -88.4945189,40.1010061,0 -88.4940501,40.1016143,0 -88.4938314,40.1019102,0 -88.49352469999999,40.1022937,0 -88.4925089,40.1035949,0 -88.49188719999999,40.1043871,0 -88.4910261,40.1054941,0 -88.48945380000001,40.107543,0 -88.48838600000001,40.1089006,0 -88.4880648,40.1092462,0 -88.4877152,40.1096078,0 -88.48748019999999,40.1098265,0 -88.487185,40.1100989,0 -88.4867885,40.1104456,0 -88.48644229999999,40.1107215,0 -88.4861521,40.1109575,0 -88.4858749,40.1111479,0 -88.4855925,40.1113447,0 -88.48504269999999,40.1116974,0 -88.48463599999999,40.1119425,0 -88.48416279999999,40.1122098,0 -88.48379420000001,40.1123975,0 -88.4834741,40.1125472,0 -88.4830657,40.1127375,0 -88.4827507,40.1128751,0 -88.4820422,40.1131732,0 -88.4811931,40.1135205,0 -88.48033409999999,40.1138645,0 -88.4693149,40.1183235,0 -88.4663795,40.119324,0 -88.4639674,40.1198635,0 -88.46327429999999,40.1199527,0 -88.4631854,40.1199641,0 -88.4625224,40.1200549,0 -88.4611811,40.1201554,0 -88.45859539999999,40.1201923,0 -88.44533079999999,40.1202637,0 -88.4304747,40.1202578,0 -88.4301725,40.1202597,0 -88.416864,40.1203072,0 -88.413055,40.120283,0 -88.4021,40.120293,0 -88.394678,40.120308,0 -88.37003369999999,40.1203594,0 -88.35245519999999,40.1203942,0 -88.3480476,40.1203687,0 -88.3477584,40.1203687,0 -88.327477,40.120394,0 -88.3221339,40.1203855,0 -88.3205751,40.1203159,0 -88.3183792,40.1201419,0 -88.3172642,40.1200984,0 -88.3152731,40.1200288,0 -88.3125994,40.119994,0 -88.311153,40.119957,0 -88.3055155,40.119877,0 -88.304575,40.1198618,0 -88.30438669999999,40.119857,0 
				</coordinates>
			</LineString>
		<atom:link rel="app" href="https://www.google.com/earth/about/versions/#earth-pro" title="Google Earth Pro 7.3.6.10201"></atom:link>
	</Placemark>
</Document>
</kml>
