<?xml version="1.0" encoding="UTF-8"?>
<kml xmlns="http://www.opengis.net/kml/2.2" xmlns:gx="http://www.google.com/kml/ext/2.2" xmlns:kml="http://www.opengis.net/kml/2.2" xmlns:atom="http://www.w3.org/2005/Atom">
<Document>
	<name>I.73.kml</name>
	<Placemark>
		<name>I.73</name>
		<LineString>
			<coordinates>
				-79.8427231,34.9405183,0 -79.8452501,34.9441227,0 -79.8458274,34.944946,0 -79.8460853,34.9453282,0 -79.8463433,34.9457351,0 -79.8465944,34.9461423,0 -79.8467934,34.9464826,0 -79.84688730000001,34.9466465,0 -79.8471071,34.947056,0 -79.8473098,34.9474573,0 -79.8475248,34.9479005,0 -79.8477595,34.9484121,0 -79.8479739,34.948924,0 -79.84822029999999,34.9496481,0 -79.8483296,34.9499617,0 -79.84843309999999,34.950294,0 -79.8484969,34.9505,0 -79.84864469999999,34.9510281,0 -79.8487725,34.9515648,0 -79.84888429999999,34.9521041,0 -79.8489776,34.9526466,0 -79.8490549,34.9531874,0 -79.849125,34.9537336,0 -79.84918140000001,34.9542824,0 -79.8492068,34.9548297,0 -79.8492148,34.9553729,0 -79.84920409999999,34.9559225,0 -79.8491714,34.9564709,0 -79.84912540000001,34.9570091,0 -79.8490602,34.9575612,0 -79.8489761,34.9581086,0 -79.8488775,34.9586495,0 -79.84876149999999,34.9591871,0 -79.8486321,34.9597174,0 -79.8484881,34.9602483,0 -79.8483229,34.960779,0 -79.84814419999999,34.9612998,0 -79.8479483,34.9618246,0 -79.8477364,34.9623358,0 -79.8475084,34.9628482,0 -79.8472632,34.9633538,0 -79.8470006,34.9638574,0 -79.8467247,34.9643511,0 -79.8464314,34.9648395,0 -79.8461236,34.9653244,0 -79.8457985,34.9657993,0 -79.8454586,34.966269,0 -79.8451003,34.966734,0 -79.84472719999999,34.9671861,0 -79.8443418,34.9676308,0 -79.8439379,34.9680721,0 -79.84352509999999,34.9684999,0 -79.84309589999999,34.968915,0 -79.8426561,34.9693246,0 -79.84220620000001,34.969726,0 -79.84174,34.9701168,0 -79.8412616,34.9704979,0 -79.8407696,34.9708672,0 -79.840271,34.9712266,0 -79.8397602,34.9715731,0 -79.839237,34.9719079,0 -79.8387051,34.9722324,0 -79.8381627,34.9725447,0 -79.8376095,34.9728462,0 -79.837047,34.9731356,0 -79.836473,34.9734142,0 -79.8358975,34.9736787,0 -79.8353078,34.9739356,0 -79.834721,34.9741782,0 -79.83412439999999,34.9744095,0 -79.8335192,34.9746236,0 -79.8329016,34.9748324,0 -79.8322847,34.9750235,0 -79.8316641,34.9752013,0 -79.8310346,34.9753627,0 -79.8303947,34.9755086,0 -79.8126297,34.9792748,0 -79.8119832,34.979423,0 -79.81133,34.9795867,0 -79.8106971,34.9797636,0 -79.8100633,34.9799525,0 -79.8094383,34.9801549,0 -79.8088162,34.9803727,0 -79.808205,34.9806027,0 -79.8075991,34.9808459,0 -79.8070026,34.9811025,0 -79.8064157,34.9813711,0 -79.8058367,34.9816519,0 -79.8052161,34.9819744,0 -79.8048651,34.9821667,0 -79.8042334,34.9825279,0 -79.8036132,34.9829044,0 -79.80308839999999,34.9832404,0 -79.8025628,34.9835971,0 -79.80143,34.9843875,0 -79.7998128,34.9855158,0 -79.79875370000001,34.9862548,0 -79.7982421,34.986598,0 -79.7977198,34.9869309,0 -79.797183,34.9872518,0 -79.79663499999999,34.987562,0 -79.79608210000001,34.9878589,0 -79.79551429999999,34.9881439,0 -79.79494099999999,34.9884169,0 -79.79435599999999,34.9886789,0 -79.79376809999999,34.9889247,0 -79.7931682,34.9891628,0 -79.79256340000001,34.9893843,0 -79.79194769999999,34.989594,0 -79.7875834,34.9909708,0 -79.78711060000001,34.9911312,0 -79.7866537,34.9912984,0 -79.786186,34.9914801,0 -79.7857465,34.991664,0 -79.7853058,34.9918589,0 -79.7848663,34.9920661,0 -79.7844374,34.9922811,0 -79.7840167,34.992506,0 -79.783603,34.9927397,0 -79.7831947,34.9929834,0 -79.7827944,34.993236,0 -79.7824026,34.9934972,0 -79.7820196,34.9937633,0 -79.7816491,34.9940413,0 -79.78127859999999,34.9943272,0 -79.7809195,34.9946203,0 -79.780568,34.9949226,0 -79.78022730000001,34.9952305,0 -79.7798975,34.9955461,0 -79.7795757,34.9958683,0 -79.7792658,34.9961976,0 -79.7789698,34.996532,0 -79.77868049999999,34.9968743,0 -79.77840329999999,34.9972242,0 -79.778137,34.9975774,0 -79.777883,34.9979361,0 -79.7776403,34.9983034,0 -79.77741279999999,34.9986756,0 -79.7771999,34.9990519,0 -79.7763073,35.0006878,0 -79.7761857,35.0009106,0 -79.7756342,35.0018408,0 -79.7732646,35.0061829,0 -79.7720358,35.0084816,0 -79.7716471,35.0091939,0 -79.77145040000001,35.0095775,0 -79.7712672,35.0099646,0 -79.7711034,35.0103504,0 -79.7709512,35.0107472,0 -79.7707072,35.0114346,0 -79.77053170000001,35.0120231,0 -79.7703716,35.0126388,0 -79.7703035,35.0129976,0 -79.7701849,35.0136895,0 -79.7700981,35.0144024,0 -79.770049,35.0151152,0 -79.76993710000001,35.0173099,0 -79.76930729999999,35.0308499,0 -79.7692498,35.03157,0 -79.76859140000001,35.0373457,0 -79.7683474,35.0393554,0 -79.768137,35.0412869,0 -79.7680941,35.0415922,0 -79.7680163,35.041915,0 -79.7679198,35.0422268,0 -79.7676221,35.0429954,0 -79.7674423,35.0433907,0 -79.767217,35.0438167,0 -79.7667069,35.0446575,0 -79.765964,35.0455314,0 -79.7649555,35.0465327,0 -79.7641921,35.0472855,0 -79.76159730000001,35.0498441,0 -79.75746669999999,35.0539369,0 -79.7566728,35.0547098,0 -79.7551708,35.0559306,0 -79.75445190000001,35.05644,0 -79.7537653,35.0568879,0 -79.7529284,35.0573621,0 -79.7518019,35.0578364,0 -79.7506647,35.0582491,0 -79.7485511,35.0589166,0 -79.7435193,35.0604359,0 -79.7420065,35.0609716,0 -79.74125549999999,35.0613053,0 -79.7403328,35.061762,0 -79.7396461,35.0621835,0 -79.7390024,35.0626226,0 -79.73822989999999,35.0632725,0 -79.737436,35.0640453,0 -79.7367064,35.0649234,0 -79.73617,35.065705,0 -79.7357087,35.0665656,0 -79.7341852,35.0700341,0 -79.73300260000001,35.0726423,0 -79.7322862,35.0742226,0 -79.7313225,35.0764771,0 -79.731224,35.0767074,0 -79.7297971,35.0798419,0 -79.72863839999999,35.0822388,0 -79.7279946,35.0834943,0 -79.7272114,35.0848288,0 -79.7251729,35.0879893,0 -79.7239177,35.0899558,0 -79.7235422,35.0907635,0 -79.72326320000001,35.091615,0 -79.72297349999999,35.0926421,0 -79.72285549999999,35.0934059,0 -79.7228877,35.0944944,0 -79.72299219999999,35.0963898,0 -79.7231345,35.0989712,0 -79.7234134,35.1032723,0 -79.7233938,35.1046417,0 -79.7233598,35.105098,0 -79.72326320000001,35.1057475,0 -79.7229628,35.1071167,0 -79.722598,35.1082226,0 -79.72207229999999,35.1094426,0 -79.7216217,35.1102413,0 -79.7196261,35.1132078,0 -79.71917550000001,35.1140766,0 -79.7188,35.1149893,0 -79.718564,35.1159108,0 -79.7183923,35.1168235,0 -79.71828499999999,35.118254,0 -79.7181563,35.1198512,0 -79.7180383,35.1207726,0 -79.7179178,35.1214972,0 -79.71778569999999,35.1220931,0 -79.71759489999999,35.1227797,0 -79.7174229,35.1233224,0 -79.71654700000001,35.125678,0 -79.71630709999999,35.126345,0 -79.7160672,35.1270262,0 -79.7158857,35.1275804,0 -79.7156918,35.1281881,0 -79.71555789999999,35.1286318,0 -79.71539559999999,35.1291877,0 -79.71523329999999,35.1297685,0 -79.71500639999999,35.1306525,0 -79.71477849999999,35.1316145,0 -79.71463850000001,35.1322604,0 -79.7143837,35.1335485,0 -79.7142741,35.1341816,0 -79.7141676,35.1348487,0 -79.7140277,35.1358375,0 -79.7139506,35.1363214,0 -79.7138326,35.1373918,0 -79.7137038,35.1392606,0 -79.7136502,35.1412347,0 -79.71366089999999,35.1429279,0 -79.71378970000001,35.1452528,0 -79.7140579,35.1475074,0 -79.7142939,35.1491215,0 -79.71451190000001,35.1506016,0 -79.7147552,35.1522532,0 -79.7157101,35.1583409,0 -79.7158496,35.1596215,0 -79.7159891,35.1610337,0 -79.71599980000001,35.1624459,0 -79.7159461,35.1636563,0 -79.71583889999999,35.1648228,0 -79.7156672,35.1659805,0 -79.7154634,35.1672523,0 -79.71512,35.1686029,0 -79.7147767,35.1696466,0 -79.7136287,35.1729091,0 -79.71306010000001,35.1746104,0 -79.71294210000001,35.1751103,0 -79.7128562,35.1757768,0 -79.71282410000001,35.1763293,0 -79.7128616,35.1771081,0 -79.71293129999999,35.1776622,0 -79.7130815,35.1783901,0 -79.713382,35.1792056,0 -79.7136716,35.179837,0 -79.714338,35.180756,0 -79.7146364,35.1811313,0 -79.7149324,35.1814327,0 -79.7152935,35.1817735,0 -79.715914,35.1823362,0 -79.71895019999999,35.1847915,0 -79.7214393,35.1868082,0 -79.72271600000001,35.187878,0 -79.72340269999999,35.1885619,0 -79.7240571,35.1892897,0 -79.7246365,35.1900262,0 -79.7250657,35.1906487,0 -79.7255699,35.1915518,0 -79.7258918,35.1923409,0 -79.72634239999999,35.1935772,0 -79.72657839999999,35.1944101,0 -79.726793,35.1953132,0 -79.72688960000001,35.1961636,0 -79.72688960000001,35.1972683,0 -79.7268574,35.2013538,0 -79.7268145,35.2045536,0 -79.7268145,35.2091471,0 -79.7268574,35.2106549,0 -79.7269325,35.211812,0 -79.72707200000001,35.2131181,0 -79.7272973,35.214503,0 -79.72765130000001,35.2160019,0 -79.7280054,35.2172115,0 -79.728692,35.2194553,0 -79.7298078,35.2229875,0 -79.731503,35.2281935,0 -79.7322016,35.2303884,0 -79.7331767,35.2334517,0 -79.73378820000001,35.2352745,0 -79.7339813,35.2361683,0 -79.73420659999999,35.2375003,0 -79.73432459999999,35.2385694,0 -79.73438899999999,35.2396297,0 -79.7343676,35.2406374,0 -79.7343139,35.241426,0 -79.7341637,35.2425651,0 -79.7339277,35.2437918,0 -79.7336595,35.2447206,0 -79.7332732,35.2457721,0 -79.7328977,35.2467096,0 -79.7323478,35.2480461,0 -79.7321214,35.248506,0 -79.7310605,35.250613,0 -79.7304433,35.2518693,0 -79.72882989999999,35.2550664,0 -79.7282965,35.256105,0 -79.7280097,35.2567022,0 -79.72777929999999,35.2572375,0 -79.7275276,35.2578663,0 -79.72723499999999,35.258814,0 -79.72706700000001,35.259413,0 -79.72699799999999,35.259704,0 -79.726872,35.260433,0 -79.726803,35.261095,0 -79.726744,35.261982,0 -79.726738,35.262425,0 -79.726775,35.263503,0 -79.726832,35.264689,0 -79.726878,35.265439,0 -79.726912,35.265986,0 -79.726984,35.267302,0 -79.727065,35.26865,0 -79.727204,35.271465,0 -79.727287,35.272881,0 -79.727431,35.275634,0 -79.727434,35.275691,0 -79.72753,35.277301,0 -79.727622,35.278964,0 -79.727698,35.280346,0 -79.727768,35.281721,0 -79.728307,35.291485,0 -79.72835600000001,35.292654,0 -79.72842199999999,35.293581,0 -79.728509,35.295174,0 -79.72854479999999,35.2962803,0 -79.72858770000001,35.2970596,0 -79.7286162,35.2974714,0 -79.72876599999999,35.299642,0 -79.72880499999999,35.300509,0 -79.72883899999999,35.301172,0 -79.72886,35.301573,0 -79.728908,35.302497,0 -79.728921,35.302729,0 -79.72892899999999,35.302867,0 -79.729027,35.30462,0 -79.729089,35.305436,0 -79.72915,35.306031,0 -79.729236,35.306609,0 -79.729345,35.307236,0 -79.729485,35.30787,0 -79.729659,35.308532,0 -79.729823,35.309102,0 -79.730024,35.309701,0 -79.73019600000001,35.310174,0 -79.730429,35.310756,0 -79.73065800000001,35.31129,0 -79.73106300000001,35.312114,0 -79.731359,35.312653,0 -79.731588,35.313054,0 -79.73178299999999,35.313385,0 -79.731993,35.313717,0 -79.732451,35.314392,0 -79.7329651,35.3151661,0 -79.7331904,35.315455,0 -79.73379,35.316101,0 -79.735366,35.317866,0 -79.74323800000001,35.326607,0 -79.744804,35.328336,0 -79.74569700000001,35.329325,0 -79.74879,35.332751,0 -79.750204,35.334329,0 -79.75129699999999,35.335525,0 -79.751863,35.336156,0 -79.753936,35.33847,0 -79.75578400000001,35.340504,0 -79.756725,35.341556,0 -79.758762,35.343805,0 -79.760543,35.345772,0 -79.76138400000001,35.346718,0 -79.76194099999999,35.34738,0 -79.762157,35.34771,0 -79.762343,35.347956,0 -79.762736,35.348537,0 -79.762851,35.34872,0 -79.76307300000001,35.349091,0 -79.763383,35.349655,0 -79.763575,35.350036,0 -79.76409700000001,35.351287,0 -79.764471,35.352496,0 -79.76457600000001,35.352941,0 -79.76466600000001,35.353387,0 -79.76474,35.353835,0 -79.764799,35.354284,0 -79.764916,35.355555,0 -79.764956,35.3561928,0 -79.76499699999999,35.3566462,0 -79.7650378,35.3571518,0 -79.765096,35.357937,0 -79.76514899999999,35.358527,0 -79.76519,35.358983,0 -79.765197,35.359065,0 -79.76530099999999,35.360485,0 -79.765505,35.362904,0 -79.76560600000001,35.363935,0 -79.76562199999999,35.364097,0 -79.765682,35.365131,0 -79.7657,35.3653655,0 -79.76588700000001,35.367797,0 -79.766103,35.37038,0 -79.766209,35.371641,0 -79.76646100000001,35.375088,0 -79.766503,35.376103,0 -79.766542,35.378874,0 -79.766569,35.379989,0 -79.76660099999999,35.382175,0 -79.766659,35.384972,0 -79.766676,35.386158,0 -79.766679,35.386379,0 -79.766689,35.387512,0 -79.766712,35.388101,0 -79.766733,35.389147,0 -79.766766,35.390321,0 -79.766854,35.391652,0 -79.76686100000001,35.391755,0 -79.766953,35.392824,0 -79.767066,35.393875,0 -79.76719799999999,35.394936,0 -79.767359,35.396034,0 -79.76770399999999,35.398004,0 -79.768291,35.401229,0 -79.768438,35.402099,0 -79.76867799999999,35.403361,0 -79.76883100000001,35.404266,0 -79.768888,35.40461,0 -79.76906,35.405519,0 -79.76917899999999,35.40618,0 -79.769673,35.408912,0 -79.769886,35.410131,0 -79.77005800000001,35.411045,0 -79.77006799999999,35.411105,0 -79.770236,35.4120744,0 -79.770352,35.412687,0 -79.770528,35.413664,0 -79.770706,35.414602,0 -79.770872,35.415578,0 -79.77104,35.416478,0 -79.771207,35.417461,0 -79.77152599999999,35.419155,0 -79.771531,35.419261,0 -79.771727,35.420305,0 -79.772132,35.422552,0 -79.772351,35.42381,0 -79.77237100000001,35.423918,0 -79.772553,35.424886,0 -79.77273,35.425872,0 -79.77287800000001,35.426627,0 -79.773118,35.428062,0 -79.774249,35.434261,0 -79.774308,35.434558,0 -79.774432,35.435182,0 -79.774609,35.435915,0 -79.774807,35.436682,0 -79.77498799999999,35.437469,0 -79.775167,35.438125,0 -79.775544,35.43943,0 -79.77608499999999,35.441091,0 -79.77637799999999,35.441921,0 -79.776759,35.44295,0 -79.777113,35.443868,0 -79.777371,35.444516,0 -79.777734,35.44534,0 -79.778087,35.446175,0 -79.778436,35.447021,0 -79.7787259,35.4477268,0 -79.779107,35.4486122,0 -79.7792912,35.4490402,0 -79.7795065,35.4495446,0 -79.78043719999999,35.4517132,0 -79.7806994,35.45233,0 -79.7809724,35.4529654,0 -79.78127979999999,35.4536802,0 -79.7814489,35.4540695,0 -79.78164169999999,35.4545306,0 -79.781856,35.4550381,0 -79.7820852,35.4555822,0 -79.7825801,35.4567653,0 -79.782698,35.457064,0 -79.78302100000001,35.457835,0 -79.783058,35.457921,0 -79.78335199999999,35.4586,0 -79.783558,35.459106,0 -79.783779,35.459623,0 -79.784032,35.46019,0 -79.78428,35.46076,0 -79.78446,35.461248,0 -79.784627,35.461781,0 -79.784755,35.462299,0 -79.784841,35.462739,0 -79.7848899,35.4630549,0 -79.78492199999999,35.4633787,0 -79.784949,35.4637181,0 -79.784954,35.464165,0 -79.7849458,35.4645952,0 -79.7849064,35.4650264,0 -79.78483180000001,35.4655808,0 -79.7847513,35.4660285,0 -79.7846588,35.4664928,0 -79.7844973,35.4672871,0 -79.7843393,35.4680912,0 -79.7841622,35.4689569,0 -79.7839855,35.4698556,0 -79.78385350000001,35.4705162,0 -79.7836434,35.471579,0 -79.7834537,35.4725188,0 -79.7833131,35.4732233,0 -79.7830714,35.4744123,0 -79.7828588,35.4754791,0 -79.7826407,35.4765771,0 -79.782467,35.4774437,0 -79.7818152,35.4807183,0 -79.78121230000001,35.4837284,0 -79.7810455,35.4845958,0 -79.7807226,35.4861841,0 -79.7803794,35.4878673,0 -79.7801193,35.4892043,0 -79.7799923,35.4899529,0 -79.7799557,35.4902666,0 -79.77992140000001,35.490605,0 -79.77989359999999,35.4910001,0 -79.7798822,35.4912962,0 -79.77987419999999,35.4918213,0 -79.7798942,35.492411,0 -79.7799243,35.4928375,0 -79.780085,35.494218,0 -79.78036090000001,35.4961084,0 -79.7804838,35.4969564,0 -79.7805974,35.4977443,0 -79.78072330000001,35.4986199,0 -79.78080300000001,35.4991915,0 -79.7809249,35.5001681,0 -79.7809924,35.5009444,0 -79.7810291,35.501638,0 -79.78104039999999,35.5021664,0 -79.78105650000001,35.5026392,0 -79.78105499999999,35.5033845,0 -79.78105650000001,35.5041939,0 -79.78105119999999,35.50526,0 -79.78104949999999,35.5066955,0 -79.7810473,35.5076762,0 -79.7810451,35.5094825,0 -79.78104159999999,35.5109905,0 -79.7810516,35.5118402,0 -79.7810786,35.5124978,0 -79.7811437,35.5133816,0 -79.7812366,35.5142587,0 -79.7814001,35.515424,0 -79.7816322,35.5166477,0 -79.78181619999999,35.5174207,0 -79.78195789999999,35.5179716,0 -79.7821375,35.5185988,0 -79.78241389999999,35.5194536,0 -79.7827087,35.5203231,0 -79.7830773,35.5212529,0 -79.7834811,35.5221782,0 -79.78420300000001,35.523665,0 -79.7846454,35.5245266,0 -79.78650279999999,35.5281639,0 -79.78842539999999,35.5319018,0 -79.7892459,35.5335351,0 -79.790065,35.5350887,0 -79.790966,35.5368729,0 -79.7918308,35.5385834,0 -79.7923493,35.5396628,0 -79.79325040000001,35.5415388,0 -79.7940122,35.5429793,0 -79.7952406,35.5453188,0 -79.7964262,35.547619,0 -79.79736490000001,35.549522,0 -79.79816630000001,35.5509919,0 -79.7983974,35.5514406,0 -79.79863760000001,35.5519064,0 -79.79894609999999,35.552512,0 -79.79917,35.5529528,0 -79.7994807,35.5535619,0 -79.7997981,35.5541763,0 -79.8000601,35.5546838,0 -79.8005194,35.5555948,0 -79.8007037,35.5559489,0 -79.80096260000001,35.5564543,0 -79.8012272,35.5569652,0 -79.8014204,35.5573644,0 -79.8016166,35.5577316,0 -79.801845,35.5581818,0 -79.802161,35.5588027,0 -79.8026871,35.559822,0 -79.8029464,35.5603318,0 -79.80330290000001,35.5610367,0 -79.8034991,35.5614424,0 -79.80359850000001,35.5616629,0 -79.8036778,35.5618605,0 -79.8038073,35.5621928,0 -79.803916,35.5625196,0 -79.804002,35.5628137,0 -79.8040831,35.5631207,0 -79.80413540000001,35.5633566,0 -79.80417559999999,35.5635518,0 -79.8042049,35.5637308,0 -79.804254,35.5640125,0 -79.80434870000001,35.5646946,0 -79.8044125,35.5651465,0 -79.80470459999999,35.5672815,0 -79.8048099,35.5680619,0 -79.80497509999999,35.5692514,0 -79.8050698,35.5699142,0 -79.8051567,35.5705698,0 -79.8052751,35.5714262,0 -79.8054394,35.5726164,0 -79.8055312,35.5732843,0 -79.80565009999999,35.5741475,0 -79.8057239,35.5746964,0 -79.805786,35.5751427,0 -79.80586150000001,35.5756911,0 -79.80596439999999,35.5764416,0 -79.80604289999999,35.5769997,0 -79.8061117,35.5775114,0 -79.8062018,35.5781723,0 -79.8063081,35.5789223,0 -79.806381,35.5794597,0 -79.8064567,35.580006,0 -79.8065163,35.5804338,0 -79.80655899999999,35.5807493,0 -79.8066939,35.5817405,0 -79.80676579999999,35.5822807,0 -79.8068598,35.5829354,0 -79.80692190000001,35.5833831,0 -79.80698510000001,35.5837755,0 -79.8070323,35.5840321,0 -79.8070785,35.5842317,0 -79.8071647,35.5845631,0 -79.8072391,35.5848047,0 -79.8073112,35.5850116,0 -79.8073897,35.5852136,0 -79.8074755,35.5854237,0 -79.8075711,35.5856338,0 -79.8076681,35.5858277,0 -79.8077739,35.5860258,0 -79.8078928,35.5862341,0 -79.8080598,35.5865006,0 -79.80825369999999,35.5867837,0 -79.8084727,35.5870715,0 -79.8086938,35.5873434,0 -79.80882320000001,35.5874885,0 -79.8089317,35.5876047,0 -79.809105,35.5877844,0 -79.8092888,35.5879633,0 -79.8095477,35.5881993,0 -79.8097509,35.5883727,0 -79.810029,35.5885992,0 -79.81022659999999,35.5887546,0 -79.81050879999999,35.5889743,0 -79.8107174,35.589137,0 -79.8108726,35.5892524,0 -79.8111031,35.5894337,0 -79.8112958,35.5895817,0 -79.8115968,35.5898135,0 -79.8120895,35.5901931,0 -79.81248189999999,35.5904945,0 -79.8129867,35.5908853,0 -79.8134584,35.59125,0 -79.8139475,35.5916243,0 -79.8143376,35.5919263,0 -79.8146376,35.5921581,0 -79.8148556,35.5923318,0 -79.8150278,35.5924708,0 -79.8152102,35.5926233,0 -79.8154025,35.5927959,0 -79.8155754,35.5929551,0 -79.8157444,35.5931187,0 -79.8159175,35.5933005,0 -79.8160711,35.5934704,0 -79.81623500000001,35.5936602,0 -79.81637600000001,35.5938377,0 -79.8165096,35.5940143,0 -79.81664670000001,35.5942062,0 -79.8167746,35.5944025,0 -79.8168955,35.5946002,0 -79.81702,35.5948152,0 -79.8171214,35.5950078,0 -79.8172637,35.595304,0 -79.81738540000001,35.5955866,0 -79.8174424,35.5957368,0 -79.8175873,35.5961709,0 -79.81767670000001,35.5965178,0 -79.8177381,35.5967942,0 -79.81777990000001,35.5970463,0 -79.8178186,35.5973342,0 -79.8178635,35.5977948,0 -79.8179178,35.5984753,0 -79.8179598,35.5990242,0 -79.81800800000001,35.599707,0 -79.81806829999999,35.6004706,0 -79.8181222,35.6012151,0 -79.8182008,35.6022244,0 -79.8182575,35.6030076,0 -79.8183312,35.6039515,0 -79.81839239999999,35.6047527,0 -79.8184565,35.6055678,0 -79.8185148,35.6063317,0 -79.8185763,35.6071729,0 -79.8186486,35.6080645,0 -79.818708,35.6088417,0 -79.81875700000001,35.6095118,0 -79.8188052,35.6101649,0 -79.818844,35.6105848,0 -79.8188734,35.6108091,0 -79.8189084,35.6110369,0 -79.8189478,35.6112519,0 -79.81899869999999,35.6114821,0 -79.81905039999999,35.6116903,0 -79.81910999999999,35.6119014,0 -79.8191794,35.6121168,0 -79.8192614,35.6123441,0 -79.81934029999999,35.6125429,0 -79.8194328,35.6127464,0 -79.8195341,35.6129585,0 -79.81967090000001,35.6132266,0 -79.8198039,35.6134551,0 -79.8199383,35.6136668,0 -79.82005669999999,35.6138472,0 -79.8202453,35.6141039,0 -79.8204116,35.6143271,0 -79.8205698,35.6145195,0 -79.8207855,35.6147765,0 -79.8210193,35.6150509,0 -79.82126409999999,35.6153401,0 -79.82163269999999,35.6157698,0 -79.8221944,35.6164241,0 -79.8224866,35.616766,0 -79.82281999999999,35.6171531,0 -79.8231145,35.6174947,0 -79.823424,35.6178511,0 -79.8237518,35.6182332,0 -79.82398019999999,35.6185001,0 -79.8243622,35.618944,0 -79.82472540000001,35.6193697,0 -79.82513779999999,35.6198505,0 -79.8254977,35.6202665,0 -79.82578239999999,35.6205917,0 -79.8272075,35.6222569,0 -79.8274722,35.6225609,0 -79.82791570000001,35.6230783,0 -79.82916899999999,35.62452,0 -79.8299931,35.6255513,0 -79.8306743,35.6265411,0 -79.83110600000001,35.62718,0 -79.8317043,35.6283114,0 -79.83198470000001,35.6289218,0 -79.8322313,35.6295714,0 -79.83254119999999,35.6305961,0 -79.8327718,35.6316251,0 -79.832922,35.6326236,0 -79.8329864,35.6332689,0 -79.8330079,35.6340362,0 -79.8330036,35.6346279,0 -79.83296110000001,35.6352133,0 -79.8321337,35.6431241,0 -79.8320775,35.6436611,0 -79.8320501,35.6439913,0 -79.83202989999999,35.6443194,0 -79.83202060000001,35.6446463,0 -79.83201990000001,35.6449787,0 -79.83202729999999,35.64531,0 -79.832042,35.6456392,0 -79.83206610000001,35.6459694,0 -79.832097,35.6462974,0 -79.83213720000001,35.6466244,0 -79.83218549999999,35.6469513,0 -79.83224250000001,35.6472804,0 -79.8323082,35.6476025,0 -79.8323833,35.6479289,0 -79.83246509999999,35.6482509,0 -79.8325557,35.6485708,0 -79.83265419999999,35.6488917,0 -79.8327582,35.6492121,0 -79.83552349999999,35.6575381,0 -79.8357287,35.658156,0 -79.8357937,35.6583679,0 -79.8358521,35.6585831,0 -79.8359064,35.6588022,0 -79.8359554,35.6590179,0 -79.8359956,35.6592353,0 -79.83602980000001,35.6594538,0 -79.8360593,35.6596706,0 -79.83608479999999,35.6598896,0 -79.83610419999999,35.6601108,0 -79.8361183,35.6603293,0 -79.836125,35.6605483,0 -79.836127,35.6607668,0 -79.8361216,35.6609863,0 -79.8361123,35.6612064,0 -79.83609749999999,35.6614255,0 -79.83607739999999,35.6616445,0 -79.8360512,35.6618624,0 -79.8360191,35.6620803,0 -79.8359808,35.6622961,0 -79.8359372,35.6625151,0 -79.83588760000001,35.6627286,0 -79.8358333,35.6629433,0 -79.835773,35.6631596,0 -79.8357079,35.6633726,0 -79.8356368,35.663585,0 -79.83556040000001,35.6637959,0 -79.8354799,35.6640034,0 -79.83539140000001,35.6642126,0 -79.8352969,35.6644191,0 -79.8351976,35.6646261,0 -79.83509909999999,35.6648239,0 -79.8338621,35.6672365,0 -79.8335752,35.667796,0 -79.83228130000001,35.6703199,0 -79.8314388,35.6719567,0 -79.83068230000001,35.6734145,0 -79.8299325,35.674886,0 -79.8293987,35.6759296,0 -79.8290409,35.6766347,0 -79.8288451,35.6770552,0 -79.8286986,35.6773655,0 -79.8285956,35.6776479,0 -79.8285028,35.6779429,0 -79.8284213,35.6782601,0 -79.8283462,35.6786153,0 -79.8282748,35.6790606,0 -79.8282255,35.6795651,0 -79.82823620000001,35.6800052,0 -79.82826300000001,35.6804214,0 -79.82830060000001,35.6807591,0 -79.8283687,35.681102,0 -79.82844009999999,35.6814301,0 -79.82855139999999,35.6818016,0 -79.8289126,35.682807,0 -79.8295049,35.6844476,0 -79.8297761,35.6849975,0 -79.82989910000001,35.6853467,0 -79.83016309999999,35.6860427,0 -79.83047740000001,35.6868583,0 -79.83091949999999,35.6880123,0 -79.8310917,35.6884502,0 -79.8314721,35.6894595,0 -79.8316275,35.6899561,0 -79.83175230000001,35.6904219,0 -79.8318082,35.6906565,0 -79.8319511,35.6912408,0 -79.8320641,35.6917816,0 -79.8321627,35.6923934,0 -79.8322472,35.6930033,0 -79.8322931,35.6935413,0 -79.8323539,35.6945096,0 -79.8323547,35.6950471,0 -79.8323465,35.6957695,0 -79.83225520000001,35.6984602,0 -79.83223289999999,35.6992982,0 -79.83221279999999,35.7000296,0 -79.83217260000001,35.7011525,0 -79.83215920000001,35.7015726,0 -79.8321399,35.7020577,0 -79.83210560000001,35.7024958,0 -79.8320676,35.7028077,0 -79.8319465,35.7034252,0 -79.83182909999999,35.7039057,0 -79.83157559999999,35.7045653,0 -79.8312492,35.705265,0 -79.8309393,35.7058027,0 -79.8305965,35.7062965,0 -79.8303617,35.7065862,0 -79.8295001,35.7076463,0 -79.82901529999999,35.7082379,0 -79.8285616,35.7088346,0 -79.82819499999999,35.7093892,0 -79.82778980000001,35.7101127,0 -79.8275703,35.7106214,0 -79.8273403,35.7112163,0 -79.8272482,35.7116244,0 -79.82711020000001,35.7121216,0 -79.82701110000001,35.7126648,0 -79.8269155,35.7133402,0 -79.8268376,35.7141334,0 -79.82666380000001,35.7156531,0 -79.8264874,35.7176503,0 -79.82641630000001,35.7183536,0 -79.826305,35.7190167,0 -79.8261012,35.7198823,0 -79.82579459999999,35.7209671,0 -79.8254586,35.7220923,0 -79.8253167,35.7224622,0 -79.82482229999999,35.724257,0 -79.8244795,35.7253736,0 -79.824191,35.7265253,0 -79.8240459,35.72744,0 -79.82396300000001,35.7283966,0 -79.82393980000001,35.7292888,0 -79.82396679999999,35.7301808,0 -79.82404940000001,35.7307397,0 -79.8241233,35.7315697,0 -79.8242078,35.7324777,0 -79.82433880000001,35.7336672,0 -79.8244543,35.7349259,0 -79.8245254,35.7355819,0 -79.8247655,35.7378439,0 -79.8250839,35.7408567,0 -79.82520890000001,35.7420979,0 -79.82554399999999,35.7466513,0 -79.825841,35.7489995,0 -79.8260449,35.7507758,0 -79.8262702,35.7522386,0 -79.8264526,35.7535795,0 -79.8268388,35.7564353,0 -79.8270831,35.7583724,0 -79.8272331,35.7595618,0 -79.827444,35.7613974,0 -79.8275989,35.7631329,0 -79.8280211,35.7677428,0 -79.82804779999999,35.7681407,0 -79.82808900000001,35.7687294,0 -79.8281046,35.7689764,0 -79.82813160000001,35.7694115,0 -79.8281595,35.7698458,0 -79.8281834,35.7701732,0 -79.82821370000001,35.7705938,0 -79.8282444,35.7710444,0 -79.8282748,35.7714817,0 -79.82833290000001,35.7722567,0 -79.8283993,35.773018,0 -79.8284927,35.7738713,0 -79.82875129999999,35.7759607,0 -79.8289158,35.7772874,0 -79.82900979999999,35.7780667,0 -79.8292046,35.7796326,0 -79.8293666,35.7809337,0 -79.8294307,35.7815794,0 -79.82945599999999,35.7819252,0 -79.8294739,35.7823431,0 -79.82947489999999,35.7826446,0 -79.8294819,35.7828454,0 -79.82946,35.7833197,0 -79.8294459,35.7835544,0 -79.82942490000001,35.7838068,0 -79.8294094,35.783993,0 -79.8293692,35.7843216,0 -79.8293209,35.7846501,0 -79.8292632,35.7849754,0 -79.82919889999999,35.7853029,0 -79.82912640000001,35.7856282,0 -79.8290473,35.7859491,0 -79.8289561,35.7862711,0 -79.8288582,35.7865953,0 -79.8287509,35.7869141,0 -79.8286356,35.7872318,0 -79.82851359999999,35.787544,0 -79.82838080000001,35.7878529,0 -79.8282427,35.788163,0 -79.8281394,35.7883697,0 -79.8279933,35.7886715,0 -79.8278164,35.7890089,0 -79.82772559999999,35.7891695,0 -79.8275628,35.7894549,0 -79.827384,35.789755,0 -79.8271412,35.7901563,0 -79.8268473,35.790643,0 -79.82642970000001,35.7913343,0 -79.825585,35.7927302,0 -79.82404080000001,35.7952798,0 -79.8238125,35.7956633,0 -79.8235746,35.7960917,0 -79.82340259999999,35.7964112,0 -79.8232503,35.796717,0 -79.8230173,35.7972239,0 -79.8229173,35.7974562,0 -79.822795,35.7977627,0 -79.8226801,35.7980716,0 -79.8225711,35.7983874,0 -79.8224357,35.7988159,0 -79.822315,35.7992532,0 -79.822209,35.7996894,0 -79.8221185,35.8001272,0 -79.8220164,35.8007359,0 -79.8219606,35.8012105,0 -79.82193169999999,35.8015402,0 -79.8219201,35.8016865,0 -79.8218921,35.8023205,0 -79.8218914,35.8025751,0 -79.8218966,35.8029103,0 -79.8219249,35.8034294,0 -79.82194010000001,35.8036279,0 -79.8219647,35.8038727,0 -79.8219921,35.8040986,0 -79.8220213,35.8043137,0 -79.8220512,35.8045263,0 -79.8221293,35.8049757,0 -79.8223366,35.8060719,0 -79.82246000000001,35.8066891,0 -79.8225626,35.8072124,0 -79.8226708,35.8077569,0 -79.8227789,35.8083041,0 -79.8228879,35.8088496,0 -79.8229953,35.8093964,0 -79.82311660000001,35.8099956,0 -79.82323220000001,35.8105835,0 -79.8233208,35.8110303,0 -79.8234487,35.8116742,0 -79.8235995,35.8124375,0 -79.82374540000001,35.8131695,0 -79.8238994,35.8139459,0 -79.8240018,35.8144739,0 -79.82411190000001,35.8150312,0 -79.8243586,35.8165336,0 -79.8250743,35.8204799,0 -79.8253029,35.8217404,0 -79.8259268,35.824587,0 -79.8260985,35.8253264,0 -79.8265471,35.8276051,0 -79.8268719,35.8295455,0 -79.8269229,35.8305661,0 -79.8269229,35.8314799,0 -79.8268889,35.8324443,0 -79.82669780000001,35.8335257,0 -79.82640360000001,35.8347147,0 -79.8261227,35.8355978,0 -79.8256621,35.8367595,0 -79.8231686,35.8423043,0 -79.82231969999999,35.844184,0 -79.82160279999999,35.8456644,0 -79.8200896,35.8490465,0 -79.8192093,35.8509905,0 -79.8187767,35.8519511,0 -79.81836989999999,35.8532439,0 -79.81814799999999,35.8541836,0 -79.81796300000001,35.8551233,0 -79.8178592,35.8563499,0 -79.817842,35.8581868,0 -79.8180481,35.8624805,0 -79.81826270000001,35.8725539,0 -79.81848789999999,35.8742837,0 -79.8186608,35.875184,0 -79.8189509,35.8763113,0 -79.8195283,35.8784816,0 -79.8200238,35.8803404,0 -79.821174,35.8846749,0 -79.82157840000001,35.8862148,0 -79.82175429999999,35.8868772,0 -79.8219799,35.887721,0 -79.82220529999999,35.8886191,0 -79.8224129,35.8896249,0 -79.82254450000001,35.8904265,0 -79.8226767,35.8913648,0 -79.8227861,35.8925285,0 -79.82283750000001,35.8935605,0 -79.82285039999999,35.8941048,0 -79.82284490000001,35.8948317,0 -79.8228084,35.8956482,0 -79.8227749,35.8961436,0 -79.82273859999999,35.89664,0 -79.82257009999999,35.8981575,0 -79.8224555,35.8991843,0 -79.8223485,35.900087,0 -79.8222548,35.9008939,0 -79.8221679,35.9016481,0 -79.8220901,35.9023146,0 -79.8220353,35.9028055,0 -79.8219264,35.9037435,0 -79.821851,35.9043786,0 -79.82178450000001,35.9049731,0 -79.82156500000001,35.9069612,0 -79.8215249,35.9075321,0 -79.8215045,35.9081657,0 -79.8215221,35.9088107,0 -79.82155590000001,35.9092565,0 -79.8216238,35.9099207,0 -79.82167459999999,35.9102557,0 -79.8217325,35.9105728,0 -79.8218225,35.9109447,0 -79.82196759999999,35.9115675,0 -79.822047,35.911869,0 -79.823059,35.915155,0 -79.82364099999999,35.917045,0 -79.823953,35.918116,0 -79.82409699999999,35.918513,0 -79.82522950000001,35.9222254,0 -79.8254079,35.9227917,0 -79.825957,35.924522,0 -79.826212,35.925382,0 -79.826382,35.92603,0 -79.826555,35.926767,0 -79.826599,35.927156,0 -79.826758,35.927946,0 -79.82682200000001,35.928307,0 -79.82700199999999,35.929532,0 -79.827077,35.93024,0 -79.827144,35.931343,0 -79.827158,35.931785,0 -79.827161,35.932447,0 -79.82714199999999,35.933331,0 -79.827082,35.934435,0 -79.82698000000001,35.935536,0 -79.826871,35.936416,0 -79.826697,35.937511,0 -79.826515,35.938378,0 -79.82629300000001,35.93924,0 -79.8261,35.939883,0 -79.825768,35.940842,0 -79.8254585,35.9415454,0 -79.82510449999999,35.9423358,0 -79.8247934,35.9430046,0 -79.82188480000001,35.949676,0 -79.821124,35.951392,0 -79.820958,35.951784,0 -79.82080999999999,35.952169,0 -79.820638,35.952674,0 -79.820393,35.953541,0 -79.820272,35.95407,0 -79.82017500000001,35.954603,0 -79.820117,35.954995,0 -79.820063,35.955499,0 -79.820027,35.956003,0 -79.820014,35.956366,0 -79.820014,35.956849,0 -79.82006,35.957815,0 -79.8206539,35.9664391,0 -79.8206787,35.9668099,0 -79.821134,35.973305,0 -79.82119299999999,35.973941,0 -79.821268,35.974576,0 -79.82138500000001,35.975367,0 -79.821468,35.975841,0 -79.821495,35.975998,0 -79.821622,35.976626,0 -79.821763,35.977253,0 -79.82196999999999,35.978054,0 -79.822199,35.97884,0 -79.822497,35.979759,0 -79.8234156,35.9823176,0 -79.82358600000001,35.982792,0 -79.8239049,35.9836692,0 -79.823994,35.983929,0 -79.82459350000001,35.9855811,0 -79.8250481,35.9868475,0 -79.8251703,35.9871968,0 -79.82538750000001,35.9877893,0 -79.826672,35.9913539,0 -79.826876,35.9919273,0 -79.8273133,35.9931238,0 -79.8276625,35.9941274,0 -79.8278114,35.9946357,0 -79.8279146,35.9950396,0 -79.82796999999999,35.99531,0 -79.828067,35.995821,0 -79.82812269999999,35.9961416,0 -79.8281585,35.9964165,0 -79.8281982,35.9967724,0 -79.82822539999999,35.9971234,0 -79.82824530000001,35.9974943,0 -79.8282507,35.997797,0 -79.82825339999999,35.9982375,0 -79.828238,35.99864,0 -79.82818899999999,35.999257,0 -79.828175,35.999377,0 -79.828131,35.999749,0 -79.82800899999999,36.000487,0 -79.82781199999999,36.001302,0 -79.827778,36.001442,0 -79.82716360000001,36.0034847,0 -79.82707000000001,36.0035869,0 -79.8270294,36.0037138,0 -79.82699390000001,36.0038189,0 -79.8269659,36.0038944,0 -79.8269355,36.0039721,0 -79.82690100000001,36.0040448,0 -79.8268688,36.0041083,0 -79.82683729999999,36.0041572,0 -79.8267917,36.0042187,0 -79.8267365,36.0042811,0 -79.8266758,36.0043354,0 -79.8266194,36.0043792,0 -79.8265588,36.0044213,0 -79.8264903,36.0044559,0 -79.82641510000001,36.00449,0 -79.8263297,36.004516,0 -79.8262515,36.0045323,0 -79.82618170000001,36.0045417,0 -79.8261098,36.0045445,0 -79.8260238,36.0045433,0 -79.8259504,36.0045368,0 -79.82587700000001,36.0045237,0 -79.82579800000001,36.0045024,0 -79.8257117,36.0044717,0 -79.8256355,36.004436,0 -79.8255618,36.0043907,0 -79.82550519999999,36.0043496,0 -79.8254586,36.0043068,0 -79.8254025,36.0042461,0 -79.82535849999999,36.0041837,0 -79.8253213,36.0041182,0 -79.82529599999999,36.004054,0 -79.8252815,36.0039982,0 -79.8252737,36.0039487,0 -79.82527,36.003891,0 -79.8252707,36.0038533,0 -79.8252734,36.0038058,0 -79.82528910000001,36.0037238,0 -79.8253102,36.0036566,0 -79.8253295,36.0036173,0 -79.825361,36.0035632,0 -79.82540160000001,36.0035141,0 -79.8254563,36.0034518,0 -79.8255151,36.0033989,0 -79.8255849,36.0033487,0 -79.82566079999999,36.0033067,0 -79.82572709999999,36.0032772,0 -79.8258001,36.0032512,0 -79.8258752,36.0032319,0 -79.82595019999999,36.0032163,0 -79.82601150000001,36.003206,0 -79.8260707,36.0031989,0 -79.8261559,36.0031932,0 -79.82624629999999,36.0031918,0 -79.8263175,36.0031922,0 -79.8263948,36.0031988,0 -79.82657469999999,36.0032147,0 -79.82667050000001,36.0031903,0 -79.8269008,36.0032168,0 -79.82803370000001,36.0033407,0 -79.8281734,36.0033533,0 -79.8293477,36.0034855,0 -79.8302369,36.0035875,0 -79.8309651,36.003671,0 -79.8327743,36.0038728,0 -79.8346572,36.0040757,0 -79.8350354,36.004105,0 -79.835498,36.0041365,0 -79.8360144,36.0041625,0 -79.836591,36.0041831,0 -79.83692360000001,36.0041874,0 -79.8372911,36.0041885,0 -79.8377256,36.0041896,0 -79.838497,36.004177,0 -79.838911,36.004161,0 -79.839319,36.004139,0 -79.840514,36.004099,0 -79.8436707,36.0039629,0 -79.8440342,36.0039553,0 -79.8443587,36.003952,0 -79.8446967,36.003964,0 -79.84501179999999,36.0039791,0 -79.8453712,36.0040193,0 -79.8457427,36.0040659,0 -79.8461813,36.0041365,0 -79.846424,36.0041864,0 -79.84661850000001,36.0042308,0 -79.8468934,36.0042949,0 -79.84718549999999,36.0043816,0 -79.84751919999999,36.0044867,0 -79.8478837,36.0046086,0 -79.8482978,36.0047772,0 -79.84869430000001,36.0049559,0 -79.8491022,36.0051621,0 -79.84934560000001,36.005301,0 -79.849608,36.0054608,0 -79.8499559,36.0056976,0 -79.8502939,36.0059514,0 -79.8507192,36.0063006,0 -79.8507982,36.006346,0 -79.8509614,36.0064968,0 -79.8516434,36.0072649,0 -79.85231039999999,36.0081365,0 -79.8524575,36.0084445,0 -79.85257970000001,36.0087761,0 -79.8527038,36.009165,0 -79.8527915,36.0095204,0 -79.8528596,36.0099139,0 -79.8528965,36.010299,0 -79.8529391,36.0124166,0 -79.8529552,36.0131732,0 -79.85297919999999,36.0150895,0 -79.85302369999999,36.0158197,0 -79.8530631,36.0161428,0 -79.8531165,36.0164711,0 -79.8531855,36.0168037,0 -79.8532663,36.0171287,0 -79.85333180000001,36.0173393,0 -79.8534087,36.0175474,0 -79.8535012,36.0177513,0 -79.8537163,36.018156,0 -79.85395339999999,36.0185116,0 -79.8542008,36.0188335,0 -79.8545232,36.0191936,0 -79.8549854,36.0195998,0 -79.85545159999999,36.0199268,0 -79.8559437,36.0202244,0 -79.8564791,36.0204766,0 -79.85703530000001,36.0206867,0 -79.8576125,36.0208633,0 -79.8581518,36.0209943,0 -79.8588165,36.0211318,0 -79.85959459999999,36.0212571,0 -79.8605391,36.0213571,0 -79.8613862,36.0213984,0 -79.8622293,36.0214022,0 -79.8631796,36.0213431,0 -79.86390900000001,36.0212556,0 -79.8654116,36.0210218,0 -79.86591629999999,36.0209458,0 -79.869827,36.020293,0 -79.8702286,36.0202372,0 -79.8706229,36.0201895,0 -79.87101850000001,36.0201558,0 -79.8714262,36.0201396,0 -79.8718245,36.0201374,0 -79.87222420000001,36.0201515,0 -79.8726212,36.0201819,0 -79.8730181,36.0202253,0 -79.8734104,36.0202844,0 -79.8735868,36.020317,0 -79.873802,36.0203577,0 -79.8740116,36.0204075,0 -79.8741849,36.0204487,0 -79.8745631,36.0205517,0 -79.87493720000001,36.0206689,0 -79.87531009999999,36.0208045,0 -79.8756655,36.0209498,0 -79.8760115,36.0211082,0 -79.8763561,36.021285,0 -79.87668069999999,36.0214694,0 -79.8770012,36.021669,0 -79.87730430000001,36.0218805,0 -79.8776007,36.0221028,0 -79.87788500000001,36.0223306,0 -79.878315,36.022703,0 -79.8793811,36.0236261,0 -79.8853038,36.0287544,0 -79.8856621,36.029077,0 -79.8858481,36.029256,0 -79.8860081,36.0294099,0 -79.8863286,36.0297521,0 -79.88663699999999,36.0301073,0 -79.88692810000001,36.030475,0 -79.8872003,36.0308524,0 -79.88745110000001,36.0312374,0 -79.88768039999999,36.0316279,0 -79.8878916,36.0320264,0 -79.88969659999999,36.0358146,0 -79.8900215,36.0365123,0 -79.8910054,36.0386348,0 -79.8913795,36.0393814,0 -79.8920799,36.0404691,0 -79.89282009999999,36.0413733,0 -79.89362010000001,36.0421328,0 -79.89416129999999,36.0425929,0 -79.89467070000001,36.042963,0 -79.8955741,36.0435455,0 -79.8964019,36.0439767,0 -79.8973292,36.0443789,0 -79.898348,36.0447393,0 -79.89914400000001,36.0449613,0 -79.8997847,36.0451029,0 -79.9006483,36.0452381,0 -79.90198549999999,36.0454054,0 -79.9044092,36.0456789,0 -79.9056071,36.0458173,0 -79.90713940000001,36.0460071,0 -79.9083452,36.0461358,0 -79.9091288,36.0462316,0 -79.9094769,36.0463046,0 -79.9095801,36.0463262,0 -79.9098695,36.0463868,0 -79.910681,36.0465759,0 -79.911457,36.0468527,0 -79.9122729,36.0472549,0 -79.9133195,36.0479435,0 -79.91402789999999,36.0485902,0 -79.9147722,36.0494558,0 -79.9150923,36.0499347,0 -79.91514309999999,36.0500107,0 -79.9155722,36.0506526,0 -79.9161891,36.0516761,0 -79.9167061,36.0525338,0 -79.9171353,36.0532277,0 -79.9174099,36.0536995,0 -79.9174852,36.053826,0 -79.9175449,36.0539261,0 -79.9178431,36.0544266,0 -79.91845739999999,36.0554694,0 -79.91879969999999,36.0561129,0 -79.9191141,36.0568465,0 -79.91952809999999,36.0582237,0 -79.9195739,36.0584654,0 -79.9198054,36.0596115,0 -79.9198451,36.0601394,0 -79.9198626,36.0606692,0 -79.9199023,36.0620759,0 -79.91974020000001,36.0635002,0 -79.9195792,36.0645452,0 -79.9194773,36.0649615,0 -79.91931099999999,36.0655122,0 -79.9191823,36.0659155,0 -79.9189784,36.0665096,0 -79.91856,36.0675286,0 -79.9174641,36.0702184,0 -79.9172028,36.0709584,0 -79.9170579,36.071366,0 -79.9164303,36.0729877,0 -79.9159958,36.0742277,0 -79.9157249,36.0751599,0 -79.9156445,36.0755067,0 -79.9155694,36.0758547,0 -79.91550359999999,36.076217,0 -79.915452,36.0765449,0 -79.91540980000001,36.076876,0 -79.9153762,36.0772033,0 -79.915347,36.0775369,0 -79.9149589,36.082793,0 -79.914868,36.0840252,0 -79.9148405,36.0844728,0 -79.91481829999999,36.0849156,0 -79.9148009,36.0853577,0 -79.9147895,36.0857978,0 -79.91478410000001,36.0862394,0 -79.91477449999999,36.0889994,0 -79.9147715,36.0898404,0 -79.9147548,36.0946238,0 -79.91475010000001,36.0959734,0 -79.91474289999999,36.0980491,0 -79.9147359,36.0983823,0 -79.9147218,36.0987112,0 -79.914693,36.0990379,0 -79.9146554,36.0993625,0 -79.9146025,36.0996902,0 -79.9145374,36.1000153,0 -79.9144596,36.1003377,0 -79.9143691,36.100659,0 -79.9142658,36.1009754,0 -79.9141594,36.1012718,0 -79.91400760000001,36.1016546,0 -79.9138983,36.101921,0 -79.91068009999999,36.1095352,0 -79.9100313,36.1105981,0 -79.909924,36.1107877,0 -79.9098214,36.1109909,0 -79.9097282,36.1111924,0 -79.90963429999999,36.1114096,0 -79.90939590000001,36.1119739,0 -79.9088021,36.1133788,0 -79.90870889999999,36.113583,0 -79.9086305,36.113739,0 -79.9085446,36.1138885,0 -79.90844610000001,36.1140348,0 -79.9083395,36.1141718,0 -79.9082248,36.1143013,0 -79.9080893,36.114434,0 -79.9079512,36.1145532,0 -79.907803,36.114668,0 -79.90764609999999,36.1147758,0 -79.9074758,36.1148766,0 -79.9067972,36.1152384,0 -79.9066309,36.1153359,0 -79.906476,36.1154356,0 -79.9063312,36.115539,0 -79.9061897,36.1156626,0 -79.9060623,36.1157882,0 -79.9059496,36.1159247,0 -79.9058564,36.1160618,0 -79.9057786,36.1161894,0 -79.9057109,36.1163247,0 -79.9056552,36.1164643,0 -79.9056162,36.1166034,0 -79.90558660000001,36.1167444,0 -79.9055674,36.1168857,0 -79.9055587,36.1170363,0 -79.9055661,36.1171858,0 -79.9055882,36.1173504,0 -79.90563109999999,36.1175216,0 -79.9056908,36.117689,0 -79.9057672,36.117851,0 -79.9058591,36.118008,0 -79.90596499999999,36.1181565,0 -79.9060837,36.1182968,0 -79.90621779999999,36.1184235,0 -79.9063623,36.1185407,0 -79.906516,36.1186508,0 -79.90668340000001,36.1187525,0 -79.90685689999999,36.1188379,0 -79.9070339,36.118911,0 -79.9072237,36.1189755,0 -79.90741610000001,36.1190248,0 -79.9076213,36.1190665,0 -79.90783860000001,36.1190925,0 -79.90804369999999,36.1191038,0 -79.9082489,36.1191017,0 -79.9084514,36.1190865,0 -79.90866,36.1190556,0 -79.9093238,36.1189359,0 -79.91075189999999,36.1186127,0 -79.91094390000001,36.1185763,0 -79.91115600000001,36.1185366,0 -79.91134649999999,36.1185165,0 -79.91153730000001,36.1185025,0 -79.9117332,36.1184976,0 -79.9119458,36.1185036,0 -79.9121186,36.1185204,0 -79.91225919999999,36.1185367,0 -79.9124003,36.1185567,0 -79.91252299999999,36.1185746,0 -79.9126479,36.1185974,0 -79.9127682,36.1186262,0 -79.912882,36.1186582,0 -79.91301110000001,36.1186977,0 -79.9131794,36.1187467,0 -79.91338620000001,36.1187617,0 -79.9150945,36.1192788,0 -79.91769530000001,36.1200604,0 -79.9194572,36.1205899,0 -79.920682,36.120938,0 -79.92149430000001,36.1211923,0 -79.9225508,36.1215063,0 -79.92324379999999,36.1216684,0 -79.92361940000001,36.1217392,0 -79.92403539999999,36.1218059,0 -79.9244619,36.1218617,0 -79.92507139999999,36.1219285,0 -79.92832319999999,36.1222842,0 -79.93123730000001,36.1225976,0 -79.93234579999999,36.1227191,0 -79.93270990000001,36.1227472,0 -79.9330508,36.12277,0 -79.9336622,36.1227878,0 -79.93412600000001,36.1227884,0 -79.9345864,36.1227756,0 -79.93489340000001,36.1227602,0 -79.93519980000001,36.1227393,0 -79.9354819,36.1227139,0 -79.93580830000001,36.1226806,0 -79.9361949,36.122627,0 -79.9365561,36.12257,0 -79.9369233,36.1225058,0 -79.9373226,36.1224181,0 -79.93772679999999,36.1223246,0 -79.93825339999999,36.1221945,0 -79.9391316,36.1219651,0 -79.93996919999999,36.1217503,0 -79.94083809999999,36.1215257,0 -79.9415249,36.1213482,0 -79.94249499999999,36.1210988,0 -79.94319900000001,36.1209145,0 -79.94359179999999,36.1208165,0 -79.9439146,36.1207373,0 -79.944394,36.1206345,0 -79.9449307,36.1205382,0 -79.9458881,36.120396,0 -79.9467636,36.1203249,0 -79.94806269999999,36.1202752,0 -79.9487999,36.1202797,0 -79.9494748,36.1202985,0 -79.9499673,36.1203397,0 -79.9504779,36.1203983,0 -79.9510049,36.120466,0 -79.9515913,36.1205616,0 -79.95216689999999,36.1206688,0 -79.95268969999999,36.1207873,0 -79.9531477,36.1209021,0 -79.9539146,36.1211192,0 -79.9546558,36.1213684,0 -79.9554454,36.1216488,0 -79.9571505,36.1222437,0 -79.9587542,36.1228034,0 -79.9597234,36.1231548,0 -79.9601935,36.1233443,0 -79.9606606,36.1235639,0 -79.9610891,36.1237836,0 -79.9612886,36.1238926,0 -79.9616259,36.1240972,0 -79.9619344,36.1242971,0 -79.9623371,36.1245652,0 -79.9627029,36.1248492,0 -79.96297060000001,36.1250726,0 -79.9631591,36.1252405,0 -79.9633346,36.1254053,0 -79.96356950000001,36.1256405,0 -79.9637364,36.1258164,0 -79.9639626,36.126072,0 -79.96417870000001,36.1263353,0 -79.96430770000001,36.1265048,0 -79.9644433,36.1266919,0 -79.96457119999999,36.126881,0 -79.964765,36.1271841,0 -79.9649228,36.1274582,0 -79.9650721,36.1277449,0 -79.9652145,36.1280515,0 -79.9653005,36.1282567,0 -79.9654149,36.1285471,0 -79.9655515,36.1289612,0 -79.9656399,36.1292858,0 -79.96570730000001,36.129588,0 -79.96574769999999,36.1298036,0 -79.96579079999999,36.1301057,0 -79.96581430000001,36.1303235,0 -79.9658403,36.1306632,0 -79.9658472,36.1309724,0 -79.9658408,36.1312801,0 -79.96582859999999,36.1314927,0 -79.96579819999999,36.1318189,0 -79.96577120000001,36.1320178,0 -79.96569770000001,36.1324304,0 -79.9656505,36.1326366,0 -79.9655995,36.1328407,0 -79.9655315,36.1330766,0 -79.96530060000001,36.1337151,0 -79.9652296,36.133887,0 -79.96511169999999,36.1341445,0 -79.9649624,36.1344396,0 -79.9648207,36.1346947,0 -79.9645123,36.1351886,0 -79.9641857,36.1356214,0 -79.9639615,36.1359078,0 -79.9635705,36.1363716,0 -79.9629298,36.1371231,0 -79.96220289999999,36.137983,0 -79.9614883,36.1388349,0 -79.9604756,36.140017,0 -79.9601832,36.1404221,0 -79.95990689999999,36.1408748,0 -79.9595717,36.141451,0 -79.9593893,36.1418365,0 -79.9590781,36.1426098,0 -79.9589252,36.1430473,0 -79.9587938,36.1435628,0 -79.958657,36.1442884,0 -79.9585927,36.1448732,0 -79.9585706,36.1452514,0 -79.958561,36.145702,0 -79.9585766,36.1462659,0 -79.9586365,36.147024,0 -79.9586812,36.147611,0 -79.9587672,36.1485775,0 -79.958938,36.1506406,0 -79.9589855,36.1511957,0 -79.9590316,36.1517439,0 -79.9590618,36.1520915,0 -79.95915909999999,36.1532877,0 -79.95921850000001,36.1539675,0 -79.95932070000001,36.1552169,0 -79.9593385,36.1555437,0 -79.95934370000001,36.1560077,0 -79.9593445,36.1562723,0 -79.95933410000001,36.1564995,0 -79.9593028,36.156934,0 -79.9592358,36.1574596,0 -79.9591935,36.1577185,0 -79.9590661,36.1583465,0 -79.9589253,36.1588879,0 -79.95876699999999,36.1593546,0 -79.9585873,36.1598451,0 -79.9583834,36.1603172,0 -79.9581836,36.1607265,0 -79.9580321,36.1610123,0 -79.95762999999999,36.1616933,0 -79.9574384,36.1619829,0 -79.95725160000001,36.1622488,0 -79.9568743,36.1627469,0 -79.95672949999999,36.1629257,0 -79.9564187,36.1632875,0 -79.9562548,36.1634679,0 -79.95598560000001,36.1637343,0 -79.9553257,36.1643666,0 -79.95489120000001,36.1647434,0 -79.9543226,36.1651852,0 -79.95383440000001,36.1655273,0 -79.9531478,36.1659734,0 -79.9522841,36.1664887,0 -79.9485719,36.16868,0 -79.94544980000001,36.1704685,0 -79.9422258,36.1723783,0 -79.93781610000001,36.1749575,0 -79.93728059999999,36.1752697,0 -79.93675349999999,36.1755895,0 -79.93637320000001,36.1758295,0 -79.9358122,36.1762243,0 -79.93533410000001,36.1765918,0 -79.9349443,36.1769237,0 -79.9344237,36.177443,0 -79.9340322,36.17785,0 -79.9338369,36.1780552,0 -79.9333793,36.1786308,0 -79.9331691,36.1789235,0 -79.93287290000001,36.1793757,0 -79.9325869,36.1798699,0 -79.9323672,36.1803036,0 -79.9321805,36.1807128,0 -79.9320189,36.1811345,0 -79.9318746,36.181545,0 -79.9317424,36.1820015,0 -79.9314755,36.1829394,0 -79.9307567,36.1854009,0 -79.9306306,36.1858382,0 -79.9304013,36.1866316,0 -79.93004860000001,36.1878568,0 -79.92976160000001,36.1888732,0 -79.9295497,36.1896969,0 -79.9293029,36.190882,0 -79.92918760000001,36.191525,0 -79.92905620000001,36.1924601,0 -79.9289891,36.1930857,0 -79.92890060000001,36.1943043,0 -79.9288631,36.1953477,0 -79.9288809,36.1967813,0 -79.9288971,36.1973527,0 -79.928901,36.1975516,0 -79.9289076,36.1978856,0 -79.9289036,36.1982034,0 -79.92889359999999,36.1984101,0 -79.92888120000001,36.1986437,0 -79.9288667,36.1988314,0 -79.9288461,36.1990307,0 -79.9288277,36.199179,0 -79.9288001,36.1993682,0 -79.9287697,36.1995329,0 -79.92873590000001,36.1997036,0 -79.9286816,36.1999435,0 -79.9286178,36.2002037,0 -79.9285402,36.2005047,0 -79.9284356,36.2008356,0 -79.92833640000001,36.2011196,0 -79.92823490000001,36.2013831,0 -79.9281285,36.2016428,0 -79.928015,36.2018874,0 -79.9279013,36.2021198,0 -79.9277908,36.2023189,0 -79.9277101,36.2024582,0 -79.927639,36.2025776,0 -79.9275262,36.2027765,0 -79.9274322,36.2029377,0 -79.92734729999999,36.2030654,0 -79.9272275,36.2032428,0 -79.92711490000001,36.2034004,0 -79.92699039999999,36.2035653,0 -79.9268556,36.2037444,0 -79.9266897,36.2039552,0 -79.9264793,36.2042132,0 -79.9262962,36.2044401,0 -79.926131,36.204641,0 -79.925983,36.2048203,0 -79.92584429999999,36.2049912,0 -79.9255991,36.2052945,0 -79.9253849,36.2055604,0 -79.9251914,36.2058019,0 -79.92500149999999,36.2060409,0 -79.9246823,36.2064365,0 -79.9244633,36.2067132,0 -79.9242289,36.2069932,0 -79.9225813,36.2090698,0 -79.92054570000001,36.2115722,0 -79.917394,36.2154844,0 -79.91717800000001,36.2157671,0 -79.9169701,36.2160539,0 -79.9167717,36.2163444,0 -79.91658320000001,36.2166381,0 -79.9164055,36.2169346,0 -79.91623389999999,36.2172386,0 -79.9160763,36.2175411,0 -79.9159241,36.2178543,0 -79.9157859,36.2181643,0 -79.9133236,36.224023,0 -79.9132412,36.2242404,0 -79.9131668,36.2244584,0 -79.9131071,36.2246785,0 -79.91305509999999,36.2249003,0 -79.91301249999999,36.2251264,0 -79.9129897,36.2252855,0 -79.91297830000001,36.2254499,0 -79.9129777,36.2256133,0 -79.9129837,36.2257858,0 -79.9129978,36.2259492,0 -79.9130219,36.2261185,0 -79.91305079999999,36.2262797,0 -79.91309029999999,36.2264485,0 -79.9131359,36.2266129,0 -79.9131902,36.2267752,0 -79.91327649999999,36.2269882,0 -79.9134112,36.2272987,0 -79.913601,36.2276954,0 -79.9136798,36.2279382,0 -79.9138188,36.2282186,0 -79.914192,36.22897,0 -79.914565,36.2296768,0 -79.9166099,36.233794,0 -79.916811,36.2342071,0 -79.91700470000001,36.234619,0 -79.917191,36.2350337,0 -79.917372,36.2354531,0 -79.9175422,36.2358704,0 -79.9177057,36.236291,0 -79.9178625,36.2367148,0 -79.918012,36.2371392,0 -79.9181554,36.2375684,0 -79.9182915,36.2379987,0 -79.9184181,36.2384284,0 -79.91853740000001,36.2388609,0 -79.9186507,36.2392955,0 -79.9194348,36.2424402,0 -79.9195412,36.242865,0 -79.9198988,36.2441829,0 -79.9200553,36.2447237,0 -79.9202176,36.2452623,0 -79.92038410000001,36.2457984,0 -79.9206142,36.2465333,0 -79.92078359999999,36.2470754,0 -79.9220083,36.2509902,0 -79.92229380000001,36.2519039,0 -79.92264059999999,36.2529437,0 -79.9227471,36.2532503,0 -79.92290850000001,36.2536829,0 -79.9230677,36.2540856,0 -79.92320049999999,36.254411,0 -79.9233876,36.2548437,0 -79.9235274,36.2551651,0 -79.9236701,36.2554699,0 -79.9239693,36.256092,0 -79.9241561,36.2564662,0 -79.92433680000001,36.2568053,0 -79.9245628,36.2572245,0 -79.9283045,36.2639656,0 -79.9323852,36.2713245,0 -79.93258779999999,36.2716883,0 -79.9328124,36.2720906,0 -79.933139,36.2726729,0 -79.9336196,36.2734946,0 -79.9338782,36.2739407,0 -79.9342085,36.2744823,0 -79.93458579999999,36.2750753,0 -79.9349457,36.2756467,0 -79.9352246,36.2760945,0 -79.9354604,36.2764814,0 -79.9358031,36.2770595,0 -79.9362014,36.2777466,0 -79.93735220000001,36.2798067,0 -79.9376212,36.2803007,0 -79.9379395,36.2808739,0 -79.9381564,36.2812737,0 -79.9384088,36.2817924,0 -79.9386451,36.2823278,0 -79.9387634,36.2826278,0 -79.9389189,36.2830582,0 -79.9389852,36.2832574,0 -79.9390884,36.2835902,0 -79.93918069999999,36.2839281,0 -79.9392556,36.2842303,0 -79.9393295,36.2845674,0 -79.9394125,36.2850014,0 -79.93947559999999,36.2854215,0 -79.9395268,36.2858565,0 -79.9395533,36.2861822,0 -79.93961880000001,36.287566,0 
			</coordinates>
		</LineString>
		<atom:link rel="app" href="https://www.google.com/earth/about/versions/#earth-pro" title="Google Earth Pro 7.3.6.10201"></atom:link>
	</Placemark>
</Document>
</kml>
