<?xml version="1.0" encoding="UTF-8"?>
<kml xmlns="http://www.opengis.net/kml/2.2" xmlns:gx="http://www.google.com/kml/ext/2.2" xmlns:kml="http://www.opengis.net/kml/2.2" xmlns:atom="http://www.w3.org/2005/Atom">
<Document>
	<name>I.74.E.kml</name>
	<Placemark>
		<name>I.74.E</name>
		<MultiGeometry>
			<LineString>
				<coordinates>
					-80.7450683,36.561734,0 -80.744984,36.561173,0 -80.74496000000001,36.561041,0 -80.744953,36.561008,0 -80.744899,36.560772,0 -80.74484699999999,36.560578,0 -80.74471,36.560135,0 -80.744587,36.55978,0 -80.74451000000001,36.559578,0 -80.74421700000001,36.558875,0 -80.74404,36.5585,0 -80.743996,36.558398,0 -80.74393499999999,36.558238,0 -80.743865,36.558088,0 -80.74362499999999,36.557514,0 -80.74354099999999,36.557331,0 -80.743255,36.556705,0 -80.743138,36.556427,0 -80.743059,36.556219,0 -80.74301699999999,36.556092,0 -80.742873,36.555589,0 -80.742828,36.555413,0 -80.74278200000001,36.555209,0 -80.74276,36.555081,0 -80.74275,36.555026,0 -80.742727,36.554839,0 -80.74271400000001,36.554678,0 -80.74270199999999,36.554393,0 -80.742695,36.553909,0 -80.742695,36.553814,0 -80.742696,36.553687,0 -80.74270300000001,36.553605,0 -80.742709,36.553434,0 -80.74271,36.55341,0 -80.742739,36.55316,0 -80.742807,36.552736,0 -80.742834,36.552599,0 -80.742976,36.552109,0 -80.743058,36.551858,0 -80.743134,36.551654,0 -80.74319300000001,36.551511,0 -80.743298,36.551286,0 -80.743505,36.550865,0 -80.743612,36.550669,0 -80.743798,36.550362,0 -80.74429619999999,36.5495406,0 -80.7449872,36.5483527,0 -80.745656,36.547211,0 -80.745863,36.546854,0 -80.746533,36.545702,0 -80.74690699999999,36.545072,0 -80.747411,36.544184,0 -80.747812,36.543525,0 -80.748771,36.541856,0 -80.749475,36.540645,0 -80.749905,36.539928,0 -80.75018300000001,36.539451,0 -80.750376,36.539072,0 -80.7505668,36.5387028,0 -80.7507066,36.5383692,0 -80.75083960000001,36.5379906,0 -80.75095140000001,36.5376063,0 -80.75102529999999,36.5372985,0 -80.7510924,36.5369442,0 -80.7511365,36.5366443,0 -80.7511621,36.5362798,0 -80.7511665,36.5359267,0 -80.75115270000001,36.5355691,0 -80.7511282,36.5352741,0 -80.7510784,36.5349039,0 -80.75101789999999,36.5345877,0 -80.750951,36.534313,0 -80.75084150000001,36.5339444,0 -80.75067199999999,36.533399,0 -80.750457,36.532805,0 -80.75011000000001,36.531744,0 -80.7499917,36.5314116,0 -80.74964900000001,36.530458,0 -80.749295,36.529526,0 -80.74888730000001,36.5284326,0 -80.748625,36.5278113,0 -80.7483393,36.5270947,0 -80.7477674,36.5257297,0 -80.74738069999999,36.5248202,0 -80.7467055,36.5233341,0 -80.7464513,36.522737,0 -80.745812,36.521382,0 -80.745121,36.519981,0 -80.744625,36.518868,0 -80.7439414,36.5173777,0 -80.74351799999999,36.5164831,0 -80.7431323,36.5156426,0 -80.7428791,36.515071,0 -80.74275660000001,36.5147546,0 -80.74264650000001,36.5144259,0 -80.7425514,36.5141044,0 -80.7424702,36.5137592,0 -80.7424074,36.513424,0 -80.74235899999999,36.5130655,0 -80.742324,36.512612,0 -80.742315,36.512417,0 -80.74230300000001,36.511999,0 -80.74231159999999,36.510859,0 -80.7423115,36.509988,0 -80.742318,36.509393,0 -80.742327,36.508354,0 -80.7423728,36.5069305,0 -80.7423611,36.5059599,0 -80.7423782,36.5043164,0 -80.7423953,36.502682,0 -80.74240399999999,36.5016893,0 -80.7424223,36.4995992,0 -80.74244059999999,36.4985252,0 -80.74245089999999,36.49827,0 -80.74247149999999,36.4980175,0 -80.74241170000001,36.4969677,0 -80.74240380000001,36.4966383,0 -80.7423823,36.4963088,0 -80.74231899999999,36.49587,0 -80.74226,36.495623,0 -80.742203,36.495435,0 -80.74208,36.495093,0 -80.74198819999999,36.4948795,0 -80.741884,36.494666,0 -80.7417188,36.4943636,0 -80.7416018,36.494179,0 -80.74151519999999,36.494052,0 -80.7414124,36.4939233,0 -80.74130100000001,36.4937869,0 -80.741153,36.493616,0 -80.740987,36.493439,0 -80.740815,36.493274,0 -80.740697,36.493168,0 -80.740409,36.492927,0 -80.74023,36.492796,0 -80.74001699999999,36.492652,0 -80.739797,36.492511,0 -80.739576,36.492384,0 -80.739339,36.492259,0 -80.739104,36.492148,0 -80.73885900000001,36.492042,0 -80.738609,36.491945,0 -80.738367,36.491858,0 -80.73810400000001,36.491778,0 -80.7378698,36.491703,0 -80.73676500000001,36.491423,0 -80.736408,36.491342,0 -80.736355,36.491331,0 -80.73531199999999,36.491119,0 -80.73478900000001,36.491001,0 -80.73317299999999,36.490653,0 -80.73215999999999,36.49043,0 -80.73157999999999,36.490315,0 -80.730729,36.490133,0 -80.730553,36.4900894,0 -80.7296071,36.4898497,0 -80.729415,36.489806,0 -80.728751,36.489624,0 -80.728689,36.489607,0 -80.72864199999999,36.489593,0 -80.727739,36.489324,0 -80.726355,36.488871,0 -80.72562000000001,36.488606,0 -80.725033,36.488387,0 -80.723822,36.487924,0 -80.720814,36.486775,0 -80.719478,36.486263,0 -80.719391,36.48623,0 -80.71652899999999,36.485132,0 -80.715982,36.484918,0 -80.715666,36.484787,0 -80.71548300000001,36.484712,0 -80.714967,36.484488,0 -80.714344,36.484186,0 -80.713804,36.483907,0 -80.713354,36.483658,0 -80.712746,36.483298,0 -80.712362,36.483053,0 -80.71156000000001,36.482505,0 -80.707808,36.479642,0 -80.707729,36.479582,0 -80.707059,36.479071,0 -80.705879,36.47818,0 -80.70545799999999,36.477882,0 -80.705197,36.477713,0 -80.70483900000001,36.4775,0 -80.704488,36.477309,0 -80.703889,36.477017,0 -80.70251399999999,36.476399,0 -80.702015,36.476176,0 -80.700936,36.475686,0 -80.7000489,36.4752814,0 -80.699057,36.474822,0 -80.695481,36.473208,0 -80.695324,36.473138,0 -80.691836,36.471564,0 -80.69138100000001,36.471352,0 -80.691125,36.4712386,0 -80.690395,36.470915,0 -80.688776,36.47019,0 -80.688638,36.470128,0 -80.688412,36.470027,0 -80.68797499999999,36.469842,0 -80.687456,36.469623,0 -80.686607,36.469293,0 -80.68584,36.469009,0 -80.68422099999999,36.468454,0 -80.68314599999999,36.468094,0 -80.68153100000001,36.46754,0 -80.67885,36.466626,0 -80.675819,36.465599,0 -80.67312099999999,36.464664,0 -80.67246400000001,36.464447,0 -80.672414,36.464431,0 -80.669802,36.463543,0 -80.66759399999999,36.462797,0 -80.66683,36.462529,0 -80.66600099999999,36.462239,0 -80.66275400000001,36.461131,0 -80.661433,36.460694,0 -80.66060400000001,36.460463,0 -80.65948,36.460204,0 -80.65836299999999,36.459997,0 -80.657551,36.459881,0 -80.65669,36.45979,0 -80.65608400000001,36.459744,0 -80.65599899999999,36.459741,0 -80.65569000000001,36.459729,0 -80.655067,36.459706,0 -80.654678,36.459704,0 -80.654414,36.459702,0 -80.654274,36.459702,0 -80.654135,36.459701,0 -80.654004,36.4597,0 -80.651968,36.459762,0 -80.6508,36.459791,0 -80.649592,36.459828,0 -80.648295,36.459859,0 -80.647305,36.459872,0 -80.64663299999999,36.459849,0 -80.64605400000001,36.459808,0 -80.6453334,36.4597473,0 -80.64476070000001,36.4596842,0 -80.6441535,36.4596087,0 -80.64360000000001,36.4595166,0 -80.6430861,36.4594202,0 -80.64250699999999,36.459287,0 -80.641468,36.459034,0 -80.640789,36.458826,0 -80.640709,36.458802,0 -80.63981099999999,36.45851,0 -80.63921000000001,36.458302,0 -80.637623,36.457752,0 -80.637017,36.457542,0 -80.636596,36.457401,0 -80.6352758,36.4569336,0 -80.63495,36.4568226,0 -80.6339282,36.4564746,0 -80.63272600000001,36.4560848,0 -80.63224630000001,36.455929,0 -80.631079,36.455536,0 -80.628872,36.454778,0 -80.62813800000001,36.454514,0 -80.628007,36.454469,0 -80.62692300000001,36.454093,0 -80.626442,36.453903,0 -80.626023,36.453725,0 -80.625692,36.453565,0 -80.625226,36.453325,0 -80.62432,36.452797,0 -80.623836,36.452465,0 -80.623684,36.452353,0 -80.62347800000001,36.4522,0 -80.62155199999999,36.450702,0 -80.620176,36.449627,0 -80.619686,36.449244,0 -80.618728,36.448491,0 -80.618208,36.448108,0 -80.617756,36.447781,0 -80.61749399999999,36.447612,0 -80.617261,36.447472,0 -80.616947,36.447276,0 -80.61665499999999,36.44711,0 -80.61645900000001,36.446998,0 -80.615678,36.446617,0 -80.61485399999999,36.446289,0 -80.61450600000001,36.446166,0 -80.6128664,36.4456068,0 -80.612448,36.4454687,0 -80.6110437,36.4450716,0 -80.6101681,36.4448215,0 -80.6079646,36.4441774,0 -80.6074028,36.4440177,0 -80.603741,36.442932,0 -80.60077800000001,36.442052,0 -80.596559,36.440786,0 -80.595552,36.440509,0 -80.59491,36.440357,0 -80.59437800000001,36.440246,0 -80.59357199999999,36.440104,0 -80.592986,36.440016,0 -80.5925,36.439957,0 -80.59209,36.439913,0 -80.591624,36.439879,0 -80.59061699999999,36.439816,0 -80.589522,36.439799,0 -80.588984,36.439809,0 -80.58819800000001,36.439847,0 -80.58767400000001,36.439887,0 -80.58707699999999,36.439943,0 -80.586393,36.44003,0 -80.58618300000001,36.44005,0 -80.58600300000001,36.44008,0 -80.58474699999999,36.440246,0 -80.584609,36.440264,0 -80.582874,36.440494,0 -80.581577,36.440664,0 -80.578749,36.441041,0 -80.577162,36.441244,0 -80.576712,36.441301,0 -80.573835,36.441679,0 -80.57010099999999,36.442161,0 -80.567933,36.442441,0 -80.567781,36.442462,0 -80.56720799999999,36.442539,0 -80.56617300000001,36.442668,0 -80.564944,36.442852,0 -80.564142,36.44299,0 -80.563729,36.443076,0 -80.56324499999999,36.443194,0 -80.56272,36.443329,0 -80.56215400000001,36.443487,0 -80.561661,36.443637,0 -80.560541,36.443993,0 -80.55901299999999,36.444491,0 -80.5554947,36.4456169,0 -80.5550454,36.4457683,0 -80.5527201,36.4465121,0 -80.552325,36.446631,0 -80.5519851,36.4467214,0 -80.5515929,36.4468153,0 -80.55119449999999,36.4468924,0 -80.55066619999999,36.446969,0 -80.5501478,36.4470095,0 -80.5497354,36.4470219,0 -80.5493318,36.4470197,0 -80.5488845,36.4469976,0 -80.54851170000001,36.4469604,0 -80.548194,36.44692,0 -80.5477942,36.4468476,0 -80.5474294,36.4467678,0 -80.5470411,36.4466628,0 -80.5467988,36.4465853,0 -80.5465378,36.4464921,0 -80.5463024,36.4464045,0 -80.5460088,36.4462881,0 -80.5457681,36.446183,0 -80.5454761,36.4460329,0 -80.54519089999999,36.4458682,0 -80.544901,36.445696,0 -80.54450900000001,36.445433,0 -80.544107,36.4451325,0 -80.5436863,36.4447942,0 -80.54334129999999,36.4445018,0 -80.542773,36.44403,0 -80.54232399999999,36.443657,0 -80.54181269999999,36.4432381,0 -80.54085670000001,36.4424557,0 -80.54028700000001,36.441989,0 -80.5391271,36.4410584,0 
				</coordinates>
			</LineString>
			<LineString>
				<coordinates>
					-80.18149819999999,36.0603982,0 -80.1785776,36.0592675,0 -80.17576699999999,36.058138,0 -80.1749228,36.0578291,0 -80.1740921,36.0575463,0 -80.1730835,36.0572221,0 -80.17258,36.0570769,0 -80.17216620000001,36.0569576,0 -80.1712168,36.0566957,0 -80.17065460000001,36.0565516,0 -80.16972610000001,36.0563342,0 -80.16866330000001,36.0561087,0 -80.1676011,36.0559092,0 -80.1665443,36.05574,0 -80.1657182,36.0556186,0 -80.16541700000001,36.0555813,0 -80.1648156,36.0555069,0 -80.16373470000001,36.0553974,0 -80.16277580000001,36.0553193,0 -80.1619309,36.0552651,0 -80.156569,36.0550412,0 -80.1436684,36.0545024,0 -80.143142,36.0544747,0 -80.14259490000001,36.054427,0 -80.142045,36.0543685,0 -80.1413798,36.0542839,0 -80.14072,36.0541777,0 -80.14019159999999,36.0540779,0 -80.1396632,36.0539652,0 -80.1391375,36.0538415,0 -80.13866539999999,36.0537179,0 -80.13818259999999,36.0535857,0 -80.1377052,36.0534382,0 -80.1372439,36.0532821,0 -80.1367316,36.0531021,0 -80.1360932,36.0528527,0 -80.13552989999999,36.0526098,0 -80.1349774,36.052354,0 -80.134449,36.0520959,0 -80.133926,36.051814,0 -80.1315024,36.0503912,0 -80.1268571,36.0476326,0 -80.1232053,36.0454567,0 -80.12052180000001,36.0438577,0 -80.11971320000001,36.0433969,0 -80.1188349,36.0428963,0 -80.11815,36.042506,0 -80.11706700000001,36.041936,0 -80.115931,36.0413914,0 -80.114819,36.040897,0 -80.11366200000001,36.040427,0 -80.11250699999999,36.040005,0 -80.111358,36.039626,0 -80.1092565,36.0390082,0 -80.10777400000001,36.038672,0 -80.1051897,36.0382183,0 -80.1046054,36.0381344,0 -80.10401950000001,36.0380626,0 -80.1028438,36.0379411,0 -80.09690000000001,36.037516,0 -80.095094,36.037406,0 -80.09380899999999,36.037276,0 -80.0924897,36.0371123,0 -80.09119,36.036901,0 -80.0899098,36.0366723,0 -80.088616,36.036387,0 -80.087936,36.0362283,0 -80.087305,36.036065,0 -80.08665190000001,36.0358939,0 -80.086011,36.035705,0 -80.0853863,36.0355189,0 -80.08474699999999,36.035315,0 -80.0837138,36.0349719,0 -80.08314129999999,36.0347662,0 -80.0820062,36.0343316,0 -80.080512,36.033745,0 -80.0767209,36.0322805,0 -80.074116,36.0312895,0 -80.071641,36.030392,0 -80.07011900000001,36.029896,0 -80.06921800000001,36.029603,0 -80.066771,36.028886,0 -80.0640336,36.0281536,0 -80.06247159999999,36.0277374,0 -80.0612878,36.0274217,0 -80.0607782,36.0272847,0 -80.06013350000001,36.0271058,0 -80.0597547,36.0269902,0 -80.05925329999999,36.0268269,0 -80.0587692,36.0266612,0 -80.058538,36.026575,0 -80.05814119999999,36.0264207,0 -80.05748819999999,36.0261461,0 -80.0570876,36.0259597,0 -80.0565785,36.0257159,0 -80.05605679999999,36.0254432,0 -80.055751,36.0252781,0 -80.0553814,36.0250689,0 -80.0551122,36.0249059,0 -80.0548756,36.0247581,0 -80.0544312,36.0244722,0 -80.0542062,36.0243208,0 -80.0539167,36.0241166,0 -80.05350129999999,36.023812,0 -80.0530191,36.0234327,0 -80.052283,36.022806,0 -80.05107580000001,36.0217371,0 -80.050393,36.021158,0 -80.0494557,36.0204509,0 -80.0491664,36.0202452,0 -80.04859759999999,36.0198532,0 -80.0482938,36.0196548,0 -80.047961,36.0194458,0 -80.0474438,36.0191299,0 -80.04720690000001,36.0189929,0 -80.0468731,36.0188033,0 -80.04653380000001,36.0186136,0 -80.0462046,36.0184407,0 -80.0456397,36.0181517,0 -80.04517679999999,36.0179238,0 -80.0446058,36.0176502,0 -80.0441048,36.01741,0 -80.043542,36.0171374,0 -80.04270560000001,36.0167343,0 -80.0414541,36.0161295,0 -80.0409897,36.0159067,0 -80.0402454,36.0155447,0 -80.040072,36.01546,0 -80.0398186,36.0153284,0 -80.039575,36.015196,0 -80.03937070000001,36.0150797,0 -80.0391668,36.0149547,0 -80.03883999999999,36.014739,0 -80.03856500000001,36.014541,0 -80.038222,36.014254,0 -80.03784899999999,36.013918,0 -80.037468,36.013548,0 -80.03712400000001,36.013175,0 -80.03679099999999,36.012789,0 -80.03618299999999,36.01203,0 -80.0358713,36.0116235,0 -80.0350452,36.0105387,0 -80.0340903,36.0091935,0 -80.03371300000001,36.008768,0 -80.033418,36.008491,0 -80.03318299999999,36.008287,0 -80.032927,36.008088,0 -80.032533,36.007837,0 -80.032014,36.007557,0 -80.030811,36.007079,0 -80.030292,36.006939,0 -80.029596,36.00682,0 -80.02886530000001,36.0067791,0 -80.02829629999999,36.0067641,0 -80.027698,36.0067737,0 -80.0274003,36.0067887,0 -80.02710260000001,36.0068112,0 -80.0265225,36.0068787,0 -80.0259751,36.0069726,0 -80.0257642,36.0069793,0 -80.02506200000001,36.00713,0 -80.02448099999999,36.007313,0 -80.02380100000001,36.007551,0 -80.0228029,36.007882,0 -80.02225199999999,36.0080571,0 -80.021182,36.008388,0 -80.020427,36.008577,0 -80.01950100000001,36.008775,0 -80.01846999999999,36.008983,0 -80.01839200000001,36.008994,0 -80.01813799999999,36.009032,0 -80.016959,36.009204,0 -80.01647,36.009251,0 -80.01567799999999,36.00932,0 -80.0143692,36.009384,0 -80.012885,36.009418,0 -80.01229600000001,36.009409,0 -80.011729,36.009388,0 -80.010685,36.009316,0 -80.01032499999999,36.009287,0 -80.008866,36.009104,0 -80.00805,36.008988,0 -80.007209,36.008834,0 -80.00637999999999,36.008654,0 -80.00526189999999,36.0083864,0 -80.00478099999999,36.008254,0 -80.00284790000001,36.0076487,0 -80.0020627,36.0073595,0 -79.9984754,36.0059884,0 -79.9980705,36.0058282,0 -79.99786880000001,36.0057436,0 -79.9976515,36.0056523,0 -79.99722939999999,36.0054661,0 -79.996826,36.0052789,0 -79.9963652,36.0050495,0 -79.9959891,36.0048541,0 -79.9955537,36.0046131,0 -79.9951063,36.0043327,0 -79.9947863,36.0041456,0 -79.9944136,36.003907,0 -79.9940443,36.0036592,0 -79.9936915,36.0034106,0 -79.9933391,36.0031452,0 -79.9930042,36.0028781,0 -79.9926708,36.0025998,0 -79.9921599,36.0021215,0 -79.99200999999999,36.0019748,0 -79.9917518,36.0017221,0 -79.99170030000001,36.0016692,0 -79.99145470000001,36.0014167,0 -79.9911779,36.0011073,0 -79.990906,36.000792,0 -79.9906457,36.0004722,0 -79.9903913,36.0001381,0 -79.9901598,35.9998134,0 -79.9898311,35.9992968,0 -79.988406,35.997204,0 -79.9876027,35.996064,0 -79.98685999999999,35.9949733,0 -79.9865896,35.9945874,0 -79.98630180000001,35.9942055,0 -79.9860075,35.9938363,0 -79.9856966,35.9934678,0 -79.9853741,35.9931085,0 -79.9850359,35.9927565,0 -79.9846884,35.9924113,0 -79.984331,35.992078,0 -79.9839613,35.9917502,0 -79.98358090000001,35.9914336,0 -79.98318570000001,35.9911194,0 -79.98303319999999,35.9910053,0 -79.98278209999999,35.9908173,0 -79.9770025,35.9866005,0 -79.9762575,35.986057,0 -79.97606570000001,35.9859107,0 -79.97588039999999,35.9857613,0 -79.97570229999999,35.9856075,0 -79.9755376,35.9854527,0 -79.9753845,35.9852889,0 -79.9752405,35.9851177,0 -79.9751132,35.9849445,0 -79.97499310000001,35.9847598,0 -79.9748867,35.9845729,0 -79.974794,35.9843818,0 -79.97471090000001,35.9841813,0 -79.9746414,35.9839868,0 -79.97455050000001,35.9836747,0 -79.9744706,35.9833601,0 -79.9744017,35.9830393,0 -79.9743424,35.9827214,0 -79.97429080000001,35.9824018,0 -79.9742432,35.9820749,0 -79.9742057,35.9817547,0 -79.9741781,35.9814312,0 -79.97415959999999,35.9811054,0 -79.9741477,35.9807846,0 -79.97414379999999,35.9804587,0 -79.9741504,35.9801344,0 -79.97417160000001,35.9798111,0 -79.97424959999999,35.9791606,0 -79.9744427,35.9769942,0 -79.9745238,35.975894,0 -79.9746135,35.9748872,0 -79.97505030000001,35.9699858,0 -79.97508670000001,35.9689359,0 -79.97506370000001,35.9680681,0 -79.9750351,35.9670245,0 -79.97500340000001,35.9661704,0 -79.9749733,35.9654325,0 -79.9748993,35.9641637,0 -79.9748135,35.962618,0 -79.97490070000001,35.9613978,0 -79.974987,35.9604705,0 -79.975071,35.9598368,0 -79.9751801,35.9590174,0 -79.975263,35.9583983,0 -79.9754863,35.9565759,0 -79.9755724,35.9559222,0 -79.9756467,35.955358,0 -79.9757067,35.9547647,0 -79.97574710000001,35.9541574,0 -79.9757563,35.9538632,0 -79.9757546,35.9534017,0 -79.9757259,35.9529451,0 -79.97568939999999,35.9525286,0 -79.9756273,35.9520664,0 -79.9755509,35.9516299,0 -79.97546509999999,35.9512051,0 -79.9753687,35.9508202,0 -79.9752072,35.9502562,0 -79.9750811,35.9498839,0 -79.9745446,35.948529,0 -79.973919,35.947394,0 -79.9731874,35.9463185,0 -79.9729296,35.9459933,0 -79.9726778,35.9456758,0 -79.9721682,35.9450981,0 -79.9716961,35.9446117,0 -79.971047,35.9440428,0 -79.9699634,35.9431785,0 -79.968338,35.9421319,0 -79.9675762,35.9417193,0 -79.9655968,35.9407725,0 -79.96549419999999,35.9407253,0 -79.9645737,35.940314,0 -79.9630447,35.9396177,0 -79.96205380000001,35.9391535,0 -79.96158610000001,35.9388888,0 -79.9609272,35.9384408,0 -79.9599564,35.9376548,0 -79.95946309999999,35.9372734,0 -79.9592166,35.9370983,0 -79.9589098,35.9369028,0 -79.9586331,35.936748,0 -79.9583062,35.9365811,0 -79.9579592,35.9364182,0 -79.9576222,35.9362797,0 -79.9572902,35.9361616,0 -79.9568828,35.9360435,0 -79.95630439999999,35.9359173,0 -79.9558869,35.9358399,0 -79.95562030000001,35.9357992,0 -79.9553588,35.9357747,0 -79.9549665,35.9357299,0 -79.9546043,35.9357096,0 -79.9541215,35.9357096,0 -79.9537291,35.9357259,0 -79.9532262,35.9357544,0 -79.9508471,35.9359784,0 -79.94791979999999,35.9362471,0 -79.9465215,35.9363815,0 -79.9451736,35.9365118,0 -79.9421402,35.9367968,0 -79.9414804,35.9368564,0 -79.9412598,35.936874,0 -79.940989,35.9368917,0 -79.9406697,35.9369045,0 -79.94041850000001,35.9369101,0 -79.93998550000001,35.9369158,0 -79.9396098,35.9369161,0 -79.93929060000001,35.9369056,0 -79.9389961,35.9368939,0 -79.93862590000001,35.9368655,0 -79.9381863,35.9368245,0 -79.9377121,35.9367653,0 -79.9372876,35.936698,0 -79.93688090000001,35.9366211,0 -79.9363065,35.9364971,0 -79.9356777,35.9363395,0 -79.9348529,35.9360707,0 -79.9341007,35.9357826,0 -79.9334719,35.9355026,0 -79.9329403,35.9352408,0 -79.9322396,35.9348397,0 -79.9313904,35.9343051,0 -79.93080620000001,35.9339042,0 -79.9302026,35.9334817,0 -79.92964310000001,35.9330744,0 -79.92907719999999,35.9326519,0 -79.92850989999999,35.9322119,0 -79.92778060000001,35.9316316,0 -79.9270324,35.9309748,0 -79.9264226,35.9304199,0 -79.92584410000001,35.9298803,0 -79.92543550000001,35.9294832,0 -79.9249514,35.9289945,0 -79.9245804,35.928577,0 -79.9241026,35.9280272,0 -79.9237316,35.9276046,0 -79.92326009999999,35.9270293,0 -79.92261360000001,35.9262242,0 -79.9223288,35.925834,0 -79.92196850000001,35.9253221,0 -79.9209079,35.9236088,0 -79.9198391,35.9218522,0 -79.9196168,35.9214941,0 -79.9193854,35.921156,0 -79.91917100000001,35.9208696,0 -79.9188171,35.9203698,0 -79.9185203,35.9200073,0 -79.9182789,35.919714,0 -79.91786140000001,35.9192212,0 -79.9172126,35.9184554,0 -79.9163022,35.9174126,0 -79.91585739999999,35.9168889,0 -79.91553039999999,35.9164775,0 -79.9152387,35.9160905,0 -79.9149118,35.9156098,0 -79.9145899,35.9150681,0 -79.9143736,35.9146526,0 -79.9141523,35.9141882,0 -79.91393600000001,35.9136627,0 -79.9136795,35.9129498,0 -79.9135185,35.9123551,0 -79.91341799999999,35.9118988,0 -79.9133375,35.9114425,0 -79.91265300000001,35.9071385,0 -79.911974,35.9026418,0 -79.911871,35.9019078,0 -79.91178410000001,35.9012794,0 -79.91174549999999,35.9009248,0 -79.9117294,35.9007318,0 -79.9117165,35.9005232,0 -79.9117069,35.900325,0 -79.91171970000001,35.9001164,0 -79.91173910000001,35.8998843,0 -79.9117873,35.8996314,0 -79.9118485,35.8993915,0 -79.911929,35.8991542,0 -79.9120449,35.8988961,0 -79.9121608,35.898664,0 -79.91233219999999,35.8983502,0 -79.912638,35.8979395,0 -79.91305250000001,35.8973854,0 -79.9134347,35.8969095,0 -79.9137727,35.8964336,0 -79.9141027,35.8959219,0 -79.9142958,35.8955731,0 -79.91447290000001,35.8952047,0 -79.91464190000001,35.8948136,0 -79.9147505,35.8945007,0 -79.9149221,35.8939698,0 -79.91502819999999,35.8935814,0 -79.91516900000001,35.8929393,0 -79.91523340000001,35.8925676,0 -79.9152696,35.8922026,0 -79.9152897,35.8918733,0 -79.91528599999999,35.8914797,0 -79.9152883,35.8912775,0 -79.915282,35.8909223,0 -79.91525780000001,35.8904757,0 -79.9152433,35.8901875,0 -79.91521109999999,35.8898191,0 -79.91514669999999,35.8893432,0 -79.91509840000001,35.88904,0 -79.91503,35.8886684,0 -79.9149415,35.8882707,0 -79.914857,35.8879284,0 -79.9147564,35.8875339,0 -79.9146518,35.8871721,0 -79.9145311,35.8868135,0 -79.9144063,35.8864418,0 -79.91429359999999,35.8861484,0 -79.914177,35.8858485,0 -79.9140402,35.8855453,0 -79.9139172,35.8852677,0 -79.913798,35.8850303,0 -79.9136725,35.8847695,0 -79.9135309,35.8844957,0 -79.91336990000001,35.8842036,0 -79.91322510000001,35.8839506,0 -79.91307380000001,35.883695,0 -79.9129353,35.8834863,0 -79.91274540000001,35.8832047,0 -79.91257160000001,35.882936,0 -79.91233339999999,35.882597,0 -79.9121789,35.8823753,0 -79.9119857,35.8821223,0 -79.9117636,35.8818432,0 -79.9115029,35.8815276,0 -79.9111359,35.8810921,0 -79.91092020000001,35.8808495,0 -79.9106305,35.8805522,0 -79.91040839999999,35.8803305,0 -79.91009939999999,35.8800384,0 -79.9098161,35.8797828,0 -79.9095167,35.8795089,0 -79.9091337,35.8791881,0 -79.9087667,35.8788907,0 -79.908691,35.8788316,0 -79.9083169,35.8785392,0 -79.9079072,35.878223,0 -79.9068382,35.8773697,0 -79.9056063,35.8764233,0 -79.9043339,35.87546,0 -79.9019922,35.8736979,0 -79.89919399999999,35.8715428,0 -79.8989077,35.8713223,0 -79.8968229,35.8696971,0 -79.8946918,35.8680533,0 -79.89342739999999,35.8669533,0 -79.8921014,35.8656705,0 -79.8914922,35.8650732,0 -79.88959010000001,35.8630263,0 -79.88767249999999,35.8609579,0 -79.88652930000001,35.8597443,0 -79.88457289999999,35.8576542,0 -79.882857,35.8560391,0 -79.8784496,35.8527787,0 -79.87465709999999,35.8500253,0 -79.870064,35.8466683,0 -79.8686591,35.8455928,0 -79.8669086,35.8440283,0 -79.8661839,35.8432979,0 -79.8655198,35.8425008,0 -79.8642763,35.8408133,0 -79.8634242,35.8393543,0 -79.8612225,35.8356154,0 -79.85861610000001,35.8306592,0 -79.85716650000001,35.8281008,0 -79.85627119999999,35.8264299,0 -79.85584950000001,35.8252788,0 -79.85565269999999,35.8244942,0 -79.85543749999999,35.8230402,0 -79.85530110000001,35.8217046,0 -79.8550623,35.8193329,0 -79.8545938,35.8157462,0 -79.85421890000001,35.8142225,0 -79.8537832,35.8132306,0 -79.853216,35.812177,0 -79.85241980000001,35.8109843,0 -79.8517124,35.8101029,0 -79.8509401,35.8093101,0 -79.8374329,35.7964196,0 -79.8365696,35.7955722,0 -79.8358058,35.7947969,0 -79.83497370000001,35.7939209,0 -79.8346346,35.7935585,0 -79.8302632,35.7888859,0 -79.8301055,35.7887053,0 -79.8299526,35.7885138,0 -79.82981909999999,35.7883218,0 -79.82969780000001,35.7881206,0 -79.82959320000001,35.7879133,0 -79.8295093,35.7877061,0 -79.8294416,35.7874869,0 -79.829392,35.7872644,0 -79.8293618,35.787049,0 -79.8293477,35.7868227,0 -79.8293558,35.786597,0 -79.8293752,35.7863984,0 -79.8294272,35.7860955,0 -79.82954479999999,35.7855379,0 -79.82952349999999,35.7852622,0 -79.8295476,35.7851496,0 -79.8295997,35.7848222,0 -79.82966810000001,35.7844224,0 -79.8297085,35.784079,0 -79.8297503,35.7836368,0 -79.82977270000001,35.7833043,0 -79.82978679999999,35.7829043,0 -79.829786,35.7825634,0 -79.8297824,35.7823074,0 -79.8297724,35.7816689,0 -79.8297432,35.7813325,0 -79.829707,35.7809982,0 -79.829656,35.7807475,0 -79.82951490000001,35.7796267,0 -79.8292299,35.7773245,0 -79.829128,35.776501,0 -79.82905649999999,35.7758982,0 -79.8290004,35.775458,0 -79.82896890000001,35.7751975,0 -79.8288017,35.7738461,0 -79.8287382,35.7732519,0 -79.828644,35.7722766,0 -79.8285748,35.7713946,0 -79.8285125,35.7704777,0 -79.8284039,35.7687962,0 -79.8283785,35.7684006,0 -79.8280288,35.7642113,0 -79.8279371,35.7631131,0 -79.827782,35.7613746,0 -79.8275709,35.7595362,0 -79.8272679,35.7569054,0 -79.82671000000001,35.7529265,0 -79.8263882,35.7507758,0 -79.8262058,35.7494523,0 -79.826082,35.7485632,0 -79.82607160000001,35.7485028,0 -79.82588199999999,35.7466287,0 -79.825427,35.7421457,0 -79.82530199999999,35.7409087,0 -79.8250864,35.7387825,0 -79.824746,35.7354267,0 -79.824564,35.7336297,0 -79.824473,35.7327377,0 -79.8244201,35.7322131,0 -79.8243461,35.7314314,0 -79.8242841,35.7307884,0 -79.8242041,35.7299414,0 -79.82415279999999,35.7294043,0 -79.82416670000001,35.7284142,0 -79.8242128,35.7274664,0 -79.8243253,35.7267539,0 -79.8244775,35.7260979,0 -79.8245142,35.7259092,0 -79.82462820000001,35.725488,0 -79.8249677,35.7243192,0 -79.8252404,35.7233885,0 -79.82541790000001,35.7226964,0 -79.8255671,35.7221741,0 -79.8257254,35.7216485,0 -79.8258811,35.7211371,0 -79.82617089999999,35.7201185,0 -79.8262943,35.7196324,0 -79.82641769999999,35.7190852,0 -79.8265069,35.718592,0 -79.8265639,35.7181086,0 -79.82669660000001,35.7170176,0 -79.8268564,35.7151879,0 -79.827003,35.7139555,0 -79.8271125,35.7133537,0 -79.8272075,35.7130349,0 -79.82734910000001,35.7125599,0 -79.8275348,35.7120327,0 -79.8278751,35.7112865,0 -79.8283229,35.7105132,0 -79.8287981,35.7098305,0 -79.8294015,35.7090933,0 -79.83023729999999,35.7081743,0 -79.8306173,35.7076996,0 -79.8308655,35.7073602,0 -79.83122969999999,35.7067453,0 -79.8314699,35.7062698,0 -79.8316554,35.7058522,0 -79.83181980000001,35.7054347,0 -79.8319442,35.7050305,0 -79.832078,35.7045253,0 -79.8321672,35.7040296,0 -79.8322118,35.7035568,0 -79.83224199999999,35.7028596,0 -79.8322898,35.7015386,0 -79.8323099,35.7011172,0 -79.8323383,35.6999997,0 -79.8323501,35.6993131,0 -79.8323828,35.698312,0 -79.8324185,35.6972555,0 -79.8324573,35.696185,0 -79.8324779,35.6951208,0 -79.8324594,35.6943681,0 -79.83242420000001,35.6935888,0 -79.8323652,35.692975,0 -79.83231720000001,35.6926482,0 -79.832245,35.6921534,0 -79.83208689999999,35.6912827,0 -79.83191239999999,35.6905593,0 -79.8318214,35.6901963,0 -79.83164960000001,35.6896213,0 -79.8311985,35.6883679,0 -79.8304718,35.6864965,0 -79.830313,35.686047,0 -79.8300528,35.685371,0 -79.8298534,35.6848666,0 -79.8295961,35.6842951,0 -79.8289632,35.6825066,0 -79.82877000000001,35.6820184,0 -79.8286466,35.6816284,0 -79.8284991,35.6809814,0 -79.8284266,35.6804236,0 -79.8284105,35.6799726,0 -79.8284266,35.6795151,0 -79.82844919999999,35.6791608,0 -79.8285152,35.678746,0 -79.82861440000001,35.6783036,0 -79.8287512,35.6778396,0 -79.8288944,35.677433,0 -79.8290891,35.6769898,0 -79.8293494,35.67648,0 -79.83013630000001,35.6749448,0 -79.8309703,35.6733129,0 -79.8316083,35.6720851,0 -79.8325476,35.6702536,0 -79.8335972,35.6682087,0 -79.83453470000001,35.6663803,0 -79.83529849999999,35.6648904,0 -79.835398,35.6646908,0 -79.83549840000001,35.6644814,0 -79.83559440000001,35.6642717,0 -79.8356847,35.6640582,0 -79.83576669999999,35.6638469,0 -79.83584430000001,35.6636328,0 -79.8359166,35.6634166,0 -79.8359828,35.6632,0 -79.8360441,35.6629803,0 -79.83609920000001,35.6627625,0 -79.8361496,35.6625453,0 -79.83619400000001,35.6623225,0 -79.8362328,35.6621032,0 -79.8362656,35.6618813,0 -79.8362922,35.6616595,0 -79.83631269999999,35.6614368,0 -79.8363277,35.6612143,0 -79.8363372,35.6609911,0 -79.83634259999999,35.6607679,0 -79.8363406,35.6605455,0 -79.83633380000001,35.6603225,0 -79.83631939999999,35.6601,0 -79.8362997,35.6598751,0 -79.8362738,35.6596527,0 -79.8362439,35.6594331,0 -79.8362092,35.6592112,0 -79.836168,35.658989,0 -79.83611809999999,35.658769,0 -79.8360631,35.658547,0 -79.83600370000001,35.6583279,0 -79.83593740000001,35.658112,0 -79.8329665,35.649167,0 -79.8328631,35.6488482,0 -79.83276530000001,35.6485299,0 -79.8326758,35.6482136,0 -79.8325949,35.6478951,0 -79.8325206,35.647572,0 -79.8324556,35.6472539,0 -79.83239930000001,35.6469287,0 -79.8323516,35.6466052,0 -79.8323118,35.646282,0 -79.83228130000001,35.6459575,0 -79.8322574,35.6456308,0 -79.8322428,35.6453053,0 -79.8322355,35.6449773,0 -79.8322362,35.6446485,0 -79.83224540000001,35.6443258,0 -79.8322653,35.6440016,0 -79.83229249999999,35.6436744,0 -79.8325536,35.6411788,0 -79.8331759,35.6352282,0 -79.8332278,35.6343501,0 -79.8332332,35.6337702,0 -79.8331956,35.6330552,0 -79.8331098,35.6322399,0 -79.8329684,35.6313817,0 -79.8327419,35.6305434,0 -79.8324607,35.6296805,0 -79.8322139,35.629009,0 -79.8319082,35.6283419,0 -79.8311241,35.6268157,0 -79.8305617,35.6260178,0 -79.8297517,35.6249713,0 -79.8291071,35.6241855,0 -79.8281423,35.6230876,0 -79.82768489999999,35.6225026,0 -79.8267893,35.6214646,0 -79.82648829999999,35.6211117,0 -79.8259126,35.6204408,0 -79.8256287,35.6201144,0 -79.82523620000001,35.6196581,0 -79.82485509999999,35.6192122,0 -79.8245479,35.6188518,0 -79.8243107,35.6185789,0 -79.82354239999999,35.6176801,0 -79.8230267,35.6170836,0 -79.8225395,35.6165109,0 -79.8219883,35.6158789,0 -79.8215436,35.6153581,0 -79.8210905,35.614828,0 -79.82079419999999,35.614469,0 -79.8205277,35.6141225,0 -79.82029679999999,35.6138057,0 -79.8201186,35.6135217,0 -79.8199528,35.6132284,0 -79.81980059999999,35.6129275,0 -79.8196695,35.6126365,0 -79.81953919999999,35.6123127,0 -79.8194378,35.6120047,0 -79.8193452,35.6116778,0 -79.8192662,35.6113458,0 -79.81922640000001,35.6111355,0 -79.819193,35.6109209,0 -79.81914879999999,35.6105011,0 -79.819034,35.609078,0 -79.8189515,35.607989,0 -79.81886009999999,35.6068039,0 -79.8187598,35.6054903,0 -79.8186943,35.6046062,0 -79.8186214,35.603641,0 -79.81856000000001,35.6028633,0 -79.81850369999999,35.6021116,0 -79.8184631,35.6015687,0 -79.8184224,35.6010341,0 -79.81833779999999,35.5999289,0 -79.81827509999999,35.599053,0 -79.8182103,35.5982746,0 -79.8181489,35.597524,0 -79.8181007,35.5971109,0 -79.81804630000001,35.5967835,0 -79.818005,35.5965653,0 -79.817954,35.5963508,0 -79.81789980000001,35.5961508,0 -79.8178296,35.5959254,0 -79.8177572,35.5957187,0 -79.8176831,35.5955095,0 -79.81759750000001,35.5953053,0 -79.8174514,35.5949973,0 -79.8173022,35.5947019,0 -79.8171858,35.5944992,0 -79.8170527,35.5942859,0 -79.8169268,35.5940962,0 -79.81680350000001,35.5939198,0 -79.81666920000001,35.5937426,0 -79.8165063,35.5935366,0 -79.8163648,35.5933677,0 -79.8162142,35.5932004,0 -79.8160352,35.5930083,0 -79.8158596,35.5928295,0 -79.8156869,35.5926708,0 -79.8155008,35.5925025,0 -79.81530100000001,35.592335,0 -79.8151438,35.5922045,0 -79.81494290000001,35.5920437,0 -79.81473750000001,35.5918829,0 -79.8143638,35.5915919,0 -79.8139833,35.591299,0 -79.8135954,35.5910021,0 -79.8131942,35.5906945,0 -79.8127147,35.5903224,0 -79.8123231,35.5900214,0 -79.8119741,35.5897506,0 -79.8116429,35.5894992,0 -79.81114700000001,35.589113,0 -79.8101789,35.5883607,0 -79.8098693,35.5881043,0 -79.809556,35.5878303,0 -79.8093092,35.5875896,0 -79.8090564,35.5873215,0 -79.8087608,35.5869675,0 -79.8086145,35.5867812,0 -79.8084092,35.5864915,0 -79.8082266,35.5862106,0 -79.808097,35.5859946,0 -79.8079401,35.585701,0 -79.8077942,35.5853912,0 -79.8076593,35.5850739,0 -79.80755120000001,35.5847634,0 -79.80745589999999,35.5844639,0 -79.8073661,35.5841047,0 -79.807303,35.5837851,0 -79.80723450000001,35.5833561,0 -79.8071693,35.5829086,0 -79.8071245,35.5825749,0 -79.8070519,35.5820391,0 -79.8069715,35.5814799,0 -79.8069004,35.5809369,0 -79.80682710000001,35.5803934,0 -79.8067628,35.5799526,0 -79.80668900000001,35.5794068,0 -79.806522,35.5781895,0 -79.80644169999999,35.5775972,0 -79.8063257,35.5767662,0 -79.8062745,35.5764,0 -79.8062178,35.5759633,0 -79.8060639,35.5748815,0 -79.8059471,35.5740265,0 -79.8058527,35.5733428,0 -79.805778,35.5727976,0 -79.805689,35.5721343,0 -79.8055851,35.5713697,0 -79.8055244,35.570934,0 -79.80542699999999,35.5702317,0 -79.80529490000001,35.5692709,0 -79.8050769,35.5676805,0 -79.80497699999999,35.5669785,0 -79.8048237,35.5658685,0 -79.80474340000001,35.5652636,0 -79.804618,35.5643685,0 -79.8044958,35.5635865,0 -79.804412,35.5631575,0 -79.804329,35.5628373,0 -79.8042375,35.562507,0 -79.80409299999999,35.5620822,0 -79.80393770000001,35.5616852,0 -79.80378690000001,35.561348,0 -79.8035508,35.5608559,0 -79.8032705,35.5603088,0 -79.803072,35.559913,0 -79.8028056,35.5593935,0 -79.80265,35.5590904,0 -79.8021382,35.5580902,0 -79.8019529,35.5577406,0 -79.80175269999999,35.5573359,0 -79.8014915,35.556825,0 -79.80128569999999,35.5564225,0 -79.80111960000001,35.5560933,0 -79.8008521,35.5555669,0 -79.8006544,35.5551888,0 -79.80043209999999,35.5547497,0 -79.8002024,35.5542979,0 -79.79991099999999,35.5537448,0 -79.79969819999999,35.5533165,0 -79.7994612,35.5528483,0 -79.798869,35.5516938,0 -79.7973154,35.5487099,0 -79.79366349999999,35.5416654,0 -79.79285350000001,35.5399849,0 -79.78980110000001,35.5341049,0 -79.7887739,35.5319396,0 -79.7859289,35.5263683,0 -79.7840156,35.5225925,0 -79.7833638,35.5211539,0 -79.7828542,35.5198265,0 -79.78241079999999,35.5184368,0 -79.7822141,35.5177304,0 -79.7819454,35.5166195,0 -79.7817845,35.5158267,0 -79.7816997,35.515376,0 -79.7816418,35.5149647,0 -79.7816134,35.5147687,0 -79.7815082,35.5139031,0 -79.7814393,35.5131336,0 -79.78137340000001,35.5119428,0 -79.7813534,35.5107252,0 -79.7813623,35.5087245,0 -79.7813623,35.507842,0 -79.7813623,35.5069764,0 -79.7813639,35.5060958,0 -79.7813673,35.5050924,0 -79.7813676,35.5042294,0 -79.7813714,35.5029405,0 -79.7813629,35.5023465,0 -79.7813428,35.5016348,0 -79.7812909,35.5008173,0 -79.781232,35.5001491,0 -79.7811596,35.4995041,0 -79.781081,35.4989455,0 -79.7810679,35.4988207,0 -79.78093509999999,35.4978683,0 -79.7808047,35.4969902,0 -79.7804271,35.4943212,0 -79.7803282,35.4935866,0 -79.7802823,35.4932616,0 -79.7801961,35.4923223,0 -79.780186,35.4918341,0 -79.7801867,35.4914448,0 -79.7802052,35.4909547,0 -79.7802926,35.4900302,0 -79.7804479,35.4890996,0 -79.78061289999999,35.4882947,0 -79.7807656,35.4875362,0 -79.78094900000001,35.4866572,0 -79.78108109999999,35.4859903,0 -79.78118929999999,35.4854499,0 -79.7812876,35.484966,0 -79.7814135,35.4843045,0 -79.78155080000001,35.4836058,0 -79.7817237,35.4827501,0 -79.78188179999999,35.4819434,0 -79.7819999,35.4813723,0 -79.7822054,35.4803267,0 -79.78231890000001,35.4797633,0 -79.78243639999999,35.4791774,0 -79.7825581,35.4785505,0 -79.7827052,35.4778404,0 -79.78280770000001,35.477307,0 -79.78297449999999,35.476479,0 -79.7832083,35.4753013,0 -79.7834976,35.473882,0 -79.78378379999999,35.4724502,0 -79.7840053,35.4713315,0 -79.784166,35.4705389,0 -79.7843082,35.4698014,0 -79.7845657,35.4685236,0 -79.7848358,35.4671676,0 -79.784977,35.4664545,0 -79.7851182,35.4657376,0 -79.7851946,35.4652464,0 -79.78521910000001,35.4650004,0 -79.7852436,35.4647267,0 -79.78526220000001,35.4643134,0 -79.7852602,35.4638028,0 -79.78524659999999,35.4635221,0 -79.78522529999999,35.4632527,0 -79.7851699,35.4627936,0 -79.785071,35.4622515,0 -79.7849329,35.4617136,0 -79.78474629999999,35.4611313,0 -79.7844692,35.4604273,0 -79.7834467,35.4580186,0 -79.7827621,35.4563881,0 -79.78255900000001,35.455918,0 -79.7824013,35.4555408,0 -79.7815063,35.4534324,0 -79.7812429,35.4528189,0 -79.7808495,35.4519069,0 -79.7805889,35.4512776,0 -79.7790347,35.4475666,0 -79.778464,35.446138,0 -79.777753,35.444463,0 -79.776931,35.442441,0 -79.776651,35.441667,0 -79.776124,35.440095,0 -79.77587200000001,35.439267,0 -79.775519,35.438049,0 -79.775323,35.437356,0 -79.775175,35.436759,0 -79.774805,35.435152,0 -79.77466,35.434443,0 -79.774474,35.433534,0 -79.77431,35.432574,0 -79.77416599999999,35.431814,0 -79.773867,35.430174,0 -79.773735,35.42938,0 -79.77341,35.427682,0 -79.773222,35.426547,0 -79.77304100000001,35.425551,0 -79.772711,35.423779,0 -79.772673,35.423578,0 -79.772469,35.422405,0 -79.77222,35.421064,0 -79.771598,35.417566,0 -79.771444,35.416661,0 -79.771261,35.415709,0 -79.771067,35.41464,0 -79.770916,35.413756,0 -79.77072200000001,35.412754,0 -79.7706079,35.4121402,0 -79.7705545,35.4118207,0 -79.77036200000001,35.410706,0 -79.770213,35.409913,0 -79.770127,35.409453,0 -79.76997,35.408584,0 -79.76988900000001,35.408133,0 -79.769744,35.407305,0 -79.769705,35.407095,0 -79.76951800000001,35.406029,0 -79.76940690000001,35.4054522,0 -79.7693135,35.4049477,0 -79.7692545,35.4045971,0 -79.7690267,35.4033386,0 -79.768944,35.402886,0 -79.768412,35.399914,0 -79.768215,35.398786,0 -79.767954,35.397062,0 -79.76780599999999,35.395847,0 -79.767681,35.394644,0 -79.767612,35.393635,0 -79.767554,35.39245,0 -79.767394,35.388768,0 -79.767381,35.388081,0 -79.767308,35.386684,0 -79.767297,35.386367,0 -79.767263,35.385362,0 -79.767191,35.383794,0 -79.76714200000001,35.382389,0 -79.767081,35.38113,0 -79.76702899999999,35.379742,0 -79.76684,35.375402,0 -79.766773,35.374269,0 -79.766662,35.372902,0 -79.766559,35.371538,0 -79.76655100000001,35.37143,0 -79.76645499999999,35.370309,0 -79.76643199999999,35.37004,0 -79.766333,35.368709,0 -79.7660417,35.3651323,0 -79.765935,35.363797,0 -79.765789,35.361936,0 -79.76567900000001,35.360673,0 -79.76557699999999,35.359201,0 -79.765539,35.358754,0 -79.76547600000001,35.358017,0 -79.7654216,35.3573757,0 -79.7653662,35.3568008,0 -79.76534030000001,35.3563633,0 -79.76517699999999,35.354409,0 -79.76512700000001,35.353993,0 -79.765063,35.35358,0 -79.764987,35.353166,0 -79.764897,35.352754,0 -79.764742,35.352142,0 -79.764623,35.351737,0 -79.76449100000001,35.351334,0 -79.764309,35.350837,0 -79.764233,35.350645,0 -79.764065,35.35026,0 -79.763881,35.349879,0 -79.763595,35.349338,0 -79.763307,35.348826,0 -79.763003,35.348321,0 -79.762845,35.34807,0 -79.762593,35.347706,0 -79.762331,35.347346,0 -79.762056,35.346993,0 -79.76177,35.346647,0 -79.761472,35.346305,0 -79.760468,35.345199,0 -79.75940199999999,35.344037,0 -79.758987,35.343563,0 -79.758431,35.342929,0 -79.75632400000001,35.340617,0 -79.754013,35.338041,0 -79.753231,35.337182,0 -79.752059,35.33588,0 -79.751237,35.334966,0 -79.750046,35.333655,0 -79.749082,35.332579,0 -79.747815,35.331184,0 -79.746562,35.329787,0 -79.745766,35.328905,0 -79.744991,35.328046,0 -79.743799,35.326736,0 -79.742223,35.324972,0 -79.740078,35.322591,0 -79.738823,35.321208,0 -79.736037,35.3181,0 -79.73499099999999,35.316945,0 -79.73483,35.316767,0 -79.7334908,35.3152799,0 -79.733287,35.3150085,0 -79.73259899999999,35.314008,0 -79.732271,35.313512,0 -79.73180600000001,35.312746,0 -79.73155300000001,35.312296,0 -79.731272,35.311747,0 -79.73101200000001,35.311209,0 -79.730659,35.31036,0 -79.73034199999999,35.309559,0 -79.73006100000001,35.308664,0 -79.729877,35.308002,0 -79.729732,35.30731,0 -79.729592,35.306576,0 -79.729508,35.305996,0 -79.729437,35.305373,0 -79.729383,35.304507,0 -79.72929999999999,35.302987,0 -79.729293,35.302806,0 -79.72928,35.302434,0 -79.729252,35.301952,0 -79.729232,35.3016133,0 -79.729153,35.300276,0 -79.72900799999999,35.297636,0 -79.728996,35.297361,0 -79.7289907,35.2972531,0 -79.72897399999999,35.2969108,0 -79.72892330000001,35.2961107,0 -79.728883,35.295384,0 -79.728807,35.293878,0 -79.728731,35.29259,0 -79.728675,35.291436,0 -79.728582,35.290016,0 -79.728504,35.28842,0 -79.72839399999999,35.286513,0 -79.72825,35.283726,0 -79.728161,35.282231,0 -79.727998,35.279157,0 -79.727847,35.276614,0 -79.72781000000001,35.27587,0 -79.72779800000001,35.275639,0 -79.72769599999999,35.273606,0 -79.727609,35.272015,0 -79.727457,35.27005,0 -79.727214,35.265394,0 -79.727052,35.262294,0 -79.727161,35.261068,0 -79.727341,35.259896,0 -79.7274632,35.259364,0 -79.72766900000001,35.2586265,0 -79.72778340000001,35.2582519,0 -79.7279516,35.2577582,0 -79.72812740000001,35.2573298,0 -79.72848999999999,35.256507,0 -79.72886370000001,35.2557252,0 -79.7304084,35.2525991,0 -79.7320682,35.249267,0 -79.7324364,35.2483656,0 -79.7330479,35.2470689,0 -79.7335844,35.2456845,0 -79.7340672,35.2442738,0 -79.7343568,35.2430733,0 -79.73468939999999,35.2411544,0 -79.7347645,35.2397874,0 -79.7347109,35.2387183,0 -79.7345499,35.2373163,0 -79.73427100000001,35.2360281,0 -79.7340672,35.2351868,0 -79.73373460000001,35.2340651,0 -79.7325651,35.2303494,0 -79.7314708,35.2269665,0 -79.7300868,35.2228648,0 -79.7294752,35.2208928,0 -79.7288315,35.2188856,0 -79.72788730000001,35.2158003,0 -79.72758690000001,35.2143628,0 -79.72737239999999,35.2131181,0 -79.7272114,35.2119084,0 -79.72712559999999,35.2105322,0 -79.7271149,35.2085949,0 -79.72717919999999,35.2045361,0 -79.7272114,35.2006875,0 -79.7272543,35.1968913,0 -79.7272007,35.1957515,0 -79.727029,35.1947784,0 -79.7268037,35.1937788,0 -79.72643890000001,35.1926916,0 -79.72597759999999,35.1915869,0 -79.725291,35.1904821,0 -79.7245399,35.18943,0 -79.72382109999999,35.1885619,0 -79.7230594,35.1877991,0 -79.72123550000001,35.1862821,0 -79.71799540000001,35.1835989,0 -79.7162144,35.1822047,0 -79.71561509999999,35.1816661,0 -79.7151648,35.1812525,0 -79.7149053,35.1809636,0 -79.71466119999999,35.180638,0 -79.71418660000001,35.1800036,0 -79.71377889999999,35.1792583,0 -79.7135107,35.1785479,0 -79.713319,35.1778026,0 -79.71317809999999,35.1768905,0 -79.71317809999999,35.1759697,0 -79.71324250000001,35.1753471,0 -79.713382,35.1746981,0 -79.713618,35.1739351,0 -79.7142403,35.1722075,0 -79.7151188,35.1696551,0 -79.7152273,35.1693396,0 -79.7154848,35.1685064,0 -79.7157852,35.1672961,0 -79.71595689999999,35.1663927,0 -79.71615,35.1651736,0 -79.71630020000001,35.1636475,0 -79.7163431,35.1627353,0 -79.7163431,35.1617354,0 -79.71630020000001,35.1605513,0 -79.71618220000001,35.1594461,0 -79.7160749,35.1585251,0 -79.7158603,35.1569638,0 -79.7155277,35.1548322,0 -79.71512,35.1523497,0 -79.7149371,35.1512369,0 -79.7146587,35.1495426,0 -79.7142724,35.1472442,0 -79.71418660000001,35.1461564,0 -79.7140686,35.1444456,0 -79.71401729999999,35.1433489,0 -79.7139828,35.1426121,0 -79.713972,35.1407083,0 -79.71402569999999,35.1389799,0 -79.714133,35.1378569,0 -79.7142832,35.1362074,0 -79.71449939999999,35.1347186,0 -79.71458130000001,35.1342018,0 -79.7146887,35.1335886,0 -79.7147894,35.1330372,0 -79.7148779,35.1325863,0 -79.7151583,35.1313126,0 -79.71559329999999,35.12961,0 -79.7157157,35.1291725,0 -79.71584420000001,35.1287309,0 -79.71626999999999,35.12738,0 -79.7164363,35.1269074,0 -79.71684740000001,35.1257658,0 -79.7172685,35.1246379,0 -79.7177164,35.1235281,0 -79.7180168,35.1225804,0 -79.71837650000001,35.1206819,0 -79.71853179999999,35.1194563,0 -79.7186605,35.1172272,0 -79.71876779999999,35.1163672,0 -79.7189073,35.1156827,0 -79.7191433,35.1149191,0 -79.7195081,35.1140942,0 -79.7199695,35.1133043,0 -79.7207634,35.1121458,0 -79.72195429999999,35.1103378,0 -79.7223942,35.1095918,0 -79.7228448,35.1086,0 -79.72316669999999,35.1076872,0 -79.7234134,35.1066691,0 -79.7235958,35.1056597,0 -79.72370309999999,35.1046679,0 -79.7237353,35.1032723,0 -79.72364949999999,35.1017099,0 -79.72344560000001,35.0982866,0 -79.7233598,35.0965134,0 -79.7232739,35.0950123,0 -79.7232525,35.0936955,0 -79.72328469999999,35.0929494,0 -79.7234134,35.0922295,0 -79.7236602,35.0913956,0 -79.72392840000001,35.0906494,0 -79.7244005,35.0897364,0 -79.7262887,35.0869007,0 -79.72692170000001,35.0859613,0 -79.72746890000001,35.0850395,0 -79.7281019,35.0839157,0 -79.72868130000001,35.0828622,0 -79.729325,35.0816243,0 -79.7297756,35.0807024,0 -79.7302906,35.0795785,0 -79.73157809999999,35.0766723,0 -79.7317264,35.0763413,0 -79.73302649999999,35.0734411,0 -79.73354089999999,35.0722581,0 -79.73432459999999,35.0704556,0 -79.7356872,35.0674086,0 -79.73636310000001,35.0659069,0 -79.7367601,35.0652747,0 -79.7370294,35.0649592,0 -79.7373824,35.0645458,0 -79.73792950000001,35.0639135,0 -79.73877709999999,35.0631407,0 -79.7394638,35.0626314,0 -79.74026840000001,35.0620781,0 -79.7409765,35.0617005,0 -79.7420494,35.0612263,0 -79.74346559999999,35.0607257,0 -79.74737090000001,35.0595401,0 -79.7495059,35.0588903,0 -79.7513835,35.0582052,0 -79.7527461,35.0576432,0 -79.7538189,35.057125,0 -79.7547094,35.0566244,0 -79.7557609,35.0558164,0 -79.756705,35.0550436,0 -79.7579817,35.053814,0 -79.75987000000001,35.0518905,0 -79.7609858,35.0507751,0 -79.7630729,35.0487567,0 -79.7643281,35.0475107,0 -79.7647869,35.0470514,0 -79.7663288,35.0455138,0 -79.7670261,35.0447057,0 -79.7675086,35.0439201,0 -79.7677372,35.0434878,0 -79.7679225,35.0430802,0 -79.7682147,35.0422894,0 -79.76831300000001,35.0419678,0 -79.7683814,35.0416235,0 -79.7684261,35.0412945,0 -79.7684994,35.0406339,0 -79.76887429999999,35.0372527,0 -79.76954240000001,35.031581,0 -79.7695933,35.0308637,0 -79.7701952,35.0179823,0 -79.7702376,35.0170262,0 -79.77032850000001,35.0151246,0 -79.7703721,35.0144102,0 -79.7704437,35.0137155,0 -79.7705644,35.0130411,0 -79.77068079999999,35.0125499,0 -79.77088790000001,35.0118476,0 -79.770999,35.011499,0 -79.7712396,35.010831,0 -79.7713986,35.0104414,0 -79.7715676,35.0100566,0 -79.7717478,35.0096759,0 -79.7719414,35.0092983,0 -79.7753551,35.003043,0 -79.77605990000001,35.0017045,0 -79.77656349999999,35.0007816,0 -79.7772598,34.9995056,0 -79.7774653,34.9991526,0 -79.7776853,34.9987857,0 -79.7779144,34.9984222,0 -79.77815630000001,34.9980628,0 -79.7784065,34.9977096,0 -79.7786686,34.9973618,0 -79.7789413,34.9970175,0 -79.77922599999999,34.9966808,0 -79.77951729999999,34.9963517,0 -79.7798217,34.9960283,0 -79.7801383,34.9957112,0 -79.7804629,34.9954006,0 -79.7807981,34.9950977,0 -79.781144,34.9948001,0 -79.7814971,34.994512,0 -79.7818628,34.9942298,0 -79.7822273,34.9939563,0 -79.78260330000001,34.9936951,0 -79.7829893,34.9934377,0 -79.783383,34.9931893,0 -79.7837847,34.9929496,0 -79.78419169999999,34.9927197,0 -79.7846052,34.9924986,0 -79.78502659999999,34.9922873,0 -79.7854588,34.9920836,0 -79.7858925,34.9918918,0 -79.78632469999999,34.9917109,0 -79.78678499999999,34.9915322,0 -79.78723479999999,34.9913676,0 -79.78769990000001,34.9912097,0 -79.7920644,34.9898329,0 -79.7926878,34.9896206,0 -79.7933008,34.9893961,0 -79.79390789999999,34.9891551,0 -79.7945027,34.9889065,0 -79.7950953,34.9886411,0 -79.7956753,34.9883648,0 -79.7962502,34.9880762,0 -79.7968104,34.9877754,0 -79.7973648,34.9874616,0 -79.7979088,34.9871364,0 -79.798438,34.9867991,0 -79.79895500000001,34.9864523,0 -79.80132589999999,34.9847981,0 -79.80276480000001,34.9837941,0 -79.8032852,34.9834409,0 -79.8038038,34.9831089,0 -79.8044148,34.982738,0 -79.8050362,34.9823825,0 -79.8053539,34.9822085,0 -79.8060006,34.9818715,0 -79.8065723,34.9815941,0 -79.8071521,34.9813287,0 -79.8077412,34.9810754,0 -79.8083396,34.9808352,0 -79.8089434,34.980608,0 -79.80955779999999,34.9803929,0 -79.8101747,34.9801931,0 -79.8108015,34.9800062,0 -79.8114266,34.9798315,0 -79.8120715,34.9796699,0 -79.8127114,34.9795232,0 -79.8304761,34.9757571,0 -79.8311236,34.9756095,0 -79.83176280000001,34.9754456,0 -79.83239210000001,34.9752653,0 -79.833017,34.9750717,0 -79.8336413,34.9748607,0 -79.8342538,34.974644,0 -79.8348589,34.9744094,0 -79.83545220000001,34.9741641,0 -79.8360481,34.9739045,0 -79.83662990000001,34.9736371,0 -79.83721060000001,34.9733553,0 -79.83778,34.9730623,0 -79.83834,34.9727571,0 -79.8388892,34.9724409,0 -79.8394275,34.9721126,0 -79.839957,34.9717737,0 -79.8404749,34.9714224,0 -79.84097939999999,34.9710587,0 -79.8414772,34.9706851,0 -79.8419617,34.9702991,0 -79.8424342,34.969903,0 -79.84288960000001,34.9694967,0 -79.84333359999999,34.9690832,0 -79.84376810000001,34.968663,0 -79.84418669999999,34.9682292,0 -79.8445955,34.9677825,0 -79.8449853,34.9673327,0 -79.84536319999999,34.9668748,0 -79.8457265,34.9664034,0 -79.8460705,34.9659279,0 -79.84639989999999,34.9654467,0 -79.84671160000001,34.9649557,0 -79.84700840000001,34.9644615,0 -79.8472878,34.9639616,0 -79.8475536,34.9634519,0 -79.84780189999999,34.9629398,0 -79.8480326,34.9624213,0 -79.8482472,34.9619037,0 -79.8484455,34.9613723,0 -79.8486262,34.9608457,0 -79.84879359999999,34.960308,0 -79.8489393,34.9597706,0 -79.84907010000001,34.9592348,0 -79.84918740000001,34.9586909,0 -79.8492873,34.9581436,0 -79.8493723,34.9575897,0 -79.8494384,34.9570305,0 -79.84948489999999,34.9564861,0 -79.849518,34.9559309,0 -79.84952869999999,34.955377,0 -79.8495207,34.9548232,0 -79.849495,34.9542691,0 -79.8494505,34.9537115,0 -79.8493871,34.9531587,0 -79.8493089,34.9526116,0 -79.84921439999999,34.952062,0 -79.8491011,34.9515156,0 -79.8489715,34.9509712,0 -79.8488411,34.9504318,0 -79.84873260000001,34.9500817,0 -79.8486185,34.949734,0 -79.8484998,34.9493934,0 -79.8482915,34.9488391,0 -79.84781769999999,34.9478077,0 -79.8476008,34.9473605,0 -79.8473959,34.9469549,0 -79.8472156,34.9466191,0 -79.84705889999999,34.9463405,0 -79.8469353,34.9461246,0 -79.8466227,34.9456177,0 -79.8463567,34.9452087,0 -79.8451809,34.9435405,0 
				</coordinates>
			</LineString>
			<LineString>
				<coordinates>
					-79.3136221,34.7207651,0 -79.312803,34.7193394,0 -79.31196319999999,34.7179364,0 -79.31114460000001,34.716681,0 -79.3104738,34.7157533,0 -79.30761390000001,34.7121698,0 -79.3064332,34.7109001,0 -79.3051833,34.7096533,0 -79.3018055,34.7066688,0 -79.2845543,34.6927142,0 -79.28255729999999,34.6907994,0 -79.2805918,34.688547,0 -79.27840639999999,34.6856693,0 -79.27306419999999,34.6785157,0 -79.2728468,34.6782145,0 -79.27272840000001,34.6780325,0 -79.2717937,34.6770323,0 -79.27054510000001,34.6758212,0 -79.2499875,34.6559642,0 -79.24919439999999,34.6551232,0 -79.24764860000001,34.6534842,0 -79.2449202,34.650492,0 -79.2446719,34.6502537,0 -79.2442932,34.6498842,0 -79.2414879,34.6469197,0 -79.2402572,34.6456155,0 -79.23432010000001,34.6393614,0 -79.23294180000001,34.6378978,0 -79.2315938,34.6364597,0 -79.2309206,34.6357393,0 -79.2302411,34.6350209,0 -79.2295491,34.6342422,0 -79.22836409999999,34.6330316,0 -79.22789419999999,34.6325193,0 -79.22162160000001,34.6259793,0 -79.2200821,34.6243599,0 -79.2187411,34.622949,0 -79.21742159999999,34.6215543,0 -79.2158417,34.6198785,0 -79.2145218,34.6184737,0 -79.21234269999999,34.6162568,0 -79.20686670000001,34.6104149,0 -79.2042653,34.6076253,0 -79.20414820000001,34.6075027,0 -79.2038044,34.6071444,0 -79.2033019,34.6066397,0 -79.203006,34.606362,0 -79.2027059,34.6060913,0 -79.2023684,34.6058057,0 -79.20203530000001,34.6055332,0 -79.20166159999999,34.6052458,0 -79.2012465,34.6049374,0 -79.2008505,34.6046641,0 -79.20046309999999,34.6044083,0 -79.2000192,34.6041121,0 -79.1991208,34.6036075,0 -79.1980873,34.6030292,0 -79.19707289999999,34.602465,0 -79.1958317,34.6017702,0 -79.1948982,34.6012506,0 -79.1922326,34.5997403,0 -79.1865935,34.5965398,0 -79.18546910000001,34.5958968,0 -79.1843362,34.595374,0 -79.18355510000001,34.5950349,0 -79.1823449,34.5946463,0 -79.1815295,34.5944696,0 -79.18073130000001,34.5943778,0 -79.1798816,34.5943566,0 -79.1784911,34.5943919,0 -79.17262030000001,34.5951338,0 -79.1692128,34.5956213,0 -79.1640115,34.5962854,0 -79.15550570000001,34.597423,0 -79.1492837,34.5982649,0 -79.1443591,34.5989272,0 -79.1428678,34.5990862,0 -79.1414516,34.599148,0 -79.1400783,34.5991039,0 -79.138705,34.5989626,0 -79.13809809999999,34.5988529,0 -79.13687040000001,34.5986005,0 -79.1359963,34.5983838,0 -79.13235709999999,34.5974583,0 -79.1291812,34.5966596,0 -79.12845179999999,34.5964762,0 -79.1233182,34.5952135,0 -79.12055580000001,34.5946683,0 -79.1191833,34.5944389,0 -79.11392499999999,34.5935671,0 -79.1122433,34.5932813,0 -79.1106812,34.5930222,0 -79.11051519999999,34.5929929,0 -79.1095198,34.5928437,0 -79.10822709999999,34.5926324,0 -79.1052371,34.5921353,0 -79.100961,34.5914202,0 -79.09939559999999,34.5912517,0 -79.0983968,34.5911906,0 -79.0973436,34.5912111,0 -79.0968962,34.5912278,0 -79.09642700000001,34.5912593,0 -79.09572559999999,34.5913273,0 -79.09510179999999,34.5914123,0 -79.094548,34.5914973,0 -79.0939016,34.5916298,0 -79.092708,34.5919014,0 -79.08938740000001,34.5926919,0 -79.0875662,34.5931026,0 -79.0869091,34.5932439,0 -79.0862305,34.5933587,0 -79.0849913,34.5935,0 -79.0841169,34.5935442,0 -79.0833525,34.593553,0 -79.0829528,34.5935309,0 -79.08154999999999,34.5934161,0 -79.08010969999999,34.5932638,0 -79.0772637,34.5929504,0 -79.0764994,34.59282,0 -79.0754453,34.5925992,0 -79.0742412,34.5923083,0 -79.07280160000001,34.591822,0 -79.0714194,34.5912507,0 -79.0621684,34.5870202,0 -79.06020719999999,34.5860615,0 -79.0593923,34.5856459,0 -79.0586955,34.5852802,0 -79.0580173,34.5849218,0 -79.0547852,34.583166,0 -79.05415619999999,34.5828239,0 -79.0535636,34.5825068,0 -79.0531177,34.5822605,0 -79.05234,34.5818417,0 -79.0485357,34.5797707,0 -79.0481236,34.5795455,0 -79.0434602,34.577018,0 -79.0407641,34.5755412,0 
				</coordinates>
			</LineString>
		</MultiGeometry>
		<atom:link rel="app" href="https://www.google.com/earth/about/versions/#earth-pro" title="Google Earth Pro 7.3.6.10201"></atom:link>
	</Placemark>
</Document>
</kml>
