<?xml version="1.0" encoding="UTF-8"?>
<kml xmlns="http://www.opengis.net/kml/2.2" xmlns:gx="http://www.google.com/kml/ext/2.2" xmlns:kml="http://www.opengis.net/kml/2.2" xmlns:atom="http://www.w3.org/2005/Atom">
<Document>
	<name>I.759.kml</name>
	<Placemark>
		<name>I.759</name>
		<LineString>
			<coordinates>
				-86.075614,34.0051261,0 -86.07362430000001,34.0048309,0 -86.0719471,34.0045741,0 -86.069301,34.004197,0 -86.067813,34.0039467,0 -86.06733920000001,34.0038789,0 -86.06686639999999,34.0038062,0 -86.0663947,34.0037286,0 -86.0657861,34.0036212,0 -86.06517959999999,34.0035058,0 -86.0645791,34.0033649,0 -86.064027,34.0032212,0 -86.0634975,34.0030267,0 -86.06281079999999,34.0027599,0 -86.0617594,34.0022618,0 -86.0527901,33.9971029,0 -86.04802650000001,33.9943455,0 -86.04635039999999,33.9934402,0 -86.0461114,33.9933043,0 -86.0458672,33.9931751,0 -86.045618,33.9930527,0 -86.04536400000001,33.9929371,0 -86.0451056,33.9928286,0 -86.044843,33.9927271,0 -86.0445764,33.992633,0 -86.0442169,33.9925131,0 -86.0438588,33.9924074,0 -86.0434977,33.9923092,0 -86.0431337,33.9922186,0 -86.04276710000001,33.9921356,0 -86.04253420000001,33.992087,0 -86.04230029999999,33.9920416,0 -86.04200160000001,33.9919918,0 -86.0417016,33.9919479,0 -86.0414004,33.9919098,0 -86.0410693,33.9918748,0 -86.0407371,33.9918469,0 -86.0404042,33.991826,0 -86.0400708,33.9918123,0 -86.039737,33.9918057,0 -86.03850389999999,33.9917831,0 -86.03718859999999,33.9917826,0 -86.0341019,33.9917376,0 -86.0284303,33.9917048,0 -86.02158129999999,33.9916394,0 -86.01634180000001,33.991584,0 -86.0149933,33.9915738,0 -86.0132162,33.9915585,0 -86.0112156,33.9915465,0 -86.0104338,33.9915531,0 -86.0100774,33.9915627,0 -86.0097213,33.9915798,0 -86.00936590000001,33.9916046,0 -86.0090113,33.9916371,0 -86.00865349999999,33.9916777,0 -86.00829709999999,33.991726,0 -86.0079424,33.9917821,0 -86.00756250000001,33.9918638,0 -86.0048745,33.9925307,0 -86.0038946,33.9927779,0 
			</coordinates>
		</LineString>
		<atom:link rel="app" href="https://www.google.com/earth/about/versions/#earth-pro" title="Google Earth Pro 7.3.6.10201"></atom:link>
	</Placemark>
</Document>
</kml>
