<?xml version="1.0" encoding="UTF-8"?>
<kml xmlns="http://www.opengis.net/kml/2.2" xmlns:gx="http://www.google.com/kml/ext/2.2" xmlns:kml="http://www.opengis.net/kml/2.2" xmlns:atom="http://www.w3.org/2005/Atom">
<Document>
	<name>I.76.W.kml</name>
	<Placemark>
		<name>I.76.W</name>
		<LineString>
			<coordinates>
				-105.0803928,39.786075,0 -105.0797656,39.7862228,0 -105.0792827,39.786337,0 -105.0788699,39.7864139,0 -105.0782737,39.7864767,0 -105.0776215,39.7865057,0 -105.0767544,39.7865492,0 -105.0748893,39.7866444,0 -105.0743237,39.7867009,0 -105.073801,39.7867738,0 -105.0730375,39.7868817,0 -105.0722156,39.7870251,0 -105.0713999,39.7871682,0 -105.0709456,39.7872434,0 -105.0702778,39.7873646,0 -105.069568,39.7875169,0 -105.0689696,39.7876695,0 -105.0684171,39.7878372,0 -105.0679758,39.7879522,0 -105.0675272,39.788111,0 -105.0669426,39.7883353,0 -105.0658876,39.7888437,0 -105.064869,39.7894374,0 -105.0628439,39.7908144,0 -105.0621421,39.7912879,0 -105.059292,39.79321,0 -105.058511,39.7937376,0 -105.0580646,39.7940476,0 -105.057584,39.7943641,0 -105.0572189,39.7945908,0 -105.0566484,39.7949115,0 -105.0560305,39.7952148,0 -105.0554039,39.7954918,0 -105.0548202,39.795716,0 -105.0543053,39.7958941,0 -105.0536787,39.7960853,0 -105.053159,39.796223,0 -105.0527775,39.7963095,0 -105.0522968,39.7964085,0 -105.051699,39.796511,0 -105.05119,39.796583,0 -105.048799,39.796884,0 -105.048121,39.796975,0 -105.047926,39.797004,0 -105.047823,39.79702,0 -105.0477,39.797041,0 -105.0471763,39.7971345,0 -105.046754,39.797228,0 -105.04616,39.797379,0 -105.045991,39.797433,0 -105.045679,39.797533,0 -105.0454971,39.7975987,0 -105.045247,39.797689,0 -105.044635,39.797944,0 -105.0441451,39.7981406,0 -105.0435887,39.7983518,0 -105.042778,39.798651,0 -105.042247,39.7988,0 -105.04175,39.79892,0 -105.041498,39.798974,0 -105.040972,39.799062,0 -105.040554,39.799118,0 -105.039994,39.799174,0 -105.039588,39.799195,0 -105.03931,39.799205,0 -105.038317,39.799229,0 -105.0350543,39.7992865,0 -105.0344364,39.7992965,0 -105.033055,39.799319,0 -105.032578,39.799339,0 -105.0320015,39.7993766,0 -105.031413,39.799418,0 -105.031208,39.799434,0 -105.030729,39.7994732,0 -105.030336,39.799521,0 -105.029853,39.799582,0 -105.028984,39.799702,0 -105.028117,39.799847,0 -105.027736,39.79992,0 -105.027375,39.799989,0 -105.026906,39.800085,0 -105.025994,39.800298,0 -105.0256812,39.800384,0 -105.0248438,39.8006096,0 -105.024263,39.800774,0 -105.023742,39.800941,0 -105.02281,39.801258,0 -105.022156,39.8015,0 -105.021447,39.801783,0 -105.021034,39.801958,0 -105.020336,39.802272,0 -105.019761,39.802542,0 -105.019024,39.802917,0 -105.0186029,39.8031429,0 -105.0176931,39.8036572,0 -105.0160932,39.8046032,0 -105.0157998,39.8047994,0 -105.0155112,39.8049728,0 -105.0150901,39.8052218,0 -105.0145992,39.8054896,0 -105.0141578,39.8057199,0 -105.0139061,39.8058605,0 -105.0136116,39.8060295,0 -105.0129186,39.8063872,0 -105.0125318,39.8065693,0 -105.012122,39.806748,0 -105.011901,39.806849,0 -105.0112293,39.807145,0 -105.010141,39.8075859,0 -105.009842,39.807696,0 -105.009586,39.807787,0 -105.0090337,39.8079815,0 -105.008419,39.808184,0 -105.007862,39.808352,0 -105.007321,39.808504,0 -105.006682,39.8086738,0 -105.0058666,39.8088716,0 -105.005085,39.809043,0 -105.003977,39.809262,0 -105.002757,39.809492,0 -105.001921,39.809654,0 -105.000651,39.80991,0 -104.999729,39.810087,0 -104.9995806,39.8101254,0 -104.9988714,39.810309,0 -104.997915,39.810555,0 -104.9973608,39.8107178,0 -104.9968286,39.810876,0 -104.996376,39.811007,0 -104.995709,39.811225,0 -104.995285,39.811358,0 -104.994572,39.811601,0 -104.993226,39.8121,0 -104.992329,39.812474,0 -104.991858,39.812675,0 -104.991556,39.81281,0 -104.9907297,39.8131819,0 -104.990645,39.81322,0 -104.990121,39.813469,0 -104.9895537,39.8137552,0 -104.9890571,39.8140013,0 -104.9889151,39.8140725,0 -104.9887327,39.8141662,0 -104.988587,39.8142432,0 -104.9881647,39.8144706,0 -104.9878304,39.8146466,0 -104.9871504,39.8150166,0 -104.9856366,39.8159395,0 -104.9851986,39.8162154,0 -104.9837863,39.8170454,0 -104.9821303,39.8180254,0 -104.9811234,39.8186211,0 -104.980664,39.8188983,0 -104.9802105,39.8191641,0 -104.979338,39.819679,0 -104.9790214,39.8198633,0 -104.9786432,39.8200614,0 -104.9783819,39.8201927,0 -104.9776376,39.82054,0 -104.9773,39.8206989,0 -104.977109,39.8207858,0 -104.9769388,39.8208604,0 -104.9766938,39.8209631,0 -104.9763574,39.8211006,0 -104.9761007,39.8211997,0 -104.9759071,39.8212743,0 -104.9757665,39.8213272,0 -104.9755862,39.8213938,0 -104.9753392,39.8214799,0 -104.9750875,39.8215646,0 -104.9749277,39.8216176,0 -104.974754,39.8216738,0 -104.9745759,39.8217293,0 -104.9743191,39.8218071,0 -104.97414,39.8218595,0 -104.9740397,39.8218878,0 -104.9739476,39.8219139,0 -104.9737496,39.821968,0 -104.9735366,39.8220255,0 -104.9732737,39.8220937,0 -104.973172,39.8221192,0 -104.9729418,39.8221734,0 -104.9727078,39.8222271,0 -104.9724662,39.8222813,0 -104.9721987,39.8223371,0 -104.9719387,39.8223879,0 -104.9716751,39.8224367,0 -104.9713656,39.822492,0 -104.9711443,39.8225302,0 -104.970731,39.8225977,0 -104.9689599,39.8228602,0 -104.967792,39.823027,0 -104.9665627,39.8232043,0 -104.9654151,39.8233698,0 -104.9648116,39.8234616,0 -104.9639376,39.8235832,0 -104.96353,39.8236421,0 -104.9623017,39.823814,0 -104.9616438,39.8239095,0 -104.9606216,39.824066,0 -104.9594407,39.824239,0 -104.9588539,39.8243245,0 -104.9578309,39.8244687,0 -104.9543031,39.8249757,0 -104.9534419,39.8251023,0 -104.9521909,39.8253021,0 -104.9515527,39.8254136,0 -104.9511315,39.8254969,0 -104.9506924,39.8255886,0 -104.9503475,39.8256699,0 -104.9500082,39.8257564,0 -104.9497236,39.8258351,0 -104.9494755,39.8259062,0 -104.9491919,39.8259927,0 -104.9488349,39.8261106,0 -104.9484784,39.8262386,0 -104.9481826,39.8263534,0 -104.947728,39.8265396,0 -104.9473466,39.8267185,0 -104.9468423,39.8269626,0 -104.9463313,39.8272394,0 -104.9457733,39.8275752,0 -104.9453988,39.8278151,0 -104.9450199,39.8280735,0 -104.944488,39.82839,0 -104.9441112,39.8286972,0 -104.9437022,39.8290285,0 -104.943402,39.829267,0 -104.94275,39.82981,0 -104.942377,39.830114,0 -104.9421242,39.8303223,0 -104.9418789,39.8305226,0 -104.9412092,39.8310699,0 -104.9409226,39.8313044,0 -104.940198,39.831891,0 -104.9395295,39.8324411,0 -104.9387151,39.8331212,0 -104.9382925,39.8334645,0 -104.937855,39.833808,0 -104.9373988,39.8341966,0 -104.9371315,39.8344124,0 -104.9363993,39.8350455,0 -104.9358299,39.8355151,0 -104.9350174,39.8362009,0 -104.9343145,39.8367838,0 -104.933496,39.8374512,0 -104.9326991,39.8381083,0 -104.9317371,39.8388461,0 -104.9313756,39.8391727,0 -104.9309658,39.8394906,0 -104.9301,39.840168,0 -104.929466,39.840791,0 -104.92932,39.840939,0 -104.92876,39.841504,0 -104.928271,39.842009,0 -104.926551,39.843736,0 -104.924942,39.845361,0 -104.92419,39.846102,0 -104.923549,39.846755,0 -104.923404,39.846898,0 -104.922905,39.847407,0 -104.922638,39.847668,0 -104.922562,39.847746,0 -104.921816,39.848506,0 -104.920601,39.849688,0 -104.919989,39.850311,0 -104.917603,39.852712,0 -104.916675,39.853637,0 -104.916359,39.8539562,0 -104.914713,39.855619,0 -104.914458,39.855875,0 -104.914388,39.855946,0 -104.914105,39.856231,0 -104.914021,39.856317,0 -104.913732,39.856612,0 -104.913476,39.856873,0 -104.913164,39.857173,0 -104.912857,39.857455,0 -104.912099,39.858309,0 -104.911664,39.858864,0 -104.911237,39.85938,0 -104.910845,39.859843,0 -104.910436,39.860307,0 -104.90955,39.861347,0 -104.908947,39.862036,0 -104.908216,39.86293,0 -104.907281,39.864005,0 -104.906835,39.864555,0 -104.906424,39.865074,0 -104.9060617,39.8654949,0 -104.905362,39.866308,0 -104.904958,39.866756,0 -104.904521,39.867232,0 -104.904294,39.867492,0 -104.9016032,39.8705029,0 -104.9011283,39.8710342,0 -104.900115,39.872168,0 -104.899324,39.873025,0 -104.899057,39.873304,0 -104.898381,39.87398,0 -104.898085,39.874273,0 -104.897789,39.8745682,0 -104.8971368,39.8752206,0 -104.896697,39.8756231,0 -104.8964697,39.8758249,0 -104.89616,39.8760793,0 -104.895772,39.8763747,0 -104.895501,39.8765863,0 -104.89526,39.8767535,0 -104.8952215,39.8767806,0 -104.8950159,39.876916,0 -104.894331,39.877341,0 -104.8940266,39.8775471,0 -104.89389,39.8776294,0 -104.893721,39.877732,0 -104.893373,39.8779249,0 -104.8930458,39.8780953,0 -104.8925437,39.8783494,0 -104.892348,39.8784434,0 -104.8920931,39.8785661,0 -104.8913032,39.8789227,0 -104.891143,39.8789865,0 -104.8909557,39.8790619,0 -104.8902553,39.8793216,0 -104.8900799,39.8793799,0 -104.8897631,39.8794854,0 -104.888885,39.879724,0 -104.8884008,39.8798734,0 -104.8877687,39.8800432,0 -104.8871214,39.8801935,0 -104.8865946,39.8803012,0 -104.8857962,39.8804398,0 -104.884781,39.880577,0 -104.884153,39.880646,0 -104.883715,39.880683,0 -104.883247,39.880715,0 -104.8825693,39.880762,0 -104.88194,39.8808085,0 -104.881406,39.880839,0 -104.880664,39.880888,0 -104.880279,39.880925,0 -104.879688,39.880996,0 -104.879055,39.881083,0 -104.878495,39.881177,0 -104.878058,39.881259,0 -104.877603,39.88135,0 -104.87716,39.881448,0 -104.876474,39.881614,0 -104.875828,39.881791,0 -104.875108,39.882012,0 -104.875024,39.88204,0 -104.874826,39.882107,0 -104.874654,39.882165,0 -104.873978,39.882408,0 -104.873618,39.882547,0 -104.873274,39.882686,0 -104.872871,39.882859,0 -104.872471,39.883038,0 -104.871774,39.883373,0 -104.8710826,39.8837678,0 -104.8696979,39.8845156,0 -104.8675291,39.8856902,0 -104.8660174,39.8865055,0 -104.8654124,39.8868384,0 -104.8652025,39.8869536,0 -104.8650228,39.8870536,0 -104.862742,39.88826,0 -104.862248,39.888524,0 -104.861315,39.889034,0 -104.8609,39.889258,0 -104.857133,39.891295,0 -104.856136,39.891838,0 -104.855011,39.89245,0 -104.854076,39.892959,0 -104.852895,39.893592,0 -104.852571,39.893766,0 -104.848826,39.895795,0 -104.846842,39.896869,0 -104.844062,39.898372,0 -104.842407,39.899272,0 -104.841768,39.899616,0 -104.841162,39.899941,0 -104.840686,39.900199,0 -104.839301,39.900952,0 -104.837752,39.901779,0 -104.836897,39.902245,0 -104.835561,39.902973,0 -104.833405,39.904114,0 -104.831555,39.905137,0 -104.830177,39.905878,0 -104.830076,39.905932,0 -104.829264,39.906367,0 -104.828775,39.906637,0 -104.828188,39.906952,0 -104.827846,39.907144,0 -104.827247,39.907473,0 -104.826845,39.907688,0 -104.826315,39.907977,0 -104.826053,39.90812,0 -104.825655,39.908328,0 -104.825181,39.90856,0 -104.824416,39.908987,0 -104.823912,39.909257,0 -104.823096,39.909726,0 -104.822451,39.910115,0 -104.822033,39.910378,0 -104.821722,39.910587,0 -104.8207731,39.911225,0 -104.8204414,39.9114483,0 -104.81967,39.911968,0 -104.8196308,39.9119956,0 -104.819562,39.912044,0 -104.819178,39.912312,0 -104.818732,39.912617,0 -104.818466,39.912799,0 -104.81787,39.913219,0 -104.816858,39.913918,0 -104.815565,39.914818,0 -104.814837,39.915329,0 -104.814449,39.915606,0 -104.813887,39.916029,0 -104.813799,39.916097,0 -104.812898,39.916793,0 -104.812032,39.917516,0 -104.811546,39.917939,0 -104.810396,39.918926,0 -104.809903,39.919355,0 -104.808749,39.920343,0 -104.806871,39.92195,0 -104.806568,39.922215,0 -104.806389,39.922371,0 -104.806065,39.922645,0 -104.805585,39.923063,0 -104.80456,39.923933,0 -104.804204,39.924247,0 -104.803517,39.924828,0 -104.8030636,39.9252206,0 -104.8024004,39.9257918,0 -104.80066,39.927283,0 -104.798559,39.929103,0 -104.797922,39.929647,0 -104.796893,39.93051,0 -104.795263,39.931891,0 -104.794332,39.932652,0 -104.793446,39.933393,0 -104.7909556,39.9355135,0 -104.790283,39.936107,0 -104.789659,39.936708,0 -104.789093,39.937295,0 -104.788626,39.937811,0 -104.787668,39.938945,0 -104.787201,39.939553,0 -104.786917,39.939931,0 -104.786177,39.940943,0 -104.785568,39.941766,0 -104.785202,39.942246,0 -104.784672,39.942987,0 -104.784399,39.943343,0 -104.784083,39.943753,0 -104.783615,39.944416,0 -104.78312,39.945076,0 -104.782782,39.94549,0 -104.782492,39.945816,0 -104.782255,39.946074,0 -104.782025,39.94631,0 -104.781708,39.946604,0 -104.78106,39.947212,0 -104.780317,39.947925,0 -104.780143,39.948092,0 -104.778986,39.949202,0 -104.7763,39.951746,0 -104.7747327,39.9531931,0 -104.774409,39.953492,0 -104.772985,39.954874,0 -104.771928,39.955864,0 -104.7714048,39.9563683,0 -104.7709198,39.9568358,0 -104.770268,39.957464,0 -104.769786,39.957912,0 -104.769449,39.958237,0 -104.769108,39.958552,0 -104.768786,39.958829,0 -104.768459,39.959092,0 -104.768057,39.9594,0 -104.767554,39.959761,0 -104.767309,39.959905,0 -104.76705,39.960071,0 -104.7668,39.960219,0 -104.766539,39.960359,0 -104.766339,39.960448,0 -104.765879,39.960675,0 -104.7653,39.960954,0 -104.7647442,39.9612031,0 -104.763493,39.961764,0 -104.763247,39.961875,0 -104.762554,39.962217,0 -104.762278,39.962362,0 -104.761955,39.962551,0 -104.761408,39.962886,0 -104.760595,39.963467,0 -104.759914,39.964032,0 -104.759262,39.964643,0 -104.757759,39.966086,0 -104.756484,39.967295,0 -104.755779,39.967971,0 -104.755038,39.968671,0 -104.754369,39.969318,0 -104.7541577,39.9695066,0 -104.751113,39.972423,0 -104.748825,39.974608,0 -104.746318,39.976986,0 -104.745291,39.97797,0 -104.744271,39.978947,0 -104.742687,39.980464,0 -104.736656,39.986189,0 -104.736077,39.986664,0 -104.735735,39.986921,0 -104.735578,39.987042,0 -104.734948,39.987491,0 -104.73396,39.988166,0 -104.733419,39.988545,0 -104.732779,39.988985,0 -104.731711,39.98973,0 -104.728397,39.992013,0 -104.724999,39.994362,0 -104.724272,39.99487,0 -104.724227,39.994902,0 -104.722869,39.995832,0 -104.72253,39.996053,0 -104.72213,39.996302,0 -104.721615,39.996609,0 -104.721104,39.996887,0 -104.72078,39.997057,0 -104.719953,39.997501,0 -104.719125,39.997916,0 -104.718755,39.998127,0 -104.718321,39.998352,0 -104.717637,39.998722,0 -104.716849,39.999141,0 -104.716133,39.999563,0 -104.715442,40.000003,0 -104.714901,40.000396,0 -104.714652,40.000587,0 -104.714364,40.000806,0 -104.712632,40.002236,0 -104.711698,40.00302,0 -104.710754,40.003782,0 -104.710632,40.003885,0 -104.710458,40.004035,0 -104.709726,40.004663,0 -104.709383,40.004947,0 -104.708791,40.005457,0 -104.708425,40.005779,0 -104.70812,40.006058,0 -104.707624,40.006522,0 -104.707043,40.007088,0 -104.706349,40.007792,0 -104.699134,40.015032,0 -104.699085,40.015082,0 -104.697829,40.01635,0 -104.696517,40.017663,0 -104.692293,40.02191,0 -104.690794,40.023423,0 -104.689996,40.024244,0 -104.684848,40.029674,0 -104.684324,40.030227,0 -104.678215,40.036671,0 -104.677562,40.037378,0 -104.670702,40.04462,0 -104.670145,40.045208,0 -104.665742,40.049859,0 -104.664418,40.05125,0 -104.657261,40.05881,0 -104.65345,40.062836,0 -104.652718,40.063587,0 -104.652306,40.064023,0 -104.652297,40.064032,0 -104.652145,40.064201,0 -104.65191,40.064484,0 -104.6517,40.064763,0 -104.65144,40.06515,0 -104.651303,40.065378,0 -104.6512,40.065566,0 -104.650998,40.065973,0 -104.650905,40.066187,0 -104.650881,40.066252,0 -104.650803,40.066459,0 -104.650598,40.067056,0 -104.6500379,40.0687811,0 -104.6495313,40.0702514,0 -104.6494399,40.0705104,0 -104.6493373,40.0707632,0 -104.649203,40.0710653,0 -104.6490743,40.0713353,0 -104.6489245,40.071632,0 -104.6487641,40.071925,0 -104.6486049,40.0721992,0 -104.6484336,40.072471,0 -104.6483318,40.0726323,0 -104.6482133,40.0728027,0 -104.64804,40.0730488,0 -104.6478407,40.0733099,0 -104.6476161,40.0735782,0 -104.6473628,40.0738593,0 -104.6470649,40.074164,0 -104.6468432,40.0743715,0 -104.6465712,40.0746227,0 -104.6463937,40.0747796,0 -104.646056,40.0750603,0 -104.6457455,40.0752985,0 -104.6454332,40.0755196,0 -104.6451788,40.075694,0 -104.6449037,40.0758702,0 -104.6444012,40.0761638,0 -104.6432032,40.076811,0 -104.6429777,40.0769325,0 -104.6426148,40.0771259,0 -104.626318,40.085794,0 -104.624456,40.086799,0 -104.623897,40.08711,0 -104.623112,40.087567,0 -104.622614,40.087883,0 -104.622326,40.088076,0 -104.621259,40.088816,0 -104.6183,40.090881,0 -104.611826,40.095388,0 -104.6098795,40.0967575,0 -104.60964,40.096926,0 -104.60732,40.0985459,0 -104.6065906,40.0990573,0 -104.605562,40.09976,0 -104.604232,40.100705,0 -104.6029597,40.1015468,0 -104.6023291,40.1019177,0 -104.6018485,40.1021937,0 -104.6011726,40.1025137,0 -104.600815,40.102661,0 -104.600435,40.102823,0 -104.5996598,40.103162,0 -104.598403,40.103615,0 -104.59715,40.10407,0 -104.596459,40.104274,0 -104.596051,40.104403,0 -104.595677,40.104516,0 -104.594738,40.104783,0 -104.594152,40.104939,0 -104.593984,40.104984,0 -104.59201,40.1054916,0 -104.584086,40.107465,0 -104.5787937,40.1088227,0 -104.5755176,40.109664,0 -104.5735124,40.1100796,0 -104.5718859,40.1103341,0 -104.5702062,40.1104576,0 -104.5683866,40.1104974,0 -104.5676893,40.1104667,0 -104.5672725,40.1104388,0 -104.5668316,40.1104103,0 -104.5663619,40.1103688,0 -104.5657973,40.1103048,0 -104.5653362,40.1102517,0 -104.5645774,40.1101649,0 -104.563827,40.1100786,0 -104.561579,40.1098248,0 -104.5611123,40.1097743,0 -104.5606416,40.1097311,0 -104.5602607,40.109704,0 -104.5598484,40.1096798,0 -104.5593957,40.1096611,0 -104.5418838,40.109689,0 -104.5373501,40.1096962,0 -104.5368088,40.1096984,0 -104.5364,40.1097079,0 -104.535928,40.1097284,0 -104.5354567,40.1097585,0 -104.5349215,40.1098021,0 -104.53446,40.1098517,0 -104.5341042,40.1098887,0 -104.5338828,40.1099118,0 -104.5333385,40.1099871,0 -104.5328456,40.1100701,0 -104.5323614,40.1101565,0 -104.5319336,40.1102369,0 -104.531398,40.1103577,0 -104.530721,40.1105231,0 -104.5302419,40.1106523,0 -104.5297471,40.1107953,0 -104.5289993,40.1110374,0 -104.526819,40.111807,0 -104.5264909,40.1119256,0 -104.5214772,40.113743,0 -104.5209423,40.1139328,0 -104.51795,40.115009,0 -104.515999,40.1156926,0 -104.5118856,40.1171834,0 -104.5071392,40.1188637,0 -104.5068652,40.1189751,0 -104.5053195,40.1195397,0 -104.5038604,40.1201633,0 -104.5028734,40.1206686,0 -104.5015344,40.1214103,0 -104.5003843,40.1221323,0 -104.4994401,40.122887,0 -104.492727,40.128202,0 -104.4813559,40.1372537,0 -104.477746,40.140127,0 -104.464589,40.150518,0 -104.451559,40.16084,0 -104.450735,40.161422,0 -104.449527,40.162254,0 -104.447221,40.1635,0 -104.445082,40.164414,0 -104.4436473,40.1648547,0 -104.4420103,40.1652483,0 -104.4406163,40.1655225,0 -104.4387944,40.165722,0 -104.4332574,40.1659802,0 -104.433048,40.16599,0 -104.4239347,40.1663052,0 -104.41414,40.166644,0 -104.410485,40.166788,0 -104.4091125,40.166842,0 -104.395006,40.167397,0 -104.391641,40.167524,0 -104.385679,40.167826,0 -104.385101,40.16793,0 -104.3837304,40.1682083,0 -104.3829851,40.1683677,0 -104.3813615,40.1688283,0 -104.3809967,40.1689717,0 -104.3805131,40.1691088,0 -104.3786849,40.1696532,0 -104.3779897,40.1698368,0 -104.3764533,40.1701385,0 -104.3758268,40.1702434,0 -104.3749685,40.1703287,0 -104.3736553,40.1704533,0 -104.3719558,40.1705058,0 -104.3710136,40.1705219,0 -104.3685577,40.1705702,0 -104.3621883,40.1707025,0 -104.359726,40.1707491,0 -104.3590231,40.1707629,0 -104.3532081,40.1708803,0 -104.3527415,40.1708897,0 -104.3483695,40.170978,0 -104.346404,40.1709911,0 -104.3442754,40.1711879,0 -104.341752,40.1716142,0 -104.3403444,40.1719749,0 -104.3393144,40.1722766,0 -104.3388867,40.1724223,0 -104.3372373,40.1729849,0 -104.313445,40.1813069,0 -104.3096708,40.1826305,0 -104.291297,40.1890738,0 -104.2882966,40.1901262,0 -104.263775,40.198793,0 -104.255847,40.2014906,0 -104.2219708,40.2133045,0 -104.2173667,40.21491,0 -104.2125119,40.216591,0 -104.211198,40.217076,0 -104.1894533,40.2246592,0 -104.1733164,40.2302864,0 -104.1717479,40.2307855,0 -104.1705961,40.2310942,0 -104.168732,40.231482,0 -104.1680135,40.231587,0 -104.1673547,40.231668,0 -104.1669469,40.2316908,0 -104.1653722,40.2317789,0 -104.1606811,40.2318163,0 -104.159613,40.2318248,0 -104.1564716,40.231851,0 -104.1534933,40.2318903,0 -104.150352,40.231913,0 -104.1346707,40.2320194,0 -104.131054,40.232044,0 -104.112148,40.232152,0 -104.099491,40.2322396,0 -104.096683,40.232259,0 -104.094593,40.232302,0 -104.094084,40.232327,0 -104.092101,40.232479,0 -104.090672,40.232672,0 -104.0896472,40.2328467,0 -104.0892364,40.2329242,0 -104.088386,40.233102,0 -104.0877993,40.2332374,0 -104.087077,40.233405,0 -104.085798,40.233751,0 -104.08465,40.234101,0 -104.083417,40.234546,0 -104.082102,40.235048,0 -104.080984,40.235531,0 -104.078473,40.2366717,0 -104.071635,40.239778,0 -104.066466,40.242112,0 -104.063815,40.243293,0 -104.061815,40.244196,0 -104.061199,40.244428,0 -104.060823,40.244569,0 -104.059781,40.24492,0 -104.05914,40.245113,0 -104.058028,40.245398,0 -104.056999,40.245629,0 -104.0559742,40.2457928,0 -104.054885,40.245932,0 -104.054245,40.246011,0 -104.053511,40.246098,0 -104.051557,40.246326,0 -104.047013,40.246851,0 -104.044618,40.247127,0 -104.042727,40.247327,0 -104.041572,40.247425,0 -104.039744,40.247558,0 -104.0369478,40.2478799,0 -104.0347913,40.2481498,0 -104.019898,40.25001,0 -104.018815,40.250082,0 -104.017727,40.25011,0 -104.016456,40.250087,0 -104.015551,40.250036,0 -104.014111,40.2499,0 -103.999545,40.248424,0 -103.9867485,40.2471273,0 -103.980805,40.246525,0 -103.979928,40.246437,0 -103.977445,40.246185,0 -103.977327,40.246173,0 -103.961979,40.244618,0 -103.943932,40.24279,0 -103.94008,40.2424,0 -103.938815,40.242319,0 -103.93791,40.242304,0 -103.936642,40.242332,0 -103.929931,40.242596,0 -103.922708,40.24288,0 -103.918894,40.242969,0 -103.907677,40.243241,0 -103.906055,40.243368,0 -103.90577,40.243398,0 -103.904617,40.243518,0 -103.903008,40.243727,0 -103.901588,40.243957,0 -103.9005124,40.2441751,0 -103.90036,40.244206,0 -103.898973,40.244537,0 -103.897606,40.24491,0 -103.896262,40.245328,0 -103.895434,40.245611,0 -103.894818,40.2458414,0 -103.8941662,40.2460852,0 -103.894132,40.246098,0 -103.892856,40.246626,0 -103.891611,40.247196,0 -103.8904,40.247807,0 -103.889407,40.248351,0 -103.887437,40.249537,0 -103.886893,40.249864,0 -103.886501,40.2501,0 -103.88602,40.250397,0 -103.885464,40.250748,0 -103.8852,40.250915,0 -103.884383,40.25146,0 -103.88044,40.254205,0 -103.878029,40.255915,0 -103.8764897,40.2570745,0 -103.873198,40.25933,0 -103.8697799,40.2617475,0 -103.8684334,40.2625622,0 -103.8668946,40.2633181,0 -103.865375,40.2638905,0 -103.8640189,40.2643676,0 -103.8623358,40.2648006,0 -103.8606911,40.2651088,0 -103.8588637,40.2653216,0 -103.8571229,40.265395,0 -103.8489371,40.2653868,0 -103.8482975,40.2653811,0 -103.844289,40.2653729,0 -103.839436,40.265332,0 -103.8359831,40.2653344,0 -103.835033,40.265329,0 -103.8302444,40.2653143,0 -103.8276215,40.2653062,0 -103.8258937,40.2653034,0 -103.8251852,40.2653017,0 -103.823671,40.265275,0 -103.8234039,40.2652863,0 -103.8219316,40.2652838,0 -103.8190164,40.2652806,0 -103.8113831,40.2652567,0 -103.8105288,40.2652284,0 -103.8099173,40.2651934,0 -103.8093791,40.2651557,0 -103.8086698,40.265092,0 -103.8080139,40.2650019,0 -103.8074157,40.2649157,0 -103.8068385,40.2648068,0 -103.806234,40.2646855,0 -103.8053697,40.2645037,0 -103.8017168,40.2637942,0 -103.8011833,40.2637031,0 -103.80004,40.263533,0 -103.798981,40.263435,0 -103.7972986,40.2633904,0 -103.796374,40.26337,0 -103.795171,40.263349,0 -103.794562,40.263339,0 -103.7899752,40.2632699,0 -103.7869367,40.2632206,0 -103.776511,40.263025,0 -103.775651,40.263011,0 -103.772916,40.2629852,0 -103.7724888,40.2629779,0 -103.7679523,40.2629011,0 -103.767754,40.2628998,0 -103.7648714,40.2628504,0 -103.7646468,40.2628465,0 -103.756809,40.262717,0 -103.7553103,40.2627179,0 -103.7547393,40.2627369,0 -103.7536421,40.2627967,0 -103.7525625,40.2629108,0 -103.7516633,40.2630396,0 -103.7506931,40.263216,0 -103.7486324,40.2636359,0 -103.7350623,40.2664532,0 -103.7346419,40.2665358,0 -103.731058,40.26724,0 -103.729874,40.267404,0 -103.728797,40.267507,0 -103.727623,40.26759,0 -103.727543,40.267592,0 -103.726445,40.267622,0 -103.7063079,40.2677777,0 -103.7056267,40.267783,0 -103.7031453,40.2678022,0 -103.702789,40.267805,0 -103.702202,40.26781,0 -103.6978077,40.2678465,0 -103.6972266,40.2678513,0 -103.6968302,40.2678546,0 -103.693239,40.267877,0 -103.6905661,40.2678943,0 -103.6786756,40.2679713,0 -103.6781323,40.2679765,0 -103.678017,40.267978,0 -103.67238,40.26805,0 -103.6597321,40.2681851,0 -103.6591924,40.2681927,0 -103.6459024,40.2682967,0 -103.6410461,40.2683625,0 -103.6403963,40.2683681,0 -103.6353292,40.2683906,0 -103.629186,40.268452,0 -103.62679,40.268474,0 -103.622334,40.268518,0 -103.6219992,40.2685237,0 -103.619369,40.268551,0 -103.6135446,40.2686145,0 -103.6132544,40.26862,0 -103.6082081,40.2687161,0 -103.6033917,40.2688019,0 -103.6027394,40.2688178,0 -103.5998233,40.2688899,0 -103.598078,40.2689609,0 -103.5963079,40.2691256,0 -103.5955989,40.2691969,0 -103.5948802,40.2692657,0 -103.593555,40.269437,0 -103.5922646,40.2696406,0 -103.5912915,40.2697922,0 -103.590433,40.269926,0 -103.5877281,40.2705127,0 -103.5874278,40.2705945,0 -103.5869613,40.2707224,0 -103.5851266,40.2711956,0 -103.5845256,40.2713711,0 -103.5837901,40.2715938,0 -103.5816983,40.2722756,0 -103.5813434,40.272387,0 -103.5796373,40.2729218,0 -103.573343,40.27496,0 -103.572215,40.27539,0 -103.570953,40.275919,0 -103.56988,40.276427,0 -103.5688683,40.2770191,0 -103.5674263,40.2778476,0 -103.557032,40.283885,0 -103.544357,40.291303,0 -103.54432,40.291324,0 -103.531215,40.298937,0 -103.530837,40.299179,0 -103.5272952,40.3012797,0 -103.5269774,40.3014645,0 -103.523913,40.303217,0 -103.510807,40.310851,0 -103.4717107,40.3336772,0 -103.4713741,40.3338693,0 -103.459764,40.340605,0 -103.437572,40.353512,0 -103.429459,40.358219,0 -103.4258605,40.3603061,0 -103.4255365,40.3604988,0 -103.422058,40.362516,0 -103.418529,40.364566,0 -103.379276,40.387368,0 -103.362383,40.39717,0 -103.359574,40.398864,0 -103.357554,40.400162,0 -103.355993,40.401207,0 -103.354463,40.402278,0 -103.352424,40.403774,0 -103.350833,40.405004,0 -103.349019,40.406471,0 -103.347502,40.407755,0 -103.345658,40.409393,0 -103.344107,40.410847,0 -103.342382,40.412557,0 -103.340271,40.414771,0 -103.32091,40.435585,0 -103.3192368,40.4373228,0 -103.3159409,40.4409614,0 -103.3130827,40.4440054,0 -103.3104382,40.4468629,0 -103.3103064,40.4470078,0 -103.3034525,40.4543448,0 -103.3015053,40.456447,0 -103.3013408,40.4566247,0 -103.2958822,40.4624625,0 -103.2917624,40.4668833,0 -103.2827244,40.4765925,0 -103.2796259,40.4799091,0 -103.2763037,40.4834919,0 -103.272253,40.4878278,0 -103.264288,40.4963329,0 -103.2628803,40.4978407,0 -103.2608158,40.5001376,0 -103.2604924,40.5004854,0 -103.2578988,40.503244,0 -103.2573306,40.503832,0 -103.2562185,40.5050012,0 -103.252037,40.5095306,0 -103.2478172,40.5140354,0 -103.244092,40.518012,0 -103.2397918,40.5226509,0 -103.2395162,40.5229445,0 -103.2356548,40.5270549,0 -103.2328997,40.5300102,0 -103.2293806,40.5337873,0 -103.2273722,40.53594,0 -103.2263812,40.5372809,0 -103.2255368,40.5384763,0 -103.2249266,40.5393795,0 -103.2247227,40.5397036,0 -103.2241621,40.5405321,0 -103.2218189,40.5440869,0 -103.2207842,40.5456773,0 -103.2184458,40.5491871,0 -103.2158794,40.5530871,0 -103.2127037,40.5579258,0 -103.2098479,40.5623062,0 -103.2096335,40.5626258,0 -103.2080448,40.5650142,0 -103.2064828,40.5674026,0 -103.2057157,40.5685395,0 -103.2043636,40.5705997,0 -103.2030314,40.5726219,0 -103.2011814,40.5754011,0 -103.2002563,40.5767932,0 -103.1992415,40.5783344,0 -103.1964679,40.5825145,0 -103.1950778,40.58465,0 -103.193751,40.5866794,0 -103.1935379,40.5870163,0 -103.1919381,40.5893849,0 -103.1904593,40.5916392,0 -103.1889539,40.5939415,0 -103.1863064,40.5979586,0 -103.1840875,40.6013185,0 -103.182293,40.6040322,0 -103.1800328,40.6074608,0 -103.1772513,40.6117255,0 -103.1768657,40.6123566,0 -103.1763869,40.6132705,0 -103.1760275,40.61397,0 -103.1754651,40.6151064,0 -103.1751893,40.6156661,0 -103.174748,40.6165619,0 -103.1725342,40.621046,0 -103.1722467,40.6216478,0 -103.1718959,40.6223124,0 -103.1717471,40.6225866,0 -103.1715982,40.6228406,0 -103.1714047,40.6231245,0 -103.1711879,40.6234185,0 -103.1709724,40.6236832,0 -103.1707337,40.6239605,0 -103.170453,40.624248,0 -103.1701856,40.6245003,0 -103.1698979,40.6247486,0 -103.1696136,40.6249768,0 -103.1691601,40.6252942,0 -103.1683905,40.625796,0 -103.1665853,40.6268294,0 -103.165479,40.6276515,0 -103.163394,40.629623,0 -103.162555,40.63031,0 -103.157539,40.634953,0 -103.1557822,40.6365848,0 -103.1541634,40.6381161,0 -103.1527542,40.6398778,0 -103.1517838,40.6414655,0 -103.1511609,40.6427227,0 -103.1509151,40.6432788,0 -103.1495546,40.6461754,0 -103.14814,40.6485395,0 -103.1467235,40.6504979,0 -103.1453277,40.652201,0 -103.1438124,40.6537833,0 -103.1425968,40.6549032,0 -103.1413301,40.6559196,0 -103.1395404,40.6573703,0 -103.1379592,40.6586536,0 -103.1358018,40.6604296,0 -103.1331296,40.6625125,0 -103.1308006,40.6641304,0 -103.1282264,40.6657389,0 -103.1260813,40.6669941,0 -103.1230658,40.6687328,0 -103.1191678,40.6710385,0 -103.115515,40.6731675,0 -103.1126221,40.6748781,0 -103.1093125,40.676849,0 -103.1063583,40.6785502,0 -103.1015655,40.6813762,0 -103.0879838,40.6892956,0 -103.0736666,40.6976789,0 -103.0651841,40.7026321,0 -103.0636329,40.7035387,0 -103.0586507,40.7064513,0 -103.0569468,40.7074548,0 -103.0556475,40.7082075,0 -103.0550714,40.7085513,0 -103.0526626,40.7099231,0 -103.0513818,40.7106791,0 -103.0475526,40.7129442,0 -103.0449586,40.7144793,0 -103.0288602,40.723909,0 -103.0261105,40.7255147,0 -103.0233532,40.7271266,0 -103.01784,40.7303431,0 -103.0151671,40.7319052,0 -103.0125064,40.733458,0 -103.0071723,40.7365775,0 -103.0038884,40.7384912,0 -103.0005839,40.7404158,0 -102.9939656,40.744274,0 -102.9938818,40.7443221,0 -102.9841466,40.7499507,0 -102.9785848,40.7531562,0 -102.9754434,40.7547492,0 -102.9717612,40.7564331,0 -102.9648175,40.7593263,0 -102.9617276,40.7606525,0 -102.9568782,40.7627004,0 -102.9545128,40.763699,0 -102.9500117,40.7655997,0 -102.9440551,40.768096,0 -102.9408686,40.769476,0 -102.940427,40.7696647,0 -102.9368298,40.7711909,0 -102.9337983,40.7724251,0 -102.9234128,40.7767865,0 -102.923004,40.7769591,0 -102.91398,40.7807772,0 -102.9056802,40.7842996,0 -102.8975434,40.787705,0 -102.8891406,40.7913051,0 -102.8796992,40.7952169,0 -102.8751202,40.7971552,0 -102.8718625,40.7985343,0 -102.8710392,40.7988829,0 -102.8634947,40.80206,0 -102.8518646,40.8069717,0 -102.8426129,40.8108707,0 -102.8406662,40.8116957,0 -102.8320705,40.8153069,0 -102.8306741,40.8158629,0 -102.8293633,40.8163466,0 -102.8279828,40.8168332,0 -102.8263619,40.817365,0 -102.8253094,40.8176744,0 -102.8242202,40.8179805,0 -102.8224301,40.8184843,0 -102.8148794,40.8205704,0 -102.8098012,40.8219715,0 -102.8050087,40.8233135,0 -102.80459,40.8234268,0 -102.7998293,40.8247417,0 -102.7955768,40.8259002,0 -102.7904098,40.8272966,0 -102.7827966,40.8294138,0 -102.7784451,40.8306467,0 -102.7768142,40.8311089,0 -102.7751854,40.8315225,0 -102.7731694,40.8320831,0 -102.7700809,40.8329038,0 -102.7653669,40.8342402,0 -102.7532465,40.837577,0 -102.751288,40.8381213,0 -102.7466767,40.8393873,0 -102.7405744,40.8410648,0 -102.7365262,40.8421884,0 -102.7332624,40.8430795,0 -102.7245595,40.845482,0 -102.7220962,40.8461601,0 -102.7119177,40.8489593,0 -102.6956626,40.8534238,0 -102.6945138,40.8537393,0 -102.690385,40.8548839,0 -102.6899757,40.8549981,0 -102.6859571,40.856101,0 -102.6809205,40.8574945,0 -102.6782835,40.8582241,0 -102.6687774,40.860841,0 -102.6591106,40.8634615,0 -102.6588548,40.8635308,0 -102.651814,40.865445,0 -102.64341,40.867725,0 -102.6364577,40.869611,0 -102.629988,40.871366,0 -102.5957038,40.8806524,0 -102.5749148,40.8862828,0 -102.5745519,40.8863786,0 -102.5665,40.888566,0 -102.564579,40.889084,0 -102.5635263,40.8893686,0 -102.545701,40.894188,0 -102.541474,40.895331,0 -102.536858,40.896586,0 -102.53545,40.896995,0 -102.52706,40.899613,0 -102.521045,40.90149,0 -102.5174044,40.9026475,0 -102.5170223,40.9027625,0 -102.513475,40.903853,0 -102.512352,40.904214,0 -102.509429,40.905134,0 -102.502408,40.907331,0 -102.49334,40.910168,0 -102.492149,40.910541,0 -102.487976,40.911844,0 -102.475237,40.91582,0 -102.464916,40.919041,0 -102.461021,40.920257,0 -102.458633,40.921002,0 -102.449804,40.923758,0 -102.448356,40.92421,0 -102.447325,40.924496,0 -102.446272,40.924735,0 -102.44522,40.924924,0 -102.443758,40.925121,0 -102.442666,40.925217,0 -102.441566,40.925262,0 -102.43826,40.925287,0 -102.435924,40.925299,0 -102.421674,40.925372,0 -102.417834,40.925392,0 -102.406358,40.925451,0 -102.393738,40.925516,0 -102.391526,40.925527,0 -102.3878381,40.9255619,0 -102.3873247,40.9255623,0 -102.383695,40.92556,0 -102.3782331,40.9255447,0 -102.372588,40.925406,0 -102.363175,40.92518,0 -102.349046,40.924842,0 -102.347936,40.924885,0 -102.346823,40.924971,0 -102.345352,40.925157,0 -102.34427,40.925351,0 -102.343209,40.925583,0 -102.342966,40.925648,0 -102.341821,40.925954,0 -102.336981,40.927336,0 -102.325258,40.930683,0 -102.318582,40.932583,0 -102.308703,40.935395,0 -102.307541,40.935733,0 -102.305563,40.936307,0 -102.301824,40.937394,0 -102.300503,40.937894,0 -102.299542,40.938315,0 -102.298721,40.938713,0 -102.297362,40.939372,0 -102.286705,40.944571,0 -102.284956,40.945424,0 -102.28282,40.94647,0 -102.26351,40.955924,0 -102.260498,40.957398,0 -102.259917,40.957743,0 -102.258801,40.958477,0 -102.258011,40.959066,0 -102.2522697,40.9637251,0 -102.2510421,40.9647212,0 -102.2496721,40.9657942,0 -102.2485273,40.9667298,0 -102.2473357,40.9677263,0 -102.2469142,40.9680738,0 -102.2462889,40.9685632,0 -102.2435899,40.9707508,0 -102.2427921,40.9714008,0 -102.2419886,40.9720527,0 -102.2412621,40.972628,0 -102.240753,40.973005,0 -102.240215,40.973364,0 -102.239362,40.97384,0 -102.238756,40.97412,0 -102.23802,40.974407,0 -102.23748,40.974617,0 -102.22448,40.979448,0 -102.223232,40.979911,0 -102.21312,40.983669,0 -102.212159,40.984061,0 -102.211222,40.984487,0 -102.210016,40.985108,0 -102.209161,40.985623,0 -102.208341,40.986169,0 -102.207305,40.986938,0 -102.207115,40.987098,0 -102.206583,40.987549,0 -102.1976098,40.995497,0 -102.1962522,40.9967132,0 -102.1951446,40.9976743,0 -102.1915588,41.0008531,0 -102.1901382,41.002114,0 -102.189866,41.0023594,0 -102.1890686,41.0030727,0 -102.187468,41.0044857,0 -102.183453,41.00805,0 -102.181715,41.00959,0 -102.181332,41.00991,0 -102.180539,41.010623,0 -102.179671,41.011358,0 -102.1789,41.011973,0 -102.178114,41.012613,0 -102.177108,41.013363,0 -102.175977,41.014177,0 -102.174764,41.015004,0 -102.1737392,41.0156602,0 -102.1732522,41.0159666,0 -102.172142,41.016651,0 -102.168708,41.01862,0 -102.16577,41.020305,0 -102.164428,41.021072,0 -102.164122,41.021233,0 -102.162778,41.022019,0 -102.1608524,41.0231495,0 -102.158903,41.024242,0 -102.1559889,41.0258634,0 -102.1550319,41.0263576,0 -102.1505452,41.0289519,0 -102.1475569,41.030693,0 -102.1468697,41.031143,0 
			</coordinates>
		</LineString>
		<atom:link rel="app" href="https://www.google.com/earth/about/versions/#earth-pro" title="Google Earth Pro 7.3.6.10201"></atom:link>
	</Placemark>
</Document>
</kml>
