<?xml version="1.0" encoding="UTF-8"?>
<kml xmlns="http://www.opengis.net/kml/2.2" xmlns:gx="http://www.google.com/kml/ext/2.2" xmlns:kml="http://www.opengis.net/kml/2.2" xmlns:atom="http://www.w3.org/2005/Atom">
<Document>
	<name>I.781.kml</name>
	<Placemark>
		<name>I.781</name>
		<LineString>
			<coordinates>
				-75.9139795,44.0452376,0 -75.9109467,44.0461175,0 -75.9102867,44.0462797,0 -75.9073315,44.0471388,0 -75.90465519999999,44.0479212,0 -75.902219,44.0486182,0 -75.90149719999999,44.0488342,0 -75.8976315,44.0499552,0 -75.8970997,44.050108,0 -75.8962544,44.0503729,0 -75.8954244,44.0506568,0 -75.894902,44.0508587,0 -75.89450909999999,44.0510099,0 -75.8938552,44.0512803,0 -75.8932113,44.0515749,0 -75.8921308,44.0521013,0 -75.8912211,44.0525932,0 -75.8901532,44.0531908,0 -75.8893171,44.0536622,0 -75.8880025,44.0543894,0 -75.8862136,44.0553909,0 -75.8853692,44.0558684,0 -75.88476199999999,44.0561892,0 -75.88398290000001,44.0565737,0 -75.88297710000001,44.0570457,0 -75.8820705,44.0574186,0 -75.8815159,44.0576231,0 -75.8809945,44.0578126,0 -75.8804349,44.0579972,0 -75.87975470000001,44.0582092,0 -75.8790619,44.058412,0 -75.8784931,44.0585663,0 -75.8778966,44.0587108,0 -75.8768999,44.0589286,0 -75.8760024,44.0590926,0 -75.8754124,44.0591875,0 -75.8745148,44.0593145,0 -75.87347699999999,44.059428,0 -75.872429,44.0595131,0 -75.8716632,44.0595544,0 -75.8710104,44.0595704,0 -75.87062040000001,44.0595799,0 -75.87000279999999,44.0595784,0 -75.86848430000001,44.0595526,0 -75.8663662,44.0595061,0 -75.8637785,44.0594435,0 -75.85864359999999,44.0593275,0 -75.8558893,44.0592721,0 -75.85437829999999,44.059238,0 -75.8496537,44.0591256,0 -75.8480172,44.0590912,0 -75.84589750000001,44.0590408,0 -75.84528090000001,44.0590251,0 -75.8446103,44.0590037,0 -75.8440762,44.0589794,0 -75.8437649,44.058942,0 -75.8431683,44.0588708,0 -75.8428787,44.05883,0 -75.8422951,44.0587205,0 -75.841701,44.0585929,0 -75.8412976,44.0584907,0 -75.840469,44.0582408,0 -75.8399166,44.0580495,0 -75.8394402,44.0578724,0 -75.8387159,44.0575522,0 -75.83822000000001,44.0573031,0 -75.8379595,44.0571705,0 -75.8376236,44.0569635,0 -75.8371337,44.0565905,0 -75.836871,44.0564118,0 -75.8366944,44.0562664,0 -75.8365024,44.0560806,0 -75.83632179999999,44.0558751,0 -75.8359449,44.0554651,0 -75.83564389999999,44.055186,0 -75.8352498,44.0548858,0 -75.83437240000001,44.0541555,0 -75.8341843,44.0540467,0 -75.83404659999999,44.0540023,0 -75.8339083,44.0539775,0 -75.8338095,44.0539674,0 -75.8336812,44.0539668,0 -75.8335841,44.0539882,0 -75.833484,44.0540412,0 -75.83347500000001,44.0541638,0 -75.833489,44.0542344,0 -75.8335222,44.0543104,0 -75.83357839999999,44.0543973,0 -75.83364520000001,44.0544847,0 -75.8336841,44.0545233,0 
			</coordinates>
		</LineString>
		<atom:link rel="app" href="https://www.google.com/earth/about/versions/#earth-pro" title="Google Earth Pro 7.3.6.10201"></atom:link>
	</Placemark>
</Document>
</kml>
