<?xml version="1.0" encoding="UTF-8"?>
<kml xmlns="http://www.opengis.net/kml/2.2" xmlns:gx="http://www.google.com/kml/ext/2.2" xmlns:kml="http://www.opengis.net/kml/2.2" xmlns:atom="http://www.w3.org/2005/Atom">
<Document>
	<name>I.780.kml</name>
	<Placemark>
		<name>I.780</name>
		<LineString>
			<coordinates>
				-122.2313412,38.0916535,0 -122.2303455,38.0913788,0 -122.2302477,38.0913691,0 -122.2284705,38.090884,0 -122.2282331,38.0908186,0 -122.2275921,38.090639,0 -122.2272138,38.0905398,0 -122.2257969,38.0901535,0 -122.2254035,38.0900446,0 -122.2249859,38.0899233,0 -122.2238063,38.0896069,0 -122.2218316,38.0890666,0 -122.2212585,38.0889103,0 -122.2202946,38.0886445,0 -122.2197621,38.0884875,0 -122.2192329,38.0883044,0 -122.2186966,38.0880837,0 -122.2179296,38.0877363,0 -122.217642,38.0876098,0 -122.2170441,38.0873363,0 -122.2161381,38.086929,0 -122.2157034,38.0867418,0 -122.2152285,38.0865578,0 -122.2149375,38.0864645,0 -122.2146654,38.086382,0 -122.2143263,38.0862917,0 -122.2139552,38.0862078,0 -122.2135226,38.086126,0 -122.2127516,38.0860085,0 -122.2115373,38.0858245,0 -122.210633,38.0856888,0 -122.2069926,38.0851385,0 -122.206511,38.0850676,0 -122.204849,38.0848191,0 -122.2034944,38.0846137,0 -122.2022763,38.0844264,0 -122.2016217,38.0843083,0 -122.2010133,38.0841746,0 -122.200787,38.0841227,0 -122.200452,38.0840354,0 -122.200361,38.0840098,0 -122.1997408,38.0838391,0 -122.1992861,38.0836943,0 -122.1985629,38.0834478,0 -122.1983013,38.0833489,0 -122.1981209,38.0832817,0 -122.1977325,38.0831239,0 -122.1973526,38.0829606,0 -122.1967807,38.0827022,0 -122.1962237,38.0824239,0 -122.1958999,38.0822467,0 -122.1953691,38.0819345,0 -122.1947567,38.0815386,0 -122.1944696,38.0813446,0 -122.1941903,38.0811477,0 -122.1939197,38.0809527,0 -122.1932784,38.080444,0 -122.192889,38.0801098,0 -122.1926867,38.0799259,0 -122.192405,38.0796605,0 -122.19216,38.0794135,0 -122.1918625,38.0790988,0 -122.1915659,38.0787692,0 -122.1913734,38.0785474,0 -122.1906897,38.077696,0 -122.1896986,38.0764452,0 -122.1895002,38.0761853,0 -122.1892701,38.0759033,0 -122.1886387,38.0751078,0 -122.1871965,38.0732984,0 -122.1855764,38.0712671,0 -122.1851802,38.0707766,0 -122.1849277,38.070461,0 -122.1846746,38.0701624,0 -122.1843344,38.0698148,0 -122.1839713,38.0695007,0 -122.1837072,38.0693051,0 -122.1833446,38.0690614,0 -122.1831543,38.0689486,0 -122.1828976,38.0688048,0 -122.1826318,38.0686707,0 -122.182081,38.068428,0 -122.1815522,38.0682466,0 -122.181094,38.0681171,0 -122.1807974,38.0680504,0 -122.1806013,38.0680066,0 -122.1799672,38.0678687,0 -122.1796109,38.0677954,0 -122.179206,38.067708,0 -122.178799,38.067619,0 -122.1778429,38.0674209,0 -122.1758645,38.0670025,0 -122.1752914,38.0668825,0 -122.1747993,38.066777,0 -122.1731742,38.0664342,0 -122.169921,38.0657442,0 -122.169387,38.065632,0 -122.167461,38.0652245,0 -122.1669542,38.0651183,0 -122.16553,38.0648185,0 -122.1653872,38.0647728,0 -122.1648709,38.0646598,0 -122.1643764,38.06456,0 -122.1638905,38.0644737,0 -122.162313,38.0641384,0 -122.1615553,38.0639648,0 -122.1609114,38.0637967,0 -122.1602963,38.0636055,0 -122.159283,38.063261,0 -122.15869,38.063062,0 -122.1580054,38.0628238,0 -122.1577973,38.0627531,0 -122.1568836,38.0624369,0 -122.1557821,38.0620594,0 -122.1546853,38.0616843,0 -122.1542506,38.0615215,0 -122.1538207,38.0613417,0 -122.1533961,38.0611371,0 -122.1529907,38.0609154,0 -122.152581,38.060664,0 -122.152484,38.060597,0 -122.15225,38.060436,0 -122.151675,38.059978,0 -122.1513659,38.0596831,0 -122.1510687,38.0593764,0 -122.1505371,38.058769,0 -122.1499617,38.0581072,0 -122.1497931,38.0579159,0 -122.1479241,38.0557747,0 -122.1477173,38.0555333,0 -122.1475492,38.0553442,0 -122.1458006,38.0533556,0 -122.1454962,38.0529995,0 -122.1452976,38.0527731,0 -122.1448444,38.0522559,0 -122.1443642,38.0517285,0 -122.1441311,38.0515094,0 -122.1439212,38.0513318,0 -122.1436364,38.0511198,0 -122.1434275,38.0509807,0 -122.1433024,38.0508826,0 -122.142733,38.0505885,0 -122.1423818,38.0504408,0 -122.1418418,38.050265,0 -122.141556,38.0501871,0 -122.1411058,38.0500938,0 -122.1406808,38.0500307,0 -122.1403322,38.0499989,0 -122.1400009,38.0499893,0 -122.13965,38.0499914,0 -122.1393563,38.0500305,0 -122.1384544,38.0501249,0 -122.136994,38.050285,0 -122.1364708,38.0503449,0 -122.1359163,38.0504141,0 -122.1354949,38.0504615,0 -122.1350581,38.0504835,0 -122.1346932,38.0504824,0 -122.134427,38.0504748,0 -122.1340211,38.0504492,0 -122.133609,38.0504063,0 -122.1331952,38.0503497,0 -122.1327961,38.050268,0 -122.1323645,38.0501589,0 -122.1318781,38.0500185,0 -122.1314029,38.0498401,0 -122.1310564,38.0496864,0 -122.1307476,38.049525,0 -122.1303276,38.0492678,0 -122.1301521,38.0491457,0 -122.1299452,38.0489804,0 -122.1297623,38.0488231,0 -122.129653,38.0487157,0 -122.1294577,38.0485121,0 -122.1290997,38.0480895,0 -122.1288052,38.0477455,0 -122.1287645,38.0477139,0 -122.1287136,38.047692,0 
			</coordinates>
		</LineString>
		<atom:link rel="app" href="https://www.google.com/earth/about/versions/#earth-pro" title="Google Earth Pro 7.3.6.10201"></atom:link>
	</Placemark>
</Document>
</kml>
