<?xml version="1.0" encoding="UTF-8"?>
<kml xmlns="http://www.opengis.net/kml/2.2" xmlns:gx="http://www.google.com/kml/ext/2.2" xmlns:kml="http://www.opengis.net/kml/2.2" xmlns:atom="http://www.w3.org/2005/Atom">
<Document>
	<name>I.78.kml</name>
	<Placemark>
		<name>I.78</name>
			<LineString>
				<coordinates>
					-76.51253060000001,40.4272642,0 -76.5070858,40.4284403,0 -76.505447,40.4288026,0 -76.5044814,40.4290427,0 -76.50387790000001,40.4292191,0 -76.50230620000001,40.4297532,0 -76.5015015,40.4300766,0 -76.50078000000001,40.4303931,0 -76.5000397,40.4307545,0 -76.49947520000001,40.4310507,0 -76.49534850000001,40.4333077,0 -76.49283370000001,40.434719,0 -76.4922828,40.4350282,0 -76.4911603,40.4356422,0 -76.49028680000001,40.4361194,0 -76.4855852,40.4386809,0 -76.4844253,40.4392387,0 -76.48417480000001,40.4393444,0 -76.478354,40.4415878,0 -76.4734187,40.4434332,0 -76.4675179,40.4456377,0 -76.4648711,40.4466151,0 -76.46315180000001,40.4471785,0 -76.4620896,40.4474704,0 -76.4611106,40.4477031,0 -76.460314,40.4478745,0 -76.4593055,40.4480521,0 -76.45794770000001,40.4482668,0 -76.44630069999999,40.4499445,0 -76.4460007,40.4499912,0 -76.4374986,40.4511896,0 -76.4331813,40.4518378,0 -76.4287975,40.4524176,0 -76.4267457,40.4525548,0 -76.4251819,40.4525775,0 -76.4232566,40.4525108,0 -76.42136240000001,40.4523489,0 -76.4200373,40.4522054,0 -76.41668989999999,40.4519311,0 -76.41235020000001,40.4514999,0 -76.4102156,40.4513113,0 -76.4079728,40.4510753,0 -76.40568260000001,40.4509671,0 -76.4042279,40.4509824,0 -76.4025869,40.451108,0 -76.4018275,40.4512002,0 -76.4008457,40.451343,0 -76.3998833,40.4515325,0 -76.3914518,40.453304,0 -76.38806889999999,40.454015,0 -76.38741520000001,40.4541524,0 -76.38164020000001,40.4553662,0 -76.3806586,40.4555838,0 -76.3796514,40.4558185,0 -76.37874619999999,40.4560409,0 -76.3777913,40.4562828,0 -76.37741920000001,40.4563811,0 -76.37678529999999,40.4565485,0 -76.375777,40.4568246,0 -76.37366609999999,40.4574104,0 -76.37217579999999,40.4578338,0 -76.3647508,40.4598923,0 -76.3646392,40.4599232,0 -76.3471978,40.4647584,0 -76.34643699999999,40.4649693,0 -76.3460273,40.4650749,0 -76.3456169,40.4651739,0 -76.3452078,40.4652672,0 -76.3447961,40.4653524,0 -76.3443831,40.465431,0 -76.343964,40.4655039,0 -76.33501339999999,40.4669008,0 -76.3331276,40.4671951,0 -76.33096569999999,40.4675325,0 -76.3296946,40.4677189,0 -76.3292058,40.4678021,0 -76.328721,40.467894,0 -76.3282268,40.4679945,0 -76.3277654,40.4681,0 -76.327288,40.4682169,0 -76.30901900000001,40.4728671,0 -76.298878,40.4753694,0 -76.297815,40.4756317,0 -76.2921631,40.4770263,0 -76.291616,40.4771538,0 -76.2910601,40.4772752,0 -76.2905277,40.4773818,0 -76.29023530000001,40.4774372,0 -76.2899429,40.4774925,0 -76.2893844,40.4775894,0 -76.28882179999999,40.4776807,0 -76.2672534,40.4811473,0 -76.2664079,40.4812903,0 -76.2655697,40.4814438,0 -76.26473489999999,40.4816121,0 -76.2639047,40.4817937,0 -76.25927660000001,40.4828695,0 -76.25855540000001,40.4830371,0 -76.25712900000001,40.4833686,0 -76.2562635,40.4835698,0 -76.2479013,40.4855134,0 -76.2469816,40.4857271,0 -76.241361,40.4870335,0 -76.2412715,40.4870543,0 -76.240542,40.4872238,0 -76.2397429,40.4874096,0 -76.2274736,40.4902611,0 -76.22652119999999,40.4904824,0 -76.2191354,40.4921989,0 -76.1930574,40.498259,0 -76.1925593,40.4983661,0 -76.1920604,40.4984696,0 -76.1915602,40.498567,0 -76.19104249999999,40.4986629,0 -76.18942920000001,40.4989404,0 -76.1880975,40.4991695,0 -76.18054290000001,40.500463,0 -76.1795961,40.5006318,0 -76.17908660000001,40.5007244,0 -76.1785977,40.5008197,0 -76.17809819999999,40.5009217,0 -76.1776033,40.5010283,0 -76.11458829999999,40.5148688,0 -76.1136456,40.5150759,0 -76.10773589999999,40.5163738,0 -76.10711550000001,40.5165214,0 -76.1064933,40.5166794,0 -76.1058864,40.516841,0 -76.1052541,40.5170179,0 -76.1046908,40.5171825,0 -76.104088,40.5173671,0 -76.1034945,40.5175572,0 -76.1029118,40.5177535,0 -76.1023251,40.5179584,0 -76.1017243,40.5181781,0 -76.0957186,40.5204246,0 -76.0956269,40.5204589,0 -76.0549661,40.5356663,0 -76.0548479,40.5357105,0 -76.0277854,40.5458301,0 -76.027682,40.5458688,0 -76.01608779999999,40.5502038,0 -76.0159834,40.5502428,0 -76.0081223,40.5531819,0 -76.00501389999999,40.554344,0 -76.0035287,40.5548724,0 -76.00306930000001,40.5550384,0 -76.00178099999999,40.5555309,0 -75.9988924,40.5566113,0 -75.99840519999999,40.5567733,0 -75.99472539999999,40.558157,0 -75.9942748,40.5583245,0 -75.9884203,40.5604983,0 -75.9878763,40.5607037,0 -75.9874363,40.5608844,0 -75.98004830000001,40.563669,0 -75.97840119999999,40.564284,0 -75.97740210000001,40.564657,0 -75.9768739,40.5648466,0 -75.9681753,40.5680945,0 -75.9676965,40.5682733,0 -75.9676267,40.5682993,0 -75.9637482,40.5697474,0 -75.96335379999999,40.5698854,0 -75.9629582,40.5700173,0 -75.9625679,40.5701355,0 -75.9621683,40.5702521,0 -75.96176130000001,40.5703616,0 -75.9613569,40.5704645,0 -75.9609485,40.5705633,0 -75.9605281,40.5706545,0 -75.9601191,40.5707386,0 -75.95970269999999,40.5708175,0 -75.95928960000001,40.5708868,0 -75.9588645,40.570954,0 -75.9584467,40.57101,0 -75.9454872,40.5725274,0 -75.9454061,40.5725369,0 -75.93416910000001,40.5738526,0 -75.9340334,40.5738684,0 -75.93185699999999,40.5741233,0 -75.93093570000001,40.5742228,0 -75.910132,40.5766585,0 -75.90942459999999,40.5767532,0 -75.9087159,40.5768561,0 -75.9080091,40.5769682,0 -75.9073037,40.5770919,0 -75.906605,40.5772233,0 -75.9032194,40.5778784,0 -75.90279219999999,40.5779537,0 -75.9023691,40.5780219,0 -75.90193530000001,40.578082,0 -75.9015101,40.578135,0 -75.9010823,40.5781829,0 -75.9006444,40.5782221,0 -75.9002066,40.5782547,0 -75.8997834,40.5782806,0 -75.8993456,40.5782995,0 -75.8989144,40.5783102,0 -75.8984846,40.5783163,0 -75.89805339999999,40.5783132,0 -75.8976062,40.5783056,0 -75.8971951,40.5782903,0 -75.896766,40.5782669,0 -75.8963341,40.5782379,0 -75.89590560000001,40.5782012,0 -75.89545699999999,40.5781549,0 -75.8950078,40.5781014,0 -75.8945806,40.5780433,0 -75.8941568,40.5779781,0 -75.8936023,40.5778885,0 -75.893084,40.5777907,0 -75.89256829999999,40.5776868,0 -75.89207279999999,40.5775737,0 -75.8915437,40.5774454,0 -75.8910867,40.5773322,0 -75.88903620000001,40.5768243,0 -75.8885039,40.5766924,0 -75.8881488,40.5766044,0 -75.8858826,40.5760431,0 -75.88252730000001,40.5752119,0 -75.8782551,40.5741536,0 -75.8778887,40.5740629,0 -75.87748689999999,40.5739714,0 -75.8770725,40.5738929,0 -75.8766615,40.5738257,0 -75.8762444,40.5737681,0 -75.8758474,40.5737233,0 -75.8755549,40.5736967,0 -75.87539080000001,40.5736856,0 -75.87494390000001,40.5736611,0 -75.8745177,40.573652,0 -75.8740926,40.5736489,0 -75.8736554,40.5736642,0 -75.8732296,40.5736927,0 -75.87280440000001,40.5737315,0 -75.8723907,40.5737824,0 -75.87197500000001,40.573841,0 -75.87011889999999,40.5741501,0 -75.8692854,40.5743039,0 -75.8684559,40.5744634,0 -75.86762179999999,40.5746299,0 -75.8667859,40.5748072,0 -75.8659521,40.574989,0 -75.8651407,40.5751734,0 -75.8642931,40.575372,0 -75.86350659999999,40.5755655,0 -75.86268819999999,40.5757732,0 -75.8618503,40.5759924,0 -75.85808179999999,40.5770018,0 -75.8576681,40.5771057,0 -75.8572604,40.5771999,0 -75.8568406,40.5772906,0 -75.85642350000001,40.577371,0 -75.8560145,40.5774464,0 -75.8556075,40.5775157,0 -75.85523929999999,40.5775686,0 -75.8548169,40.5776282,0 -75.8433409,40.5791279,0 -75.84277849999999,40.5791902,0 -75.8422004,40.5792412,0 -75.8416197,40.5792804,0 -75.8410471,40.5793074,0 -75.8396716,40.5793599,0 -75.82836639999999,40.579789,0 -75.8279225,40.5798073,0 -75.8276943,40.5798166,0 -75.8272679,40.5798258,0 -75.8268609,40.5798284,0 -75.82643040000001,40.5798233,0 -75.8259965,40.5798131,0 -75.8255714,40.5797958,0 -75.8251503,40.5797713,0 -75.82472180000001,40.5797387,0 -75.8243027,40.5797,0 -75.823885,40.5796568,0 -75.82344639999999,40.5796023,0 -75.8230294,40.5795442,0 -75.8226049,40.5794785,0 -75.82037,40.5790859,0 -75.8140544,40.5779764,0 -75.8134948,40.5778854,0 -75.8129268,40.5778106,0 -75.81235890000001,40.5777505,0 -75.811948,40.5777141,0 -75.8113029,40.57766,0 -75.8108555,40.5776369,0 -75.8104062,40.5776206,0 -75.8095142,40.5775977,0 -75.80833440000001,40.5775673,0 -75.8061866,40.577512,0 -75.7978911,40.5772985,0 -75.7970153,40.5772656,0 -75.7930637,40.5770868,0 -75.79160349999999,40.5770207,0 -75.7892185,40.5769127,0 -75.7829563,40.5766291,0 -75.78275189999999,40.5766198,0 -75.7723586,40.5761491,0 -75.7694475,40.5760173,0 -75.7687354,40.5759974,0 -75.7680246,40.5759872,0 -75.7673138,40.5759842,0 -75.7666641,40.5759913,0 -75.76601359999999,40.5760066,0 -75.7653629,40.5760298,0 -75.7647115,40.5760585,0 -75.764607,40.576064,0 -75.7638793,40.5761069,0 -75.7631578,40.5761609,0 -75.76243289999999,40.5762236,0 -75.7617241,40.5762964,0 -75.76101800000001,40.5763774,0 -75.7603072,40.5764691,0 -75.74600220000001,40.5784074,0 -75.7458802,40.5784239,0 -75.74365210000001,40.5787259,0 -75.7430533,40.578792,0 -75.74249,40.5788429,0 -75.7419227,40.5788826,0 -75.7413353,40.5789106,0 -75.740768,40.5789254,0 -75.7360666,40.5789916,0 -75.7352942,40.5790016,0 -75.7348578,40.5790135,0 -75.7344279,40.5790344,0 -75.73414030000001,40.5790563,0 -75.7338486,40.5790869,0 -75.7335696,40.579123,0 -75.73328600000001,40.5791678,0 -75.7330044,40.5792218,0 -75.7327274,40.5792819,0 -75.7324498,40.5793481,0 -75.7321803,40.5794204,0 -75.73191199999999,40.5794999,0 -75.7316438,40.5795865,0 -75.73124060000001,40.5797206,0 -75.7305258,40.5799582,0 -75.72908820000001,40.5804363,0 -75.72881289999999,40.5805278,0 -75.7283338,40.5806871,0 -75.7278062,40.580852,0 -75.7275394,40.5809294,0 -75.72726179999999,40.5809992,0 -75.7269888,40.5810619,0 -75.7267119,40.5811189,0 -75.7264303,40.5811724,0 -75.72615329999999,40.5812177,0 -75.7258757,40.5812564,0 -75.7255854,40.581291,0 -75.7253011,40.581318,0 -75.7250161,40.5813404,0 -75.7247277,40.5813577,0 -75.72443939999999,40.5813674,0 -75.72414499999999,40.581371,0 -75.7238627,40.5813684,0 -75.72357839999999,40.5813593,0 -75.72329480000001,40.5813445,0 -75.72300439999999,40.5813257,0 -75.72271739999999,40.5813033,0 -75.7130607,40.5805049,0 -75.7121667,40.580431,0 -75.704919,40.5798317,0 -75.70286729999999,40.5796621,0 -75.6953767,40.5790428,0 -75.69465750000001,40.5789916,0 -75.6939383,40.5789519,0 -75.69321979999999,40.5789213,0 -75.68441610000001,40.5786392,0 -75.6838442,40.5786081,0 -75.6832675,40.5785679,0 -75.6826868,40.5785124,0 -75.6821255,40.5784462,0 -75.68155419999999,40.5783657,0 -75.68099429999999,40.5782735,0 -75.6804324,40.5781701,0 -75.6753221,40.5771999,0 -75.6748903,40.577122,0 -75.67447230000001,40.5770529,0 -75.6740618,40.5769879,0 -75.6735264,40.5769116,0 -75.6706963,40.5765486,0 -75.67012,40.5764843,0 -75.6695433,40.5764237,0 -75.6689693,40.5763682,0 -75.6567268,40.5752727,0 -75.6566072,40.575262,0 -75.65550469999999,40.5751634,0 -75.6549313,40.5751194,0 -75.6543566,40.5750858,0 -75.6537786,40.5750613,0 -75.6531999,40.5750511,0 -75.65262060000001,40.5750526,0 -75.6520459,40.5750705,0 -75.6514686,40.575097,0 -75.6508872,40.5751346,0 -75.65032119999999,40.5751846,0 -75.6497392,40.5752498,0 -75.6491699,40.5753241,0 -75.6486046,40.5754132,0 -75.64804340000001,40.5755126,0 -75.6303046,40.578768,0 -75.6286691,40.5790682,0 -75.6259927,40.5795593,0 -75.6245306,40.5798276,0 -75.6240796,40.5799104,0 -75.6231059,40.5800891,0 -75.6212762,40.5804249,0 -75.62047200000001,40.5805527,0 -75.6179279,40.5810196,0 -75.6107384,40.582339,0 -75.61006380000001,40.5824627,0 -75.6059825,40.5832109,0 -75.6055592,40.583296,0 -75.6051408,40.5833882,0 -75.6047317,40.5834855,0 -75.6043214,40.5835883,0 -75.6039043,40.5837024,0 -75.6034899,40.5838236,0 -75.60312329999999,40.5839355,0 -75.6029958,40.5839769,0 -75.60269390000001,40.5840764,0 -75.602395,40.5841817,0 -75.6021935,40.5842535,0 -75.60175719999999,40.5844026,0 -75.6015172,40.5844909,0 -75.6011238,40.584651,0 -75.5983571,40.5858316,0 -75.5970997,40.5864026,0 -75.5921917,40.5884968,0 -75.5919396,40.5885957,0 -75.5916861,40.5886873,0 -75.591424,40.5887724,0 -75.591151,40.5888498,0 -75.59088149999999,40.5889149,0 -75.5906032,40.5889715,0 -75.5903249,40.5890163,0 -75.5900547,40.5890504,0 -75.58976370000001,40.5890738,0 -75.5894739,40.589088,0 -75.58925189999999,40.58909,0 -75.58901729999999,40.5890865,0 -75.5887692,40.5890733,0 -75.5884843,40.5890494,0 -75.5881966,40.5890117,0 -75.5878914,40.5889605,0 -75.5876696,40.5889197,0 -75.5873792,40.5888543,0 -75.5870848,40.588779,0 -75.5861841,40.5885381,0 -75.58158109999999,40.5872711,0 -75.5796855,40.5868083,0 -75.57879579999999,40.5865628,0 -75.57769020000001,40.58622,0 -75.5764434,40.5858044,0 -75.5755492,40.5854605,0 -75.5748207,40.5851701,0 -75.5738315,40.5847259,0 -75.56805749999999,40.5819416,0 -75.56585680000001,40.5808854,0 -75.56424370000001,40.5801365,0 -75.5627846,40.5795824,0 -75.56188229999999,40.5793103,0 -75.5609513,40.5790724,0 -75.56009899999999,40.5788881,0 -75.5596146,40.5787978,0 -75.559066,40.5787036,0 -75.5584307,40.5786214,0 -75.55791600000001,40.5785675,0 -75.553703,40.5780993,0 -75.5531476,40.5780149,0 -75.5527024,40.5779269,0 -75.5522114,40.5778014,0 -75.5518601,40.5776789,0 -75.55146980000001,40.5775358,0 -75.5509394,40.5773102,0 -75.5497314,40.5767555,0 -75.5485894,40.5762324,0 -75.54736080000001,40.5756219,0 -75.5444301,40.5742934,0 -75.5433925,40.5738231,0 -75.54016590000001,40.572312,0 -75.53970820000001,40.5721074,0 -75.536102,40.5705111,0 -75.5344735,40.5698666,0 -75.5333656,40.5695475,0 -75.5315423,40.5691187,0 -75.52904239999999,40.5687439,0 -75.5264993,40.5685125,0 -75.52423810000001,40.5682992,0 -75.5239017,40.5682675,0 -75.5190774,40.5677859,0 -75.51844680000001,40.5677192,0 -75.5167979,40.5675616,0 -75.5133244,40.5671821,0 -75.51293800000001,40.5671351,0 -75.50589979999999,40.5664669,0 -75.505219,40.5664089,0 -75.5047828,40.5663571,0 -75.5037244,40.5662638,0 -75.50309420000001,40.5662023,0 -75.50202179999999,40.5661246,0 -75.4977463,40.5657824,0 -75.4971563,40.5657365,0 -75.4966788,40.5656846,0 -75.4937348,40.5653729,0 -75.4915881,40.5651456,0 -75.4913256,40.5651168,0 -75.4887562,40.564786,0 -75.487076,40.5645894,0 -75.485293,40.5644173,0 -75.4843735,40.5643219,0 -75.483098,40.5641861,0 -75.48303610000001,40.5641859,0 -75.4823392,40.564116,0 -75.4805776,40.5639253,0 -75.47712300000001,40.5635912,0 -75.4762686,40.5635058,0 -75.4758772,40.5634646,0 -75.4728228,40.5631334,0 -75.4658312,40.5624681,0 -75.4589433,40.5616858,0 -75.45748500000001,40.5614347,0 -75.4526561,40.5605853,0 -75.4459828,40.5592893,0 -75.4446253,40.558986,0 -75.4437777,40.5587496,0 -75.4428121,40.5583991,0 -75.44214700000001,40.5581627,0 -75.44123500000001,40.5577551,0 -75.4400156,40.5572459,0 -75.4392555,40.5569185,0 -75.4360688,40.5555393,0 -75.4356145,40.5553427,0 -75.43493669999999,40.555063,0 -75.4343418,40.554851,0 -75.433939,40.5547349,0 -75.4334406,40.5546228,0 -75.4329283,40.5545331,0 -75.432455,40.5544822,0 -75.4317154,40.5544534,0 -75.4311416,40.5544661,0 -75.43059460000001,40.5545043,0 -75.42998249999999,40.5546145,0 -75.4292131,40.5547953,0 -75.4284622,40.5550652,0 -75.42775880000001,40.5553918,0 -75.42746150000001,40.5555487,0 -75.4271785,40.5557163,0 -75.4255682,40.556744,0 -75.42379080000001,40.5578978,0 -75.4217728,40.5592112,0 -75.4201913,40.5602419,0 -75.417843,40.5617724,0 -75.4163198,40.5627646,0 -75.41556970000001,40.5632535,0 -75.41441810000001,40.5640021,0 -75.4131512,40.564824,0 -75.4123766,40.5653281,0 -75.41177380000001,40.565723,0 -75.4107527,40.5663921,0 -75.4098915,40.566925,0 -75.4094309,40.5671991,0 -75.4089353,40.5674772,0 -75.4084289,40.5677459,0 -75.40779999999999,40.5680632,0 -75.4071927,40.5683546,0 -75.40635090000001,40.5687328,0 -75.40548130000001,40.5690863,0 -75.4048319,40.5693316,0 -75.4042568,40.5695386,0 -75.4035796,40.5697633,0 -75.4027614,40.5700132,0 -75.4018511,40.5702649,0 -75.4012571,40.5704148,0 -75.4001782,40.570659,0 -75.3975784,40.5712289,0 -75.39619709999999,40.571532,0 -75.3955042,40.5716868,0 -75.394907,40.5718336,0 -75.3944955,40.5719504,0 -75.39419530000001,40.5720477,0 -75.3939022,40.5721509,0 -75.3936518,40.5722497,0 -75.39342069999999,40.5723405,0 -75.3932167,40.5724297,0 -75.3930355,40.5725124,0 -75.39277199999999,40.5726381,0 -75.3925047,40.5727707,0 -75.3922512,40.5729111,0 -75.3919794,40.5730631,0 -75.3917308,40.5732201,0 -75.39148230000001,40.5733851,0 -75.3910973,40.5736552,0 -75.3908397,40.5738576,0 -75.39058230000001,40.5740757,0 -75.3902156,40.5744061,0 -75.3895685,40.5751059,0 -75.3892731,40.57549,0 -75.38910199999999,40.5757331,0 -75.3888712,40.5760994,0 -75.3887185,40.5763793,0 -75.38855770000001,40.57671,0 -75.3884171,40.5770384,0 -75.38828700000001,40.5773917,0 -75.3880175,40.5783132,0 -75.3873126,40.5808101,0 -75.38709179999999,40.5814791,0 -75.38695730000001,40.581767,0 -75.38659029999999,40.5824914,0 -75.3859037,40.5835791,0 -75.3851312,40.5844387,0 -75.3843265,40.5851598,0 -75.3832697,40.5859217,0 -75.3821964,40.5864889,0 -75.38066259999999,40.5871357,0 -75.379364,40.5875481,0 -75.3728302,40.5895524,0 -75.36875070000001,40.5908355,0 -75.368067,40.5910546,0 -75.3665757,40.5915883,0 -75.361994,40.593243,0 -75.3609489,40.5935144,0 -75.3602564,40.5936942,0 -75.356297,40.5945954,0 -75.3507321,40.5958098,0 -75.3500964,40.5959492,0 -75.34954810000001,40.5960553,0 -75.34925749999999,40.5961117,0 -75.3484405,40.5962444,0 -75.3478878,40.5963207,0 -75.3473242,40.5963904,0 -75.346564,40.5964601,0 -75.34600690000001,40.5964907,0 -75.3454677,40.5965187,0 -75.3449933,40.596538,0 -75.3439928,40.5965264,0 -75.34225170000001,40.5964468,0 -75.3407399,40.5962925,0 -75.3400379,40.5962319,0 -75.3392118,40.5961382,0 -75.3372378,40.5959137,0 -75.33416510000001,40.5956114,0 -75.3312832,40.5953665,0 -75.3305622,40.5953469,0 -75.32956660000001,40.5953339,0 -75.3289872,40.5953378,0 -75.3279351,40.5954042,0 -75.32638009999999,40.5956413,0 -75.3248888,40.5959509,0 -75.32401969999999,40.5961667,0 -75.32256599999999,40.5966718,0 -75.32126239999999,40.5972014,0 -75.3200286,40.5978408,0 -75.3195628,40.5981019,0 -75.3191145,40.5983407,0 -75.3165096,40.5998489,0 -75.31525430000001,40.6004924,0 -75.3137469,40.6012419,0 -75.3121215,40.6019343,0 -75.31052819999999,40.6024556,0 -75.3091228,40.6028507,0 -75.30602829999999,40.6038038,0 -75.3043378,40.6043245,0 -75.30296439999999,40.6048545,0 -75.3016342,40.6054486,0 -75.3004646,40.606117,0 -75.29958480000001,40.6067361,0 -75.2988235,40.6074204,0 -75.2976443,40.6085388,0 -75.2972338,40.6089811,0 -75.29456380000001,40.6119163,0 -75.29292359999999,40.6136989,0 -75.2911634,40.6154046,0 -75.28728529999999,40.6189075,0 -75.2860266,40.6200482,0 -75.2856282,40.6204273,0 -75.28525140000001,40.6208019,0 -75.2848571,40.6212152,0 -75.2845641,40.6215333,0 -75.28429010000001,40.621848,0 -75.28393509999999,40.6222794,0 -75.2836475,40.6226418,0 -75.2833397,40.6230424,0 -75.28306550000001,40.6234195,0 -75.2828535,40.6237315,0 -75.2826008,40.6241181,0 -75.282295,40.6246067,0 -75.2806665,40.6274585,0 -75.2802971,40.628124,0 -75.27998030000001,40.6286864,0 -75.2791367,40.6301734,0 -75.27819390000001,40.6318384,0 -75.27804500000001,40.6320984,0 -75.277624,40.6328314,0 -75.2774845,40.6330852,0 -75.2772015,40.6335829,0 -75.2769346,40.6340062,0 -75.27665159999999,40.6344205,0 -75.2763351,40.6348337,0 -75.2759865,40.6352815,0 -75.2755841,40.6357618,0 -75.2751442,40.6362463,0 -75.2746507,40.6367388,0 -75.27417869999999,40.6371744,0 -75.2736905,40.6375937,0 -75.273197,40.6379926,0 -75.272441,40.63855,0 -75.2715833,40.63912,0 -75.27119260000001,40.6393562,0 -75.2709246,40.6395149,0 -75.2704042,40.6398016,0 -75.26917229999999,40.6404136,0 -75.26798410000001,40.6409235,0 -75.2667945,40.64141,0 -75.2655943,40.6419004,0 -75.257565,40.6451608,0 -75.25658869999999,40.6455678,0 -75.2536774,40.6468211,0 -75.2526199,40.6473282,0 -75.2498064,40.6488154,0 -75.2463188,40.6507327,0 -75.24483290000001,40.6515487,0 -75.2436795,40.6521836,0 -75.2426442,40.6527493,0 -75.2420702,40.6530668,0 -75.2417591,40.6532336,0 -75.2411877,40.6535511,0 -75.2406245,40.6538624,0 -75.240139,40.6541331,0 -75.23970180000001,40.6543935,0 -75.2393746,40.6546051,0 -75.23902320000001,40.6548453,0 -75.2387389,40.6550487,0 -75.2384358,40.6552909,0 -75.2381434,40.655533,0 -75.23788860000001,40.6557589,0 -75.23771429999999,40.6559196,0 -75.2375265,40.6561007,0 -75.2374277,40.6561949,0 -75.2371242,40.6565097,0 -75.2369606,40.656699,0 -75.236805,40.656876,0 -75.23665750000001,40.6570571,0 -75.2365126,40.6572443,0 -75.2363759,40.6574274,0 -75.23624169999999,40.6576167,0 -75.2361076,40.657814,0 -75.2359762,40.6580073,0 -75.2358555,40.6582047,0 -75.2357375,40.6584061,0 -75.2356329,40.6586015,0 -75.23553099999999,40.658807,0 -75.2354371,40.6589983,0 -75.2353432,40.6592058,0 -75.235252,40.6594072,0 -75.23516619999999,40.6596229,0 -75.2350857,40.6598325,0 -75.2350106,40.6600441,0 -75.2349409,40.6602435,0 -75.2348685,40.6604551,0 -75.234796,40.6606728,0 -75.2347209,40.6608844,0 -75.2346582,40.6610311,0 -75.2343918,40.6618923,0 -75.2343025,40.6621785,0 -75.2342381,40.6624023,0 -75.2341389,40.6627075,0 -75.23406919999999,40.6629292,0 -75.2340021,40.6631469,0 -75.23390019999999,40.6634521,0 -75.2338278,40.6636576,0 -75.23375799999999,40.6638672,0 -75.2336722,40.6640808,0 -75.23358639999999,40.6642761,0 -75.2335193,40.6644247,0 -75.2334147,40.6646179,0 -75.23329940000001,40.6648153,0 -75.2331787,40.6650126,0 -75.2330472,40.6651998,0 -75.2329158,40.6653931,0 -75.2327576,40.6655782,0 -75.2326047,40.6657593,0 -75.2324437,40.6659302,0 -75.23228279999999,40.666095,0 -75.2321165,40.6662517,0 -75.23192880000001,40.6664144,0 -75.231741,40.6665772,0 -75.2315291,40.6667318,0 -75.23132529999999,40.6668783,0 -75.2310919,40.6670288,0 -75.2308827,40.667157,0 -75.23066540000001,40.6672811,0 -75.230424,40.6674093,0 -75.2301789,40.6675281,0 -75.2299707,40.6676209,0 -75.2297159,40.6677267,0 -75.22946109999999,40.6678223,0 -75.22921169999999,40.6679118,0 -75.2289435,40.6680033,0 -75.2286806,40.6680807,0 -75.228399,40.6681498,0 -75.22815490000001,40.6682088,0 -75.22789469999999,40.6682617,0 -75.2276104,40.6683126,0 -75.2273368,40.6683594,0 -75.2270552,40.668398,0 -75.2267655,40.6684408,0 -75.224839,40.6687191,0 -75.21903589999999,40.6695462,0 -75.21711910000001,40.6698503,0 -75.2161954,40.6699934,0 -75.2150115,40.6702253,0 -75.2141757,40.6704103,0 -75.2133125,40.6706276,0 -75.21267539999999,40.6707986,0 -75.2122086,40.6709346,0 -75.211491,40.6711562,0 -75.2063246,40.6728277,0 -75.20392339999999,40.6736,0 -75.1998483,40.6749426,0 -75.19795929999999,40.6755678,0 -75.19681439999999,40.6759132,0 -75.19568460000001,40.6761622,0 -75.1948565,40.6763312,0 -75.1940142,40.6764794,0 -75.19343859999999,40.6765621,0 -75.192994,40.6766226,0 -75.19257020000001,40.6766755,0 -75.1921411,40.6767243,0 -75.1917602,40.6767569,0 -75.1913847,40.6767853,0 -75.1910146,40.6768016,0 -75.1905747,40.676822,0 -75.190226,40.6768301,0 -75.1896895,40.6768464,0 -75.1892067,40.6768504,0 -75.1888259,40.6768504,0 -75.188327,40.6768464,0 -75.1877262,40.6768342,0 -75.1871361,40.676826,0 -75.1866479,40.6768179,0 -75.18627239999999,40.6768098,0 -75.1859613,40.6767894,0 -75.1856233,40.676765,0 -75.1852746,40.6767284,0 -75.184989,40.6766904,0 -75.1846899,40.676647,0 -75.1844217,40.6766023,0 -75.18414679999999,40.6765439,0 -75.1838692,40.6764721,0 -75.1835956,40.6763948,0 -75.1833542,40.6763216,0 -75.18308589999999,40.6762239,0 -75.18279630000001,40.67611,0 -75.1825589,40.676015,0 -75.1823242,40.6759066,0 -75.18211359999999,40.6758075,0 -75.1818468,40.6756665,0 -75.1815785,40.675516,0 -75.18142829999999,40.6754306,0 -75.1812942,40.6753411,0 -75.18113870000001,40.6752353,0 -75.18066229999999,40.674875,0 -75.1805164,40.6747633,0 -75.18036619999999,40.674625,0 -75.18022670000001,40.6744989,0 -75.18010200000001,40.6743754,0 -75.17997459999999,40.6742426,0 -75.1794848,40.6737637,0 -75.17852600000001,40.6727047,0 -75.1779737,40.6720624,0 
				
					-75.1779737,40.6720624,0 -75.1769686,40.6709231,0 -75.1759967,40.6697498,0 -75.17576889999999,40.669439,0 -75.1755959,40.6691759,0 -75.1754234,40.668833,0 -75.1752601,40.6685214,0 -75.1751443,40.6682465,0 -75.17501780000001,40.6679431,0 -75.17492660000001,40.6676176,0 -75.1725826,40.6585847,0 -75.17235239999999,40.6579437,0 -75.1721277,40.6574125,0 -75.1719576,40.6570641,0 -75.1717462,40.6566901,0 -75.171511,40.6562819,0 -75.1712835,40.6559436,0 -75.1710987,40.6556943,0 -75.171013,40.6555706,0 -75.17078290000001,40.6552738,0 -75.1706022,40.6550633,0 -75.1701295,40.6545347,0 -75.1695642,40.653986,0 -75.1692678,40.6537242,0 -75.169062,40.6535606,0 -75.1682765,40.6529533,0 -75.1675097,40.6524658,0 -75.1669182,40.6521125,0 -75.1663779,40.6518356,0 -75.1658633,40.6515864,0 -75.16527120000001,40.6513394,0 -75.1647301,40.6511254,0 -75.1641467,40.6509283,0 -75.1636926,40.6507878,0 -75.1632242,40.6506659,0 -75.1628619,40.6505784,0 -75.1623644,40.6504787,0 -75.16198970000001,40.6504195,0 -75.1615891,40.6503664,0 -75.16119449999999,40.6503219,0 -75.16073609999999,40.650289,0 -75.16031649999999,40.6502691,0 -75.1596237,40.650263,0 -75.1591689,40.6502831,0 -75.1588283,40.6503036,0 -75.15833809999999,40.6503483,0 -75.1579878,40.6503899,0 -75.15722270000001,40.6505166,0 -75.15664959999999,40.6506353,0 -75.1558036,40.6508635,0 -75.15540729999999,40.650997,0 -75.1549383,40.6511602,0 -75.1541203,40.6514781,0 -75.15348090000001,40.6517474,0 -75.1529333,40.6519924,0 -75.1514918,40.6527229,0 -75.1504698,40.6532894,0 -75.1500592,40.6535365,0 -75.1497073,40.6537574,0 -75.14930080000001,40.6540248,0 -75.1489474,40.6542567,0 -75.1483104,40.6547035,0 -75.1478194,40.6550728,0 -75.1473711,40.6554238,0 -75.1470362,40.6556902,0 -75.14662250000001,40.6560399,0 -75.146179,40.6564429,0 -75.1457485,40.6568396,0 -75.1451501,40.657431,0 -75.1447266,40.6578814,0 -75.14431,40.658355,0 -75.1438108,40.6589497,0 -75.14320619999999,40.6597319,0 -75.1428579,40.6602284,0 -75.1424154,40.6608971,0 -75.1421923,40.6612781,0 -75.1419514,40.6616871,0 -75.1417261,40.6621053,0 -75.1414405,40.6626582,0 -75.1411969,40.663222,0 -75.14102459999999,40.66365,0 -75.1404373,40.6650491,0 -75.1403071,40.6653377,0 -75.1401623,40.665618,0 -75.14002170000001,40.6658589,0 -75.1398842,40.6660846,0 -75.13943399999999,40.6666968,0 -75.139194,40.6669612,0 -75.13904239999999,40.6671282,0 -75.1385532,40.6676197,0 -75.13822330000001,40.6678885,0 -75.1377378,40.6682614,0 -75.1371985,40.6686156,0 -75.1368806,40.6688025,0 -75.1365572,40.6689775,0 -75.13597009999999,40.6692503,0 -75.1357409,40.6693484,0 -75.13551510000001,40.6694388,0 -75.13518139999999,40.6695621,0 -75.1348929,40.6696661,0 -75.13463849999999,40.6697416,0 -75.1342052,40.6698647,0 -75.1335699,40.6700065,0 -75.1329231,40.670117,0 -75.1298133,40.6705578,0 -75.1288521,40.6706891,0 -75.12814469999999,40.6707865,0 -75.1231523,40.6714773,0 -75.1200166,40.6719035,0 -75.1190787,40.6720201,0 -75.1182694,40.6721121,0 -75.11740500000001,40.6721747,0 -75.1164295,40.6722294,0 -75.1149272,40.6722611,0 -75.11397049999999,40.6722475,0 -75.113376,40.6722216,0 -75.11306930000001,40.6722112,0 -75.11260299999999,40.6721908,0 -75.1119593,40.6721442,0 -75.1102365,40.6719694,0 -75.1093461,40.6718487,0 -75.1088713,40.671779,0 -75.10842599999999,40.6716963,0 -75.1066612,40.6713363,0 -75.1060568,40.6711856,0 -75.10527380000001,40.6709862,0 -75.1047161,40.6708369,0 -75.1041603,40.6706663,0 -75.10381700000001,40.6705509,0 -75.1027505,40.6701909,0 -75.101905,40.6698806,0 -75.1015893,40.6697616,0 -75.10124999999999,40.6696182,0 -75.1004094,40.6692495,0 -75.0977815,40.66796,0 -75.0967986,40.6674705,0 -75.0955343,40.6668265,0 -75.09208219999999,40.6652174,0 -75.09089109999999,40.6647549,0 -75.09044710000001,40.6645924,0 -75.0896352,40.6642916,0 -75.08876239999999,40.664,0 -75.0877653,40.6636958,0 -75.0871705,40.6635249,0 -75.0867195,40.6634046,0 -75.0859225,40.6632005,0 -75.08512279999999,40.6630134,0 -75.08294309999999,40.6625143,0 -75.0818646,40.6622702,0 -75.0804735,40.6619488,0 -75.0794906,40.6617218,0 -75.07801619999999,40.6613862,0 -75.077279,40.6612242,0 -75.07559120000001,40.6608533,0 -75.0742115,40.6605782,0 -75.0722742,40.6602481,0 -75.07087850000001,40.6600044,0 -75.070508,40.6599406,0 -75.0704108,40.6599248,0 -75.0682711,40.6595536,0 -75.0672355,40.6593534,0 -75.0671186,40.6593347,0 -75.0665796,40.6592448,0 -75.0661084,40.6591746,0 -75.06556449999999,40.6591069,0 -75.0649528,40.659048,0 -75.0645505,40.6590079,0 -75.06430159999999,40.6589934,0 -75.063918,40.6589646,0 -75.0635678,40.6589509,0 -75.0633218,40.6589456,0 -75.06248530000001,40.6589457,0 -75.0620158,40.658966,0 -75.0615258,40.6589886,0 -75.06095620000001,40.6590366,0 -75.0603217,40.6591172,0 -75.0597429,40.6592105,0 -75.05933109999999,40.6592922,0 -75.0588693,40.6594015,0 -75.05863890000001,40.659458,0 -75.0584016,40.6595216,0 -75.0580729,40.6596183,0 -75.0577644,40.6597066,0 -75.0568342,40.6600175,0 -75.05414740000001,40.6609958,0 -75.0536468,40.6611666,0 -75.05315469999999,40.6613293,0 -75.0527858,40.6614291,0 -75.0524133,40.6615273,0 -75.0521191,40.6615926,0 -75.051858,40.6616415,0 -75.0515365,40.6616996,0 -75.0512306,40.6617372,0 -75.0509133,40.6617732,0 -75.0507269,40.6617933,0 -75.050532,40.6618118,0 -75.05010489999999,40.6618354,0 -75.0499066,40.6618461,0 -75.0496909,40.6618497,0 -75.04950270000001,40.6618505,0 -75.0492756,40.6618473,0 -75.0490456,40.6618409,0 -75.0488306,40.661829,0 -75.0486046,40.6618123,0 -75.0484299,40.6617971,0 -75.0480685,40.6617623,0 -75.0476828,40.6617096,0 -75.0473618,40.6616586,0 -75.0470562,40.6616029,0 -75.046646,40.6615136,0 -75.0461688,40.661386,0 -75.04593389999999,40.661322,0 -75.0456813,40.661246,0 -75.0452899,40.6611162,0 -75.04483930000001,40.6609442,0 -75.04432559999999,40.6607273,0 -75.04401319999999,40.6605791,0 -75.04368580000001,40.6604087,0 -75.0435976,40.6603616,0 -75.04332170000001,40.6602003,0 -75.04298,40.6599893,0 -75.0427691,40.6598485,0 -75.04245779999999,40.6596217,0 -75.0421456,40.6593713,0 -75.0419234,40.6591784,0 -75.0417921,40.6590584,0 -75.0416511,40.6589204,0 -75.0413398,40.6586056,0 -75.0411804,40.6584248,0 -75.0410789,40.6583055,0 -75.0408781,40.6580512,0 -75.0406658,40.6577549,0 -75.0403426,40.6572524,0 -75.0399987,40.6566703,0 -75.0397174,40.6561939,0 -75.03925839999999,40.6554142,0 -75.0389338,40.654878,0 -75.0387994,40.6546577,0 -75.0386074,40.6543689,0 -75.038363,40.6540529,0 -75.03818649999999,40.6538343,0 -75.0380588,40.6536906,0 -75.03792730000001,40.6535503,0 -75.03773390000001,40.6533393,0 -75.0375908,40.6532089,0 -75.0371109,40.6527795,0 -75.0369141,40.652627,0 -75.036646,40.6524389,0 -75.03634529999999,40.6522308,0 -75.03605399999999,40.6520483,0 -75.0359284,40.6519683,0 -75.0357406,40.6518622,0 -75.0352549,40.6516016,0 -75.03511229999999,40.6515291,0 -75.03489860000001,40.6514296,0 -75.0346495,40.6513207,0 -75.034418,40.6512256,0 -75.0342028,40.6511434,0 -75.0337249,40.6509763,0 -75.0331858,40.6508087,0 -75.03266139999999,40.6506717,0 -75.03218200000001,40.6505657,0 -75.0317974,40.6504942,0 -75.0315696,40.6504569,0 -75.03135930000001,40.650425,0 -75.0310568,40.6503914,0 -75.030686,40.6503556,0 -75.03034239999999,40.6503263,0 -75.03008130000001,40.6503062,0 -75.0258742,40.6500282,0 -75.02371719999999,40.6498816,0 -75.0227009,40.6498083,0 -75.02201650000001,40.6497623,0 -75.021317,40.6497112,0 -75.0200439,40.6496083,0 -75.018349,40.649484,0 -75.0179653,40.6494505,0 -75.0176333,40.6494198,0 -75.0173221,40.6493908,0 -75.0170881,40.6493616,0 -75.0168951,40.6493404,0 -75.0165088,40.6492906,0 -75.01620509999999,40.6492428,0 -75.0159223,40.6491982,0 -75.01478210000001,40.6489884,0 -75.01431340000001,40.6488887,0 -75.0138164,40.6487709,0 -75.0133464,40.6486508,0 -75.0127655,40.6484961,0 -75.0121034,40.6483067,0 -75.0109811,40.6479334,0 -75.0089346,40.647233,0 -75.0058648,40.6461824,0 -75.0043254,40.6456687,0 -75.00326029999999,40.6453535,0 -75.0029084,40.6452494,0 -74.99931979999999,40.6442155,0 -74.9977676,40.6437728,0 -74.994316,40.6427711,0 -74.9936008,40.6425688,0 -74.9932493,40.6424628,0 -74.9928397,40.642345,0 -74.99252439999999,40.6422477,0 -74.9918605,40.642039,0 -74.99130769999999,40.641859,0 -74.99052880000001,40.6415793,0 -74.99005390000001,40.6414093,0 -74.9896336,40.641244,0 -74.9884836,40.6407658,0 -74.98820809999999,40.6406544,0 -74.9806895,40.6376069,0 -74.9801671,40.637395,0 -74.9786659,40.6367884,0 -74.97725250000001,40.6362131,0 -74.9767384,40.6360224,0 -74.9762221,40.6358368,0 -74.9758607,40.6357209,0 -74.975556,40.6356293,0 -74.9751239,40.6355121,0 -74.9747608,40.6354198,0 -74.97314369999999,40.6351092,0 -74.9725183,40.6350301,0 -74.9720798,40.6349851,0 -74.971783,40.6349614,0 -74.9714658,40.6349367,0 -74.9709666,40.6349171,0 -74.9703923,40.6349058,0 -74.9700715,40.6349095,0 -74.96984070000001,40.6349156,0 -74.9696165,40.6349264,0 -74.9692277,40.6349448,0 -74.9688069,40.6349698,0 -74.9683119,40.635017,0 -74.96785439999999,40.6350739,0 -74.9671757,40.6351643,0 -74.9658225,40.6353646,0 -74.9650458,40.6354801,0 -74.9640122,40.6356361,0 -74.96346509999999,40.6357105,0 -74.9629053,40.6357755,0 -74.96258419999999,40.6358072,0 -74.9623363,40.6358255,0 -74.96199590000001,40.6358564,0 -74.9616422,40.635879,0 -74.9611934,40.6359016,0 -74.9608784,40.6359147,0 -74.9603674,40.6359268,0 -74.96003829999999,40.6359315,0 -74.95974289999999,40.6359278,0 -74.9593599,40.6359224,0 -74.9589739,40.6359121,0 -74.9585567,40.6358956,0 -74.9581302,40.6358698,0 -74.9577633,40.6358439,0 -74.95742389999999,40.6358138,0 -74.9568786,40.6357583,0 -74.95640349999999,40.6357017,0 -74.95606840000001,40.6356592,0 -74.9557875,40.6356202,0 -74.95541900000001,40.635561,0 -74.9550832,40.635502,0 -74.9546746,40.635427,0 -74.9541148,40.6353125,0 -74.95348920000001,40.6351727,0 -74.95305209999999,40.6350763,0 -74.95124439999999,40.6346761,0 -74.9506986,40.6345579,0 -74.9501854,40.6344472,0 -74.9491498,40.6342534,0 -74.94814940000001,40.6340965,0 -74.94775060000001,40.6340439,0 -74.9472552,40.6339932,0 -74.9469552,40.6339654,0 -74.94632540000001,40.633913,0 -74.9452806,40.6338364,0 -74.943051,40.6336706,0 -74.94136159999999,40.6335487,0 -74.9409036,40.6335108,0 -74.940465,40.6334661,0 -74.9379076,40.6331797,0 -74.934386,40.6327592,0 -74.92694,40.6318853,0 -74.92563199999999,40.6317351,0 -74.9246646,40.6316233,0 -74.92371609999999,40.6315053,0 -74.9230264,40.6314215,0 -74.92254,40.6313675,0 -74.9221763,40.6313274,0 -74.9216528,40.6312805,0 -74.92122139999999,40.6312443,0 -74.92072469999999,40.6312175,0 -74.9201166,40.6311918,0 -74.9198529,40.6311843,0 -74.9197296,40.6311845,0 -74.9193817,40.6311797,0 -74.9192905,40.6311797,0 -74.91879230000001,40.6311845,0 -74.918294,40.6311974,0 -74.91678,40.6312814,0 -74.9149833,40.6314786,0 -74.9143739,40.6315867,0 -74.913742,40.6317037,0 -74.9126323,40.6319511,0 -74.9124061,40.6320059,0 -74.9122023,40.6320589,0 -74.9117486,40.632191,0 -74.911331,40.6323062,0 -74.9111798,40.6323517,0 -74.91042590000001,40.6325884,0 -74.9093507,40.6329916,0 -74.90878290000001,40.633213,0 -74.9082746,40.6334112,0 -74.9075532,40.6337118,0 -74.9072796,40.6338381,0 -74.9057638,40.6345756,0 -74.9044525,40.6351489,0 -74.9015103,40.6364686,0 -74.9012888,40.6365738,0 -74.9007931,40.6367786,0 -74.9004,40.636927,0 -74.8990491,40.6374145,0 -74.8984904,40.6375879,0 -74.89781069999999,40.6377835,0 -74.8967186,40.6380544,0 -74.896045,40.6381932,0 -74.8954712,40.6382967,0 -74.894971,40.638373,0 -74.89456319999999,40.6384178,0 -74.89377880000001,40.6384699,0 -74.893314,40.6384886,0 -74.89243740000001,40.6384718,0 -74.89149329999999,40.6383866,0 -74.8903287,40.6382589,0 -74.8901201,40.6382343,0 -74.8877719,40.6379917,0 -74.8873708,40.6379566,0 -74.88709919999999,40.6379341,0 -74.88645630000001,40.6379135,0 -74.88610079999999,40.637902,0 -74.8857922,40.6379082,0 -74.88555119999999,40.637917,0 -74.8853672,40.6379232,0 -74.8851234,40.6379386,0 -74.8848595,40.6379575,0 -74.88465119999999,40.6379759,0 -74.88448940000001,40.6379961,0 -74.8839854,40.6380661,0 -74.88354409999999,40.638141,0 -74.88319509999999,40.6382193,0 -74.88290000000001,40.6382888,0 -74.8826449,40.6383532,0 -74.88238870000001,40.6384299,0 -74.882097,40.6385182,0 -74.8818019,40.6386187,0 -74.8814476,40.6387569,0 -74.88066670000001,40.6390691,0 -74.8800873,40.6393214,0 -74.8789946,40.6397822,0 -74.8786521,40.6399278,0 -74.87833379999999,40.6400537,0 -74.8779029,40.6402363,0 -74.8774963,40.6404073,0 -74.87670180000001,40.6407229,0 -74.8763865,40.6408447,0 -74.87612350000001,40.6409388,0 -74.8755006,40.6411458,0 -74.8752454,40.6412235,0 -74.87495869999999,40.6413133,0 -74.87458890000001,40.6414156,0 -74.8742657,40.6415097,0 -74.8739186,40.6416024,0 -74.873593,40.6416835,0 -74.8732768,40.6417529,0 -74.8728381,40.6418436,0 -74.87261479999999,40.6418852,0 -74.872371,40.6419365,0 -74.8720119,40.6420023,0 -74.8706153,40.642254,0 -74.8702985,40.6423178,0 -74.86965739999999,40.6424334,0 -74.8691117,40.6425331,0 -74.8684028,40.6426646,0 -74.8678649,40.6427667,0 -74.867278,40.6428851,0 -74.866851,40.6429789,0 -74.8666348,40.6430315,0 -74.8661207,40.643166,0 -74.86564970000001,40.6433046,0 -74.8652361,40.6434253,0 -74.86472929999999,40.6435818,0 -74.864345,40.6437028,0 -74.86399,40.6438201,0 -74.8615231,40.6446507,0 -74.86094900000001,40.6448382,0 -74.86037930000001,40.6450161,0 -74.8598592,40.645166,0 -74.859531,40.6452566,0 -74.85876709999999,40.6454424,0 -74.8583649,40.6455294,0 -74.8579501,40.6456127,0 -74.8570563,40.645773,0 -74.8566405,40.6458383,0 -74.8562301,40.6458945,0 -74.8555674,40.6459724,0 -74.8551224,40.64602,0 -74.8547683,40.6460462,0 -74.8512832,40.6463199,0 -74.84985570000001,40.6464348,0 -74.8468534,40.6466785,0 -74.8440866,40.6468978,0 -74.8426759,40.6470077,0 -74.8419942,40.6470611,0 -74.8412464,40.6471218,0 -74.84052459999999,40.6471747,0 -74.8396596,40.647214,0 -74.8385131,40.6472384,0 -74.8374575,40.6472348,0 -74.8367994,40.6472223,0 -74.8358326,40.6471882,0 -74.8334254,40.6470696,0 -74.83162729999999,40.6469826,0 -74.83058560000001,40.6469405,0 -74.83006109999999,40.6469111,0 -74.8229575,40.6465736,0 -74.8154358,40.6462173,0 -74.8142727,40.6461869,0 -74.81374030000001,40.6461824,0 -74.81323620000001,40.6461781,0 -74.8121623,40.6462052,0 -74.8115213,40.6462236,0 -74.8109319,40.6462507,0 -74.8103254,40.6462843,0 -74.8098261,40.646326,0 -74.8089686,40.6464028,0 -74.8082388,40.6464741,0 -74.8080056,40.6465054,0 -74.8072414,40.646603,0 -74.8060143,40.646783,0 -74.805605,40.646852,0 -74.8051603,40.6469323,0 -74.8042379,40.6471082,0 -74.8034083,40.6472842,0 -74.8030911,40.647355,0 -74.802746,40.6474351,0 -74.8023487,40.6475314,0 -74.8016592,40.6477129,0 -74.7981887,40.64862,0 -74.7969496,40.6489438,0 -74.7917997,40.6502991,0 -74.7900617,40.6507142,0 -74.7887027,40.6510104,0 -74.7879107,40.6511565,0 -74.7874171,40.6512384,0 -74.7864751,40.6513829,0 -74.786041,40.6514424,0 -74.785623,40.6514909,0 -74.7850657,40.6515562,0 -74.78443590000001,40.6516185,0 -74.7837061,40.6516781,0 -74.78302480000001,40.6517181,0 -74.7811389,40.6517852,0 -74.7798542,40.6517812,0 -74.7793271,40.6517693,0 -74.7787593,40.6517476,0 -74.77812110000001,40.6517124,0 -74.7763449,40.6515777,0 -74.77193010000001,40.6512109,0 -74.7677511,40.650873,0 -74.7660089,40.650725,0 -74.76515999999999,40.6506532,0 -74.764865,40.6506328,0 -74.76296670000001,40.6504676,0 -74.76273500000001,40.6504468,0 -74.7622183,40.6504095,0 -74.7614214,40.6503657,0 -74.76042940000001,40.6503394,0 -74.7603077,40.6503398,0 -74.7594505,40.6503428,0 -74.7591187,40.6503429,0 -74.7588836,40.6503479,0 -74.7586297,40.6503551,0 -74.7583472,40.6503724,0 -74.7551727,40.6505622,0 -74.7546562,40.6505955,0 -74.7542924,40.6506191,0 -74.7524464,40.6507387,0 -74.75106839999999,40.650783,0 -74.74995800000001,40.6507874,0 -74.7486193,40.6507229,0 -74.7479326,40.6506606,0 -74.74759659999999,40.6506216,0 -74.746539,40.6504858,0 -74.745419,40.6503113,0 -74.74371429999999,40.6499436,0 -74.7365475,40.6481853,0 -74.7332512,40.647387,0 -74.7298527,40.6465736,0 -74.7254222,40.6454888,0 -74.7241544,40.645187,0 -74.72376819999999,40.6450975,0 -74.7229957,40.6449509,0 -74.72235740000001,40.6448444,0 -74.7215563,40.6447208,0 -74.72062459999999,40.6445846,0 -74.7205427,40.6445723,0 -74.7201163,40.6445085,0 -74.71913410000001,40.6444009,0 -74.7187528,40.6443712,0 -74.7179687,40.6443152,0 -74.71092640000001,40.6439377,0 -74.7103906,40.6439034,0 -74.7035885,40.6436104,0 -74.6918325,40.643047,0 -74.6886099,40.6428875,0 -74.6882775,40.6428744,0 -74.6862466,40.6427752,0 -74.6850852,40.6427198,0 -74.6841572,40.6426974,0 -74.6837388,40.6426974,0 -74.68305479999999,40.6426994,0 -74.6821724,40.6427158,0 -74.68155489999999,40.6427482,0 -74.6810538,40.642779,0 -74.6785474,40.6429591,0 -74.67516190000001,40.6432582,0 -74.6711547,40.6435783,0 -74.6694753,40.6437418,0 -74.6679685,40.6438354,0 -74.6666572,40.6438779,0 -74.6652342,40.6438863,0 -74.66362959999999,40.6438413,0 -74.6631818,40.6438336,0 -74.65995119999999,40.6436087,0 -74.65979350000001,40.6435981,0 -74.6591354,40.6435498,0 -74.6572984,40.6434175,0 -74.6546683,40.6432253,0 -74.6515838,40.6429979,0 -74.65076000000001,40.6429366,0 -74.6503507,40.6429095,0 -74.64678259999999,40.6426485,0 -74.6465852,40.6426329,0 -74.6459641,40.6425963,0 -74.6457376,40.6425811,0 -74.64551609999999,40.6425693,0 -74.64453829999999,40.6425254,0 -74.6440028,40.6425114,0 -74.64296059999999,40.6424994,0 -74.64236390000001,40.6425026,0 -74.6418738,40.6425155,0 -74.6413828,40.642526,0 -74.6405192,40.6425545,0 -74.6396448,40.6425963,0 -74.6388884,40.6426604,0 -74.638722,40.6426359,0 -74.6382017,40.6427021,0 -74.6375065,40.6427812,0 -74.63668610000001,40.6428685,0 -74.6351346,40.6430847,0 -74.6325073,40.6434466,0 -74.6285908,40.6439404,0 -74.6281895,40.643972,0 -74.62676999999999,40.6440717,0 -74.62633099999999,40.644084,0 -74.6257573,40.6440762,0 -74.6250756,40.6440503,0 -74.62453360000001,40.6440209,0 -74.6240183,40.6439783,0 -74.623369,40.6439255,0 -74.6225391,40.6437789,0 -74.6210732,40.6434736,0 -74.6199115,40.6432556,0 -74.6194794,40.6431824,0 -74.61745620000001,40.6427448,0 -74.6162757,40.6425412,0 -74.6153262,40.6424191,0 -74.6143982,40.6423499,0 -74.61347550000001,40.6423051,0 -74.6125487,40.6422937,0 -74.6116955,40.6423259,0 -74.6110079,40.6423668,0 -74.6103356,40.6424329,0 -74.60919509999999,40.642586,0 -74.6082613,40.6427771,0 -74.6054137,40.6434613,0 -74.6039251,40.6438568,0 -74.6016695,40.6444509,0 -74.5986894,40.6449946,0 -74.59751199999999,40.645154,0 -74.5959563,40.6453135,0 -74.59364530000001,40.6454519,0 -74.5875503,40.6458185,0 -74.5837899,40.6461264,0 -74.5813644,40.6463811,0 -74.5794654,40.6465416,0 -74.57886120000001,40.6465842,0 -74.577251,40.6466434,0 -74.57575869999999,40.6466341,0 -74.57420500000001,40.6465894,0 -74.57386,40.6465746,0 -74.5718394,40.6464878,0 -74.5711213,40.6464348,0 -74.5680591,40.6462634,0 -74.5649406,40.6460973,0 -74.56150460000001,40.6459221,0 -74.5609043,40.6459078,0 -74.5607072,40.6459017,0 -74.5597374,40.6458772,0 -74.557947,40.6458676,0 -74.5555993,40.6459326,0 -74.5540002,40.6459973,0 -74.5472812,40.6462377,0 -74.54556479999999,40.6463074,0 -74.53672589999999,40.6468459,0 -74.5357745,40.6468765,0 -74.5325241,40.6469353,0 -74.530483,40.6469553,0 -74.52945920000001,40.6469852,0 -74.5284497,40.647043,0 -74.52740900000001,40.6471163,0 -74.52725700000001,40.6471294,0 -74.5271138,40.6471403,0 -74.52558329999999,40.647274,0 -74.52295169999999,40.647548,0 -74.5223692,40.6476139,0 -74.52117490000001,40.6477288,0 -74.5202604,40.6478173,0 -74.5194704,40.6478841,0 -74.5189647,40.6479155,0 -74.5180872,40.6479514,0 -74.5175955,40.6479578,0 -74.5171033,40.6479552,0 -74.5167708,40.6479492,0 -74.5161042,40.6479248,0 -74.51566029999999,40.6478983,0 -74.5150999,40.6478579,0 -74.5149019,40.6478413,0 -74.5147491,40.6478266,0 -74.514397,40.647791,0 -74.5136936,40.6477066,0 -74.5075634,40.6468977,0 -74.5071396,40.6468477,0 -74.50671560000001,40.6468041,0 -74.50629000000001,40.6467704,0 -74.50586060000001,40.6467409,0 -74.5053412,40.6467139,0 -74.50482,40.6466944,0 -74.5042938,40.6466869,0 -74.5037621,40.6466892,0 -74.50319140000001,40.6467002,0 -74.50261949999999,40.6467244,0 -74.5020367,40.6467617,0 -74.5014407,40.6468125,0 -74.50101239999999,40.6468558,0 -74.5008017,40.6468781,0 -74.5004663,40.6469201,0 -74.49951830000001,40.6470531,0 -74.4963518,40.6474928,0 -74.4931729,40.6479109,0 -74.4918337,40.6480734,0 -74.4912834,40.6481301,0 -74.4909306,40.6481585,0 -74.4881438,40.6483828,0 -74.4857064,40.6485718,0 -74.48321869999999,40.6487563,0 -74.4820015,40.648859,0 -74.4808163,40.6489409,0 -74.4783242,40.6491436,0 -74.4773252,40.6492699,0 -74.47625859999999,40.6494122,0 -74.47432569999999,40.6497193,0 -74.4686993,40.6506234,0 -74.4668027,40.6508825,0 -74.46516889999999,40.6510305,0 -74.46353329999999,40.6511238,0 -74.4600062,40.6511896,0 -74.4584971,40.6512063,0 -74.45696890000001,40.6512719,0 -74.4557726,40.6513573,0 -74.4547534,40.6514875,0 -74.4540667,40.6515893,0 -74.45324599999999,40.6517439,0 -74.4521955,40.6520097,0 -74.4517017,40.6521502,0 -74.4511117,40.6523365,0 -74.4506568,40.6524864,0 -74.45027829999999,40.65262,0 -74.4499713,40.6527352,0 -74.449512,40.6529264,0 -74.4490591,40.6531177,0 -74.4482493,40.6534993,0 -74.44661840000001,40.654322,0 -74.44520660000001,40.6550328,0 -74.4444529,40.655399,0 -74.4424037,40.6563531,0 -74.4412851,40.6568711,0 -74.44062220000001,40.6571934,0 -74.4403032,40.657359,0 -74.4399956,40.6575325,0 -74.43971790000001,40.6576929,0 -74.4394126,40.6578692,0 -74.4388928,40.6581915,0 -74.43745060000001,40.6591416,0 -74.4363712,40.6598559,0 -74.43634659999999,40.659872,0 -74.4359482,40.660133,0 -74.4354233,40.6604505,0 -74.4349402,40.6607338,0 -74.43431339999999,40.6610446,0 -74.43409370000001,40.6611462,0 -74.43381220000001,40.6612608,0 -74.4332897,40.6614526,0 -74.4329266,40.6615722,0 -74.43239610000001,40.6617321,0 -74.43202650000001,40.661823,0 -74.4315876,40.6619301,0 -74.4311658,40.6620055,0 -74.4306072,40.6620924,0 -74.4302807,40.6621332,0 -74.4299726,40.6621601,0 -74.4294146,40.6621922,0 -74.429106,40.6622056,0 -74.4287587,40.6622091,0 -74.4284442,40.6622093,0 -74.4279169,40.6621999,0 -74.4276205,40.6621872,0 -74.4263176,40.6621353,0 -74.4259519,40.662137,0 -74.4255185,40.6621543,0 -74.4250797,40.6621776,0 -74.42463309999999,40.6622124,0 -74.42404500000001,40.662284,0 -74.423552,40.6623657,0 -74.4233246,40.6624093,0 -74.4231097,40.6624525,0 -74.42244549999999,40.6626133,0 -74.4218901,40.6627734,0 -74.4215128,40.6628939,0 -74.4212066,40.6630027,0 -74.419935,40.6634757,0 -74.41882769999999,40.6639868,0 -74.4177286,40.6645439,0 -74.4168258,40.6650275,0 -74.4162808,40.6653312,0 -74.416061,40.6654537,0 -74.4152888,40.6659299,0 -74.4148635,40.6661914,0 -74.4139847,40.6667738,0 -74.4134011,40.6671779,0 -74.4126006,40.6677766,0 -74.4120625,40.6681816,0 -74.411404,40.6687194,0 -74.4106788,40.6693444,0 -74.4093045,40.6705054,0 -74.40794390000001,40.6716764,0 -74.406667,40.6727619,0 -74.4062316,40.6731305,0 -74.4049529,40.6742082,0 -74.4035928,40.6753165,0 -74.4032321,40.6755884,0 -74.4024009,40.6762027,0 -74.4015909,40.6767703,0 -74.3998593,40.6779163,0 -74.399001,40.6784167,0 -74.3987084,40.6785768,0 -74.39807930000001,40.678921,0 -74.3963442,40.679904,0 -74.39231770000001,40.6820964,0 -74.38985460000001,40.6834043,0 -74.38763,40.6846184,0 -74.387293,40.6848027,0 -74.3868774,40.6850395,0 -74.386121,40.6854911,0 -74.38559530000001,40.6858165,0 -74.38470479999999,40.6864185,0 -74.3813275,40.688817,0 -74.38089789999999,40.6891223,0 -74.37528620000001,40.6930967,0 -74.3746278,40.6935363,0 -74.37371539999999,40.6941279,0 -74.3729306,40.6946143,0 -74.37213199999999,40.6950936,0 -74.37128800000001,40.6955792,0 -74.3710336,40.6957222,0 -74.37009500000001,40.6962288,0 -74.3693299,40.696621,0 -74.3685589,40.6969977,0 -74.3677436,40.697376,0 -74.3673333,40.6975655,0 -74.3669201,40.6977414,0 -74.3662406,40.6980256,0 -74.3651041,40.6984503,0 -74.3637554,40.6989125,0 -74.3624294,40.6992737,0 -74.3616983,40.6994527,0 -74.3609606,40.6995968,0 -74.3599656,40.6997554,0 -74.3591849,40.6998463,0 -74.3583309,40.6999212,0 -74.35620230000001,40.7000971,0 -74.3551258,40.7001794,0 -74.3540598,40.700287,0 -74.3523002,40.7005017,0 -74.3514816,40.7006369,0 -74.3503862,40.7008856,0 -74.34945070000001,40.7011654,0 -74.3483488,40.7015805,0 -74.34716760000001,40.7020894,0 -74.34595729999999,40.7026685,0 -74.34489840000001,40.7032722,0 -74.3392252,40.7066202,0 -74.3385443,40.7069789,0 -74.3380441,40.7072848,0 -74.3377637,40.7074349,0 -74.3374328,40.7076056,0 -74.33719189999999,40.7077296,0 -74.3369173,40.7078699,0 -74.3366572,40.7079958,0 -74.3363995,40.7081187,0 -74.33614369999999,40.7082385,0 -74.3358478,40.7083749,0 -74.33554820000001,40.7085115,0 -74.33525849999999,40.7086383,0 -74.3349771,40.7087545,0 -74.3346975,40.7088693,0 -74.3344027,40.7089915,0 -74.3341149,40.7091046,0 -74.3338376,40.7092121,0 -74.3335483,40.709322,0 -74.3332649,40.7094306,0 -74.3329768,40.7095341,0 -74.3326813,40.7096377,0 -74.3323943,40.7097368,0 -74.3320875,40.709841,0 -74.3317874,40.709939,0 -74.3314405,40.7100518,0 -74.3310635,40.7101682,0 -74.33077419999999,40.7102562,0 -74.3304741,40.7103444,0 -74.33017030000001,40.7104332,0 -74.32986339999999,40.7105198,0 -74.3295775,40.7105972,0 -74.3292774,40.7106761,0 -74.32896359999999,40.7107574,0 -74.32867,40.7108318,0 -74.3283534,40.7109096,0 -74.32805329999999,40.7109789,0 -74.32774929999999,40.7110471,0 -74.3274758,40.7111067,0 -74.3272283,40.7111602,0 -74.326975,40.7112134,0 -74.3266474,40.7112798,0 -74.3263501,40.7113395,0 -74.3260549,40.7113928,0 -74.3257316,40.7114511,0 -74.32541569999999,40.711507,0 -74.3251119,40.7115593,0 -74.3248119,40.7116093,0 -74.324512,40.7116574,0 -74.32422990000001,40.7117021,0 -74.322637,40.7119302,0 -74.3222598,40.7119809,0 -74.3219125,40.7120256,0 -74.3215818,40.7120681,0 -74.32126049999999,40.7121098,0 -74.3209657,40.7121424,0 -74.3206675,40.7121754,0 -74.3203309,40.7122105,0 -74.3200071,40.712245,0 -74.3196818,40.7122793,0 -74.31934560000001,40.712311,0 -74.3190134,40.7123417,0 -74.3186932,40.7123691,0 -74.318549,40.7123796,0 -74.3182159,40.7124074,0 -74.317894,40.7124329,0 -74.3169266,40.712502,0 -74.31679130000001,40.7124981,0 -74.3158048,40.712569,0 -74.3152122,40.7126174,0 -74.2998607,40.7137941,0 -74.2994368,40.7138289,0 -74.2978288,40.7139538,0 -74.2974585,40.7139819,0 -74.2969982,40.7140111,0 -74.2965033,40.7140424,0 -74.2960233,40.7140706,0 
				
					-74.29602415118117,40.71406676618747,0 -74.29222179233589,40.71420306003419,0 -74.28802076325579,40.71430515058763,0 -74.28395411654431,40.71420585196962,0 -74.28045787706874,40.71400339958565,0 -74.27719920127274,40.71380550492949,0 -74.27547960807273,40.71360518846653,0 -74.2743469,40.7134046,0 -74.2738799,40.7133231,0 -74.27342779999999,40.7132391,0 -74.27298089999999,40.713152,0 -74.2725119,40.713052,0 -74.2720623,40.7129526,0 -74.2716191,40.7128491,0 -74.2711702,40.7127377,0 -74.2707192,40.712619,0 -74.2702955,40.7125042,0 -74.2698511,40.7123756,0 -74.26940569999999,40.7122397,0 -74.2689665,40.712101,0 -74.26853300000001,40.7119575,0 -74.2680841,40.7118054,0 -74.2676469,40.7116512,0 -74.2672209,40.7114995,0 -74.266783,40.7113428,0 -74.2663479,40.7111826,0 -74.2659046,40.7110197,0 -74.2654884,40.7108612,0 -74.26503839999999,40.7106911,0 -74.26030900000001,40.708874,0 -74.2595768,40.7086029,0 -74.25930940000001,40.7085023,0 -74.2590246,40.7084001,0 -74.2587535,40.7083032,0 -74.2586831,40.7082784,0 -74.258465,40.7082017,0 -74.2581907,40.7081061,0 -74.25789779999999,40.7080084,0 -74.2576162,40.7079158,0 -74.2573294,40.707826,0 -74.2571828,40.70778,0 -74.256798,40.7076643,0 -74.2564613,40.7075626,0 -74.2562276,40.7074961,0 -74.2559572,40.7074197,0 -74.25568509999999,40.7073443,0 -74.2544552,40.7070116,0 -74.25418070000001,40.7069405,0 -74.2536309,40.706802,0 -74.2533518,40.7067348,0 -74.2528015,40.706606,0 -74.25224300000001,40.7064765,0 -74.25168499999999,40.7063538,0 -74.2514164,40.7062962,0 -74.25112919999999,40.7062355,0 -74.2508431,40.7061783,0 -74.2505633,40.7061223,0 -74.24998100000001,40.706012,0 -74.2492809,40.7058839,0 -74.2488486,40.7058054,0 -74.24843749999999,40.7057323,0 -74.2481575,40.7056854,0 -74.247872,40.7056369,0 -74.24758180000001,40.705589,0 -74.2471695,40.7055251,0 -74.246752,40.7054599,0 -74.2463297,40.7053979,0 -74.2459001,40.7053354,0 -74.2454776,40.7052779,0 -74.24518740000001,40.7052406,0 -74.24490280000001,40.7052051,0 -74.2446131,40.7051747,0 -74.2443253,40.7051466,0 -74.2440144,40.7051202,0 -74.24377579999999,40.7051031,0 -74.24350389999999,40.7050831,0 -74.24321430000001,40.705067,0 -74.2429293,40.7050525,0 -74.2426329,40.7050418,0 -74.242375,40.7050346,0 -74.242125,40.7050284,0 -74.2419064,40.7050232,0 -74.2416597,40.7050222,0 -74.24144099999999,40.7050236,0 -74.2412198,40.7050275,0 -74.2410383,40.7050332,0 -74.2408701,40.705039,0 -74.2407619,40.7050435,0 -74.24047760000001,40.7050596,0 -74.24018839999999,40.7050798,0 -74.2399006,40.7051064,0 -74.23961180000001,40.7051382,0 -74.2393247,40.7051729,0 -74.2390422,40.705213,0 -74.2387604,40.7052567,0 -74.2384768,40.7053052,0 -74.23822439999999,40.7053536,0 -74.2380593,40.7053866,0 -74.2379212,40.7054166,0 -74.2377822,40.7054474,0 -74.2376478,40.7054782,0 -74.23751824762799,40.70551381422298,0 -74.23722748775273,40.70557827671391,0 -74.23613825974159,40.70589118530413,0 -74.23498711502215,40.70634288894132,0 -74.23379600800082,40.70687914865051,0 -74.23241938470539,40.70753636140853,0 -74.23100000188582,40.70827220500921,0 -74.23007478647595,40.7087701666731,0 -74.22988395044776,40.70886322867791,0 
				
					-74.2298806,40.7088651,0 -74.2296431,40.7089876,0 -74.22940560000001,40.7091124,0 -74.22916789999999,40.7092442,0 -74.22893740000001,40.7093804,0 -74.2287175,40.7095229,0 -74.2285064,40.7096681,0 -74.22829609999999,40.7098261,0 -74.2280978,40.709987,0 -74.2279066,40.7101529,0 -74.2277177,40.7103217,0 -74.2275284,40.7104898,0 -74.22701739999999,40.7109564,0 -74.2255663,40.7122556,0 -74.225193,40.7125908,0 -74.22481519999999,40.7129301,0 -74.2246289,40.7130943,0 -74.22443509999999,40.7132601,0 -74.22423980000001,40.7134192,0 -74.2240343,40.7135801,0 -74.223832,40.713732,0 -74.22361859999999,40.7138852,0 -74.2234057,40.7140318,0 -74.223187,40.7141736,0 -74.2229614,40.7143127,0 -74.222719,40.7144581,0 -74.2225026,40.7145795,0 -74.2222661,40.7147065,0 -74.2220282,40.7148297,0 -74.22178169999999,40.7149499,0 -74.2215357,40.7150623,0 -74.2212849,40.7151729,0 -74.22102940000001,40.7152785,0 -74.2208792,40.7153382,0 -74.220512,40.7154768,0 -74.2202554,40.7155687,0 -74.21998929999999,40.7156572,0 -74.2197197,40.7157422,0 -74.2194506,40.715821,0 -74.2191806,40.7158968,0 -74.21890759999999,40.7159675,0 -74.2186335,40.7160343,0 -74.2183567,40.7160986,0 -74.21807630000001,40.7161565,0 -74.2177959,40.7162131,0 -74.21751810000001,40.7162623,0 -74.21723160000001,40.7163084,0 -74.21695200000001,40.7163497,0 -74.2166644,40.7163885,0 -74.2163748,40.7164223,0 -74.2160902,40.7164504,0 -74.2158041,40.7164753,0 -74.21552029999999,40.7164949,0 -74.2152203,40.716511,0 -74.2149364,40.7165213,0 -74.2146487,40.7165272,0 -74.21436009999999,40.7165298,0 -74.21407000000001,40.7165303,0 -74.2137841,40.7165272,0 -74.2134926,40.7165189,0 -74.21320230000001,40.7165089,0 -74.2129118,40.7164959,0 -74.2126279,40.7164798,0 -74.2123369,40.7164613,0 -74.2120494,40.7164393,0 -74.21176060000001,40.7164144,0 -74.21147499999999,40.7163864,0 -74.2111874,40.7163553,0 -74.210894,40.7163218,0 -74.2106118,40.7162864,0 -74.2103242,40.7162479,0 -74.2100404,40.7162052,0 -74.2097579,40.716161,0 -74.2094811,40.716114,0 -74.2091947,40.7160618,0 -74.20891229999999,40.716008,0 -74.2086295,40.7159505,0 -74.2083547,40.7158929,0 -74.2080729,40.7158289,0 -74.2078102,40.7157694,0 -74.20751989999999,40.7156985,0 -74.2072462,40.7156272,0 -74.20696890000001,40.7155524,0 -74.2066947,40.7154743,0 -74.20642839999999,40.7153963,0 -74.2061559,40.7153136,0 -74.2058905,40.71523,0 -74.20562169999999,40.7151422,0 -74.20535959999999,40.7150524,0 -74.2050912,40.7149587,0 -74.2048336,40.7148639,0 -74.2045816,40.7147674,0 -74.2043165,40.714664,0 -74.2040599,40.7145611,0 -74.203811,40.7144583,0 -74.2034836,40.7143177,0 -74.2033047,40.7142358,0 -74.2030594,40.7141244,0 -74.20281199999999,40.7140062,0 -74.20256639999999,40.7138877,0 -74.2023265,40.7137684,0 -74.20208049999999,40.7136459,0 -74.2018403,40.7135253,0 -74.201601,40.7134025,0 -74.2013638,40.7132786,0 -74.2011248,40.7131536,0 -74.200886,40.7130275,0 -74.20064790000001,40.7129,0 -74.2004148,40.7127737,0 -74.2001825,40.7126448,0 -74.1999438,40.7125132,0 -74.19843659999999,40.7116723,0 -74.1981924,40.7115381,0 -74.197881,40.7113658,0 -74.19659420000001,40.7106465,0 -74.196433,40.7105571,0 -74.1962889,40.7104786,0 -74.1962303,40.7104467,0 -74.1960098,40.7103274,0 -74.195779,40.7102051,0 -74.1955377,40.7100806,0 -74.1952723,40.7099511,0 -74.1951565,40.7098953,0 -74.1950358,40.7098386,0 -74.1949104,40.7097808,0 -74.1947895,40.7097254,0 -74.1946657,40.7096703,0 -74.19441070000001,40.7095635,0 -74.193904,40.7093618,0 -74.19376010000001,40.7093082,0 -74.19363370000001,40.7092626,0 -74.19348909999999,40.7092115,0 -74.1932376,40.7091268,0 -74.1929779,40.709043,0 -74.1927077,40.708961,0 -74.19243899999999,40.7088835,0 -74.1923,40.7088467,0 -74.19205909999999,40.708788,0 -74.1917456,40.7087196,0 -74.1914764,40.7086708,0 -74.1911879,40.7086242,0 -74.1907696,40.708569,0 -74.1904457,40.708537,0 -74.19019609999999,40.7085187,0 -74.1899071,40.7085033,0 -74.1896187,40.7084944,0 -74.1893338,40.7084903,0 -74.189047,40.7084927,0 -74.1887579,40.7085022,0 -74.18847289999999,40.7085171,0 -74.1881868,40.7085383,0 -74.1879007,40.7085651,0 -74.18761859999999,40.7085991,0 -74.1873329,40.708639,0 -74.1871987,40.7086623,0 -74.18705660000001,40.7086857,0 -74.1869183,40.7087106,0 -74.1867787,40.7087368,0 -74.18663770000001,40.7087652,0 -74.1864994,40.7087943,0 -74.18636119999999,40.7088259,0 -74.1862162,40.7088599,0 -74.1859414,40.708929,0 -74.18567349999999,40.709004,0 -74.1854044,40.7090813,0 -74.185135,40.7091603,0 -74.1839331,40.7095201,0 -74.1825913,40.7099219,0 -74.18178399999999,40.7101606,0 -74.18151570000001,40.7102315,0 -74.1813813,40.7102665,0 -74.18087199999999,40.7103896,0 -74.180604,40.7104474,0 -74.1803295,40.7105041,0 -74.1800587,40.7105555,0 -74.1797852,40.7106013,0 -74.1795142,40.7106429,0 -74.1792377,40.7106827,0 -74.17896039999999,40.7107186,0 -74.1786836,40.7107496,0 -74.17840510000001,40.7107758,0 -74.1781277,40.7107986,0 -74.1778448,40.7108171,0 -74.1775664,40.7108346,0 -74.17729060000001,40.7108482,0 -74.1770114,40.7108601,0 -74.17645400000001,40.7108812,0 -74.17589630000001,40.7108997,0 -74.175335,40.7109145,0 -74.1747817,40.7109247,0 -74.17450169999999,40.7109289,0 -74.1742138,40.710934,0 -74.17394400000001,40.7109363,0 -74.1732409,40.710939,0 -74.17296090000001,40.7109382,0 -74.1726791,40.7109373,0 -74.1724047,40.710936,0 -74.1721208,40.7109335,0 -74.171846,40.7109297,0 -74.1715651,40.710926,0 -74.1712838,40.7109216,0 -74.170951,40.7109137,0 -74.17066989999999,40.710907,0 -74.1703632,40.7108979,0 -74.1700977,40.7108903,0 -74.16979859999999,40.71088,0 -74.1695113,40.7108692,0 -74.169258,40.7108583,0 -74.1689652,40.7108446,0 -74.16880449999999,40.7108359,0 -74.1686593,40.7108275,0 -74.1671,40.710728,0 -74.16597489999999,40.7106487,0 -74.1658161,40.7106338,0 -74.16541719999999,40.710604,0 -74.1651363,40.7105799,0 -74.16486279999999,40.710554,0 -74.1645872,40.7105259,0 -74.1642918,40.710491,0 -74.16399939999999,40.7104554,0 -74.1637293,40.7104188,0 -74.1634514,40.710379,0 -74.1631616,40.7103341,0 -74.16285929999999,40.7102833,0 -74.1625717,40.7102299,0 -74.1622854,40.7101749,0 -74.162014,40.7101174,0 -74.1617425,40.7100535,0 -74.1614757,40.7099866,0 -74.16117989999999,40.7099088,0 -74.1609095,40.7098337,0 -74.16062290000001,40.7097465,0 -74.16035479999999,40.7096604,0 -74.1600521,40.7095589,0 -74.1599463,40.7095226,0 -74.15983660000001,40.7094838,0 -74.15971260000001,40.7094396,0 -74.15958500000001,40.7093923,0 -74.1594551,40.7093416,0 -74.1593276,40.7092928,0 -74.1591901,40.7092378,0 -74.1590686,40.7091868,0 -74.1589456,40.7091344,0 -74.15882449999999,40.7090816,0 -74.1581413,40.7086673,0 -74.1579656,40.7085801,0 -74.1577776,40.7084943,0 
				
					-74.1576245,40.70844,0 -74.15749219999999,40.7084017,0 -74.1574404,40.7083908,0 -74.157394,40.7083841,0 -74.15715369999999,40.7083618,0 -74.15710350000001,40.7083547,0 -74.1570518,40.7083436,0 -74.1565478,40.708184,0 -74.1564968,40.7081674,0 -74.1564458,40.7081509,0 -74.1560977,40.7080344,0 -74.155641,40.7078815,0 -74.1550761,40.7076668,0 -74.1542192,40.7073721,0 -74.15404820000001,40.7073133,0 -74.153064,40.7069804,0 -74.1528055,40.7068904,0 -74.15254,40.7068029,0 -74.15117720000001,40.7063361,0 -74.15006219999999,40.7059561,0 -74.14978739999999,40.7058212,0 -74.1494695,40.7056966,0 -74.1489399,40.7055122,0 -74.1484971,40.7053485,0 -74.1480785,40.7051883,0 -74.14768050000001,40.7050331,0 -74.1476292,40.7050121,0 -74.1471234,40.7048053,0 -74.1464294,40.7045019,0 -74.1457418,40.7041838,0 -74.1450542,40.7038526,0 -74.1446157,40.7036374,0 -74.1443565,40.7034962,0 -74.14404879999999,40.703358,0 -74.1437341,40.7032198,0 -74.1434184,40.703089,0 -74.14311240000001,40.7029657,0 -74.1427923,40.7028452,0 -74.1424657,40.7027308,0 -74.1399167,40.7018503,0 -74.1394004,40.7016789,0 -74.13891409999999,40.7015167,0 -74.1384012,40.7013568,0 -74.1379024,40.701203,0 -74.13734239999999,40.7010342,0 -74.13044530000001,40.6989271,0 -74.1290022,40.6984895,0 -74.1280488,40.6982028,0 -74.1270957,40.6979165,0 -74.1248008,40.6972339,0 -74.12366179999999,40.6968951,0 -74.10547149999999,40.6913315,0 -74.10511870000001,40.6912163,0 -74.1047325,40.691082,0 -74.1044321,40.6909641,0 -74.1040673,40.6908004,0 -74.10379639999999,40.6906753,0 -74.1034598,40.6905065,0 -74.1030267,40.6902543,0 -74.1025787,40.6899614,0 -74.1022816,40.6897419,0 -74.10209709999999,40.6895885,0 -74.10174790000001,40.6892982,0 -74.1009265,40.6885998,0 -74.1006502,40.6883897,0 -74.1004044,40.6882213,0 -74.0993345,40.6873439,0 -74.0989074,40.6870099,0 -74.0987016,40.6868659,0 -74.0984521,40.6867165,0 -74.09818919999999,40.6865721,0 -74.09790219999999,40.6864379,0 -74.0976045,40.6863147,0 -74.09721690000001,40.6861846,0 -74.0967732,40.686067,0 -74.096395,40.6859872,0 -74.0959867,40.6859233,0 -74.0956372,40.6858849,0 -74.095246,40.6858642,0 -74.09483539999999,40.685859,0 -74.0944087,40.6858756,0 -74.09400309999999,40.6859118,0 -74.09359120000001,40.6859725,0 -74.09320289999999,40.6860467,0 -74.0927511,40.6861407,0 -74.0923105,40.6862549,0 -74.0918765,40.6863809,0 -74.09144070000001,40.6865267,0 -74.0910617,40.6866683,0 -74.0907196,40.6868015,0 -74.0903923,40.68694,0 -74.0900408,40.6870897,0 -74.0897234,40.6872424,0 -74.0893793,40.6874122,0 -74.0890496,40.6875846,0 -74.08864459999999,40.6878198,0 -74.08826910000001,40.6880476,0 -74.08783990000001,40.6883242,0 -74.0874644,40.6885845,0 -74.0870836,40.6888733,0 -74.08666940000001,40.6892098,0 -74.0866139,40.6892576,0 -74.08649939999999,40.6893572,0 -74.0863781,40.6894662,0 -74.08612650000001,40.6897023,0 -74.08601539999999,40.6898108,0 -74.0859055,40.6899191,0 -74.0854693,40.6903503,0 -74.08333829999999,40.6924567,0 -74.0822776,40.6935052,0 -74.0818917,40.6938864,0 -74.08104659999999,40.6947188,0 -74.0809373,40.6948257,0 -74.0808272,40.6949331,0 -74.0807154,40.695041,0 -74.08060570000001,40.6951442,0 -74.0804916,40.6952496,0 -74.08037590000001,40.6953549,0 -74.0802618,40.6954552,0 -74.0801373,40.6955603,0 -74.08001830000001,40.6956593,0 -74.0798939,40.69576,0 -74.0797697,40.6958579,0 -74.0796443,40.6959544,0 -74.0795146,40.6960517,0 -74.07938489999999,40.6961473,0 -74.0792538,40.6962414,0 -74.07912399999999,40.6963322,0 -74.0789896,40.6964231,0 -74.07885280000001,40.696514,0 -74.0787151,40.6966022,0 -74.07857919999999,40.6966885,0 -74.0784403,40.6967741,0 -74.0782961,40.6968602,0 -74.07815600000001,40.6969421,0 -74.0780151,40.6970223,0 -74.0778681,40.6971038,0 -74.077724,40.6971815,0 -74.0775726,40.6972606,0 -74.0774262,40.6973352,0 -74.07728779999999,40.6974043,0 -74.07714180000001,40.6974761,0 -74.07697469999999,40.6975552,0 -74.07682869999999,40.6976219,0 -74.07667739999999,40.6976894,0 -74.07652419999999,40.6977556,0 -74.07636770000001,40.6978218,0 -74.0762131,40.6978851,0 -74.0760598,40.6979462,0 -74.0758989,40.6980082,0 -74.07574270000001,40.6980677,0 -74.075582,40.6981262,0 -74.0754254,40.6981823,0 -74.07526110000001,40.6982374,0 -74.0750925,40.6982922,0 -74.074927,40.6983458,0 -74.0747533,40.6983983,0 -74.0745852,40.6984478,0 -74.07271,40.6989995,0 -74.07253679999999,40.6990509,0 -74.0723708,40.6991014,0 -74.0722009,40.6991563,0 -74.07203010000001,40.6992137,0 -74.0718679,40.69927,0 -74.0716977,40.6993307,0 -74.0715359,40.6993909,0 -74.07134929999999,40.6994643,0 -74.0712012,40.6995236,0 -74.07105199999999,40.6995859,0 -74.07089360000001,40.6996554,0 -74.0707415,40.6997228,0 -74.0705841,40.6997943,0 -74.0704312,40.6998672,0 -74.07028990000001,40.6999365,0 -74.07013379999999,40.7000143,0 -74.0700325,40.700066,0 -74.069976,40.7000955,0 -74.06982120000001,40.700178,0 -74.0696705,40.7002613,0 -74.0695193,40.7003494,0 -74.0693746,40.700436,0 -74.0692284,40.7005244,0 -74.0690748,40.7006201,0 -74.0689343,40.7007097,0 -74.06878759999999,40.7008076,0 -74.06865500000001,40.700899,0 -74.0685321,40.7009882,0 -74.06837830000001,40.7010995,0 -74.0682446,40.7012011,0 -74.06811039999999,40.7013057,0 -74.0680006,40.7013931,0 -74.0678784,40.7014942,0 -74.0677577,40.7015955,0 -74.0676433,40.7016947,0 -74.06752969999999,40.7017971,0 -74.06741529999999,40.7019006,0 -74.06730399999999,40.7020047,0 -74.06719630000001,40.7021086,0 -74.06708260000001,40.7022214,0 -74.0669808,40.7023237,0 -74.0666832,40.7026297,0 -74.0663594,40.7029575,0 -74.0659758,40.7033487,0 -74.06579979999999,40.7035282,0 -74.0656056,40.7037566,0 -74.0653962,40.7039692,0 -74.065293,40.7040703,0 -74.0651838,40.7041704,0 -74.065071,40.7042732,0 -74.0649612,40.7043584,0 -74.06490410000001,40.7044005,0 -74.0646529,40.7045927,0 -74.0645358,40.7046823,0 -74.0644027,40.7047837,0 -74.0642723,40.7048771,0 -74.0641474,40.7049629,0 -74.0640358,40.7050352,0 -74.0639017,40.7051154,0 -74.06375509999999,40.7051966,0 -74.06359089999999,40.705285,0 -74.06292999999999,40.7056593,0 -74.0626766,40.7057977,0 -74.0625436,40.7058668,0 -74.0619143,40.7061936,0 -74.0618741,40.7062142,0 -74.0618262,40.7062387,0 -74.0616794,40.7063137,0 -74.0615615,40.7063744,0 -74.0613925,40.7064602,0 -74.06117930000001,40.7065863,0 -74.0607641,40.7068437,0 -74.0604246,40.7070541,0 -74.0602481,40.707158,0 -74.06011839999999,40.7072295,0 -74.05998219999999,40.7072987,0 -74.05964710000001,40.7074686,0 -74.0589578,40.7078134,0 -74.0568911,40.7088482,0 -74.05674089999999,40.7089248,0 -74.0565909,40.7090006,0 -74.056445,40.7090777,0 -74.0562991,40.7091581,0 -74.05615109999999,40.7092421,0 -74.0560105,40.7093282,0 -74.05587370000001,40.7094179,0 -74.0557404,40.7095132,0 -74.0556148,40.7096092,0 -74.05548159999999,40.7097195,0 -74.05537529999999,40.7098138,0 -74.0552618,40.7099224,0 -74.05515250000001,40.7100321,0 -74.05504790000001,40.7101479,0 -74.05495070000001,40.7102686,0 -74.0548649,40.7103848,0 -74.0547804,40.710509,0 -74.0547021,40.7106339,0 -74.0546325,40.710758,0 -74.0545668,40.7108885,0 -74.05450740000001,40.7110176,0 -74.054451,40.7111496,0 -74.05440129999999,40.711281,0 -74.0543545,40.711416,0 -74.05431299999999,40.7115489,0 -74.054276,40.7116836,0 -74.0542442,40.7118182,0 -74.0542162,40.7119544,0 -74.05419379999999,40.7120904,0 -74.0541753,40.7122307,0 -74.0541642,40.7123672,0 -74.0541569,40.7125035,0 -74.0541577,40.7126401,0 -74.0541655,40.7127801,0 -74.0541806,40.7129173,0 -74.0542052,40.7130541,0 -74.0542358,40.71319,0 -74.05427450000001,40.7133283,0 -74.0543184,40.7134592,0 -74.0543698,40.7135906,0 -74.0544285,40.7137214,0 -74.05449179999999,40.7138517,0 -74.0545585,40.7139796,0 -74.0546281,40.7141066,0 -74.0547,40.7142362,0 -74.054982,40.7147406,0 -74.0553371,40.7153673,0 -74.0554088,40.7154949,0 -74.05547799999999,40.7156233,0 -74.0555451,40.7157523,0 -74.05560680000001,40.7158785,0 -74.0556649,40.7160075,0 -74.0557295,40.7161688,0 -74.05577580000001,40.7163012,0 -74.0558171,40.7164334,0 -74.0558539,40.7165684,0 -74.05588400000001,40.7167041,0 -74.0559097,40.7168395,0 -74.0559257,40.7169725,0 -74.0559387,40.7171118,0 -74.0559482,40.7172482,0 -74.05595030000001,40.7173855,0 -74.05594929999999,40.7175197,0 -74.0559456,40.7176596,0 -74.0559368,40.7177961,0 -74.05592489999999,40.7179329,0 -74.0559102,40.718062,0 -74.0558924,40.7182039,0 -74.0558717,40.7183402,0 -74.0558472,40.7184756,0 -74.0558194,40.7186145,0 -74.0557908,40.7187471,0 -74.0557586,40.7188827,0 -74.0557237,40.7190169,0 -74.0556862,40.7191509,0 -74.05564769999999,40.719282,0 -74.05560490000001,40.7194188,0 -74.05555990000001,40.7195509,0 -74.0555131,40.7196817,0 -74.05365159999999,40.7249775,0 -74.0533207,40.7259379,0 -74.05234710000001,40.7287063,0 -74.0523002,40.7288339,0 -74.05224389999999,40.7289788,0 -74.0521882,40.7291113,0 -74.0521418,40.7292153,0 -74.05208159999999,40.7293393,0 -74.0520164,40.7294617,0 -74.0519455,40.7295869,0 -74.0518848,40.7296915,0 -74.051828,40.7297822,0 -74.0517662,40.7298758,0 -74.05170680000001,40.7299604,0 -74.0516403,40.7300446,0 -74.05156909999999,40.7301257,0 -74.0515204,40.7301789,0 -74.05146360000001,40.7302372,0 -74.05140729999999,40.7302909,0 -74.05134769999999,40.7303427,0 -74.05128620000001,40.7303928,0 -74.0512226,40.7304423,0 -74.0511549,40.7304898,0 -74.0510786,40.7305366,0 -74.0510034,40.7305769,0 -74.0509327,40.7306121,0 -74.05085339999999,40.7306493,0 -74.0507755,40.7306809,0 -74.0506883,40.7307119,0 -74.0506036,40.7307375,0 -74.05051829999999,40.7307621,0 -74.05042899999999,40.7307846,0 -74.0503377,40.7308039,0 -74.05025500000001,40.7308192,0 -74.05016209999999,40.7308345,0 -74.0500725,40.7308456,0 -74.0499676,40.7308562,0 -74.0498659,40.7308628,0 -74.0497738,40.7308673,0 -74.04968770000001,40.730869,0 -74.0495907,40.7308692,0 -74.04950650000001,40.7308673,0 -74.0481144,40.7308223,0 -74.04800059999999,40.7308157,0 -74.0478676,40.7308055,0 -74.0462208,40.7306577,0 -74.0457329,40.7306148,0 -74.0456312,40.7306035,0 -74.04554,40.7305932,0 -74.0454407,40.7305783,0 -74.0452263,40.7305441,0 -74.04511890000001,40.7305298,0 -74.0450154,40.7305182,0 -74.04462169999999,40.7304767,0 -74.0444876,40.7304651,0 -74.0444061,40.730458,0 -74.043953,40.7304189,0 -74.0437945,40.7304055,0 -74.0436368,40.7303922,0 -74.0431662,40.7303493,0 -74.0430702,40.7303418,0 -74.04298540000001,40.7303341,0 -74.04288080000001,40.7303255,0 -74.04274909999999,40.7303141,0 -74.04267369999999,40.7303075,0 -74.0423481,40.7302793,0 -74.0422796,40.7302733,0 -74.0421279,40.7302601,0 -74.0419201,40.7302414,0 -74.0416163,40.7302116,0 -74.0415732,40.7302077,0 -74.0414432,40.7301928,0 -74.0413315,40.73018,0 -74.0412098,40.730167,0 -74.0410406,40.7301478,0 -74.0407002,40.7301214,0 -74.0403427,40.7300898,0 -74.0398015,40.7300418,0 -74.0396677,40.7300299,0 -74.03859249999999,40.7299458,0 -74.03797040000001,40.7298913,0 -74.0369673,40.7298049,0 -74.0367183,40.7297943,0 -74.03663899999999,40.7297875,0 -74.0365516,40.7297793,0 -74.0364696,40.7297705,0 -74.0363816,40.7297592,0 -74.0362951,40.7297461,0 -74.03621680000001,40.7297326,0 -74.0361328,40.7297163,0 -74.0360486,40.7296979,0 -74.0330021,40.729003,0 -74.03221050000001,40.7288225,0 -74.0320852,40.7288027,0 -74.03194310000001,40.7287836,0 -74.0318255,40.7287694,0 -74.0316936,40.7287572,0 -74.0265926,40.7283157,0 -74.0264754,40.7283052,0 -74.02633950000001,40.7282885,0 -74.02620279999999,40.7282691,0 -74.0236975,40.7278632,0 -74.02134700000001,40.7274823,0 
				
					-74.02134700000001,40.7274823,0 -74.01576009999999,40.7265353,0 -74.01558300000001,40.7265066,0 -74.0154142,40.7264836,0 -74.01527299999999,40.7264672,0 -74.0128314,40.7262502,0 -74.012511,40.7262085,0 -74.0123079,40.7261769,0 -74.0120648,40.7261264,0 -74.0117924,40.7260582,0 -74.0115603,40.7259919,0 -74.0113855,40.7259423,0 -74.0112006,40.7258765,0 -74.01103569999999,40.7258216,0 -74.01084520000001,40.7257373,0 -74.0106577,40.7256244,0 -74.0105239,40.7255298,0 -74.01034610000001,40.7254018,0 -74.00812380000001,40.7237331,0 -74.0080731,40.7236915,0 -74.0080234,40.7236424,0 -74.00798140000001,40.7235912,0 -74.0079164,40.7235089,0 -74.0078699,40.723456,0 -74.00782150000001,40.7234116,0 -74.0077737,40.7233722,0 -74.0077307,40.7233407,0 -74.00669980000001,40.7226062,0 -74.0066545,40.7225695,0 -74.00661719999999,40.7225355,0 -74.0065926,40.7225091,0 -74.0065752,40.7224917,0 -74.0065515,40.7224462,0 -74.00653730000001,40.7224157,0 -74.0065252,40.7223792,0 -74.0065142,40.7223218,0 -74.0065082,40.7222655,0 -74.0065056,40.7222089,0 -74.0065082,40.72216,0 -74.0065135,40.7221085,0 -74.0065255,40.722055,0 -74.0065419,40.721998,0 -74.0065638,40.7219453,0 -74.0065913,40.7218938,0 -74.00659709999999,40.7218854,0 -74.0066224,40.7218484,0 -74.00666080000001,40.7218072,0 -74.00671610000001,40.7217593,0 -74.00676679999999,40.7217241,0 -74.0068309,40.7216914,0 -74.0068965,40.7216642,0 -74.0069544,40.7216444,0 -74.0070259,40.7216296,0 -74.0070953,40.7216216,0 -74.00717160000001,40.7216172,0 -74.00731519999999,40.7216171,0 -74.0074637,40.7216178,0 -74.0075326,40.7216126,0 -74.00759859999999,40.721604,0 -74.0076552,40.7215909,0 -74.0077059,40.7215742,0 -74.0077582,40.7215516,0 -74.00780260000001,40.7215274,0 -74.00784710000001,40.7214979,0 -74.0078807,40.7214697,0 -74.007912,40.7214384,0 -74.0079363,40.721408,0 -74.00795460000001,40.7213785,0 -74.00797230000001,40.721345,0 -74.0079862,40.7213081,0 -74.0079952,40.7212674,0 -74.00799859999999,40.721233,0 -74.0079995,40.7211998,0 -74.0079922,40.7211577,0 -74.0079848,40.7211232,0 -74.0079728,40.721087,0 -74.00795460000001,40.7210523,0 -74.0079314,40.7210184,0 -74.007907,40.7209892,0 -74.0078662,40.7209496,0 -74.0078146,40.7209099,0 -74.0077536,40.7208779,0 -74.0076856,40.7208506,0 -74.0076226,40.7208328,0 -74.0075453,40.7208183,0 -74.0074728,40.7208155,0 -74.0073996,40.7208203,0 -74.0073328,40.7208289,0 -74.0072663,40.720846,0 -74.00720250000001,40.72087,0 -74.0071434,40.720903,0 -74.007093,40.7209379,0 -74.00704639999999,40.7209789,0 -74.0070113,40.7210224,0 -74.00698130000001,40.721072,0 -74.00695589999999,40.721125,0 -74.00693750000001,40.721173,0 -74.0069168,40.7212295,0 
				</coordinates>
			</LineString>
		<atom:link rel="app" href="https://www.google.com/earth/about/versions/#earth-pro" title="Google Earth Pro 7.3.6.10201"></atom:link>
	</Placemark>
</Document>
</kml>
