<?xml version="1.0" encoding="UTF-8"?>
<kml xmlns="http://www.opengis.net/kml/2.2" xmlns:gx="http://www.google.com/kml/ext/2.2" xmlns:kml="http://www.opengis.net/kml/2.2" xmlns:atom="http://www.w3.org/2005/Atom">
<Document>
	<name>I.787.kml</name>
	<Placemark>
		<name>I.787</name>
		<LineString>
			<coordinates>
				-73.7788465,42.633371,0 -73.77846460000001,42.6332976,0 -73.777871,42.6331904,0 -73.7774842,42.6331185,0 -73.77721529999999,42.6330673,0 -73.7769127,42.6330083,0 -73.7764648,42.6329261,0 -73.77488940000001,42.6326293,0 -73.7747147,42.6325989,0 -73.7745437,42.6325701,0 -73.7743663,42.6325466,0 -73.7741888,42.6325294,0 -73.7740192,42.6325212,0 -73.7738473,42.63252,0 -73.77367479999999,42.6325248,0 -73.7735216,42.6325363,0 -73.7733509,42.6325567,0 -73.772413,42.6326788,0 -73.7714043,42.6328432,0 -73.7712544,42.6328666,0 -73.7711032,42.632888,0 -73.7709698,42.6329028,0 -73.77082660000001,42.6329151,0 -73.77067289999999,42.6329244,0 -73.77052519999999,42.6329307,0 -73.77037300000001,42.6329323,0 -73.7702278,42.6329305,0 -73.7700758,42.6329237,0 -73.7688364,42.6328555,0 -73.7673527,42.6327062,0 -73.76713119999999,42.6326872,0 -73.7669061,42.6326711,0 -73.766682,42.6326595,0 -73.766464,42.6326544,0 -73.76622930000001,42.6326556,0 -73.7660065,42.6326665,0 -73.76578170000001,42.6326865,0 -73.7655618,42.6327125,0 -73.76534599999999,42.6327492,0 -73.76511480000001,42.6328002,0 -73.76487849999999,42.6328605,0 -73.7646537,42.6329268,0 -73.76441459999999,42.6330103,0 -73.7642219,42.6330877,0 -73.7640214,42.6331793,0 -73.7638145,42.633285,0 -73.7634498,42.6334845,0 -73.76310049999999,42.6336751,0 -73.76273430000001,42.6338705,0 -73.7623705,42.6340648,0 -73.75621510000001,42.6373331,0 -73.7559528,42.6374724,0 -73.7556957,42.6376138,0 -73.7554499,42.6377547,0 -73.7551928,42.6379082,0 -73.7549386,42.6380674,0 -73.75471640000001,42.6382151,0 -73.75448780000001,42.6383762,0 -73.7542469,42.6385524,0 -73.75400759999999,42.6387309,0 -73.75385780000001,42.6388507,0 -73.75369070000001,42.638989,0 -73.7535211,42.6391377,0 -73.7533761,42.6392709,0 -73.75324070000001,42.6394012,0 -73.7531044,42.6395409,0 -73.75298770000001,42.6396783,0 -73.7528741,42.6398172,0 -73.75276700000001,42.6399605,0 -73.7526761,42.6401006,0 -73.75255919999999,42.640306,0 -73.75241250000001,42.6405779,0 -73.7522276,42.6409204,0 -73.7515932,42.6421361,0 -73.751434,42.6424163,0 -73.75134749999999,42.6425617,0 -73.7512392,42.6427335,0 -73.75116389999999,42.642843,0 -73.7510789,42.6429621,0 -73.7509549,42.6431224,0 -73.75087670000001,42.6432172,0 -73.7508012,42.6433107,0 -73.7506427,42.6435089,0 -73.7499838,42.6443417,0 -73.7497477,42.6446389,0 -73.7495876,42.6448386,0 -73.74945649999999,42.6450289,0 -73.749329,42.6452251,0 -73.7492116,42.6454219,0 -73.7490985,42.6456358,0 -73.74899069999999,42.645862,0 -73.7488919,42.6461016,0 -73.7488149,42.6463064,0 -73.7487577,42.6464812,0 -73.7486983,42.6466899,0 -73.7486517,42.6468953,0 -73.7486291,42.6470122,0 -73.7486109,42.6471258,0 -73.748513,42.6478041,0 -73.7484589,42.6482106,0 -73.7484279,42.6484328,0 -73.7483921,42.648648,0 -73.7483508,42.6488629,0 -73.7483033,42.6490836,0 -73.748249,42.6493004,0 -73.7481908,42.6495134,0 -73.7481193,42.6497293,0 -73.74805670000001,42.6499381,0 -73.7479757,42.6501487,0 -73.7478948,42.6503619,0 -73.74780149999999,42.6505759,0 -73.7477444,42.6507054,0 -73.74766750000001,42.6508692,0 -73.7475555,42.651081,0 -73.7474186,42.6513374,0 -73.74727129999999,42.6515868,0 -73.74718,42.6517296,0 -73.7470811,42.6518896,0 -73.74695060000001,42.6520976,0 -73.74680410000001,42.6523167,0 -73.7466481,42.6525459,0 -73.7464916,42.6527538,0 -73.7462958,42.6530223,0 -73.7460765,42.6533038,0 -73.74584900000001,42.6535934,0 -73.74560099999999,42.6538935,0 -73.7453603,42.6541777,0 -73.74519909999999,42.6543562,0 -73.74503350000001,42.6545348,0 -73.7448625,42.6547069,0 -73.7446813,42.6548714,0 -73.7445022,42.6550518,0 -73.7443799,42.6551624,0 -73.7442538,42.6552718,0 -73.7441061,42.6553953,0 -73.7439292,42.6555372,0 -73.74368029999999,42.6557351,0 -73.7433942,42.6559578,0 -73.7426056,42.6565496,0 -73.7415151,42.6573928,0 -73.74038609999999,42.6582765,0 -73.74006749999999,42.6585293,0 -73.73976879999999,42.6587727,0 -73.7394706,42.6590259,0 -73.7391909,42.6592745,0 -73.7389179,42.6595275,0 -73.7386391,42.6597968,0 -73.738499,42.6599371,0 -73.738361,42.6600785,0 -73.73812719999999,42.6603253,0 -73.7378822,42.6605914,0 -73.7374459,42.6611285,0 -73.7372123,42.6614413,0 -73.73697869999999,42.6617585,0 -73.73677309999999,42.6620462,0 -73.73656920000001,42.6623354,0 -73.7363703,42.6626375,0 -73.73618279999999,42.6629288,0 -73.7358662,42.6634286,0 -73.73498910000001,42.6648133,0 -73.734863,42.6650106,0 -73.7347352,42.6652061,0 -73.7346034,42.6654026,0 -73.7344691,42.6655955,0 -73.73433060000001,42.6657873,0 -73.73418580000001,42.6659809,0 -73.7340382,42.6661704,0 -73.73388610000001,42.6663595,0 -73.7337321,42.6665479,0 -73.73357609999999,42.6667327,0 -73.7334149,42.666918,0 -73.7332467,42.6671045,0 -73.7330801,42.667282,0 -73.73291020000001,42.6674583,0 -73.73273260000001,42.667637,0 -73.73255229999999,42.6678121,0 -73.7323725,42.667984,0 -73.73218869999999,42.66816,0 -73.7280918,42.6720313,0 -73.72752970000001,42.6725409,0 -73.72725389999999,42.6728019,0 -73.72699160000001,42.6730675,0 -73.7267384,42.6733415,0 -73.7265,42.6736159,0 -73.72627060000001,42.6738966,0 -73.7260565,42.6741895,0 -73.7258653,42.6744788,0 -73.72567890000001,42.6747826,0 -73.72551060000001,42.6750859,0 -73.72536049999999,42.6753907,0 -73.7252206,42.6757067,0 -73.725049,42.6761218,0 -73.7248329,42.6766443,0 -73.7246403,42.6771101,0 -73.7235329,42.6797881,0 -73.7234021,42.6801007,0 -73.72326529999999,42.6804092,0 -73.7231163,42.680719,0 -73.7229609,42.6810297,0 -73.72279469999999,42.6813336,0 -73.72262139999999,42.6816355,0 -73.7224425,42.6819289,0 -73.7222491,42.6822293,0 -73.7220504,42.682522,0 -73.7218546,42.682794,0 -73.7216306,42.6830948,0 -73.72141019999999,42.6833779,0 -73.7211743,42.68366,0 -73.7209366,42.6839371,0 -73.72069209999999,42.6842062,0 -73.72043840000001,42.6844719,0 -73.7201761,42.6847352,0 -73.71990599999999,42.6850019,0 -73.7196345,42.6852548,0 -73.71934950000001,42.6855089,0 -73.71672649999999,42.6877119,0 -73.71559139999999,42.6886952,0 -73.7151136,42.6891091,0 -73.7145866,42.6895571,0 -73.7129805,42.6909224,0 -73.71263930000001,42.6912125,0 -73.7123509,42.6914605,0 -73.71206669999999,42.6917148,0 -73.71178829999999,42.69197,0 -73.7115257,42.6922308,0 -73.7112683,42.6924998,0 -73.7110272,42.6927751,0 -73.71079640000001,42.693055,0 -73.7105755,42.6933458,0 -73.71037149999999,42.6936329,0 -73.7101784,42.6939306,0 -73.7100015,42.6942285,0 -73.70983150000001,42.6945366,0 -73.7096774,42.6948441,0 -73.7095372,42.6951505,0 -73.7094087,42.6954618,0 -73.70929390000001,42.695782,0 -73.70919050000001,42.6961022,0 -73.7090925,42.6964225,0 -73.7081038,42.6998398,0 -73.70781289999999,42.7008452,0 -73.7064386,42.7055948,0 -73.705158,42.7100203,0 -73.7043199,42.7129163,0 -73.7042216,42.7132444,0 -73.70412210000001,42.7135636,0 -73.7040179,42.7138795,0 -73.703902,42.7141956,0 -73.7037765,42.7145197,0 -73.70364189999999,42.7148362,0 -73.7035032,42.7151481,0 -73.7029359,42.7163983,0 -73.70279619999999,42.7167166,0 -73.70266100000001,42.7170342,0 -73.7025326,42.7173467,0 -73.7024064,42.7176675,0 -73.6997928,42.7245575,0 -73.699675,42.724882,0 -73.69958889999999,42.725155,0 -73.6995178,42.725424,0 -73.6994675,42.7257025,0 -73.6994341,42.7259716,0 -73.6994206,42.7262545,0 -73.6994234,42.7265297,0 -73.6994725,42.7275176,0 -73.6994815,42.7277953,0 -73.6994412,42.7282596,0 -73.6994132,42.7284784,0 -73.6993731,42.7287077,0 -73.6992688,42.7291574,0 -73.6991992,42.7293664,0 -73.6991151,42.7295829,0 -73.6984875,42.731155,0 -73.69840120000001,42.7313731,0 -73.6983297,42.7315801,0 -73.69826089999999,42.7318028,0 -73.698206,42.7320204,0 -73.698166,42.7322326,0 -73.69814,42.7324261,0 -73.6981256,42.7326082,0 -73.69811970000001,42.7327967,0 -73.6981227,42.7330293,0 -73.6981389,42.7332532,0 -73.69816369999999,42.7334733,0 -73.6982014,42.7336923,0 -73.69825160000001,42.733912,0 -73.6983072,42.7341223,0 -73.6983759,42.734343,0 -73.6986869,42.7352531,0 -73.6987747,42.7355097,0 -73.6988856,42.7358344,0 -73.69892400000001,42.7360344,0 -73.6990426,42.7365701,0 -73.69907449999999,42.7368997,0 -73.6990823,42.7371027,0 -73.6990717,42.7373522,0 -73.69901830000001,42.7376583,0 -73.6988746,42.7380702,0 -73.6985612,42.7390593,0 -73.6985143,42.7391626,0 -73.69846149999999,42.7392697,0 -73.6984027,42.7393709,0 -73.6983432,42.7394613,0 -73.6982666,42.7395616,0 -73.69818859999999,42.7396497,0 -73.69810579999999,42.7397372,0 -73.6980135,42.7398235,0 -73.6979211,42.7399009,0 -73.69781330000001,42.739985,0 -73.6977031,42.7400578,0 -73.6975845,42.7401296,0 -73.6974598,42.7401992,0 -73.6973323,42.7402614,0 -73.69721130000001,42.7403153,0 -73.6970695,42.740371,0 -73.6969313,42.7404215,0 -73.6951627,42.7410242,0 -73.695004,42.7410724,0 -73.6948596,42.7411109,0 -73.69471009999999,42.741142,0 -73.6945638,42.7411662,0 -73.6944084,42.7411864,0 -73.6942501,42.7412,0 -73.6940941,42.7412067,0 -73.6939304,42.7412081,0 -73.6937762,42.7412023,0 -73.6936044,42.7411911,0 -73.6934345,42.7411701,0 -73.6917766,42.7408088,0 -73.6915091,42.7407863,0 -73.6888242,42.7401938,0 -73.68842119999999,42.7401274,0 -73.6872544,42.7398689,0 -73.68618290000001,42.7396331,0 -73.68581829999999,42.7395666,0 -73.6854812,42.7395188,0 -73.6849349,42.7394858,0 -73.6841125,42.7394828,0 -73.683905,42.7394821,0 -73.6827947,42.7394899,0 -73.68248989999999,42.7394942,0 -73.6823085,42.7394944,0 -73.68216219999999,42.739496,0 -73.6818375,42.7395126,0 -73.68163123259289,42.73957308309303,0 
			</coordinates>
		</LineString>
		<atom:link rel="app" href="https://www.google.com/earth/about/versions/#earth-pro" title="Google Earth Pro 7.3.6.10201"></atom:link>
	</Placemark>
</Document>
</kml>
