<?xml version="1.0" encoding="UTF-8"?>
<kml xmlns="http://www.opengis.net/kml/2.2" xmlns:gx="http://www.google.com/kml/ext/2.2" xmlns:kml="http://www.opengis.net/kml/2.2" xmlns:atom="http://www.w3.org/2005/Atom">
<Document>
	<name>I.785.kml</name>
	<Placemark>
		<name>I.785</name>
		<LineString>
			<coordinates>
				-79.6867505,36.0492752,0 -79.68652950000001,36.0496053,0 -79.686323,36.0501074,0 -79.68624,36.0502907,0 -79.68608709999999,36.0505939,0 -79.6856085,36.0514189,0 -79.6847583,36.0528958,0 -79.6845996,36.0532137,0 -79.6844388,36.0536204,0 -79.68433949999999,36.0539196,0 -79.684263,36.0542742,0 -79.6842118,36.0546181,0 -79.6841848,36.0549325,0 -79.6841799,36.0551968,0 -79.6841919,36.0554408,0 -79.6842132,36.0556699,0 -79.6842724,36.0560089,0 -79.684333,36.0563292,0 -79.6843801,36.056496,0 -79.6844242,36.0566349,0 -79.6845399,36.0569306,0 -79.6846615,36.0571814,0 -79.68476579999999,36.0573795,0 -79.6849945,36.0577698,0 -79.68524549999999,36.0581914,0 -79.6855322,36.0586529,0 -79.6859307,36.059308,0 -79.6863498,36.0599824,0 -79.6863967,36.0600639,0 -79.6868295,36.0607636,0 -79.68720399999999,36.0613748,0 -79.68761600000001,36.062014,0 -79.68846019999999,36.0633833,0 -79.688682,36.0637465,0 -79.68891910000001,36.0641296,0 -79.68922600000001,36.064627,0 -79.68961539999999,36.0652664,0 -79.6901763,36.0661786,0 -79.6904469,36.0666147,0 -79.6906707,36.0669962,0 -79.69080529999999,36.0672843,0 -79.6909484,36.0676145,0 -79.691081,36.0679925,0 -79.6911779,36.0683917,0 -79.6912612,36.0688148,0 -79.6915533,36.0707278,0 -79.6918277,36.0724635,0 -79.69200410000001,36.0736363,0 -79.69212640000001,36.0744106,0 -79.6922644,36.0753222,0 -79.6924307,36.0764516,0 -79.69254460000001,36.0771049,0 -79.6926356,36.0775164,0 -79.692712,36.0778429,0 -79.69288349999999,36.0783864,0 -79.69306760000001,36.0788911,0 -79.6932592,36.0793422,0 -79.69444350000001,36.0820961,0 -79.6948067,36.0829267,0 -79.6964909,36.086832,0 -79.6969423,36.0878702,0 -79.6971789,36.0883872,0 -79.69727469999999,36.0886318,0 -79.6973735,36.0888987,0 -79.6974628,36.089168,0 -79.6975406,36.0894349,0 -79.6976042,36.0896994,0 -79.69769960000001,36.0901428,0 -79.69775199999999,36.0904384,0 -79.6977902,36.0907605,0 -79.6978167,36.091061,0 -79.6978338,36.0913585,0 -79.69783510000001,36.0917733,0 -79.6978285,36.0920846,0 -79.69780609999999,36.0924466,0 -79.6977624,36.0928323,0 -79.6977002,36.0932293,0 -79.6976301,36.0935767,0 -79.69753609999999,36.0939649,0 -79.69741190000001,36.094384,0 -79.69713040000001,36.0952635,0 -79.69636199999999,36.0978566,0 -79.69625120000001,36.0982703,0 -79.6961405,36.0987283,0 -79.69604870000001,36.0991866,0 -79.6959703,36.0996601,0 -79.69591490000001,36.1000991,0 -79.6958771,36.1005321,0 -79.6958522,36.1009354,0 -79.69586099999999,36.1017655,0 -79.6958759,36.1021896,0 -79.69590150000001,36.1025696,0 -79.6959406,36.1029667,0 -79.6959878,36.1033403,0 -79.696054,36.1037453,0 -79.6961383,36.1041784,0 -79.6962482,36.1046552,0 -79.6963683,36.1050988,0 -79.69650849999999,36.1055576,0 -79.6966757,36.106039,0 -79.6968243,36.1064316,0 -79.6970101,36.1068606,0 -79.6971764,36.107222,0 -79.6973988,36.1076675,0 -79.6976377,36.1081112,0 -79.6978914,36.1085386,0 -79.6981692,36.1089766,0 -79.6984631,36.1094047,0 -79.698723,36.1097646,0 -79.69896319999999,36.1100698,0 -79.7034104,36.1157173,0 -79.70376210000001,36.1161718,0 -79.7040962,36.116607,0 -79.7046459,36.1173473,0 -79.70522560000001,36.1181555,0 -79.707947,36.1219498,0 -79.71162169999999,36.1270728,0 -79.71178209999999,36.1272965,0 -79.71191709999999,36.1274859,0 -79.71600599999999,36.1331846,0 -79.7162134,36.1334672,0 -79.7164307,36.1337469,0 -79.71665230000001,36.1340209,0 -79.71688810000001,36.134295,0 -79.7171275,36.1345581,0 -79.71738000000001,36.134823,0 -79.71763989999999,36.1350802,0 -79.7179052,36.1353313,0 -79.71817799999999,36.1355757,0 -79.7184589,36.1358169,0 -79.71874649999999,36.1360503,0 -79.7190425,36.1362778,0 -79.7193448,36.1365,0 -79.71965280000001,36.1367162,0 -79.7199703,36.1369254,0 -79.720293,36.1371278,0 -79.72062149999999,36.137325,0 -79.72095779999999,36.1375158,0 -79.7212979,36.1376987,0 -79.7216439,36.1378753,0 -79.7219932,36.1380419,0 -79.7223479,36.1382027,0 -79.7227099,36.1383582,0 -79.7230916,36.1385112,0 -79.7265412,36.1398167,0 
			</coordinates>
		</LineString>
		<atom:link rel="app" href="https://www.google.com/earth/about/versions/#earth-pro" title="Google Earth Pro 7.3.6.10201"></atom:link>
	</Placemark>
</Document>
</kml>
