<?xml version="1.0" encoding="UTF-8"?>
<kml xmlns="http://www.opengis.net/kml/2.2" xmlns:gx="http://www.google.com/kml/ext/2.2" xmlns:kml="http://www.opengis.net/kml/2.2" xmlns:atom="http://www.w3.org/2005/Atom">
<Document>
	<name>I.794.kml</name>
	<Placemark>
		<name>I.794</name>
		<LineString>
			<coordinates>
				-87.89195119999999,43.0075421,0 -87.89206249999999,43.0078078,0 -87.8926366,43.0090841,0 -87.8928889,43.0096926,0 -87.8932683,43.010521,0 -87.8955216,43.0155907,0 -87.8960452,43.016728,0 -87.8974982,43.0200404,0 -87.8977981,43.0209447,0 -87.8984619,43.0236465,0 -87.8989485,43.0255748,0 -87.89922799999999,43.0267026,0 -87.8996112,43.0285742,0 -87.89997649999999,43.030157,0 -87.9000679,43.0305398,0 -87.9000954,43.0306443,0 -87.900141,43.030883,0 -87.9002134,43.0312683,0 -87.90020800000001,43.0315977,0 -87.90015459999999,43.0332248,0 -87.90015510000001,43.0337215,0 -87.90014360000001,43.0338724,0 -87.9001664,43.0341645,0 -87.9001978,43.0343095,0 -87.9002509,43.0344537,0 -87.90030400000001,43.0345547,0 -87.90035450000001,43.034644,0 -87.9004046,43.0347222,0 -87.9004958,43.0348608,0 -87.9006038,43.0349889,0 -87.9007479,43.0351276,0 -87.9009327,43.0352837,0 -87.90119919999999,43.0354767,0 -87.9013576,43.0355733,0 -87.90153770000001,43.0356733,0 -87.90171290000001,43.035754,0 -87.90195300000001,43.0358417,0 -87.9022411,43.0359242,0 -87.9027772,43.036053,0 -87.9029195,43.0360888,0 -87.90313829999999,43.0361266,0 -87.9033372,43.0361541,0 -87.9036639,43.0361826,0 -87.90381069999999,43.0361926,0 -87.9039763,43.0362004,0 -87.90409769999999,43.0362044,0 -87.90425399999999,43.0362054,0 -87.90441559999999,43.0362027,0 -87.9046476,43.0361951,0 -87.90652040000001,43.0360823,0 -87.9069994,43.0360364,0 -87.9075699,43.0359956,0 -87.9091706,43.0358737,0 -87.91027510000001,43.0358279,0 -87.9103382,43.0358241,0 -87.91129479999999,43.035775,0 -87.9139125,43.0357525,0 -87.9152066,43.0357506,0 -87.918273,43.0357531,0 -87.9198636,43.0357504,0 -87.920582,43.0357299,0 -87.9209805,43.0357153,0 -87.92259610000001,43.0356045,0 -87.9228732,43.0355917,0 -87.9231159,43.0355868,0 -87.9233775,43.0355847,0 -87.92378720000001,43.0355793,0 -87.9241492,43.035593,0 -87.924367,43.0356057,0 -87.92460440000001,43.0356234,0 -87.9255296,43.0356996,0 -87.925982,43.035724,0 -87.9263121,43.035737,0 -87.9267933,43.0357452,0 -87.92789879999999,43.0357484,0 -87.928973,43.0357478,0 -87.9295305,43.0357504,0 -87.9301717,43.0357533,0 -87.9313381,43.0357451,0 -87.9327919,43.0357417,0 -87.9330939,43.0357426,0 -87.9335602,43.0357407,0 -87.93412120000001,43.0357359,0 -87.93450609999999,43.0357321,0 -87.9346939,43.0357266,0 -87.9348803,43.0357179,0 
			</coordinates>
		</LineString>
		<atom:link rel="app" href="https://www.google.com/earth/about/versions/#earth-pro" title="Google Earth Pro 7.3.6.10201"></atom:link>
	</Placemark>
</Document>
</kml>
