<?xml version="1.0" encoding="UTF-8"?>
<kml xmlns="http://www.opengis.net/kml/2.2" xmlns:gx="http://www.google.com/kml/ext/2.2" xmlns:kml="http://www.opengis.net/kml/2.2" xmlns:atom="http://www.w3.org/2005/Atom">
<Document>
	<name>I.795.MD.kml</name>
	<Placemark>
		<name>I.795.MD</name>
		<LineString>
			<coordinates>
				-76.7493779,39.3752112,0 -76.7496099,39.3752243,0 -76.7499052,39.375265,0 -76.7502216,39.3753351,0 -76.7505233,39.3754307,0 -76.7507351,39.3755161,0 -76.7509469,39.3756267,0 -76.7511591,39.3757595,0 -76.75121230000001,39.3757928,0 -76.7514271,39.3759634,0 -76.7516061,39.3761479,0 -76.7517404,39.3763139,0 -76.7519164,39.3765537,0 -76.75212070000001,39.3768433,0 -76.75226379999999,39.3770816,0 -76.7524286,39.3773813,0 -76.7526106,39.3777632,0 -76.75273060000001,39.3780578,0 -76.752797,39.3782367,0 -76.75300780000001,39.3788049,0 -76.7533269,39.379768,0 -76.75355190000001,39.3804351,0 -76.7536138,39.3805987,0 -76.75372849999999,39.3808922,0 -76.7538622,39.3812139,0 -76.75401479999999,39.3815491,0 -76.75412059999999,39.3817661,0 -76.75428890000001,39.3820932,0 -76.7546743,39.3827564,0 -76.7549571,39.3831997,0 -76.7552769,39.3836461,0 -76.755505,39.3839423,0 -76.7558014,39.3843143,0 -76.7561347,39.3846919,0 -76.7565211,39.3851127,0 -76.75687600000001,39.3854651,0 -76.7572795,39.3858434,0 -76.7575257,39.3860552,0 -76.7579459,39.3864096,0 -76.75829520000001,39.3866984,0 -76.758837,39.3871419,0 -76.7595067,39.3876844,0 -76.76004380000001,39.3881306,0 -76.7605444,39.3885384,0 -76.7609135,39.3888537,0 -76.7612689,39.3891771,0 -76.7615223,39.3894248,0 -76.76175739999999,39.389691,0 -76.7619607,39.3899355,0 -76.7621161,39.3901565,0 -76.7623042,39.3904437,0 -76.7625094,39.3908018,0 -76.76267970000001,39.3911621,0 -76.76279649999999,39.3914542,0 -76.7628687,39.3916663,0 -76.7629317,39.3918821,0 -76.7629689,39.3920361,0 -76.7630168,39.3922378,0 -76.7630578,39.3925209,0 -76.7630925,39.3928585,0 -76.7631188,39.3933288,0 -76.7631689,39.3965083,0 -76.7631913,39.3971613,0 -76.7632261,39.3975827,0 -76.7632576,39.3978303,0 -76.7633106,39.3981279,0 -76.7633893,39.3985172,0 -76.763471,39.398812,0 -76.7635417,39.3990521,0 -76.7636191,39.3992763,0 -76.7638044,39.3997452,0 -76.76399499999999,39.4001455,0 -76.76421089999999,39.4005481,0 -76.764448,39.400932,0 -76.7646829,39.4012814,0 -76.7648834,39.4015397,0 -76.7651,39.4018089,0 -76.7653567,39.4020916,0 -76.7656118,39.4023509,0 -76.76582790000001,39.4025781,0 -76.7660461,39.4027892,0 -76.7663933,39.4030786,0 -76.7667703,39.4033803,0 -76.76706849999999,39.4035966,0 -76.76736579999999,39.4037986,0 -76.7677631,39.4040461,0 -76.768151,39.4042674,0 -76.76851739999999,39.4044599,0 -76.7688493,39.404622,0 -76.7691877,39.4047793,0 -76.7696894,39.404982,0 -76.7701563,39.4051546,0 -76.7705282,39.4052745,0 -76.7709553,39.4054031,0 -76.7713729,39.4055124,0 -76.7718149,39.4056134,0 -76.77232360000001,39.4057157,0 -76.77260269999999,39.4057626,0 -76.772831,39.4058009,0 -76.77501150000001,39.4061521,0 -76.77614440000001,39.4063498,0 -76.7765622,39.4064527,0 -76.7773547,39.4066653,0 -76.7777115,39.4067781,0 -76.77817899999999,39.4069357,0 -76.77896920000001,39.4072091,0 -76.78002720000001,39.4075879,0 -76.7829921,39.4086282,0 -76.7842742,39.4090874,0 -76.7869735,39.4100296,0 -76.7874568,39.4102182,0 -76.7880385,39.4104608,0 -76.7884409,39.4106366,0 -76.78899440000001,39.4108966,0 -76.7895765,39.4111814,0 -76.78998129999999,39.4113972,0 -76.790408,39.4116395,0 -76.7908924,39.4119306,0 -76.79138570000001,39.4122394,0 -76.79163389999999,39.4124081,0 -76.7921444,39.4127719,0 -76.7926784,39.4131626,0 -76.7931154,39.4135047,0 -76.7936412,39.4139714,0 -76.7939806,39.4142859,0 -76.79427130000001,39.4145725,0 -76.79472939999999,39.4150298,0 -76.79585,39.4161658,0 -76.79657210000001,39.4168816,0 -76.7974222,39.4177377,0 -76.7985702,39.4189384,0 -76.7989592,39.4193256,0 -76.7999282,39.4202852,0 -76.8008744,39.4211719,0 -76.8019031,39.4221172,0 -76.8023958,39.4225672,0 -76.80305540000001,39.4231481,0 -76.8035986,39.4236286,0 -76.80420549999999,39.4241654,0 -76.805983,39.42575,0 -76.8069721,39.4266349,0 -76.8077133,39.4273118,0 -76.8082946,39.427833,0 -76.8089901,39.4284566,0 -76.8106549,39.4299158,0 -76.8116594,39.4308797,0 -76.8123368,39.4314968,0 -76.81334649999999,39.4324187,0 -76.81450599999999,39.4334088,0 -76.8155514,39.4343602,0 -76.81590730000001,39.4346874,0 -76.8169266,39.4355728,0 -76.8177029,39.4362517,0 -76.8182836,39.4367622,0 -76.818893,39.4373049,0 -76.8194462,39.4378117,0 -76.82017949999999,39.438479,0 -76.8210136,39.4392594,0 -76.8217818,39.440047,0 -76.822514,39.4407677,0 -76.8228685,39.4411343,0 -76.8233757,39.4416927,0 -76.8238729,39.4422289,0 -76.82433229999999,39.4427551,0 -76.82480700000001,39.4433096,0 -76.82532430000001,39.4439137,0 -76.8257024,39.4443691,0 -76.8262678,39.4450734,0 -76.826668,39.4455992,0 -76.8274965,39.4467301,0 -76.8280427,39.4474933,0 -76.82870440000001,39.4484637,0 -76.82925349999999,39.449326,0 -76.82972030000001,39.4500592,0 -76.83065360000001,39.4515568,0 -76.8315422,39.4530579,0 -76.83227290000001,39.4541902,0 -76.8348455,39.4583532,0 -76.83537440000001,39.4591774,0 -76.8358068,39.4598062,0 -76.83612650000001,39.4603189,0 -76.83640010000001,39.4607871,0 -76.8366479,39.4612763,0 -76.8368227,39.4616732,0 -76.8369323,39.4619525,0 -76.8370728,39.4623566,0 -76.8371722,39.4626383,0 -76.8372432,39.4629096,0 -76.8373838,39.4635064,0 -76.83741499999999,39.463748,0 -76.83745570000001,39.4641498,0 -76.83749299999999,39.4644777,0 -76.83750089999999,39.4648097,0 -76.83749109999999,39.4653431,0 -76.8374604,39.4657675,0 -76.8374233,39.4664386,0 -76.8373892,39.467064,0 -76.83726420000001,39.4678426,0 -76.837194,39.4680825,0 -76.8370872,39.4683381,0 -76.83695830000001,39.4686029,0 -76.8368825,39.4687354,0 -76.8367236,39.4690357,0 -76.83661770000001,39.4692337,0 -76.836445,39.469602,0 -76.836395,39.469781,0 -76.83637,39.469936,0 -76.836353,39.470195,0 -76.836364,39.470398,0 -76.8363804,39.4705249,0 -76.83641040000001,39.4706613,0 -76.83645,39.4707888,0 -76.8365189,39.4709592,0 -76.83662510000001,39.4711502,0 -76.8367999,39.471381,0 -76.8369513,39.4715417,0 -76.8372488,39.4718361,0 -76.837746,39.4723376,0 -76.837996,39.4726066,0 -76.83834659999999,39.4729674,0 -76.8387092,39.4733282,0 -76.8392563,39.4739103,0 -76.83982810000001,39.4744809,0 -76.8400962,39.4747068,0 -76.8403055,39.4748557,0 -76.840469,39.4749744,0 -76.8406772,39.4751143,0 -76.8410016,39.4753112,0 -76.8417639,39.4757448,0 -76.8422688,39.4760525,0 
			</coordinates>
		</LineString>
		<atom:link rel="app" href="https://www.google.com/earth/about/versions/#earth-pro" title="Google Earth Pro 7.3.6.10201"></atom:link>
	</Placemark>
</Document>
</kml>
