<?xml version="1.0" encoding="UTF-8"?>
<kml xmlns="http://www.opengis.net/kml/2.2" xmlns:gx="http://www.google.com/kml/ext/2.2" xmlns:kml="http://www.opengis.net/kml/2.2" xmlns:atom="http://www.w3.org/2005/Atom">
<Document>
	<name>I.795.NC.kml</name>
	<Placemark>
		<name>I.795.NC</name>
		<LineString>
			<coordinates>
				-78.00633879999999,35.402213,0 -78.00605040000001,35.4028028,0 -78.00557379999999,35.4037922,0 -78.00523939999999,35.4044865,0 -78.00322490000001,35.4084341,0 -78.0027958,35.4094135,0 -78.00251249999999,35.4100921,0 -78.00192029999999,35.4121907,0 -78.0015942,35.4134988,0 -78.0011822,35.4147299,0 -78.00069740000001,35.4158543,0 -78.0003526,35.4167343,0 -77.9997537,35.4177115,0 -77.9992963,35.418377,0 -77.998918,35.4188556,0 -77.9982567,35.41964,0 -77.99725530000001,35.4207883,0 -77.996718,35.4214117,0 -77.99294999999999,35.4257688,0 -77.99203970000001,35.4268152,0 -77.9918734,35.4269851,0 -77.9899758,35.429174,0 -77.9885141,35.43086,0 -77.98747950000001,35.4320334,0 -77.9871708,35.4324341,0 -77.9865126,35.4332503,0 -77.98581849999999,35.4342226,0 -77.9853464,35.4350618,0 -77.9848057,35.4363556,0 -77.98454820000001,35.4375444,0 -77.9843765,35.4387682,0 -77.984315,35.4421073,0 -77.9843134,35.4424218,0 -77.9843145,35.4492482,0 -77.98435739999999,35.4510399,0 -77.98448620000001,35.4528577,0 -77.98465779999999,35.4546318,0 -77.985973,35.4651272,0 -77.9864738,35.4688324,0 -77.98652730000001,35.4692456,0 -77.9869858,35.4729564,0 -77.98719180000001,35.4743753,0 -77.9876038,35.4760459,0 -77.98779260000001,35.4768706,0 -77.9882904,35.4783944,0 -77.98869379999999,35.4794568,0 -77.99192960000001,35.4864808,0 -77.9945713,35.4918795,0 -77.9962664,35.4954172,0 -77.9976319,35.4983292,0 -77.9985839,35.5002825,0 -77.99922359999999,35.5016673,0 -77.99943930000001,35.5022294,0 -77.9996051,35.5028229,0 -77.9997164,35.5033535,0 -77.9997959,35.503923,0 -77.99982540000001,35.5044259,0 -77.9998209,35.5049806,0 -77.9997936,35.5054113,0 -77.99973230000001,35.5058495,0 -77.99964369999999,35.5063006,0 -77.9995279,35.5067591,0 -77.99930519999999,35.5074329,0 -77.99897350000001,35.5081714,0 -77.99858500000001,35.5088638,0 -77.9981456,35.5094846,0 -77.9976636,35.5101008,0 -77.99657209999999,35.5114693,0 -77.9957556,35.5124986,0 -77.9949646,35.5135002,0 -77.99405369999999,35.5146582,0 -77.9940149,35.5147107,0 -77.9929451,35.5160443,0 -77.9920103,35.5172802,0 -77.991276,35.5184455,0 -77.990658,35.5195831,0 -77.9901958,35.5205915,0 -77.9897989,35.521593,0 -77.9894133,35.5227606,0 -77.9891554,35.5237944,0 -77.9890023,35.524565,0 -77.9888378,35.5256495,0 -77.9887499,35.5268724,0 -77.98874139999999,35.5282199,0 -77.9888208,35.5293205,0 -77.98995549999999,35.5371335,0 -77.9900671,35.5389494,0 -77.99000700000001,35.5404161,0 -77.9898096,35.5420713,0 -77.9895521,35.5434402,0 -77.9892088,35.5445366,0 -77.9888421,35.5456453,0 -77.9883044,35.5469733,0 -77.98777990000001,35.5483078,0 -77.98750389999999,35.5491777,0 -77.9873254,35.5498959,0 -77.9871705,35.550616,0 -77.986992,35.551678,0 -77.98683130000001,35.5529516,0 -77.98683130000001,35.5541736,0 -77.98685450000001,35.5548243,0 -77.98691169999999,35.5554694,0 -77.98758290000001,35.5611763,0 -77.9876823,35.5620104,0 -77.9881359,35.5660087,0 -77.9892603,35.5761527,0 -77.98963790000001,35.5795035,0 -77.9898268,35.5811402,0 -77.989812,35.581798,0 -77.9897749,35.5824009,0 -77.9897292,35.5828304,0 -77.9896662,35.5832755,0 -77.9895784,35.583757,0 -77.9894501,35.5843608,0 -77.9890966,35.5855499,0 -77.9888938,35.5860666,0 -77.9886351,35.5866799,0 -77.9883377,35.5873075,0 -77.9880031,35.5879251,0 -77.9876429,35.5885217,0 -77.9874842,35.5887539,0 -77.9872301,35.5891346,0 -77.98657660000001,35.589978,0 -77.9857645,35.5908904,0 -77.98539580000001,35.5912788,0 -77.9837352,35.5928781,0 -77.98305019999999,35.593546,0 -77.98259950000001,35.59404,0 -77.9822442,35.5945136,0 -77.9819364,35.5950016,0 -77.9816411,35.5955415,0 -77.98141219999999,35.5960808,0 -77.9811481,35.5969151,0 -77.98106009999999,35.5973602,0 -77.9809887,35.5978859,0 -77.9807424,35.6005891,0 -77.9804932,35.6033678,0 -77.980108,35.6075186,0 -77.9799653,35.6091929,0 -77.9797724,35.6112403,0 -77.9795276,35.6139759,0 -77.9793509,35.6153146,0 -77.979159,35.6162115,0 -77.9790589,35.6165639,0 -77.9788394,35.6172428,0 -77.97866139999999,35.6177463,0 -77.9782608,35.6186596,0 -77.9779084,35.6194305,0 -77.9775344,35.6202621,0 -77.97637899999999,35.6228088,0 -77.97580960000001,35.6240299,0 -77.9754528,35.6248304,0 -77.97462849999999,35.6266368,0 -77.97375649999999,35.6285657,0 -77.9731767,35.6298312,0 -77.9726069,35.6310643,0 -77.972053,35.6321726,0 -77.9717599,35.6326904,0 -77.97121060000001,35.6336493,0 -77.9706882,35.634468,0 -77.9703501,35.634992,0 -77.96935379999999,35.6363599,0 -77.9685267,35.6374448,0 -77.96793769999999,35.638215,0 -77.9677859,35.6384108,0 -77.9665261,35.640057,0 -77.96539079999999,35.6415727,0 -77.9642321,35.6435745,0 -77.9634853,35.6450742,0 -77.96182880000001,35.6489033,0 -77.9608503,35.6510096,0 -77.9564472,35.6590368,0 -77.95593220000001,35.6601526,0 -77.9556149,35.6614462,0 -77.955527,35.6625511,0 -77.9555161,35.6629766,0 -77.9555194,35.663381,0 -77.9555459,35.6637913,0 -77.95559540000001,35.6642608,0 -77.95568280000001,35.6647474,0 -77.95577230000001,35.6651641,0 -77.95583190000001,35.6653981,0 -77.9559196,35.6656818,0 -77.9560046,35.6659482,0 -77.9561107,35.6662313,0 -77.956221,35.6665209,0 -77.9563675,35.6668555,0 -77.9565703,35.6672736,0 -77.9577905,35.6693122,0 -77.9578829,35.6695071,0 -77.9582231,35.6700791,0 -77.9588902,35.6711857,0 -77.95974510000001,35.6726289,0 -77.96003,35.6731779,0 -77.96023030000001,35.6735635,0 -77.9604271,35.6740215,0 -77.9606141,35.6745079,0 -77.9607805,35.6749942,0 -77.9609304,35.6754793,0 -77.96102879999999,35.6758459,0 -77.9611057,35.6761859,0 -77.9612095,35.6767008,0 -77.9613011,35.6772659,0 -77.9613544,35.6776928,0 -77.96140010000001,35.6780783,0 -77.96142949999999,35.6785263,0 -77.9614497,35.6790944,0 -77.9614461,35.679576,0 -77.96140800000001,35.6801541,0 -77.96136389999999,35.6807001,0 -77.96129879999999,35.6812251,0 -77.96120019999999,35.6817783,0 -77.9611737,35.6820332,0 -77.9611532,35.6823415,0 -77.9611499,35.6825783,0 -77.96115399999999,35.6827998,0 -77.9611761,35.6829653,0 -77.96120259999999,35.6831276,0 -77.96124829999999,35.6833173,0 -77.9613002,35.6834853,0 -77.9613712,35.6836704,0 -77.96145249999999,35.6838673,0 -77.9615622,35.6840831,0 -77.96164949999999,35.6842324,0 -77.9617877,35.6844376,0 -77.9619354,35.6846402,0 -77.9621101,35.6848383,0 -77.96221540000001,35.6849479,0 -77.9624146,35.6851389,0 -77.96264429999999,35.6853269,0 -77.9628608,35.6854914,0 -77.9630579,35.6856242,0 -77.9632579,35.6857414,0 -77.9634461,35.6858414,0 -77.96366690000001,35.6859478,0 -77.9639655,35.6860687,0 -77.9642905,35.6861849,0 -77.9646638,35.6863172,0 -77.9649215,35.686416,0 -77.9651185,35.6865043,0 -77.9653091,35.686601,0 -77.9655156,35.6867188,0 -77.9657479,35.6868704,0 -77.9659465,35.6870171,0 -77.96615250000001,35.6871886,0 -77.9663924,35.6873651,0 -77.9667766,35.6877114,0 -77.9670204,35.687941,0 -77.967275,35.6882,0 -77.96781319999999,35.6887324,0 -77.9684968,35.689445,0 -77.9689261,35.6898946,0 -77.9693254,35.6903499,0 -77.9697457,35.6908368,0 -77.9701319,35.6913019,0 -77.9705697,35.69182,0 -77.9713143,35.6927096,0 -77.9716883,35.6931248,0 -77.9724813,35.6940532,0 -77.97299959999999,35.6946112,0 -77.9735962,35.6952306,0 -77.9742579,35.6958868,0 -77.97515989999999,35.6967111,0 -77.9754241,35.6969526,0 -77.97628090000001,35.6976882,0 -77.97693870000001,35.6982161,0 -77.97749349999999,35.6986406,0 -77.97816640000001,35.69914,0 -77.978948,35.6996889,0 -77.97969929999999,35.7001845,0 -77.98042270000001,35.7006426,0 -77.9811117,35.7010608,0 -77.9818413,35.7014824,0 -77.98229190000001,35.7017292,0 -77.982831,35.7020135,0 -77.9834063,35.7023155,0 -77.98772409999999,35.7044222,0 -77.9892301,35.7051649,0 -77.9906309,35.7058491,0 -77.9922794,35.7066582,0 -77.99293729999999,35.7069838,0 -77.99363820000001,35.7073249,0 -77.9945427,35.7077729,0 -77.99513690000001,35.7080628,0 -77.9955866,35.7082863,0 -77.9960128,35.7084936,0 -77.9963884,35.7086846,0 -77.9968788,35.7089493,0 -77.99716050000001,35.709099,0 -77.9974697,35.7092811,0 -77.9977449,35.7094444,0 -77.9980972,35.7096691,0 -77.9984633,35.7099313,0 -77.99882650000001,35.7101911,0 -77.9991033,35.7103848,0 -77.9994452,35.7106623,0 -77.999707,35.7108642,0 -77.9999206,35.7110263,0 -78.0001408,35.7112051,0 -78.0003689,35.7114115,0 -78.00058900000001,35.7116145,0 -78.0008455,35.7118563,0 -78.00109519999999,35.7121196,0 -78.00131330000001,35.7123611,0 -78.00169459999999,35.7127734,0 -78.0019453,35.7130765,0 -78.00219420000001,35.7133673,0 -78.0023759,35.7135879,0 -78.0025732,35.7138593,0 -78.0027925,35.7141575,0 -78.00294220000001,35.7143832,0 -78.0030912,35.714609,0 -78.0032436,35.7148397,0 -78.0035122,35.7152873,0 -78.0036365,35.7155478,0 -78.0038212,35.7159095,0 -78.0039857,35.7162373,0 -78.00413229999999,35.7165542,0 -78.00430849999999,35.7169791,0 -78.0045573,35.7175581,0 -78.0046679,35.717856,0 -78.004974,35.718739,0 -78.005915,35.721367,0 -78.006258,35.722349,0 -78.006479,35.723003,0 -78.00690400000001,35.724218,0 -78.00709999999999,35.724745,0 -78.007301,35.725325,0 -78.007446,35.725681,0 -78.007695,35.726416,0 -78.0081053,35.7275543,0 -78.008391,35.728347,0 -78.008925,35.729809,0 -78.00911499999999,35.730266,0 -78.009334,35.730748,0 -78.00961700000001,35.73133,0 -78.009882,35.731818,0 -78.010064,35.732142,0 -78.01017,35.732331,0 -78.010651,35.733118,0 -78.0112144,35.7339004,0 -78.0115503,35.7343434,0 -78.0124957,35.7355516,0 
			</coordinates>
		</LineString>
		<atom:link rel="app" href="https://www.google.com/earth/about/versions/#earth-pro" title="Google Earth Pro 7.3.6.10201"></atom:link>
	</Placemark>
</Document>
</kml>
