<?xml version="1.0" encoding="UTF-8"?>
<kml xmlns="http://www.opengis.net/kml/2.2" xmlns:gx="http://www.google.com/kml/ext/2.2" xmlns:kml="http://www.opengis.net/kml/2.2" xmlns:atom="http://www.w3.org/2005/Atom">
<Document>
	<name>I.805.kml</name>
	<Placemark>
		<name>I.805</name>
		<LineString>
			<coordinates>
				-117.0346996,32.546023,0 -117.035501,32.5465872,0 -117.0383745,32.5487559,0 -117.0387645,32.5490902,0 -117.0391185,32.5494154,0 -117.039205,32.5494937,0 -117.0394431,32.5497401,0 -117.0398122,32.5501886,0 -117.0401586,32.5506318,0 -117.040502,32.5511889,0 -117.0407337,32.5516157,0 -117.0410084,32.5522379,0 -117.0411543,32.552672,0 -117.0412658,32.5530988,0 -117.0417691,32.5552022,0 -117.0419236,32.5558461,0 -117.0420411,32.5562675,0 -117.0421704,32.5569084,0 -117.0421916,32.5571444,0 -117.0422573,32.5578622,0 -117.042283,32.5583758,0 -117.0422916,32.5587881,0 -117.0422913,32.5591666,0 -117.0422742,32.5596029,0 -117.0420842,32.5609266,0 -117.0419467,32.5616036,0 -117.0417452,32.5625235,0 -117.041419,32.5639414,0 -117.0411529,32.565106,0 -117.0408783,32.5663068,0 -117.0404133,32.5682456,0 -117.0401566,32.5693155,0 -117.0398237,32.5707639,0 -117.0396333,32.5716043,0 -117.0394294,32.572487,0 -117.0392544,32.5733884,0 -117.0391394,32.5737666,0 -117.0389609,32.5743427,0 -117.0387514,32.5753505,0 -117.03817,32.577938,0 -117.0379677,32.5788536,0 -117.0377057,32.579967,0 -117.0373195,32.5816738,0 -117.0369161,32.5834674,0 -117.0366157,32.5849717,0 -117.036484,32.585823,0 -117.036418,32.586294,0 -117.036392,32.586479,0 -117.036355,32.586863,0 -117.036293,32.587509,0 -117.0362166,32.588396,0 -117.0361522,32.5901135,0 -117.0361522,32.591314,0 -117.0361522,32.5916032,0 -117.0361443,32.594711,0 -117.0361433,32.5951256,0 -117.036133,32.598712,0 -117.036133,32.599705,0 -117.03614,32.600609,0 -117.0361425,32.6017861,0 -117.036122,32.60369,0 -117.03612,32.604016,0 -117.0361145,32.6059104,0 -117.036187,32.60762,0 -117.0361971,32.6081056,0 -117.0362658,32.6089531,0 -117.0364081,32.6101769,0 -117.036484,32.610641,0 -117.0366804,32.6114536,0 -117.0368692,32.6121477,0 -117.036998,32.6126393,0 -117.037621,32.614342,0 -117.037849,32.614841,0 -117.0404323,32.6215626,0 -117.0405868,32.6219819,0 -117.0417166,32.6248922,0 -117.0420194,32.6255629,0 -117.0424829,32.6266617,0 -117.0428066,32.6273598,0 -117.0434013,32.6286423,0 -117.0437399,32.6293422,0 -117.044983,32.631912,0 -117.0451217,32.6321414,0 -117.045503,32.632772,0 -117.04583,32.633312,0 -117.0467438,32.634395,0 -117.0473363,32.6350012,0 -117.048075,32.6357128,0 -117.0486436,32.6361795,0 -117.0499286,32.6371177,0 -117.0509324,32.6376861,0 -117.0514075,32.6379593,0 -117.0538878,32.6394273,0 -117.054529,32.6398903,0 -117.0548385,32.6401724,0 -117.0550418,32.6403578,0 -117.0555777,32.6408692,0 -117.0562854,32.6417711,0 -117.056888,32.6426991,0 -117.0572613,32.6433389,0 -117.0576132,32.6439893,0 -117.0580755,32.6447997,0 -117.0582962,32.6451866,0 -117.0584734,32.6454756,0 -117.0589644,32.6461806,0 -117.0593081,32.6465869,0 -117.0596537,32.6469844,0 -117.0599412,32.647253,0 -117.0606782,32.6478227,0 -117.0609836,32.648033,0 -117.0615495,32.6483888,0 -117.0621881,32.6487272,0 -117.0629673,32.6490883,0 -117.0637036,32.6493944,0 -117.0649275,32.6499746,0 -117.0659661,32.6504365,0 -117.066902,32.6509441,0 -117.0670063,32.6510108,0 -117.067688,32.651447,0 -117.0682492,32.6518601,0 -117.0688586,32.6524094,0 -117.0691933,32.652749,0 -117.0698542,32.6534789,0 -117.0703484,32.6539892,0 -117.0713182,32.6550298,0 -117.0721937,32.6560342,0 -117.073308,32.6572609,0 -117.0736443,32.6576311,0 -117.0739964,32.6580168,0 -117.0744463,32.6584834,0 -117.0747037,32.6587503,0 -117.0756637,32.6597542,0 -117.0763659,32.6605531,0 -117.076861,32.6611483,0 -117.077621,32.66198,0 -117.077751,32.662125,0 -117.077917,32.6623391,0 -117.0783032,32.6628738,0 -117.0786101,32.6632821,0 -117.078853,32.66365,0 -117.0791318,32.6642248,0 -117.0793324,32.6646528,0 -117.0795177,32.6651316,0 -117.0797492,32.6659439,0 -117.07995,32.666493,0 -117.080147,32.667007,0 -117.080498,32.667923,0 -117.0824312,32.6729258,0 -117.0826028,32.6733738,0 -117.0833582,32.6750066,0 -117.0844211,32.6770647,0 -117.0846048,32.6774204,0 -117.085833,32.67984,0 -117.0861033,32.6804046,0 -117.086595,32.6813787,0 -117.0867528,32.6816875,0 -117.0868429,32.6818626,0 -117.087109,32.682325,0 -117.0875734,32.6829716,0 -117.0881219,32.6836204,0 -117.0888477,32.6843084,0 -117.0899328,32.6852002,0 -117.0915979,32.6865221,0 -117.0922263,32.6870523,0 -117.0924735,32.6872968,0 -117.0928141,32.6876143,0 -117.0932049,32.6880515,0 -117.0933825,32.6882502,0 -117.0937443,32.6887674,0 -117.0938942,32.6889956,0 -117.0940839,32.6893403,0 -117.0942455,32.689711,0 -117.0943524,32.6901586,0 -117.094557,32.6906649,0 -117.0946489,32.6909328,0 -117.0947854,32.69167,0 -117.0947565,32.6923732,0 -117.0947846,32.6932329,0 -117.0947961,32.6935837,0 -117.0947479,32.6966566,0 -117.0947136,32.698874,0 -117.0946964,32.6998058,0 -117.094727,32.700851,0 -117.094704,32.702251,0 -117.0947618,32.7029028,0 -117.0948653,32.7036258,0 -117.0950873,32.7044935,0 -117.0953263,32.7052095,0 -117.095594,32.7057521,0 -117.0958614,32.7062079,0 -117.096104,32.7066455,0 -117.0965017,32.7072216,0 -117.0967477,32.7074832,0 -117.097682,32.708483,0 -117.0980266,32.7088482,0 -117.098618,32.709492,0 -117.0995297,32.7103814,0 -117.1001089,32.7110125,0 -117.10039,32.7112946,0 -117.1005981,32.7115035,0 -117.1006508,32.7115583,0 -117.1008697,32.7117912,0 -117.1012848,32.7123052,0 -117.101517,32.712666,0 -117.1017502,32.7130391,0 -117.101822,32.713154,0 -117.102249,32.713974,0 -117.1024727,32.7145754,0 -117.1025156,32.7146906,0 -117.1027387,32.7156511,0 -117.102783,32.716251,0 -117.1028181,32.716948,0 -117.1027613,32.717825,0 -117.1027088,32.7186407,0 -117.1026552,32.7193388,0 -117.102583,32.7203275,0 -117.1025581,32.7206973,0 -117.1025462,32.7208019,0 -117.1025029,32.7214022,0 -117.1024672,32.7219082,0 -117.1024635,32.7224271,0 -117.102458,32.7228518,0 -117.1024984,32.7234355,0 -117.1025928,32.7240204,0 -117.1028417,32.7248436,0 -117.103127,32.725487,0 -117.1033353,32.7259462,0 -117.103577,32.726479,0 -117.103851,32.726875,0 -117.1040684,32.7271577,0 -117.1042686,32.7274038,0 -117.105293,32.728439,0 -117.1058377,32.7288627,0 -117.1065247,32.7293021,0 -117.1078464,32.7300939,0 -117.1094843,32.7309584,0 -117.1109263,32.7317526,0 -117.1113132,32.7320351,0 -117.1116565,32.7323312,0 -117.1120599,32.7327211,0 -117.1125399,32.7333194,0 -117.1128146,32.7337815,0 -117.1131407,32.7345035,0 -117.1145569,32.7379184,0 -117.1146304,32.7380619,0 -117.115677,32.7401054,0 -117.116119,32.7408334,0 -117.116814,32.7419014,0 -117.117142,32.7423674,0 -117.1175157,32.7428166,0 -117.1177019,32.7430414,0 -117.118622,32.7441484,0 -117.1200649,32.7458752,0 -117.1202997,32.7461451,0 -117.1203794,32.7462376,0 -117.1204639,32.746343,0 -117.1205856,32.7465006,0 -117.120988,32.7469766,0 -117.121536,32.7476314,0 -117.1220582,32.7483143,0 -117.1223961,32.7488309,0 -117.1225463,32.7490791,0 -117.1227609,32.7494829,0 -117.1229191,32.7498502,0 -117.1230774,32.7502431,0 -117.1236297,32.7518329,0 -117.123876,32.7525454,0 -117.1239558,32.752764,0 -117.124077,32.7530564,0 -117.124509,32.7544454,0 -117.1251722,32.7563697,0 -117.1256791,32.7577972,0 -117.1260143,32.7587515,0 -117.1263736,32.7598631,0 -117.126556,32.7606244,0 -117.126648,32.7610094,0 -117.127,32.7622564,0 -117.127515,32.7639666,0 -117.1279098,32.7650352,0 -117.1283758,32.7660983,0 -117.1287966,32.7670044,0 -117.1299941,32.7691161,0 -117.1302312,32.7694913,0 -117.1304933,32.7699065,0 -117.1312655,32.7710482,0 -117.1331281,32.7736175,0 -117.1345099,32.7755154,0 -117.1358694,32.7774547,0 -117.1368131,32.7787409,0 -117.1371022,32.7791511,0 -117.1381231,32.7804576,0 -117.1391572,32.7815263,0 -117.1396092,32.7819144,0 -117.1405336,32.7826136,0 -117.141327,32.783146,0 -117.1441836,32.7847957,0 -117.1455824,32.7857135,0 -117.1462255,32.7863011,0 -117.1467885,32.7869097,0 -117.1472777,32.7874581,0 -117.1477076,32.7880205,0 -117.148076,32.7885837,0 -117.1482586,32.7889418,0 -117.1483882,32.7891986,0 -117.1485185,32.7894615,0 -117.1489234,32.7904034,0 -117.1491926,32.7910724,0 -117.149384,32.791882,0 -117.1495108,32.7926714,0 -117.1495353,32.7935769,0 -117.1493232,32.7979333,0 -117.1493336,32.7981256,0 -117.1493722,32.7988237,0 -117.1494922,32.7997238,0 -117.1496037,32.8002072,0 -117.1502687,32.8025506,0 -117.1510471,32.8053479,0 -117.1512115,32.8059242,0 -117.1513253,32.8062636,0 -117.1514789,32.8066987,0 -117.1517565,32.8072837,0 -117.1521007,32.8079282,0 -117.1525637,32.8086728,0 -117.153202,32.809455,0 -117.1546287,32.8109692,0 -117.1559768,32.8123702,0 -117.1576822,32.8141542,0 -117.1579869,32.8145566,0 -117.1583216,32.814975,0 -117.15889,32.815804,0 -117.1592019,32.8163291,0 -117.16037,32.818356,0 -117.1632914,32.8234109,0 -117.1641273,32.8248527,0 -117.1666472,32.8290328,0 -117.168679,32.8323833,0 -117.1702166,32.8349104,0 -117.171417,32.8368835,0 -117.1743402,32.8417062,0 -117.1754703,32.8435486,0 -117.177268,32.8464795,0 -117.177339,32.846595,0 -117.1784001,32.848336,0 -117.1785681,32.8486147,0 -117.1787662,32.8489441,0 -117.1793749,32.8499537,0 -117.1798127,32.8506801,0 -117.1821508,32.8545382,0 -117.18294,32.8557425,0 -117.1840987,32.8576892,0 -117.1844077,32.8581867,0 -117.1851716,32.8594197,0 -117.1861153,32.8607137,0 -117.1867329,32.8614156,0 -117.1886573,32.8634377,0 -117.1893172,32.8641255,0 -117.1896186,32.8644397,0 -117.1901087,32.8649972,0 -117.190262,32.8651535,0 -117.1933206,32.8683128,0 -117.1953897,32.8704717,0 -117.1961861,32.8713014,0 -117.1969602,32.8720645,0 -117.198158,32.873543,0 -117.199496,32.875904,0 -117.1996,32.876129,0 -117.2003153,32.8784268,0 -117.200622,32.8794122,0 -117.200738,32.8797876,0 -117.200889,32.8802492,0 -117.2010448,32.8807838,0 -117.2010984,32.8809456,0 -117.2011536,32.8811205,0 -117.2012231,32.881343,0 -117.2018558,32.883519,0 -117.2021145,32.8844086,0 -117.2024617,32.8854588,0 -117.202496,32.885572,0 -117.2025899,32.8858706,0 -117.2026479,32.8860093,0 -117.2029354,32.8867371,0 -117.2031969,32.8873681,0 -117.2034933,32.8879533,0 -117.2038045,32.8884218,0 -117.2040083,32.8886561,0 -117.2041934,32.8889027,0 -117.2048774,32.8897147,0 -117.205461,32.8902276,0 -117.2057792,32.8904857,0 -117.2062717,32.8908575,0 -117.2067309,32.8911412,0 -117.2072292,32.8914272,0 -117.2079318,32.8918038,0 -117.2087533,32.8921713,0 -117.209663,32.89254,0 -117.2107225,32.8929775,0 -117.211632,32.893353,0 -117.21273,32.893902,0 -117.213623,32.894386,0 -117.214073,32.894714,0 -117.2148863,32.8952775,0 -117.2157079,32.8959837,0 -117.216469,32.896736,0 -117.2183384,32.898852,0 -117.2193907,32.899901,0 -117.2203436,32.9008623,0 -117.220683,32.901231,0 -117.2215147,32.9020582,0 -117.2219203,32.9024616,0 -117.2234125,32.9039749,0 -117.2241764,32.9048685,0 -117.2244253,32.9052288,0 -117.2249666,32.9061073,0 -117.2276686,32.910653,0 
			</coordinates>
		</LineString>
		<atom:link rel="app" href="https://www.google.com/earth/about/versions/#earth-pro" title="Google Earth Pro 7.3.6.10201"></atom:link>
	</Placemark>
</Document>
</kml>
