<?xml version="1.0" encoding="UTF-8"?>
<kml xmlns="http://www.opengis.net/kml/2.2" xmlns:gx="http://www.google.com/kml/ext/2.2" xmlns:kml="http://www.opengis.net/kml/2.2" xmlns:atom="http://www.w3.org/2005/Atom">
<Document>
	<name>I.82.kml</name>
	<Placemark>
		<name>I.82</name>
			<LineString>
				<coordinates>
					-119.388256,45.79898699999999,0 -119.3872462,45.7998228,0 -119.3864037,45.80054090000001,0 -119.3852526,45.8015002,0 -119.3845059,45.80217640000001,0 -119.3838364,45.8030978,0 -119.3834244,45.8040133,0 -119.3832957,45.80496469999999,0 -119.3832613,45.8056168,0 -119.383294,45.8095389,0 -119.383338,45.813616,0 -119.38333,45.821032,0 -119.3832442,45.8293233,0 -119.3831669,45.83091410000001,0 -119.3829438,45.832152,0 -119.3824889,45.83358729999999,0 -119.3819481,45.8348372,0 -119.3813731,45.835794,0 -119.3804461,45.8370497,0 -119.379605,45.8380723,0 -119.3785664,45.83908290000001,0 -119.3770901,45.8402429,0 -119.3707816,45.8451459,0 -119.3663956,45.8485358,0 -119.3601643,45.85332450000001,0 -119.3550746,45.85725790000001,0 -119.3502938,45.860964,0 -119.3460524,45.8642225,0 -119.339877,45.86901369999999,0 -119.3377539,45.8709033,0 -119.3361832,45.8724989,0 -119.334973,45.8738614,0 -119.3334967,45.8758035,0 -119.3320977,45.87793080000001,0 -119.3310162,45.880076,0 -119.3304664,45.8813614,0 -119.3299433,45.88278859999999,0 -119.3294026,45.8848679,0 -119.329245,45.8856747,0 -119.328982,45.88725769999999,0 -119.3288619,45.8890381,0 -119.3289305,45.8915352,0 -119.3291149,45.8930236,0 -119.3292395,45.8938172,0 -119.3294603,45.8949027,0 -119.3296773,45.8957467,0 -119.330031,45.8969035,0 -119.3305613,45.89838700000001,0 -119.331248,45.90031030000001,0 -119.3315054,45.9013078,0 -119.3315741,45.90228139999999,0 -119.3314454,45.9033684,0 -119.331286,45.9038681,0 -119.3309217,45.9047566,0 -119.3301653,45.905847,0 -119.3291656,45.9069778,0 -119.3270061,45.9094477,0 -119.324124,45.91275069999999,0 -119.3225535,45.914537,0 -119.3216861,45.9156028,0 -119.321427,45.91601799999999,0 -119.3211858,45.9164818,0 -119.3210378,45.9170797,0 -119.3209623,45.9178389,0 -119.3209755,45.91811069999999,0 -119.3210072,45.91846559999999,0 -119.3211065,45.9188927,0 -119.3212349,45.9193364,0 -119.3214863,45.919824,0 -119.3222185,45.9209042,0 -119.3224843,45.9212796,0 -119.322825,45.92174360000001,0 -119.3238911,45.9231949,0 -119.3243081,45.9237793,0 -119.3248425,45.9245951,0 -119.3252407,45.9252774,0 -119.3257472,45.92626849999999,0 -119.3282985,45.9315828,0 -119.3299742,45.935059,0 -119.3302279,45.93561449999999,0 -119.3316936,45.9387104,0 -119.3318837,45.9391214,0 -119.3331357,45.9417246,0 -119.33492,45.9453206,0 -119.3351198,45.9457207,0 -119.3367208,45.9490641,0 -119.337477,45.9506425,0 -119.3382762,45.95230170000001,0 -119.3391946,45.9541883,0 -119.3397269,45.95531,0 -119.3398244,45.9555152,0 -119.3409678,45.9578563,0 -119.3413227,45.9586173,0 -119.3415118,45.9590883,0 -119.3416448,45.95939049999999,0 -119.3417312,45.9596546,0 -119.3418816,45.96009829999999,0 -119.3420729,45.9608205,0 -119.3421579,45.9612374,0 -119.3422435,45.9618219,0 -119.3422821,45.9621661,0 -119.3423196,45.9630452,0 -119.3422775,45.9637231,0 -119.3421171,45.9648559,0 -119.3420241,45.9651936,0 -119.341631,45.9663942,0 -119.3410864,45.9675518,0 -119.3409048,45.96786440000001,0 -119.3406792,45.9682546,0 -119.3393123,45.9700609,0 -119.3363804,45.9733849,0 -119.3360403,45.9737579,0 -119.335487,45.9743306,0 -119.3344026,45.97527269999999,0 -119.3338085,45.97570999999999,0 -119.3324545,45.97660149999999,0 -119.3263771,45.9802703,0 -119.3252458,45.9809164,0 -119.324605,45.9812532,0 -119.3232679,45.9818334,0 -119.3226569,45.98207529999999,0 -119.3211364,45.9825647,0 -119.3193564,45.983023,0 -119.3176039,45.98333899999999,0 -119.3168711,45.98344130000001,0 -119.3135395,45.9837859,0 -119.3127888,45.98389640000001,0 -119.311342,45.9841765,0 -119.3097826,45.9846052,0 -119.3090026,45.9848661,0 -119.3082483,45.9851442,0 -119.3024105,45.98737770000001,0 -119.2999967,45.988305,0 -119.2966544,45.9895689,0 -119.2958335,45.989875,0 -119.2942621,45.9904072,0 -119.2932984,45.9907241,0 -119.2899774,45.99171139999999,0 -119.2880518,45.99227450000001,0 -119.286698,45.99266829999999,0 -119.279044,45.9948998,0 -119.272903,45.9966753,0 -119.2717313,45.9969865,0 -119.2707559,45.99720959999999,0 -119.2702268,45.9973167,0 -119.2696082,45.9974394,0 -119.2688656,45.9975756,0 -119.26785,45.9977374,0 -119.2656962,45.99802259999999,0 -119.2640612,45.9982424,0 -119.2634482,45.9983365,0 -119.2627983,45.99843729999999,0 -119.2623638,45.9985106,0 -119.2609968,45.9988132,0 -119.2604001,45.9989571,0 -119.2592193,45.9992931,0 -119.2586834,45.9994683,0 -119.2578522,45.9997598,0 -119.2567246,46.0002228,0 -119.2551846,46.0009256,0 -119.2542891,46.0013479,0 -119.2520916,46.00240460000001,0 -119.2512739,46.0027947,0 -119.2474584,46.0045523,0 -119.2452929,46.0055519,0 -119.243653,46.00633229999999,0 -119.2409372,46.0076099,0 -119.237394,46.00929940000001,0 -119.2354969,46.0101793,0 -119.2342717,46.01077459999999,0 -119.2334359,46.0112159,0 -119.2328694,46.0115527,0 -119.2322801,46.0119303,0 -119.2318105,46.01224910000001,0 -119.2311458,46.0127127,0 -119.2306284,46.0131078,0 -119.2301314,46.0134949,0 -119.2291784,46.01439799999999,0 -119.2287348,46.0148322,0 -119.2281388,46.0154562,0 -119.2276356,46.0160427,0 -119.2272167,46.0166537,0 -119.2267752,46.0173015,0 -119.2264592,46.0178093,0 -119.2260483,46.018589,0 -119.2256674,46.0193351,0 -119.225444,46.01985550000001,0 -119.2251661,46.0207724,0 -119.2249668,46.0214064,0 -119.2248751,46.0218868,0 -119.2248037,46.02232479999999,0 -119.224737,46.022707,0 -119.2246989,46.023092,0 -119.2246721,46.0236756,0 -119.2246179,46.0250963,0 -119.2246104,46.0255943,0 -119.224471,46.0315163,0 -119.224425,46.03298770000001,0 -119.2243842,46.0354006,0 -119.2237422,46.05620130000001,0 -119.2232004,46.0626335,0 -119.2232067,46.0642148,0 -119.2233831,46.0668293,0 -119.2233831,46.0683223,0 -119.2231563,46.06994139999999,0 -119.2221421,46.0737402,0 -119.2218082,46.0754223,0 -119.2216696,46.07660670000001,0 -119.221594,46.0780494,0 -119.2216318,46.0793975,0 -119.2218082,46.0811048,0 -119.2223862,46.084198,0 -119.2228728,46.0867747,0 -119.2230114,46.0881607,0 -119.2230073,46.0885518,0 -119.2229925,46.08996870000001,0 -119.2227909,46.09117830000001,0 -119.2224445,46.0924194,0 -119.221846,46.093818,0 -119.2210774,46.0951977,0 -119.2200127,46.09663400000001,0 -119.2110543,46.10690289999999,0 -119.2049623,46.1132972,0 -119.2038976,46.1146895,0 -119.2029589,46.1164598,0 -119.2025189,46.1175002,0 -119.2021329,46.11918849999999,0 -119.2020566,46.1202311,0 -119.2019237,46.1363503,0 -119.2019132,46.1376205,0 -119.2018724,46.142051,0 -119.2018732,46.1425419,0 -119.2018279,46.14474370000001,0 -119.201784,46.14769429999999,0 -119.2017554,46.1484965,0 -119.2015658,46.1623095,0 -119.2015963,46.1629726,0 -119.2017305,46.16385029999999,0 -119.201866,46.164334,0 -119.2019553,46.164692,0 -119.2021067,46.1651407,0 -119.2024862,46.1660393,0 -119.2027688,46.1665427,0 -119.2030979,46.1670824,0 -119.2032933,46.1673916,0 -119.2041764,46.1684925,0 -119.2048029,46.1691655,0 -119.2053603,46.169697,0 -119.2058436,46.1701251,0 -119.2073109,46.1712348,0 -119.2085367,46.1719327,0 -119.210033,46.1726656,0 -119.2116383,46.17328069999999,0 -119.2129601,46.17369949999999,0 -119.2144651,46.1740746,0 -119.215669,46.1743058,0 -119.2257677,46.1755796,0 -119.2288737,46.1761685,0 -119.2309065,46.1767051,0 -119.2322272,46.17711239999999,0 -119.23296,46.17738799999999,0 -119.2338554,46.17769859999999,0 -119.2347957,46.1780804,0 -119.2354558,46.1783549,0 -119.2363986,46.1787423,0 -119.246554,46.1837523,0 -119.2502048,46.185503,0 -119.2529229,46.186867,0 -119.2543329,46.1876121,0 -119.2567802,46.1887508,0 -119.2575653,46.18913440000001,0 -119.2587573,46.18971879999999,0 -119.2605045,46.1905747,0 -119.2620315,46.19132069999999,0 -119.264324,46.19244500000001,0 -119.2673943,46.1939488,0 -119.268817,46.19464979999999,0 -119.2702653,46.19535020000001,0 -119.2707324,46.19556810000001,0 -119.2708843,46.19563500000001,0 -119.2710269,46.1956963,0 -119.2712856,46.1958059,0 -119.2720297,46.1961063,0 -119.2735128,46.1965861,0 -119.2750832,46.1970224,0 -119.2765751,46.19731030000001,0 -119.2782154,46.19753709999999,0 -119.2802569,46.1977203,0 -119.2858319,46.1977465,0 -119.2915639,46.19786860000001,0 -119.3074513,46.1979472,0 -119.3104788,46.1980519,0 -119.313637,46.1982961,0 -119.3161148,46.19861019999999,0 -119.3191771,46.19913369999999,0 -119.3223354,46.1998491,0 -119.3238012,46.2002417,0 -119.3274524,46.20140640000001,0 -119.3307721,46.2027806,0 -119.333372,46.2040544,0 -119.3360853,46.2056597,0 -119.3380537,46.2069441,0 -119.3400098,46.2084463,0 -119.3419736,46.210119,0 -119.342716,46.2108523,0 -119.3434584,46.211628,0 -119.3440377,46.2122674,0 -119.3445897,46.21291220000001,0 -119.3451674,46.21362390000001,0 -119.3464049,46.2153954,0 -119.3475261,46.2171305,0 -119.3477291,46.21745740000001,0 -119.3502979,46.2215728,0 -119.3509539,46.2226397,0 -119.3515147,46.2236282,0 -119.3519974,46.2245736,0 -119.3538426,46.2282379,0 -119.3597674,46.2400064,0 -119.3611705,46.24277679999999,0 -119.3614113,46.2432203,0 -119.3616163,46.2435774,0 -119.3617973,46.2438679,0 -119.3620304,46.2441899,0 -119.3622753,46.2445209,0 -119.3628758,46.24527379999999,0 -119.3631349,46.24558,0 -119.3634317,46.2459099,0 -119.36364,46.24612370000001,0 -119.3638417,46.2463226,0 -119.3641161,46.2465882,0 -119.3645061,46.2469506,0 -119.3649564,46.24735200000001,0 -119.3654639,46.24777469999999,0 -119.3658802,46.2480897,0 -119.3665741,46.2485825,0 -119.3670389,46.2488851,0 -119.3678395,46.2493801,0 -119.3690308,46.2499972,0 -119.3748358,46.25300420000001,0 -119.3858837,46.2586088,0 -119.3875319,46.25930429999999,0 -119.3910603,46.26052200000001,0 -119.3939477,46.2612446,0 -119.3970644,46.26180290000001,0 -119.3993503,46.2620596,0 -119.4013431,46.2621754,0 -119.4035287,46.2622082,0 -119.405939,46.2621506,0 -119.4085811,46.2619092,0 -119.4224604,46.2600872,0 -119.43166,46.258895,0 -119.4565453,46.2556458,0 -119.4569868,46.2555857,0 -119.4579054,46.25544499999999,0 -119.4590964,46.2552523,0 -119.4598184,46.2551301,0 -119.4607236,46.25496069999999,0 -119.4618598,46.25470889999999,0 -119.4630319,46.254444,0 -119.4648132,46.253955,0 -119.4659046,46.2536163,0 -119.4670947,46.2532296,0 -119.4686445,46.252674,0 -119.4707597,46.2519148,0 -119.4711255,46.251798,0 -119.4716091,46.2516663,0 -119.4720814,46.2515483,0 -119.4725999,46.25144060000001,0 -119.473076,46.2513534,0 -119.473507,46.25129459999999,0 -119.4739523,46.2512401,0 -119.4744423,46.2511991,0 -119.4751416,46.251166,0 -119.4758081,46.2511609,0 -119.4765406,46.2511954,0 -119.4772987,46.2512573,0 -119.4777498,46.25131630000001,0 -119.4782147,46.2513892,0 -119.4788544,46.2515165,0 -119.4794197,46.2516499,0 -119.481875,46.2522709,0 -119.48592,46.253294,0 -119.4877257,46.2537506,0 -119.4908755,46.2545659,0 -119.4984571,46.2565202,0 -119.5074259,46.2585269,0 -119.5120849,46.2594866,0 -119.5149814,46.2600929,0 -119.517228,46.2605641,0 -119.5187141,46.2608324,0 -119.5194266,46.26096099999999,0 -119.520155,46.2610813,0 -119.5243123,46.2617681,0 -119.5285524,46.2626841,0 -119.54112,46.2653975,0 -119.5478032,46.2668327,0 -119.5502905,46.2673601,0 -119.5516463,46.26764619999999,0 -119.5532691,46.2678643,0 -119.5548831,46.2680039,0 -119.5572911,46.26798649999999,0 -119.5585911,46.2678818,0 -119.5602836,46.26761999999999,0 -119.5622632,46.2671915,0 -119.5678774,46.2655687,0 -119.5684009,46.26541170000001,0 -119.5722179,46.2643386,0 -119.5727283,46.2641946,0 -119.5837169,46.2611541,0 -119.5863168,46.26032959999999,0 -119.5875033,46.2598672,0 -119.5953074,46.2563469,0 -119.5965725,46.2558147,0 -119.6004595,46.2545731,0 -119.6071472,46.25288489999999,0 -119.6135535,46.2510618,0 -119.6167188,46.2500117,0 -119.619854,46.2488676,0 -119.6260571,46.2465099,0 -119.6298218,46.24514889999999,0 -119.638637,46.2418205,0 -119.643237,46.24008570000001,0 -119.6604645,46.2336782,0 -119.6724864,46.2291619,0 -119.6739914,46.2285556,0 -119.6757101,46.2277442,0 -119.677961,46.2265359,0 -119.6787768,46.2260691,0 -119.6799241,46.2254497,0 -119.680814,46.22503519999999,0 -119.682223,46.2245118,0 -119.6875406,46.2230591,0 -119.6891764,46.2225138,0 -119.692182,46.221589,0 -119.6949259,46.2209958,0 -119.6958027,46.2208736,0 -119.696793,46.22077329999999,0 -119.6973775,46.2207297,0 -119.6981758,46.2206991,0 -119.7076463,46.2204679,0 -119.7086627,46.22043300000001,0 -119.7096966,46.2203676,0 -119.7106999,46.2202673,0 -119.7121002,46.2201059,0 -119.7131908,46.2199139,0 -119.7141679,46.2197176,0 -119.7150927,46.2194995,0 -119.7161353,46.2192203,0 -119.7171866,46.2189019,0 -119.7183862,46.2184656,0 -119.71966,46.21795530000001,0 -119.7206154,46.217519,0 -119.7214355,46.21710900000001,0 -119.7235845,46.2159121,0 -119.7241924,46.2155735,0 -119.7242533,46.2155394,0 -119.7247601,46.2152557,0 -119.7299201,46.2123672,0 -119.7306573,46.21204,0 -119.731255,46.2118175,0 -119.7318482,46.21163,0 -119.7321536,46.2115514,0 -119.7324808,46.2114686,0 -119.733013,46.2113639,0 -119.7336368,46.21128530000001,0 -119.7341995,46.2112374,0 -119.7350152,46.21122429999999,0 -119.7358484,46.2112635,0 -119.7365333,46.21132900000001,0 -119.7371767,46.2114293,0 -119.7382454,46.2117085,0 -119.7391223,46.21200080000001,0 -119.739842,46.2123454,0 -119.74042,46.2126955,0 -119.745168,46.2159584,0 -119.7466559,46.2169814,0 -119.7482307,46.2180022,0 -119.7502243,46.2194046,0 -119.7508306,46.2197514,0 -119.7513999,46.2200372,0 -119.7519474,46.2202684,0 -119.7530248,46.2206653,0 -119.7544731,46.2210405,0 -119.7554415,46.2212215,0 -119.7562922,46.2213175,0 -119.7571319,46.221372,0 -119.7580894,46.2213927,0 -119.7827188,46.2214887,0 -119.7848215,46.22160210000001,0 -119.7862828,46.22175039999999,0 -119.7876918,46.22193799999999,0 -119.7894586,46.22224340000001,0 -119.790933,46.2225706,0 -119.7923508,46.2229501,0 -119.7936856,46.2233514,0 -119.7952604,46.2239141,0 -119.7963728,46.2243547,0 -119.79803,46.2251138,0 -119.7996401,46.2259557,0 -119.8005998,46.2265359,0 -119.8016773,46.2272556,0 -119.8067338,46.2307682,0 -119.8144946,46.2361198,0 -119.8156999,46.2369675,0 -119.8161769,46.237294,0 -119.8168979,46.23771290000001,0 -119.8184727,46.2384152,0 -119.8189307,46.23858540000001,0 -119.8194542,46.2387337,0 -119.8313806,46.24149499999999,0 -119.8407101,46.2440154,0 -119.8412219,46.24416469999999,0 -119.8490653,46.24628480000001,0 -119.8637836,46.2502632,0 -119.8688264,46.2516199,0 -119.8701656,46.2520299,0 -119.8717971,46.2526014,0 -119.8727088,46.2529503,0 -119.8733183,46.2532171,0 -119.8744764,46.2537617,0 -119.8852487,46.2593729,0 -119.891314,46.262532,0 -119.891738,46.2627557,0 -119.8926996,46.2632382,0 -119.8942433,46.2639037,0 -119.8956324,46.2644085,0 -119.8970724,46.2648386,0 -119.8986607,46.26521039999999,0 -119.913317,46.2684423,0 -119.9149107,46.26878030000001,0 -119.9228705,46.2705506,0 -119.9247658,46.2710022,0 -119.9260216,46.27132599999999,0 -119.9269318,46.2716703,0 -119.9276789,46.27202599999999,0 -119.9285968,46.2726115,0 -119.9293877,46.2732335,0 -119.93152,46.275484,0 -119.9319663,46.2759551,0 
				
					-119.9323061,46.2762875,0 -119.9334165,46.27736970000001,0 -119.9354196,46.2790675,0 -119.9464839,46.28736959999999,0 -119.9468052,46.2876126,0 -119.9511127,46.2910194,0 -119.9544964,46.2935968,0 -119.9588581,46.296706,0 -119.9636418,46.3004083,0 -119.9690229,46.3045885,0 -119.9700154,46.30518380000001,0 -119.9708218,46.30555769999999,0 -119.9728005,46.30620299999999,0 -119.9737284,46.3064009,0 -119.9745969,46.3065266,0 -119.9755806,46.3065768,0 -119.985529,46.3063842,0 -119.9894195,46.30629759999999,0 -119.9906382,46.30628209999999,0 -119.9959721,46.3061426,0 -120.0014294,46.3061067,0 -120.0135388,46.3062749,0 -120.0144743,46.3062689,0 -120.0151475,46.3062763,0 -120.0198107,46.3062613,0 -120.0205474,46.3062641,0 -120.0271683,46.3062577,0 -120.0360831,46.3062187,0 -120.0383361,46.3063932,0 -120.040381,46.3067171,0 -120.0419254,46.3071301,0 -120.0422968,46.3072349,0 -120.0432644,46.3075908,0 -120.0446383,46.3081455,0 -120.045621,46.30873099999999,0 -120.0464922,46.3092501,0 -120.0473516,46.3098765,0 -120.0518356,46.31389630000001,0 -120.0558904,46.3176069,0 -120.0569883,46.3185299,0 -120.058127,46.3192796,0 -120.0595019,46.3200465,0 -120.0612383,46.3208358,0 -120.0631468,46.3214751,0 -120.0701334,46.3232689,0 -120.0721144,46.3238082,0 -120.0729449,46.32407250000001,0 -120.0740688,46.3244754,0 -120.0749592,46.3248282,0 -120.0755909,46.3251098,0 -120.0764085,46.3255066,0 -120.0811299,46.3277626,0 -120.0824601,46.3282295,0 -120.083826,46.328589,0 -120.0846814,46.3287523,0 -120.0852543,46.3288287,0 -120.0860182,46.3288955,0 -120.1101699,46.33043190000001,0 -120.1110765,46.3304838,0 -120.1121105,46.3305523,0 -120.1145511,46.3307253,0 -120.1159112,46.3308922,0 -120.117381,46.3311223,0 -120.1186189,46.33138670000001,0 -120.1196972,46.3316552,0 -120.1204267,46.3318663,0 -120.1214433,46.332171,0 -120.122149,46.3324267,0 -120.1236589,46.33302599999999,0 -120.1251067,46.33372200000001,0 -120.1257594,46.3340703,0 -120.131604,46.3373318,0 -120.1330484,46.337923,0 -120.1343636,46.3382694,0 -120.1356836,46.3384955,0 -120.1370739,46.33860299999999,0 -120.1540675,46.3384723,0 -120.1557305,46.33846100000001,0 -120.1578685,46.3385734,0 -120.1597862,46.33875410000001,0 -120.1612093,46.33895320000001,0 -120.1625464,46.3391811,0 -120.1640774,46.3395131,0 -120.165784,46.339965,0 -120.1673494,46.34042470000001,0 -120.1695452,46.3412315,0 -120.1711048,46.3419189,0 -120.1727196,46.3427322,0 -120.1733837,46.3430601,0 -120.1744815,46.3437041,0 -120.175566,46.3444218,0 -120.1773168,46.3456638,0 -120.1778519,46.34605,0 -120.1823058,46.3491944,0 -120.1835657,46.3500366,0 -120.1846023,46.350604,0 -120.1858598,46.35120549999999,0 -120.186523,46.3514684,0 -120.1913668,46.35317959999999,0 -120.1931615,46.3538168,0 -120.1946707,46.35445279999999,0 -120.1962164,46.35522810000001,0 -120.1976307,46.3559668,0 -120.1993255,46.35700539999999,0 -120.2004274,46.3578005,0 -120.2016272,46.3587188,0 -120.2108777,46.3671252,0 -120.2123382,46.3686012,0 -120.2138461,46.37021380000001,0 -120.2141562,46.37054550000001,0 -120.214181,46.3705733,0 -120.2145308,46.3709567,0 -120.2181375,46.3749094,0 -120.2186215,46.3754488,0 -120.2221255,46.3791776,0 -120.2231782,46.3801857,0 -120.2245424,46.3813687,0 -120.2257539,46.3822487,0 -120.2269509,46.3830821,0 -120.2323613,46.386663,0 -120.2359168,46.389054,0 -120.2412913,46.3926223,0 -120.242124,46.3931339,0 -120.243081,46.39361819999999,0 -120.2442275,46.3940295,0 -120.2452465,46.39429269999999,0 -120.2461954,46.3944819,0 -120.2468348,46.39456379999999,0 -120.247945,46.39468359999999,0 -120.2491315,46.39478830000001,0 -120.2498993,46.3948886,0 -120.2512778,46.395098,0 -120.2525166,46.3953728,0 -120.2535156,46.39566069999999,0 -120.2544753,46.3959879,0 -120.2557229,46.3964983,0 -120.2616687,46.3993469,0 -120.2630693,46.3999417,0 -120.2643186,46.4004147,0 -120.2655881,46.400819,0 -120.2667322,46.40113430000001,0 -120.2679411,46.4014254,0 -120.2713614,46.4021613,0 -120.2791359,46.4038188,0 -120.2804495,46.4041757,0 -120.2821964,46.4048862,0 -120.2827775,46.4051629,0 -120.2836478,46.4056382,0 -120.2843108,46.4060829,0 -120.2850992,46.4066893,0 -120.2858391,46.4073362,0 -120.2879818,46.40959620000001,0 -120.2886206,46.4101218,0 -120.2892836,46.4105746,0 -120.2900073,46.4109869,0 -120.2909129,46.41141149999999,0 -120.2917498,46.41171469999999,0 -120.2926797,46.4119815,0 -120.3079414,46.4151918,0 -120.3122717,46.4160851,0 -120.3138727,46.4163802,0 -120.3156152,46.4166592,0 -120.3164463,46.4167871,0 -120.3229369,46.4176335,0 -120.3247158,46.4179933,0 -120.3265998,46.4185189,0 -120.3280278,46.41900460000001,0 -120.3293863,46.4195504,0 -120.3344156,46.4219478,0 -120.3357538,46.42265939999999,0 -120.3364521,46.4231019,0 -120.3370072,46.4234922,0 -120.3375327,46.4238957,0 -120.3381068,46.42439779999999,0 -120.3387982,46.425073,0 -120.3392662,46.4255842,0 -120.3399908,46.4264395,0 -120.3429575,46.4306716,0 -120.3441712,46.43240280000001,0 -120.3446523,46.4333084,0 -120.3450324,46.4343394,0 -120.3451314,46.43500619999999,0 -120.3451739,46.4356735,0 -120.3450081,46.4391828,0 -120.3450515,46.4398334,0 -120.3451334,46.4402986,0 -120.3454083,46.4414023,0 -120.3459258,46.4424131,0 -120.3466819,46.4434561,0 -120.3472794,46.4440999,0 -120.3479271,46.4446892,0 -120.3485861,46.4451744,0 -120.3494998,46.4457646,0 -120.3504458,46.44624580000001,0 -120.3600478,46.4510568,0 -120.3618226,46.4520797,0 -120.3634681,46.45313489999999,0 -120.3663936,46.45520319999999,0 -120.3759809,46.46198079999999,0 -120.3771574,46.4627853,0 -120.3783339,46.46347670000001,0 -120.3797529,46.46422459999999,0 -120.3807071,46.4646653,0 -120.3901392,46.46849390000001,0 -120.3933291,46.4697836,0 -120.3947522,46.4704709,0 -120.396151,46.4712876,0 -120.3973235,46.47208,0 -120.3979259,46.4725732,0 -120.4012249,46.4754842,0 -120.4101829,46.4834264,0 -120.4115552,46.4846022,0 -120.4125046,46.48526410000001,0 -120.4137152,46.4860175,0 -120.4150043,46.48670129999999,0 -120.4163238,46.4872761,0 -120.42219,46.4894492,0 -120.4227343,46.48964960000001,0 -120.4279036,46.4915465,0 -120.4284014,46.49172919999999,0 -120.4284306,46.49173989999999,0 -120.4291129,46.491996,0 -120.4328858,46.4934122,0 -120.4335564,46.49370400000001,0 -120.4341966,46.4940132,0 -120.4349935,46.4944313,0 -120.4355118,46.4947231,0 -120.4364176,46.4953589,0 -120.4390654,46.49739270000001,0 -120.4397579,46.49795449999999,0 -120.4404111,46.4983769,0 -120.4415695,46.4990955,0 -120.442741,46.4997618,0 -120.4460334,46.5013557,0 -120.4469131,46.5019175,0 -120.4477318,46.5025315,0 -120.4483546,46.5031282,0 -120.4491689,46.5041472,0 -120.4497438,46.5051445,0 -120.4506415,46.5077205,0 -120.4509588,46.5085152,0 -120.4519474,46.5111805,0 -120.4521521,46.5116247,0 -120.4526224,46.5124739,0 -120.453672,46.5140547,0 -120.4546388,46.515383,0 -120.456433,46.51783050000001,0 -120.4570427,46.5184228,0 -120.4576785,46.5189062,0 -120.4583187,46.51925019999999,0 -120.4589763,46.5195333,0 -120.4596818,46.51978590000001,0 -120.4606704,46.5200297,0 -120.4615544,46.5201865,0 -120.4649687,46.5205131,0 -120.4655566,46.52063070000001,0 -120.466236,46.5207962,0 -120.4670199,46.5210749,0 -120.4678082,46.5214538,0 -120.4685746,46.5219633,0 -120.4691364,46.5224206,0 -120.4696198,46.522978,0 -120.470064,46.5236226,0 -120.4702905,46.5241365,0 -120.4704603,46.5247418,0 -120.4707167,46.5267125,0 -120.4709565,46.52835510000001,0 -120.4711092,46.52961719999999,0 -120.4713662,46.5315878,0 -120.4715295,46.53316209999999,0 -120.4715186,46.5342966,0 -120.4713586,46.53569570000001,0 -120.4705191,46.5430653,0 -120.4703732,46.5481279,0 -120.4702829,46.5529499,0 -120.4702779,46.5531574,0 -120.4702734,46.5533964,0 -120.4701944,46.5557734,0 -120.4701893,46.55630289999999,0 -120.4702162,46.5567433,0 -120.4702687,46.557104,0 -120.4703165,46.5574271,0 -120.4703964,46.5578046,0 -120.4704737,46.5581304,0 -120.4706095,46.5585995,0 -120.4706958,46.5588625,0 -120.4708069,46.5591595,0 -120.4715958,46.5611262,0 -120.4717784,46.5616204,0 -120.4719067,46.5620356,0 -120.4720375,46.56256960000001,0 -120.4720771,46.5627522,0 -120.4721164,46.5630135,0 -120.4721503,46.56326,0 -120.4721823,46.5636826,0 -120.472194,46.5641136,0 -120.4721636,46.5650468,0 -120.4719439,46.5683244,0 -120.4717772,46.57087810000001,0 -120.4717249,46.57979900000001,0 -120.4717401,46.5805635,0 -120.4718202,46.5813421,0 -120.4719769,46.5821844,0 -120.472063,46.5825538,0 -120.4721255,46.5828069,0 -120.4722698,46.5832408,0 -120.4746774,46.5901614,0 -120.4754405,46.5922181,0 -120.4764939,46.5940074,0 -120.4793589,46.5974846,0 -120.4796337,46.5978161,0 -120.4822635,46.60094539999999,0 -120.4880354,46.6080195,0 -120.488681,46.6087742,0 -120.4891914,46.6095332,0 -120.4916913,46.6148566,0 -120.4919649,46.61546729999999,0 -120.4924534,46.6163965,0 -120.4929725,46.6171381,0 -120.4933913,46.6176179,0 -120.4969379,46.62092449999999,0 -120.4973261,46.6212822,0 -120.4984123,46.6221809,0 -120.499468,46.6227959,0 -120.5012776,46.62362370000001,0 -120.5133741,46.6290765,0 -120.5137439,46.6292435,0 -120.514599,46.629767,0 -120.5156852,46.6303951,0 -120.5166667,46.630967,0 -120.5176455,46.6315739,0 -120.5185185,46.63214270000001,0 -120.519681,46.6330387,0 -120.5219843,46.6350279,0 -120.5224292,46.6354728,0 -120.5226604,46.63579130000001,0 -120.5228175,46.6361403,0 -120.5229222,46.6365547,0 -120.5229789,46.637113,0 -120.5229178,46.6375493,0 -120.5227171,46.6380029,0 -120.5224249,46.6384304,0 -120.522089,46.6388056,0 -120.521535,46.6392462,0 -120.5209679,46.6395559,0 -120.5202874,46.6398264,0 -120.5199343,46.6399594,0 -120.5163831,46.6412965,0 -120.5105019,46.6441238,0 -120.5083469,46.6450574,0 -120.5033652,46.64704660000001,0 -120.5029639,46.6472036,0 -120.4996311,46.64854720000001,0 -120.4987674,46.6489572,0 -120.498305,46.6492364,0 -120.4975721,46.6498559,0 -120.4970879,46.65039459999999,0 -120.4967215,46.6511536,0 -120.4966037,46.6517513,0 -120.4965906,46.65224420000001,0 -120.4965426,46.6581071,0 -120.4964336,46.6587091,0 -120.4962067,46.65925880000001,0 -120.4958141,46.6600134,0 -120.4916446,46.6651849,0 -120.4853447,46.6729977,0 -120.4834296,46.6753992,0 -120.4825092,46.6763741,0 -120.4812529,46.6774734,0 -120.4804764,46.6781191,0 -120.4797435,46.67863380000001,0 -120.478714,46.6792707,0 -120.4777456,46.6798116,0 -120.4759047,46.68070149999999,0 -120.4752067,46.68105920000001,0 -120.4578449,46.6898012,0 -120.4573563,46.6900455,0 -120.4561187,46.6906496,0 -120.4542707,46.6914465,0 -120.4438903,46.6955554,0 -120.4430639,46.6960134,0 -120.4422904,46.6966009,0 -120.4416317,46.697424,0 -120.4409335,46.6988644,0 -120.4393426,46.70253000000001,0 -120.4384215,46.7041699,0 -120.4374088,46.70528,0 -120.4364695,46.70610990000001,0 -120.430371,46.71041,0 -120.429208,46.711218,0 -120.4278201,46.7120817,0 -120.42687,46.7125107,0 -120.4256077,46.7128807,0 -120.4248008,46.7129808,0 -120.4204726,46.7131225,0 -120.4185857,46.7131977,0 -120.4162146,46.7132786,0 -120.4154314,46.7133595,0 -120.4144336,46.7135728,0 -120.413645,46.7138305,0 -120.4128565,46.7141981,0 -120.4120518,46.71463949999999,0 -120.4113652,46.7152206,0 -120.4057984,46.72204680000001,0 -120.4054607,46.7223567,0 -120.4049471,46.7227748,0 -120.4037818,46.7235279,0 -120.4025513,46.7240532,0 -120.401437,46.7243625,0 -120.3936627,46.7255811,0 -120.3923612,46.7259381,0 -120.390819,46.7265076,0 -120.3894579,46.7271497,0 -120.387828,46.7281944,0 -120.3870087,46.72891469999999,0 -120.3860416,46.73005089999999,0 -120.385424,46.7309862,0 -120.3850474,46.7316123,0 -120.3848904,46.7319806,0 -120.3847398,46.732384,0 -120.3846082,46.73298170000001,0 -120.3845775,46.7337655,0 -120.3846488,46.7343111,0 -120.3847391,46.7348065,0 -120.3848522,46.7353666,0 -120.3849757,46.7358128,0 -120.3851546,46.7363869,0 -120.3855434,46.7374009,0 -120.3871134,46.7416983,0 -120.3876338,46.74315,0 -120.3881149,46.7445412,0 -120.3886165,46.74593,0 -120.3887944,46.74649,0 -120.3889053,46.747043,0 -120.3889525,46.7474712,0 -120.3889741,46.7478835,0 -120.3889239,46.74847890000001,0 -120.388823,46.7491209,0 -120.3887395,46.7495687,0 -120.388587,46.7500584,0 -120.38839,46.75053679999999,0 -120.3881486,46.7510112,0 -120.3879342,46.751407,0 -120.3876903,46.7518227,0 -120.3875266,46.7520477,0 -120.3873221,46.75230729999999,0 -120.3871175,46.75252110000001,0 -120.3869039,46.7527246,0 -120.3865788,46.7530161,0 -120.3832766,46.755859,0 -120.3817568,46.75725319999999,0 -120.3809585,46.7581764,0 -120.3805019,46.7587658,0 -120.3802628,46.7591031,0 -120.3799863,46.7595626,0 -120.3798313,46.7598917,0 -120.3796764,46.76022470000001,0 -120.3795133,46.76063640000001,0 -120.3793724,46.7610518,0 -120.3792001,46.7616535,0 -120.3778268,46.76634229999999,0 -120.3777185,46.7668974,0 -120.377531,46.76749040000001,0 -120.3772367,46.76858369999999,0 -120.3770608,46.7692196,0 -120.3768077,46.76999930000001,0 -120.3766091,46.7704723,0 -120.3763409,46.770972,0 -120.3761783,46.7712136,0 -120.3758849,46.7717289,0 -120.3758655,46.7717555,0 -120.3755313,46.7722132,0 -120.3753914,46.7724049,0 -120.3747798,46.7730736,0 -120.3737301,46.7744005,0 -120.3731402,46.77530329999999,0 -120.3727644,46.775923,0 -120.3722938,46.7767424,0 -120.3717695,46.7776493,0 -120.3693542,46.78213239999999,0 -120.3684702,46.7833549,0 -120.3678597,46.783999,0 -120.367334,46.7845133,0 -120.3665294,46.7852112,0 -120.3659893,46.7856436,0 -120.3656549,46.7859114,0 -120.3638181,46.7873337,0 -120.3596725,46.7911535,0 -120.3588452,46.7919972,0 -120.358619,46.792275,0 -120.3584276,46.7925349,0 -120.3582852,46.7927861,0 -120.3581188,46.79310939999999,0 -120.3579828,46.79347449999999,0 -120.3579141,46.7937838,0 -120.3578596,46.7941224,0 -120.3578411,46.7945272,0 -120.3578753,46.7947891,0 -120.3581269,46.7958965,0 -120.3587939,46.798793,0 -120.3588904,46.79928510000001,0 -120.3589333,46.7996597,0 -120.3589333,46.8001224,0 -120.3589441,46.80051159999999,0 -120.358869,46.8009523,0 -120.3586973,46.801694,0 -120.3583164,46.8029933,0 -120.357501,46.80445040000001,0 -120.3572213,46.8047908,0 -120.3569056,46.80517510000001,0 -120.3566052,46.8054541,0 -120.3541375,46.8080317,0 -120.3536118,46.8085531,0 -120.3530647,46.8091038,0 -120.3527321,46.8095444,0 -120.3525068,46.809985,0 -120.3523351,46.8104035,0 -120.3522385,46.8108514,0 -120.3522064,46.8112626,0 -120.3522064,46.8116812,0 -120.3522657,46.8120271,0 -120.352336,46.8122756,0 -120.3525282,46.8127385,0 -120.3529145,46.8134361,0 -120.3532471,46.81393539999999,0 -120.3554894,46.8176726,0 -120.357114,46.8201851,0 -120.3575565,46.8207597,0 -120.3578729,46.8211244,0 -120.3582508,46.8215033,0 -120.3587121,46.8219222,0 -120.3621362,46.8246257,0 -120.3632949,46.8255419,0 -120.3642133,46.8265637,0 -120.3648141,46.8273448,0 -120.3653806,46.8283255,0 -120.3660586,46.82969370000001,0 -120.3702214,46.8376207,0 -120.3708909,46.8388243,0 -120.3714796,46.8397435,0 -120.3716726,46.8400234,0 -120.371853,46.8402732,0 -120.3720591,46.840537,0 -120.372382,46.8409232,0 -120.3725433,46.8411063,0 -120.3728084,46.8413939,0 -120.3730619,46.8416532,0 -120.3732731,46.8418639,0 -120.3737214,46.8422627,0 -120.3739201,46.84243210000001,0 -120.3741773,46.8426411,0 -120.3744388,46.84284699999999,0 -120.374727,46.84306260000001,0 -120.374946,46.8432145,0 -120.3753152,46.8434655,0 -120.3755567,46.8436202,0 -120.3757787,46.84376020000001,0 -120.3760202,46.84390770000001,0 -120.3762315,46.84403,0 -120.3763942,46.8441212,0 -120.3766098,46.8442397,0 -120.3767962,46.8443364,0 -120.3772683,46.84457379999999,0 -120.3776627,46.8447665,0 -120.3780574,46.8449481,0 -120.3784736,46.8451296,0 -120.3788797,46.8452986,0 -120.3792515,46.8454371,0 -120.3796181,46.84556940000001,0 -120.3800078,46.8457024,0 -120.3804451,46.8458424,0 -120.3811329,46.8460627,0 -120.3821637,46.8463888,0 -120.38287,46.8466121,0 -120.3848943,46.84724859999999,0 -120.3851868,46.84734640000001,0 -120.3854719,46.8474461,0 -120.38575,46.8475473,0 -120.38604,46.8476599,0 -120.3863607,46.84779489999999,0 -120.3865914,46.8478962,0 -120.3868165,46.8480004,0 -120.3878425,46.84846409999999,0 -120.3893874,46.8495794,0 -120.3907178,46.8509178,0 -120.3916018,46.852309,0 -120.392031,46.8533655,0 -120.3928636,46.85682849999999,0 -120.3930091,46.8572835,0 -120.3932356,46.8578864,0 -120.393533,46.85850119999999,0 -120.3943398,46.8596927,0 -120.3949024,46.8602238,0 -120.3954939,46.86078509999999,0 -120.3958973,46.8611267,0 -120.3963654,46.8614651,0 -120.3970693,46.8618759,0 -120.3980563,46.86243339999999,0 -120.4062961,46.8663242,0 -120.4185527,46.8722391,0 -120.4203895,46.8734243,0 -120.4215911,46.87442180000001,0 -120.4224494,46.8755366,0 -120.4229644,46.8765106,0 -120.4245988,46.8808314,0 -120.4261401,46.88500549999999,0 -120.4269126,46.8861788,0 -120.427527,46.88697790000001,0 -120.4282441,46.8876969,0 -120.4291682,46.8884299,0 -120.4295458,46.8887152,0 -120.4299233,46.8889683,0 -120.4309809,46.889634,0 -120.4319653,46.8901491,0 -120.433384,46.8908063,0 -120.4344585,46.89117049999999,0 -120.4369639,46.8919392,0 -120.4383046,46.89235359999999,0 -120.4402541,46.8929284,0 -120.4418042,46.8934757,0 -120.4437783,46.8943555,0 -120.4452587,46.8951822,0 -120.4453748,46.895247,0 -120.4459441,46.8956801,0 -120.4465944,46.8961719,0 -120.4470598,46.8965294,0 -120.4479076,46.8971807,0 -120.4489119,46.8981777,0 -120.4513838,46.9005705,0 -120.4530317,46.90198969999999,0 -120.4538291,46.90250159999999,0 -120.4553483,46.9033813,0 -120.457434,46.9045541,0 -120.4596398,46.90585000000001,0 -120.4665921,46.9098608,0 -120.4682229,46.9106113,0 -120.4705832,46.9114733,0 -120.4776471,46.9142641,0 -120.4797242,46.9150381,0 -120.4813979,46.9157709,0 -120.4829429,46.9166914,0 -120.4839128,46.917606,0 -120.4866765,46.92006239999999,0 -120.4875949,46.9206486,0 -120.4896548,46.9215279,0 -120.4944613,46.9232866,0 -120.4952167,46.92362659999999,0 -120.496032,46.92416590000001,0 -120.4967788,46.9248576,0 -120.4973796,46.9255493,0 -120.4974187,46.925608,0 -120.4981172,46.9264341,0 -120.4983666,46.9267333,0 -120.4989074,46.9273078,0 -120.5022548,46.9312584,0 -120.5037997,46.9330518,0 -120.5047868,46.9342475,0 -120.5056622,46.9355134,0 -120.5061772,46.93646279999999,0 -120.506615,46.9374884,0 -120.5071643,46.93917620000001,0 -120.5073617,46.9408405,0 -120.5074046,46.94508309999999,0 -120.5074304,46.949214,0 -120.5074389,46.9533152,0 -120.5074733,46.95417650000001,0 -120.5074218,46.955231,0 -120.5072587,46.9561918,0 -120.5070613,46.9569593,0 -120.5068038,46.95804300000001,0 -120.5065291,46.9591561,0 -120.5064519,46.9598766,0 -120.5063832,46.96056200000001,0 -120.5064261,46.9613528,0 -120.5065806,46.96222569999999,0 -120.5067265,46.96277630000001,0 -120.5071643,46.9638951,0 -120.507609,46.9647713,0 
				</coordinates>
			</LineString>
		<atom:link rel="app" href="https://www.google.com/earth/about/versions/#earth-pro" title="Google Earth Pro 7.3.6.10201"></atom:link>
	</Placemark>
</Document>
</kml>
