<?xml version="1.0" encoding="UTF-8"?>
<kml xmlns="http://www.opengis.net/kml/2.2" xmlns:gx="http://www.google.com/kml/ext/2.2" xmlns:kml="http://www.opengis.net/kml/2.2" xmlns:atom="http://www.w3.org/2005/Atom">
<Document>
	<name>I.820.kml</name>
	<Placemark>
		<name>I.820</name>
		<LineString>
			<coordinates>
				-97.2427631,32.6641186,0 -97.24236740000001,32.6645367,0 -97.24181989999998,32.6650134,0 -97.24162990000002,32.6651737,0 -97.2413019,32.6654506,0 -97.2411671,32.6655631,0 -97.2409584,32.6657375,0 -97.24043109999998,32.6661887,0 -97.24002470000002,32.6665382,0 -97.2398827,32.6666693,0 -97.23978079999999,32.6667743,0 -97.2396837,32.6668794,0 -97.23958469999999,32.6669925,0 -97.23946389999999,32.6671515,0 -97.23936650000002,32.667283,0 -97.2392851,32.6674084,0 -97.2392158,32.6675242,0 -97.23915179999999,32.6676467,0 -97.23909649999999,32.6677644,0 -97.23904960000002,32.6678772,0 -97.23898770000001,32.6680335,0 -97.23894069999999,32.6681771,0 -97.2388981,32.6683244,0 -97.23885750000001,32.6684932,0 -97.23883850000001,32.6686069,0 -97.23880640000002,32.6688688,0 -97.23879890000001,32.6689641,0 -97.23878980000002,32.6690822,0 -97.23878609999998,32.6692034,0 -97.2387895,32.6693085,0 -97.23879570000001,32.6694093,0 -97.238806,32.6695426,0 -97.2388145,32.6696403,0 -97.2388321,32.6697501,0 -97.2388595,32.6698772,0 -97.2388875,32.6699987,0 -97.23891820000001,32.6701173,0 -97.23896690000001,32.6702722,0 -97.2390467,32.6704788,0 -97.2391259,32.6706724,0 -97.23918279999999,32.6707843,0 -97.239599,32.6715832,0 -97.24012209999999,32.6726194,0 -97.2401974,32.6727983,0 -97.24027370000002,32.673008,0 -97.24033729999999,32.6731998,0 -97.24040259999998,32.6734494,0 -97.2404465,32.6736607,0 -97.24047940000001,32.6738591,0 -97.2405023,32.6740405,0 -97.24051900000001,32.674251,0 -97.2405243,32.6744532,0 -97.2405255,32.6747106,0 -97.24048159999998,32.6753222,0 -97.24047700000001,32.675593,0 -97.2404666,32.6762368,0 -97.24046079999998,32.6768249,0 -97.240381,32.679917,0 -97.24038899999999,32.680715,0 -97.24039,32.680925,0 -97.240363,32.682567,0 -97.24036,32.683128,0 -97.24035700000002,32.683586,0 -97.240362,32.685259,0 -97.24037000000001,32.686154,0 -97.24037000000001,32.686194,0 -97.240365,32.687857,0 -97.2403556,32.68878,0 -97.240343,32.6892251,0 -97.24034330000002,32.6893103,0 -97.24021180000001,32.6899248,0 -97.240123,32.690247,0 -97.23994299999998,32.69093,0 -97.23920700000001,32.692816,0 -97.238094,32.6956912,0 -97.23788790000002,32.6961457,0 -97.23761,32.696677,0 -97.23751199999998,32.696847,0 -97.23717569999999,32.6974625,0 -97.23695069999998,32.6978752,0 -97.236527,32.698656,0 -97.23552099999999,32.70047,0 -97.235146,32.70116,0 -97.235023,32.701386,0 -97.23486700000001,32.701644,0 -97.23409000000001,32.703102,0 -97.233082,32.704889,0 -97.23233200000001,32.70624,0 -97.231469,32.707807,0 -97.2313791,32.7079733,0 -97.231196,32.708312,0 -97.231126,32.708454,0 -97.23089899999998,32.708858,0 -97.23040799999998,32.709778,0 -97.229883,32.710701,0 -97.229685,32.711075,0 -97.22928,32.711827,0 -97.22834899999999,32.713498,0 -97.2276526,32.7147601,0 -97.2275185,32.7149979,0 -97.22736000000002,32.715269,0 -97.226022,32.717682,0 -97.22571499999999,32.718299,0 -97.225421,32.71904,0 -97.2251991,32.7196825,0 -97.22516450000001,32.7201712,0 -97.22510489999999,32.7207068,0 -97.225076,32.721969,0 -97.225053,32.723695,0 -97.22505,32.724072,0 -97.225042,32.725208,0 -97.22505099999999,32.726101,0 -97.225037,32.727597,0 -97.2249929,32.728738,0 -97.22498430000002,32.7291567,0 -97.22498280000001,32.7297891,0 -97.22501010000001,32.7306874,0 -97.22502399999999,32.730966,0 -97.22500700000001,32.731844,0 -97.22499500000002,32.732878,0 -97.22498899999999,32.734219,0 -97.224982,32.735265,0 -97.224988,32.736654,0 -97.224975,32.737352,0 -97.22497000000001,32.737741,0 -97.22496100000001,32.739382,0 -97.22494200000001,32.739966,0 -97.2249036,32.7403547,0 -97.22486180000001,32.740599,0 -97.22481180000001,32.740826,0 -97.224695,32.7412664,0 -97.22445870000001,32.742039,0 -97.22432309999999,32.7423962,0 -97.22412640000002,32.7428162,0 -97.223894,32.743356,0 -97.22372200000001,32.743648,0 -97.22279100000002,32.745008,0 -97.22157199999999,32.746843,0 -97.22125200000001,32.747342,0 -97.22091899999999,32.747811,0 -97.220189,32.748855,0 -97.21954049999999,32.7498325,0 -97.21907879999999,32.7505426,0 -97.21814209999999,32.7519559,0 -97.21727749999999,32.7532646,0 -97.21681270000001,32.7539943,0 -97.2165636,32.7543984,0 -97.21632079999999,32.7548191,0 -97.21606690000002,32.7552679,0 -97.2158197,32.7557205,0 -97.2156849,32.7559721,0 -97.2153622,32.7566212,0 -97.21504590000001,32.7573003,0 -97.2147406,32.7580033,0 -97.2138132,32.7602219,0 -97.21356689999999,32.7608094,0 -97.2133767,32.7612748,0 -97.2131866,32.7617457,0 -97.21307590000002,32.7620552,0 -97.21302679999999,32.7622054,0 -97.21296350000001,32.7624389,0 -97.21290020000001,32.7626925,0 -97.2128656,32.762855,0 -97.21283099999999,32.7630516,0 -97.21280539999999,32.7632216,0 -97.21278450000001,32.7633937,0 -97.21277150000002,32.7635085,0 -97.2127586,32.7636393,0 -97.21274630000001,32.76382,0 -97.21274050000001,32.7640089,0 -97.2127287,32.764508,0 -97.2127255,32.7647914,0 -97.2127133,32.7654859,0 -97.2126938,32.7661224,0 -97.21267760000002,32.7667698,0 -97.2126725,32.7670644,0 -97.21264829999998,32.7696542,0 -97.21263500000001,32.770563,0 -97.21261499999999,32.772107,0 -97.212582,32.773587,0 -97.2125789,32.7736866,0 -97.2125417,32.7755601,0 -97.2125102,32.7766589,0 -97.2124716,32.7777889,0 -97.21235759999999,32.7806379,0 -97.2123562,32.7808886,0 -97.2123381,32.7820824,0 -97.212334,32.7827282,0 -97.21230989999998,32.7848978,0 -97.21227259999999,32.7860822,0 -97.21219309999999,32.7883233,0 -97.21217029999998,32.7892771,0 -97.2121547,32.790096,0 -97.21215840000001,32.7913111,0 -97.2121944,32.7931263,0 -97.21217799999998,32.7940916,0 -97.21218640000001,32.7949108,0 -97.2121506,32.7975749,0 -97.21201219999999,32.7995982,0 -97.212003,32.799822,0 -97.211979,32.8008,0 -97.21197300000001,32.801119,0 -97.21194499999999,32.80221,0 -97.211894,32.802732,0 -97.21182200000001,32.803156,0 -97.21174699999999,32.803486,0 -97.21171599999998,32.803627,0 -97.211494,32.8043563,0 -97.2112193,32.8051931,0 -97.211022,32.805711,0 -97.210978,32.80583,0 -97.21057699999999,32.8069571,0 -97.21038200000001,32.8075298,0 -97.210257,32.807899,0 -97.20975779999999,32.8092142,0 -97.20937739999999,32.8102161,0 -97.20873899999999,32.8114179,0 -97.2080201,32.8127364,0 -97.2075856,32.8135465,0 -97.207229,32.814245,0 -97.20713499999999,32.814445,0 -97.20628869999999,32.8164997,0 -97.20614279999999,32.8168748,0 -97.206046,32.817162,0 -97.20595799999998,32.817481,0 -97.20574499999999,32.818416,0 -97.20563900000002,32.819058,0 -97.205546,32.820014,0 -97.20553339999999,32.8205862,0 -97.2055096,32.8213439,0 -97.20544019999998,32.8226672,0 -97.2054045,32.823349,0 -97.20536490000002,32.8241493,0 -97.205298,32.8252577,0 -97.2051943,32.8271931,0 -97.20522619999998,32.8276002,0 -97.20523700000001,32.8286135,0 -97.205265,32.829084,0 -97.2052959,32.8292756,0 -97.2053439,32.8295233,0 -97.20542589999998,32.8297996,0 -97.2055416,32.8301174,0 -97.20565499999999,32.830363,0 -97.20575660000002,32.8305463,0 -97.2058768,32.8307329,0 -97.2060415,32.8309637,0 -97.2062184,32.8311758,0 -97.20652029999999,32.8314877,0 -97.2067612,32.8316992,0 -97.2070605,32.8319203,0 -97.2073437,32.8321064,0 -97.2076605,32.8322791,0 -97.2079987,32.8324427,0 -97.20837539999998,32.8325868,0 -97.2086572,32.8326837,0 -97.2089477,32.8327782,0 -97.2093996,32.8328783,0 -97.20985829999999,32.8329504,0 -97.21028339999999,32.8330011,0 -97.2123965,32.8330251,0 -97.213048,32.8330438,0 -97.213667,32.8330451,0 -97.21437570000001,32.8330732,0 -97.2148143,32.8331058,0 -97.2153655,32.8331667,0 -97.2156847,32.8332151,0 -97.21597169999998,32.8332613,0 -97.2164471,32.8333538,0 -97.21713300000002,32.8335127,0 -97.2176575,32.8336681,0 -97.218277,32.8338743,0 -97.21883019999999,32.8341002,0 -97.2191909,32.8342429,0 -97.2193578,32.8343106,0 -97.2193994,32.834325,0 -97.2201182,32.8346585,0 -97.22164720000002,32.8354801,0 -97.2219825,32.8356581,0 -97.225403,32.8375659,0 -97.2263988,32.8381191,0 -97.2275866,32.8387286,0 -97.2282192,32.8390075,0 -97.22859080000001,32.8391322,0 -97.22904419999999,32.8392945,0 -97.2296383,32.8394894,0 -97.2301344,32.8396363,0 -97.230856,32.8398071,0 -97.231945,32.8400301,0 -97.2327994,32.8401689,0 -97.23343269999999,32.8402619,0 -97.2340612,32.8403322,0 -97.2345789,32.8403818,0 -97.23523470000001,32.8404336,0 -97.23584959999999,32.8404691,0 -97.23656320000001,32.8404904,0 -97.23697319999999,32.8404919,0 -97.23762720000001,32.8404708,0 -97.2396217,32.8404475,0 -97.2405669,32.8404525,0 -97.2432116,32.840419,0 -97.2442858,32.8403964,0 -97.24570060000002,32.8403906,0 -97.24644360000001,32.8403987,0 -97.24720670000001,32.8404224,0 -97.24768800000001,32.8404377,0 -97.24859880000001,32.8404595,0 -97.25114689999998,32.8404821,0 -97.2524358,32.8405097,0 -97.2529225,32.8405114,0 -97.2537537,32.8405008,0 -97.25414520000001,32.8404938,0 -97.2541658,32.8404945,0 -97.25537129999999,32.840428,0 -97.2564469,32.8403514,0 -97.2578135,32.8402364,0 -97.2591075,32.8401206,0 -97.2605574,32.8399694,0 -97.2617144,32.8398575,0 -97.2627059,32.8397812,0 -97.2638563,32.8397199,0 -97.26559589999999,32.8396872,0 -97.26700949999999,32.8396945,0 -97.2691573,32.8397031,0 -97.2739457,32.8397057,0 -97.2786728,32.8397053,0 -97.2792457,32.8397362,0 -97.27998869999999,32.83977,0 -97.2808711,32.8398286,0 -97.28163560000002,32.8398529,0 -97.28397019999998,32.8398564,0 -97.28491459999999,32.83985,0 -97.2856656,32.839824,0 -97.28641980000002,32.8397818,0 -97.28697579999999,32.8397643,0 -97.289394,32.8397463,0 -97.28957269999999,32.8397416,0 -97.2901517,32.8397375,0 -97.2910406,32.8397383,0 -97.2923892,32.8397386,0 -97.2932845,32.839717,0 -97.2935037,32.8397169,0 -97.29520919999999,32.8396515,0 -97.2957839,32.8396354,0 -97.29620090000002,32.8396274,0 -97.29699840000001,32.8396093,0 -97.2978359,32.8396015,0 -97.2987411,32.8396021,0 -97.299458,32.8396071,0 -97.29987560000001,32.839616,0 -97.30119850000001,32.8396455,0 -97.3018945,32.8396455,0 -97.3029914,32.8396784,0 -97.3035399,32.8397009,0 -97.3047837,32.839783,0 -97.30546459999999,32.8398165,0 -97.30616099999999,32.8398396,0 -97.3071534,32.8398465,0 -97.30791949999998,32.8398571,0 -97.30839899999999,32.8398949,0 -97.30848109999999,32.839898,0 -97.30864550000001,32.8399049,0 -97.3087755,32.8399156,0 -97.30912720000002,32.8399587,0 -97.30947900000001,32.8400187,0 -97.31033400000001,32.8401783,0 -97.3107298,32.8402588,0 -97.31122400000001,32.8403515,0 -97.31169840000001,32.8404119,0 -97.31205009999999,32.840444,0 -97.3123598,32.8404629,0 -97.3125756,32.8404728,0 -97.3128468,32.8404737,0 -97.3130127,32.8404752,0 -97.31334230000002,32.8404607,0 -97.31367470000002,32.8404345,0 -97.3139881,32.8404054,0 -97.3144018,32.840352,0 -97.3150631,32.8402526,0 -97.31552670000002,32.8401836,0 -97.3163593,32.8400652,0 -97.31727090000001,32.8399328,0 -97.3177915,32.8398692,0 -97.31824889999999,32.8398189,0 -97.318414,32.8398032,0 -97.31858800000001,32.8397893,0 -97.31880529999998,32.839775,0 -97.3190115,32.8397643,0 -97.3194519,32.8397421,0 -97.31989799999998,32.8397244,0 -97.3204039,32.8397114,0 -97.32085529999999,32.8397105,0 -97.32155630000001,32.8397092,0 -97.32270629999999,32.8397136,0 -97.3233513,32.8397346,0 -97.32387839999998,32.8397365,0 -97.3246261,32.8397489,0 -97.32644860000001,32.8397792,0 -97.32718300000002,32.839849,0 -97.32755499999999,32.839892,0 -97.32836399999999,32.840015,0 -97.32930930000001,32.8401904,0 -97.32985239999999,32.84031,0 -97.3306324,32.8405169,0 -97.3318479,32.8407928,0 -97.332739,32.840995,0 -97.335446,32.841621,0 -97.337727,32.842123,0 -97.34029110000002,32.8427289,0 -97.3410082,32.8428824,0 -97.341628,32.8429776,0 -97.342377,32.843063,0 -97.34335700000001,32.8431,0 -97.344786,32.843027,0 -97.345294,32.842982,0 -97.34597599999999,32.842897,0 -97.346478,32.842816,0 -97.34692699999998,32.84272,0 -97.34721399999999,32.842653,0 -97.347286,32.842635,0 -97.348052,32.842418,0 -97.349025,32.842072,0 -97.34945,32.841901,0 -97.35132489999999,32.8411991,0 -97.35324220000001,32.8404659,0 -97.3537936,32.8402502,0 -97.3545658,32.8399579,0 -97.35507339999999,32.8397585,0 -97.357545,32.8387761,0 -97.3600271,32.8378314,0 -97.36067500000001,32.8375887,0 -97.36140689999999,32.8373123,0 -97.3624149,32.8369261,0 -97.36335699999999,32.8365621,0 -97.36459529999999,32.836086,0 -97.36910109999998,32.8343737,0 -97.37140100000002,32.833501,0 -97.37228909999999,32.8331694,0 -97.3729225,32.8329213,0 -97.37396,32.832483,0 -97.374368,32.83229,0 -97.375004,32.831989,0 -97.375574,32.831708,0 -97.376696,32.831159,0 -97.3772788,32.8308532,0 -97.3799212,32.8294791,0 -97.3825504,32.8281626,0 -97.3834154,32.8277289,0 -97.38476540000001,32.8270504,0 -97.38559429999999,32.8266201,0 -97.38818999999999,32.825364,0 -97.3910418,32.82406,0 -97.39156779999999,32.8238083,0 -97.3924832,32.8233638,0 -97.39301789999999,32.8231158,0 -97.39436430000001,32.8224939,0 -97.3989314,32.8203954,0 -97.3999896,32.8199153,0 -97.401242,32.819338,0 -97.40141199999999,32.819257,0 -97.405917,32.817154,0 -97.406288,32.816985,0 -97.406969,32.816673,0 -97.40736699999999,32.816493,0 -97.40744399999998,32.816459,0 -97.4075519,32.8164119,0 -97.40907670000001,32.8156527,0 -97.4098189,32.8153318,0 -97.4107265,32.814913,0 -97.41205049999999,32.8143217,0 -97.4126433,32.8140462,0 -97.4132367,32.8137576,0 -97.4136879,32.8135253,0 -97.4143404,32.8131462,0 -97.41478170000001,32.8128656,0 -97.4152344,32.8125213,0 -97.4158582,32.8120327,0 -97.41637900000001,32.811596,0 -97.41643999999999,32.811537,0 -97.41666400000001,32.811309,0 -97.416945,32.810975,0 -97.417185,32.810704,0 -97.417467,32.810327,0 -97.417885,32.809852,0 -97.41835589999998,32.8092679,0 -97.4188746,32.8087142,0 -97.41911949999999,32.8084804,0 -97.419383,32.808211,0 -97.42009920000001,32.807553,0 -97.420753,32.8070301,0 -97.42160800000001,32.806424,0 -97.422055,32.8061154,0 -97.42297000000001,32.8055771,0 -97.423723,32.805172,0 -97.42452790000002,32.8047809,0 -97.425753,32.8042461,0 -97.4266805,32.8038218,0 -97.427521,32.8034277,0 -97.4286465,32.802907,0 -97.4301339,32.802216,0 -97.4316517,32.801525,0 -97.43318889999999,32.8008107,0 -97.433745,32.800559,0 -97.43444099999999,32.80022,0 -97.435219,32.799871,0 -97.435823,32.799613,0 -97.4359187,32.7995759,0 -97.43612650000001,32.7994939,0 -97.437422,32.7990272,0 -97.43822340000001,32.7987995,0 -97.4391861,32.7985735,0 -97.44026560000002,32.7983572,0 -97.44122470000001,32.7981986,0 -97.44521800000001,32.7974954,0 -97.4469749,32.7971588,0 -97.44794390000001,32.7969389,0 -97.44869490000002,32.7966948,0 -97.44944,32.7964398,0 -97.4498694,32.7962576,0 -97.4505623,32.7959051,0 -97.45118890000002,32.7955769,0 -97.4515129,32.7954107,0 -97.4520338,32.7950763,0 -97.4527626,32.794517,0 -97.4535516,32.7939281,0 -97.4539666,32.7936224,0 -97.45788680000001,32.7905731,0 -97.45899090000002,32.7897202,0 -97.4595961,32.789265,0 -97.46243899999999,32.787036,0 -97.4629338,32.7866698,0 -97.4681683,32.7826271,0 -97.470575,32.780751,0 -97.4707386,32.7805913,0 -97.471278,32.780119,0 -97.47217999999999,32.77917,0 -97.472605,32.778672,0 -97.4737389,32.7770619,0 -97.47393600000001,32.776733,0 -97.474478,32.775699,0 -97.4749726,32.7746064,0 -97.47510870000001,32.7743233,0 -97.47523579999999,32.773843,0 -97.47530999999999,32.773628,0 -97.47538069999999,32.7733712,0 -97.47548399999999,32.772953,0 -97.47587799999999,32.771091,0 -97.4765099,32.7679961,0 -97.4765613,32.7676482,0 -97.47668100000001,32.767007,0 -97.47679160000001,32.7665085,0 -97.4768816,32.766032,0 -97.47693750000001,32.7657813,0 -97.47694629999999,32.7657431,0 -97.477841,32.7612708,0 -97.4781735,32.7594641,0 -97.47820360000001,32.7593157,0 -97.4790149,32.755296,0 -97.4790474,32.7551481,0 -97.479624,32.7522386,0 -97.480368,32.748668,0 -97.48108339999999,32.7450102,0 -97.4812977,32.7434966,0 -97.48142940000001,32.7423753,0 -97.48146280000002,32.7417782,0 -97.481481,32.7411638,0 -97.48149370000002,32.740798,0 -97.48147349999999,32.7403795,0 -97.48147759999999,32.7400681,0 -97.4814963,32.7397511,0 -97.4814958,32.7385185,0 -97.4814958,32.7377966,0 -97.481488,32.736812,0 -97.481488,32.736351,0 -97.48149650000001,32.7352566,0 -97.48149959999999,32.7322946,0 -97.48144499999999,32.730642,0 -97.48134899999999,32.729664,0 -97.4812756,32.7291109,0 -97.481003,32.727114,0 -97.4805592,32.7249558,0 -97.4804219,32.7241327,0 -97.4798558,32.7206909,0 -97.47983200000002,32.72054,0 -97.479619,32.719341,0 -97.47947809999998,32.7185723,0 -97.479347,32.717781,0 -97.47927900000001,32.717416,0 -97.478877,32.715659,0 -97.478585,32.714685,0 -97.4781461,32.7136852,0 -97.477514,32.71226,0 -97.477116,32.7114094,0 -97.47700810000001,32.711186,0 -97.476485,32.710054,0 -97.47614799999999,32.709356,0 -97.47566279999999,32.7081903,0 -97.47526300000001,32.707304,0 -97.47454500000001,32.705692,0 -97.47437499999999,32.705315,0 -97.47404599999999,32.70462,0 -97.47357700000002,32.703546,0 -97.47340800000001,32.703111,0 -97.473343,32.702914,0 -97.47297699999999,32.701659,0 -97.47281700000001,32.700798,0 -97.47277699999999,32.7004612,0 -97.47273619999999,32.699881,0 -97.472708,32.699106,0 -97.472658,32.69804,0 -97.4726,32.697589,0 -97.472576,32.697243,0 -97.472545,32.696286,0 -97.472481,32.695442,0 -97.47245799999999,32.695099,0 -97.47223099999999,32.6940604,0 -97.47212399999999,32.693683,0 -97.472038,32.693465,0 -97.471953,32.69325,0 -97.471746,32.69279,0 -97.471605,32.692512,0 -97.471328,32.69207,0 -97.470944,32.691566,0 -97.470513,32.691079,0 -97.4685139,32.6894706,0 -97.46734330000001,32.6886126,0 -97.4668604,32.6882576,0 -97.46657690000001,32.6880482,0 -97.46620679999999,32.6877679,0 -97.46535710000002,32.6871428,0 -97.4649994,32.6868784,0 -97.4646955,32.686657,0 -97.4645058,32.6865707,0 
			</coordinates>
		</LineString>
		<atom:link rel="app" href="https://www.google.com/earth/about/versions/#earth-pro" title="Google Earth Pro 7.3.6.10201"></atom:link>
	</Placemark>
</Document>
</kml>
