<?xml version="1.0" encoding="UTF-8"?>
<kml xmlns="http://www.opengis.net/kml/2.2" xmlns:gx="http://www.google.com/kml/ext/2.2" xmlns:kml="http://www.opengis.net/kml/2.2" xmlns:atom="http://www.w3.org/2005/Atom">
<Document>
	<name>I.840.NC.kml</name>
	<Placemark>
		<name>I.840.NC</name>
		<LineString>
			<coordinates>
				-79.6867505,36.0492752,0 -79.68652950000001,36.0496053,0 -79.686323,36.0501074,0 -79.68624,36.0502907,0 -79.68608709999999,36.0505939,0 -79.6856085,36.0514189,0 -79.6847583,36.0528958,0 -79.6845996,36.0532137,0 -79.6844388,36.0536204,0 -79.68433949999999,36.0539196,0 -79.684263,36.0542742,0 -79.6842118,36.0546181,0 -79.6841848,36.0549325,0 -79.6841799,36.0551968,0 -79.6841919,36.0554408,0 -79.6842132,36.0556699,0 -79.6842724,36.0560089,0 -79.684333,36.0563292,0 -79.6843801,36.056496,0 -79.6844242,36.0566349,0 -79.6845399,36.0569306,0 -79.6846615,36.0571814,0 -79.68476579999999,36.0573795,0 -79.6849945,36.0577698,0 -79.68524549999999,36.0581914,0 -79.6855322,36.0586529,0 -79.6859307,36.059308,0 -79.6863498,36.0599824,0 -79.6863967,36.0600639,0 -79.6868295,36.0607636,0 -79.68720399999999,36.0613748,0 -79.68761600000001,36.062014,0 -79.68846019999999,36.0633833,0 -79.688682,36.0637465,0 -79.68891910000001,36.0641296,0 -79.68922600000001,36.064627,0 -79.68961539999999,36.0652664,0 -79.6901763,36.0661786,0 -79.6904469,36.0666147,0 -79.6906707,36.0669962,0 -79.69080529999999,36.0672843,0 -79.6909484,36.0676145,0 -79.691081,36.0679925,0 -79.6911779,36.0683917,0 -79.6912612,36.0688148,0 -79.6915533,36.0707278,0 -79.6918277,36.0724635,0 -79.69200410000001,36.0736363,0 -79.69212640000001,36.0744106,0 -79.6922644,36.0753222,0 -79.6924307,36.0764516,0 -79.69254460000001,36.0771049,0 -79.6926356,36.0775164,0 -79.692712,36.0778429,0 -79.69288349999999,36.0783864,0 -79.69306760000001,36.0788911,0 -79.6932592,36.0793422,0 -79.69444350000001,36.0820961,0 -79.6948067,36.0829267,0 -79.6964909,36.086832,0 -79.6969423,36.0878702,0 -79.6971789,36.0883872,0 -79.69727469999999,36.0886318,0 -79.6973735,36.0888987,0 -79.6974628,36.089168,0 -79.6975406,36.0894349,0 -79.6976042,36.0896994,0 -79.69769960000001,36.0901428,0 -79.69775199999999,36.0904384,0 -79.6977902,36.0907605,0 -79.6978167,36.091061,0 -79.6978338,36.0913585,0 -79.69783510000001,36.0917733,0 -79.6978285,36.0920846,0 -79.69780609999999,36.0924466,0 -79.6977624,36.0928323,0 -79.6977002,36.0932293,0 -79.6976301,36.0935767,0 -79.69753609999999,36.0939649,0 -79.69741190000001,36.094384,0 -79.69713040000001,36.0952635,0 -79.69636199999999,36.0978566,0 -79.69625120000001,36.0982703,0 -79.6961405,36.0987283,0 -79.69604870000001,36.0991866,0 -79.6959703,36.0996601,0 -79.69591490000001,36.1000991,0 -79.6958771,36.1005321,0 -79.6958522,36.1009354,0 -79.69586099999999,36.1017655,0 -79.6958759,36.1021896,0 -79.69590150000001,36.1025696,0 -79.6959406,36.1029667,0 -79.6959878,36.1033403,0 -79.696054,36.1037453,0 -79.6961383,36.1041784,0 -79.6962482,36.1046552,0 -79.6963683,36.1050988,0 -79.69650849999999,36.1055576,0 -79.6966757,36.106039,0 -79.6968243,36.1064316,0 -79.6970101,36.1068606,0 -79.6971764,36.107222,0 -79.6973988,36.1076675,0 -79.6976377,36.1081112,0 -79.6978914,36.1085386,0 -79.6981692,36.1089766,0 -79.6984631,36.1094047,0 -79.698723,36.1097646,0 -79.69896319999999,36.1100698,0 -79.7034104,36.1157173,0 -79.70376210000001,36.1161718,0 -79.7040962,36.116607,0 -79.7046459,36.1173473,0 -79.70522560000001,36.1181555,0 -79.707947,36.1219498,0 -79.71162169999999,36.1270728,0 -79.71178209999999,36.1272965,0 -79.71191709999999,36.1274859,0 -79.71600599999999,36.1331846,0 -79.7162134,36.1334672,0 -79.7164307,36.1337469,0 -79.71665230000001,36.1340209,0 -79.71688810000001,36.134295,0 -79.7171275,36.1345581,0 -79.71738000000001,36.134823,0 -79.71763989999999,36.1350802,0 -79.7179052,36.1353313,0 -79.71817799999999,36.1355757,0 -79.7184589,36.1358169,0 -79.71874649999999,36.1360503,0 -79.7190425,36.1362778,0 -79.7193448,36.1365,0 -79.71965280000001,36.1367162,0 -79.7199703,36.1369254,0 -79.720293,36.1371278,0 -79.72062149999999,36.137325,0 -79.72095779999999,36.1375158,0 -79.7212979,36.1376987,0 -79.7216439,36.1378753,0 -79.7219932,36.1380419,0 -79.7223479,36.1382027,0 -79.7227099,36.1383582,0 -79.7230916,36.1385112,0 -79.7265412,36.1398167,0 -79.7348801,36.1429725,0 -79.7357341,36.1432957,0 -79.7370773,36.143804,0 -79.7385353,36.1443558,0 -79.7389903,36.144533,0 -79.7394451,36.1447184,0 -79.7398894,36.1449063,0 -79.7403358,36.1451007,0 -79.7407789,36.1453018,0 -79.7412186,36.1455065,0 -79.7416506,36.1457158,0 -79.74207699999999,36.1459311,0 -79.7424108,36.1461116,0 -79.7433187,36.1466548,0 -79.74365830000001,36.1468444,0 -79.744247,36.1471731,0 -79.7463482,36.148409,0 -79.74711790000001,36.1488415,0 -79.747755,36.1492162,0 -79.7480231,36.1493691,0 -79.7483069,36.1495212,0 -79.7485873,36.1496649,0 -79.7489195,36.1498209,0 -79.7492129,36.1499519,0 -79.7495376,36.1500836,0 -79.74985239999999,36.1502024,0 -79.75015999999999,36.1503099,0 -79.7504845,36.1504135,0 -79.7507999,36.1505056,0 -79.7511246,36.1505927,0 -79.75143540000001,36.1506662,0 -79.75177909999999,36.1507417,0 -79.75212639999999,36.150807,0 -79.7524488,36.1508591,0 -79.7527266,36.150898,0 -79.7530687,36.1509385,0 -79.75340129999999,36.1509712,0 -79.7537528,36.1509949,0 -79.7541528,36.151013,0 -79.754554,36.1510207,0 -79.7549538,36.1510229,0 -79.75567940000001,36.15102,0 -79.7563042,36.1510176,0 -79.7647778,36.1509844,0 -79.7651211,36.1509795,0 -79.7654635,36.1509702,0 -79.76580389999999,36.1509533,0 -79.7661485,36.1509286,0 -79.7664893,36.1508929,0 -79.7668298,36.150849,0 -79.7671668,36.1507951,0 -79.76750490000001,36.1507303,0 -79.7678366,36.1506573,0 -79.76816530000001,36.1505748,0 -79.7684881,36.1504832,0 -79.7688067,36.1503843,0 -79.769121,36.1502738,0 -79.7694296,36.1501569,0 -79.76973390000001,36.1500302,0 -79.77003430000001,36.1498972,0 -79.7703257,36.1497589,0 -79.7754192,36.1472553,0 -79.7794536,36.1452722,0 -79.7863991,36.141858,0 -79.7868316,36.1416523,0 -79.7872703,36.1414536,0 -79.7877185,36.1412602,0 -79.78816930000001,36.1410744,0 -79.788623,36.1408973,0 -79.78908300000001,36.1407292,0 -79.7895505,36.140567,0 -79.79002199999999,36.1404124,0 -79.79049740000001,36.1402658,0 -79.79097489999999,36.1401268,0 -79.79145459999999,36.1399962,0 -79.7919345,36.1398736,0 -79.7924197,36.1397589,0 -79.7929063,36.1396505,0 -79.7933932,36.1395483,0 -79.7938825,36.1394561,0 -79.7943726,36.1393705,0 -79.7948655,36.1392947,0 -79.7953584,36.1392284,0 -79.795856,36.1391681,0 -79.7963652,36.1391159,0 -79.79686649999999,36.1390733,0 -79.79709889999999,36.1390576,0 -79.7973463,36.1390407,0 -79.79771580000001,36.1390188,0 -79.79821990000001,36.1389974,0 -79.7987274,36.1389839,0 -79.7992369,36.1389791,0 -79.79974180000001,36.1389818,0 -79.8002482,36.1389932,0 -79.80075480000001,36.139012,0 -79.80126300000001,36.1390394,0 -79.8017694,36.1390754,0 -79.8022702,36.1391186,0 -79.80277049999999,36.1391694,0 -79.8032681,36.1392282,0 -79.8037638,36.1392958,0 -79.8042593,36.1393711,0 -79.8047535,36.1394552,0 -79.8052443,36.1395462,0 -79.8057312,36.1396458,0 -79.8062133,36.1397514,0 -79.8066994,36.1398677,0 -79.80718109999999,36.1399903,0 -79.8134548,36.1416539,0 -79.81378429999999,36.1417342,0 -79.8141143,36.1418086,0 -79.81444759999999,36.141875,0 -79.8147836,36.1419336,0 -79.8151221,36.1419836,0 -79.81546090000001,36.1420241,0 -79.8158026,36.1420571,0 -79.81614380000001,36.1420801,0 -79.8164874,36.1420949,0 -79.8168295,36.1421009,0 -79.8171717,36.1421004,0 -79.81751300000001,36.1420936,0 -79.8195906,36.1420252,0 -79.827411,36.1417681,0 -79.8282825,36.1417563,0 -79.8315052,36.1416335,0 -79.8318345,36.1416176,0 -79.8321744,36.1415952,0 -79.83251919999999,36.1415657,0 -79.8328618,36.141529,0 -79.8331091,36.1414959,0 -79.83346760000001,36.1414423,0 -79.8338242,36.1413802,0 -79.8342049,36.1413048,0 -79.8345352,36.1412314,0 -79.8348556,36.1411573,0 -79.8351906,36.1410759,0 -79.8380238,36.1403779,0 -79.8398993,36.1399159,0 -79.84457620000001,36.1387637,0 -79.8449009,36.1386869,0 -79.8452254,36.1386179,0 -79.84555539999999,36.1385569,0 -79.8458795,36.138504,0 -79.84621009999999,36.1384613,0 -79.8465442,36.1384255,0 -79.84687839999999,36.1384004,0 -79.84721070000001,36.1383822,0 -79.8475475,36.1383737,0 -79.8478827,36.1383758,0 -79.8482194,36.1383859,0 -79.8485513,36.1384057,0 -79.8488827,36.1384341,0 -79.84921439999999,36.1384699,0 -79.849547,36.1385145,0 -79.8498793,36.1385619,0 -79.8548655,36.1393081,0 -79.8552013,36.1393566,0 -79.85553779999999,36.1393992,0 -79.85587889999999,36.1394354,0 -79.8562197,36.1394629,0 -79.8565632,36.1394799,0 -79.8569078,36.1394854,0 -79.85725119999999,36.1394783,0 -79.8575953,36.1394623,0 -79.8577293,36.1394509,0 -79.8579381,36.1394331,0 -79.85827949999999,36.1393952,0 -79.85861610000001,36.1393444,0 -79.858949,36.1392829,0 -79.85928370000001,36.1392113,0 -79.8596095,36.1391282,0 -79.85993240000001,36.1390367,0 -79.86025220000001,36.1389386,0 -79.8605687,36.1388372,0 -79.8661803,36.1369946,0 -79.86719410000001,36.1366651,0 -79.8676056,36.1365529,0 -79.8679757,36.1364716,0 -79.8683497,36.1364008,0 -79.8687201,36.1363418,0 -79.869056,36.1362995,0 -79.86938929999999,36.1362652,0 -79.8696891,36.1362438,0 -79.8699987,36.1362315,0 -79.87030970000001,36.1362304,0 -79.87063740000001,36.136239,0 -79.87095239999999,36.1362587,0 -79.8712768,36.136288,0 -79.8715807,36.1363201,0 -79.8718665,36.1363574,0 -79.87398349999999,36.1366595,0 -79.87434829999999,36.1367088,0 -79.8747073,36.1367483,0 -79.8750544,36.1367814,0 -79.87539580000001,36.1368014,0 -79.87573860000001,36.1368103,0 -79.8760815,36.1368103,0 -79.8764321,36.1367947,0 -79.87678990000001,36.1367705,0 -79.8771619,36.1367352,0 -79.87753120000001,36.1366929,0 -79.8837616,36.1358698,0 -79.8840757,36.1358212,0 -79.8843911,36.135765,0 -79.8846928,36.1357041,0 -79.88500519999999,36.1356307,0 -79.885316,36.1355459,0 -79.88561489999999,36.135451,0 -79.8858962,36.1353491,0 -79.8861824,36.1352313,0 -79.886461,36.1350998,0 -79.8867417,36.1349583,0 -79.8870624,36.134783,0 -79.887381,36.1345983,0 -79.88769189999999,36.134407,0 -79.90050340000001,36.1262224,0 -79.9009768,36.1259109,0 -79.9014394,36.1255892,0 -79.90188929999999,36.1252619,0 -79.90233430000001,36.1249183,0 -79.90261219999999,36.1246861,0 -79.9027281,36.1245893,0 -79.90313039999999,36.1242337,0 -79.9035459,36.1238445,0 -79.9039339,36.1234599,0 -79.9043054,36.1230601,0 -79.90465880000001,36.1226587,0 -79.90499509999999,36.1222513,0 -79.9053126,36.121837,0 -79.9056307,36.1213886,0 -79.905907,36.1209762,0 -79.90617810000001,36.1205405,0 -79.90643590000001,36.1200921,0 -79.9066435,36.119691,0 -79.9068571,36.119253,0 -79.90706640000001,36.1187891,0 -79.9089634,36.114317,0 -79.9098058,36.1123311,0 -79.9100967,36.1116452,0 -79.9109247,36.1097438,0 -79.9119132,36.1074132,0 -79.9134828,36.1036861,0 -79.91383980000001,36.1027935,0 -79.9139397,36.1025581,0 -79.9141777,36.101997,0 -79.9143286,36.1016257,0 -79.91447700000001,36.1012432,0 -79.9145498,36.1010393,0 -79.9146554,36.1007158,0 -79.9147481,36.1003869,0 -79.9148277,36.1000571,0 -79.91489420000001,36.0997247,0 -79.9149484,36.099389,0 -79.91498679999999,36.0990575,0 -79.9150162,36.0987238,0 -79.91503059999999,36.0983885,0 -79.9150377,36.0980515,0 -79.9150501,36.0944748,0 -79.91506630000001,36.0898411,0 -79.9150692,36.0890001,0 -79.9150789,36.0862409,0 -79.9150842,36.0858014,0 -79.91509550000001,36.085364,0 -79.9151129,36.0849242,0 -79.9151349,36.0844835,0 -79.91516230000001,36.0840382,0 -79.915359,36.081374,0 -79.9156411,36.0775524,0 -79.9156701,36.0772216,0 -79.9157032,36.076898,0 -79.9157448,36.0765721,0 -79.9157957,36.0762493,0 -79.9158341,36.0760376,0 -79.91591940000001,36.0756111,0 -79.9160141,36.0751898,0 -79.9161474,36.0747581,0 -79.91631080000001,36.0742293,0 -79.91656260000001,36.0735451,0 -79.9173476,36.0714788,0 -79.9175407,36.0711015,0 -79.917986,36.0704078,0 -79.9183561,36.0699135,0 -79.9190052,36.0690896,0 -79.9193056,36.068721,0 -79.91958459999999,36.0683958,0 -79.9199201,36.0679576,0 -79.9201264,36.0675806,0 -79.92043219999999,36.0670126,0 -79.92064139999999,36.0665356,0 -79.9208347,36.0659134,0 -79.92102269999999,36.0649621,0 -79.9210504,36.0646338,0 -79.92106339999999,36.0643043,0 -79.9210578,36.0641095,0 -79.92104550000001,36.0639164,0 -79.92103349999999,36.0637207,0 -79.921015,36.0635292,0 -79.9209881,36.0633304,0 -79.9209565,36.0631308,0 -79.9208819,36.0627311,0 -79.9207261,36.0619337,0 -79.9202748,36.0596433,0 -79.9199655,36.0584828,0 
			</coordinates>
		</LineString>
		<atom:link rel="app" href="https://www.google.com/earth/about/versions/#earth-pro" title="Google Earth Pro 7.3.6.10201"></atom:link>
	</Placemark>
</Document>
</kml>
