<?xml version="1.0" encoding="UTF-8"?>
<kml xmlns="http://www.opengis.net/kml/2.2" xmlns:gx="http://www.google.com/kml/ext/2.2" xmlns:kml="http://www.opengis.net/kml/2.2" xmlns:atom="http://www.w3.org/2005/Atom">
<Document>
	<name>I.840.TN.kml</name>
	<Placemark>
		<name>I.840.TN</name>
		<LineString>
			<coordinates>
				-87.2672949,36.0241942,0 -87.2651133,36.0213414,0 -87.2618464,36.017111,0 -87.26127769999999,36.01633,0 -87.2597811,36.0143297,0 -87.2589389,36.0132015,0 -87.25771039999999,36.0116264,0 -87.25671800000001,36.0103376,0 -87.25649799999999,36.0100338,0 -87.2563317,36.0097735,0 -87.25620840000001,36.0095608,0 -87.2560582,36.0093005,0 -87.2558758,36.0089316,0 -87.2555378,36.0082417,0 -87.25525349999999,36.0076645,0 -87.25507109999999,36.0072783,0 -87.2546151,36.0060198,0 -87.25316669999999,36.0021358,0 -87.2530541,36.0018494,0 -87.25290390000001,36.0014762,0 -87.252802,36.0012288,0 -87.2526732,36.0009163,0 -87.2525606,36.0006689,0 -87.2524318,36.0003955,0 -87.2523192,36.0001695,0 -87.2521958,35.9999481,0 -87.2520509,35.9996921,0 -87.2519061,35.9994664,0 -87.25175590000001,35.999232,0 -87.25161110000001,35.999015,0 -87.2513804,35.9986852,0 -87.2512248,35.9984639,0 -87.2510049,35.9981644,0 -87.2507796,35.9978606,0 -87.25054350000001,35.9975568,0 -87.2498945,35.9967799,0 -87.2476843,35.9941932,0 -87.2457048,35.9918928,0 -87.2443208,35.9902695,0 -87.24209999999999,35.9876392,0 -87.2406891,35.9859984,0 -87.240217,35.9854428,0 -87.2401205,35.9853386,0 -87.2399327,35.9851042,0 -87.2397289,35.9848568,0 -87.23950360000001,35.984566,0 -87.23932120000001,35.9843229,0 -87.23916560000001,35.9841102,0 -87.2390047,35.9838671,0 -87.238833,35.9835893,0 -87.2386935,35.9833679,0 -87.23852719999999,35.9831075,0 -87.23843069999999,35.9829338,0 -87.23829120000001,35.982669,0 -87.23817320000001,35.9824477,0 -87.2380927,35.9822784,0 -87.2379747,35.9820396,0 -87.2378674,35.9818052,0 -87.23778160000001,35.9816012,0 -87.2376368,35.9812626,0 -87.2375509,35.9810586,0 -87.237449,35.9807981,0 -87.23730949999999,35.9804074,0 -87.23622589999999,35.9774295,0 -87.2358933,35.9765004,0 -87.23574309999999,35.9760837,0 -87.23559830000001,35.975706,0 -87.23460590000001,35.9730361,0 -87.2344288,35.9725672,0 -87.234284,35.9721678,0 -87.2341392,35.9717727,0 -87.234048,35.9715557,0 -87.23392459999999,35.9712604,0 -87.23378510000001,35.9709652,0 -87.2336403,35.9706743,0 -87.23344179999999,35.9702749,0 -87.23335059999999,35.9700926,0 -87.23323790000001,35.9698755,0 -87.23311990000001,35.9696584,0 -87.23298579999999,35.969437,0 -87.23284099999999,35.9692156,0 -87.2326693,35.9689594,0 -87.2324816,35.9686902,0 -87.2322133,35.9683082,0 -87.2319612,35.9679739,0 -87.2316501,35.9675614,0 -87.2314033,35.9672705,0 -87.2311404,35.9669709,0 -87.23081860000001,35.9666497,0 -87.2300729,35.9659289,0 -87.2288767,35.964787,0 -87.2267684,35.9628679,0 -87.2263232,35.9624858,0 -87.22615690000001,35.9623338,0 -87.2248587,35.9610616,0 -87.2242954,35.9605102,0 -87.22206920000001,35.9584173,0 -87.22161319999999,35.9580091,0 -87.22114120000001,35.9576053,0 -87.2206959,35.9572275,0 -87.2202614,35.9568801,0 -87.21965520000001,35.9564242,0 -87.2192153,35.9561115,0 -87.2187325,35.9557772,0 -87.2182658,35.9554732,0 -87.2178742,35.9552301,0 -87.2174665,35.9549782,0 -87.2171125,35.9547784,0 -87.2166833,35.9545483,0 -87.2160021,35.9542052,0 -87.2155514,35.9539881,0 -87.2149292,35.9536928,0 -87.214264,35.9533976,0 -87.2136417,35.953137,0 -87.2129497,35.9528895,0 -87.21190900000001,35.9525334,0 -87.2106108,35.9521209,0 -87.2042379,35.9502145,0 -87.2010997,35.9492634,0 -87.20028430000001,35.9490115,0 -87.199308,35.9487162,0 -87.19894859999999,35.9486033,0 -87.19864819999999,35.9484991,0 -87.1983317,35.9483732,0 -87.1980205,35.9482385,0 -87.1976611,35.9480692,0 -87.1973661,35.9479128,0 -87.1971247,35.9477825,0 -87.19677059999999,35.9475697,0 -87.1965185,35.947396,0 -87.1962288,35.9471876,0 -87.1959713,35.9469878,0 -87.1956119,35.9466882,0 -87.19541340000001,35.9465144,0 -87.195172,35.9462843,0 -87.1949199,35.9460063,0 -87.19467849999999,35.9457284,0 -87.19446929999999,35.9454548,0 -87.1942064,35.9451117,0 -87.1938416,35.9445818,0 -87.1926776,35.9429055,0 -87.1917978,35.9416373,0 -87.19036610000001,35.9396302,0 -87.1900869,35.93925,0 -87.1897969,35.9388229,0 -87.1893463,35.9381888,0 -87.18899759999999,35.937711,0 -87.1887723,35.9373983,0 -87.1885362,35.9370899,0 -87.1882734,35.9367685,0 -87.18800520000001,35.9364601,0 -87.187635,35.9360735,0 -87.1846953,35.9331287,0 -87.1840838,35.9324641,0 -87.1826837,35.9310958,0 -87.1812192,35.9296581,0 -87.1801463,35.9285764,0 -87.1786872,35.927143,0 -87.1764234,35.9248407,0 -87.1737463,35.9221936,0 -87.16933400000001,35.9177766,0 -87.1668092,35.9152554,0 -87.1641005,35.9125703,0 -87.16345699999999,35.911925,0 -87.1627768,35.9113493,0 -87.16156340000001,35.9104112,0 -87.1603255,35.909617,0 -87.1575678,35.9081677,0 -87.1542279,35.9064751,0 -87.1506674,35.9046831,0 -87.1480287,35.9033427,0 -87.1441717,35.9013898,0 -87.1426184,35.9006033,0 -87.13216009999999,35.8953421,0 -87.1286175,35.893551,0 -87.1269257,35.8926997,0 -87.12522389999999,35.8918342,0 -87.1237471,35.8910959,0 -87.12262680000001,35.8905804,0 -87.12128939999999,35.8900651,0 -87.12046599999999,35.8898113,0 -87.1197173,35.8895723,0 -87.118388,35.8892263,0 -87.1158739,35.888593,0 -87.1146541,35.8882522,0 -87.11383979999999,35.8879983,0 -87.11310760000001,35.8877467,0 -87.1122153,35.8874144,0 -87.11142030000001,35.8870873,0 -87.1105714,35.8867213,0 -87.1098521,35.8863644,0 -87.1046686,35.8837146,0 -87.1036098,35.883159,0 -87.10261509999999,35.8824178,0 -87.1019216,35.8820094,0 -87.1013959,35.8816259,0 -87.1009517,35.8812358,0 -87.1004465,35.8807729,0 -87.0998142,35.8800214,0 -87.09930199999999,35.8794944,0 -87.0984516,35.8785487,0 -87.097669,35.8775915,0 -87.0964614,35.8761189,0 -87.0953827,35.8749088,0 -87.0944166,35.8736871,0 -87.09268160000001,35.8715053,0 -87.091413,35.8698794,0 -87.0904221,35.8681584,0 -87.0890151,35.8656278,0 -87.0882587,35.8643367,0 -87.0874146,35.8633639,0 -87.0867674,35.8628238,0 -87.0825114,35.8599023,0 -87.08135009999999,35.8591357,0 -87.0755307,35.8551565,0 -87.07421050000001,35.8543053,0 -87.07161290000001,35.8525023,0 -87.07117030000001,35.8520009,0 -87.07031979999999,35.8510748,0 -87.06958969999999,35.8500593,0 -87.06823970000001,35.8485629,0 -87.067148,35.847225,0 -87.0660419,35.8458653,0 -87.0646953,35.8443031,0 -87.064616,35.8442111,0 -87.0637704,35.8430567,0 -87.0632725,35.8420005,0 -87.06303920000001,35.8412199,0 -87.0624254,35.839264,0 -87.0620246,35.8382328,0 -87.0613949,35.8363124,0 -87.0609765,35.8351469,0 -87.0606442,35.8341747,0 -87.060028,35.8323114,0 -87.05912069999999,35.830418,0 -87.0582735,35.8292806,0 -87.0573174,35.8281998,0 -87.0563142,35.8273985,0 -87.0548379,35.8264333,0 -87.05311620000001,35.8255948,0 -87.05268839999999,35.8254026,0 -87.051345,35.8249649,0 -87.04995700000001,35.8246373,0 -87.0486599,35.8244266,0 -87.0451963,35.823954,0 -87.0418147,35.8233622,0 -87.0407707,35.8230749,0 -87.0397291,35.8226387,0 -87.0386711,35.8219988,0 -87.0375877,35.8211671,0 -87.0356225,35.8189138,0 -87.03506849999999,35.8182551,0 -87.0343902,35.8177052,0 -87.0335783,35.8171888,0 -87.03243000000001,35.8166163,0 -87.0314475,35.8162521,0 -87.0308388,35.8160908,0 -87.0297692,35.8158515,0 -87.0286909,35.8157564,0 -87.0275121,35.8158296,0 -87.023706,35.8164857,0 -87.021261,35.8168887,0 -87.0192306,35.8172619,0 -87.01666419999999,35.8177314,0 -87.01396,35.8182345,0 -87.01238050000001,35.8184886,0 -87.00979510000001,35.8187347,0 -87.0086893,35.8187655,0 -87.0075823,35.8187051,0 -87.00546540000001,35.818498,0 -86.999634,35.817727,0 -86.9988312,35.8176235,0 -86.9957872,35.8172098,0 -86.9944146,35.8170233,0 -86.9928675,35.816813,0 -86.98773919999999,35.8161611,0 -86.9859649,35.815942,0 -86.98248289999999,35.8154945,0 -86.9815169,35.8153572,0 -86.979187,35.8150262,0 -86.97767,35.8148528,0 -86.9767682,35.8147497,0 -86.975217,35.8147042,0 -86.97387790000001,35.8147222,0 -86.972508,35.8148597,0 -86.9717691,35.8149816,0 -86.9702119,35.8152615,0 -86.968158,35.815803,0 -86.9667164,35.8163466,0 -86.9652754,35.8169326,0 -86.9639237,35.8176484,0 -86.96232430000001,35.8186118,0 -86.9617721,35.8190129,0 -86.9604618,35.8197734,0 -86.95980969999999,35.820154,0 -86.9590942,35.8204317,0 -86.9578279,35.8208832,0 -86.95754839999999,35.8209574,0 -86.9567976,35.8211569,0 -86.95554799999999,35.8213805,0 -86.95343010000001,35.8216008,0 -86.9512048,35.8216417,0 -86.9489658,35.8217926,0 -86.94444180000001,35.8220043,0 -86.9411053,35.8221647,0 -86.93437609999999,35.8224929,0 -86.9312335,35.8226596,0 -86.9247238,35.8229181,0 -86.9164691,35.822784,0 -86.90983439999999,35.8227075,0 -86.907268,35.8227214,0 -86.9019036,35.8226588,0 -86.8981795,35.8225827,0 -86.8974499,35.8225305,0 -86.8958836,35.8224288,0 -86.89504359999999,35.8223543,0 -86.89480519999999,35.8223324,0 -86.8909269,35.8220369,0 -86.8871872,35.8217369,0 -86.8828293,35.8214015,0 -86.8788196,35.8210935,0 -86.8770179,35.8209486,0 -86.87578449999999,35.8208586,0 -86.8749222,35.8208123,0 -86.8741982,35.8207873,0 -86.8734317,35.8207714,0 -86.872855,35.8207686,0 -86.872179,35.8207743,0 -86.8713238,35.8207945,0 -86.8704704,35.820829,0 -86.8700304,35.8208506,0 -86.8693473,35.820898,0 -86.8681443,35.8210016,0 -86.86713829999999,35.8211138,0 -86.8657113,35.8212971,0 -86.8643775,35.821475,0 -86.864007,35.8215223,0 -86.862914,35.8216618,0 -86.8620803,35.8217721,0 -86.861771,35.8218069,0 -86.86123259999999,35.8218562,0 -86.86082949999999,35.8218886,0 -86.8605488,35.8219087,0 -86.8601132,35.8219262,0 -86.85971170000001,35.8219384,0 -86.85937800000001,35.8219445,0 -86.85888490000001,35.8219415,0 -86.8584357,35.8219282,0 -86.8578912,35.8219048,0 -86.8571824,35.8218602,0 -86.8538752,35.821646,0 -86.85214980000001,35.8215318,0 -86.8516367,35.8214983,0 -86.8514653,35.8214704,0 -86.85126769999999,35.8214599,0 -86.8505466,35.8214156,0 -86.84989,35.821378,0 -86.84919979999999,35.8213478,0 -86.84861429999999,35.8213276,0 -86.84772,35.8213075,0 -86.8473723,35.8213032,0 -86.84674769999999,35.8213305,0 -86.8458251,35.8213535,0 -86.8450337,35.8213866,0 -86.84380419999999,35.8214485,0 -86.84223040000001,35.8215233,0 -86.84102919999999,35.8215852,0 -86.8407275,35.8215837,0 -86.8394536,35.8216456,0 -86.8379419,35.8217218,0 -86.8372614,35.8217609,0 -86.8366573,35.821801,0 -86.83585789999999,35.8218436,0 -86.8346859,35.8218977,0 -86.8321327,35.8220215,0 -86.83171040000001,35.8220272,0 -86.8273226,35.8222416,0 -86.8259422,35.8223135,0 -86.8250036,35.8223552,0 -86.8245778,35.8223653,0 -86.8240969,35.8223552,0 -86.8237172,35.8223322,0 -86.8234121,35.8222977,0 -86.8230714,35.8222488,0 -86.8227449,35.8221869,0 -86.82241310000001,35.8221049,0 -86.8219536,35.8219797,0 -86.821636,35.8218704,0 -86.8212918,35.8217251,0 -86.82082339999999,35.8215035,0 -86.8199934,35.8211083,0 -86.8194802,35.8208773,0 -86.81867149999999,35.8204465,0 -86.8183873,35.8203065,0 -86.81574190000001,35.8190091,0 -86.8147407,35.8184964,0 -86.8120433,35.8171739,0 -86.8116428,35.8169753,0 -86.8109597,35.8166443,0 -86.81060119999999,35.8164746,0 -86.810273,35.8163321,0 -86.809888,35.8161724,0 -86.8094071,35.8159811,0 -86.8089512,35.8158199,0 -86.80852179999999,35.8156689,0 -86.8080693,35.8155264,0 -86.8075087,35.8153624,0 -86.8068681,35.8151869,0 -86.80630789999999,35.8150433,0 -86.8001764,35.8134942,0 -86.79378560000001,35.8118745,0 -86.7929055,35.8116591,0 -86.7925364,35.8115714,0 -86.792249,35.8115095,0 -86.7918675,35.811439,0 -86.7914576,35.8113786,0 -86.7910797,35.8113325,0 -86.7906929,35.8113009,0 -86.79028839999999,35.8112807,0 -86.78993,35.8112778,0 -86.789584,35.8112793,0 -86.78917060000001,35.8112937,0 -86.788782,35.8113253,0 -86.7882941,35.81138,0 -86.7878044,35.8114462,0 -86.7873821,35.8115167,0 -86.78634409999999,35.8117081,0 -86.78495839999999,35.8119642,0 -86.77499,35.8137883,0 -86.77391489999999,35.8139871,0 -86.77117579999999,35.8144831,0 -86.76971039999999,35.8147598,0 -86.7692481,35.8148565,0 -86.7688418,35.8149442,0 -86.7684088,35.815055,0 -86.7679315,35.8151845,0 -86.7673922,35.8153485,0 -86.7666949,35.8155802,0 -86.76581590000001,35.8159027,0 -86.76464420000001,35.8163407,0 -86.7630071,35.8169535,0 -86.7620259,35.8173031,0 -86.7608319,35.8176987,0 -86.7573862,35.8188339,0 -86.7568433,35.8190195,0 -86.75615310000001,35.8192842,0 -86.7555711,35.8195274,0 -86.7549128,35.8198137,0 -86.7535821,35.8204021,0 -86.75293449999999,35.8206783,0 -86.75237199999999,35.8208927,0 -86.75177410000001,35.8211042,0 -86.7512418,35.8212725,0 -86.7504026,35.8215257,0 -86.7484077,35.8221153,0 -86.7479664,35.8222488,0 -86.74743049999999,35.8224272,0 -86.7468202,35.8226516,0 -86.7462755,35.8228703,0 -86.7457077,35.8231134,0 -86.7450317,35.8234328,0 -86.7445278,35.8236917,0 -86.74364420000001,35.8241694,0 -86.7432326,35.8244197,0 -86.74260270000001,35.824834,0 -86.7417173,35.8254224,0 -86.7391748,35.8271501,0 -86.73869569999999,35.8274666,0 -86.7379718,35.8279471,0 -86.7375265,35.8282334,0 -86.7369782,35.8285628,0 -86.73655239999999,35.8288016,0 -86.7361975,35.8289915,0 -86.7357841,35.8291943,0 -86.735305,35.8294288,0 -86.7347852,35.8296561,0 -86.73422979999999,35.8298862,0 -86.7336514,35.8301006,0 -86.733238,35.8302459,0 -86.7326472,35.8304401,0 -86.73205280000001,35.8306213,0 -86.731391,35.8308198,0 -86.7303726,35.8311302,0 -86.7255203,35.8326014,0 -86.72501389999999,35.8327593,0 -86.7246093,35.8328959,0 -86.72410189999999,35.8330743,0 -86.7234933,35.8333073,0 -86.7230249,35.8335102,0 -86.7224217,35.8337806,0 -86.7216782,35.834156,0 -86.721075,35.8344811,0 -86.72061189999999,35.8347487,0 -86.7200636,35.8350867,0 -86.7196431,35.8353629,0 -86.7189937,35.8358318,0 -86.7185218,35.8361971,0 -86.718064,35.8365769,0 -86.71751399999999,35.8370674,0 -86.7168255,35.8377391,0 -86.7158218,35.8387718,0 -86.7157194,35.8388783,0 -86.7153768,35.8392344,0 -86.7145905,35.8400458,0 -86.714186,35.8404456,0 -86.71383299999999,35.8407755,0 -86.7134313,35.8411166,0 -86.7131079,35.8413675,0 -86.71271659999999,35.8416509,0 -86.7123775,35.8418793,0 -86.7119045,35.8421725,0 -86.71146280000001,35.8424121,0 -86.71107499999999,35.8426123,0 -86.7105481,35.8428604,0 -86.70986120000001,35.8431508,0 -86.7092404,35.8433975,0 -86.70753449999999,35.8440769,0 -86.7054442,35.8449255,0 -86.7024723,35.8461279,0 -86.7012531,35.8466153,0 -86.7006185,35.8468612,0 -86.70013160000001,35.8470332,0 -86.69975599999999,35.8471587,0 -86.6993595,35.8472782,0 -86.6990109,35.8473694,0 -86.69871430000001,35.8474377,0 -86.69823340000001,35.8475435,0 -86.697776,35.8476263,0 -86.697266,35.8476996,0 -86.6967545,35.8477574,0 -86.69626649999999,35.8478002,0 -86.6957361,35.8478242,0 -86.6953291,35.8478326,0 -86.6948579,35.8478284,0 -86.69442309999999,35.8478087,0 -86.6940771,35.8477875,0 -86.6934511,35.8477311,0 -86.6929676,35.8476804,0 -86.6916964,35.8475437,0 -86.6901175,35.8473745,0 -86.6879507,35.8471397,0 -86.68690580000001,35.8470252,0 -86.6861943,35.8469485,0 -86.6845771,35.846774,0 -86.68278410000001,35.84658,0 -86.6821668,35.846518,0 -86.68171289999999,35.8464771,0 -86.6813398,35.8464481,0 -86.68090599999999,35.8464236,0 -86.68053,35.846407,0 -86.6794897,35.8463781,0 -86.67351410000001,35.8462434,0 -86.66888,35.8461358,0 -86.6657415,35.8460638,0 -86.6613132,35.8459587,0 -86.6604222,35.8459423,0 -86.6586568,35.8459083,0 -86.6577473,35.8458801,0 -86.65725689999999,35.8458561,0 -86.6568326,35.8458237,0 -86.6565318,35.8457969,0 -86.6561231,35.8457546,0 -86.655711,35.8457067,0 -86.655264,35.8456447,0 -86.6549249,35.8455911,0 -86.6545893,35.8455319,0 -86.6541824,35.845453,0 -86.65356509999999,35.8453177,0 -86.6527947,35.845126,0 -86.65226079999999,35.8449836,0 -86.6494514,35.8441569,0 -86.6443699,35.8426895,0 -86.6415732,35.8418842,0 -86.6410205,35.8417255,0 -86.64061529999999,35.8416128,0 -86.64030579999999,35.8415366,0 -86.6400084,35.8414718,0 -86.6396711,35.8414055,0 -86.63938760000001,35.8413576,0 -86.63910420000001,35.8413167,0 -86.63876329999999,35.8412744,0 -86.6384434,35.8412448,0 -86.63810599999999,35.8412251,0 -86.6377617,35.8412138,0 -86.6373826,35.8412138,0 -86.63707309999999,35.8412223,0 -86.6366696,35.841242,0 -86.6360245,35.8412998,0 -86.63536360000001,35.8413689,0 -86.6261959,35.8423548,0 -86.62528020000001,35.8424579,0 -86.62480619999999,35.8425156,0 -86.62444000000001,35.8425714,0 -86.6241129,35.8426266,0 -86.62374939999999,35.8426999,0 -86.6233634,35.8427971,0 -86.6229321,35.8429198,0 -86.62252169999999,35.8430509,0 -86.6220818,35.843213,0 -86.6216348,35.8434005,0 -86.62121399999999,35.8435992,0 -86.6208697,35.8437825,0 -86.6205428,35.8439657,0 -86.6201724,35.8442011,0 -86.6198559,35.844421,0 -86.6195446,35.8446494,0 -86.61926990000001,35.8448693,0 -86.6188595,35.8452147,0 -86.617762,35.8461745,0 -86.61658509999999,35.8471889,0 -86.6141331,35.8493059,0 -86.6130859,35.850209,0 -86.6126263,35.8506045,0 -86.61211470000001,35.8510401,0 -86.6118498,35.8512602,0 -86.6114305,35.8515819,0 -86.6109556,35.8519357,0 -86.6104253,35.8523022,0 -86.60986699999999,35.8526701,0 -86.6093297,35.8530027,0 -86.6089037,35.8532607,0 -86.60841499999999,35.8535383,0 -86.6079072,35.8538089,0 -86.6073334,35.8540965,0 -86.606796,35.8543572,0 -86.6062778,35.854594,0 -86.6056518,35.8548576,0 -86.60497530000001,35.8551254,0 -86.6044345,35.8553269,0 -86.60385719999999,35.8555285,0 -86.60337199999999,35.8556919,0 -86.6026608,35.8559034,0 -86.6020556,35.8560711,0 -86.60149060000001,35.8562186,0 -86.6008721,35.8563641,0 -86.60035000000001,35.856479,0 -86.5997126,35.8566067,0 -86.5991863,35.8566974,0 -86.5987427,35.8567719,0 -86.5982666,35.8568439,0 -86.5977738,35.8569025,0 -86.5973078,35.856954,0 -86.5960245,35.8570858,0 -86.58909749999999,35.8577868,0 -86.586704,35.8580268,0 -86.5852415,35.8581755,0 -86.5831606,35.8583891,0 -86.5781083,35.8589004,0 -86.575951,35.8591097,0 -86.57513489999999,35.8591973,0 -86.5728773,35.85942,0 -86.57114780000001,35.8596026,0 -86.57023239999999,35.8597128,0 -86.5695336,35.8598117,0 -86.5689383,35.8599042,0 -86.5677209,35.8601135,0 -86.5587568,35.8616831,0 -86.55405639999999,35.8625075,0 -86.55328539999999,35.8626376,0 -86.5527673,35.8627201,0 -86.55227069999999,35.8627915,0 -86.55178530000001,35.8628577,0 -86.5512396,35.862924,0 -86.5503367,35.8630228,0 -86.549542,35.8630921,0 -86.549195,35.8631186,0 -86.5488228,35.863142,0 -86.5481387,35.8631837,0 -86.54753049999999,35.8632082,0 -86.5467178,35.8632327,0 -86.5453984,35.8632471,0 -86.5396758,35.8632976,0 -86.53551109999999,35.8633264,0 -86.53074530000001,35.8633699,0 -86.5298952,35.8633807,0 -86.5292614,35.863396,0 -86.5284504,35.8634347,0 -86.5281423,35.8634541,0 -86.5273799,35.8635055,0 -86.5266099,35.8635718,0 -86.5252524,35.8636948,0 -86.5225279,35.8639488,0 -86.52181710000001,35.864013,0 -86.52080460000001,35.8641016,0 -86.51935279999999,35.8642406,0 -86.518197,35.8643476,0 -86.5174281,35.8644168,0 -86.5169607,35.8644619,0 -86.5165634,35.8645084,0 -86.5162421,35.8645538,0 -86.5158315,35.8646197,0 -86.5154795,35.8646899,0 -86.5151996,35.8647526,0 -86.5149169,35.8648217,0 -86.51454889999999,35.8649265,0 -86.51423029999999,35.8650259,0 -86.51391700000001,35.8651361,0 -86.5136184,35.8652517,0 -86.5132764,35.8653996,0 -86.5130107,35.8655255,0 -86.51275579999999,35.8656488,0 -86.5122851,35.8658849,0 -86.51137060000001,35.8663559,0 -86.5105009,35.8668128,0 -86.5094237,35.867366,0 -86.5075612,35.8683329,0 -86.5070879,35.8685706,0 -86.50663059999999,35.8687997,0 -86.5061173,35.8690438,0 -86.50570399999999,35.869234,0 -86.5049401,35.8695667,0 -86.50435349999999,35.8698185,0 -86.5037935,35.8700486,0 -86.5031642,35.8702917,0 -86.50230430000001,35.8706115,0 -86.49989480000001,35.8715094,0 -86.49955730000001,35.8716348,0 -86.4991933,35.871772,0 -86.4988907,35.8718876,0 -86.49848799999999,35.8720453,0 -86.49821470000001,35.8721544,0 -86.49784940000001,35.8723035,0 -86.4975294,35.8724342,0 -86.49705350000001,35.8726416,0 -86.4961562,35.8730489,0 -86.4953481,35.8734362,0 -86.49467749999999,35.8737787,0 -86.4918658,35.8752316,0 -86.4871212,35.8776808,0 -86.4858618,35.8783313,0 -86.4847872,35.8788855,0 -86.483414,35.8795963,0 -86.48279669999999,35.879915,0 -86.4801314,35.8812953,0 -86.47963180000001,35.8815611,0 -86.47916119999999,35.8818268,0 -86.47874659999999,35.8820936,0 -86.478324,35.8823961,0 -86.47802,35.8826272,0 -86.477536,35.8830323,0 -86.4768342,35.8837116,0 -86.4764484,35.884114,0 -86.4758045,35.8848107,0 -86.4755148,35.8851252,0 -86.4747323,35.8859919,0 -86.47342,35.887411,0 -86.47233180000001,35.8885846,0 -86.4718936,35.8890045,0 -86.47096000000001,35.890011,0 -86.470181,35.8908786,0 -86.46846429999999,35.8927244,0 -86.4680189,35.893182,0 -86.4676717,35.8935263,0 -86.4673458,35.8938305,0 -86.4670495,35.8940966,0 -86.466848,35.8942685,0 -86.4665567,35.8945034,0 -86.4663054,35.8947053,0 -86.4660224,35.894921,0 -86.4657192,35.8951427,0 -86.46539749999999,35.8953654,0 -86.46502169999999,35.8956122,0 -86.46449939999999,35.8959296,0 -86.46392609999999,35.8962683,0 -86.46347129999999,35.8965118,0 -86.46307299999999,35.8967174,0 -86.462745,35.8968729,0 -86.4625673,35.8969572,0 -86.4621944,35.8971256,0 -86.4618225,35.8972855,0 -86.46147980000001,35.8974248,0 -86.4611092,35.8975663,0 -86.4606332,35.8977347,0 -86.4602039,35.8978838,0 -86.45963860000001,35.8980652,0 -86.4581821,35.898553,0 -86.4577786,35.8986791,0 -86.457482,35.8987692,0 -86.4569886,35.8989301,0 -86.45552549999999,35.8994464,0 -86.4551002,35.899616,0 -86.4548003,35.8997488,0 -86.45431499999999,35.8999756,0 -86.4539523,35.9001527,0 -86.4535977,35.9003396,0 -86.4532777,35.9005156,0 -86.45295110000001,35.9007057,0 -86.45255779999999,35.900953,0 -86.4522418,35.9011571,0 -86.45174849999999,35.9014962,0 -86.4514259,35.9017392,0 -86.450746,35.9022511,0 -86.4503153,35.9025775,0 -86.44955760000001,35.903149,0 -86.44889619999999,35.9037325,0 -86.4483917,35.9041532,0 -86.44753919999999,35.9048252,0 -86.4464459,35.905741,0 -86.4463665,35.9058067,0 -86.4461335,35.9059995,0 -86.4457993,35.9062828,0 -86.445454,35.9065905,0 -86.445054,35.906978,0 -86.444862,35.9071691,0 -86.4445685,35.9074706,0 -86.4442779,35.9077978,0 -86.4440152,35.9081055,0 -86.4437606,35.9084284,0 -86.4435326,35.9087362,0 -86.4432766,35.9091022,0 -86.4430687,35.9094176,0 -86.4428154,35.9098365,0 -86.44255939999999,35.9102814,0 -86.4423563,35.9106561,0 -86.44137569999999,35.9124516,0 -86.44113059999999,35.9128883,0 -86.44080630000001,35.9134869,0 -86.4370921,35.9202671,0 -86.4365439,35.9212695,0 -86.43635159999999,35.9216604,0 -86.4361517,35.9221124,0 -86.4360046,35.9224804,0 -86.4358519,35.9228834,0 -86.4356784,35.9234148,0 -86.4355389,35.9238866,0 -86.4354579,35.9241858,0 -86.4353655,35.9245752,0 -86.43528999999999,35.9249218,0 -86.435209,35.925389,0 -86.43515619999999,35.9257753,0 -86.43512,35.9261461,0 -86.4350846,35.9266561,0 -86.43506379999999,35.927012,0 -86.43505620000001,35.9274364,0 -86.43505999999999,35.9278089,0 -86.43507320000001,35.928154,0 -86.4351034,35.928586,0 -86.43515240000001,35.9290288,0 -86.4352071,35.9294883,0 -86.4352976,35.9301662,0 -86.4353881,35.9308425,0 -86.4358751,35.9344357,0 -86.43644690000001,35.9386922,0 -86.43652299999999,35.9392312,0 -86.4366428,35.9402199,0 -86.4368521,35.9417525,0 -86.4369275,35.9422395,0 -86.4369803,35.9425448,0 -86.4370339,35.9428109,0 -86.4371593,35.9433101,0 -86.4372415,35.9436336,0 -86.4373925,35.9441395,0 -86.4375568,35.9445981,0 -86.43768900000001,35.9449359,0 -86.43783809999999,35.9453012,0 -86.43803629999999,35.9457383,0 -86.4383101,35.9463024,0 -86.4386961,35.9470273,0 -86.4405606,35.9504627,0 -86.44112320000001,35.9515036,0 -86.4420427,35.9531848,0 -86.4448105,35.958306,0 -86.44710069999999,35.9625193,0 -86.4480617,35.9642858,0 -86.448224,35.9646006,0 -86.44835999999999,35.964894,0 -86.4485205,35.9652669,0 -86.4486224,35.9655603,0 -86.4487093,35.9658414,0 -86.4487867,35.9661883,0 -86.4488697,35.9666192,0 -86.4489169,35.9670196,0 -86.4489434,35.9674474,0 -86.4489339,35.9678539,0 -86.44889430000001,35.9683001,0 -86.44884329999999,35.9686577,0 -86.4487489,35.9691038,0 -86.4486639,35.9694201,0 -86.4484997,35.969906,0 -86.44825609999999,35.9704577,0 -86.44805220000001,35.9708442,0 -86.4478106,35.9712537,0 -86.4470912,35.9723493,0 -86.4430327,35.9784639,0 -86.441783,35.9803555,0 -86.4412679,35.9811141,0 -86.43740219999999,35.9869345,0 -86.43515739999999,35.9903073,0 -86.4346405,35.9910827,0 -86.433739,35.9924334,0 -86.4327696,35.9939094,0 -86.43234320000001,35.9945777,0 -86.4319763,35.9951713,0 -86.4315234,35.9959557,0 -86.4312118,35.9965212,0 -86.4308552,35.9972094,0 -86.4305006,35.9979258,0 -86.4301316,35.998735,0 -86.42976470000001,35.9996404,0 -86.4294245,36.0004778,0 -86.4290924,36.0014047,0 -86.4288998,36.0019906,0 -86.4285862,36.0029839,0 -86.4283464,36.0038169,0 -86.4279968,36.0051529,0 -86.42791889999999,36.0054928,0 -86.427796,36.006093,0 -86.42768529999999,36.0066617,0 -86.42760939999999,36.0070862,0 -86.4275439,36.0075273,0 -86.4274906,36.0080214,0 -86.4274291,36.0087957,0 -86.4273757,36.0098079,0 -86.4273306,36.0111692,0 -86.4273123,36.0119841,0 -86.4273225,36.0127567,0 -86.4273451,36.0133585,0 -86.4273922,36.0140963,0 -86.4274838,36.0153268,0 -86.4275592,36.0164451,0 -86.4276084,36.0174931,0 -86.42771860000001,36.0190546,0 -86.4278138,36.0201063,0 -86.42788160000001,36.0211188,0 -86.4279666,36.0225187,0 -86.428,36.0233634,0 -86.42809459999999,36.0246184,0 -86.4282389,36.0267399,0 -86.4282956,36.0280561,0 -86.4283288,36.0291943,0 -86.4283453,36.0300646,0 -86.42841629999999,36.0311837,0 -86.4285062,36.0320464,0 -86.4286268,36.0334753,0 -86.4286541,36.0340051,0 -86.4286954,36.0349676,0 -86.42874740000001,36.0354206,0 -86.4287866,36.0360386,0 -86.428861,36.0370235,0 -86.4289059,36.0380334,0 -86.4289821,36.0395602,0 -86.4290646,36.0403963,0 -86.4292229,36.0416445,0 -86.4293577,36.0426295,0 -86.42961080000001,36.0441959,0 -86.4298355,36.0457106,0 -86.429844,36.0459725,0 -86.43003400000001,36.0471385,0 -86.4301736,36.048195,0 -86.4302405,36.0486764,0 -86.43032580000001,36.0491592,0 -86.43050770000001,36.0504269,0 -86.4308923,36.052885,0 -86.4310239,36.0537264,0 -86.4310919,36.0541757,0 -86.4313932,36.0560867,0 -86.4314598,36.0566568,0 -86.43154730000001,36.0573381,0 -86.43157650000001,36.0576568,0 -86.43160140000001,36.0580227,0 -86.4316125,36.058329,0 -86.4316125,36.0586085,0 -86.4316084,36.0589901,0 -86.4315931,36.0595018,0 -86.4315709,36.0598441,0 -86.4315306,36.0601718,0 -86.4314751,36.0605758,0 -86.43098089999999,36.0637944,0 -86.43080430000001,36.0650437,0 -86.43055940000001,36.0664907,0 -86.4300042,36.0700939,0 -86.4297334,36.0717223,0 -86.4292117,36.0749436,0 -86.4286676,36.0784332,0 -86.42813750000001,36.0817954,0 -86.4278862,36.0833678,0 -86.4275093,36.0857604,0 -86.4272953,36.0871106,0 -86.42721090000001,36.0876262,0 -86.42712450000001,36.0881101,0 -86.4270381,36.0885178,0 -86.4269223,36.0889541,0 -86.42682019999999,36.0893063,0 -86.4267043,36.0896665,0 -86.4265748,36.0900298,0 -86.42644129999999,36.0903693,0 -86.42622919999999,36.0908722,0 -86.42597600000001,36.0913815,0 -86.4257894,36.0917321,0 -86.42553030000001,36.0921937,0 -86.4253045,36.0925713,0 -86.4250866,36.0929061,0 -86.424853,36.0932424,0 -86.42457810000001,36.09362,0 -86.42434249999999,36.0939309,0 -86.42407350000001,36.0942561,0 -86.42382809999999,36.0945448,0 -86.4235965,36.0948003,0 -86.42330389999999,36.0951112,0 -86.4229938,36.0954205,0 -86.4227209,36.0956807,0 -86.4224401,36.0959381,0 -86.422124,36.0962142,0 -86.4217431,36.0965314,0 -86.4214035,36.0967995,0 -86.4208891,36.0971755,0 -86.4203139,36.0975737,0 -86.419827,36.0978814,0 -86.4192086,36.0982653,0 -86.41638140000001,36.099996,0 -86.41583369999999,36.1003339,0 -86.4152722,36.1006813,0 -86.41467729999999,36.1010556,0 -86.41423760000001,36.1013666,0 -86.41388019999999,36.1016315,0 -86.4134699,36.1019725,0 -86.4131479,36.1022612,0 -86.41292180000001,36.102476,0 -86.41263720000001,36.1027576,0 -86.412347,36.1030716,0 -86.4120666,36.1034025,0 -86.41178619999999,36.1037603,0 -86.41159570000001,36.1040213,0 -86.4113486,36.1043914,0 -86.4111307,36.1047481,0 -86.410928,36.1051216,0 -86.4107795,36.1054121,0 -86.4106115,36.1057834,0 -86.41045459999999,36.1061613,0 -86.41029899999999,36.1066149,0 -86.4101459,36.1071404,0 -86.4099356,36.1079596,0 -86.40968770000001,36.1089536,0 -86.409021,36.111616,0 -86.4088902,36.1121335,0 -86.40768780000001,36.1169335,0 -86.4074325,36.1179485,0 -86.4073442,36.1182997,0 -86.4063329,36.1223209,0 -86.4061902,36.1228793,0 -86.4060257,36.1234092,0 -86.4058785,36.1237834,0 -86.4057371,36.1241022,0 -86.4056095,36.1243495,0 -86.405421,36.1246794,0 -86.4052463,36.1249712,0 -86.4050362,36.1252725,0 -86.4048536,36.1255056,0 -86.4046671,36.1257292,0 -86.4044217,36.1260067,0 -86.40419989999999,36.1262287,0 -86.4039662,36.1264491,0 -86.40367569999999,36.1267076,0 -86.4033949,36.1269312,0 -86.4030336,36.1271895,0 -86.4026837,36.1274227,0 -86.4024173,36.1275836,0 -86.402199,36.1277091,0 -86.4019491,36.1278475,0 -86.3991188,36.1294361,0 -86.3976469,36.1302622,0 -86.39399179999999,36.1323227,0 -86.3928634,36.1329548,0 -86.3900818,36.1345205,0 -86.3866239,36.1364598,0 -86.38459159999999,36.1376101,0 -86.37961079999999,36.1404053,0 -86.37113340000001,36.1451553,0 -86.36992960000001,36.1458284,0 -86.36919519999999,36.1462616,0 -86.36856710000001,36.1466598,0 -86.3682397,36.1468799,0 -86.3676912,36.1472753,0 -86.3670377,36.1477673,0 -86.3666254,36.1481032,0 -86.3660971,36.1485461,0 -86.365683,36.1489222,0 -86.3652007,36.14938,0 -86.3648915,36.1496951,0 -86.3645381,36.15008,0 -86.36416989999999,36.1504947,0 -86.3638828,36.1508425,0 -86.3633674,36.1514861,0 -86.3631391,36.1517923,0 -86.362898,36.1521237,0 -86.362655,36.1524774,0 -86.3624286,36.1528327,0 -86.36221879999999,36.1531819,0 -86.3619491,36.1536593,0 -86.3617393,36.1540502,0 -86.36142820000001,36.1546506,0 -86.3606606,36.1561651,0 -86.3592962,36.1588652,0 -86.3557409,36.1658952,0 -86.35488669999999,36.1676249,0 -86.35397740000001,36.1693899,0 -86.3534296,36.1704738,0 -86.3531557,36.1710246,0 -86.3529588,36.1714466,0 -86.35273599999999,36.1719563,0 -86.3525612,36.172408,0 -86.3523845,36.1729176,0 -86.35224270000001,36.1733679,0 -86.3521341,36.1737482,0 -86.3520458,36.1741242,0 -86.35198130000001,36.1744005,0 -86.35192240000001,36.1747036,0 -86.35179789999999,36.175344,0 -86.3516564,36.1760698,0 -86.3515901,36.1764739,0 -86.3515404,36.1768974,0 -86.35152979999999,36.1771605,0 -86.35152429999999,36.1773598,0 -86.35153,36.1781277,0 -86.3515325,36.178715,0 
			</coordinates>
		</LineString>
		<atom:link rel="app" href="https://www.google.com/earth/about/versions/#earth-pro" title="Google Earth Pro 7.3.6.10201"></atom:link>
	</Placemark>
</Document>
</kml>
