<?xml version="1.0" encoding="UTF-8"?>
<kml xmlns="http://www.opengis.net/kml/2.2" xmlns:gx="http://www.google.com/kml/ext/2.2" xmlns:kml="http://www.opengis.net/kml/2.2" xmlns:atom="http://www.w3.org/2005/Atom">
<Document>
	<name>I.865.kml</name>
	<Placemark>
		<name>I.865</name>
		<LineString>
			<coordinates>
				-86.34609020000001,39.9390899,0 -86.34596070000001,39.9387916,0 -86.3453945,39.9380563,0 -86.34472049999999,39.9372094,0 -86.3441892,39.9365026,0 -86.34407520000001,39.9363344,0 -86.34398400000001,39.9361642,0 -86.3438726,39.935884,0 -86.3438156,39.9356822,0 -86.3437667,39.9354619,0 -86.3436889,39.9348737,0 -86.34360580000001,39.9343801,0 -86.3435642,39.9341272,0 -86.34351049999999,39.9338742,0 -86.3434531,39.9336564,0 -86.3433703,39.9334427,0 -86.34326729999999,39.9332479,0 -86.3431509,39.933047,0 -86.34301840000001,39.9328526,0 -86.3428778,39.9326686,0 -86.34271270000001,39.9324889,0 -86.3425289,39.9323113,0 -86.3423351,39.9321518,0 -86.34214129999999,39.9320011,0 -86.3419313,39.9318504,0 -86.3418111,39.9317752,0 -86.3416928,39.9317061,0 -86.3415284,39.9316214,0 -86.341328,39.9315331,0 -86.3411474,39.9314569,0 -86.34095960000001,39.9313877,0 -86.34076810000001,39.9313202,0 -86.34051359999999,39.9312499,0 -86.3403332,39.93121,0 -86.3401662,39.9311807,0 -86.34002580000001,39.9311597,0 -86.33975100000001,39.9311241,0 -86.33957890000001,39.9311095,0 -86.3393389,39.9310924,0 -86.33920329999999,39.9310883,0 -86.3390739,39.9310881,0 -86.3389652,39.9310898,0 -86.3388192,39.9310962,0 -86.3386302,39.9311085,0 -86.3384685,39.9311265,0 -86.3380337,39.9311958,0 -86.3376877,39.9312657,0 -86.3368656,39.9314231,0 -86.3365907,39.9314755,0 -86.3363198,39.9315228,0 -86.3360436,39.9315639,0 -86.3357673,39.9315886,0 -86.3354825,39.9316029,0 -86.33498299999999,39.9316069,0 -86.33434699999999,39.9316061,0 -86.3303749,39.9315985,0 -86.3247769,39.9315974,0 -86.32434600000001,39.9315968,0 -86.32166719999999,39.9315952,0 -86.3211787,39.9315951,0 -86.32021330000001,39.9315927,0 -86.31901910000001,39.9315943,0 -86.31787799999999,39.9315921,0 -86.31638239999999,39.9315805,0 -86.3158431,39.9315739,0 -86.31519590000001,39.9315634,0 -86.3145121,39.9315466,0 -86.3139149,39.9315327,0 -86.3132325,39.9315102,0 -86.3103708,39.9314268,0 -86.30833029999999,39.9313628,0 -86.3074472,39.9313295,0 -86.3070177,39.9313161,0 -86.3061799,39.9312899,0 -86.3048407,39.9312524,0 -86.3039959,39.9312258,0 -86.3009064,39.9311296,0 -86.2991194,39.9310721,0 -86.29818,39.9310466,0 -86.2970086,39.9310087,0 -86.2953097,39.9309624,0 -86.2938547,39.9309356,0 -86.29328719999999,39.9309271,0 -86.2927689,39.9309111,0 -86.2822001,39.930705,0 -86.28188110000001,39.9306977,0 -86.28102269999999,39.9306829,0 -86.27849260000001,39.9306343,0 -86.2778479,39.9306207,0 -86.2772305,39.9306047,0 -86.2762669,39.9305889,0 -86.2754034,39.9305698,0 -86.2746853,39.9305555,0 -86.2741034,39.9305408,0 -86.27359079999999,39.9305291,0 -86.27297710000001,39.9305135,0 -86.2726229,39.9304999,0 -86.2722706,39.9304797,0 -86.27191550000001,39.9304531,0 -86.27149,39.9304167,0 -86.2710673,39.9303691,0 -86.27059920000001,39.9303134,0 -86.2701902,39.9302549,0 -86.2698051,39.9301958,0 -86.2694528,39.9301348,0 -86.2690893,39.9300678,0 -86.2687549,39.9300007,0 -86.26795129999999,39.9298218,0 -86.26725159999999,39.9296494,0 -86.266683,39.9295022,0 -86.2664674,39.9294464,0 -86.26618790000001,39.9293747,0 -86.2626235,39.9284742,0 -86.2619911,39.9283144,0 -86.2616426,39.9282284,0 -86.2609107,39.9280395,0 -86.2605138,39.9279305,0 -86.2601087,39.9278276,0 -86.2596173,39.9277013,0 -86.2592679,39.9276127,0 -86.2587194,39.9274698,0 -86.2582218,39.9273443,0 -86.2579258,39.92727,0 -86.2572766,39.9270617,0 
			</coordinates>
		</LineString>
		<atom:link rel="app" href="https://www.google.com/earth/about/versions/#earth-pro" title="Google Earth Pro 7.3.6.10201"></atom:link>
	</Placemark>
</Document>
</kml>
