<?xml version="1.0" encoding="UTF-8"?>
<kml xmlns="http://www.opengis.net/kml/2.2" xmlns:gx="http://www.google.com/kml/ext/2.2" xmlns:kml="http://www.opengis.net/kml/2.2" xmlns:atom="http://www.w3.org/2005/Atom">
<Document>
	<name>I.86.ID.kml</name>
	<Placemark>
		<name>I.86.ID</name>
		<LineString>
			<coordinates>
				-113.5259929,42.5694402,0 -113.5238271,42.5696779,0 -113.5223243,42.5698251,0 -113.5204543,42.5700073,0 -113.5186449,42.5701816,0 -113.5175621,42.5702863,0 -113.5137605,42.5706576,0 -113.5095664,42.5710648,0 -113.5075102,42.5712565,0 -113.5066282,42.5713501,0 -113.5043957,42.5715646,0 -113.472207,42.5746847,0 -113.4476606,42.5770577,0 -113.444724,42.577338,0 -113.441257,42.577648,0 -113.43753,42.578025,0 -113.43521,42.578228,0 -113.433425,42.578409,0 -113.431564,42.578567,0 -113.429172,42.578822,0 -113.425187,42.579191,0 -113.421717,42.579564,0 -113.417639,42.579919,0 -113.41393,42.580268,0 -113.41033,42.580631,0 -113.398422,42.58179,0 -113.396459,42.581962,0 -113.39513,42.5821,0 -113.3934446,42.5822735,0 -113.388618,42.582729,0 -113.384895,42.583108,0 -113.374997,42.584044,0 -113.374594,42.584077,0 -113.373835,42.584156,0 -113.367484,42.584745,0 -113.361552,42.585344,0 -113.351811,42.586268,0 -113.344417,42.58696,0 -113.340992,42.58731,0 -113.337041,42.58767,0 -113.330976,42.588275,0 -113.324522,42.58887,0 -113.321008,42.589237,0 -113.318247,42.589481,0 -113.312344,42.590058,0 -113.31016,42.590259,0 -113.304726,42.590801,0 -113.30184,42.591059,0 -113.299042,42.591346,0 -113.274225,42.593693,0 -113.271944,42.593902,0 -113.256202,42.595404,0 -113.251725,42.595829,0 -113.2492529,42.5961398,0 -113.2484889,42.5962394,0 -113.240027,42.597364,0 -113.2385892,42.5975601,0 -113.2383329,42.597595,0 -113.234806,42.598076,0 -113.233203,42.598296,0 -113.231924,42.598447,0 -113.2296112,42.5987842,0 -113.2288367,42.5988828,0 -113.227869,42.598993,0 -113.222804,42.599674,0 -113.212601,42.601054,0 -113.210977,42.601252,0 -113.207876,42.601675,0 -113.206947,42.601812,0 -113.204924,42.602077,0 -113.20387,42.602205,0 -113.203005,42.602299,0 -113.200973,42.602453,0 -113.195442,42.602734,0 -113.193364,42.602866,0 -113.190303,42.603006,0 -113.186788,42.603217,0 -113.184912,42.603319,0 -113.181837,42.603493,0 -113.180032,42.603583,0 -113.178304,42.603752,0 -113.176545,42.604034,0 -113.1755396,42.6042675,0 -113.17552,42.604275,0 -113.175187,42.604352,0 -113.174084,42.604651,0 -113.174035,42.604666,0 -113.173154,42.604926,0 -113.172382,42.60519,0 -113.167835,42.606842,0 -113.167112,42.607105,0 -113.1651,42.607812,0 -113.161661,42.609038,0 -113.153648,42.611938,0 -113.153238,42.612081,0 -113.152603,42.612303,0 -113.150545,42.613055,0 -113.149019,42.613633,0 -113.143566,42.615837,0 -113.143137,42.616017,0 -113.142505,42.616263,0 -113.140873,42.61682,0 -113.138151,42.617803,0 -113.13701,42.618195,0 -113.136153,42.618468,0 -113.13578,42.618579,0 -113.135367,42.618702,0 -113.134074,42.619045,0 -113.133603,42.619153,0 -113.132633,42.619358,0 -113.132201,42.619439,0 -113.131698,42.619516,0 -113.130989,42.619611,0 -113.130347,42.619684,0 -113.12767,42.6200627,0 -113.125174,42.6204,0 -113.122207,42.62081,0 -113.120672,42.621024,0 -113.12008,42.621108,0 -113.118125,42.621368,0 -113.117411,42.621472,0 -113.115956,42.621663,0 -113.114982,42.621798,0 -113.111057,42.622344,0 -113.109817,42.622505,0 -113.107261,42.622866,0 -113.105964,42.623041,0 -113.103576,42.623379,0 -113.099902,42.623883,0 -113.096641,42.62433,0 -113.092111,42.624934,0 -113.091547,42.625017,0 -113.090537,42.625195,0 -113.089475,42.625453,0 -113.088777,42.625677,0 -113.0859202,42.6267146,0 -113.0855764,42.6268342,0 -113.082919,42.627809,0 -113.08077,42.628551,0 -113.079279,42.629041,0 -113.077209,42.629678,0 -113.074634,42.630448,0 -113.072443,42.631056,0 -113.071329,42.631376,0 -113.069308,42.631971,0 -113.064867,42.633373,0 -113.064342,42.633548,0 -113.062543,42.634108,0 -113.061242,42.634546,0 -113.060609,42.634759,0 -113.059995,42.634955,0 -113.059648,42.635066,0 -113.058878,42.635329,0 -113.056844,42.635974,0 -113.05616,42.636199,0 -113.0553,42.636468,0 -113.05409,42.636869,0 -113.0531,42.637183,0 -113.050636,42.637987,0 -113.049919,42.638206,0 -113.047724,42.638915,0 -113.044247,42.640039,0 -113.043013,42.640428,0 -113.040506,42.641235,0 -113.040063,42.641378,0 -113.039126,42.641689,0 -113.037193,42.642297,0 -113.036994,42.642359,0 -113.035078,42.64298,0 -113.0338772,42.6433989,0 -113.0333219,42.6435755,0 -113.031681,42.644083,0 -113.029971,42.644675,0 -113.029225,42.644955,0 -113.0278,42.645537,0 -113.026656,42.646029,0 -113.025839,42.646425,0 -113.023344,42.647633,0 -113.021293,42.648641,0 -113.019326,42.649607,0 -113.016708,42.650882,0 -113.016126,42.651175,0 -113.015509,42.651474,0 -113.014401,42.6520103,0 -113.0137515,42.6523246,0 -113.013073,42.652653,0 -113.011352,42.65352,0 -113.010508,42.653925,0 -113.010044,42.654139,0 -113.009068,42.654631,0 -113.008625,42.654877,0 -113.008158,42.655153,0 -113.00766,42.655477,0 -113.006975,42.655994,0 -113.006418,42.65645,0 -113.004397,42.658329,0 -113.002212,42.660394,0 -113.001144,42.661368,0 -112.9987687,42.6636198,0 -112.9979946,42.6643344,0 -112.997617,42.664686,0 -112.996245,42.66596,0 -112.995108,42.6670613,0 -112.9941149,42.6679948,0 -112.9931976,42.6688505,0 -112.9914672,42.6704581,0 -112.9893244,42.672466,0 -112.9862471,42.6753227,0 -112.9850621,42.6763655,0 -112.984273,42.676953,0 -112.982738,42.678158,0 -112.982623,42.678241,0 -112.982296,42.678478,0 -112.980627,42.679639,0 -112.979044,42.680698,0 -112.978195,42.681234,0 -112.97764,42.681597,0 -112.976156,42.682541,0 -112.974951,42.683366,0 -112.974039,42.683975,0 -112.973462,42.684347,0 -112.97211,42.685243,0 -112.971025,42.685935,0 -112.969028,42.687261,0 -112.968513,42.687603,0 -112.967496,42.688291,0 -112.9665043,42.6889412,0 -112.96595,42.689299,0 -112.965558,42.689537,0 -112.964353,42.690345,0 -112.9632137,42.6910768,0 -112.9624866,42.6915501,0 -112.9618026,42.6920189,0 -112.9612912,42.6923473,0 -112.9606934,42.6927413,0 -112.96027,42.693001,0 -112.959265,42.693646,0 -112.958665,42.694008,0 -112.958373,42.694193,0 -112.957927,42.69445,0 -112.957429,42.694752,0 -112.956186,42.695452,0 -112.954601,42.696286,0 -112.952858,42.697136,0 -112.952631,42.697259,0 -112.952436,42.697364,0 -112.951987,42.697632,0 -112.95111,42.698084,0 -112.950575,42.698342,0 -112.949733,42.698804,0 -112.949406,42.698963,0 -112.949312,42.699013,0 -112.948966,42.6992,0 -112.948421,42.699493,0 -112.947642,42.699885,0 -112.943779,42.701872,0 -112.942763,42.702411,0 -112.942243,42.702703,0 -112.939256,42.704155,0 -112.938059,42.704708,0 -112.936589,42.705362,0 -112.936127,42.705567,0 -112.934099,42.706513,0 -112.931717,42.70769,0 -112.930507,42.708298,0 -112.928348,42.709466,0 -112.925976,42.710817,0 -112.924793,42.711513,0 -112.923828,42.71209,0 -112.922362,42.713002,0 -112.921153,42.713793,0 -112.920718,42.71406,0 -112.920428,42.71425,0 -112.920143,42.714461,0 -112.918913,42.715292,0 -112.917604,42.716223,0 -112.916446,42.717063,0 -112.915596,42.717699,0 -112.914087,42.718869,0 -112.912672,42.720008,0 -112.911431,42.721043,0 -112.910021,42.722258,0 -112.909565,42.722676,0 -112.908725,42.72342,0 -112.907961,42.724107,0 -112.907508,42.724514,0 -112.9067056,42.7252141,0 -112.9061406,42.7257071,0 -112.903235,42.728288,0 -112.901982,42.729415,0 -112.901288,42.730031,0 -112.900538,42.730697,0 -112.898372,42.73262,0 -112.897416,42.733457,0 -112.896372,42.734398,0 -112.895227,42.735408,0 -112.893405,42.737031,0 -112.893235,42.737182,0 -112.892241,42.738053,0 -112.890881,42.739261,0 -112.889519,42.740455,0 -112.889038,42.740912,0 -112.888056,42.741757,0 -112.887643,42.742146,0 -112.886796,42.742884,0 -112.885502,42.744046,0 -112.884614,42.744812,0 -112.884012,42.745361,0 -112.883058,42.7462,0 -112.8824924,42.7466847,0 -112.881677,42.747391,0 -112.880868,42.748107,0 -112.880142,42.748768,0 -112.879343,42.749476,0 -112.879103,42.749696,0 -112.87752,42.751152,0 -112.877416,42.751241,0 -112.876838,42.751732,0 -112.875601,42.752848,0 -112.874856,42.753486,0 -112.873942,42.754289,0 -112.873084,42.755043,0 -112.871029,42.756882,0 -112.870736,42.757133,0 -112.870428,42.757421,0 -112.869201,42.758494,0 -112.869109,42.758575,0 -112.868067,42.759469,0 -112.866949,42.760487,0 -112.866333,42.761009,0 -112.865205,42.761992,0 -112.864736,42.762425,0 -112.863438,42.763556,0 -112.861845,42.764977,0 -112.860921,42.765793,0 -112.860636,42.766065,0 -112.860511,42.766176,0 -112.857723,42.768643,0 -112.855609,42.770535,0 -112.854678,42.771336,0 -112.853596,42.772266,0 -112.853184,42.77262,0 -112.85308,42.772716,0 -112.851813,42.773891,0 -112.851394,42.774255,0 -112.850979,42.774616,0 -112.849397,42.776042,0 -112.8489266,42.7764607,0 -112.8485507,42.7767953,0 -112.847609,42.777587,0 -112.847018,42.778135,0 -112.8459,42.779112,0 -112.844757,42.78011,0 -112.843383,42.781327,0 -112.841713,42.782857,0 -112.8398582,42.7844884,0 -112.839052,42.785217,0 -112.838923,42.785331,0 -112.838831,42.785421,0 -112.836212,42.787504,0 -112.834447,42.78877,0 -112.833357,42.789541,0 -112.831499,42.790768,0 -112.8313601,42.7908462,0 -112.829535,42.791978,0 -112.828949,42.792325,0 -112.82853,42.792573,0 -112.827629,42.793143,0 -112.825767,42.794323,0 -112.825387,42.794545,0 -112.824973,42.794812,0 -112.824037,42.79538,0 -112.8237051,42.7955838,0 -112.8233876,42.7957844,0 -112.822985,42.796039,0 -112.821741,42.796805,0 -112.82118,42.797137,0 -112.820624,42.797485,0 -112.820107,42.797794,0 -112.818682,42.798669,0 -112.818051,42.799068,0 -112.817661,42.799298,0 -112.815592,42.800584,0 -112.814048,42.801516,0 -112.8125,42.802481,0 -112.811961,42.802848,0 -112.809696,42.804239,0 -112.806923,42.805933,0 -112.804224,42.807612,0 -112.800448,42.809923,0 -112.799159,42.810732,0 -112.796657,42.81227,0 -112.795859,42.81276,0 -112.794518,42.813563,0 -112.7919312,42.8151505,0 -112.789402,42.816694,0 -112.788291,42.817388,0 -112.78647,42.81851,0 -112.785311,42.819204,0 -112.782896,42.8207,0 -112.781755,42.821407,0 -112.778038,42.8237,0 -112.777254,42.824197,0 -112.776604,42.824639,0 -112.775959,42.825103,0 -112.774993,42.825925,0 -112.7744072,42.8264725,0 -112.774351,42.826525,0 -112.774135,42.82675,0 -112.773827,42.82707,0 -112.77347,42.827464,0 -112.772842,42.828245,0 -112.77236,42.828895,0 -112.77192,42.829585,0 -112.771548,42.830258,0 -112.771304,42.830743,0 -112.771267,42.830829,0 -112.770814,42.831885,0 -112.770561,42.832674,0 -112.770397,42.833309,0 -112.770109,42.8344773,0 -112.7700263,42.834793,0 -112.769645,42.836443,0 -112.769394,42.837452,0 -112.769241,42.837953,0 -112.7691884,42.8382328,0 -112.7689508,42.8392138,0 -112.768765,42.83997,0 -112.76856,42.840668,0 -112.768433,42.841034,0 -112.768287,42.841357,0 -112.768022,42.841899,0 -112.767783,42.842304,0 -112.767426,42.842857,0 -112.766983,42.843449,0 -112.766721,42.843752,0 -112.766203,42.844301,0 -112.765962,42.844535,0 -112.765495,42.84494,0 -112.765195,42.845186,0 -112.764857,42.845443,0 -112.764346,42.84579,0 -112.76351,42.846307,0 -112.762863,42.84664,0 -112.762308,42.846915,0 -112.761043,42.847425,0 -112.759825,42.8478348,0 -112.759313,42.848007,0 -112.756656,42.848931,0 -112.755341,42.849374,0 -112.748681,42.85169,0 -112.747929,42.851942,0 -112.737534,42.855536,0 -112.735123,42.856369,0 -112.729462,42.858303,0 -112.728577,42.858597,0 -112.726803,42.859209,0 -112.724584,42.859955,0 -112.719282,42.861766,0 -112.718564,42.862002,0 -112.717219,42.862461,0 -112.713721,42.863642,0 -112.712129,42.864195,0 -112.710625,42.86482,0 -112.709759,42.865226,0 -112.709184,42.865524,0 -112.707884,42.866232,0 -112.707371,42.866531,0 -112.7066788,42.8670137,0 -112.7061737,42.8673308,0 -112.7053877,42.867813,0 -112.7045377,42.8683396,0 -112.7039762,42.8686875,0 -112.7035416,42.868953,0 -112.7029731,42.8693041,0 -112.7025515,42.8695627,0 -112.7021213,42.8698272,0 -112.7018309,42.870004,0 -112.7015468,42.8701761,0 -112.7012687,42.8703459,0 -112.7009656,42.8705215,0 -112.7006657,42.8706855,0 -112.7003708,42.8708414,0 -112.70007,42.8710013,0 -112.6997635,42.8711577,0 -112.6994542,42.8713055,0 -112.6991415,42.8714508,0 -112.6988193,42.871595,0 -112.6985004,42.871732,0 -112.6981766,42.8718671,0 -112.6978523,42.8719994,0 -112.6975339,42.8721241,0 -112.6972007,42.8722486,0 -112.6968611,42.8723695,0 -112.696353,42.872543,0 -112.6960086,42.8726552,0 -112.6956677,42.8727626,0 -112.6954167,42.8728382,0 -112.6951547,42.8729148,0 -112.6947982,42.8730117,0 -112.6944644,42.8731016,0 -112.6941062,42.8731918,0 -112.6937485,42.8732799,0 -112.6934027,42.8733597,0 -112.6930443,42.8734331,0 -112.6926807,42.873505,0 -112.692138,42.8736039,0 -112.6917841,42.8736652,0 -112.6914286,42.8737225,0 -112.6910573,42.8737772,0 -112.6906955,42.8738272,0 -112.6903314,42.8738688,0 -112.6899544,42.8739086,0 -112.6895878,42.8739447,0 -112.689036,42.8739886,0 -112.688474,42.874029,0 -112.688117,42.8740508,0 -112.6875503,42.8740802,0 -112.6869933,42.874106,0 -112.6853341,42.8741894,0 -112.6847734,42.8742223,0 -112.684402,42.8742433,0 -112.6840394,42.8742665,0 -112.6836665,42.8742945,0 -112.6832896,42.8743282,0 -112.6829232,42.8743655,0 -112.6823749,42.8744274,0 -112.6820058,42.8744747,0 -112.6816345,42.874527,0 -112.6812733,42.87458,0 -112.68091,42.8746422,0 -112.6804319,42.8747282,0 -112.6800103,42.8748108,0 -112.6796516,42.8748841,0 -112.6792933,42.8749603,0 -112.6789424,42.8750422,0 -112.6785852,42.8751285,0 -112.6782385,42.8752208,0 -112.6778921,42.8753158,0 -112.6775434,42.8754155,0 -112.6770219,42.8755646,0 -112.6764,42.8757519,0 -112.6740915,42.8764357,0 -112.6716723,42.8771513,0 -112.670646,42.8774588,0 -112.6697711,42.8777187,0 -112.6678622,42.878283,0 -112.665435,42.8790019,0 -112.6635755,42.8795559,0 -112.6611536,42.8802697,0 -112.6587425,42.8809858,0 -112.6578947,42.8812341,0 -112.6556912,42.8818866,0 -112.6537331,42.8824719,0 -112.6514955,42.8831319,0 -112.649076,42.8838403,0 -112.6482119,42.8841045,0 -112.647533,42.8843126,0 -112.6468502,42.8845265,0 -112.6461673,42.8847444,0 -112.6454871,42.8849695,0 -112.6439608,42.8854614,0 -112.6427499,42.8858549,0 -112.6423773,42.8859759,0 -112.6405556,42.8865731,0 -112.6391948,42.8870193,0 -112.6379106,42.8874366,0 -112.6373999,42.8876046,0 -112.636823,42.8877919,0 -112.6364953,42.8878988,0 -112.636152,42.8880083,0 -112.6357879,42.8881239,0 -112.6354615,42.8882228,0 -112.63513,42.8883184,0 -112.6347832,42.8884115,0 -112.6344043,42.8884975,0 -112.6341529,42.8885463,0 -112.6338706,42.8885986,0 -112.6335034,42.8886562,0 -112.6331479,42.8887009,0 -112.6327227,42.8887434,0 -112.6323241,42.8887739,0 -112.6318546,42.8888002,0 -112.6313168,42.888831,0 -112.6296213,42.8889148,0 -112.6279445,42.8889962,0 -112.6270291,42.8890461,0 -112.6266531,42.8890726,0 -112.6262849,42.8891057,0 -112.6259194,42.8891436,0 -112.625558,42.8891847,0 -112.6251899,42.8892301,0 -112.6249356,42.8892641,0 -112.6246448,42.8893075,0 -112.6242796,42.8893671,0 -112.623919,42.8894307,0 -112.6235505,42.8895011,0 -112.6231004,42.8895916,0 -112.6227328,42.8896701,0 -112.6222926,42.8897741,0 -112.621797,42.8898891,0 -112.6209162,42.8900954,0 -112.6183884,42.8906818,0 -112.615953,42.8912509,0 -112.6136081,42.8917987,0 -112.6111491,42.8923649,0 -112.608775,42.8929222,0 -112.6062216,42.8935165,0 -112.6037928,42.8940749,0 -112.6013782,42.8946369,0 -112.598942,42.895204,0 -112.5964299,42.8957863,0 -112.5937932,42.8963949,0 -112.5926956,42.8966509,0 -112.5921833,42.8967742,0 -112.5918425,42.8968627,0 -112.5914826,42.896961,0 -112.5911236,42.8970641,0 -112.5907401,42.8971757,0 -112.590291,42.8973175,0 -112.5899469,42.8974311,0 -112.5895957,42.8975518,0 -112.5892523,42.8976741,0 -112.5889042,42.8978053,0 -112.5883223,42.8980295,0 -112.5879379,42.8981813,0 -112.5862904,42.8988281,0 -112.5858769,42.8989839,0 -112.5855105,42.8991152,0 -112.5851563,42.8992338,0 -112.5846548,42.8993923,0 -112.5841862,42.8995353,0 -112.5835673,42.8997245,0 -112.5818556,42.90023,0 -112.5798374,42.9008326,0 -112.5775479,42.9015164,0 -112.5751476,42.9022324,0 -112.573662,42.902677,0 -112.572415,42.90305,0 -112.5717253,42.9032501,0 -112.5697912,42.9038284,0 -112.5688969,42.9040977,0 -112.5673187,42.9045664,0 -112.566305,42.9048689,0 -112.5640078,42.9055576,0 -112.561437,42.9063225,0 -112.559047,42.9070343,0 -112.5567247,42.90772,0 -112.5552887,42.9081549,0 -112.554656,42.908338,0 -112.553865,42.908571,0 -112.553345,42.908716,0 -112.55203,42.909107,0 -112.551065,42.909405,0 -112.550396,42.909604,0 -112.54888,42.910041,0 -112.547819,42.910358,0 -112.546447,42.91072,0 -112.545186,42.911003,0 -112.544335,42.91118,0 -112.543036,42.911431,0 -112.542143,42.911589,0 -112.5404197,42.9118469,0 -112.539229,42.9119949,0 -112.538111,42.912102,0 -112.536735,42.912207,0 -112.5360622,42.9122421,0 -112.5352068,42.9122739,0 -112.5333359,42.9123213,0 -112.5220258,42.912446,0 -112.5208843,42.9124646,0 -112.5205211,42.9124711,0 -112.5182713,42.9125,0 -112.5058186,42.9126406,0 -112.502485,42.912685,0 -112.4952403,42.9127429,0 -112.4764275,42.9127354,0 -112.4759644,42.9127337,0 -112.4748653,42.9127384,0 -112.4710543,42.9127058,0 -112.4663331,42.9126774,0 -112.4632809,42.912659,0 -112.4621937,42.9126475,0 -112.45905,42.912632,0 -112.4584171,42.9126293,0 -112.4513925,42.9125745,0 -112.450768,42.9125705,0 -112.4495684,42.9125625,0 -112.4486299,42.9125188,0 -112.447103,42.9124072,0 
			</coordinates>
		</LineString>
		<atom:link rel="app" href="https://www.google.com/earth/about/versions/#earth-pro" title="Google Earth Pro 7.3.6.10201"></atom:link>
	</Placemark>
</Document>
</kml>
