<?xml version="1.0" encoding="UTF-8"?>
<kml xmlns="http://www.opengis.net/kml/2.2" xmlns:gx="http://www.google.com/kml/ext/2.2" xmlns:kml="http://www.opengis.net/kml/2.2" xmlns:atom="http://www.w3.org/2005/Atom">
<Document>
	<name>I.87.NC.kml</name>
	<Placemark>
		<name>I.87.NC</name>
		<LineString>
			<coordinates>
				-78.6001297,35.7554527,0 -78.5983591,35.7545206,0 -78.5976742,35.75418,0 -78.5970026,35.7539039,0 -78.5961763,35.7536134,0 -78.595316,35.7534055,0 -78.5947403,35.7532943,0 -78.59409960000001,35.7532118,0 -78.5934721,35.7531795,0 -78.592855,35.7531607,0 -78.5897046,35.7531902,0 -78.58921220000001,35.7531948,0 -78.5876988,35.7531875,0 -78.58694300000001,35.7531957,0 -78.5861362,35.7532446,0 -78.5853707,35.7533181,0 -78.5849351,35.7533774,0 -78.5845139,35.7534488,0 -78.5839922,35.7535593,0 -78.5835129,35.7536665,0 -78.5832947,35.7537241,0 -78.582826,35.7538512,0 -78.5823149,35.7540175,0 -78.58187239999999,35.7541823,0 -78.58123070000001,35.75444,0 -78.58054970000001,35.7547673,0 -78.5800662,35.7550284,0 -78.57965539999999,35.7552611,0 -78.57916539999999,35.7555623,0 -78.57870339999999,35.7558929,0 -78.5782282,35.7562757,0 -78.5777865,35.7566442,0 -78.5773756,35.757036,0 -78.57686510000001,35.7575547,0 -78.5761112,35.7584855,0 -78.5757818,35.7589813,0 -78.5753297,35.7597805,0 -78.575068,35.7603442,0 -78.574938,35.7606844,0 -78.5747636,35.7611549,0 -78.57456430000001,35.7618375,0 -78.5744986,35.7621671,0 -78.5744215,35.7626806,0 -78.5743403,35.7634623,0 -78.5743093,35.7639589,0 -78.57420980000001,35.7659683,0 -78.5741321,35.7672084,0 -78.5740899,35.7678918,0 -78.5738861,35.7712225,0 -78.5738557,35.7719005,0 -78.5737716,35.7728682,0 -78.5737254,35.7736743,0 -78.5736854,35.7743735,0 -78.57359839999999,35.7754634,0 -78.5735531,35.7764936,0 -78.57334659999999,35.7774288,0 -78.5732501,35.7777465,0 -78.5730901,35.7780989,0 -78.57285299999999,35.7784512,0 -78.5725496,35.7788014,0 -78.57225870000001,35.7790609,0 -78.5719636,35.7792678,0 -78.5717389,35.7794032,0 -78.57136389999999,35.7795889,0 -78.5709282,35.7797466,0 -78.5704952,35.779854,0 -78.5700375,35.7799267,0 -78.5694901,35.7799457,0 -78.5685373,35.7798976,0 -78.56789620000001,35.7798126,0 -78.5672592,35.7797287,0 -78.56677929999999,35.7796247,0 -78.566254,35.7794591,0 -78.5645018,35.7788323,0 -78.5614874,35.7777539,0 -78.5594273,35.7770566,0 -78.55457800000001,35.7755465,0 -78.5518046,35.7746997,0 -78.5511743,35.7745139,0 -78.54985189999999,35.7741816,0 -78.54918619999999,35.7740212,0 -78.54837329999999,35.773838,0 -78.5468139,35.7735315,0 -78.5450814,35.773262,0 -78.543317,35.7730396,0 -78.540542,35.772825,0 -78.5394048,35.7727528,0 -78.5382512,35.7726761,0 -78.53722310000001,35.7726147,0 -78.5367126,35.7725784,0 -78.5362056,35.7725174,0 -78.53544220000001,35.7724027,0 -78.5344917,35.7722095,0 -78.53351739999999,35.7719288,0 -78.5326139,35.771612,0 -78.5316929,35.7712112,0 -78.5311033,35.7709017,0 -78.5293867,35.7699964,0 -78.528764,35.7697042,0 -78.5281437,35.7694423,0 -78.5269225,35.7690112,0 -78.5254642,35.7686871,0 -78.52423690000001,35.7684643,0 -78.52284640000001,35.7683598,0 -78.52139339999999,35.7682495,0 -78.52092620000001,35.7682168,0 -78.51870940000001,35.7680325,0 -78.5180821,35.7680078,0 -78.5151565,35.7677684,0 -78.51181339999999,35.767539,0 -78.5099896,35.7674635,0 -78.5069325,35.7673553,0 -78.5048457,35.7673384,0 -78.5009953,35.7673494,0 -78.5008559,35.7673521,0 -78.4973976,35.7673152,0 -78.49320539999999,35.7673137,0 -78.4901143,35.7672984,0 -78.48934509999999,35.767279,0 -78.48883170000001,35.7672455,0 -78.4880824,35.767185,0 -78.4871322,35.7670688,0 -78.48613659999999,35.7669112,0 -78.48553080000001,35.766784,0 -78.4849657,35.766651,0 -78.4843679,35.7665006,0 -78.48336430000001,35.7662148,0 -78.4818623,35.7657761,0 -78.4808728,35.7655285,0 -78.4802218,35.7653922,0 -78.47933140000001,35.7652534,0 -78.47883830000001,35.765189,0 -78.47826910000001,35.7651404,0 -78.4777095,35.7651167,0 -78.4771174,35.7651151,0 -78.4764029,35.7651344,0 -78.475921,35.7651712,0 -78.47543829999999,35.7652193,0 -78.4750403,35.7652729,0 -78.4746237,35.765343,0 -78.47396550000001,35.7654678,0 -78.47303789999999,35.7656807,0 -78.4698666,35.766399,0 -78.4653285,35.7674158,0 -78.4648344,35.7675321,0 -78.4635548,35.7678191,0 -78.46250879999999,35.7680542,0 -78.46195489999999,35.7681782,0 -78.46142,35.7683009,0 -78.4601447,35.7685869,0 -78.4592459,35.7687887,0 -78.45808649999999,35.7690491,0 -78.4566464,35.7693747,0 -78.4554687,35.7696384,0 -78.454425,35.7698743,0 -78.45365080000001,35.7700606,0 -78.45313710000001,35.7702054,0 -78.4527509,35.7703338,0 -78.4523432,35.770484,0 -78.451966,35.7706371,0 -78.4515986,35.7708049,0 -78.4512167,35.7709998,0 -78.4508733,35.7711902,0 -78.45044849999999,35.7714514,0 -78.450129,35.7716722,0 -78.4498313,35.7718942,0 -78.4495379,35.7721288,0 -78.4491781,35.7724488,0 -78.4489153,35.772707,0 -78.4486619,35.7729758,0 -78.4484983,35.7731651,0 -78.4483628,35.7733358,0 -78.4481455,35.7736199,0 -78.44788939999999,35.7739975,0 -78.4474747,35.7746742,0 -78.44700690000001,35.7754881,0 -78.44648189999999,35.7763799,0 -78.44548829999999,35.7780797,0 -78.445274,35.7784424,0 -78.4450851,35.7787718,0 -78.44493629999999,35.7790079,0 -78.4448357,35.779169,0 -78.44464790000001,35.7794355,0 -78.4444991,35.7796488,0 -78.44434889999999,35.7798336,0 -78.4440444,35.7801906,0 -78.4437937,35.7804506,0 -78.44352809999999,35.780703,0 -78.44326289999999,35.7809426,0 -78.4429689,35.7811839,0 -78.4425947,35.7814635,0 -78.4421749,35.7817571,0 -78.44161699999999,35.7821424,0 -78.44099679999999,35.7825508,0 -78.4393346,35.7836868,0 -78.4376115,35.7848822,0 -78.4374023,35.7850253,0 -78.4366066,35.7855728,0 -78.4362476,35.7858199,0 -78.4358747,35.7860907,0 -78.4354443,35.7864158,0 -78.4350494,35.7867591,0 -78.4347181,35.7870799,0 -78.4342369,35.7876153,0 -78.43379280000001,35.7882298,0 -78.43360989999999,35.7885194,0 -78.43344070000001,35.7888159,0 -78.4331126,35.789501,0 -78.4329161,35.790028,0 -78.432738,35.7907103,0 -78.4317489,35.7967069,0 -78.4316659,35.7971664,0 -78.4314911,35.7982232,0 -78.4313329,35.7988441,0 -78.43095940000001,35.7998918,0 -78.4302074,35.8013149,0 -78.42993679999999,35.8017117,0 -78.4295632,35.8022276,0 -78.4292662,35.8025834,0 -78.42909950000001,35.8027791,0 -78.4289359,35.8029618,0 -78.4286082,35.8032849,0 -78.42831579999999,35.8035567,0 -78.42795150000001,35.8038355,0 -78.4272569,35.8043753,0 -78.42675490000001,35.8047302,0 -78.4265023,35.8048885,0 -78.4262303,35.8050483,0 -78.42592500000001,35.8052216,0 -78.42569709999999,35.8053435,0 -78.4254179,35.8054855,0 -78.42513219999999,35.8056207,0 -78.4247776,35.8057809,0 -78.4242091,35.8060212,0 -78.4230862,35.8065006,0 -78.4208873,35.8074387,0 -78.4188166,35.8083294,0 -78.4156687,35.8096744,0 -78.4108365,35.8117592,0 
			</coordinates>
		</LineString>
		<atom:link rel="app" href="https://www.google.com/earth/about/versions/#earth-pro" title="Google Earth Pro 7.3.6.10201"></atom:link>
	</Placemark>
</Document>
</kml>
