<?xml version="1.0" encoding="UTF-8"?>
<kml xmlns="http://www.opengis.net/kml/2.2" xmlns:gx="http://www.google.com/kml/ext/2.2" xmlns:kml="http://www.opengis.net/kml/2.2" xmlns:atom="http://www.w3.org/2005/Atom">
<Document>
	<name>I.88.NY.kml</name>
	<Placemark>
		<name>I.88.NY</name>
		<LineString>
			<coordinates>
				-75.90204,42.139082,0 -75.901623,42.139995,0 -75.901556,42.140122,0 -75.90130000000001,42.140585,0 -75.901245,42.140683,0 -75.901149,42.140856,0 -75.900926,42.1412,0 -75.90086100000001,42.141284,0 -75.90064599999999,42.141515,0 -75.900384,42.141738,0 -75.900043,42.141982,0 -75.899874,42.142086,0 -75.899508,42.142278,0 -75.899027,42.14247,0 -75.89865899999999,42.14258,0 -75.89825999999999,42.142675,0 -75.898121,42.142705,0 -75.897654,42.142804,0 -75.896765,42.142989,0 -75.8960476,42.1431376,0 -75.895751,42.143199,0 -75.895546,42.143241,0 -75.89528199999999,42.143313,0 -75.89495700000001,42.143414,0 -75.894685,42.143513,0 -75.894497,42.143596,0 -75.894218,42.143731,0 -75.893788,42.143981,0 -75.89362199999999,42.144097,0 -75.89346399999999,42.144224,0 -75.89321200000001,42.144441,0 -75.892897,42.144772,0 -75.892662,42.145073,0 -75.892411,42.145458,0 -75.89210300000001,42.146112,0 -75.891605,42.147079,0 -75.89153899999999,42.147204,0 -75.890986,42.148248,0 -75.890917,42.148379,0 -75.89067799999999,42.148809,0 -75.89003200000001,42.149912,0 -75.888648,42.15221,0 -75.887591,42.153996,0 -75.886245,42.156228,0 -75.885676,42.157034,0 -75.88505600000001,42.157736,0 -75.884649,42.158136,0 -75.884317,42.158441,0 -75.883347,42.15921,0 -75.883054,42.159415,0 -75.882384,42.159834,0 -75.881546,42.160303,0 -75.881468,42.160344,0 -75.87953899999999,42.161353,0 -75.878849,42.161734,0 -75.877527,42.162437,0 -75.8759371,42.1632375,0 -75.875609,42.163408,0 -75.87500199999999,42.163692,0 -75.874492,42.163889,0 -75.87419,42.163975,0 -75.874075,42.164006,0 -75.873845,42.164066,0 -75.873318,42.164162,0 -75.87314600000001,42.164188,0 -75.872868,42.164204,0 -75.872039,42.164212,0 -75.871679,42.164187,0 -75.871365,42.164146,0 -75.866739,42.163362,0 -75.86618799999999,42.163259,0 -75.865956,42.163205,0 -75.86562499999999,42.163126,0 -75.86514,42.162996,0 -75.86488300000001,42.162916,0 -75.864836,42.162902,0 -75.86364500000001,42.162493,0 -75.860619,42.161479,0 -75.86018,42.161344,0 -75.85943399999999,42.161159,0 -75.859207,42.161114,0 -75.858502,42.160992,0 -75.856854,42.160781,0 -75.855079,42.160548,0 -75.854411,42.160433,0 -75.853363,42.160209,0 -75.852451,42.160036,0 -75.85193200000001,42.159981,0 -75.851276,42.15994,0 -75.85057399999999,42.159936,0 -75.84985,42.159946,0 -75.849469,42.159964,0 -75.84913899999999,42.15998,0 -75.84854900000001,42.160021,0 -75.847697,42.160107,0 -75.847009,42.160196,0 -75.84632499999999,42.160303,0 -75.845708,42.160425,0 -75.845652,42.160436,0 -75.84515,42.160561,0 -75.844723,42.16069,0 -75.84430500000001,42.160829,0 -75.843694,42.161068,0 -75.843326,42.161237,0 -75.8429,42.161456,0 -75.842523,42.161671,0 -75.842348,42.161779,0 -75.84196900000001,42.162033,0 -75.841444,42.162435,0 -75.839637,42.163939,0 -75.839268,42.164246,0 -75.83795499999999,42.16534,0 -75.837294,42.165881,0 -75.836856,42.166184,0 -75.836483,42.166393,0 -75.836056,42.16659,0 -75.83564,42.166743,0 -75.835139,42.166888,0 -75.83479800000001,42.166958,0 -75.834233,42.167036,0 -75.83385920000001,42.1670535,0 -75.8329585,42.1670425,0 -75.832678,42.167013,0 -75.832443,42.16698,0 -75.831889,42.166862,0 -75.828307,42.165965,0 -75.827467,42.165754,0 -75.8269446,42.1656233,0 -75.825641,42.165297,0 -75.825164,42.165171,0 -75.824805,42.165076,0 -75.82420999999999,42.164895,0 -75.82387,42.164778,0 -75.823055,42.16446,0 -75.82039,42.163253,0 -75.819575,42.162893,0 -75.80931099999999,42.158232,0 -75.808649,42.157963,0 -75.80822000000001,42.157825,0 -75.807737,42.157696,0 -75.807384,42.157622,0 -75.806808,42.157531,0 -75.80601,42.157465,0 -75.805751,42.15746,0 -75.805156,42.157473,0 -75.804732,42.157501,0 -75.8039,42.157593,0 -75.80214700000001,42.157829,0 -75.801925,42.157859,0 -75.79759900000001,42.15843,0 -75.794066,42.158908,0 -75.79189599999999,42.159192,0 -75.789616,42.159497,0 -75.786489,42.159914,0 -75.77919,42.160886,0 -75.778054,42.161057,0 -75.777429,42.161187,0 -75.77661999999999,42.161401,0 -75.775526,42.161756,0 -75.774165,42.16222,0 -75.77212230000001,42.1629152,0 -75.77137159999999,42.1631617,0 -75.769621,42.163736,0 -75.769587,42.163747,0 -75.76880800000001,42.164006,0 -75.767892,42.164316,0 -75.766458,42.164786,0 -75.764224,42.16554,0 -75.76353899999999,42.165786,0 -75.76293,42.16603,0 -75.76267300000001,42.166144,0 -75.7619,42.166516,0 -75.76172800000001,42.166609,0 -75.761673,42.166641,0 -75.761055,42.166996,0 -75.76057,42.167301,0 -75.76024,42.167531,0 -75.759659,42.167969,0 -75.759148,42.168401,0 -75.75856400000001,42.168951,0 -75.758155,42.169385,0 -75.754256,42.173755,0 -75.7527315,42.1754487,0 -75.752219,42.176018,0 -75.751497,42.176777,0 -75.751138,42.177103,0 -75.75072900000001,42.177431,0 -75.750238,42.177762,0 -75.74996299999999,42.177928,0 -75.749601,42.178123,0 -75.74918099999999,42.178332,0 -75.74869099999999,42.178537,0 -75.748332,42.178664,0 -75.74806599999999,42.178747,0 -75.747432,42.178925,0 -75.74704300000001,42.179015,0 -75.7457502,42.1792183,0 -75.7442934,42.1793942,0 -75.743548,42.179479,0 -75.74282599999999,42.179578,0 -75.7411065,42.1797902,0 -75.7401607,42.1799103,0 -75.736799,42.180328,0 -75.736003,42.180441,0 -75.73521100000001,42.180569,0 -75.734437,42.180706,0 -75.73366,42.180861,0 -75.732883,42.181027,0 -75.73213,42.181203,0 -75.730704,42.18158,0 -75.724343,42.1834081,0 -75.7227247,42.1838768,0 -75.719831,42.184702,0 -75.71713699999999,42.185469,0 -75.716103,42.185765,0 -75.714561,42.186197,0 -75.713842,42.186376,0 -75.712746,42.186601,0 -75.712377,42.186671,0 -75.711623,42.186792,0 -75.710973,42.186882,0 -75.710216,42.186961,0 -75.70909,42.187045,0 -75.708522,42.187068,0 -75.7081673,42.1870741,0 -75.70747799999999,42.187086,0 -75.706574,42.187081,0 -75.70583000000001,42.187045,0 -75.705004,42.186971,0 -75.704536,42.186923,0 -75.703737,42.186828,0 -75.703305,42.186771,0 -75.70257100000001,42.18665,0 -75.701785,42.186499,0 -75.70023399999999,42.186148,0 -75.697795,42.185587,0 -75.696943,42.185422,0 -75.696512,42.185366,0 -75.695975,42.185309,0 -75.69563599999999,42.185289,0 -75.695289,42.185272,0 -75.69457199999999,42.185256,0 -75.694349,42.185269,0 -75.694118,42.185281,0 -75.69324400000001,42.18535,0 -75.69296199999999,42.185383,0 -75.69241,42.185467,0 -75.69179099999999,42.185589,0 -75.691266,42.185718,0 -75.69118899999999,42.185736,0 -75.69058,42.185914,0 -75.68977700000001,42.186195,0 -75.68947300000001,42.186327,0 -75.688648,42.186722,0 -75.688045,42.187066,0 -75.687512,42.187411,0 -75.687192,42.187651,0 -75.686643,42.188101,0 -75.686408,42.188321,0 -75.685456,42.189258,0 -75.68377599999999,42.190951,0 -75.68157600000001,42.193155,0 -75.68116000000001,42.193515,0 -75.680573,42.193987,0 -75.680171,42.194272,0 -75.679857,42.194495,0 -75.679587,42.194663,0 -75.67881300000001,42.195128,0 -75.678113,42.195493,0 -75.677452,42.195797,0 -75.67688800000001,42.196038,0 -75.67652510000001,42.196169,0 -75.67628379999999,42.196264,0 -75.67563,42.196486,0 -75.675152,42.196628,0 -75.67455699999999,42.196789,0 -75.673525,42.197019,0 -75.672724,42.197158,0 -75.672427,42.197199,0 -75.671436,42.197306,0 -75.67081899999999,42.197355,0 -75.670481,42.197369,0 -75.66948600000001,42.197382,0 -75.669094,42.197376,0 -75.66858999999999,42.197355,0 -75.667419,42.197261,0 -75.667006,42.197209,0 -75.66593399999999,42.197043,0 -75.66546200000001,42.196952,0 -75.66442600000001,42.1967,0 -75.663405,42.196389,0 -75.662964,42.19624,0 -75.66190899999999,42.195823,0 -75.661113,42.195452,0 -75.660308,42.195022,0 -75.659995,42.194836,0 -75.659244,42.194352,0 -75.65863899999999,42.193912,0 -75.657881,42.193302,0 -75.655805,42.191545,0 -75.654961,42.19086,0 -75.654708,42.19068,0 -75.654105,42.190273,0 -75.65349999999999,42.189914,0 -75.653081,42.189683,0 -75.65217800000001,42.189253,0 -75.65181990000001,42.1891355,0 -75.6510049,42.1888301,0 -75.650509,42.188613,0 -75.64987000000001,42.188421,0 -75.649428,42.188308,0 -75.64859800000001,42.188131,0 -75.64758,42.187962,0 -75.646565,42.187814,0 -75.64491200000001,42.18757,0 -75.64384800000001,42.187421,0 -75.64229899999999,42.187188,0 -75.640153,42.186882,0 -75.6378034,42.1865247,0 -75.63690630000001,42.1864034,0 -75.634131,42.186003,0 -75.63132299999999,42.185594,0 -75.630999,42.185547,0 -75.628978,42.185259,0 -75.625472,42.184739,0 -75.623807,42.184505,0 -75.6225673,42.1843424,0 -75.6221733,42.1842987,0 -75.6215066,42.1842484,0 -75.6205202,42.1841743,0 -75.6194856,42.1841162,0 -75.617842,42.184067,0 -75.616298,42.184055,0 -75.615284,42.184069,0 -75.61476500000001,42.184076,0 -75.61095589999999,42.1841585,0 -75.60952690000001,42.1842032,0 -75.60798699999999,42.184245,0 -75.606279,42.184287,0 -75.605647,42.184302,0 -75.602818,42.184369,0 -75.599974,42.184424,0 -75.59716400000001,42.184489,0 -75.596475,42.184515,0 -75.595913,42.184547,0 -75.594987,42.184633,0 -75.594538,42.184692,0 -75.593908,42.184792,0 -75.59349899999999,42.184873,0 -75.593099,42.184964,0 -75.59252499999999,42.185107,0 -75.591781,42.18532,0 -75.591134,42.185533,0 -75.5904,42.18582,0 -75.58962200000001,42.186165,0 -75.589055,42.186445,0 -75.588475,42.186767,0 -75.58781399999999,42.187182,0 -75.58719000000001,42.187623,0 -75.586906,42.18785,0 -75.58631,42.188341,0 -75.583122,42.19115,0 -75.58106600000001,42.192948,0 -75.58041900000001,42.193516,0 -75.57969799999999,42.194113,0 -75.579184,42.194502,0 -75.578757,42.194796,0 -75.578097,42.195207,0 -75.577865,42.195344,0 -75.57778,42.19539,0 -75.577765,42.195398,0 -75.57712600000001,42.195751,0 -75.576527,42.19605,0 -75.575898,42.196328,0 -75.575115,42.196645,0 -75.57425000000001,42.19695,0 -75.573645,42.197138,0 -75.572923,42.197335,0 -75.57222899999999,42.197499,0 -75.57124899999999,42.197687,0 -75.57039399999999,42.197819,0 -75.569676,42.197897,0 -75.568471,42.19798,0 -75.56759099999999,42.198005,0 -75.56651100000001,42.197986,0 -75.56393300000001,42.197892,0 -75.561995,42.197831,0 -75.557261,42.197662,0 -75.554298,42.197564,0 -75.55357600000001,42.197534,0 -75.546111,42.197282,0 -75.545135,42.197262,0 -75.544237,42.197269,0 -75.5439083,42.1972696,0 -75.5431203,42.1972892,0 -75.54212200000001,42.19736,0 -75.541443,42.197415,0 -75.540662,42.197486,0 -75.539351,42.197644,0 -75.537826,42.19788,0 -75.537294,42.197979,0 -75.535878,42.198274,0 -75.534504,42.198611,0 -75.533114,42.199013,0 -75.531758,42.199458,0 -75.53117899999999,42.199667,0 -75.530666,42.199864,0 -75.530034,42.20011,0 -75.529095,42.200512,0 -75.528232,42.200905,0 -75.527597,42.201214,0 -75.526797,42.201624,0 -75.52573,42.202231,0 -75.524582,42.202938,0 -75.523875,42.203406,0 -75.52316500000001,42.203914,0 -75.522612,42.204334,0 -75.52204999999999,42.204777,0 -75.52180300000001,42.204985,0 -75.5212326,42.2054718,0 -75.520971,42.205722,0 -75.5206708,42.205992,0 -75.52000200000001,42.206638,0 -75.519524,42.207131,0 -75.518703,42.20805,0 -75.518484,42.208306,0 -75.517825,42.209164,0 -75.51734399999999,42.209831,0 -75.517067,42.210248,0 -75.516589,42.211009,0 -75.51645600000001,42.211234,0 -75.51595500000001,42.212165,0 -75.515653,42.212784,0 -75.515325,42.213524,0 -75.515114,42.21405,0 -75.514883,42.214689,0 -75.514439,42.216141,0 -75.514195,42.21695,0 -75.513926,42.217909,0 -75.513632,42.218885,0 -75.513352,42.219858,0 -75.51305499999999,42.220834,0 -75.512747,42.221903,0 -75.51266219999999,42.2222251,0 -75.51255980000001,42.2225501,0 -75.511314,42.226772,0 -75.51105200000001,42.227647,0 -75.51095100000001,42.227949,0 -75.51086599999999,42.228165,0 -75.510794,42.228317,0 -75.51072000000001,42.228475,0 -75.510411,42.229005,0 -75.510226,42.229272,0 -75.509992,42.229567,0 -75.509728,42.229868,0 -75.509462,42.230135,0 -75.5091,42.23045,0 -75.5087,42.230754,0 -75.50834399999999,42.231006,0 -75.507921,42.231257,0 -75.50765199999999,42.231403,0 -75.507204,42.231619,0 -75.506911,42.231743,0 -75.506242,42.231987,0 -75.50559800000001,42.232183,0 -75.505027,42.232311,0 -75.504599,42.232387,0 -75.504032,42.23247,0 -75.50283899999999,42.232618,0 -75.50223,42.232686,0 -75.499999,42.232959,0 -75.497613,42.233259,0 -75.496922,42.233377,0 -75.496128,42.233558,0 -75.495401,42.233773,0 -75.49502099999999,42.233907,0 -75.49447600000001,42.234117,0 -75.493886,42.23438,0 -75.493408,42.23463,0 -75.493335,42.234669,0 -75.492817,42.234974,0 -75.4924388,42.2352239,0 -75.49207800000001,42.235483,0 -75.49167799999999,42.235804,0 -75.491056,42.236384,0 -75.489231,42.238348,0 -75.488316,42.23932,0 -75.486223,42.241568,0 -75.483896,42.244073,0 -75.48255399999999,42.245501,0 -75.482131,42.245972,0 -75.4804,42.247819,0 -75.479006,42.249321,0 -75.478596,42.249757,0 -75.476668,42.251836,0 -75.47573,42.252825,0 -75.475199,42.253405,0 -75.473923,42.25477,0 -75.472154,42.256697,0 -75.4717381,42.2571301,0 -75.471163,42.25773,0 -75.470342,42.258676,0 -75.470037,42.259072,0 -75.469993,42.25913,0 -75.469629,42.259627,0 -75.46930399999999,42.260106,0 -75.46899500000001,42.260593,0 -75.468812,42.260907,0 -75.468633,42.261233,0 -75.468468,42.261556,0 -75.468222,42.262048,0 -75.46801000000001,42.262531,0 -75.46763,42.263504,0 -75.467327,42.264495,0 -75.46720500000001,42.264992,0 -75.46711500000001,42.265488,0 -75.466994,42.26623,0 -75.466904,42.267205,0 -75.466902,42.267233,0 -75.466883,42.267437,0 -75.466886,42.268362,0 -75.46691300000001,42.268882,0 -75.46695200000001,42.269355,0 -75.467009,42.269833,0 -75.46717,42.270766,0 -75.467285,42.271254,0 -75.467417,42.271746,0 -75.467578,42.272255,0 -75.46792000000001,42.273196,0 -75.468126,42.273666,0 -75.46859000000001,42.274619,0 -75.46920900000001,42.275776,0 -75.471182,42.279494,0 -75.47144,42.279996,0 -75.47145,42.280016,0 -75.471644,42.280366,0 -75.471979,42.280975,0 -75.472478,42.281928,0 -75.472689,42.282407,0 -75.472864,42.282882,0 -75.472984,42.283267,0 -75.47310899999999,42.283823,0 -75.47317700000001,42.284274,0 -75.47321700000001,42.284808,0 -75.47322200000001,42.285361,0 -75.473124,42.28624,0 -75.47307499999999,42.286474,0 -75.47291,42.287115,0 -75.472832,42.287351,0 -75.47255,42.288033,0 -75.472324,42.288497,0 -75.47226000000001,42.288608,0 -75.47192320000001,42.2891952,0 -75.47168600000001,42.289484,0 -75.47135,42.28991,0 -75.471001,42.290289,0 -75.47060500000001,42.2907,0 -75.469902,42.291311,0 -75.469463,42.291631,0 -75.46854399999999,42.292222,0 -75.468035,42.292514,0 -75.467589,42.292733,0 -75.467083,42.292963,0 -75.466159,42.293316,0 -75.46543,42.293556,0 -75.464573,42.293779,0 -75.46371600000001,42.293952,0 -75.463048,42.294051,0 -75.46222400000001,42.294139,0 -75.46137899999999,42.294182,0 -75.460621,42.294187,0 -75.460166,42.294169,0 -75.45895,42.294072,0 -75.45855899999999,42.294013,0 -75.458095,42.293942,0 -75.457138,42.293744,0 -75.455601,42.293362,0 -75.453906,42.292925,0 -75.45194600000001,42.29244,0 -75.451774,42.292398,0 -75.45051599999999,42.292074,0 -75.44618199999999,42.291009,0 -75.44357599999999,42.290336,0 -75.44304700000001,42.290218,0 -75.44197,42.290004,0 -75.44100400000001,42.289843,0 -75.440167,42.28973,0 -75.43929300000001,42.289647,0 -75.438418,42.289596,0 -75.437501,42.289562,0 -75.436729,42.289563,0 -75.43535900000001,42.289599,0 -75.43500299999999,42.289622,0 -75.43353399999999,42.289762,0 -75.432525,42.289896,0 -75.43199799999999,42.289991,0 -75.431538,42.290084,0 -75.428681,42.290623,0 -75.42753500000001,42.290829,0 -75.42653,42.291029,0 -75.426215,42.291078,0 -75.425342,42.29125,0 -75.423469,42.291598,0 -75.420884,42.292077,0 -75.42010500000001,42.292235,0 -75.41979000000001,42.292288,0 -75.418933,42.292457,0 -75.41779,42.292659,0 -75.41689,42.292809,0 -75.415837,42.292957,0 -75.415689,42.29298,0 -75.4132809,42.2932794,0 -75.4124906,42.2933443,0 -75.40992199999999,42.293497,0 -75.408984,42.293529,0 -75.40739000000001,42.2934984,0 -75.4055367,42.2934544,0 -75.4004839,42.2931103,0 -75.39944869999999,42.2930551,0 -75.39756800000001,42.2929668,0 -75.3953446,42.2929468,0 -75.3924207,42.2933014,0 -75.3905075,42.2937781,0 -75.3889149,42.2943009,0 -75.38821350000001,42.2945726,0 -75.38675259999999,42.2952613,0 -75.38554600000001,42.295988,0 -75.38401039999999,42.2970588,0 -75.378703,42.302523,0 -75.3762167,42.3049604,0 -75.374544,42.306301,0 -75.37286,42.307325,0 -75.370413,42.308622,0 -75.36707800000001,42.310147,0 -75.365425,42.3106,0 -75.363219,42.311007,0 -75.361401,42.311351,0 -75.36072,42.311394,0 -75.356725,42.311536,0 -75.353115,42.311407,0 -75.35295600000001,42.3114,0 -75.348117,42.310693,0 -75.34531200000001,42.310122,0 -75.3437648,42.3099002,0 -75.343345,42.309846,0 -75.3426553,42.309774,0 -75.34154700000001,42.3096753,0 -75.34083990000001,42.309633,0 -75.3401598,42.3096009,0 -75.3393705,42.3095803,0 -75.33877750000001,42.3095755,0 -75.3383382,42.3095767,0 -75.33701569999999,42.3096181,0 -75.33664229999999,42.3096371,0 -75.3362699,42.309661,0 -75.3354995,42.3097198,0 -75.33506269999999,42.3097623,0 -75.334653,42.3098052,0 -75.3338054,42.3099057,0 -75.3333358,42.3099784,0 -75.3327663,42.310066,0 -75.33230810000001,42.3101418,0 -75.33189,42.310219,0 -75.3314603,42.3103018,0 -75.33093239999999,42.3104127,0 -75.33034739999999,42.3105454,0 -75.3297182,42.3106961,0 -75.3291882,42.3108312,0 -75.3285164,42.3110161,0 -75.32784340000001,42.3112158,0 -75.3270685,42.3114691,0 -75.32669850000001,42.3115946,0 -75.3263273,42.3117251,0 -75.3259051,42.3118854,0 -75.3254847,42.3120515,0 -75.3250766,42.3122146,0 -75.32467010000001,42.3123855,0 -75.3238503,42.3127525,0 -75.32302850000001,42.3131456,0 -75.32265700000001,42.3133337,0 -75.3222079,42.3135691,0 -75.3217573,42.3138184,0 -75.3207665,42.3143879,0 -75.31958969999999,42.3151554,0 -75.3189869,42.3155855,0 -75.3184662,42.3159744,0 -75.31650999999999,42.3175196,0 -75.3156869,42.318157,0 -75.3153401,42.3184122,0 -75.31498120000001,42.3186652,0 -75.3146093,42.3189057,0 -75.3142299,42.3191426,0 -75.3139669,42.3193095,0 -75.3136148,42.319515,0 -75.31315069999999,42.3197658,0 -75.3128502,42.3199201,0 -75.31241180000001,42.3201342,0 -75.3118961,42.3203727,0 -75.3114806,42.3205488,0 -75.3112568,42.3206413,0 -75.31087840000001,42.3207899,0 -75.3103539,42.3209831,0 -75.309805,42.3211698,0 -75.30935700000001,42.321307,0 -75.3090631,42.3213964,0 -75.30878,42.3214728,0 -75.3083568,42.3215832,0 -75.306999,42.3218974,0 -75.305644,42.322203,0 -75.2996285,42.3235727,0 -75.2983907,42.3238894,0 -75.29707550000001,42.3242516,0 -75.2964996,42.324414,0 -75.29496640000001,42.3248846,0 -75.29399979999999,42.325212,0 -75.2935119,42.325379,0 -75.2930267,42.3255568,0 -75.2920609,42.3259117,0 -75.2910473,42.3263079,0 -75.2904279,42.3265596,0 -75.289806,42.3268212,0 -75.28856209999999,42.3273582,0 -75.2879666,42.3276273,0 -75.28737270000001,42.3279091,0 -75.28617629999999,42.3284921,0 -75.2854952,42.3288467,0 -75.285026,42.3290966,0 -75.2845068,42.3293824,0 -75.28382670000001,42.3297647,0 -75.28356549999999,42.3299133,0 -75.2828219,42.3303533,0 -75.2820797,42.3308099,0 -75.2814346,42.3312199,0 -75.2807865,42.3316436,0 -75.27948259999999,42.3325268,0 -75.27901869999999,42.332859,0 -75.27856509999999,42.3331959,0 -75.2774428,42.3340857,0 -75.276302,42.3350171,0 -75.2752237,42.3359615,0 -75.274197,42.3369163,0 -75.273476,42.3376068,0 -75.2728007,42.3383223,0 -75.2725368,42.3386013,0 -75.2719843,42.3392094,0 -75.2714434,42.3398186,0 -75.270938,42.3404169,0 -75.2705835,42.3408296,0 -75.2698942,42.3416553,0 -75.2695265,42.3420891,0 -75.26750180000001,42.344462,0 -75.26545659999999,42.3468736,0 -75.2640798,42.348495,0 -75.2623905,42.3504871,0 -75.2607592,42.352405,0 -75.26051080000001,42.3526959,0 -75.2595269,42.3538584,0 -75.25845289999999,42.3551199,0 -75.2580643,42.3555788,0 -75.2576706,42.3560426,0 -75.2574089,42.3563436,0 -75.2571348,42.3566423,0 -75.2566614,42.3571191,0 -75.25647720000001,42.3572929,0 -75.2561749,42.357565,0 -75.2560038,42.357708,0 -75.2557073,42.3579548,0 -75.2553995,42.3581936,0 -75.255089,42.358425,0 -75.254767,42.3586498,0 -75.2545875,42.3587718,0 -75.2542026,42.3590191,0 -75.25398559999999,42.3591511,0 -75.2536899,42.3593271,0 -75.2532879,42.3595523,0 -75.2528088,42.3598042,0 -75.25243260000001,42.359988,0 -75.2519854,42.3601949,0 -75.2515418,42.3603864,0 -75.2510288,42.3605905,0 -75.250501,42.3607842,0 -75.2499638,42.3609629,0 -75.2494188,42.3611294,0 -75.24878649999999,42.3613018,0 -75.2482229,42.3614371,0 -75.2478796,42.3615124,0 -75.24717149999999,42.3616487,0 -75.24672150000001,42.3617219,0 -75.2461483,42.3618025,0 -75.2458647,42.3618372,0 -75.2454314,42.3618831,0 -75.24498989999999,42.3619213,0 -75.2444921,42.3619535,0 -75.243934,42.3619756,0 -75.2433437,42.361985,0 -75.2427771,42.3619787,0 -75.24219909999999,42.3619679,0 -75.2291242,42.3616883,0 -75.226935,42.361652,0 -75.2249082,42.3617416,0 -75.2230034,42.3619016,0 -75.2212292,42.3621405,0 -75.2193833,42.3624292,0 -75.21776680000001,42.3627235,0 -75.2145464,42.3635943,0 -75.2105406,42.365065,0 -75.2077764,42.3664337,0 -75.2051778,42.3680072,0 -75.1988582,42.3723915,0 -75.195538,42.374767,0 -75.193409,42.3762,0 -75.191647,42.377467,0 -75.19054300000001,42.37825,0 -75.188329,42.379794,0 -75.187624,42.380288,0 -75.187417,42.380433,0 -75.185374,42.381866,0 -75.184139,42.3827,0 -75.183408,42.383159,0 -75.182776,42.383535,0 -75.18200299999999,42.383979,0 -75.18112600000001,42.384449,0 -75.179958,42.385021,0 -75.178747,42.385599,0 -75.177464,42.386145,0 -75.17653199999999,42.386515,0 -75.175633,42.386871,0 -75.174567,42.387255,0 -75.173395,42.387669,0 -75.172483,42.38798,0 -75.169875,42.388772,0 -75.16882320000001,42.3890646,0 -75.167951,42.389275,0 -75.16706600000001,42.389487,0 -75.165336,42.389877,0 -75.164618,42.39003,0 -75.163831,42.390178,0 -75.162572,42.390408,0 -75.16156700000001,42.390572,0 -75.160751,42.390695,0 -75.159021,42.390929,0 -75.15351699999999,42.391578,0 -75.148574,42.392181,0 -75.147048,42.392374,0 -75.146676,42.392413,0 -75.14618299999999,42.392476,0 -75.145641,42.392572,0 -75.144677,42.392765,0 -75.144147,42.392893,0 -75.14375200000001,42.393002,0 -75.143253,42.393152,0 -75.14276599999999,42.39333,0 -75.142291,42.393516,0 -75.141896,42.393676,0 -75.14138459999999,42.3939109,0 -75.14080300000001,42.394188,0 -75.140276,42.394476,0 -75.139737,42.394803,0 -75.139284,42.395105,0 -75.13857299999999,42.395634,0 -75.137989,42.39612,0 -75.137485,42.396612,0 -75.13716599999999,42.396946,0 -75.136893,42.39727,0 -75.13658599999999,42.397649,0 -75.136329,42.398017,0 -75.13610199999999,42.398364,0 -75.135858,42.398789,0 -75.13561,42.399236,0 -75.135457,42.399554,0 -75.13528700000001,42.399993,0 -75.135109,42.400493,0 -75.13499400000001,42.400956,0 -75.13489199999999,42.401489,0 -75.13480800000001,42.402348,0 -75.134776,42.402886,0 -75.134815,42.403505,0 -75.134934,42.404321,0 -75.13499400000001,42.404605,0 -75.13512799999999,42.405119,0 -75.13526899999999,42.405525,0 -75.13616399999999,42.407724,0 -75.13721,42.41034,0 -75.137479,42.411109,0 -75.137602,42.41152,0 -75.13772899999999,42.412025,0 -75.13784099999999,42.41252,0 -75.137857,42.41262,0 -75.137968,42.413312,0 -75.13804,42.414038,0 -75.138046,42.414487,0 -75.138047,42.414534,0 -75.138047,42.414978,0 -75.137998,42.415823,0 -75.1379432,42.4162587,0 -75.1377274,42.4173831,0 -75.137467,42.418359,0 -75.13731900000001,42.418792,0 -75.136911,42.419749,0 -75.136539,42.420482,0 -75.13643500000001,42.420676,0 -75.135997,42.421433,0 -75.135481,42.422184,0 -75.135212,42.422529,0 -75.134682,42.423166,0 -75.134406,42.423458,0 -75.134024,42.423833,0 -75.13336,42.424413,0 -75.132667,42.424971,0 -75.132278,42.425248,0 -75.1315,42.425759,0 -75.131111,42.425994,0 -75.130554,42.426298,0 -75.130381,42.426392,0 -75.13023579999999,42.4264711,0 -75.12999499999999,42.426589,0 -75.129586,42.426783,0 -75.128838,42.427101,0 -75.12827799999999,42.427305,0 -75.127987,42.427404,0 -75.127194,42.427648,0 -75.12654499999999,42.427833,0 -75.125761,42.428038,0 -75.12527300000001,42.428141,0 -75.12286400000001,42.428584,0 -75.1212326,42.4288802,0 -75.12061540000001,42.4289871,0 -75.1195057,42.4291884,0 -75.119015,42.429292,0 -75.117124,42.429634,0 -75.11651500000001,42.429759,0 -75.11588,42.429912,0 -75.114969,42.430172,0 -75.114589,42.430303,0 -75.11372299999999,42.430632,0 -75.113361,42.430782,0 -75.112933,42.43098,0 -75.112258,42.431312,0 -75.111228,42.431923,0 -75.110778,42.43223,0 -75.11044099999999,42.432489,0 -75.10959699999999,42.433185,0 -75.108834,42.433947,0 -75.108622,42.434195,0 -75.10741400000001,42.435696,0 -75.107274,42.43587,0 -75.106064,42.437358,0 -75.10573599999999,42.43774,0 -75.104974,42.43869,0 -75.104629,42.439095,0 -75.10389600000001,42.439994,0 -75.103511,42.440465,0 -75.10323099999999,42.440795,0 -75.102633,42.441475,0 -75.102422,42.441685,0 -75.102312,42.441795,0 -75.10186899999999,42.442152,0 -75.10153699999999,42.442386,0 -75.101399,42.442472,0 -75.10096799999999,42.442727,0 -75.100931,42.442745,0 -75.100482,42.442965,0 -75.100076,42.44313,0 -75.099712,42.443247,0 -75.09935900000001,42.443342,0 -75.09904040000001,42.443434,0 -75.0988771,42.4434696,0 -75.0985596,42.4435317,0 -75.09825360000001,42.4435801,0 -75.09791180000001,42.443623,0 -75.09772959999999,42.4436412,0 -75.0974981,42.4436583,0 -75.09710800000001,42.443673,0 -75.09682309999999,42.4436718,0 -75.096531,42.443664,0 -75.0962396,42.4436479,0 -75.09595400000001,42.443621,0 -75.0955306,42.4435768,0 -75.09505470000001,42.4435185,0 -75.08670600000001,42.442498,0 -75.08226860000001,42.4419537,0 -75.0808799,42.441782,0 -75.076076,42.441198,0 -75.07581829999999,42.4411741,0 -75.0755995,42.4411554,0 -75.07537960000001,42.4411402,0 -75.07503800000001,42.4411279,0 -75.0747288,42.4411259,0 -75.07433330000001,42.4411363,0 -75.0739368,42.4411664,0 -75.07376790000001,42.4411801,0 -75.073598,42.4412005,0 -75.073328,42.4412369,0 -75.073058,42.4412805,0 -75.0728604,42.4413158,0 -75.0726614,42.4413582,0 -75.0724791,42.4413997,0 -75.07229649999999,42.4414463,0 -75.07201980000001,42.4415216,0 -75.07174120000001,42.4416068,0 -75.07140939999999,42.4417193,0 -75.0711491,42.4418183,0 -75.07091699999999,42.441914,0 -75.070458,42.44212,0 -75.06998299999999,42.442387,0 -75.069495,42.442704,0 -75.0682182,42.4435961,0 -75.0677111,42.4439526,0 -75.0671632,42.4443328,0 -75.0668055,42.4445725,0 -75.06620100000001,42.444944,0 -75.06589580000001,42.4451247,0 -75.065713,42.4452291,0 -75.0655295,42.4453327,0 -75.0651084,42.4455575,0 -75.06476670000001,42.4457311,0 -75.0644317,42.4458961,0 -75.06406490000001,42.4460696,0 -75.0637012,42.4462327,0 -75.0632415,42.4464314,0 -75.06272300000001,42.446637,0 -75.06255090000001,42.4467036,0 -75.0623081,42.4467934,0 -75.0619435,42.4469252,0 -75.0616301,42.4470353,0 -75.06131070000001,42.4471434,0 -75.0610389,42.4472302,0 -75.0607565,42.4473165,0 -75.0604055,42.447418,0 -75.0599813,42.4475333,0 -75.05856319999999,42.4478967,0 -75.057484,42.448187,0 -75.057188,42.44828,0 -75.056805,42.448411,0 -75.056393,42.448563,0 -75.05409210000001,42.4495582,0 -75.053862,42.4496559,0 -75.0536286,42.4497534,0 -75.0534402,42.4498286,0 -75.053248,42.449902,0 -75.05302469999999,42.4499872,0 -75.0527937,42.4500702,0 -75.05251149999999,42.4501639,0 -75.0522284,42.4502538,0 -75.0520404,42.4503105,0 -75.05185059999999,42.4503661,0 -75.05167040000001,42.4504173,0 -75.051489,42.450468,0 -75.050937,42.450605,0 -75.050629,42.450671,0 -75.050078,42.450781,0 -75.049544,42.450873,0 -75.049064,42.450939,0 -75.0464697,42.4512719,0 -75.04639,42.4512805,0 -75.04617,42.4513101,0 -75.0452818,42.451429,0 -75.0414,42.451923,0 -75.036975,42.452493,0 -75.035093,42.452726,0 -75.034553,42.4528,0 -75.034055,42.452881,0 -75.033556,42.452977,0 -75.033254,42.453046,0 -75.032787,42.453171,0 -75.03235599999999,42.4533,0 -75.031676,42.453549,0 -75.03025,42.454116,0 -75.029673,42.454347,0 -75.029544,42.454397,0 -75.02933299999999,42.454478,0 -75.029,42.454612,0 -75.028054,42.455,0 -75.027345,42.455252,0 -75.02681699999999,42.45543,0 -75.026231,42.455592,0 -75.025706,42.455726,0 -75.025128,42.455842,0 -75.02465100000001,42.455927,0 -75.024092,42.456016,0 -75.023386,42.456105,0 -75.02033,42.456353,0 -75.019858,42.456399,0 -75.019237,42.456474,0 -75.018852,42.456531,0 -75.018379,42.456617,0 -75.01787299999999,42.456729,0 -75.01723,42.456905,0 -75.016749,42.457058,0 -75.01613399999999,42.457294,0 -75.01573500000001,42.457468,0 -75.01524000000001,42.457699,0 -75.015,42.457827,0 -75.01467100000001,42.458012,0 -75.013932,42.458484,0 -75.012629,42.459387,0 -75.011599,42.460117,0 -75.010206,42.46109,0 -75.009776,42.461386,0 -75.0089,42.462017,0 -75.007673,42.462951,0 -75.00676199999999,42.463681,0 -75.00610399999999,42.464257,0 -75.005032,42.465243,0 -75.00382,42.466344,0 -75.001293,42.468603,0 -74.99945,42.470288,0 -74.997534,42.472024,0 -74.997041,42.472461,0 -74.996109,42.473306,0 -74.995588,42.473746,0 -74.99535,42.473923,0 -74.995087,42.474127,0 -74.994719,42.474365,0 -74.994384,42.474554,0 -74.994231,42.474659,0 -74.993993,42.474789,0 -74.9932616,42.4751863,0 -74.993043,42.475276,0 -74.9929199,42.4753264,0 -74.992777,42.475374,0 -74.992327,42.475548,0 -74.991998,42.47567,0 -74.991623,42.475789,0 -74.991028,42.475967,0 -74.990489,42.476122,0 -74.98971830000001,42.4763504,0 -74.98841849999999,42.4766871,0 -74.98721,42.476992,0 -74.98557700000001,42.477451,0 -74.98418700000001,42.477817,0 -74.98232899999999,42.478333,0 -74.980417,42.478851,0 -74.975632,42.480135,0 -74.97313800000001,42.480808,0 -74.97290099999999,42.48089,0 -74.972256,42.481063,0 -74.971238,42.481357,0 -74.970473,42.481559,0 -74.96977200000001,42.481754,0 -74.96952899999999,42.481822,0 -74.969116,42.481926,0 -74.969099,42.48193,0 -74.96874339999999,42.4820339,0 -74.967755,42.482286,0 -74.966339,42.482665,0 -74.96413800000001,42.483254,0 -74.961763,42.483868,0 -74.960666,42.484164,0 -74.958652,42.484722,0 -74.95852499999999,42.484755,0 -74.956973,42.485153,0 -74.9559,42.485386,0 -74.955352,42.485498,0 -74.954784,42.485592,0 -74.954453,42.485637,0 -74.953384,42.485767,0 -74.952949,42.485808,0 -74.949151,42.486122,0 -74.948483,42.48617,0 -74.947186,42.486309,0 -74.94580499999999,42.486471,0 -74.945291,42.486543,0 -74.942924,42.486937,0 -74.94216900000001,42.487076,0 -74.940809,42.48736,0 -74.940023,42.487542,0 -74.938168,42.487991,0 -74.93740200000001,42.488203,0 -74.936331,42.48852,0 -74.935119,42.488897,0 -74.933914,42.489312,0 -74.933392,42.489497,0 -74.932626,42.489777,0 -74.932305,42.489906,0 -74.93113700000001,42.490363,0 -74.929671,42.490986,0 -74.928569,42.491493,0 -74.92714599999999,42.492228,0 -74.92607700000001,42.492798,0 -74.925365,42.493215,0 -74.924702,42.493595,0 -74.923609,42.494265,0 -74.92178,42.495459,0 -74.921229,42.495849,0 -74.92115200000001,42.495906,0 -74.920385,42.496477,0 -74.920041,42.496746,0 -74.918825,42.497743,0 -74.91733000000001,42.499067,0 -74.916399,42.499925,0 -74.915198,42.501165,0 -74.914339,42.502106,0 -74.913938,42.50258,0 -74.91320899999999,42.503519,0 -74.912772,42.504094,0 -74.912409,42.504624,0 -74.912002,42.505205,0 -74.911467,42.506013,0 -74.911092,42.50661,0 -74.91086900000001,42.506941,0 -74.910623,42.507341,0 -74.909429,42.509238,0 -74.90839699999999,42.510867,0 -74.90718099999999,42.512726,0 -74.90648299999999,42.513675,0 -74.90567900000001,42.514666,0 -74.90482900000001,42.515666,0 -74.904037,42.516549,0 -74.903218,42.517382,0 -74.90221200000001,42.518337,0 -74.90154099999999,42.51894,0 -74.90115900000001,42.519268,0 -74.89999,42.520188,0 -74.89840700000001,42.521383,0 -74.897463,42.522039,0 -74.895943,42.523004,0 -74.895436,42.523332,0 -74.89472600000001,42.523752,0 -74.894071,42.52412,0 -74.89320600000001,42.524591,0 -74.89227,42.525068,0 -74.891334,42.525522,0 -74.89041400000001,42.525936,0 -74.889504,42.526333,0 -74.888362,42.526806,0 -74.887179,42.527252,0 -74.886472,42.527506,0 -74.885807,42.527741,0 -74.883945,42.528345,0 -74.882581,42.528735,0 -74.88117699999999,42.529102,0 -74.880303,42.529299,0 -74.879718,42.529422,0 -74.877709,42.529826,0 -74.87651,42.53006,0 -74.875041,42.530335,0 -74.87416399999999,42.530523,0 -74.874003,42.530553,0 -74.87205299999999,42.530916,0 -74.866193,42.532031,0 -74.86499000000001,42.532275,0 -74.861868,42.532868,0 -74.859649,42.533284,0 -74.856666,42.533863,0 -74.855293,42.53412,0 -74.8473039,42.5356413,0 -74.84669510000001,42.5357561,0 -74.844786,42.536108,0 -74.84420799999999,42.536224,0 -74.842904,42.536473,0 -74.84123,42.536784,0 -74.83945799999999,42.537129,0 -74.83861400000001,42.537285,0 -74.838472,42.537314,0 -74.83837800000001,42.537334,0 -74.835311,42.537923,0 -74.82949000000001,42.539031,0 -74.82819499999999,42.539306,0 -74.826826,42.539656,0 -74.826171,42.539827,0 -74.825557,42.540008,0 -74.82532,42.540072,0 -74.825113,42.540134,0 -74.82382699999999,42.54052,0 -74.8224896,42.5410228,0 -74.82160450000001,42.5413431,0 -74.82109320000001,42.5415373,0 -74.82069250000001,42.5416965,0 -74.8204096,42.5418132,0 -74.81959620000001,42.5421384,0 -74.8192078,42.5423021,0 -74.8188281,42.5424694,0 -74.8183282,42.5427021,0 -74.81782990000001,42.5429399,0 -74.8173008,42.5431959,0 -74.8167151,42.5434837,0 -74.81511,42.5442543,0 -74.8143334,42.5446246,0 -74.81387839999999,42.5448463,0 -74.813597,42.544973,0 -74.812862,42.545331,0 -74.8102634,42.5465992,0 -74.80709899999999,42.548141,0 -74.8066987,42.5483357,0 -74.805753,42.5487738,0 -74.8053616,42.5489551,0 -74.8045011,42.5493417,0 -74.8040926,42.5495208,0 -74.80360640000001,42.5497299,0 -74.80294379999999,42.5500166,0 -74.802482,42.5502148,0 -74.8009419,42.5508626,0 -74.8002857,42.5511298,0 -74.7996064,42.5514044,0 -74.798957,42.551667,0 -74.797876,42.552078,0 -74.796621,42.5525503,0 -74.79613620000001,42.5527291,0 -74.79454490000001,42.5533008,0 -74.79348349999999,42.5536682,0 -74.7923916,42.5540505,0 -74.79005479999999,42.5548627,0 -74.78947909999999,42.5550653,0 -74.7890981,42.5552018,0 -74.7887298,42.5553345,0 -74.7880569,42.5555874,0 -74.7875203,42.5558003,0 -74.78702509999999,42.5560029,0 -74.7859225,42.5564712,0 -74.7855084,42.5566542,0 -74.7848884,42.5569368,0 -74.78377450000001,42.5574685,0 -74.7834151,42.5576443,0 -74.7830385,42.5578365,0 -74.7824574,42.558139,0 -74.78199119999999,42.5583901,0 -74.78143009999999,42.5586981,0 -74.7809372,42.5589803,0 -74.7804072,42.5592883,0 -74.7801218,42.5594591,0 -74.77977420000001,42.5596715,0 -74.7794377,42.5598775,0 -74.7791034,42.5600877,0 -74.7785756,42.560424,0 -74.77823720000001,42.5606472,0 -74.7774162,42.5612229,0 -74.7769322,42.5615696,0 -74.77652860000001,42.5618652,0 -74.7760105,42.5622599,0 -74.77567879999999,42.562515,0 -74.77509670000001,42.5629841,0 -74.7747262,42.5632922,0 -74.77445729999999,42.5635246,0 -74.7741528,42.5637917,0 -74.77388329999999,42.5640389,0 -74.77361569999999,42.5642862,0 -74.7732785,42.564605,0 -74.7729896,42.5648906,0 -74.7726357,42.5652471,0 -74.7722694,42.5656322,0 -74.7718655,42.566075,0 -74.7714708,42.5665081,0 -74.7712131,42.5667848,0 -74.7709626,42.5670802,0 -74.77033659999999,42.5678706,0 -74.77028350000001,42.567941,0 -74.7700363,42.5682872,0 -74.7698391,42.5685649,0 -74.7697445,42.5687014,0 -74.7695916,42.5689261,0 -74.76918809999999,42.569584,0 -74.7688105,42.5702541,0 -74.7684426,42.5709015,0 -74.768103,42.5715562,0 -74.7672257,42.5734044,0 -74.7670244,42.5738293,0 -74.76678,42.574358,0 -74.76564190000001,42.5767935,0 -74.76544389999999,42.5772219,0 -74.7652014,42.5777141,0 -74.7651106,42.5779006,0 -74.765016,42.5780952,0 -74.7648289,42.5784388,0 -74.76463099999999,42.578777,0 -74.7644866,42.5790126,0 -74.76430670000001,42.5793052,0 -74.76415969999999,42.579515,0 -74.764015,42.5797177,0 -74.7638962,42.5798708,0 -74.7636024,42.5802412,0 -74.7634264,42.5804534,0 -74.7632026,42.5807117,0 -74.76304589999999,42.5808729,0 -74.76276,42.5811498,0 -74.76254830000001,42.5813498,0 -74.76221510000001,42.581632,0 -74.7619424,42.5818619,0 -74.7615796,42.5821579,0 -74.7612946,42.582378,0 -74.7609389,42.5826407,0 -74.7606633,42.5828324,0 -74.760243,42.583117,0 -74.759839,42.583358,0 -74.75942740000001,42.583586,0 -74.75914710000001,42.5837339,0 -74.7586984,42.5839619,0 -74.7583108,42.5841485,0 -74.7577411,42.5844149,0 -74.7574305,42.584555,0 -74.7571176,42.5846829,0 -74.756547,42.584895,0 -74.7561317,42.5850387,0 -74.755726,42.5851683,0 -74.75536409999999,42.5852783,0 -74.75493899999999,42.585393,0 -74.7544876,42.5855107,0 -74.754127,42.585594,0 -74.7537552,42.5856791,0 -74.75345489999999,42.5857415,0 -74.75289739999999,42.5858459,0 -74.75237389999999,42.5859261,0 -74.7519329,42.5859828,0 -74.7513302,42.5860459,0 -74.75034429999999,42.586133,0 -74.7497592,42.5861924,0 -74.746472,42.586521,0 -74.7422529,42.5869427,0 -74.7419836,42.5869727,0 -74.7417063,42.5870061,0 -74.74130460000001,42.5870624,0 -74.7409176,42.5871259,0 -74.74061279999999,42.5871814,0 -74.7402276,42.5872589,0 -74.7399485,42.5873222,0 -74.73967020000001,42.5873871,0 -74.7394286,42.5874473,0 -74.7391909,42.587512,0 -74.7387935,42.5876234,0 -74.7384058,42.5877445,0 -74.73813749999999,42.5878335,0 -74.737864,42.5879284,0 -74.73744499999999,42.588087,0 -74.7371966,42.5881873,0 -74.7369521,42.5882907,0 -74.735133,42.589117,0 -74.73466139999999,42.5893236,0 -74.732218,42.590411,0 -74.731269,42.590827,0 -74.7274125,42.5925516,0 -74.7266886,42.5928714,0 -74.7262782,42.593048,0 -74.72597879999999,42.5931731,0 -74.7256754,42.5932886,0 -74.7254275,42.5933741,0 -74.725179,42.593454,0 -74.724952,42.5935262,0 -74.724709,42.5935952,0 -74.7242851,42.5937059,0 -74.7240637,42.5937564,0 -74.7238421,42.593802,0 -74.7236238,42.5938452,0 -74.7233978,42.5938862,0 -74.72317630000001,42.5939229,0 -74.7229032,42.5939636,0 -74.7226017,42.5940006,0 -74.722329,42.5940302,0 -74.7220617,42.5940524,0 -74.7217686,42.5940706,0 -74.7214805,42.594082,0 -74.7211803,42.5940889,0 -74.7208674,42.5940905,0 -74.7204062,42.5940852,0 -74.720118,42.5940838,0 -74.7198135,42.594077,0 -74.7189317,42.5940666,0 -74.71752859999999,42.5940438,0 -74.7163168,42.5940254,0 -74.71531899999999,42.594006,0 -74.7125858,42.5939705,0 -74.711501,42.5939619,0 -74.7104595,42.5939471,0 -74.70997800000001,42.5939491,0 -74.7095996,42.5939611,0 -74.709126,42.593987,0 -74.70867,42.594033,0 -74.7082059,42.5940929,0 -74.7079403,42.594135,0 -74.70767480000001,42.5941812,0 -74.7071802,42.5942801,0 -74.7067121,42.5943932,0 -74.70633309999999,42.594496,0 -74.7061039,42.5945656,0 -74.7058675,42.5946421,0 -74.705349,42.594825,0 -74.70509730000001,42.594925,0 -74.7048434,42.595034,0 -74.70455889999999,42.5951601,0 -74.7042837,42.5952909,0 -74.7040264,42.5954264,0 -74.7037708,42.5955654,0 -74.7034487,42.5957547,0 -74.70327930000001,42.5958616,0 -74.7031104,42.5959692,0 -74.7029167,42.5961019,0 -74.7027276,42.5962366,0 -74.7024242,42.5964694,0 -74.7021258,42.5967076,0 -74.7018656,42.5969296,0 -74.7016242,42.5971602,0 -74.7014494,42.5973314,0 -74.7012843,42.5975081,0 -74.701154,42.5976606,0 -74.700919,42.597956,0 -74.7007787,42.5981449,0 -74.7006447,42.5983399,0 -74.70045279999999,42.5986446,0 -74.70027380000001,42.5989521,0 -74.69953,42.600337,0 -74.69861899999999,42.601961,0 -74.69832,42.602412,0 -74.698055,42.602735,0 -74.697772,42.603057,0 -74.697487,42.603343,0 -74.69694200000001,42.603823,0 -74.696775,42.603947,0 -74.696568,42.604103,0 -74.696307,42.604278,0 -74.69598860000001,42.6044812,0 -74.6958266,42.6045774,0 -74.69545530000001,42.6047832,0 -74.695145,42.6049436,0 -74.6948749,42.6050714,0 -74.6946229,42.6051768,0 -74.6943514,42.6052851,0 -74.69407820000001,42.6053849,0 -74.69382229999999,42.6054697,0 -74.69355729999999,42.6055511,0 -74.69338329999999,42.605603,0 -74.6930258,42.6056972,0 -74.6925681,42.6058069,0 -74.6921258,42.6059066,0 -74.6911626,42.6061208,0 -74.689684,42.606429,0 -74.6887866,42.6066336,0 -74.68833290000001,42.6067422,0 -74.68811460000001,42.6067966,0 -74.6878931,42.6068542,0 -74.6874863,42.6069677,0 -74.687059,42.6071071,0 -74.68670590000001,42.6072317,0 -74.6864523,42.6073238,0 -74.6861608,42.6074274,0 -74.68587290000001,42.6075406,0 -74.6855996,42.6076557,0 -74.68515600000001,42.6078502,0 -74.6846776,42.6080836,0 -74.684462,42.6082029,0 -74.6841502,42.608369,0 -74.6839245,42.6084965,0 -74.6837379,42.6086075,0 -74.6833769,42.6088337,0 -74.68292769999999,42.6091347,0 -74.6826338,42.6093436,0 -74.6819969,42.6097967,0 -74.68174209999999,42.6099999,0 -74.6814158,42.6102441,0 -74.6809476,42.6105739,0 -74.6801699,42.6111143,0 -74.6796648,42.6114662,0 -74.67915739999999,42.6118182,0 -74.6785149,42.6122459,0 -74.67771930000001,42.6127681,0 -74.6772053,42.6130888,0 -74.67677279999999,42.6133544,0 -74.6760867,42.6137508,0 -74.6754956,42.6140847,0 -74.67510780000001,42.6143035,0 -74.67433680000001,42.6147155,0 -74.6733758,42.6152171,0 -74.6725108,42.6156825,0 -74.6716672,42.6161217,0 -74.6707598,42.6166093,0 -74.6704179,42.6168059,0 -74.6700635,42.6170164,0 -74.6696523,42.6172718,0 -74.669314,42.6174868,0 -74.668981,42.6177154,0 -74.66870160000001,42.6179095,0 -74.6678012,42.6185596,0 -74.6675113,42.6187864,0 -74.66672509999999,42.619426,0 -74.6665433,42.619579,0 -74.6662549,42.6198371,0 -74.66568100000001,42.6203675,0 -74.66545499999999,42.6205833,0 -74.6651571,42.6208809,0 -74.6649651,42.6210746,0 -74.6647399,42.6213135,0 -74.6645827,42.6214885,0 -74.6642753,42.6218333,0 -74.66409040000001,42.6220473,0 -74.6637135,42.6225101,0 -74.6633587,42.6229636,0 -74.6629786,42.6234828,0 -74.662801,42.6237373,0 -74.6626211,42.6240047,0 -74.6624365,42.6242797,0 -74.6621809,42.6247018,0 -74.6619366,42.6251276,0 -74.66181949999999,42.6253403,0 -74.6617043,42.6255543,0 -74.66152599999999,42.6258979,0 -74.6613486,42.6262632,0 -74.6609215,42.6272297,0 -74.66032989999999,42.6285622,0 -74.6601768,42.6289129,0 -74.65993109999999,42.6294693,0 -74.6598632,42.6296322,0 -74.6597613,42.6298546,0 -74.65962089999999,42.6301446,0 -74.65951250000001,42.6303533,0 -74.6593913,42.6305746,0 -74.6592837,42.6307586,0 -74.65909480000001,42.6310607,0 -74.658968,42.6312516,0 -74.6588311,42.6314446,0 -74.65869000000001,42.6316328,0 -74.6585603,42.631797,0 -74.6584491,42.6319349,0 -74.6582324,42.6321913,0 -74.65805279999999,42.6323958,0 -74.65513420000001,42.6356162,0 -74.65446470000001,42.6363561,0 -74.65372429999999,42.637177,0 -74.6509501,42.6402187,0 -74.6507841,42.6403996,0 -74.65037890000001,42.6408175,0 -74.6501111,42.6410845,0 -74.6499086,42.6412847,0 -74.6496095,42.6415748,0 -74.64929770000001,42.6418702,0 -74.64891160000001,42.6422255,0 -74.6485089,42.6425825,0 -74.6481715,42.6428772,0 -74.6478867,42.6431161,0 -74.64757729999999,42.6433705,0 -74.64738370000001,42.6435268,0 -74.6470204,42.6438039,0 -74.646711,42.644033,0 -74.6464627,42.644211,0 -74.6463021,42.6443261,0 -74.646086,42.6444763,0 -74.6458356,42.644645,0 -74.6455907,42.644808,0 -74.6451481,42.6450939,0 -74.6445841,42.6454412,0 -74.6440145,42.6457693,0 -74.64346380000001,42.6460768,0 -74.6429826,42.6463281,0 -74.64233520000001,42.6466501,0 -74.6419472,42.6468312,0 -74.64166520000001,42.6469617,0 -74.6413173,42.6471165,0 -74.6409343,42.6472806,0 -74.64057579999999,42.6474308,0 -74.640176,42.6475871,0 -74.6397144,42.6477651,0 -74.6391897,42.6479622,0 -74.6385492,42.6481887,0 -74.63818379999999,42.648312,0 -74.637485,42.648531,0 -74.6369358,42.6486928,0 -74.63631150000001,42.6488625,0 -74.63583029999999,42.6489874,0 -74.6353694,42.6491014,0 -74.6348251,42.6492237,0 -74.6342765,42.6493341,0 -74.6337272,42.6494384,0 -74.6332601,42.6495132,0 -74.6327879,42.6495787,0 -74.63239230000001,42.6496282,0 -74.6318129,42.6496927,0 -74.6313724,42.649734,0 -74.63093600000001,42.6497711,0 -74.6305172,42.649798,0 -74.6299946,42.6498233,0 -74.6295373,42.6498356,0 -74.6290778,42.6498429,0 -74.62864570000001,42.6498403,0 -74.62800799999999,42.6498279,0 -74.6273592,42.6497975,0 -74.62672360000001,42.6497541,0 -74.6263027,42.6497185,0 -74.6257373,42.6496602,0 -74.62512,42.6495859,0 -74.6245315,42.6495044,0 -74.623992,42.6494291,0 -74.62330300000001,42.6493241,0 -74.622086,42.6491421,0 -74.6202799,42.6488715,0 -74.6195623,42.6487647,0 -74.61907189999999,42.6486971,0 -74.61863289999999,42.6486422,0 -74.6181698,42.6485975,0 -74.6177328,42.6485583,0 -74.6172993,42.6485232,0 -74.61701309999999,42.6485042,0 -74.6167276,42.6484897,0 -74.6160198,42.6484634,0 -74.61556590000001,42.6484562,0 -74.615279,42.6484562,0 -74.6149774,42.6484585,0 -74.6146859,42.6484641,0 -74.61439439999999,42.6484722,0 -74.61397169999999,42.6484919,0 -74.6130174,42.6485469,0 -74.6120631,42.6486067,0 -74.60958290000001,42.6487591,0 -74.60885,42.6488047,0 -74.6084175,42.6488326,0 -74.60812180000001,42.6488512,0 -74.6077715,42.6488713,0 -74.6074933,42.6488877,0 -74.6070919,42.6489078,0 -74.6066527,42.6489235,0 -74.60620659999999,42.6489317,0 -74.60562280000001,42.6489357,0 -74.6051777,42.6489292,0 -74.6048742,42.6489203,0 -74.60455159999999,42.6489078,0 -74.6041275,42.6488881,0 -74.6038473,42.6488702,0 -74.6033948,42.6488341,0 -74.6031205,42.6488104,0 -74.6026798,42.6487679,0 -74.6024005,42.6487346,0 -74.6019632,42.6486795,0 -74.6016611,42.6486362,0 -74.6012175,42.6485661,0 -74.6009377,42.6485192,0 -74.6005354,42.6484487,0 -74.60022600000001,42.6483868,0 -74.5999575,42.648331,0 -74.5996384,42.6482623,0 -74.5993806,42.6482033,0 -74.59908919999999,42.6481346,0 -74.5988182,42.6480655,0 -74.5983765,42.6479474,0 -74.59788709999999,42.6478065,0 -74.5976955,42.6477503,0 -74.5971492,42.6475801,0 -74.5966712,42.6474211,0 -74.5961976,42.6472551,0 -74.5957288,42.6470853,0 -74.5952638,42.6469137,0 -74.59343250000001,42.646222,0 -74.5893611,42.644678,0 -74.587996,42.6441574,0 -74.5827913,42.6422312,0 -74.579724,42.6410858,0 -74.5753153,42.6394208,0 -74.5738947,42.6388983,0 -74.57320989999999,42.6386465,0 -74.5727172,42.6384609,0 -74.5721944,42.6382697,0 -74.57185699999999,42.6381527,0 -74.57151349999999,42.6380383,0 -74.57110539999999,42.6379134,0 -74.5706941,42.6377953,0 -74.5705057,42.6377448,0 -74.5703166,42.6376953,0 -74.5701159,42.637648,0 -74.56991480000001,42.6376018,0 -74.5696823,42.6375492,0 -74.5694477,42.6374982,0 -74.56900210000001,42.6374066,0 -74.5686721,42.6373438,0 -74.5683356,42.6372875,0 -74.5677214,42.6371893,0 -74.5673243,42.637131,0 -74.56693009999999,42.6370868,0 -74.5661391,42.6370123,0 -74.5658914,42.6369906,0 -74.5656426,42.6369726,0 -74.56516120000001,42.6369431,0 -74.5646811,42.6369207,0 -74.56420060000001,42.6369075,0 -74.56362129999999,42.6369023,0 -74.5630613,42.6369071,0 -74.5625228,42.6369192,0 -74.5619904,42.6369465,0 -74.56140790000001,42.6369901,0 -74.56082290000001,42.6370378,0 -74.5604261,42.6370802,0 -74.56003010000001,42.6371249,0 -74.559231,42.6372291,0 -74.5588087,42.6372962,0 -74.5583863,42.6373634,0 -74.5576422,42.6374987,0 -74.55727400000001,42.6375728,0 -74.55692929999999,42.6376492,0 -74.5561706,42.6378247,0 -74.55583,42.6379099,0 -74.55549329999999,42.6379923,0 -74.55529540000001,42.6380477,0 -74.5550995,42.6381062,0 -74.5542818,42.6383604,0 -74.553422,42.638645,0 -74.55256079999999,42.6389425,0 -74.5519171,42.6391656,0 -74.5480024,42.6405214,0 -74.5451144,42.6415218,0 -74.5441835,42.641853,0 -74.5431395,42.6422044,0 -74.54250829999999,42.6424272,0 -74.54086719999999,42.6430023,0 -74.54046460000001,42.6431434,0 -74.5366458,42.6444754,0 -74.5347356,42.6451347,0 -74.5332138,42.6456667,0 -74.53229570000001,42.6459843,0 -74.527649,42.6475814,0 -74.5268531,42.6478581,0 -74.5262975,42.6480553,0 -74.52388569999999,42.6489124,0 -74.5214612,42.6497499,0 -74.51660800000001,42.6514262,0 -74.5159312,42.6516653,0 -74.5153466,42.6518828,0 -74.514762,42.6521091,0 -74.5133282,42.6526771,0 -74.5122942,42.653104,0 -74.5116579,42.6533753,0 -74.5114111,42.6534812,0 -74.51116620000001,42.6535905,0 -74.510721,42.6537862,0 -74.50997220000001,42.6541275,0 -74.5090828,42.6545433,0 -74.5078831,42.6551287,0 -74.5071121,42.6555215,0 -74.5067683,42.6556919,0 -74.5060428,42.6560718,0 -74.50556280000001,42.6563317,0 -74.5050093,42.6566354,0 -74.50449,42.6569244,0 -74.5038074,42.6573147,0 -74.5034663,42.6575134,0 -74.5029122,42.657836,0 -74.5022724,42.6582231,0 -74.50118759999999,42.6589048,0 -74.49959819999999,42.6599544,0 -74.4985999,42.6606476,0 -74.4982763,42.6608735,0 -74.4976791,42.6613108,0 -74.49604909999999,42.6625081,0 -74.49506770000001,42.6632632,0 -74.49222109999999,42.6654456,0 -74.4907322,42.6665693,0 -74.4899482,42.667105,0 -74.48955050000001,42.6673686,0 -74.4891508,42.6676268,0 -74.48846570000001,42.6680525,0 -74.48814489999999,42.6682451,0 -74.4877358,42.6684868,0 -74.48744139999999,42.6686532,0 -74.487047,42.6688747,0 -74.48666609999999,42.6690794,0 -74.4863153,42.6692661,0 -74.4859285,42.6694621,0 -74.48510020000001,42.6698661,0 -74.4846903,42.67006,0 -74.48426980000001,42.6702491,0 -74.4836079,42.6705287,0 -74.4829465,42.6707997,0 -74.4825163,42.6709656,0 -74.48226940000001,42.6710607,0 -74.48202190000001,42.6711526,0 -74.48155389999999,42.6713244,0 -74.4809813,42.671517,0 -74.48042169999999,42.671701,0 -74.4799056,42.6718642,0 -74.4793382,42.6720343,0 -74.4787907,42.6721898,0 -74.4780725,42.6723892,0 -74.477442,42.6725404,0 -74.47676679999999,42.6726958,0 -74.4762496,42.6728105,0 -74.4756738,42.6729275,0 -74.47522050000001,42.6730137,0 -74.4746322,42.6731192,0 -74.47386640000001,42.6732488,0 -74.4733373,42.6733283,0 -74.4728743,42.6733885,0 -74.4723484,42.6734588,0 -74.4720145,42.6734966,0 -74.47115049999999,42.6735884,0 -74.47060140000001,42.6736371,0 -74.469961,42.6736841,0 -74.4690729,42.6737382,0 -74.46852060000001,42.6737621,0 -74.4680797,42.6737752,0 -74.4675204,42.6737831,0 -74.46652640000001,42.673783,0 -74.46603349999999,42.6737781,0 -74.46553919999999,42.6737668,0 -74.4649651,42.6737477,0 -74.4645209,42.6737284,0 -74.4640548,42.6737054,0 -74.46346870000001,42.6736672,0 -74.4630337,42.6736339,0 -74.4625896,42.6735957,0 -74.4621602,42.6735534,0 -74.46163730000001,42.6734965,0 -74.4607518,42.6733873,0 -74.4598646,42.6732822,0 -74.4580048,42.6730587,0 -74.45654039999999,42.6728683,0 -74.4558105,42.6727864,0 -74.455067,42.6727192,0 -74.45459219999999,42.6726858,0 -74.45411319999999,42.6726586,0 -74.4527952,42.6726275,0 -74.45214369999999,42.6726289,0 -74.4514705,42.6726398,0 -74.45089249999999,42.6726629,0 -74.4502181,42.6727046,0 -74.44974139999999,42.6727416,0 -74.4492704,42.6727858,0 -74.4488502,42.6728277,0 -74.4484412,42.6728755,0 -74.4476442,42.6729878,0 -74.4470156,42.6730917,0 -74.44616739999999,42.6732475,0 -74.4440553,42.6736557,0 -74.43775100000001,42.6748782,0 -74.4347594,42.6754593,0 -74.43309910000001,42.6757803,0 -74.4254826,42.677253,0 -74.4241016,42.6775178,0 -74.42345299999999,42.6776422,0 -74.42061870000001,42.6782047,0 -74.41871949999999,42.6785673,0 -74.4178349,42.6787419,0 -74.4156323,42.6791626,0 -74.4138169,42.6795152,0 -74.41346230000001,42.6795858,0 -74.4123292,42.6798057,0 -74.4118862,42.6798876,0 -74.4115961,42.6799358,0 -74.4113108,42.6799794,0 -74.4110213,42.680017,0 -74.4107254,42.6800493,0 -74.4103451,42.6800779,0 -74.4099899,42.6800999,0 -74.4095938,42.6801103,0 -74.4092713,42.680112,0 -74.408271,42.680097,0 -74.4063992,42.6800638,0 -74.4038152,42.6799808,0 -74.40081619999999,42.6799574,0 -74.3983941,42.6799075,0 -74.3937537,42.6798249,0 -74.3893369,42.6797428,0 -74.3855633,42.6796734,0 -74.3849388,42.6796616,0 -74.3843098,42.6796577,0 -74.38368490000001,42.6796615,0 -74.3830572,42.6796748,0 -74.38251409999999,42.6796955,0 -74.38192100000001,42.6797228,0 -74.38104970000001,42.6797763,0 -74.3803162,42.6798328,0 -74.3797151,42.6798931,0 -74.3791232,42.6799564,0 -74.37844130000001,42.6800391,0 -74.3777228,42.6801388,0 -74.3770215,42.6802441,0 -74.3766253,42.6803101,0 -74.376098,42.6804033,0 -74.3757755,42.6804646,0 -74.37528349999999,42.6805627,0 -74.3747024,42.6806841,0 -74.37399790000001,42.6808417,0 -74.3733981,42.6809838,0 -74.3727629,42.6811513,0 -74.372187,42.6813109,0 -74.37168250000001,42.6814597,0 -74.37112860000001,42.6816205,0 -74.3705293,42.6818032,0 -74.3699324,42.6819988,0 -74.369445,42.6821758,0 -74.36896179999999,42.6823601,0 -74.3680391,42.682716,0 -74.36720029999999,42.6830643,0 -74.36642449999999,42.683402,0 -74.3656582,42.6837563,0 -74.36474920000001,42.6842156,0 -74.3641083,42.684551,0 -74.3634818,42.684906,0 -74.3627108,42.68536,0 -74.36195360000001,42.6858273,0 -74.3611506,42.6863541,0 -74.3560679,42.6899566,0 -74.350278,42.6940628,0 -74.345119,42.697656,0 -74.3446917,42.6979618,0 -74.3441349,42.6983507,0 -74.3435913,42.6987274,0 -74.343154,42.6990177,0 -74.3428231,42.6992332,0 -74.3422643,42.6995909,0 -74.3416976,42.6999351,0 -74.34112229999999,42.7002681,0 -74.34042150000001,42.7006516,0 -74.33980459999999,42.7009689,0 -74.339224,42.7012544,0 -74.33883230000001,42.7014398,0 -74.3380635,42.7017834,0 -74.3374532,42.7020417,0 -74.3369221,42.7022514,0 -74.3362319,42.7025072,0 -74.3355892,42.7027309,0 -74.3350496,42.702912,0 -74.334611,42.7030484,0 -74.3340694,42.7032042,0 -74.3336458,42.7033238,0 -74.3329335,42.7035168,0 -74.3322909,42.7036801,0 -74.3317662,42.7038072,0 -74.33123550000001,42.7039261,0 -74.33066909999999,42.704045,0 -74.32996369999999,42.7041806,0 -74.32669610000001,42.7047346,0 -74.3248889,42.7050304,0 -74.32339760000001,42.7052926,0 -74.3214571,42.7056226,0 -74.32110179999999,42.7056763,0 -74.3190829,42.7060036,0 -74.31780980000001,42.7062139,0 -74.3169791,42.706349,0 -74.31486200000001,42.7066962,0 -74.31351549999999,42.706908,0 -74.3120741,42.7071616,0 -74.3111681,42.7073021,0 -74.31052339999999,42.707408,0 -74.3080066,42.7078363,0 -74.30517709999999,42.7082995,0 -74.3010816,42.7089822,0 -74.30057050000001,42.7090733,0 -74.30005180000001,42.7091677,0 -74.29952350000001,42.7092764,0 -74.2990006,42.7093902,0 -74.2986555,42.7094707,0 -74.2982063,42.7095801,0 -74.2977563,42.7096995,0 -74.29730619999999,42.7098212,0 -74.2968518,42.7099529,0 -74.29530579999999,42.7104302,0 -74.2947882,42.7105909,0 -74.294281,42.7107373,0 -74.2937501,42.710882,0 -74.2932587,42.7110073,0 -74.2927579,42.7111271,0 -74.2922403,42.7112355,0 -74.2917376,42.7113273,0 -74.2911555,42.7114305,0 -74.2908621,42.7114767,0 -74.2905724,42.7115169,0 -74.29001169999999,42.7115887,0 -74.2894495,42.711652,0 -74.28888139999999,42.7116995,0 -74.2883001,42.7117384,0 -74.2878462,42.7117634,0 -74.2872855,42.7117878,0 -74.2866832,42.7118134,0 -74.2860878,42.711842,0 -74.2856748,42.7118692,0 -74.28518769999999,42.7119064,0 -74.2846993,42.7119503,0 -74.2841861,42.712002,0 -74.28364310000001,42.712064,0 -74.28333170000001,42.7121041,0 -74.28301829999999,42.712146,0 -74.28267959999999,42.7121949,0 -74.2823149,42.7122513,0 -74.2819077,42.712318,0 -74.28145979999999,42.7123972,0 -74.2810545,42.7124723,0 -74.2800421,42.7126783,0 -74.2793958,42.7128265,0 -74.2785191,42.7130507,0 -74.2778354,42.7132393,0 -74.27736280000001,42.7133717,0 -74.27686509999999,42.7135113,0 -74.2764588,42.7136252,0 -74.2755004,42.7138827,0 -74.2750602,42.7139908,0 -74.2746257,42.7140936,0 -74.2742557,42.7141767,0 -74.2738813,42.714256,0 -74.2735014,42.7143351,0 -74.272836,42.714458,0 -74.27229730000001,42.7145521,0 -74.27191310000001,42.7146139,0 -74.2710582,42.714735,0 -74.270188,42.714842,0 -74.268455,42.7150571,0 -74.266468,42.715308,0 -74.26554489999999,42.7154344,0 -74.26462600000001,42.715582,0 -74.2636607,42.7157467,0 -74.26271939999999,42.7159262,0 -74.2620893,42.716055,0 -74.26145579999999,42.7161908,0 -74.26074800000001,42.7163589,0 -74.2597533,42.7166106,0 -74.2592595,42.7167415,0 -74.258768,42.7168798,0 -74.2579365,42.7171198,0 -74.2575226,42.7172455,0 -74.25710460000001,42.7173758,0 -74.2565798,42.7175455,0 -74.2560606,42.7177196,0 -74.2549539,42.7181074,0 -74.2544041,42.7183094,0 -74.25384769999999,42.7185235,0 -74.2533074,42.7187363,0 -74.25264559999999,42.719003,0 -74.251609,42.7194195,0 -74.25008699999999,42.7200138,0 -74.24862,42.720581,0 -74.247756,42.720919,0 -74.24571899999999,42.721668,0 -74.245395,42.721787,0 -74.24368339999999,42.7224632,0 -74.2433576,42.7225618,0 -74.242948,42.7226772,0 -74.2425112,42.7227936,0 -74.2419829,42.7229242,0 -74.2415316,42.7230262,0 -74.2413529,42.7230659,0 -74.2411736,42.7231025,0 -74.2407297,42.7231898,0 -74.2403048,42.7232643,0 -74.23974920000001,42.7233529,0 -74.23925560000001,42.7234208,0 -74.238816,42.7234755,0 -74.238257,42.7235367,0 -74.23783210000001,42.7235748,0 -74.2374129,42.7236058,0 -74.2368962,42.7236344,0 -74.2363749,42.7236564,0 -74.2360596,42.723665,0 -74.2357446,42.7236699,0 -74.2341306,42.7236869,0 -74.2295046,42.7237311,0 -74.2265761,42.7237665,0 -74.22587369999999,42.7237897,0 -74.2251565,42.723823,0 -74.2244104,42.7238641,0 -74.2238871,42.7239041,0 -74.2230169,42.723975,0 -74.22241320000001,42.7240335,0 -74.2216602,42.7241146,0 -74.2209891,42.7241933,0 -74.2205211,42.7242564,0 -74.2199549,42.7243335,0 -74.21921639999999,42.7244483,0 -74.2183194,42.7245952,0 -74.2176146,42.7247218,0 -74.2171721,42.7248031,0 -74.211197,42.725975,0 -74.21026449999999,42.72614,0 -74.2097986,42.7262196,0 -74.2093259,42.7262992,0 -74.208961,42.726355,0 -74.2082223,42.7264623,0 -74.20765249999999,42.7265363,0 -74.207075,42.7266072,0 -74.2066189,42.7266597,0 -74.2056065,42.7267557,0 -74.20453259999999,42.7268551,0 -74.20368620000001,42.7269324,0 -74.2030575,42.7269909,0 -74.2023508,42.7270593,0 -74.2013008,42.7271717,0 -74.2006834,42.7272485,0 -74.1999972,42.7273379,0 -74.1995278,42.727406,0 -74.1990649,42.7274784,0 -74.1981335,42.7276334,0 -74.1975719,42.7277368,0 -74.19700570000001,42.727845,0 -74.1964416,42.7279573,0 -74.1960198,42.7280467,0 -74.1954199,42.7281803,0 -74.194249,42.728452,0 -74.19139010000001,42.7292492,0 -74.18860770000001,42.7300638,0 -74.1856009,42.7309537,0 -74.184628,42.7312426,0 -74.1841388,42.7314056,0 -74.1838963,42.7314908,0 -74.183655,42.7315788,0 -74.1833314,42.7317069,0 -74.1830114,42.7318373,0 -74.1826981,42.7319803,0 -74.1823878,42.7321286,0 -74.18208060000001,42.7322846,0 -74.18177559999999,42.7324427,0 -74.18117719999999,42.7327911,0 -74.1807809,42.7330426,0 -74.18039450000001,42.7333023,0 -74.1799761,42.7336046,0 -74.17956289999999,42.7339165,0 -74.1791386,42.7342508,0 -74.17811020000001,42.7350671,0 -74.1771384,42.7358633,0 -74.176783,42.7361537,0 -74.1764153,42.7364425,0 -74.1759046,42.7368176,0 -74.17548119999999,42.7371133,0 -74.17504099999999,42.7374062,0 -74.17458379999999,42.7376858,0 -74.1741214,42.7379629,0 -74.1717017,42.739246,0 -74.17058969999999,42.7398347,0 -74.1681698,42.741106,0 -74.1675759,42.7414242,0 -74.16699,42.74175,0 -74.16582150000001,42.7424295,0 -74.16512470000001,42.7428571,0 -74.1644501,42.7432869,0 -74.1641108,42.7435099,0 -74.16332800000001,42.74399,0 -74.1620697,42.7449429,0 -74.1611473,42.7456063,0 -74.1602437,42.7462847,0 -74.1585341,42.7476298,0 -74.15760280000001,42.7483625,0 -74.156997,42.748825,0 -74.1568157,42.7489474,0 -74.1564442,42.7491974,0 -74.15606579999999,42.7494431,0 -74.1553335,42.749887,0 -74.1546998,42.7502443,0 -74.15449,42.7503578,0 -74.1542757,42.750471,0 -74.15376999999999,42.7507186,0 -74.15325660000001,42.7509623,0 -74.15276969999999,42.7511759,0 -74.1522734,42.7513828,0 -74.1517272,42.7515927,0 -74.15117309999999,42.7517959,0 -74.1507853,42.7519256,0 -74.15039659999999,42.7520469,0 -74.14971540000001,42.7522528,0 -74.1492947,42.7523696,0 -74.1488492,42.7524814,0 -74.1478747,42.7527176,0 -74.145869,42.7531911,0 -74.1454799,42.7532879,0 -74.1447174,42.7534721,0 -74.14398629999999,42.7536452,0 -74.14275979999999,42.7539399,0 -74.1402868,42.7545272,0 -74.13597590000001,42.7555563,0 -74.1324731,42.7563911,0 -74.12527489999999,42.7581039,0 -74.123791,42.7584705,0 -74.1232239,42.7586296,0 -74.1226604,42.7587994,0 -74.1219969,42.7590175,0 -74.12140220000001,42.7592343,0 -74.120699,42.7595059,0 -74.1194187,42.7600268,0 -74.11883469999999,42.760261,0 -74.11629430000001,42.7612862,0 -74.11537509999999,42.7616601,0 -74.1143297,42.7620814,0 -74.1120935,42.763001,0 -74.10816060000001,42.7645846,0 -74.1027268,42.7667967,0 -74.101021,42.7675042,0 -74.1007121,42.7676293,0 -74.0989189,42.768352,0 -74.09835529999999,42.7685828,0 -74.0978254,42.7687827,0 -74.0972855,42.76898,0 -74.0968038,42.769142,0 -74.09633770000001,42.7692866,0 -74.0959261,42.7694084,0 -74.095635,42.7694896,0 -74.0952456,42.7695914,0 -74.0947912,42.7697026,0 -74.09421740000001,42.7698322,0 -74.0936334,42.7699523,0 -74.09305190000001,42.770059,0 -74.0926285,42.7701275,0 -74.0906179,42.7704268,0 -74.0885749,42.7707263,0 -74.086067,42.7710967,0 -74.08519819999999,42.771226,0 -74.08476880000001,42.7712872,0 -74.08433290000001,42.7713425,0 -74.08404059999999,42.77137,0 -74.0837427,42.7713945,0 -74.0834366,42.7714102,0 -74.0829308,42.7714227,0 -74.0823607,42.7714239,0 -74.0808282,42.7714323,0 -74.0796714,42.7714411,0 -74.0758275,42.7714517,0 -74.07371860000001,42.7714632,0 -74.0706034,42.7714752,0 -74.0681014,42.7714887,0 -74.06760060000001,42.7714966,0 -74.067121,42.771513,0 -74.0666324,42.7715391,0 -74.066136,42.7715744,0 -74.0655356,42.7716307,0 -74.06492590000001,42.7717011,0 -74.0645088,42.7717521,0 -74.0640866,42.7718126,0 -74.0632469,42.7719542,0 -74.06024499999999,42.772501,0 -74.05702669999999,42.7730884,0 -74.05498540000001,42.7734632,0 -74.054695,42.7735223,0 -74.05437550000001,42.7735958,0 -74.05412029999999,42.7736624,0 -74.0538605,42.773733,0 -74.0534349,42.7738631,0 -74.053048,42.7739948,0 -74.05266210000001,42.7741389,0 -74.052525,42.7741958,0 -74.0522649,42.7743061,0 -74.0520721,42.7743917,0 -74.0517636,42.7745429,0 -74.0515247,42.7746676,0 -74.05104420000001,42.774939,0 -74.05072989999999,42.775131,0 -74.05043070000001,42.7753264,0 -74.0501021,42.7755625,0 -74.0499432,42.7756833,0 -74.0497872,42.7758061,0 -74.049611,42.7759563,0 -74.04940329999999,42.7761378,0 -74.0491403,42.776377,0 -74.0488816,42.776613,0 -74.04839490000001,42.7770548,0 -74.0482307,42.7772018,0 -74.047809,42.7775795,0 -74.047614,42.7777381,0 -74.0474088,42.7778954,0 -74.0472336,42.7780208,0 -74.0470535,42.7781451,0 -74.04686510000001,42.7782652,0 -74.04667190000001,42.778383,0 -74.046414,42.7785281,0 -74.04616009999999,42.7786626,0 -74.0457626,42.7788558,0 -74.0454587,42.7789842,0 -74.04519449999999,42.779088,0 -74.0448621,42.7792038,0 -74.0446448,42.7792731,0 -74.04441420000001,42.7793404,0 -74.0439626,42.7794568,0 -74.0436782,42.7795202,0 -74.0433944,42.7795788,0 -74.0422148,42.7798191,0 -74.04171049999999,42.7799193,0 -74.0416838,42.7799251,0 -74.0415768,42.7799483,0 -74.0400192,42.7802858,0 -74.03948029999999,42.7804149,0 -74.0356115,42.7813258,0 -74.03213580000001,42.7821425,0 -74.0317058,42.7822596,0 -74.0312794,42.7823826,0 -74.03081039999999,42.782536,0 -74.0307028,42.7825712,0 -74.0304324,42.7826596,0 -74.029617,42.7829808,0 -74.0288671,42.7833219,0 -74.0282323,42.7836797,0 -74.0274582,42.7841305,0 -74.02434119999999,42.786099,0 -74.0231656,42.7867867,0 -74.023104,42.7868273,0 -74.02149489999999,42.7878863,0 -74.0198917,42.7889088,0 
			</coordinates>
		</LineString>
		<atom:link rel="app" href="https://www.google.com/earth/about/versions/#earth-pro" title="Google Earth Pro 7.3.6.10201"></atom:link>
	</Placemark>
</Document>
</kml>
