<?xml version="1.0" encoding="UTF-8"?>
<kml xmlns="http://www.opengis.net/kml/2.2" xmlns:gx="http://www.google.com/kml/ext/2.2" xmlns:kml="http://www.opengis.net/kml/2.2" xmlns:atom="http://www.w3.org/2005/Atom">
<Document>
	<name>I.88.IL.kml</name>
	<Placemark>
		<name>[2:LineString]</name>
			<LineString>
				<coordinates>
					-90.3422283,41.5358464,0 -90.34166100000002,41.53595,0 -90.34123940000001,41.5360452,0 -90.34081129999998,41.5361526,0 -90.33902359999999,41.5366559,0 -90.3384164,41.5368022,0 -90.33811029999998,41.5368606,0 -90.33765750000002,41.5369375,0 -90.33724059999999,41.536993,0 -90.33694750000001,41.5370212,0 -90.3365056,41.5370571,0 -90.33620689999999,41.5370724,0 -90.3357768,41.5370843,0 -90.33563490000002,41.5370852,0 -90.3354904,41.5370821,0 -90.33533809999999,41.5370821,0 -90.33520590000001,41.537078,0 -90.3350411,41.5370702,0 -90.3349097,41.5370641,0 -90.33475420000001,41.5370567,0 -90.33462539999999,41.5370462,0 -90.33447430000001,41.5370338,0 -90.33433219999999,41.5370198,0 -90.3341882,41.5370068,0 -90.3340637,41.536993,0 -90.333901,41.5369721,0 -90.33375359999998,41.5369526,0 -90.33361669999999,41.5369297,0 -90.33346649999999,41.5369065,0 -90.3333445,41.5368876,0 -90.3331769,41.5368547,0 -90.3330567,41.5368348,0 -90.33110450000001,41.5365114,0 -90.3217405,41.5349264,0 -90.31803530000001,41.5343031,0 -90.3158961,41.5339435,0 -90.3155991,41.5338969,0 -90.3153205,41.5338539,0 -90.31503149999999,41.5338168,0 -90.31474140000002,41.5337832,0 -90.3144467,41.5337548,0 -90.3141612,41.5337323,0 -90.3138677,41.5337142,0 -90.3135741,41.5336987,0 -90.31328860000001,41.5336875,0 -90.3129916,41.5336815,0 -90.31270149999999,41.5336824,0 -90.31241250000001,41.5336867,0 -90.3121178,41.5336927,0 -90.31182080000001,41.5337022,0 -90.31152610000001,41.5337194,0 -90.3112417,41.5337427,0 -90.31094579999998,41.5337703,0 -90.31056709999999,41.5338116,0 -90.31023209999999,41.5338521,0 -90.3099385,41.5338935,0 -90.3096553,41.5339409,0 -90.30935940000001,41.5339926,0 -90.30908309999998,41.5340452,0 -90.30880449999999,41.5341055,0 -90.3085179,41.5341693,0 -90.30823700000001,41.5342356,0 -90.30796410000001,41.5343089,0 -90.30552470000001,41.5350138,0 -90.2872905,41.540299,0 -90.28689310000001,41.5404084,0 -90.28647749999999,41.5405179,0 -90.2860665,41.5406256,0 -90.2856417,41.5407213,0 -90.28523300000001,41.5408118,0 -90.2849291,41.5408729,0 -90.28450890000001,41.5409496,0 -90.28407259999999,41.5410211,0 -90.28364550000001,41.5410866,0 -90.2831631,41.541153,0 -90.2827774,41.5411969,0 -90.28228470000001,41.5412452,0 -90.2818565,41.5412814,0 -90.28146620000001,41.5413098,0 -90.2810886,41.5413305,0 -90.2807973,41.5413442,0 -90.2766092,41.5415049,0 -90.2725128,41.5416393,0 -90.27218360000001,41.54165,0 -90.2694125,41.5417873,0 -90.26694129999998,41.542091,0 -90.26461,41.5425527,0 -90.2630898,41.5429083,0 -90.26168390000001,41.5433277,0 -90.25956969999999,41.5441123,0 -90.25845919999999,41.5444904,0 -90.2563904,41.5455561,0 -90.25439729999998,41.546708,0 -90.2508108,41.5493818,0 -90.2456411,41.5533915,0 -90.2453453,41.5536216,0 -90.2452352,41.5537058,0 -90.2451339,41.5537849,0 -90.24503529999998,41.5538618,0 -90.2447284,41.5540982,0 -90.2422402,41.5560118,0 -90.24070469999998,41.5571635,0 -90.2401493,41.5576596,0 -90.23942600000001,41.5582181,0 -90.2391707,41.5584527,0 -90.2379164,41.5593542,0 -90.2366956,41.5602853,0 -90.2335011,41.5627046,0 -90.23188039999999,41.5638899,0 -90.2248611,41.5693466,0 -90.2243485,41.5698098,0 -90.2229212,41.5709202,0 -90.2219896,41.5715627,0 -90.21937370000001,41.5736132,0 -90.2086357,41.5819368,0 -90.20763289999998,41.5826643,0 -90.2063831,41.5836053,0 -90.20476909999998,41.5847882,0 -90.1974675,41.5904885,0 -90.19618190000001,41.5916436,0 -90.19592059999999,41.5918972,0 -90.19507310000002,41.5927666,0 -90.19431510000001,41.593716,0 -90.1930067,41.5959023,0 -90.19239470000001,41.5975693,0 -90.19193370000001,41.5990802,0 -90.1917399,41.6006944,0 -90.19185020000002,41.602423,0 -90.19210169999999,41.6042409,0 -90.19212479999999,41.6043439,0 -90.1921473,41.6044555,0 -90.1921684,41.604558,0 -90.19219260000001,41.6046674,0 -90.19221659999999,41.6047767,0 -90.19280080000001,41.6076142,0 -90.19312059999999,41.6091641,0 -90.1932755,41.6099036,0 -90.1936328,41.6113785,0 -90.19365639999999,41.6114903,0 -90.19368040000001,41.611604,0 -90.19370389999999,41.611715,0 -90.19372629999999,41.6118208,0 -90.19374730000001,41.6119201,0 -90.19376739999998,41.612024,0 -90.193794,41.6121399,0 -90.1938184,41.6122462,0 -90.1938402,41.6123412,0 -90.19386570000002,41.6124609,0 -90.19388789999999,41.6125647,0 -90.19391160000001,41.6126757,0 -90.1939376,41.6127977,0 -90.19395600000001,41.6128937,0 -90.19415820000002,41.6139544,0 -90.1943078,41.6147846,0 -90.19487890000001,41.6172922,0 -90.1949121,41.6191601,0 -90.1946152,41.6214199,0 -90.19416470000002,41.6223253,0 -90.1933729,41.6239416,0 -90.1926697,41.6248639,0 -90.1916583,41.626009,0 -90.190828,41.6267251,0 -90.1897529,41.627604,0 -90.1857115,41.6299687,0 -90.18449390000001,41.6306813,0 -90.18355050000001,41.6312457,0 -90.17657509999999,41.6352969,0 -90.17302270000002,41.6373638,0 -90.1705675,41.6387455,0 -90.169217,41.639529,0 -90.16508919999998,41.6419766,0 -90.1637942,41.642752,0 -90.1627156,41.643531,0 -90.16198229999999,41.6440874,0 -90.16159989999998,41.6443501,0 -90.1610228,41.6448247,0 -90.16044659999999,41.6453345,0 -90.1580172,41.647729,0 -90.15560170000001,41.6501635,0 -90.15216730000002,41.6535555,0 -90.14823850000001,41.6575098,0 -90.14622729999999,41.6595082,0 -90.14503640000001,41.6607902,0 -90.14442590000002,41.6616179,0 -90.14387109999998,41.6624227,0 -90.1429279,41.6639362,0 -90.14212449999999,41.6652881,0 -90.14149020000002,41.6663335,0 -90.1383719,41.6714352,0 -90.13627079999999,41.6747997,0 -90.1343514,41.6777048,0 -90.1328966,41.6792305,0 -90.13228410000001,41.6797041,0 -90.13116670000001,41.6806031,0 -90.12996939999999,41.6813933,0 -90.1250416,41.6845904,0 -90.1238675,41.6853476,0 -90.1231598,41.6857661,0 -90.12129779999999,41.6868964,0 -90.119623,41.6876704,0 -90.11837599999998,41.6880693,0 -90.116692,41.6884689,0 -90.11454879999999,41.6886988,0 -90.11278039999999,41.6887188,0 -90.10235400000001,41.6887641,0 -90.1012285,41.688769,0 -90.09864349999999,41.6887897,0 -90.09657110000001,41.6888226,0 -90.09337270000002,41.688826,0 -90.09217110000002,41.6887958,0 -90.08913850000002,41.6888125,0 -90.08783449999999,41.688879,0 -90.0870103,41.6889651,0 -90.08479299999999,41.6891974,0 -90.08364570000001,41.689356,0 -90.08114560000001,41.6898997,0 -90.07889829999999,41.6905802,0 -90.0767566,41.6913409,0 -90.0741439,41.6925461,0 -90.0690354,41.695729,0 -90.06780200000001,41.6965221,0 -90.05797450000001,41.7030456,0 -90.05565950000002,41.7042084,0 -90.05452990000002,41.7046721,0 -90.0535361,41.7050414,0 -90.05222259999999,41.7053961,0 -90.0515735,41.7055723,0 -90.05051139999999,41.7058086,0 -90.04840710000001,41.706136,0 -90.04638799999999,41.7062831,0 -90.04042809999999,41.7062973,0 -90.0344387,41.7063503,0 -90.0319839,41.7066244,0 -90.0273399,41.7076899,0 -90.0262757,41.7079375,0 -90.0254563,41.7081376,0 -90.01560900000001,41.7105369,0 -90.00206439999998,41.7137734,0 -90.0014606,41.7139338,0 -89.9976264,41.7148502,0 -89.9970885,41.7149732,0 -89.9838845,41.7181547,0 -89.9784507,41.7194469,0 -89.9732805,41.7206999,0 -89.97150929999999,41.7211413,0 -89.9706362,41.7213573,0 -89.96861029999999,41.7218141,0 -89.96746450000001,41.7220957,0 -89.9660157,41.7224651,0 -89.9615483,41.7234872,0 -89.9594025,41.7240312,0 -89.9521586,41.7257776,0 -89.95052889999999,41.7261653,0 -89.94622649999999,41.7271635,0 -89.9448976,41.7274981,0 -89.94432070000001,41.7276172,0 -89.94369090000001,41.7277281,0 -89.943169,41.7277942,0 -89.9423635,41.7278993,0 -89.9414859,41.7279822,0 -89.9409816,41.7280146,0 -89.94019040000001,41.7280424,0 -89.9394528,41.7280568,0 -89.9300774,41.7280979,0 -89.923739,41.7281481,0 -89.92169920000001,41.728174,0 -89.9198452,41.7282233,0 -89.9135522,41.7282398,0 -89.91075050000001,41.7285477,0 -89.90873379999999,41.729007,0 -89.90625970000001,41.7298138,0 -89.9037999,41.7310453,0 -89.9021374,41.7318718,0 -89.88723589999999,41.73922,0 -89.87494770000001,41.7453169,0 -89.8694126,41.748115,0 -89.8661973,41.749623,0 -89.8649044,41.750217,0 -89.863255,41.7510533,0 -89.8619176,41.7518203,0 -89.86092309999999,41.7524123,0 -89.8587483,41.7538346,0 -89.8546044,41.757055,0 -89.8482272,41.7622782,0 -89.84770690000001,41.7626573,0 -89.84724420000001,41.7629644,0 -89.8468961,41.763156,0 -89.8459429,41.7636374,0 -89.8448478,41.7641657,0 -89.8434543,41.7646074,0 -89.8420685,41.7649774,0 -89.8406693,41.7652031,0 -89.8387859,41.7653707,0 -89.83384460000001,41.7653217,0 -89.82575850000001,41.7653467,0 -89.82279490000001,41.7653114,0 -89.81964189999999,41.7652827,0 -89.81479349999999,41.7653067,0 -89.81253289999999,41.765276,0 -89.7999916,41.765237,0 -89.7988363,41.7651092,0 -89.79747020000001,41.7647207,0 -89.79121360000001,41.7620596,0 -89.7903745,41.7617027,0 -89.7897182,41.7614214,0 -89.7890388,41.7611563,0 -89.7885002,41.760967,0 -89.7879039,41.7607552,0 -89.78694249999999,41.7604854,0 -89.78534139999999,41.760039,0 -89.7840142,41.7596404,0 -89.783294,41.7594321,0 -89.77967049999999,41.7583498,0 -89.7780538,41.7578764,0 -89.7761411,41.7572714,0 -89.7744325,41.7567729,0 -89.77036440000001,41.7555536,0 -89.7652769,41.7539849,0 -89.76484929999999,41.753862,0 -89.7632045,41.7533813,0 -89.7619004,41.7529881,0 -89.7597337,41.7523432,0 -89.7586529,41.7520298,0 -89.7579587,41.7518554,0 -89.7561335,41.751478,0 -89.7545106,41.7512242,0 -89.7519441,41.7511178,0 -89.7500826,41.7511401,0 -89.74830679999999,41.7511331,0 -89.7473858,41.7511308,0 -89.74295170000001,41.7511345,0 -89.7421956,41.7511439,0 -89.7405165,41.7511625,0 -89.7342337,41.7511572,0 -89.73313469999999,41.7511835,0 -89.732029,41.7511939,0 -89.72271689999999,41.7511816,0 -89.7098659,41.7512112,0 -89.7082072,41.7512302,0 -89.7048523,41.7512313,0 -89.69858429999999,41.7512857,0 -89.6974661,41.7512844,0 -89.6967004,41.7512653,0 -89.69515370000001,41.7512956,0 -89.69450399999999,41.7512954,0 -89.69141639999999,41.751277,0 -89.6899397,41.7512809,0 -89.6893876,41.7512767,0 -89.68811119999999,41.751267,0 -89.68529940000001,41.7512066,0 -89.6841907,41.7512167,0 -89.6825801,41.7512314,0 -89.6703789,41.7512523,0 -89.6656849,41.7512236,0 -89.6596935,41.7512447,0 -89.6514399,41.751229,0 -89.65036189999999,41.7512359,0 -89.6480636,41.751359,0 -89.6469281,41.7515322,0 -89.645872,41.7518351,0 -89.6446212,41.752301,0 -89.6437936,41.7527715,0 -89.6433394,41.7530168,0 -89.6408644,41.7549403,0 -89.6407116,41.755059,0 -89.63832910000001,41.7570203,0 -89.636606,41.7584262,0 -89.6353788,41.7593811,0 -89.6341156,41.7603937,0 -89.6333226,41.7610901,0 -89.6330167,41.7613281,0 -89.63234079999999,41.7618467,0 -89.6313494,41.7626073,0 -89.6295331,41.7641276,0 -89.6275169,41.7653178,0 -89.6261603,41.7657801,0 -89.6250373,41.7661011,0 -89.623419,41.766361,0 -89.6202736,41.7663616,0 -89.6164433,41.7662677,0 -89.6126254,41.7662478,0 -89.6120482,41.7662395,0 -89.6075038,41.7661623,0 -89.60589040000001,41.7662839,0 -89.60314649999999,41.7666233,0 -89.6017815,41.7669263,0 -89.6006916,41.7672143,0 -89.59475209999999,41.769121,0 -89.5895065,41.7708178,0 -89.5833985,41.7727561,0 -89.5822807,41.7731121,0 -89.5814888,41.7733578,0 -89.573273,41.7759657,0 -89.5679353,41.7776361,0 -89.56501919999999,41.7783266,0 -89.5614897,41.7789433,0 -89.5550569,41.7797818,0 -89.55378260000001,41.7799452,0 -89.5531591,41.7800318,0 -89.54598729999999,41.7809795,0 -89.54427440000001,41.7813581,0 -89.54177439999999,41.782278,0 -89.5403542,41.7830721,0 -89.53789190000001,41.7848674,0 -89.5369409,41.785613,0 -89.53613660000001,41.7862435,0 -89.5355551,41.7866994,0 -89.53420439999999,41.7878105,0 -89.5311428,41.790309,0 -89.5286734,41.7922183,0 -89.5284059,41.7924252,0 -89.52592679999999,41.794219,0 -89.5250309,41.794726,0 -89.52277359999999,41.7957608,0 -89.51755319999999,41.7978516,0 -89.5145124,41.7990712,0 -89.51110250000001,41.8004068,0 -89.51077429999999,41.800541,0 -89.50515369999999,41.8027901,0 -89.4999581,41.8048421,0 -89.4970998,41.8059749,0 -89.4957412,41.806542,0 -89.4934683,41.8074706,0 -89.49186829999999,41.8082423,0 -89.4904482,41.8091376,0 -89.4893866,41.809893,0 -89.48605929999999,41.8123235,0 -89.48275529999999,41.8146681,0 -89.4823753,41.8149378,0 -89.48112620000001,41.8158343,0 -89.4798875,41.8165094,0 -89.4791525,41.8168412,0 -89.47842300000001,41.8171211,0 -89.4774467,41.8174449,0 -89.4761005,41.8178007,0 -89.4755694,41.8179566,0 -89.4749096,41.8181445,0 -89.4737439,41.8184468,0 -89.4727544,41.8187098,0 -89.47236359999999,41.8188164,0 -89.4686426,41.8198856,0 -89.4682548,41.8199862,0 -89.46647,41.8204493,0 -89.464592,41.820928,0 -89.458607,41.8225867,0 -89.45317420000001,41.8240924,0 -89.4523566,41.824312,0 -89.4511735,41.8245824,0 -89.4500237,41.8247295,0 -89.4489241,41.824762,0 -89.4473522,41.8246652,0 -89.4443658,41.8240697,0 -89.4438651,41.823977,0 -89.441659,41.8235683,0 -89.4388131,41.8229947,0 -89.43630810000001,41.822817,0 -89.4348337,41.8227852,0 -89.4333505,41.8228236,0 -89.4321018,41.8228822,0 -89.4271325,41.8231168,0 -89.4270515,41.8231206,0 -89.42698249999999,41.823123,0 -89.4250771,41.8231895,0 -89.4224629,41.8233025,0 -89.4207301,41.8233595,0 -89.42031470000001,41.8233749,0 -89.41898620000001,41.8234242,0 -89.41586270000001,41.8233851,0 -89.41565780000001,41.8233825,0 -89.41402979999999,41.8233257,0 -89.41278560000001,41.8232295,0 -89.40326210000001,41.8226157,0 -89.4003136,41.8226257,0 -89.3910613,41.8226556,0 -89.38927440000001,41.8226721,0 -89.3831584,41.8226677,0 -89.37510640000001,41.8226278,0 -89.37255879999999,41.8226286,0 -89.3651211,41.8226311,0 -89.3637532,41.8226316,0 -89.3627463,41.8226319,0 -89.3601482,41.8226559,0 -89.3517502,41.8226195,0 -89.3483404,41.822622,0 -89.34608230000001,41.8226222,0 -89.34279840000001,41.8226224,0 -89.34105169999999,41.8226059,0 -89.3310173,41.8226373,0 -89.3296955,41.8226527,0 -89.3181843,41.8226813,0 -89.31386569999999,41.8227008,0 -89.3121041,41.8226964,0 -89.2998595,41.8227261,0 -89.2986624,41.8228411,0 -89.2976421,41.8230592,0 -89.2963779,41.823422,0 -89.2953693,41.8237742,0 -89.2943753,41.8243032,0 -89.2907819,41.8262779,0 -89.28339699999999,41.8303199,0 -89.2829641,41.8305496,0 -89.2824773,41.8308312,0 -89.27979209999999,41.8322778,0 -89.2772696,41.8334812,0 -89.27541479999999,41.8342582,0 -89.27449249999999,41.8346198,0 -89.2667225,41.8375304,0 -89.2559389,41.8415697,0 -89.24992229999999,41.8438265,0 -89.2472217,41.8448866,0 -89.2341868,41.8497982,0 -89.22731400000001,41.8523878,0 -89.2252534,41.8530704,0 -89.2080747,41.8579938,0 -89.2064891,41.8584199,0 -89.18640019999999,41.8640897,0 -89.18300910000001,41.8650634,0 -89.17688099999999,41.8667764,0 -89.1692546,41.8689748,0 -89.1678467,41.8693545,0 -89.1598022,41.8716954,0 -89.1522262,41.8747894,0 -89.1511706,41.8752692,0 -89.1497509,41.8758553,0 -89.1479667,41.8766142,0 -89.1426223,41.8788365,0 -89.1411063,41.8792971,0 -89.14027539999999,41.8795495,0 -89.1368575,41.8803489,0 -89.135668,41.8806271,0 -89.13173639999999,41.8815467,0 -89.13061020000001,41.8818002,0 -89.12496729999999,41.883127,0 -89.1218889,41.8838152,0 -89.121486,41.8839079,0 -89.1130407,41.885852,0 -89.1112657,41.8862582,0 -89.1012904,41.888575,0 -89.1008472,41.8886812,0 -89.09536900000001,41.8899243,0 -89.0950508,41.8899967,0 -89.0927701,41.8905157,0 -89.091542,41.8908373,0 -89.0903162,41.8912619,0 -89.08913509999999,41.891855,0 -89.0799799,41.8966196,0 -89.07725790000001,41.8980363,0 -89.07564499999999,41.8988786,0 -89.0754625,41.8989716,0 -89.07517780000001,41.8991082,0 -89.07490970000001,41.899233,0 -89.0746335,41.8993487,0 -89.074308,41.8994761,0 -89.0739748,41.8995968,0 -89.0736873,41.8996925,0 -89.0733384,41.8997966,0 -89.0730018,41.8998873,0 -89.07257559999999,41.8999847,0 -89.07217079999999,41.9000696,0 -89.07179720000001,41.9001354,0 -89.0713902,41.9001928,0 -89.0710479,41.9002294,0 -89.070671,41.9002636,0 -89.0702505,41.9002885,0 -89.0698792,41.9002994,0 -89.06854989999999,41.9003126,0 -89.0679746,41.9003174,0 -89.0644312,41.9003449,0 -89.062918,41.9003425,0 -89.06075800000001,41.9003948,0 -89.0590718,41.9004012,0 -89.0560492,41.9004742,0 -89.0535142,41.9006735,0 -89.0446977,41.9018543,0 -89.0437644,41.9019789,0 -89.0337845,41.9033609,0 -89.0304096,41.9038209,0 -89.0265857,41.9043871,0 -89.0222017,41.9049306,0 -89.0213645,41.9049549,0 -89.0202695,41.9049865,0 -89.01960769999999,41.9049885,0 -89.0128224,41.9050696,0 -89.0016081,41.9051818,0 -88.9815377,41.9053583,0 -88.97948289999999,41.9053612,0 -88.9746871,41.9054293,0 -88.97343360000001,41.9053876,0 -88.9726218,41.9053233,0 -88.9716325,41.9051683,0 -88.9637675,41.9028115,0 -88.9623634,41.9023907,0 -88.96205,41.9022968,0 -88.9599474,41.9016843,0 -88.9541396,41.8998473,0 -88.9524098,41.899408,0 -88.9506889,41.8992079,0 -88.94608909999999,41.8992407,0 -88.9413296,41.8993192,0 -88.937178,41.8993263,0 -88.92684490000001,41.8993833,0 -88.92211589999999,41.8994348,0 -88.887818,41.8995839,0 -88.8843056,41.8996004,0 -88.8744378,41.8996522,0 -88.87434140000001,41.8996568,0 -88.8739636,41.8996571,0 -88.87004520000001,41.899674,0 -88.86429750000001,41.8997143,0 -88.8493027,41.8997422,0 -88.8292579,41.8998348,0 -88.82592889999999,41.8998783,0 -88.8018829,41.9000346,0 -88.79483089999999,41.9001013,0 -88.79419660000001,41.9001211,0 -88.7930593,41.9001693,0 -88.79194459999999,41.9002097,0 -88.791388,41.9002576,0 -88.7906708,41.9003273,0 -88.7903017,41.9003631,0 -88.7897346,41.9004157,0 -88.78885320000001,41.9005266,0 -88.78741340000001,41.9007423,0 -88.7842804,41.9012126,0 -88.7820976,41.9015453,0 -88.77959970000001,41.901888,0 -88.7743737,41.9026251,0 -88.7711352,41.9030836,0 -88.7704191,41.9031817,0 -88.769779,41.9032789,0 -88.76793960000001,41.9035632,0 -88.76737129999999,41.903632,0 -88.7668601,41.9036914,0 -88.7663708,41.9037364,0 -88.7657976,41.9037736,0 -88.7648204,41.9038194,0 -88.76437420000001,41.9038214,0 -88.76366179999999,41.903824,0 -88.7630085,41.9038058,0 -88.76235610000001,41.9037706,0 -88.7619007,41.9037264,0 -88.7603427,41.9035504,0 -88.7568466,41.9031935,0 -88.7538193,41.902919,0 -88.75320960000001,41.9028504,0 -88.7520523,41.9027219,0 -88.75125389999999,41.9026135,0 -88.74861730000001,41.9023171,0 -88.7464392,41.9021316,0 -88.7451741,41.9020035,0 -88.7439213,41.9018743,0 -88.74263980000001,41.9017125,0 -88.7411834,41.9015652,0 -88.7407183,41.9015182,0 -88.7357916,41.9010199,0 -88.7349344,41.9009332,0 -88.7323475,41.9006784,0 -88.73072000000001,41.900513,0 -88.72918,41.9004127,0 -88.72819579999999,41.9003432,0 -88.72745980000001,41.9003063,0 -88.7269187,41.9002933,0 -88.72590080000001,41.9002887,0 -88.72539260000001,41.900293,0 -88.7249305,41.9002945,0 -88.7235606,41.9003027,0 -88.7167129,41.900381,0 -88.7147231,41.9004077,0 -88.709091,41.9004473,0 -88.70197020000001,41.9005144,0 -88.6954193,41.9005819,0 -88.6906194,41.9006239,0 -88.6889867,41.9006418,0 -88.6889305,41.9006424,0 -88.68800899999999,41.9006414,0 -88.67155099999999,41.9007974,0 -88.6694564,41.9008124,0 -88.6654513,41.9008504,0 -88.6597572,41.9008699,0 -88.6575749,41.9008894,0 -88.6537227,41.9009614,0 -88.65326690000001,41.9009589,0 -88.6528023,41.9009309,0 -88.6525766,41.9009199,0 -88.6516797,41.9008199,0 -88.6510553,41.9007264,0 -88.650594,41.9006544,0 -88.65021950000001,41.9005874,0 -88.649734,41.9004994,0 -88.64925390000001,41.9003704,0 -88.64847039999999,41.9001424,0 -88.6481517,41.9000469,0 -88.64771880000001,41.8998909,0 -88.6472236,41.8997094,0 -88.6468551,41.8995574,0 -88.64636280000001,41.8993239,0 -88.6458153,41.8990544,0 -88.6452798,41.8987574,0 -88.6444937,41.8982429,0 -88.6439652,41.8978954,0 -88.6421387,41.8964824,0 -88.6409666,41.8956764,0 -88.64009419999999,41.895038,0 -88.6394191,41.8945539,0 -88.6382394,41.8936624,0 -88.637961,41.8934609,0 -88.6327026,41.8895489,0 -88.6301229,41.8876519,0 -88.6283767,41.886343,0 -88.6269636,41.8853085,0 -88.6250472,41.8839203,0 -88.6241832,41.8832586,0 -88.6226944,41.8821763,0 -88.6219796,41.8816722,0 -88.6212828,41.8811286,0 -88.6199546,41.8801587,0 -88.6192949,41.8796687,0 -88.6170068,41.8779824,0 -88.61648219999999,41.8776098,0 -88.61549549999999,41.8768413,0 -88.6151172,41.8765722,0 -88.61484919999999,41.8764165,0 -88.61457679999999,41.8762238,0 -88.6142626,41.8760608,0 -88.61387740000001,41.8758503,0 -88.613409,41.8756421,0 -88.613038,41.875481,0 -88.61261639999999,41.8753021,0 -88.6121272,41.875137,0 -88.61172500000001,41.875015,0 -88.61114739999999,41.8748713,0 -88.6101678,41.8746541,0 -88.604803,41.873738,0 -88.603089,41.8733829,0 -88.6009881,41.8729411,0 -88.5985702,41.8724338,0 -88.5858152,41.8696496,0 -88.5849769,41.8694618,0 -88.5738559,41.8669658,0 -88.56179590000001,41.864317,0 -88.5538219,41.8624678,0 -88.5276494,41.8565869,0 -88.5272291,41.8564909,0 -88.5171788,41.8541951,0 -88.5144643,41.8534482,0 -88.5117154,41.8523088,0 -88.5079331,41.8502251,0 -88.50352669999999,41.8477972,0 -88.5002707,41.8460518,0 -88.496703,41.8441139,0 -88.4953349,41.8432838,0 -88.49444130000001,41.8425386,0 -88.49372630000001,41.8418202,0 -88.49247459999999,41.840253,0 -88.49073370000001,41.838016,0 -88.48983749999999,41.8369153,0 -88.4889958,41.8360122,0 -88.487531,41.834723,0 -88.48124679999999,41.8296307,0 -88.4800463,41.8285081,0 -88.479023,41.8273484,0 -88.478634,41.8269076,0 -88.47560060000001,41.8230867,0 -88.4754342,41.8228856,0 -88.4748125,41.8221104,0 -88.4744646,41.8216984,0 -88.47426660000001,41.8214895,0 -88.4739287,41.8211626,0 -88.4735343,41.8208215,0 -88.47342860000001,41.8207391,0 -88.473129,41.8205081,0 -88.47284670000001,41.8203122,0 -88.4724954,41.8200798,0 -88.4721787,41.8198914,0 -88.4716451,41.8196036,0 -88.4711714,41.8193776,0 -88.4707265,41.8191868,0 -88.4702781,41.8190156,0 -88.4699902,41.8189159,0 -88.46973269999999,41.8188352,0 -88.4693504,41.8187228,0 -88.46888389999999,41.818603,0 -88.46837549999999,41.8184942,0 -88.46807579999999,41.8184402,0 -88.46781559999999,41.8183979,0 -88.4673804,41.8183367,0 -88.467072,41.8183023,0 -88.4667364,41.8182721,0 -88.4660715,41.8182158,0 -88.4653587,41.8181545,0 -88.46390100000001,41.8180321,0 -88.46271179999999,41.8179325,0 -88.4618148,41.817857,0 -88.4610759,41.8177943,0 -88.4606814,41.8177552,0 -88.46042490000001,41.8177266,0 -88.4601108,41.8176825,0 -88.4597709,41.8176245,0 -88.4594323,41.8175609,0 -88.4590717,41.8174806,0 -88.4587489,41.8173986,0 -88.45836420000001,41.8172893,0 -88.4580354,41.8171851,0 -88.4577848,41.8171007,0 -88.4574379,41.8169748,0 -88.4571212,41.8168467,0 -88.456783,41.8166974,0 -88.45643029999999,41.8165289,0 -88.45605500000001,41.8163328,0 -88.4556087,41.8160938,0 -88.4551565,41.8158504,0 -88.45450460000001,41.8154972,0 -88.44849000000001,41.8122636,0 -88.44394680000001,41.8098196,0 -88.4428923,41.8092536,0 -88.4418778,41.8087069,0 -88.44003720000001,41.8077156,0 -88.4386982,41.8069981,0 -88.4379892,41.8066154,0 -88.4368678,41.8060359,0 -88.4361237,41.8056741,0 -88.4356686,41.805459,0 -88.43500779999999,41.8051599,0 -88.4344131,41.8049011,0 -88.4338899,41.8046805,0 -88.43333509999999,41.8044555,0 -88.4326399,41.8041846,0 -88.431876,41.8038992,0 -88.4311889,41.8036579,0 -88.4303525,41.8033774,0 -88.4295115,41.8031108,0 -88.42891419999999,41.8029315,0 -88.42833570000001,41.8027643,0 -88.42768169999999,41.8025851,0 -88.42711319999999,41.8024366,0 -88.4264204,41.8022657,0 -88.4257599,41.8021092,0 -88.4249961,41.8019413,0 -88.42428529999999,41.8017958,0 -88.42326749999999,41.8016043,0 -88.4221977,41.8014249,0 -88.4211492,41.8012694,0 -88.4202291,41.80115,0 -88.41931049999999,41.801034,0 -88.4182866,41.8009085,0 -88.417658,41.800832,0 -88.4158051,41.8006012,0 -88.4132051,41.8002812,0 -88.4111327,41.8000265,0 -88.4093522,41.7998065,0 -88.40814399999999,41.7996573,0 -88.4068185,41.7994917,0 -88.4054228,41.7993211,0 -88.40459319999999,41.7992129,0 -88.4040833,41.7991327,0 -88.40367620000001,41.7990488,0 -88.403189,41.7989321,0 -88.402838,41.7988358,0 -88.4024782,41.7987253,0 -88.4020203,41.7985684,0 -88.40168180000001,41.7984395,0 -88.4013502,41.7983,0 -88.4010382,41.79816,0 -88.4005593,41.7979356,0 -88.39994489999999,41.7976449,0 -88.3987989,41.7971077,0 -88.39780039999999,41.796642,0 -88.3969862,41.7962598,0 -88.39605779999999,41.7958278,0 -88.3957436,41.7956878,0 -88.3954445,41.7955664,0 -88.3951029,41.7954387,0 -88.3948074,41.7953381,0 -88.3944781,41.7952352,0 -88.39424959999999,41.795168,0 -88.39405720000001,41.7951157,0 -88.3937031,41.795028,0 -88.39340110000001,41.7949594,0 -88.3933172,41.7949428,0 -88.3930091,41.7948819,0 -88.39267,41.7948241,0 -88.39235119999999,41.7947791,0 -88.3919885,41.7947373,0 -88.3916636,41.794707,0 -88.3913156,41.7946818,0 -88.3909283,41.7946653,0 -88.3905614,41.7946583,0 -88.39001279999999,41.7946643,0 -88.3894367,41.7946791,0 -88.38871519999999,41.7946993,0 -88.38823309999999,41.7946971,0 -88.38759779999999,41.7947051,0 -88.3869155,41.7947188,0 -88.3862118,41.7947282,0 -88.3848314,41.7947483,0 -88.38354459999999,41.7947611,0 -88.3821981,41.7947806,0 -88.38032389999999,41.7948063,0 -88.3791731,41.7948233,0 -88.37747950000001,41.7948453,0 -88.3763677,41.7948601,0 -88.3746445,41.7948817,0 -88.37391239999999,41.7948885,0 -88.3706205,41.7949352,0 -88.3676605,41.7949702,0 -88.3621761,41.7950422,0 -88.356906,41.7951108,0 -88.352334,41.7951701,0 -88.3495161,41.7952091,0 -88.3474915,41.7952332,0 -88.3422755,41.7953005,0 -88.3417255,41.7953089,0 -88.3403745,41.7953246,0 -88.3392607,41.7953377,0 -88.33851970000001,41.7953472,0 -88.33796030000001,41.7953546,0 -88.3360977,41.7953802,0 -88.3351086,41.7953927,0 -88.33369879999999,41.7954112,0 -88.33153299999999,41.7954432,0 -88.3301774,41.795495,0 -88.33007019999999,41.7955015,0 -88.32645960000001,41.7957185,0 -88.32508180000001,41.7957987,0 -88.3221673,41.7959607,0 -88.3170226,41.7962506,0 -88.31383289999999,41.7965129,0 -88.3043933944579,41.79710675034461,0 
				
					-88.3043759,41.7971113,0 -88.2997227,41.7973648,0 -88.296783,41.7975567,0 -88.2962472,41.7975881,0 -88.2960269,41.797601,0 -88.2958129,41.7976135,0 -88.2905772,41.7979199,0 -88.2869476,41.7981329,0 -88.2823714,41.7984014,0 -88.27544039999999,41.7988081,0 -88.27043740000001,41.7991016,0 -88.26427459999999,41.7994603,0 -88.2592964,41.7997323,0 -88.254683,41.8000202,0 -88.2528726,41.8001316,0 -88.2488975,41.8003616,0 -88.2449414,41.8005963,0 -88.2420358,41.8007681,0 -88.2403317,41.8008666,0 -88.2365114,41.8010908,0 -88.2272601,41.8016198,0 -88.2220987,41.8020228,0 -88.2180145,41.8024001,0 -88.2171072,41.8024782,0 -88.2134246,41.8027843,0 -88.20964050000001,41.8031024,0 -88.2090192,41.8031569,0 -88.20828040000001,41.8032112,0 -88.2072762,41.8032948,0 -88.2025123,41.8036919,0 -88.2010239,41.803818,0 -88.19971719999999,41.8039192,0 -88.19513139999999,41.8043157,0 -88.1928645,41.8044832,0 -88.19115170000001,41.8046285,0 -88.1902413,41.8047098,0 -88.1879869,41.8048901,0 -88.1865675,41.8049957,0 -88.1836864,41.8052681,0 -88.18170550000001,41.8054267,0 -88.17810059999999,41.8057146,0 -88.17633290000001,41.8058705,0 -88.1754239,41.8059429,0 -88.17447420000001,41.8060345,0 -88.17427309999999,41.8060543,0 -88.17098559999999,41.8062966,0 -88.1694475,41.8063271,0 -88.16779440000001,41.806339,0 -88.1667396,41.80634,0 -88.1612518,41.8063137,0 -88.1417996,41.8062424,0 -88.1398159,41.806217,0 -88.1378474,41.8061875,0 -88.135496,41.8061495,0 -88.13388930000001,41.8061155,0 -88.13242750000001,41.8060995,0 -88.13093240000001,41.8060837,0 -88.12865720000001,41.8060481,0 -88.12536849999999,41.8060011,0 -88.12444050000001,41.8059892,0 -88.123212,41.8059678,0 -88.1196735,41.8059142,0 -88.119416,41.8059087,0 -88.1187257,41.8059003,0 -88.11597620000001,41.8058612,0 -88.1146538,41.8058444,0 -88.1137004,41.8058072,0 -88.103933,41.8056778,0 -88.1003609,41.8056218,0 -88.0974349,41.8055764,0 -88.09451129999999,41.8055344,0 -88.0917199,41.8054914,0 -88.0909374,41.8054787,0 -88.0888307,41.8054461,0 -88.0880083,41.8054374,0 -88.08736589999999,41.8054565,0 -88.0867282,41.8055069,0 -88.086004,41.8055926,0 -88.0854107,41.8056911,0 -88.0848362,41.8058175,0 -88.0842016,41.805989,0 -88.0836228,41.8061739,0 -88.0830393,41.8063937,0 -88.0814479,41.8071379,0 -88.08090730000001,41.8073872,0 -88.0792495,41.8081586,0 -88.0786415,41.8084311,0 -88.07784220000001,41.8087952,0 -88.0774522,41.8089643,0 -88.0770947,41.8091068,0 -88.0766752,41.8092596,0 -88.0763884,41.809349,0 -88.07571849999999,41.8095317,0 -88.0754086,41.8096131,0 -88.0746935,41.80975,0 -88.0742561,41.8098156,0 -88.07378799999999,41.8098686,0 -88.07355149999999,41.8098883,0 -88.0733133,41.8099063,0 -88.0730496,41.8099183,0 -88.0727959,41.8099259,0 -88.0688463,41.8099885,0 -88.0673062,41.8100211,0 -88.06387479999999,41.8100936,0 -88.06165729999999,41.8101405,0 -88.0596901,41.8101654,0 -88.05846339999999,41.810181,0 -88.0570999,41.8101538,0 -88.05278490000001,41.8099619,0 -88.0498266,41.8098731,0 -88.0462057,41.8097332,0 -88.04308020000001,41.8095624,0 -88.0382824,41.8093893,0 -88.0366472,41.809424,0 -88.03567529999999,41.8095332,0 -88.034688,41.8097203,0 -88.0337706,41.8099389,0 -88.03284360000001,41.8102588,0 -88.0326865,41.8103257,0 -88.0320597,41.8105928,0 -88.03062199999999,41.8114404,0 -88.0295706,41.8122881,0 -88.0285406,41.8133596,0 -88.02812900000001,41.813983,0 -88.02781109999999,41.8145751,0 -88.0267382,41.816722,0 -88.0261252,41.8179845,0 -88.0253282,41.8196815,0 -88.02436179999999,41.8216913,0 -88.0238265,41.8227655,0 -88.0230529,41.8243418,0 -88.02259170000001,41.8252843,0 -88.02205979999999,41.8264198,0 -88.0218625,41.8268269,0 -88.02167,41.8271877,0 -88.0213749,41.8276458,0 -88.0210824,41.8280526,0 -88.0207758,41.8284425,0 -88.02040460000001,41.8288652,0 -88.0200191,41.829257,0 -88.0197113,41.8295071,0 -88.0189805,41.8300681,0 -88.01829600000001,41.8305751,0 -88.0171127,41.8312912,0 -88.0166729,41.8315284,0 -88.0161928,41.8317582,0 -88.0157368,41.8319561,0 -88.0152514,41.8321499,0 -88.0147522,41.8323314,0 -88.01425329999999,41.8324953,0 -88.01374130000001,41.8326456,0 -88.01322070000001,41.8327871,0 -88.0127059,41.8329273,0 -88.0121935,41.8330688,0 -88.0116652,41.8332111,0 -88.0102248,41.8336044,0 -88.00776260000001,41.8342963,0 -88.0066435,41.8345431,0 -88.00539089999999,41.8349034,0 -88.0016732,41.8359112,0 -88.0009629,41.836107,0 -88.000273094999,41.8362993993894,0 -87.9992369,41.8366381,0 -87.9959537,41.8377686,0 -87.9949797,41.8381025,0 -87.9909463,41.839612,0 
				
					-87.9909463,41.839612,0 -87.9895466,41.8401359,0 -87.9850888,41.8417886,0 -87.9825857,41.8427065,0 -87.9812639,41.843154,0 -87.9798655,41.8435185,0 -87.97840770000001,41.8438254,0 -87.97635440000001,41.8441323,0 -87.9749983,41.8442283,0 -87.97341040000001,41.8442858,0 -87.9708195,41.8443303,0 -87.9659948,41.8444169,0 -87.96547649999999,41.8444262,0 -87.9607558,41.8444741,0 -87.9564513,41.8445293,0 -87.9533455,41.8445572,0 -87.9519264,41.8445857,0 -87.9508896,41.8445851,0 -87.95034560000001,41.8445944,0 -87.9497906,41.8446077,0 -87.949456,41.8446253,0 -87.94908479999999,41.8446552,0 -87.9487189,41.8446915,0 -87.9483566,41.8447388,0 -87.9478488,41.8448188,0 -87.94732860000001,41.8449217,0 -87.94674639999999,41.8450641,0 -87.94630290000001,41.8451895,0 -87.945922,41.8453086,0 -87.94556969999999,41.8454319,0 -87.94524970000001,41.8455581,0 -87.94499089999999,41.8456652,0 -87.9447524,41.8457723,0 -87.9444304,41.8459324,0 -87.94412869999999,41.8460924,0 -87.9437784,41.8462866,0 -87.94336010000001,41.8465368,0 -87.9427961,41.8468871,0 -87.94220540000001,41.8472553,0 -87.9414455,41.8477351,0 -87.9405139,41.8483242,0 -87.93753529999999,41.8502121,0 -87.93485219999999,41.8519098,0 -87.9347167,41.852001,0 -87.9341776,41.8523569,0 -87.9336641,41.8526834,0 -87.93329060000001,41.8529253,0 -87.9330503,41.8530854,0 -87.9328111,41.8532587,0 -87.9324742,41.8535445,0 -87.93216870000001,41.853827,0 -87.9319869,41.8540162,0 -87.93182760000001,41.8541987,0 -87.93054650000001,41.8556611,0 -87.92940179999999,41.8569789,0 -87.9285132,41.858002,0 -87.92802090000001,41.8585687,0 -87.92732289999999,41.8593723,0 -87.9254962,41.8615228,0 -87.9247506,41.8624101,0 -87.92376040000001,41.8635661,0 -87.9232336,41.8641722,0 -87.922937,41.8645023,0 -87.9212836,41.8664459,0 -87.9209516,41.8668024,0 -87.9206377,41.8671069,0 -87.9203335,41.8673691,0 -87.9199986,41.8676313,0 -87.9196334,41.867898,0 -87.9192324,41.8681647,0 -87.9188829,41.8683737,0 -87.91852710000001,41.8685621,0 -87.917995,41.8688503,0 -87.9176236,41.8690269,0 -87.9167977,41.8694422,0 -87.91580860000001,41.8699341,0 -87.915223,41.870225,0 -87.9144728,41.8706017,0 -87.9137241,41.8709858,0 -87.9125603,41.8715785,0 -87.912038,41.8718438,0 -87.9113511,41.8721715,0 -87.9109567,41.8723573,0 -87.9105623,41.8725292,0 -87.9103472,41.8726164,0 -87.91013959999999,41.8726952,0 -87.9098814,41.872788,0 -87.909612,41.8728808,0 -87.90921640000001,41.8730016,0 -87.9088021,41.8731224,0 -87.9084723,41.8732117,0 -87.90812750000001,41.8732954,0 -87.9077733,41.8733722,0 -87.90753909999999,41.8734235,0 -87.90714560000001,41.8734982,0 -87.9066988,41.8735696,0 -87.90625060000001,41.8736377,0 -87.9057286,41.8736965,0 -87.90526149999999,41.8737393,0 -87.9048193,41.8737641,0 -87.90443759999999,41.8737739,0 -87.90384469999999,41.8737761,0 -87.9035895,41.873767,0 -87.9033467,41.8737509,0 -87.90295279999999,41.8737126,0 
				</coordinates>
			</LineString>
		<atom:link rel="app" href="https://www.google.com/earth/about/versions/#earth-pro" title="Google Earth Pro 7.3.6.10201"></atom:link>
	</Placemark>
</Document>
</kml>
