<?xml version="1.0" encoding="UTF-8"?>
<kml xmlns="http://www.opengis.net/kml/2.2" xmlns:gx="http://www.google.com/kml/ext/2.2" xmlns:kml="http://www.opengis.net/kml/2.2" xmlns:atom="http://www.w3.org/2005/Atom">
<Document>
	<name>I.885.kml</name>
	<Placemark>
		<name>I.885</name>
		<LineString>
			<coordinates>
				-78.87529259999999,35.9000597,0 -78.87515809999999,35.90027,0 -78.8750197,35.900472,0 -78.8748702,35.9006681,0 -78.87470740000001,35.9008691,0 -78.8745368,35.9010582,0 -78.87435809999999,35.9012464,0 -78.87426670000001,35.9013389,0 -78.8738896,35.9017377,0 -78.87139999999999,35.9041822,0 -78.87020029999999,35.9053601,0 -78.8694544,35.9060411,0 -78.8687946,35.9066988,0 -78.8684209,35.9070845,0 -78.8680621,35.9074652,0 -78.8677141,35.9078465,0 -78.8673782,35.9082294,0 -78.86704090000001,35.9086242,0 -78.8667123,35.9090212,0 -78.8664005,35.9094101,0 -78.8660867,35.9098153,0 -78.8657876,35.9102199,0 -78.86549530000001,35.9106348,0 -78.86522100000001,35.9110514,0 -78.8647265,35.9119082,0 -78.86448249999999,35.9123489,0 -78.86425269999999,35.9127889,0 -78.8640417,35.913229,0 -78.86384339999999,35.913674,0 -78.8636564,35.9141159,0 -78.8634686,35.9145703,0 -78.86298770000001,35.9157567,0 -78.8626948,35.9164792,0 -78.86155429999999,35.9192926,0 -78.8614243,35.919628,0 -78.861299,35.9199714,0 -78.86117640000001,35.9203446,0 -78.86108,35.9206651,0 -78.8609936,35.9209922,0 -78.86091589999999,35.9213183,0 -78.86084150000001,35.9216446,0 -78.8607691,35.921973,0 -78.8603189,35.9240589,0 -78.8595413,35.9278344,0 -78.8592695,35.9291541,0 -78.8589848,35.9305361,0 -78.85881740000001,35.931349,0 -78.8587569,35.9316783,0 -78.8587046,35.9320063,0 -78.8586523,35.9323831,0 -78.858608,35.9327648,0 -78.85857780000001,35.9330905,0 -78.85855239999999,35.9334228,0 -78.85853419999999,35.9337497,0 -78.85852420000001,35.9340771,0 -78.85852149999999,35.9344099,0 -78.85852490000001,35.9347395,0 -78.8585349,35.9350582,0 -78.85855100000001,35.9353986,0 -78.8585745,35.9357357,0 -78.8586026,35.9360599,0 -78.8586368,35.93639,0 -78.8586784,35.9367179,0 -78.85872670000001,35.9370648,0 -78.85878030000001,35.9373917,0 -78.858842,35.9377147,0 -78.8589111,35.9380404,0 -78.85898349999999,35.9383624,0 -78.8590707,35.9387131,0 -78.8591538,35.9390253,0 -78.8592424,35.9393264,0 -78.85932149999999,35.9395852,0 -78.8594046,35.939844,0 -78.85952,35.9401757,0 -78.85963460000001,35.9404884,0 -78.85975929999999,35.940806,0 -78.85988810000001,35.941123,0 -78.86001950000001,35.9414276,0 -78.8601563,35.9417316,0 -78.8603052,35.9420498,0 -78.86045470000001,35.9423516,0 -78.8606123,35.9426578,0 -78.86077659999999,35.9429618,0 -78.86094490000001,35.9432598,0 -78.8611192,35.9435557,0 -78.8613016,35.9438543,0 -78.86149,35.9441474,0 -78.86186960000001,35.9447299,0 -78.8620513,35.9450204,0 -78.86223029999999,35.9453222,0 -78.862396,35.9456137,0 -78.8625569,35.9459177,0 -78.8627125,35.9462272,0 -78.86285460000001,35.946529,0 -78.86299409999999,35.9468455,0 -78.8631208,35.9471495,0 -78.8632429,35.9474654,0 -78.8633562,35.9477857,0 -78.8634601,35.9481027,0 -78.86355469999999,35.9484192,0 -78.8636439,35.9487384,0 -78.86372230000001,35.9490635,0 -78.86379410000001,35.9493865,0 -78.86385509999999,35.9497111,0 -78.86391140000001,35.9500374,0 -78.8639563,35.9503593,0 -78.8639946,35.9506877,0 -78.86402200000001,35.9510139,0 -78.8640422,35.9513461,0 -78.8640542,35.9516756,0 -78.8640566,35.9520033,0 -78.86405019999999,35.9523352,0 -78.8640259,35.9529116,0 -78.8640099,35.9536824,0 -78.8639783,35.9543827,0 -78.8639615,35.9549393,0 -78.8639592,35.9552153,0 -78.8639838,35.9560479,0 -78.86400190000001,35.9566021,0 -78.8640314,35.9571541,0 -78.86407370000001,35.9577083,0 -78.86412869999999,35.9582581,0 -78.864193,35.9588074,0 -78.86426950000001,35.9593551,0 -78.8643587,35.9599049,0 -78.8644572,35.9604503,0 -78.8645736,35.9609945,0 -78.86494810000001,35.9626193,0 -78.8650634,35.9631598,0 -78.865111,35.9637063,0 -78.8651251,35.9639392,0 -78.8651318,35.9641606,0 -78.86513050000001,35.964363,0 -78.8651191,35.9645682,0 -78.8650956,35.9647712,0 -78.8650634,35.9649812,0 -78.8650272,35.9651788,0 -78.8649803,35.9653671,0 -78.8649266,35.9655598,0 -78.86486429999999,35.9657437,0 -78.8647939,35.9659315,0 -78.8647161,35.9661139,0 -78.8646306,35.9662903,0 -78.86453640000001,35.9664622,0 -78.8644371,35.9666306,0 -78.8643211,35.9668129,0 -78.8641997,35.9669855,0 -78.8640723,35.9671526,0 -78.8639429,35.9673079,0 -78.8638048,35.9674652,0 -78.8636499,35.9676291,0 -78.863499,35.9677768,0 -78.8633414,35.96792,0 -78.86316170000001,35.9680747,0 -78.86298600000001,35.9682164,0 -78.8628379,35.9683222,0 -78.8623066,35.9686557,0 -78.8612694,35.9693309,0 -78.8584405,35.9711722,0 -78.8580803,35.9714067,0 -78.85715980000001,35.9720058,0 -78.8565584,35.9724817,0 -78.8563146,35.9726747,0 -78.8560768,35.9728787,0 -78.8558551,35.9730941,0 -78.8556469,35.9733179,0 -78.85545279999999,35.9735496,0 -78.8552746,35.97379,0 -78.8551106,35.9740343,0 -78.8549629,35.974289,0 -78.85483189999999,35.974548,0 -78.85471630000001,35.9748097,0 -78.8546193,35.9750796,0 -78.8545388,35.9753473,0 -78.8544725,35.9756233,0 -78.8544267,35.9759017,0 -78.854398,35.9761771,0 -78.8543877,35.9764581,0 -78.8543952,35.9767419,0 -78.8544184,35.9770258,0 -78.85446020000001,35.9773046,0 -78.8545225,35.9775788,0 -78.85459849999999,35.9778518,0 -78.8546846,35.9781201,0 -78.85478449999999,35.9783849,0 -78.8548965,35.9786541,0 -78.8550425,35.9789099,0 -78.85520099999999,35.9791597,0 -78.8553752,35.9794016,0 -78.8555614,35.9796385,0 -78.85575420000001,35.9798665,0 -78.85595050000001,35.9800906,0 -78.856155,35.9803126,0 -78.8566486,35.9808736,0 -78.8575977,35.9818348,0 -78.857997,35.9822744,0 -78.85838,35.9827202,0 -78.8587495,35.9831763,0 -78.85910629999999,35.9836436,0 -78.8594459,35.984111,0 -78.8597738,35.9845887,0 -78.8600838,35.9850721,0 -78.8603768,35.985563,0 -78.86065480000001,35.9860589,0 -78.8609165,35.9865618,0 -78.861482,35.9877561,0 -78.8616215,35.9880956,0 -78.8618163,35.9886201,0 -78.8619963,35.9891457,0 -78.8621593,35.989682,0 -78.86228699999999,35.9901443,0 -78.8624317,35.9907466,0 -78.86248670000001,35.9910292,0 -78.8625552,35.9913869,0 -78.862647,35.9919345,0 -78.8627317,35.9926409,0 -78.8627784,35.9931807,0 -78.86281150000001,35.9937264,0 -78.8628338,35.9942765,0 -78.86285839999999,35.9950333,0 -78.8629189,35.997045,0 -78.8629938,35.9994226,0 -78.8630509,36.0012342,0 -78.8630684,36.0015667,0 -78.8630993,36.0018949,0 -78.86314419999999,36.0022241,0 -78.8631792,36.0024404,0 -78.8632436,36.0027609,0 -78.8632934,36.0029761,0 -78.8633773,36.0032944,0 -78.8634733,36.0036095,0 -78.86357940000001,36.0039197,0 -78.86369759999999,36.0042316,0 -78.86382860000001,36.0045359,0 -78.8639743,36.0048434,0 -78.8641274,36.0051454,0 -78.86429269999999,36.0054442,0 -78.86447029999999,36.0057358,0 -78.8658351,36.0078717,0 -78.86680269999999,36.009386,0 -78.8672464,36.0100803,0 -78.8674563,36.0104088,0 -78.86812930000001,36.0114621,0 
			</coordinates>
		</LineString>
		<atom:link rel="app" href="https://www.google.com/earth/about/versions/#earth-pro" title="Google Earth Pro 7.3.6.10201"></atom:link>
	</Placemark>
</Document>
</kml>
