<?xml version="1.0" encoding="UTF-8"?>
<kml xmlns="http://www.opengis.net/kml/2.2" xmlns:gx="http://www.google.com/kml/ext/2.2" xmlns:kml="http://www.opengis.net/kml/2.2" xmlns:atom="http://www.w3.org/2005/Atom">
<Document>
	<name>I.880.CA.kml</name>
	<Placemark>
		<snippet></snippet>
			<LineString>
				<coordinates>
					-121.9401896,37.3170526,0 -121.9401556,37.3175843,0 -121.9401443,37.3179021,0 -121.9401372,37.3182939,0 -121.9401448,37.3186758,0 -121.9401601,37.3190777,0 -121.9402083,37.3197232,0 -121.940284,37.3204254,0 -121.9404855,37.3220197,0 -121.9406001,37.3230311,0 -121.9406454,37.3235584,0 -121.9407312,37.3247317,0 -121.9407398,37.325288,0 -121.940742,37.3258932,0 -121.9407465,37.3264624,0 -121.9407517,37.3271092,0 -121.9407518,37.327276,0 -121.9407514,37.3279564,0 -121.9407538,37.328777,0 -121.9407481,37.3289577,0 -121.9407371,37.3291234,0 -121.9407097,37.3293606,0 -121.9406728,37.3295817,0 -121.9406271,37.3297971,0 -121.9405707,37.3299912,0 -121.9405115,37.3301661,0 -121.9404511,37.3303366,0 -121.9403975,37.3304776,0 -121.9403048,37.3306791,0 -121.9401551,37.3309502,0 -121.9399904,37.3312274,0 -121.9398496,37.3314337,0 -121.9397083,37.3316294,0 -121.9395626,37.3318021,0 -121.9393265,37.3320462,0 -121.9390315,37.3323201,0 -121.9386078,37.3326751,0 -121.9375952,37.3334505,0 -121.9369565,37.3339211,0 -121.9365878,37.3342081,0 -121.936298,37.3344119,0 -121.9361774,37.3345036,0 -121.9349508,37.335446,0 -121.9331061,37.3368653,0 -121.9305938,37.3389435,0 -121.9300064,37.3394222,0 -121.9287699,37.3403524,0 -121.9277191,37.3411323,0 -121.9266586,37.3419107,0 -121.9264065,37.3421112,0 -121.926149,37.3423265,0 -121.9256981,37.342737,0 -121.9252638,37.3432349,0 -121.9248669,37.3436806,0 -121.9246335,37.3439322,0 -121.9243358,37.3442222,0 -121.9241534,37.3443864,0 -121.9239304,37.3445757,0 -121.9235928,37.3448327,0 -121.9234278,37.3449511,0 -121.9231743,37.345133,0 -121.9222485,37.345803,0 -121.9217506,37.3461652,0 -121.9215532,37.3463089,0 -121.9200549,37.3473884,0 -121.9191158,37.3480601,0 -121.9186495,37.3483973,0 -121.9177403,37.349054,0 -121.9144735,37.351421,0 -121.9130791,37.3524707,0 -121.9120183,37.3534308,0 -121.9115788,37.3538683,0 -121.9094676,37.3559439,0 -121.9075579,37.3578378,0 -121.9072049,37.3581974,0 -121.9069659,37.3584318,0 -121.9050911,37.3602715,0 -121.9047036,37.360681,0 -121.9045457,37.3608365,0 -121.9031455,37.3622093,0 -121.9030088,37.3623471,0 -121.902779,37.362612,0 -121.9025759,37.3628598,0 -121.9022906,37.3632532,0 -121.902109,37.3635197,0 -121.9020063,37.3636718,0 -121.9019499,37.3637771,0 -121.9017698,37.3641134,0 -121.9015937,37.3644868,0 -121.9015347,37.3646209,0 -121.901502,37.3646986,0 -121.9014106,37.3649459,0 -121.9012848,37.365304,0 -121.9012365,37.3654916,0 -121.9011775,37.3657496,0 -121.9011043,37.3661588,0 -121.9010847,37.3662969,0 -121.9010737,37.3663742,0 -121.9010228,37.3669246,0 -121.9010184,37.3671512,0 -121.9010207,37.3674586,0 -121.9010237,37.3676916,0 -121.9010633,37.3681154,0 -121.9011101,37.3684367,0 -121.9011743,37.368729,0 -121.9017409,37.3712635,0 -121.9017775,37.3714063,0 -121.9019047,37.3720081,0 -121.9019946,37.3724303,0 -121.9027059,37.3753497,0 -121.903368,37.3782099,0 -121.9037128,37.3795544,0 -121.9042401,37.3819101,0 -121.9043626,37.382567,0 -121.9046168,37.3835313,0 -121.9054418,37.3870166,0 -121.9069223,37.3932819,0 -121.9076988,37.3966914,0 -121.9089823,37.4020269,0 -121.9096938,37.4050625,0 -121.9098942,37.4059175,0 -121.9100861,37.4067282,0 -121.9107858,37.4093154,0 -121.911289,37.4108263,0 -121.9124745,37.4142819,0 -121.9132415,37.4165299,0 -121.9143133,37.4196818,0 -121.914992,37.4216341,0 -121.9150237,37.4217354,0 -121.915882,37.4242745,0 -121.9163165,37.4255057,0 -121.9167296,37.4267581,0 -121.9168422,37.4270607,0 -121.9169763,37.4273802,0 -121.9171147,37.427709,0 -121.9173833,37.4282618,0 -121.9177047,37.4289102,0 -121.9179193,37.4294384,0 -121.9181124,37.430022,0 -121.9182895,37.4306439,0 -121.9184128,37.4312446,0 -121.9184879,37.4317132,0 -121.918783,37.433904,0 -121.9190255,37.4353799,0 -121.9193604,37.43722,0 -121.9201482,37.4411947,0 -121.920335,37.4421463,0 -121.9206075,37.4434487,0 -121.921518,37.4477128,0 
				
					-121.9216274,37.4483094,0 -121.9223461,37.451952,0 -121.9226411,37.4534979,0 -121.9227464,37.4539839,0 -121.9230199,37.4553721,0 -121.923315,37.45682,0 -121.9234008,37.4572288,0 -121.9235081,37.4576206,0 -121.9236368,37.4580336,0 -121.9237549,37.4583913,0 -121.9239212,37.4588171,0 -121.9240498,37.4592838,0 -121.9251445,37.4615287,0 -121.9259467,37.4630493,0 -121.9282373,37.4677584,0 -121.9321019,37.4755401,0 -121.9328198,37.4770358,0 -121.9346045,37.4805791,0 -121.9348406,37.4810201,0 -121.9349823,37.4812799,0 -121.935127,37.4815302,0 -121.935289,37.4817827,0 -121.935467,37.4820517,0 -121.9356535,37.4823139,0 -121.9358421,37.482567,0 -121.9360379,37.4828118,0 -121.9362329,37.4830402,0 -121.936442,37.4832749,0 -121.9366456,37.4834935,0 -121.9368548,37.4837038,0 -121.9371046,37.4839416,0 -121.9373538,37.4841673,0 -121.9375993,37.4843827,0 -121.9378579,37.4845952,0 -121.9380385,37.4847488,0 -121.9388813,37.4853978,0 -121.9406517,37.4867736,0 -121.9418173,37.4876558,0 -121.9435969,37.4890028,0 -121.9452216,37.4903164,0 -121.9472928,37.4918622,0 -121.949716,37.4937252,0 -121.9517307,37.4953033,0 -121.9540721,37.4970656,0 -121.9573609,37.4995962,0 -121.9590828,37.5009491,0 -121.9632482,37.5041446,0 -121.9664321,37.5067042,0 -121.9682329,37.5081507,0 -121.9706305,37.5100988,0 -121.9719249,37.5111191,0 -121.972157,37.5113066,0 -121.9751206,37.5136995,0 -121.9822353,37.5194441,0 -121.982777,37.5198592,0 -121.9833275,37.5202615,0 -121.9837946,37.5205627,0 -121.9843579,37.5209052,0 -121.9849686,37.5212486,0 -121.9855747,37.5215608,0 -121.9886083,37.5230499,0 -121.9910997,37.5243041,0 -121.9966334,37.5270065,0 -121.9975559,37.5274581,0 -121.9986032,37.5279709,0 -121.9989273,37.5281417,0 -121.9997092,37.5285546,0 -122.0004717,37.5289699,0 -122.0034734,37.5305866,0 -122.0051031,37.5314718,0 -122.0061082,37.5320525,0 -122.0128179,37.5356572,0 -122.0134006,37.5359813,0 -122.0139531,37.536311,0 -122.0144815,37.5366662,0 -122.0150314,37.5370809,0 -122.0155222,37.5374893,0 -122.0159836,37.5379062,0 -122.01641,37.5383443,0 -122.0168124,37.5388122,0 -122.0171423,37.5392269,0 -122.0174582,37.5396417,0 -122.020506,37.5437682,0 -122.0215592,37.545115,0 -122.0235655,37.5477925,0 -122.0255691,37.5504613,0 -122.0272857,37.5527642,0 -122.0275153,37.5530639,0 -122.0277674,37.5533829,0 -122.0280115,37.5536848,0 -122.0282851,37.5540123,0 -122.0285372,37.5542972,0 -122.0288188,37.5545971,0 -122.0290924,37.5548777,0 -122.029378,37.555161,0 -122.034907,37.5603566,0 -122.0378511,37.5630834,0 -122.0390232,37.564172,0 -122.0414861,37.5664938,0 -122.0426428,37.5675469,0 -122.0429646,37.5678621,0 -122.0433447,37.5682693,0 -122.0437385,37.5686941,0 -122.044055,37.5690768,0 -122.0443903,37.5695084,0 -122.0446934,37.5699357,0 -122.0449697,37.5703587,0 -122.0452164,37.5707839,0 -122.0454525,37.571224,0 -122.0456778,37.5716768,0 -122.0458763,37.5721339,0 -122.0460694,37.5726249,0 -122.0462062,37.573014,0 -122.0470139,37.5754603,0 -122.0475536,37.576953,0 -122.0480096,37.5782752,0 -122.0487945,37.5806156,0 -122.0489635,37.5810663,0 -122.0491432,37.5815212,0 -122.0492352,37.5817555,0 -122.0498164,37.5829836,0 -122.0500337,37.5833874,0 -122.050267,37.5838019,0 -122.0505274,37.5842364,0 -122.0507929,37.5846552,0 -122.0510719,37.5850675,0 -122.0563826,37.5925192,0 -122.0583625,37.595308,0 -122.0584877,37.5954599,0 -122.0588537,37.5959792,0 -122.0602906,37.597998,0 -122.0620222,37.6004912,0 -122.0633671,37.6023098,0 -122.0643875,37.6038059,0 -122.0664523,37.6066417,0 -122.0667017,37.6069902,0 -122.0678175,37.6085456,0 -122.0682324,37.6091254,0 -122.0695611,37.6110353,0 -122.0709933,37.6130055,0 -122.0714358,37.6136238,0 -122.0715443,37.6137758,0 -122.0721191,37.6145968,0 -122.0723559,37.614935,0 -122.0733053,37.6162414,0 -122.074362,37.617719,0 -122.0751856,37.6188695,0 -122.0761106,37.6201975,0 -122.0772509,37.6217694,0 -122.0809357,37.6269379,0 -122.0816779,37.6279789,0 -122.0842901,37.631628,0 -122.0843539,37.6317171,0 -122.0844258,37.6318175,0 -122.0861328,37.6342685,0 -122.090709,37.6406672,0 -122.092121,37.6425969,0 -122.0935533,37.6445551,0 -122.0941112,37.6453366,0 -122.0950017,37.6466236,0 -122.0954686,37.6473221,0 -122.0959406,37.6480168,0 -122.0960729,37.6481839,0 -122.0964974,37.6487199,0 -122.0966685,37.6489654,0 -122.0968246,37.6491893,0 -122.0971599,37.6496883,0 -122.0975206,37.6502465,0 -122.0990073,37.652661,0 -122.0995873,37.6535639,0 -122.101261,37.6562799,0 -122.1036731,37.6602286,0 -122.105836,37.6637053,0 -122.1073281,37.6661152,0 -122.1075702,37.6664728,0 -122.1095657,37.6696936,0 -122.1099508,37.6702972,0 -122.1102122,37.6706999,0 -122.1104497,37.6710402,0 -122.1107393,37.6714096,0 -122.111038,37.6717535,0 -122.1113214,37.6720635,0 -122.111654,37.6724011,0 -122.1119705,37.6726962,0 -122.1123165,37.6729977,0 -122.1126544,37.6732715,0 -122.113046,37.6735666,0 -122.1134055,37.6738235,0 -122.1139955,37.6742269,0 -122.1144032,37.6745113,0 -122.1147385,37.6747619,0 -122.1150492,37.6749984,0 -122.1151482,37.6750964,0 -122.1163713,37.6760411,0 -122.1168085,37.6763659,0 -122.1171921,37.6766398,0 -122.1176159,37.6769306,0 -122.1180665,37.6772214,0 -122.1191662,37.6779029,0 -122.1196061,37.6781767,0 -122.1200325,37.6784463,0 -122.120459,37.6787265,0 -122.1236709,37.6809472,0 -122.1240022,37.6811762,0 -122.1276513,37.6837267,0 -122.1288758,37.684528,0 -122.1289442,37.6845732,0 -122.1291994,37.6847523,0 -122.1295141,37.6849674,0 -122.1301713,37.6854174,0 -122.1318864,37.6865881,0 -122.1321455,37.6867678,0 -122.13388,37.687962,0 -122.1347032,37.68853,0 -122.1350802,37.6887908,0 -122.1356496,37.6891858,0 -122.1372312,37.6902795,0 -122.1385763,37.6912055,0 -122.1407719,37.6927268,0 -122.1420237,37.6936118,0 -122.1437311,37.6947925,0 -122.1465108,37.6967145,0 -122.1486554,37.6981972,0 -122.1503052,37.6993364,0 -122.1518223,37.7003851,0 -122.1562497,37.7034439,0 -122.1591907,37.7054773,0 -122.1600439,37.7060664,0 -122.162195,37.707552,0 -122.1638116,37.7086541,0 -122.1641026,37.7088509,0 -122.1652224,37.7096222,0 -122.1656923,37.7099775,0 -122.1686514,37.7119786,0 -122.1691341,37.7123245,0 -122.1707622,37.7135074,0 -122.1712692,37.7139275,0 -122.17176,37.714354,0 -122.1721543,37.7147274,0 -122.172559,37.7151285,0 -122.1729979,37.715559,0 -122.1748419,37.717369,0 -122.1770574,37.7195353,0 -122.1779532,37.7204762,0 -122.1783025,37.7208115,0 -122.1799109,37.7223555,0 -122.1816597,37.7240867,0 -122.1820003,37.724424,0 -122.1823517,37.7247826,0 -122.1826923,37.7251517,0 -122.1831054,37.7256057,0 -122.1834916,37.726047,0 -122.1854764,37.7283233,0 -122.1862199,37.7291766,0 -122.1872798,37.7304206,0 -122.1889241,37.7323267,0 -122.1910842,37.7347947,0 -122.193198,37.7371534,0 -122.1959318,37.740282,0 -122.1972982,37.7418039,0 -122.197498,37.7420319,0 -122.197961,37.742549,0 -122.2012889,37.7463282,0 -122.2014337,37.7464927,0 -122.2014385,37.7464982,0 -122.202742,37.7479871,0 -122.2043728,37.7498449,0 -122.2067975,37.7526104,0 -122.2071667,37.7530289,0 -122.2075156,37.7534238,0 -122.207899,37.7538578,0 -122.2081071,37.7540952,0 -122.2105567,37.7568888,0 -122.211004,37.7574331,0 -122.2144959,37.7613761,0 -122.2146736,37.7615781,0 -122.2150095,37.7619592,0 -122.216816,37.7640019,0 -122.2173349,37.7646161,0 -122.2176843,37.7650032,0 -122.2179721,37.7653513,0 -122.2182318,37.7656757,0 -122.2185527,37.7661281,0 -122.2207724,37.7692173,0 -122.2209833,37.7695158,0 -122.2211976,37.7697934,0 -122.2214031,37.7700548,0 -122.2216466,37.770327,0 -122.2218027,37.7704916,0 -122.221985,37.7706557,0 -122.2222234,37.7708603,0 -122.222486,37.7710547,0 -122.2227632,37.7712486,0 -122.2230622,37.7714422,0 -122.223281,37.7715649,0 -122.2236425,37.7717566,0 -122.2240816,37.7719647,0 -122.2245375,37.7721472,0 -122.2250526,37.7723234,0 -122.2255193,37.772469,0 -122.2303741,37.7740803,0 -122.2307883,37.774223,0 -122.2331126,37.7750152,0 -122.2335391,37.7751721,0 -122.2339656,37.7753544,0 -122.234376,37.7755558,0 -122.2345753,37.7756688,0 -122.2347649,37.7757763,0 -122.2351431,37.7760117,0 -122.2354649,37.7762343,0 -122.2357332,37.7764399,0 -122.2359665,37.7766371,0 -122.2362615,37.7769063,0 -122.2365539,37.7772031,0 -122.2368037,37.7774853,0 -122.2369968,37.777727,0 -122.2371685,37.7779729,0 -122.2373348,37.7782295,0 -122.2374689,37.7784584,0 -122.2375923,37.778698,0 -122.2377076,37.7789375,0 -122.2378176,37.779194,0 -122.2379314,37.7794536,0 -122.2383407,37.7805824,0 -122.2385542,37.7811653,0 -122.238602,37.7812929,0 -122.2386502,37.7814194,0 -122.2387005,37.7815461,0 -122.2387537,37.7816717,0 -122.2388108,37.7818009,0 -122.2388678,37.7819205,0 -122.2389356,37.782049,0 -122.2390056,37.7821705,0 -122.2390808,37.7822919,0 -122.2391596,37.7824094,0 -122.2392431,37.7825233,0 -122.2393346,37.7826396,0 -122.239427,37.7827501,0 -122.2395261,37.7828591,0 -122.2396294,37.7829659,0 -122.2397352,37.7830682,0 -122.2398475,37.7831706,0 -122.2399627,37.783269,0 -122.2400807,37.7833645,0 -122.2402032,37.7834579,0 -122.2403286,37.7835473,0 -122.2404542,37.7836347,0 -122.2405824,37.7837235,0 -122.2407089,37.7838093,0 -122.2408372,37.7838949,0 -122.2409691,37.7839798,0 -122.241101,37.7840627,0 -122.2412399,37.7841474,0 -122.2413705,37.784225,0 -122.2415078,37.7843037,0 -122.2416431,37.7843804,0 -122.2417809,37.7844563,0 -122.2419106,37.7845319,0 -122.2456457,37.7865202,0 -122.2461768,37.7867852,0 -122.2467213,37.7870226,0 -122.2474267,37.7873109,0 -122.2481429,37.7875864,0 -122.2488483,37.787845,0 -122.2495349,37.7880846,0 -122.2502082,37.7883029,0 -122.2508733,37.7885085,0 -122.2514983,37.7886929,0 -122.2521393,37.7888688,0 -122.2527616,37.7890193,0 -122.2531667,37.7891275,0 -122.2533269,37.7891633,0 -122.2534866,37.7891983,0 -122.2536467,37.7892335,0 -122.2538048,37.789267,0 -122.2539658,37.7893015,0 -122.2541269,37.7893347,0 -122.2542877,37.7893665,0 -122.2544495,37.7893978,0 -122.2546088,37.7894286,0 -122.2547677,37.7894591,0 -122.2549275,37.7894882,0 -122.2550895,37.7895169,0 -122.2554143,37.7895735,0 -122.2564692,37.7897522,0 -122.2576608,37.7899561,0 -122.2578227,37.7899828,0 -122.2579865,37.7900117,0 -122.2581493,37.7900426,0 -122.2583098,37.7900757,0 -122.2584641,37.7901111,0 -122.2586243,37.7901509,0 -122.2587797,37.7901931,0 -122.2589409,37.7902393,0 -122.2590919,37.7902874,0 -122.2592459,37.790339,0 -122.259399,37.7903946,0 -122.2595437,37.7904501,0 -122.2596946,37.7905115,0 -122.2598406,37.7905739,0 -122.25999,37.7906414,0 -122.2601256,37.7907072,0 -122.260268,37.7907802,0 -122.2604019,37.7908536,0 -122.2605407,37.7909312,0 -122.2606729,37.7910094,0 -122.2608006,37.7910886,0 -122.2609312,37.7911744,0 -122.2610552,37.7912611,0 -122.2611805,37.7913523,0 -122.2612966,37.7914419,0 -122.2614161,37.7915379,0 -122.261527,37.7916305,0 -122.2633498,37.7931934,0 -122.2635566,37.7933685,0 -122.2636712,37.7934644,0 -122.2637857,37.7935605,0 -122.2639011,37.7936566,0 -122.2640161,37.7937506,0 -122.2641299,37.7938432,0 -122.2642468,37.7939353,0 -122.2643658,37.7940274,0 -122.2644872,37.7941178,0 -122.2646088,37.7942054,0 -122.2647322,37.7942926,0 -122.2648576,37.7943779,0 -122.2649846,37.7944612,0 -122.2651151,37.7945439,0 -122.2652455,37.7946234,0 -122.2653772,37.794702,0 -122.2655115,37.7947789,0 -122.2656472,37.794854,0 -122.2657837,37.7949274,0 -122.2659214,37.7949986,0 -122.2660602,37.7950686,0 -122.266229,37.7951501,0 -122.2663269,37.7951954,0 -122.2666665,37.7953528,0 -122.2669978,37.7954988,0 -122.267506,37.7956876,0 -122.2691636,37.7962981,0 -122.2710009,37.7970187,0 -122.2736216,37.7980885,0 -122.2752112,37.7987083,0 -122.2764171,37.7991785,0 -122.2767865,37.7993209,0 -122.2770805,37.7994346,0 -122.278219,37.7998849,0 -122.2783616,37.7999427,0 -122.2785067,37.8000023,0 -122.2786327,37.8000539,0 -122.2787751,37.8001113,0 -122.2801676,37.8006665,0 -122.2807694,37.8008955,0 -122.2810554,37.8010061,0 -122.2817617,37.8012752,0 -122.2821507,37.801428,0 -122.2824893,37.801566,0 -122.2829408,37.8017505,0 -122.2832324,37.8018728,0 -122.2833775,37.8019337,0 -122.2835257,37.8019965,0 -122.2836712,37.8020577,0 -122.2838193,37.8021183,0 -122.2839669,37.8021777,0 -122.2841176,37.8022341,0 -122.2842669,37.802288,0 -122.2844212,37.8023411,0 -122.284574,37.8023917,0 -122.28473,37.8024405,0 -122.2848834,37.8024876,0 -122.2850393,37.8025327,0 -122.2851963,37.8025769,0 -122.285354,37.8026182,0 -122.2855117,37.802659,0 -122.2856694,37.8026969,0 -122.2858298,37.8027332,0 -122.2859896,37.8027682,0 -122.2861508,37.8028008,0 -122.286312,37.802831,0 -122.2864748,37.8028598,0 -122.2866387,37.8028863,0 -122.2868014,37.8029105,0 -122.2869653,37.8029335,0 -122.2871285,37.8029542,0 -122.2872928,37.8029725,0 -122.2874574,37.8029896,0 -122.2876212,37.8030039,0 -122.2877872,37.803018,0 -122.2879525,37.8030288,0 -122.2881195,37.8030371,0 -122.2882842,37.8030439,0 -122.2884494,37.803049,0 -122.2886155,37.8030516,0 -122.2887816,37.8030531,0 -122.2889481,37.803053,0 -122.2891146,37.8030506,0 -122.2892806,37.8030463,0 -122.2894287,37.8030403,0 -122.2895814,37.8030327,0 -122.2897383,37.803023,0 -122.2898997,37.803012,0 -122.2900723,37.8029975,0 -122.2902384,37.8029814,0 -122.2904018,37.8029632,0 -122.290567,37.8029443,0 -122.2907306,37.8029228,0 -122.2908884,37.8028997,0 -122.291053,37.8028741,0 -122.2946281,37.8022923,0 -122.2948023,37.8022635,0 -122.2949587,37.8022402,0 -122.2951203,37.8022183,0 -122.2952815,37.8021988,0 -122.2954405,37.8021833,0 -122.2956107,37.8021685,0 -122.2957768,37.8021569,0 -122.2959409,37.8021485,0 -122.2961084,37.8021424,0 -122.2962963,37.8021393,0 -122.2963672,37.8021391,0 -122.2964627,37.8021393,0 -122.2966298,37.8021406,0 -122.2967964,37.8021448,0 -122.2969591,37.8021511,0 -122.2971269,37.8021609,0 -122.2972891,37.8021728,0 -122.2974555,37.8021883,0 -122.2976188,37.8022067,0 -122.2977826,37.8022277,0 -122.2979437,37.8022507,0 -122.2981052,37.8022763,0 -122.2982625,37.8023155,0 -122.2984167,37.8023447,0 -122.2985638,37.8023794,0 -122.2987344,37.8024185,0 -122.2988956,37.8024591,0 -122.2990412,37.802498,0 -122.2992007,37.8025415,0 -122.2993519,37.8025867,0 -122.2995053,37.8026371,0 -122.299658,37.802689,0 -122.2998029,37.8027379,0 -122.2999565,37.8027954,0 -122.3001006,37.8028537,0 -122.3002507,37.8029143,0 -122.3003873,37.8029748,0 -122.3005241,37.8030387,0 -122.3006626,37.8031018,0 -122.3007862,37.8031647,0 -122.3009014,37.8032239,0 -122.3010063,37.8032772,0 -122.3011439,37.803357,0 -122.3013535,37.80348,0 -122.3014869,37.8035616,0 -122.3020943,37.8039847,0 -122.3023975,37.8042261,0 -122.3024284,37.804256,0 -122.3024645,37.8042895,0 -122.3025436,37.8043598,0 -122.3026272,37.8044357,0 -122.302679,37.8044855,0 -122.3027919,37.8045933,0 -122.302896,37.8047003,0 -122.3029871,37.8048024,0 -122.3030855,37.8049061,0 -122.3031806,37.8050158,0 -122.303269,37.8051239,0 -122.3033592,37.8052337,0 -122.3034391,37.8053402,0 -122.3035276,37.8054602,0 -122.3036054,37.8055745,0 -122.3036856,37.8056671,0 -122.3037589,37.8057832,0 -122.303829,37.8059015,0 -122.3038975,37.8060233,0 -122.3039617,37.8061426,0 -122.304023,37.8062648,0 -122.3040818,37.8063867,0 -122.3041368,37.8065101,0 -122.3041885,37.8066345,0 -122.3042373,37.8067621,0 -122.3042842,37.8068859,0 -122.3043284,37.8070138,0 -122.3043669,37.8071391,0 -122.304403,37.8072692,0 -122.3044349,37.8074067,0 -122.3044637,37.8075431,0 -122.3044764,37.8076046,0 -122.3044996,37.8077337,0 -122.3045203,37.8078556,0 -122.3045388,37.8079859,0 -122.30455,37.8080921,0 -122.3045516,37.8081192,0 -122.3045594,37.8082474,0 -122.3045635,37.808375,0 -122.3045641,37.8085079,0 -122.304561,37.808641,0 -122.3045542,37.8087861,0 -122.3045478,37.808915,0 -122.304539,37.8090464,0 -122.3045271,37.8091798,0 -122.3045125,37.8093063,0 -122.3044934,37.809438,0 -122.3044711,37.8095687,0 -122.3044461,37.8096988,0 -122.3044183,37.8098257,0 -122.3043865,37.8099547,0 -122.304351,37.8100828,0 -122.3043124,37.8102083,0 -122.30427,37.8103329,0 -122.3042241,37.8104589,0 -122.3041752,37.8105859,0 -122.3041248,37.8107077,0 -122.3040697,37.8108321,0 -122.3040117,37.8109554,0 -122.30395,37.8110777,0 -122.3038852,37.8111974,0 -122.3038043,37.8113401,0 -122.3037335,37.8114583,0 -122.303662,37.8115733,0 -122.3035838,37.811692,0 -122.3035031,37.8118089,0 -122.3034222,37.8119213,0 -122.3033352,37.8120354,0 -122.3032471,37.8121467,0 -122.3031562,37.8122547,0 -122.3030612,37.8123637,0 -122.3029647,37.8124696,0 -122.3028637,37.8125763,0 -122.3027609,37.8126794,0 -122.3026557,37.8127809,0 -122.3025486,37.8128817,0 -122.3024387,37.8129799,0 -122.3023264,37.8130751,0 -122.3022098,37.8131697,0 -122.3020933,37.8132614,0 -122.3019736,37.8133515,0 -122.3018502,37.813441,0 -122.3017252,37.8135277,0 -122.3016004,37.8136128,0 -122.3010668,37.8139765,0 -122.300684,37.8142381,0 -122.3001535,37.8145566,0 -122.3000305,37.8146347,0 -122.2998689,37.8147433,0 -122.2997436,37.8148258,0 -122.2996108,37.8149086,0 -122.2994822,37.8149883,0 -122.2993494,37.8150702,0 -122.2989569,37.8153118,0 -122.2988323,37.8153881,0 -122.2987049,37.8154663,0 -122.2984373,37.815634,0 -122.2981822,37.8157995,0 -122.2979278,37.8159716,0 -122.2976824,37.8161445,0 -122.29744,37.816322,0 -122.297198,37.8165064,0 -122.2970765,37.8166014,0 -122.2969623,37.8166922,0 -122.2968458,37.8167865,0 -122.2967368,37.816878,0 -122.2966205,37.8169761,0 -122.2965063,37.8170736,0 -122.2963991,37.8171687,0 -122.2962812,37.8172729,0 -122.2961762,37.8173684,0 -122.2960693,37.8174684,0 -122.2959591,37.8175728,0 -122.2958535,37.8176741,0 -122.2957512,37.8177746,0 -122.2956456,37.817881,0 -122.2955475,37.8179813,0 -122.2954434,37.8180894,0 -122.2953451,37.8181943,0 -122.2952488,37.8182988,0 -122.2951521,37.8184065,0 -122.2950602,37.818511,0 -122.2949637,37.8186227,0 -122.2948675,37.8187356,0 -122.2947792,37.8188423,0 -122.2946934,37.818947,0 -122.2945113,37.8191719,0 -122.2942609,37.8195108,0 -122.2939906,37.8198422,0 -122.2930908,37.8209462,0 -122.2929164,37.8211602,0 -122.2927353,37.8213901,0 -122.2925655,37.8216156,0 -122.2923999,37.8218441,0 -122.2922413,37.8220761,0 -122.2920884,37.8223083,0 -122.29194,37.8225436,0 -122.2917977,37.822784,0 -122.2916607,37.8230251,0 -122.291533,37.8232616,0 -122.2914084,37.8235071,0 -122.2912885,37.823753,0 -122.2909941,37.8243716,0 -122.2909377,37.8244929,0 -122.2908806,37.8246208,0 -122.2908307,37.8247454,0 -122.2907906,37.8248629,0 -122.2907535,37.8249942,0 -122.290724,37.8251222,0 -122.2906992,37.8252508,0 -122.2906815,37.8253835,0 -122.2906712,37.8255176,0 -122.2906682,37.8256471,0 -122.2906708,37.8257761,0 -122.2906818,37.8259066,0 -122.2906982,37.8260392,0 -122.2907225,37.8261647,0 -122.2907547,37.8263011,0 -122.2907923,37.8264279,0 -122.2908375,37.8265561,0 -122.2908856,37.8266799,0 -122.2909423,37.8268026,0 -122.2910044,37.826923,0 -122.291073,37.8270424,0 -122.2911471,37.8271595,0 -122.2912276,37.827274,0 -122.291315,37.8273874,0 -122.2914076,37.8274961,0 -122.2915044,37.8275991,0 -122.2916116,37.8277043,0 -122.2917207,37.8278025,0 -122.291832,37.8278974,0 -122.2921708,37.828185,0 -122.2922833,37.8282852,0 -122.2923898,37.8283847,0 -122.2924929,37.8284875,0 -122.2925897,37.828596,0 -122.2926799,37.8287058,0 -122.2927658,37.8288195,0 -122.2928452,37.8289332,0 -122.2929184,37.8290507,0 -122.2929872,37.8291718,0 -122.2930481,37.8292953,0 -122.293104,37.8294223,0 -122.2931515,37.8295456,0 -122.2931941,37.8296779,0 -122.2932282,37.8298027,0 -122.2932568,37.8299303,0 -122.2932808,37.8300644,0 -122.2933426,37.8304544,0 -122.2934912,37.8313723,0 -122.2935555,37.8317654,0 -122.2935784,37.8318949,0 -122.2936053,37.8320254,0 -122.2936369,37.8321569,0 -122.2936758,37.8322851,0 -122.2937186,37.8324127,0 -122.2937674,37.8325404,0 -122.2938191,37.8326607,0 -122.2938772,37.8327859,0 -122.2939381,37.8329055,0 -122.2940082,37.833029,0 -122.2942142,37.8333863,0 -122.2944889,37.8338566,0 -122.294765,37.8343269,0 -122.2949767,37.8346897,0 -122.2951769,37.8350588,0 -122.295374,37.8354309,0 -122.2958782,37.8364149,0 -122.2959933,37.8366577,0 -122.2960971,37.8368977,0 -122.296191,37.8371592,0 -122.2962895,37.8374829,0 
				</coordinates>
			</LineString>
		<atom:link rel="app" href="https://www.google.com/earth/about/versions/#earth-pro" title="Google Earth Pro 7.3.6.10201"></atom:link>
	</Placemark>
</Document>
</kml>
