<?xml version="1.0" encoding="UTF-8"?>
<kml xmlns="http://www.opengis.net/kml/2.2" xmlns:gx="http://www.google.com/kml/ext/2.2" xmlns:kml="http://www.opengis.net/kml/2.2" xmlns:atom="http://www.w3.org/2005/Atom">
<Document>
	<name>I.880.IA.kml</name>
	<Placemark>
		<name>I.880.IA</name>
		<LineString>
			<coordinates>
				-95.897058,41.494383,0 -95.89605500000002,41.494493,0 -95.89533959999999,41.4945662,0 -95.8950682,41.4945928,0 -95.893006,41.494805,0 -95.892573,41.494846,0 -95.8922365,41.4948877,0 -95.89094470000001,41.4950181,0 -95.888812,41.495236,0 -95.88824699999999,41.495294,0 -95.88821799999999,41.495296,0 -95.887629,41.495344,0 -95.887355,41.495359,0 -95.88678,41.495379,0 -95.88629400000002,41.495382,0 -95.88576999999998,41.49537,0 -95.88549900000001,41.495359,0 -95.88498600000001,41.495326,0 -95.88451999999999,41.495283,0 -95.88416200000002,41.495241,0 -95.883906,41.495207,0 -95.88333500000002,41.495117,0 -95.879132,41.494383,0 -95.87799599999998,41.494183,0 -95.876812,41.493983,0 -95.876161,41.493891,0 -95.87581899999999,41.493864,0 -95.87527500000002,41.493829,0 -95.87474899999999,41.493803,0 -95.87418400000001,41.493787,0 -95.873762,41.493787,0 -95.872983,41.493825,0 -95.87192300000001,41.493919,0 -95.8710755,41.4939935,0 -95.87047530000001,41.4940468,0 -95.869732,41.494116,0 -95.86885839999999,41.4942141,0 -95.8680081,41.4942894,0 -95.8669221,41.4943891,0 -95.86533900000001,41.494537,0 -95.864912,41.494562,0 -95.864361,41.494585,0 -95.863874,41.494586,0 -95.862936,41.494568,0 -95.86246199999999,41.494538,0 -95.861474,41.494434,0 -95.8602885,41.4942531,0 -95.8583788,41.4938995,0 -95.8567051,41.493562,0 -95.8556537,41.4933691,0 -95.8551387,41.4932968,0 -95.85437690000001,41.4932084,0 -95.85358299999999,41.4931763,0 -95.8529393,41.4931923,0 -95.85212389999998,41.4932325,0 -95.85079350000001,41.4933611,0 -95.84777800000001,41.493629,0 -95.847104,41.493678,0 -95.846807,41.493703,0 -95.84362699999998,41.493963,0 -95.842445,41.494047,0 -95.84174400000001,41.494106,0 -95.84052699999999,41.494198,0 -95.84034800000001,41.494208,0 -95.83985800000001,41.494223,0 -95.83942899999998,41.49422,0 -95.83881500000001,41.494195,0 -95.838407,41.49417,0 -95.838194,41.49415,0 -95.83709899999999,41.494062,0 -95.836517,41.494006,0 -95.835959,41.493963,0 -95.83527599999999,41.493895,0 -95.83511900000001,41.49388,0 -95.83453299999999,41.493837,0 -95.83307589999998,41.4937182,0 -95.8325947,41.4936696,0 -95.8324643,41.4936558,0 -95.831907,41.493616,0 -95.82995099999998,41.493445,0 -95.829168,41.49338,0 -95.828363,41.49332,0 -95.826178,41.49313,0 -95.82429999999999,41.492967,0 -95.823502,41.492903,0 -95.821735,41.492752,0 -95.82083,41.492692,0 -95.82000999999998,41.492667,0 -95.81924200000002,41.492666,0 -95.81841,41.492687,0 -95.817696,41.492725,0 -95.81698299999999,41.49278,0 -95.81625799999999,41.492861,0 -95.815512,41.492957,0 -95.81514,41.493012,0 -95.81442800000001,41.493138,0 -95.813804,41.493263,0 -95.81349400000001,41.493332,0 -95.81344199999999,41.493345,0 -95.81260999999999,41.493545,0 -95.81138799999999,41.493905,0 -95.810254,41.494251,0 -95.80833000000001,41.494859,0 -95.807067,41.495237,0 -95.805914,41.495559,0 -95.80473499999999,41.49586,0 -95.803169,41.496223,0 -95.802136,41.496445,0 -95.80046200000001,41.496821,0 -95.799857,41.496948,0 -95.798828,41.497181,0 -95.798253,41.497305,0 -95.797752,41.497418,0 -95.79631099999999,41.49773,0 -95.794623,41.498111,0 -95.79423800000002,41.498192,0 -95.79379500000002,41.498291,0 -95.79353999999999,41.498341,0 -95.791967,41.498697,0 -95.79116500000001,41.498867,0 -95.790868,41.49894,0 -95.78915600000002,41.49931,0 -95.78872600000001,41.499391,0 -95.788293,41.499463,0 -95.78762,41.499535,0 -95.787162,41.499572,0 -95.787001,41.49958,0 -95.786665,41.499589,0 -95.78656899999999,41.499589,0 -95.786328,41.49959,0 -95.78559199999999,41.49957,0 -95.78501900000001,41.499545,0 -95.78367799999999,41.499498,0 -95.783143,41.499468,0 -95.78247500000001,41.499443,0 -95.781733,41.499416,0 -95.781255,41.499392,0 -95.780435,41.499363,0 -95.78012200000001,41.499348,0 -95.77857299999999,41.49929,0 -95.777849,41.499256,0 -95.77709000000002,41.499225,0 -95.77181000000002,41.499007,0 -95.769617,41.498927,0 -95.76731300000002,41.498815,0 -95.76503060000002,41.498748,0 -95.762421,41.498712,0 -95.75977,41.498694,0 -95.755645,41.498651,0 -95.755022,41.498646,0 -95.74985699999999,41.4986,0 -95.749503,41.498594,0 -95.74798600000001,41.498583,0 -95.7463681,41.4985863,0 -95.74577609999999,41.4985869,0 -95.74525299999999,41.498604,0 -95.74477589999999,41.4986209,0 -95.744309,41.498635,0 -95.74369799999999,41.498653,0 -95.74234300000001,41.498703,0 -95.74162200000001,41.498735,0 -95.740022,41.498794,0 -95.73845420000001,41.4988594,0 -95.737801,41.498889,0 -95.73653190000002,41.4989387,0 -95.7346582,41.4990091,0 -95.73293,41.499074,0 -95.7308865,41.4991611,0 -95.72969300000001,41.499199,0 -95.728263,41.49925,0 -95.72743500000001,41.499261,0 -95.726754,41.49926,0 -95.72594099999999,41.499253,0 -95.72507400000001,41.499229,0 -95.72363799999999,41.499173,0 -95.72237500000001,41.499113,0 -95.721339,41.49907,0 -95.718085,41.498924,0 -95.712531,41.498675,0 -95.71093399999999,41.498598,0 -95.71007600000002,41.498562,0 -95.70888700000002,41.498504,0 -95.70844699999999,41.49849,0 -95.708147,41.49848,0 -95.70740999999998,41.498475,0 -95.70048400000002,41.498395,0 -95.695238,41.49833,0 -95.69296300000001,41.498308,0 -95.691479,41.498289,0 -95.687404,41.498238,0 -95.68596599999998,41.498226,0 -95.684388,41.498203,0 -95.68249579999998,41.4981779,0 -95.68150419999999,41.4981648,0 -95.68015399999999,41.498151,0 -95.67830500000001,41.49814,0 -95.66473899999998,41.498141,0 -95.66302100000001,41.498137,0 -95.660133,41.498143,0 -95.65766600000001,41.498169,0 -95.655242,41.498194,0 -95.646608,41.498294,0 -95.64557600000001,41.498303,0 -95.643237,41.498334,0 -95.64157399999999,41.498367,0 -95.640585,41.498397,0 -95.63959699999998,41.498439,0 -95.63861200000001,41.498492,0 -95.63752699999999,41.498541,0 -95.63345,41.498732,0 -95.632037,41.498783,0 -95.6314,41.4988,0 -95.630695,41.498806,0 -95.629284,41.498811,0 -95.62867800000001,41.49881,0 -95.62307099999998,41.498807,0 -95.61744199999998,41.498805,0 -95.614683,41.498799,0 -95.612922,41.498798,0 -95.61180880000001,41.4988019,0 -95.60897300000001,41.498795,0 -95.60517700000001,41.498792,0 -95.60054909999998,41.4987669,0 -95.5997337,41.498775,0 -95.5968106,41.4987856,0 -95.595034,41.498776,0 -95.5946821,41.4987752,0 -95.5940433,41.4987744,0 -95.59281200000001,41.498773,0 -95.59239399999998,41.498757,0 -95.59218600000001,41.498742,0 -95.5919253,41.4987219,0 -95.5916654,41.4986906,0 -95.5913832,41.4986504,0 -95.59097559999999,41.4985763,0 
			</coordinates>
		</LineString>
		<atom:link rel="app" href="https://www.google.com/earth/about/versions/#earth-pro" title="Google Earth Pro 7.3.6.10201"></atom:link>
	</Placemark>
</Document>
</kml>
