<?xml version="1.0" encoding="UTF-8"?>
<kml xmlns="http://www.opengis.net/kml/2.2" xmlns:gx="http://www.google.com/kml/ext/2.2" xmlns:kml="http://www.opengis.net/kml/2.2" xmlns:atom="http://www.w3.org/2005/Atom">
<Document>
	<name>I.890.kml</name>
	<Placemark>
		<name>I.890</name>
		<LineString>
			<coordinates>
				-73.9322114,42.7562641,0 -73.9328623,42.7575127,0 -73.9329309,42.7576381,0 -73.93299450000001,42.7577547,0 -73.9330609,42.7578741,0 -73.93310940000001,42.757982,0 -73.9331569,42.7580947,0 -73.9332035,42.7582046,0 -73.9332304,42.7583036,0 -73.9332435,42.758407,0 -73.9332546,42.7585117,0 -73.93326070000001,42.758622,0 -73.9332529,42.7587264,0 -73.93323789999999,42.7588381,0 -73.9332093,42.7589451,0 -73.933173,42.7590494,0 -73.9331267,42.7591523,0 -73.9330674,42.7592492,0 -73.93298919999999,42.7593528,0 -73.9329005,42.7594501,0 -73.93277569999999,42.7595628,0 -73.9326313,42.7596757,0 -73.9324653,42.7597917,0 -73.9320915,42.760053,0 -73.9313597,42.7605645,0 -73.9311563,42.7607126,0 -73.93095820000001,42.7608665,0 -73.9308637,42.7609453,0 -73.9307599,42.7610318,0 -73.9305313,42.7612395,0 -73.93031000000001,42.7614591,0 -73.9301157,42.7616733,0 -73.92994090000001,42.7618823,0 -73.9297906,42.7620778,0 -73.92965220000001,42.7622781,0 -73.929535,42.762462,0 -73.9294173,42.7626667,0 -73.92930389999999,42.7628869,0 -73.92913919999999,42.7632297,0 -73.9289641,42.7635979,0 -73.9288177,42.7639164,0 -73.9286822,42.7642273,0 -73.9285459,42.7645445,0 -73.928415,42.764867,0 -73.92829070000001,42.7651925,0 -73.9275799,42.7670988,0 -73.9274674,42.7674153,0 -73.9273626,42.7677318,0 -73.9272557,42.7680608,0 -73.9271652,42.7683617,0 -73.92698179999999,42.7690319,0 -73.9268974,42.7693616,0 -73.9268191,42.7696871,0 -73.9267485,42.7700101,0 -73.92583,42.7744687,0 -73.925763,42.774792,0 -73.9256946,42.7751074,0 -73.925614,42.7754397,0 -73.92555710000001,42.775645,0 -73.9255252,42.77576,0 -73.9254255,42.7760829,0 -73.9253156,42.7763975,0 -73.9251941,42.7767208,0 -73.9250677,42.7770228,0 -73.9249185,42.7773491,0 -73.92477220000001,42.7776543,0 -73.924464,42.7782822,0 -73.9240841,42.7790537,0 -73.9240442,42.7791495,0 -73.9239611,42.779333,0 -73.9238881,42.7795111,0 -73.92381570000001,42.7796941,0 -73.9237177,42.7799417,0 -73.9236399,42.7801523,0 -73.92355929999999,42.7803967,0 -73.92348629999999,42.7806347,0 -73.92341279999999,42.780902,0 -73.9233476,42.7811733,0 -73.92329410000001,42.7814501,0 -73.92324499999999,42.7817196,0 -73.92320909999999,42.7819951,0 -73.92318,42.7822697,0 -73.92315840000001,42.7825462,0 -73.92315019999999,42.7828207,0 -73.92315360000001,42.7830953,0 -73.9231648,42.7833717,0 -73.92318280000001,42.7836463,0 -73.9232111,42.7839224,0 -73.9232492,42.7841972,0 -73.92329239999999,42.7844633,0 -73.92335009999999,42.7847395,0 -73.92341759999999,42.785013,0 -73.9234885,42.7852756,0 -73.9235736,42.7855475,0 -73.9236674,42.7858139,0 -73.92456110000001,42.7882546,0 -73.9246759,42.788572,0 -73.9247884,42.7888933,0 -73.92489019999999,42.7892147,0 -73.9252212,42.7902498,0 -73.9252973,42.7904877,0 -73.9253707,42.7907081,0 -73.92544890000001,42.7909196,0 -73.92553530000001,42.7911286,0 -73.925631,42.7913411,0 -73.9257278,42.7915489,0 -73.9258312,42.791756,0 -73.92593770000001,42.7919571,0 -73.92605829999999,42.7921636,0 -73.9261771,42.792363,0 -73.92667849999999,42.7931593,0 -73.9268043,42.793365,0 -73.9269185,42.7935673,0 -73.92702629999999,42.7937686,0 -73.9271289,42.7939738,0 -73.9272217,42.79418,0 -73.9274525,42.7947064,0 -73.9275507,42.7949192,0 -73.9276502,42.7951125,0 -73.92777409999999,42.7953199,0 -73.9279105,42.7955123,0 -73.92806160000001,42.7957093,0 -73.9282231,42.7958915,0 -73.92839499999999,42.7960651,0 -73.92859420000001,42.7962415,0 -73.9287982,42.7964038,0 -73.929005,42.7965622,0 -73.9292229,42.7967147,0 -73.92944850000001,42.7968597,0 -73.929683,42.7970024,0 -73.9299213,42.797138,0 -73.9301596,42.7972685,0 -73.9304037,42.7973938,0 -73.9306571,42.7975151,0 -73.9309121,42.7976302,0 -73.9311798,42.7977457,0 -73.9314282,42.7978474,0 -73.9316896,42.7979498,0 -73.93202340000001,42.7980732,0 -73.9323627,42.7981957,0 -73.9327,42.798308,0 -73.93304999999999,42.7984149,0 -73.9333973,42.7985181,0 -73.9350419,42.7990015,0 -73.9359536,42.7992695,0 -73.9363797,42.7993958,0 -73.9367914,42.7995172,0 -73.9371967,42.7996396,0 -73.9376106,42.7997804,0 -73.9380115,42.7999239,0 -73.9384084,42.8000737,0 -73.93879269999999,42.8002321,0 -73.9391838,42.8004044,0 -73.9402015,42.8008702,0 -73.94375700000001,42.8024975,0 -73.9441353,42.8026767,0 -73.9445135,42.8028552,0 -73.9448848,42.8030342,0 -73.945255,42.8032167,0 -73.94561520000001,42.8034088,0 -73.945967,42.8036139,0 -73.94631510000001,42.8038232,0 -73.9466613,42.8040323,0 -73.94700709999999,42.8042481,0 -73.94728600000001,42.8044331,0 -73.9475353,42.8046195,0 -73.94772330000001,42.8047684,0 -73.94791650000001,42.8049294,0 -73.9480827,42.8050791,0 -73.9482218,42.8052182,0 -73.9483532,42.8053585,0 -73.9484685,42.8054884,0 -73.94858240000001,42.8056267,0 -73.94868940000001,42.805765,0 -73.948785,42.8059012,0 -73.9488872,42.8060589,0 -73.9489816,42.8062216,0 -73.949074,42.8063978,0 -73.9491505,42.8065574,0 -73.94923300000001,42.8067474,0 -73.9493003,42.8069303,0 -73.9493511,42.8070951,0 -73.9493951,42.8072539,0 -73.9494308,42.8074122,0 -73.94946400000001,42.8075762,0 -73.9496149,42.8084633,0 -73.9497825,42.809449,0 -73.9498176,42.8096491,0 -73.9498605,42.8098555,0 -73.9499172,42.8100699,0 -73.94998649999999,42.8102789,0 -73.95007080000001,42.8104877,0 -73.9501666,42.8106963,0 -73.950275,42.8109044,0 -73.950389,42.811099,0 -73.9504869,42.811247,0 -73.95058760000001,42.8113918,0 -73.9507035,42.811543,0 -73.9508254,42.8116953,0 -73.9509674,42.8118567,0 -73.9511074,42.8119998,0 -73.9512441,42.8121316,0 -73.9513963,42.8122641,0 -73.9515497,42.8123898,0 -73.9517001,42.8125017,0 -73.9518727,42.8126249,0 -73.95202759999999,42.8127307,0 -73.9521865,42.8128304,0 -73.95235220000001,42.8129296,0 -73.952581,42.8130426,0 -73.95279290000001,42.8131428,0 -73.9530275,42.8132533,0 -73.95322229999999,42.8133417,0 -73.9533971,42.8134149,0 -73.9535794,42.8134841,0 -73.953868,42.8135823,0 -73.95606239999999,42.8142613,0 -73.95649210000001,42.8143943,0 -73.9566284,42.8144325,0 -73.9569217,42.8145061,0 -73.957218,42.8145723,0 -73.95749859999999,42.8146262,0 -73.95778319999999,42.8146711,0 -73.9580868,42.8147042,0 -73.9583839,42.8147245,0 -73.9586868,42.8147353,0 -73.9589702,42.8147348,0 -73.9592466,42.8147249,0 -73.9595424,42.8147061,0 -73.9598428,42.8146778,0 -73.960131,42.8146417,0 -73.9604442,42.8145869,0 -73.96066329999999,42.8145414,0 -73.9608759,42.8144972,0 -73.9613626,42.8143878,0 -73.9653304,42.8134964,0 -73.96576140000001,42.8134032,0 -73.96619699999999,42.8133181,0 -73.9666347,42.8132403,0 -73.96706949999999,42.8131739,0 -73.9675036,42.8131185,0 -73.9679545,42.8130715,0 -73.9684012,42.8130357,0 -73.96884679999999,42.8130084,0 -73.96929830000001,42.8129899,0 -73.9697405,42.8129827,0 -73.97018869999999,42.8129855,0 -73.97064159999999,42.8129966,0 -73.97108590000001,42.8130193,0 -73.97151390000001,42.8130501,0 -73.97194469999999,42.8130911,0 -73.9723407,42.8131381,0 -73.97272150000001,42.8131937,0 -73.9731123,42.8132586,0 -73.9734643,42.8133237,0 -73.97382140000001,42.8133963,0 -73.9741856,42.8134709,0 -73.9750758,42.8136541,0 -73.9752874,42.8136977,0 -73.9805715,42.8147865,0 -73.9807308,42.8148162,0 -73.9811361,42.8149018,0 -73.9829888,42.8152833,0 -73.98327190000001,42.8153435,0 -73.9835525,42.8154089,0 -73.9838261,42.8154786,0 -73.98409580000001,42.8155542,0 -73.9843853,42.8156458,0 -73.9846483,42.8157393,0 -73.9849018,42.8158395,0 -73.98499080000001,42.8158769,0 -73.9851826,42.8159604,0 -73.9854237,42.8160746,0 -73.9856633,42.8162005,0 -73.9858997,42.8163361,0 -73.9861195,42.8164718,0 -73.9863253,42.8166158,0 -73.98653059999999,42.816766,0 -73.9867156,42.8169175,0 -73.986908,42.8170835,0 -73.9870835,42.8172487,0 -73.9872551,42.8174238,0 -73.9874238,42.8176122,0 -73.9875692,42.8177935,0 -73.98770879999999,42.8179843,0 -73.9878294,42.8181638,0 -73.9879526,42.8183661,0 -73.9880665,42.8185773,0 -73.9881669,42.8187769,0 -73.989215,42.8209943,0 -73.9893288,42.8212351,0 -73.99288989999999,42.8287686,0 -73.9931206,42.8292566,0 -73.99327409999999,42.8295733,0 -73.9934269,42.8298761,0 -73.9935737,42.8301503,0 -73.9937381,42.8304443,0 -73.99391489999999,42.8307333,0 -73.99404180000001,42.8309339,0 -73.99417080000001,42.8311343,0 -73.99430409999999,42.8313328,0 -73.99444990000001,42.8315408,0 -73.9945972,42.8317449,0 -73.994741,42.831935,0 -73.99489029999999,42.8321251,0 -73.9950438,42.8323147,0 -73.9952088,42.832512,0 -73.99538219999999,42.8327154,0 -73.9955502,42.8329074,0 -73.9957165,42.8330895,0 -73.99589450000001,42.8332784,0 -73.995958,42.8333447,0 -73.99602230000001,42.8334118,0 -73.9960686,42.8334601,0 -73.9962378,42.8336329,0 -74.00035,42.8377589,0 
			</coordinates>
		</LineString>
		<atom:link rel="app" href="https://www.google.com/earth/about/versions/#earth-pro" title="Google Earth Pro 7.3.6.10201"></atom:link>
	</Placemark>
</Document>
</kml>
