<?xml version="1.0" encoding="UTF-8"?>
<kml xmlns="http://www.opengis.net/kml/2.2" xmlns:gx="http://www.google.com/kml/ext/2.2" xmlns:kml="http://www.opengis.net/kml/2.2" xmlns:atom="http://www.w3.org/2005/Atom">
<Document>
	<name>I.89.kml</name>
	<Placemark>
		<name>I.89</name>
			<LineString>
				<coordinates>
					-71.5271015,43.1719011,0 -71.5272712,43.1718505,0 -71.52779409999999,43.1716737,0 -71.52816249999999,43.1715309,0 -71.5286211,43.1713357,0 -71.52925930000001,43.1710345,0 -71.5298293,43.170767,0 -71.5314174,43.1699499,0 -71.5324815,43.169443,0 -71.53270740000001,43.1693415,0 -71.5333418,43.1691024,0 -71.5338376,43.1688948,0 -71.53404449999999,43.1688229,0 -71.53423979999999,43.1687492,0 -71.53479040000001,43.1685646,0 -71.5353187,43.1683991,0 -71.5357412,43.1682813,0 -71.5360147,43.1682182,0 -71.53631679999999,43.1681587,0 -71.5366034,43.1681208,0 -71.536886,43.1680918,0 -71.5371895,43.1680637,0 -71.53748710000001,43.16805,0 -71.5377941,43.1680436,0 -71.53807260000001,43.1680582,0 -71.5383607,43.1680771,0 -71.5387915,43.1681251,0 -71.5391111,43.168178,0 -71.5393953,43.1682362,0 -71.5395469,43.1682712,0 -71.5397928,43.1683304,0 -71.5400643,43.1684094,0 -71.5403371,43.1684974,0 -71.5405933,43.1685888,0 -71.5408608,43.168689,0 -71.5418926,43.1691159,0 -71.54277949999999,43.169523,0 -71.545286,43.1705584,0 -71.5472642,43.1713795,0 -71.5491778,43.1721937,0 -71.55151290000001,43.1731291,0 -71.5517024,43.1732083,0 -71.55325550000001,43.1738574,0 -71.5548178,43.1745124,0 -71.5551976,43.1746716,0 -71.5590541,43.1762279,0 -71.5601829,43.1767142,0 -71.5612105,43.1771424,0 -71.5617838,43.1773909,0 -71.5667594,43.1798819,0 -71.5672323,43.180125,0 -71.5692337,43.1812051,0 -71.5696009,43.1813912,0 -71.57008159999999,43.181621,0 -71.5702436,43.1816983,0 -71.5709205,43.1819895,0 -71.57162889999999,43.1822553,0 -71.57227159999999,43.1824624,0 -71.57288,43.1826304,0 -71.5734427,43.1827623,0 -71.5738178,43.1828233,0 -71.57440010000001,43.1829355,0 -71.5750444,43.1830394,0 -71.58320260000001,43.1843553,0 -71.5840738,43.1844867,0 -71.5848968,43.1845975,0 -71.5856181,43.1846475,0 -71.586325,43.1846689,0 -71.5868981,43.1846546,0 -71.58784180000001,43.1845897,0 -71.5882522,43.1845415,0 -71.58862139999999,43.1844879,0 -71.589567,43.184319,0 -71.5901454,43.1841762,0 -71.5907381,43.1840048,0 -71.5913522,43.183798,0 -71.593846,43.1828824,0 -71.5948087,43.1825174,0 -71.596019,43.1820649,0 -71.59823919999999,43.1812514,0 -71.59841470000001,43.1811859,0 -71.60277379999999,43.179545,0 -71.606134,43.1783206,0 -71.60869049999999,43.177378,0 -71.610748,43.1766625,0 -71.61111579999999,43.1765573,0 -71.6115102,43.1764553,0 -71.61193849999999,43.1763634,0 -71.6126433,43.1762464,0 -71.6131333,43.1761808,0 -71.6139368,43.1761199,0 -71.6149279,43.1761032,0 -71.6158659,43.17614,0 -71.6168426,43.176225,0 -71.6283275,43.1788135,0 -71.6392894,43.1812841,0 -71.6430567,43.18212,0 -71.6488056,43.1833957,0 -71.6503257,43.1836541,0 -71.65135549999999,43.1837832,0 -71.6534454,43.1839206,0 -71.6560688,43.1839089,0 -71.6566055,43.1839032,0 -71.660995,43.1839183,0 -71.6658872,43.1839181,0 -71.666573,43.1838826,0 -71.6676104,43.1838049,0 -71.6741289,43.1830718,0 -71.6772507,43.1827123,0 -71.678208,43.1825987,0 -71.679669,43.1824411,0 -71.6811682,43.182282,0 -71.6819855,43.1821911,0 -71.6829479,43.1821098,0 -71.6838752,43.1820408,0 -71.6847837,43.1819871,0 -71.6859599,43.1819481,0 -71.6879697,43.1818989,0 -71.6884223,43.1818919,0 -71.69026150000001,43.1818839,0 -71.6910937,43.1819059,0 -71.691773,43.1819442,0 -71.6919063,43.181958,0 -71.69236100000001,43.1820053,0 -71.69312499999999,43.182141,0 -71.693882,43.1823481,0 -71.69453179999999,43.1825838,0 -71.6952625,43.1829337,0 -71.6957101,43.1832264,0 -71.6962742,43.1836549,0 -71.6966884,43.1840619,0 -71.69704539999999,43.1844261,0 -71.6973096,43.1847617,0 -71.69755240000001,43.1852045,0 -71.6977881,43.1856615,0 -71.6980095,43.1864542,0 -71.6983522,43.1877395,0 -71.6988735,43.1896033,0 -71.69944479999999,43.1917099,0 -71.6997947,43.1930595,0 -71.70003029999999,43.1936737,0 -71.70032310000001,43.194352,0 -71.7005588,43.1947448,0 -71.7009087,43.1952732,0 -71.7012443,43.1957374,0 -71.7017381,43.1963726,0 -71.70251639999999,43.1972006,0 -71.70258029999999,43.197269,0 -71.70356510000001,43.1983224,0 -71.7042649,43.1991008,0 -71.70586350000001,43.2008094,0 -71.7065568,43.2015763,0 -71.70752640000001,43.2026921,0 -71.70824760000001,43.2035284,0 -71.70882949999999,43.2042557,0 -71.70977449999999,43.2055117,0 -71.7102806,43.2062938,0 -71.710499,43.2065988,0 -71.7114716,43.2079547,0 -71.7119486,43.2086197,0 -71.7136838,43.2109333,0 -71.71417099999999,43.2114303,0 -71.7146714,43.2119437,0 -71.7151645,43.212407,0 -71.7156056,43.2128099,0 -71.7164427,43.2135118,0 -71.7176042,43.2144967,0 -71.721593,43.2175799,0 -71.722165,43.2180306,0 -71.7229202,43.2186368,0 -71.7242229,43.2196886,0 -71.724504,43.2199102,0 -71.72877269999999,43.2233943,0 -71.73059360000001,43.224851,0 -71.7323629,43.2261735,0 -71.73499959999999,43.228343,0 -71.737199,43.2300853,0 -71.7403767,43.2326132,0 -71.74176199999999,43.2337058,0 -71.7431402,43.2348341,0 -71.74364009999999,43.2352697,0 -71.7439043,43.2355696,0 -71.7442042,43.2359695,0 -71.7443519,43.2362129,0 -71.7444685,43.2364051,0 -71.7447184,43.2368407,0 -71.7449398,43.2373548,0 -71.7451397,43.2379261,0 -71.7453854,43.2387245,0 -71.7456396,43.2396542,0 -71.74627510000001,43.2419036,0 -71.74642609999999,43.2424365,0 -71.74777779999999,43.2469032,0 -71.7478727,43.2472321,0 -71.7488512,43.2507541,0 -71.748953,43.2510583,0 -71.74913859999999,43.2515153,0 -71.7492082,43.2516833,0 -71.7493814,43.2520009,0 -71.7497242,43.2525294,0 -71.75028829999999,43.2532934,0 -71.7513148,43.2546289,0 -71.751638,43.2550656,0 -71.7528811,43.2568112,0 -71.75389939999999,43.258237,0 -71.7545676,43.2591133,0 -71.7548486,43.2594304,0 -71.75514819999999,43.2597509,0 -71.7556843,43.2602708,0 -71.7562222,43.2607176,0 -71.7567696,43.2611403,0 -71.7574238,43.2615647,0 -71.75815679999999,43.2619969,0 -71.7588733,43.262372,0 -71.76001410000001,43.2629348,0 -71.7613951,43.263625,0 -71.76220530000001,43.2640239,0 -71.7634594,43.2646346,0 -71.7644913,43.2650981,0 -71.7660017,43.2657224,0 -71.7675642,43.2663683,0 -71.7685518,43.266776,0 -71.7694616,43.2671477,0 -71.77055489999999,43.2675964,0 -71.7713242,43.2679157,0 -71.771779,43.2680913,0 -71.7722292,43.2682483,0 -71.77273460000001,43.2683843,0 -71.7733076,43.2685173,0 -71.77376460000001,43.2686023,0 -71.7741185,43.2686502,0 -71.77458230000001,43.2687033,0 -71.7750209,43.2687364,0 -71.7754759,43.2687475,0 -71.7768928,43.2687757,0 -71.7774778,43.268791,0 -71.7780254,43.2688165,0 -71.77846719999999,43.2688501,0 -71.778909,43.2689008,0 -71.77923199999999,43.2689496,0 -71.7795689,43.2690086,0 -71.7799399,43.2690972,0 -71.7802782,43.269196,0 -71.7805968,43.2692985,0 -71.78088270000001,43.2694044,0 -71.78139609999999,43.2696163,0 -71.7819353,43.2698815,0 -71.7824609,43.2701691,0 -71.7829492,43.2704313,0 -71.7833985,43.2706731,0 -71.7838385,43.270915,0 -71.7847563,43.2714129,0 -71.78547930000001,43.2718094,0 -71.78660619999999,43.2724247,0 -71.7869042,43.2725834,0 -71.78731190000001,43.272776,0 -71.78782390000001,43.2729811,0 -71.7884291,43.2731916,0 -71.788946,43.2733393,0 -71.7894122,43.2734473,0 -71.7898895,43.2735348,0 -71.7901883,43.2735808,0 -71.79049689999999,43.2736218,0 -71.7908056,43.2736539,0 -71.7911912,43.2736818,0 -71.79149510000001,43.2736984,0 -71.79185680000001,43.2737008,0 -71.7923677,43.2736853,0 -71.7927392,43.2736643,0 -71.7937833,43.2735855,0 -71.7946879,43.2735086,0 -71.795918,43.2734079,0 -71.7980805,43.2732365,0 -71.7994041,43.2731379,0 -71.8007154,43.2730264,0 -71.80270059999999,43.272867,0 -71.80342899999999,43.2728135,0 -71.80403819999999,43.272769,0 -71.80448749999999,43.2727382,0 -71.8048575,43.2727312,0 -71.805243,43.2727327,0 -71.80562380000001,43.2727529,0 -71.8060874,43.272802,0 -71.80646230000001,43.2728596,0 -71.8068658,43.2729506,0 -71.8072973,43.2730722,0 -71.8076267,43.2731734,0 -71.80795620000001,43.2733017,0 -71.8082678,43.2734462,0 -71.8086478,43.273634,0 -71.80897640000001,43.2738287,0 -71.80911159999999,43.2739213,0 -71.8094631,43.2741507,0 -71.8098648,43.2744275,0 -71.810694,43.275015,0 -71.8120292,43.275957,0 -71.8125217,43.276273,0 -71.8131858,43.2766158,0 -71.8139285,43.2769514,0 -71.81469970000001,43.2772442,0 -71.8154066,43.2774798,0 -71.8160065,43.2776369,0 -71.8166135,43.2777512,0 -71.81743470000001,43.2778726,0 -71.8182844,43.2779726,0 -71.81952699999999,43.2781082,0 -71.8212556,43.2782419,0 -71.8214658,43.2782581,0 -71.82305460000001,43.2784867,0 -71.82391149999999,43.2786152,0 -71.8246256,43.278808,0 -71.825154,43.2789937,0 -71.8257682,43.2792222,0 -71.82707499999999,43.2798578,0 -71.8290192,43.2808514,0 -71.8298814,43.2813002,0 -71.830624,43.2817073,0 -71.83120959999999,43.2820715,0 -71.83179509999999,43.2825142,0 -71.832295,43.2829569,0 -71.8327877,43.2834782,0 -71.83316619999999,43.2839138,0 -71.833459,43.2843209,0 -71.8340374,43.2853277,0 -71.8347158,43.2865488,0 -71.835289,43.2875036,0 -71.8355365,43.2879612,0 -71.83613920000001,43.2890128,0 -71.8362532,43.2892231,0 -71.83645009999999,43.2895939,0 -71.8370723,43.2909262,0 -71.8373453,43.291515,0 -71.8375293,43.2919117,0 -71.8377113,43.2923472,0 -71.8378864,43.2927972,0 -71.83815060000001,43.2935541,0 -71.8385576,43.294868,0 -71.8386842,43.2953169,0 -71.83909319999999,43.2967675,0 -71.8394574,43.2979672,0 -71.8399144,43.2995596,0 -71.8404,43.3008879,0 -71.84092130000001,43.3021304,0 -71.8418781,43.3041084,0 -71.8432992,43.3071576,0 -71.8440847,43.3087429,0 -71.84445599999999,43.3093713,0 -71.84488450000001,43.3099854,0 -71.8453701,43.3105353,0 -71.8457271,43.310878,0 -71.84653400000001,43.3114779,0 -71.84719819999999,43.3119278,0 -71.8478915,43.3123201,0 -71.8484478,43.3126276,0 -71.8490834,43.3128989,0 -71.8498189,43.3131917,0 -71.85051869999999,43.3134202,0 -71.85131130000001,43.3136344,0 -71.8519683,43.3137701,0 -71.8527967,43.3139058,0 -71.8535893,43.3140129,0 -71.85438910000001,43.3140558,0 -71.8556459,43.3140915,0 -71.85868790000001,43.3141415,0 -71.8593663,43.31417,0 -71.8604113,43.314262,0 -71.86117299999999,43.3143692,0 -71.8621237,43.3145242,0 -71.8623138,43.3145702,0 -71.86301109999999,43.3147782,0 -71.8635371,43.314989,0 -71.86432720000001,43.315301,0 -71.8660146,43.3159767,0 -71.8683496,43.3168907,0 -71.8712415,43.3180297,0 -71.8719201,43.3182618,0 -71.8725985,43.3184546,0 -71.8730807,43.3185743,0 -71.8737982,43.3187188,0 -71.8744909,43.3188045,0 -71.8751907,43.3188545,0 -71.8764546,43.318933,0 -71.8785683,43.319033,0 -71.8804794,43.3191503,0 -71.88136040000001,43.3192044,0 -71.8831528,43.3193044,0 -71.88560219999999,43.31944,0 -71.88661620000001,43.3195329,0 -71.8874797,43.3196606,0 -71.8881801,43.3198114,0 -71.8888156,43.3199828,0 -71.88958390000001,43.3202391,0 -71.89036520000001,43.3205397,0 -71.8911037,43.3208678,0 -71.89161489999999,43.3211539,0 -71.8921076,43.3214609,0 -71.8924932,43.3217323,0 -71.893878,43.3226961,0 -71.8946069,43.3232033,0 -71.8955067,43.3238032,0 -71.89645640000001,43.3244101,0 -71.897299,43.3248743,0 -71.8978632,43.3251885,0 -71.89854870000001,43.3254741,0 -71.8993485,43.3257526,0 -71.90145510000001,43.3264382,0 -71.90319030000001,43.3270166,0 -71.9038259,43.3272737,0 -71.9047906,43.3277823,0 -71.90532810000001,43.3281713,0 -71.90577469999999,43.3285615,0 -71.9061837,43.3289468,0 -71.9065829,43.3295244,0 -71.9069822,43.3301482,0 -71.90724640000001,43.3307656,0 -71.9073606,43.3311869,0 -71.90746780000001,43.3317296,0 -71.9075677,43.3323009,0 -71.90763200000001,43.3328436,0 -71.9077248,43.3336148,0 -71.9080319,43.336614,0 -71.9083943,43.3398303,0 -71.9084318,43.3401631,0 -71.908596,43.3417984,0 -71.9088531,43.3442834,0 -71.90899589999999,43.345176,0 -71.9091602,43.3459615,0 -71.9093458,43.3466399,0 -71.9095815,43.3472326,0 -71.90974799999999,43.3476164,0 -71.9098386,43.3478253,0 -71.9101242,43.3483109,0 -71.9105241,43.3488322,0 -71.91120960000001,43.3497105,0 -71.9117095,43.3502889,0 -71.9121451,43.3506531,0 -71.91270919999999,43.3510673,0 -71.9131162,43.3513387,0 -71.91369469999999,43.3516386,0 -71.91440160000001,43.3519456,0 -71.91514429999999,43.3522241,0 -71.9161797,43.3525669,0 -71.91710089999999,43.3528668,0 -71.9180978,43.3532034,0 -71.9186538,43.3533634,0 -71.9195246,43.3537551,0 -71.9200287,43.3539879,0 -71.9205571,43.3542593,0 -71.9219282,43.3549734,0 -71.9232142,43.35574,0 -71.92341589999999,43.3558804,0 -71.9250957,43.3572142,0 -71.92574140000001,43.3578095,0 -71.9261913,43.3582715,0 -71.9268546,43.3590166,0 -71.9272339,43.3594365,0 -71.9276481,43.3600078,0 -71.927948,43.3604576,0 -71.9285193,43.3614145,0 -71.9291765,43.3625468,0 -71.93057690000001,43.3649297,0 -71.9314364,43.3663921,0 -71.9338655,43.3705396,0 -71.93438620000001,43.3712433,0 -71.9349656,43.37182,0 -71.9356452,43.3723714,0 -71.9362034,43.3727221,0 -71.9368748,43.3730578,0 -71.937693,43.3734145,0 -71.9386513,43.3737351,0 -71.939791,43.3740858,0 -71.9422194,43.3748657,0 -71.9440572,43.3754083,0 -71.944445,43.3755317,0 -71.94661019999999,43.3762626,0 -71.94904819999999,43.3770449,0 -71.9555402,43.3791219,0 -71.9568687,43.3796036,0 -71.9578657,43.3799913,0 -71.95869399999999,43.3803589,0 -71.9595961,43.3807935,0 -71.9603934,43.3811981,0 -71.96123230000001,43.3816578,0 -71.962062,43.3821838,0 -71.9626743,43.3825827,0 -71.96392299999999,43.3834329,0 -71.9648081,43.384041,0 -71.9676305,43.3859799,0 -71.967798,43.386099,0 -71.9694018,43.3872483,0 -71.9705771,43.3880296,0 -71.97120940000001,43.3884039,0 -71.9719693,43.3888159,0 -71.9726952,43.3891424,0 -71.9737786,43.3895892,0 -71.97497920000001,43.3900002,0 -71.9762918,43.3904223,0 -71.977441,43.390772,0 -71.9819598,43.3922577,0 -71.98227439999999,43.3923689,0 -71.98570599999999,43.393493,0 -71.9864987,43.3937739,0 -71.98708190000001,43.3939447,0 -71.9874476,43.3940355,0 -71.98803150000001,43.3941652,0 -71.98868950000001,43.3943043,0 -71.9894125,43.394434,0 -71.9902373,43.394573,0 -71.9925544,43.3948233,0 -71.9939868,43.3950052,0 -71.9960578,43.3952682,0 -71.997984,43.3954784,0 -72.0026077,43.396017,0 -72.0032755,43.3960946,0 -72.0070685,43.396575,0 -72.0078192,43.3967047,0 -72.0083759,43.3968175,0 -72.0090611,43.3970106,0 -72.0096358,43.3972052,0 -72.0101641,43.3973998,0 -72.01064599999999,43.3975945,0 -72.0111558,43.3978447,0 -72.0115636,43.398095,0 -72.0121753,43.3984657,0 -72.01288889999999,43.3989662,0 -72.01409219999999,43.399853,0 -72.0171278,43.4020703,0 -72.0172855,43.4021894,0 -72.0206094,43.4046383,0 -72.0222498,43.4058803,0 -72.0225928,43.4061769,0 -72.02283370000001,43.40639,0 -72.02313030000001,43.4066681,0 -72.0237999,43.40736,0 -72.024585,43.4082022,0 -72.02560769999999,43.4092992,0 -72.02577220000001,43.4094612,0 -72.02900959999999,43.4130894,0 -72.032,43.4163534,0 -72.0339649,43.4185222,0 -72.03439880000001,43.4190092,0 -72.03493810000001,43.4196251,0 -72.0353829,43.4200978,0 -72.0356888,43.4204407,0 -72.0359854,43.4208207,0 -72.0362171,43.4211265,0 -72.03717899999999,43.4224954,0 -72.0372946,43.4226946,0 -72.03787610000001,43.4237587,0 -72.0381263,43.4242777,0 -72.0384322,43.4248616,0 -72.03861759999999,43.4253251,0 -72.0389327,43.4260758,0 -72.03898599999999,43.426237,0 -72.0396741,43.4279637,0 -72.0397598,43.4281943,0 -72.0409454,43.4312822,0 -72.04126220000001,43.4320805,0 -72.0415,43.4326099,0 -72.0417192,43.4330002,0 -72.0418974,43.4333093,0 -72.0421384,43.4336954,0 -72.0424917,43.4341484,0 -72.04287170000001,43.4346211,0 -72.0431961,43.4349733,0 -72.0436966,43.4354367,0 -72.0441507,43.4357889,0 -72.04452139999999,43.4360391,0 -72.04509609999999,43.4364377,0 -72.0458746,43.4369011,0 -72.04676430000001,43.4373274,0 -72.0477539,43.4377299,0 -72.0498877,43.4384952,0 -72.0511413,43.4389642,0 -72.0527859,43.4395796,0 -72.0541242,43.4399829,0 -72.0556156,43.4403967,0 -72.0564775,43.4406038,0 -72.0572459,43.4407634,0 -72.0578823,43.4408973,0 -72.05853399999999,43.4410207,0 -72.05896060000001,43.4411014,0 -72.0609633,43.4413777,0 -72.0636195,43.441725,0 -72.0639589,43.4417714,0 -72.0654883,43.4419902,0 -72.0661999,43.4420913,0 -72.06783110000001,43.4423138,0 -72.0687537,43.4424435,0 -72.0695498,43.4425711,0 -72.069935,43.4426474,0 -72.0704466,43.4427609,0 -72.07050030000001,43.4427772,0 -72.0712868,43.4429943,0 -72.0720472,43.4432146,0 -72.07225939999999,43.4432796,0 -72.07305839999999,43.4436206,0 -72.07384620000001,43.4439264,0 -72.0749769,43.4443991,0 -72.075913,43.4447791,0 -72.0777574,43.4455854,0 -72.0785173,43.4459191,0 -72.0792403,43.4462713,0 -72.0799076,43.4465957,0 -72.0807325,43.4470313,0 -72.08154810000001,43.4474762,0 -72.08366119999999,43.4487366,0 -72.0868747,43.4506386,0 -72.0880454,43.451315,0 -72.0882411,43.4514426,0 -72.08906469999999,43.4520396,0 -72.0896856,43.4525552,0 -72.0901861,43.4530834,0 -72.0905939,43.4535283,0 -72.0910202,43.4539825,0 -72.09141870000001,43.4545015,0 -72.091669,43.4549,0 -72.091947,43.4553542,0 -72.09321679999999,43.4578473,0 -72.0936404,43.458687,0 -72.0942641,43.4599234,0 -72.09447729999999,43.4603312,0 -72.0947646,43.4607483,0 -72.0950241,43.4611283,0 -72.0953392,43.4615268,0 -72.0957748,43.4619902,0 -72.09646069999999,43.4626019,0 -72.0969612,43.4629634,0 -72.097888,43.4635658,0 -72.09850299999999,43.463932,0 -72.0990836,43.464298,0 -72.10018650000001,43.4650395,0 -72.10068699999999,43.4653546,0 -72.1010855,43.4656512,0 -72.1014192,43.4659385,0 -72.1016972,43.4662351,0 -72.1020216,43.4666244,0 -72.102346,43.4671248,0 -72.1025566,43.4676128,0 -72.10269820000001,43.4680609,0 -72.1027631,43.4684965,0 -72.1027723,43.4690897,0 -72.1026889,43.4695809,0 -72.10253520000001,43.470153,0 -72.1023434,43.470617,0 -72.1020401,43.471138,0 -72.1017138,43.4717219,0 -72.1014105,43.472304,0 -72.10137279999999,43.4723799,0 -72.1010855,43.4730102,0 -72.10097589999999,43.4733608,0 -72.1008762,43.4736752,0 -72.1008075,43.4741965,0 -72.10083210000001,43.4747702,0 -72.1009133,43.4752461,0 -72.1010392,43.4757072,0 -72.1012571,43.4763633,0 -72.101688,43.4773755,0 -72.102082,43.4783659,0 -72.1033911,43.4817409,0 -72.10487620000001,43.4856335,0 -72.1052186,43.4864377,0 -72.1053582,43.4868662,0 -72.10566179999999,43.48756,0 -72.1059197,43.488057,0 -72.1062201,43.4884696,0 -72.10658479999999,43.4888796,0 -72.10696160000001,43.4892296,0 -72.1073138,43.4895076,0 -72.10782349999999,43.4898506,0 -72.108368,43.4901522,0 -72.10885039999999,43.4903661,0 -72.1091874,43.4904895,0 -72.11004800000001,43.4907357,0 -72.1102657,43.4907898,0 -72.1108088,43.4909,0 -72.1112019,43.4909595,0 -72.1115654,43.4909955,0 -72.1122874,43.4910398,0 -72.1128082,43.4910299,0 -72.1131386,43.4910202,0 -72.1133244,43.4910107,0 -72.11456990000001,43.4908995,0 -72.11590219999999,43.4907818,0 -72.1177962,43.4906198,0 -72.1190103,43.4905086,0 -72.12051200000001,43.4903783,0 -72.12103140000001,43.4903185,0 -72.12182420000001,43.4902458,0 -72.1223739,43.4902228,0 -72.1226873,43.4902244,0 -72.12309759999999,43.4902398,0 -72.1238761,43.4902862,0 -72.1246601,43.4903739,0 -72.12544250000001,43.4904901,0 -72.12583170000001,43.4905828,0 -72.1264712,43.4907959,0 -72.1270104,43.4909944,0 -72.1275691,43.4912427,0 -72.127951,43.4914473,0 -72.12858439999999,43.491834,0 -72.1290293,43.4921584,0 -72.12940380000001,43.4924664,0 -72.1297861,43.4928442,0 -72.13006729999999,43.4931501,0 -72.13033280000001,43.4934817,0 -72.1306077,43.4938737,0 -72.1309242,43.494481,0 -72.1311149,43.4948778,0 -72.13135320000001,43.495482,0 -72.13253020000001,43.4986918,0 -72.13261919999999,43.4989329,0 -72.1330104,43.4999573,0 -72.1336326,43.5016171,0 -72.1337961,43.5021982,0 -72.1338621,43.5023631,0 -72.13388740000001,43.5024614,0 -72.13394580000001,43.5027022,0 -72.1339657,43.5027836,0 -72.1340593,43.5033282,0 -72.1341135,43.503747,0 -72.13414210000001,43.5043322,0 -72.13415689999999,43.5051419,0 -72.1341785,43.5063238,0 -72.1342281,43.5097904,0 -72.1342394,43.5103834,0 -72.13428930000001,43.5108006,0 -72.1343826,43.5113457,0 -72.1345127,43.5117872,0 -72.134655,43.5121616,0 -72.1348338,43.5125531,0 -72.1350132,43.5128819,0 -72.13528479999999,43.5133275,0 -72.1355765,43.5137445,0 -72.1361613,43.5145615,0 -72.13759949999999,43.5165474,0 -72.13953979999999,43.519242,0 -72.1405103,43.5205365,0 -72.14074050000001,43.5208911,0 -72.14087120000001,43.5211215,0 -72.14090950000001,43.5211933,0 -72.1410817,43.5215491,0 -72.1411779,43.5218092,0 -72.1412847,43.5221399,0 -72.141355,43.5224391,0 -72.14141669999999,43.5228101,0 -72.1414621,43.5233479,0 -72.1414201,43.523925,0 -72.14137820000001,43.5241942,0 -72.14129149999999,43.5245748,0 -72.1409678,43.5257181,0 -72.1400592,43.5292041,0 -72.1396845,43.5306964,0 -72.13952279999999,43.5313858,0 -72.1392858,43.5328415,0 -72.13926739999999,43.5329488,0 -72.138651,43.5366565,0 -72.1383847,43.5382497,0 -72.1383459,43.5385004,0 -72.13812710000001,43.5398362,0 -72.13805979999999,43.540368,0 -72.1380496,43.5404989,0 -72.13803420000001,43.5406972,0 -72.13805979999999,43.5411141,0 -72.1381016,43.5414957,0 -72.13816970000001,43.5419041,0 -72.1384243,43.5430389,0 -72.13844520000001,43.5431328,0 -72.1392791,43.5469475,0 -72.1399993,43.5502269,0 -72.1406886,43.5534267,0 -72.14095330000001,43.5546481,0 -72.1418456,43.5587654,0 -72.14187459999999,43.5588868,0 -72.1421562,43.5601433,0 -72.14233110000001,43.5606307,0 -72.1425292,43.5611315,0 -72.14274570000001,43.5615538,0 -72.1429523,43.5618857,0 -72.143227,43.5622587,0 -72.1434799,43.562592,0 -72.14379479999999,43.5629494,0 -72.14411819999999,43.5632674,0 -72.14447490000001,43.5635822,0 -72.144994,43.5639961,0 -72.1473713,43.5657109,0 -72.14795429999999,43.5661076,0 -72.14908579999999,43.5669015,0 -72.14939529999999,43.5671237,0 -72.15134449999999,43.5685442,0 -72.1528337,43.5695486,0 -72.1529941,43.5696553,0 -72.1561684,43.5717743,0 -72.15665250000001,43.5720989,0 -72.15707039999999,43.5723792,0 -72.1578141,43.5728931,0 -72.1582193,43.573221,0 -72.1585712,43.5735255,0 -72.15895999999999,43.573927,0 -72.15932599999999,43.5743526,0 -72.15959599999999,43.5747124,0 -72.1598269,43.5750762,0 -72.16006590000001,43.5754932,0 -72.16031270000001,43.5760123,0 -72.1605,43.5765059,0 -72.16061980000001,43.5769062,0 -72.1610136,43.5787927,0 -72.1612744,43.579999,0 -72.16146449999999,43.5807865,0 -72.16163229999999,43.5812772,0 -72.1618893,43.5818119,0 -72.1622017,43.5823697,0 -72.1626188,43.5830592,0 -72.16439750000001,43.5859775,0 -72.1654273,43.587671,0 -72.1664128,43.589356,0 -72.1666511,43.5898387,0 -72.16679120000001,43.5901621,0 -72.1668995,43.5906325,0 -72.1669629,43.5910804,0 -72.16698460000001,43.5914835,0 -72.16695060000001,43.5918324,0 -72.16687400000001,43.5922239,0 -72.1664267,43.5936675,0 -72.1660322,43.5948705,0 -72.16581739999999,43.595352,0 -72.1656689,43.5957981,0 -72.1655895,43.5961101,0 -72.1655263,43.596393,0 -72.1655086,43.5965461,0 -72.1654829,43.5967905,0 -72.1654668,43.5970185,0 -72.1654695,43.5971979,0 -72.1654952,43.5974581,0 -72.165532,43.5977416,0 -72.1656024,43.5980116,0 -72.16569149999999,43.5982971,0 -72.1658212,43.5986072,0 -72.1659342,43.5988353,0 -72.1660471,43.5990445,0 -72.1661438,43.5991915,0 -72.16640599999999,43.5995401,0 -72.1666716,43.5998618,0 -72.1669801,43.6001531,0 -72.1671882,43.6003296,0 -72.16735540000001,43.6004643,0 -72.1677305,43.6007316,0 -72.16803880000001,43.6009149,0 -72.168282,43.6010449,0 -72.1685466,43.6011748,0 -72.1690009,43.6013726,0 -72.16924280000001,43.6014667,0 -72.1698548,43.6016618,0 -72.1700347,43.601711,0 -72.1703792,43.601787,0 -72.1709412,43.6018845,0 -72.17140089999999,43.6019382,0 -72.1717927,43.6019677,0 -72.17225500000001,43.601976,0 -72.1726202,43.6019736,0 -72.1739862,43.6019165,0 -72.1750902,43.6018562,0 -72.1756366,43.6018307,0 -72.17615619999999,43.6018137,0 -72.1765955,43.6018052,0 -72.1770635,43.6018183,0 -72.1774861,43.6018422,0 -72.1779004,43.6018784,0 -72.17829039999999,43.6019338,0 -72.1786571,43.6019922,0 -72.17903,43.6020629,0 -72.17955069999999,43.60219,0 -72.1799599,43.6023046,0 -72.1802417,43.6023942,0 -72.18071279999999,43.602571,0 -72.181141,43.6027516,0 -72.1814163,43.6028791,0 -72.18169709999999,43.6030241,0 -72.1820594,43.6032276,0 -72.1824001,43.6034419,0 -72.1827332,43.6036737,0 -72.183087,43.6039518,0 -72.18343640000001,43.604256,0 -72.1836436,43.6044666,0 -72.1838429,43.604683,0 -72.1841744,43.6050876,0 -72.1845387,43.605569,0 -72.1848842,43.606031,0 -72.1858745,43.6073646,0 -72.1861425,43.6077279,0 -72.1864145,43.6080942,0 -72.1865901,43.6083263,0 -72.18721410000001,43.6090501,0 -72.1874334,43.6092878,0 -72.1876163,43.6094877,0 -72.1878459,43.6097155,0 -72.1881089,43.6099664,0 -72.1883577,43.6101967,0 -72.1886698,43.6104896,0 -72.18891290000001,43.610712,0 -72.1893875,43.6111457,0 -72.18983160000001,43.6115485,0 -72.1905234,43.6121792,0 -72.1912152,43.6128393,0 -72.19176040000001,43.6133408,0 -72.1922163,43.6137683,0 -72.1926224,43.6141744,0 -72.1930143,43.6145662,0 -72.1934346,43.615008,0 -72.1942959,43.6159769,0 -72.1950305,43.6168247,0 -72.1953725,43.6172664,0 -72.1956575,43.617644,0 -72.1959353,43.6180074,0 -72.19622029999999,43.6184277,0 -72.1970183,43.6196318,0 -72.1980014,43.6211707,0 -72.1988564,43.6224816,0 -72.199234,43.6229945,0 -72.1994335,43.6232439,0 -72.1996615,43.6235004,0 -72.19986830000001,43.6237012,0 -72.20015309999999,43.6239492,0 -72.2004024,43.6241345,0 -72.2006518,43.6242912,0 -72.20097819999999,43.6244857,0 -72.2013238,43.6246602,0 -72.20183160000001,43.6248973,0 -72.2025948,43.6251895,0 -72.20347390000001,43.6255087,0 -72.204694,43.6259381,0 -72.20491939999999,43.6260367,0 -72.2051402,43.6261365,0 -72.2053753,43.6262504,0 -72.2056247,43.6263787,0 -72.20595950000001,43.6265426,0 -72.2063371,43.6267563,0 -72.2067588,43.6270028,0 -72.2072562,43.6273334,0 -72.20767650000001,43.6276896,0 -72.2081183,43.6280601,0 -72.2085671,43.6285018,0 -72.2088663,43.6288366,0 -72.20931179999999,43.6294649,0 -72.2095018,43.6298194,0 -72.2097266,43.6302745,0 -72.20977689999999,43.6303856,0 -72.2104374,43.6318717,0 -72.2109375,43.6331048,0 -72.2118047,43.6350684,0 -72.2119993,43.6355443,0 -72.2124068,43.6364816,0 -72.21253419999999,43.6368003,0 -72.2126554,43.63708,0 -72.21276039999999,43.6372781,0 -72.2129793,43.6376598,0 -72.2131143,43.6378491,0 -72.2132094,43.6379633,0 -72.2134901,43.6382952,0 -72.21383489999999,43.638703,0 -72.2140864,43.6389245,0 -72.2143609,43.6391323,0 -72.21471440000001,43.6393738,0 -72.2151599,43.6396152,0 -72.21566300000001,43.6398567,0 -72.2161497,43.640077,0 -72.2165512,43.6402245,0 -72.2169037,43.6403338,0 -72.21733589999999,43.6404344,0 -72.217902,43.6405407,0 -72.2184371,43.6406126,0 -72.2189829,43.6406731,0 -72.2204847,43.6407673,0 -72.2206492,43.6407831,0 -72.2231429,43.6410439,0 -72.2241203,43.6411446,0 -72.22493559999999,43.641245,0 -72.22564850000001,43.6413571,0 -72.2261745,43.6414727,0 -72.2265022,43.6415468,0 -72.2268232,43.6416339,0 -72.227204,43.6417574,0 -72.22762299999999,43.6419348,0 -72.22801990000001,43.6421159,0 -72.22844240000001,43.6423401,0 -72.22907189999999,43.6427023,0 -72.2306499,43.6436422,0 -72.23199510000001,43.6444442,0 -72.2336944,43.6453997,0 -72.2341085,43.6456467,0 -72.2349169,43.6461164,0 -72.2356412,43.6464727,0 -72.2360618,43.6466481,0 -72.2365944,43.6468458,0 -72.2369952,43.6469637,0 -72.2373408,43.6470526,0 -72.2376635,43.6471277,0 -72.2380258,43.6472004,0 -72.2386616,43.647308,0 -72.2397292,43.6474716,0 -72.24188580000001,43.647771,0 -72.2430438,43.6479359,0 -72.24483840000001,43.6482914,0 -72.2458709,43.6485123,0 -72.24667239999999,43.648695,0 -72.2485495,43.6491148,0 -72.25369329999999,43.6502009,0 -72.2555835,43.6506045,0 -72.2561741,43.6507104,0 -72.25679940000001,43.6507931,0 -72.2571762,43.6508292,0 -72.2576117,43.6508502,0 -72.2578915,43.6508544,0 -72.2582783,43.6508422,0 -72.2587163,43.6508064,0 -72.2593,43.6507435,0 -72.2598426,43.6506385,0 -72.2602948,43.6505322,0 -72.2607709,43.6503952,0 -72.26106,43.6503003,0 -72.2615471,43.6501044,0 -72.26203820000001,43.649874,0 -72.26235819999999,43.6496892,0 -72.2625917,43.6495492,0 -72.2629993,43.6492658,0 -72.2645004,43.6481869,0 -72.2654825,43.6474926,0 -72.26674389999999,43.6465937,0 -72.26779260000001,43.645858,0 -72.26850229999999,43.6453515,0 -72.2690431,43.6449777,0 -72.2698686,43.6444089,0 -72.2705672,43.643935,0 -72.2713213,43.6434536,0 -72.2726481,43.642667,0 -72.2731454,43.6423819,0 -72.2736123,43.6421184,0 -72.27448459999999,43.6416322,0 -72.27612619999999,43.6407237,0 -72.27756460000001,43.6399134,0 -72.2783069,43.6394911,0 -72.2785386,43.6393563,0 -72.278978,43.6391036,0 -72.28099330000001,43.6379803,0 -72.2813522,43.637785,0 -72.283078,43.6368316,0 -72.2837609,43.6364547,0 -72.28442099999999,43.6361197,0 -72.2849803,43.6358714,0 -72.2854736,43.6356852,0 -72.28596709999999,43.6355314,0 -72.28630459999999,43.6354352,0 -72.28663469999999,43.6353483,0 -72.28696600000001,43.6352826,0 -72.28736189999999,43.6352201,0 -72.2877213,43.6351751,0 -72.288151,43.6351365,0 -72.288865,43.6350946,0 -72.28971559999999,43.6350403,0 -72.2901335,43.6350141,0 -72.2906574,43.6349778,0 -72.2912151,43.6349457,0 -72.29200659999999,43.634892,0 -72.29272210000001,43.6348434,0 -72.293353,43.6348005,0 -72.2941055,43.6347365,0 -72.29481970000001,43.6346541,0 -72.2953605,43.6345737,0 -72.2961882,43.6344338,0 -72.2967459,43.6343231,0 -72.2972903,43.6342089,0 -72.2984525,43.6339433,0 -72.2996093,43.6336934,0 -72.3000701,43.6335895,0 -72.3013693,43.6332938,0 -72.3023902,43.6330774,0 -72.302992,43.6329449,0 -72.3036263,43.6328084,0 -72.30468740000001,43.6326044,0 -72.305663,43.6324179,0 -72.3070017,43.6321839,0 -72.30854170000001,43.6319191,0 -72.310087,43.631671,0 -72.3113099,43.6314791,0 -72.31212739999999,43.6313469,0 -72.31286540000001,43.631243,0 -72.31333669999999,43.6311774,0 -72.31375420000001,43.6311332,0 -72.3141251,43.6311142,0 -72.3146119,43.6310945,0 -72.3150144,43.631085,0 -72.31549939999999,43.6311024,0 -72.31603200000001,43.6311294,0 -72.3164927,43.631174,0 -72.3170276,43.6312347,0 -72.3176957,43.6313328,0 -72.3186525,43.6314747,0 -72.31959759999999,43.6316256,0 -72.3201767,43.6317062,0 -72.3208324,43.6317974,0 -72.3219014,43.6319714,0 -72.3222221,43.6320401,0 -72.323004,43.6322074,0 -72.3234063,43.6323226,0 -72.3245589,43.6327652,0 -72.3250422,43.6329659,0 -72.3264865,43.6336,0 -72.3271038,43.6338603,0 -72.3289877,43.6346325,0 -72.32945460000001,43.6348417,0 
				
					-72.32945460000001,43.6348417,0 -72.3306219,43.6353882,0 -72.331385,43.6357415,0 -72.3320233,43.6360605,0 -72.33257159999999,43.6363839,0 -72.3329289,43.6365974,0 -72.3337686,43.6371221,0 -72.3350744,43.6379148,0 -72.33705019999999,43.6391563,0 -72.3378846,43.6396794,0 -72.3397354,43.6408462,0 -72.3402656,43.6411867,0 -72.341517,43.6419574,0 -72.3425764,43.6426237,0 -72.3442374,43.6436937,0 -72.3449313,43.6441819,0 -72.3453772,43.6445732,0 -72.3458681,43.6451651,0 -72.3461195,43.6455399,0 -72.3462904,43.645899,0 -72.3464262,43.6462914,0 -72.3464575,43.6464082,0 -72.34650120000001,43.6465713,0 -72.34652560000001,43.6467241,0 -72.34655429999999,43.6469044,0 -72.3465685,43.6472817,0 -72.3465331,43.6477011,0 -72.3463328,43.649073,0 -72.3462528,43.6497236,0 -72.346238,43.6503334,0 -72.3462983,43.6509298,0 -72.34642150000001,43.6514577,0 -72.3465922,43.6518664,0 -72.3467431,43.6522277,0 -72.3471491,43.6529134,0 -72.3498462,43.6569648,0 -72.35012759999999,43.6573402,0 -72.3504023,43.6576476,0 -72.3509956,43.6582199,0 -72.3513873,43.6585181,0 -72.35197669999999,43.6589032,0 -72.3525252,43.6591507,0 -72.35301440000001,43.6593189,0 -72.3537869,43.6595493,0 -72.354709,43.6597839,0 -72.3555623,43.6599559,0 -72.3562412,43.660065,0 -72.3579352,43.6602657,0 -72.3591267,43.660429,0 -72.36382949999999,43.6611892,0 -72.3698198,43.6621244,0 -72.3731425,43.6626422,0 -72.3746079,43.6628705,0 -72.3762406,43.6631308,0 -72.37689140000001,43.6632192,0 -72.3775687,43.6633169,0 -72.37823539999999,43.6634094,0 -72.3787014,43.6634754,0 -72.3790612,43.6635544,0 -72.37959669999999,43.663689,0 -72.37997850000001,43.6637996,0 -72.38041870000001,43.6639412,0 -72.38090699999999,43.664127,0 -72.3813518,43.6643138,0 -72.38189199999999,43.6645735,0 -72.3824247,43.6648738,0 -72.3828882,43.6651532,0 -72.3833345,43.6654512,0 -72.383798,43.6657803,0 -72.3844331,43.6662335,0 -72.3848022,43.6664818,0 -72.38526570000001,43.6668171,0 -72.3854888,43.6669723,0 -72.3856352,43.6670731,0 -72.3858322,43.6672207,0 -72.385903,43.6672781,0 -72.3869162,43.6680078,0 -72.3877253,43.6686193,0 -72.38806460000001,43.668897,0 -72.3882533,43.6690592,0 -72.3895339,43.6701201,0 -72.3896079,43.6701809,0 -72.393102,43.6730876,0 -72.39328070000001,43.6732304,0 -72.3950933,43.6747389,0 -72.3953626,43.6749738,0 -72.39578849999999,43.6753349,0 -72.396355,43.6758501,0 -72.3967756,43.676266,0 -72.3971275,43.6766509,0 -72.39751699999999,43.6770854,0 -72.3978828,43.6775138,0 -72.39810180000001,43.6777842,0 -72.3984145,43.6781966,0 -72.39862909999999,43.6785118,0 -72.3988698,43.6788918,0 -72.3991408,43.6793644,0 -72.3993621,43.6797821,0 -72.399505,43.6800588,0 -72.4008439,43.68261,0 -72.4010285,43.6829578,0 -72.40177660000001,43.6843862,0 -72.4027236,43.6862721,0 -72.40329699999999,43.687378,0 -72.40423699999999,43.6892364,0 -72.405801,43.69225,0 -72.406212,43.69305,0 -72.40777799999999,43.696105,0 -72.40916489999999,43.6987952,0 -72.4093573,43.6991708,0 -72.4103751,43.701134,0 -72.4108296,43.7020604,0 -72.4123598,43.7050597,0 -72.41275899999999,43.705806,0 -72.4129318,43.7061196,0 -72.413236,43.706749,0 -72.4133058,43.7068785,0 -72.41344700000001,43.707231,0 -72.413617,43.707717,0 -72.413741,43.708212,0 -72.413822,43.708714,0 -72.413858,43.709215,0 -72.41385200000001,43.709719,0 -72.41379999999999,43.710219,0 -72.413706,43.71072,0 -72.41316999999999,43.712986,0 -72.41265300000001,43.715172,0 -72.412341,43.716661,0 -72.412323,43.7173282,0 -72.41243900000001,43.718167,0 -72.4126235,43.7188066,0 -72.41296699999999,43.7195376,0 -72.41323420000001,43.7199431,0 -72.4135905,43.7203948,0 -72.4137497,43.7205926,0 -72.4143334,43.7211568,0 -72.414992,43.721656,0 -72.415499,43.721986,0 -72.416055,43.722289,0 -72.41664,43.722558,0 -72.417901,43.72308,0 -72.4193592,43.7236935,0 -72.4208442,43.7242996,0 -72.4226889,43.7250524,0 -72.423638,43.725456,0 -72.424009,43.72561,0 -72.424812,43.725942,0 -72.425499,43.726226,0 -72.42748,43.727044,0 -72.428056,43.727319,0 -72.428483,43.727559,0 -72.42860899999999,43.72763,0 -72.42911700000001,43.727977,0 -72.42933960000001,43.7281608,0 -72.429576,43.728356,0 -72.429976,43.728772,0 -72.43032599999999,43.729204,0 -72.430483,43.729453,0 -72.430617,43.729665,0 -72.430836,43.730141,0 -72.43099599999999,43.730632,0 -72.431112,43.731132,0 -72.43157100000001,43.733638,0 -72.431781,43.734636,0 -72.43190800000001,43.735129,0 -72.432237,43.73611,0 -72.432653,43.737072,0 -72.4327911,43.7373453,0 -72.432892,43.737545,0 -72.4329918,43.7377174,0 -72.43342699999999,43.738469,0 -72.43404200000001,43.739366,0 -72.43427800000001,43.739661,0 -72.4343844,43.7397938,0 -72.434737,43.740234,0 -72.435506,43.741072,0 -72.43635,43.741867,0 -72.437264,43.742627,0 -72.438225,43.743356,0 -72.439134,43.744039,0 -72.44011500000001,43.744825,0 -72.4417373,43.7463016,0 -72.4424614,43.7472583,0 -72.44298449999999,43.7480687,0 -72.445649,43.752882,0 -72.447092,43.755705,0 -72.447582,43.756638,0 -72.447799,43.757112,0 -72.44797199999999,43.757596,0 -72.448095,43.75809,0 -72.448165,43.75859,0 -72.44817999999999,43.759097,0 -72.448155,43.759597,0 -72.44795000000001,43.760589,0 -72.447783,43.761076,0 -72.44730199999999,43.762017,0 -72.446505,43.763404,0 -72.446248,43.76387,0 -72.446004,43.764335,0 -72.44584500000001,43.764746,0 -72.445632,43.765299,0 -72.445415,43.766292,0 -72.44537,43.767298,0 -72.44537699999999,43.768811,0 -72.4452527,43.7706259,0 -72.4451684,43.771339,0 -72.444911,43.772799,0 -72.4448412,43.7731946,0 -72.44455000000001,43.774846,0 -72.44443,43.7761966,0 -72.4445376,43.7779733,0 -72.444607,43.778364,0 -72.444971,43.779854,0 -72.445336,43.780827,0 -72.445825,43.781769,0 -72.446442,43.782671,0 -72.44717900000001,43.78352,0 -72.4474749,43.7838102,0 -72.447593,43.783926,0 -72.4478586,43.7841681,0 -72.44828,43.784509,0 -72.44850599999999,43.784686,0 -72.44884399999999,43.784917,0 -72.44903549999999,43.7850253,0 -72.44956070000001,43.7853306,0 -72.45003610000001,43.7855696,0 -72.45062059999999,43.7858363,0 -72.4512225,43.7860522,0 -72.4519646,43.7862594,0 -72.4523279,43.786337,0 -72.4526292,43.78637,0 -72.45311409999999,43.7864348,0 -72.45358830000001,43.7864763,0 -72.4542113,43.7864923,0 -72.4549162,43.7864347,0 -72.45554799999999,43.786347,0 -72.456059,43.786232,0 -72.4586132,43.785589,0 -72.460555,43.7850849,0 -72.461191,43.7849139,0 -72.4625235,43.7845812,0 -72.46527279999999,43.7838496,0 -72.467152,43.783355,0 -72.468469,43.783036,0 -72.46914,43.782901,0 -72.469818,43.78279,0 -72.4707666,43.7826686,0 -72.47264199999999,43.7824368,0 -72.47411270000001,43.7822255,0 -72.4750911,43.7820828,0 -72.4758164,43.7819881,0 -72.47680560000001,43.7819209,0 -72.47736,43.781909,0 -72.478053,43.781928,0 -72.478478,43.7819581,0 -72.4787208,43.7819753,0 -72.47948030000001,43.782071,0 -72.480113,43.782182,0 -72.48078099999999,43.782331,0 -72.482043,43.7826736,0 -72.4822894,43.7827439,0 -72.4842094,43.7832912,0 -72.488986,43.7846579,0 -72.4901978,43.7850442,0 -72.4910194,43.7853502,0 -72.4918236,43.7856822,0 -72.4929423,43.7861958,0 -72.4936991,43.7865877,0 -72.4945333,43.7870583,0 -72.49555650000001,43.7877072,0 -72.50198279999999,43.7921123,0 -72.5028691,43.7927322,0 -72.5036985,43.7932849,0 -72.50438699999999,43.7937975,0 -72.5049063,43.7942232,0 -72.50543500000001,43.7946886,0 -72.5060579,43.7952915,0 -72.5069053,43.7961852,0 -72.50859989999999,43.7980094,0 -72.51082510000001,43.8003565,0 -72.51334230000001,43.8030567,0 -72.5155626,43.805525,0 -72.5167931,43.8069671,0 -72.5179754,43.8083861,0 -72.51811600000001,43.808532,0 -72.518811,43.809395,0 -72.5196783,43.8104889,0 -72.52086629999999,43.8121199,0 -72.52184099999999,43.813357,0 -72.52279900000001,43.814698,0 -72.523685,43.81597,0 -72.523736,43.816043,0 -72.52384600000001,43.816204,0 -72.524657,43.817398,0 -72.526511,43.820102,0 -72.526838,43.820546,0 -72.52721200000001,43.820967,0 -72.527652,43.821354,0 -72.52815200000001,43.821713,0 -72.528704,43.822024,0 -72.529292,43.822289,0 -72.529911,43.822509,0 -72.53056100000001,43.822692,0 -72.531223,43.822842,0 -72.531901,43.822957,0 -72.532589,43.823031,0 -72.533322,43.823071,0 -72.533969,43.823072,0 -72.534659,43.823039,0 -72.535343,43.822963,0 -72.53601500000001,43.822838,0 -72.53666200000001,43.822662,0 -72.537282,43.822431,0 -72.53786100000001,43.822156,0 -72.538394,43.821837,0 -72.538875,43.821476,0 -72.5393,43.821082,0 -72.539659,43.82065,0 -72.539958,43.820194,0 -72.540183,43.819717,0 -72.54034,43.819226,0 -72.540458,43.81873,0 -72.540683,43.817735,0 -72.54080999999999,43.81724,0 -72.54116500000001,43.81627,0 -72.54164900000001,43.815323,0 -72.541939,43.814864,0 -72.542259,43.814415,0 -72.542607,43.813979,0 -72.54340000000001,43.813155,0 -72.543851,43.812765,0 -72.544331,43.81241,0 -72.5448214,43.8120867,0 -72.5455333,43.8117016,0 -72.5461495,43.8114356,0 -72.5467592,43.8112541,0 -72.54729500000001,43.811114,0 -72.547962,43.810984,0 -72.548653,43.810914,0 -72.549346,43.81088,0 -72.550037,43.810904,0 -72.556573,43.811436,0 -72.559011,43.811635,0 -72.559702,43.811705,0 -72.560385,43.811814,0 -72.56105599999999,43.811941,0 -72.561717,43.81211,0 -72.562358,43.812315,0 -72.562979,43.812543,0 -72.563267,43.812661,0 -72.563585,43.812792,0 -72.56469800000001,43.813388,0 -72.56516240000001,43.8136932,0 -72.5655046,43.8139353,0 -72.5658566,43.8142056,0 -72.566183,43.8144855,0 -72.5669698,43.8152254,0 -72.5678271,43.8160312,0 -72.57429260000001,43.8221278,0 -72.575684,43.823422,0 -72.5769049,43.8245824,0 -72.5790568,43.8266252,0 -72.5794185,43.8269669,0 -72.57998379999999,43.8274803,0 -72.58027199999999,43.8277224,0 -72.58062,43.8280051,0 -72.5809112,43.828225,0 -72.5812098,43.8284422,0 -72.5817883,43.8288523,0 -72.5821413,43.8290818,0 -72.5826459,43.8293854,0 -72.583162,43.829673,0 -72.58372900000001,43.829998,0 -72.585937,43.831209,0 -72.58648549999999,43.8315138,0 -72.587019,43.831832,0 -72.587552,43.832193,0 -72.58801,43.8325197,0 -72.5885629,43.8329696,0 -72.58905970000001,43.8334235,0 -72.5897155,43.8341051,0 -72.5901436,43.834638,0 -72.5903618,43.8349208,0 -72.591703,43.836794,0 -72.593886,43.839874,0 -72.594837,43.841201,0 -72.595778,43.842546,0 -72.597725,43.845291,0 -72.59862099999999,43.846554,0 -72.598949,43.846995,0 -72.59929700000001,43.847424,0 -72.599678,43.847841,0 -72.600086,43.848242,0 -72.600517,43.848632,0 -72.60342,43.851164,0 -72.60405900000001,43.851721,0 -72.604203,43.851849,0 -72.60449,43.852103,0 -72.605266,43.852938,0 -72.605599,43.853384,0 -72.60588,43.853846,0 -72.60614200000001,43.854312,0 -72.606343,43.854791,0 -72.60651,43.855282,0 -72.606629,43.855773,0 -72.606702,43.856272,0 -72.606741,43.856772,0 -72.60693999999999,43.859796,0 -72.607012,43.860804,0 -72.607129,43.8618,0 -72.60732400000001,43.862793,0 -72.60757,43.863775,0 -72.60774600000001,43.864332,0 -72.608093,43.865301,0 -72.6083333,43.8658715,0 -72.608504,43.866258,0 -72.609223,43.867671,0 -72.61173599999999,43.872371,0 -72.61249599999999,43.873775,0 -72.61398699999999,43.876599,0 -72.614616,43.878036,0 -72.61492800000001,43.879122,0 -72.61503999999999,43.879512,0 -72.615289,43.881018,0 -72.61591199999999,43.885402,0 -72.61614040000001,43.8870899,0 -72.61635,43.888549,0 -72.616393,43.888924,0 -72.616428,43.8893,0 -72.616451,43.889676,0 -72.61646500000001,43.890051,0 -72.61647000000001,43.890426,0 -72.616466,43.890801,0 -72.616451,43.891178,0 -72.616427,43.891554,0 -72.616393,43.89193,0 -72.616349,43.892308,0 -72.616297,43.892688,0 -72.616231,43.893066,0 -72.616078,43.893821,0 -72.615402,43.896992,0 -72.61474200000001,43.900088,0 -72.61405499999999,43.903307,0 -72.613505,43.905907,0 -72.613223,43.907215,0 -72.61295699999999,43.908507,0 -72.612886,43.908827,0 -72.612708,43.909809,0 -72.612616,43.910473,0 -72.612577,43.910798,0 -72.612516,43.911433,0 -72.612472,43.912068,0 -72.612443,43.912706,0 -72.612435,43.913016,0 -72.612436,43.913655,0 -72.61245599999999,43.914294,0 -72.61249100000001,43.91493,0 -72.612515,43.915254,0 -72.612578,43.915891,0 -72.61266000000001,43.916535,0 -72.612768,43.91723,0 -72.612883,43.917867,0 -72.613018,43.91849,0 -72.613165,43.919107,0 -72.613347,43.91977,0 -72.61356000000001,43.920467,0 -72.613784,43.921124,0 -72.614037,43.921805,0 -72.614305,43.922483,0 -72.61459600000001,43.923149,0 -72.614907,43.92381,0 -72.61524199999999,43.924464,0 -72.61558599999999,43.925106,0 -72.61611000000001,43.926066,0 -72.618247,43.929897,0 -72.619131,43.931496,0 -72.61947000000001,43.932141,0 -72.619634,43.932473,0 -72.619945,43.93314,0 -72.620238,43.933814,0 -72.620377,43.934153,0 -72.620636,43.934835,0 -72.620875,43.935521,0 -72.620985,43.935857,0 -72.621093,43.93622,0 -72.62118100000001,43.936516,0 -72.62127099999999,43.936836,0 -72.62144499999999,43.937524,0 -72.621588,43.93816,0 -72.621706,43.938784,0 -72.621808,43.939404,0 -72.6218645,43.9398409,0 -72.62195749999999,43.9406196,0 -72.621996,43.940989,0 -72.62202000000001,43.941298,0 -72.622038,43.941626,0 -72.622072,43.942896,0 -72.62206399999999,43.943533,0 -72.62204800000001,43.943912,0 -72.62203700000001,43.944166,0 -72.62199,43.944804,0 -72.621948,43.945267,0 -72.621769,43.947257,0 -72.62158100000001,43.949338,0 -72.621448,43.950836,0 -72.621425,43.951164,0 -72.62141200000001,43.951474,0 -72.6213887,43.9519894,0 -72.621392,43.9523777,0 -72.6213997,43.9526635,0 -72.621422,43.9530169,0 -72.6214524,43.9533661,0 -72.62150099999999,43.953721,0 -72.62158700000001,43.954382,0 -72.62164,43.954702,0 -72.621709,43.955056,0 -72.62186800000001,43.955741,0 -72.622303,43.957418,0 -72.622471,43.958052,0 -72.62499800000001,43.967597,0 -72.62515999999999,43.968238,0 -72.625299,43.968868,0 -72.625421,43.969497,0 -72.62552599999999,43.970128,0 -72.625608,43.97076,0 -72.6257167,43.9731856,0 -72.625719,43.97651,0 -72.625714,43.976716,0 -72.625683,43.978236,0 -72.625595,43.982866,0 -72.62556600000001,43.984141,0 -72.625544,43.984768,0 -72.625463,43.986024,0 -72.625411,43.986659,0 -72.625353,43.987291,0 -72.625282,43.987925,0 -72.625201,43.988576,0 -72.62511000000001,43.989224,0 -72.624909,43.990484,0 -72.624646,43.991855,0 -72.6243516,43.9931332,0 -72.624066,43.994327,0 -72.624011,43.994547,0 -72.623633,43.995867,0 -72.623223,43.997172,0 -72.623216,43.997196,0 -72.6229644,43.9979111,0 -72.62264,43.998858,0 -72.622257,43.999958,0 -72.621285,44.002712,0 -72.62095170000001,44.003645,0 -72.62052799999999,44.00487,0 -72.619355,44.008217,0 -72.618917,44.009568,0 -72.618707,44.010259,0 -72.618323,44.011637,0 -72.618004,44.012971,0 -72.617858,44.013628,0 -72.617726,44.01429,0 -72.617583,44.015067,0 -72.617368,44.016232,0 -72.61715100000001,44.017536,0 -72.616715,44.020059,0 -72.616491,44.021326,0 -72.616277,44.022592,0 -72.61580499999999,44.025289,0 -72.6157487,44.0256153,0 -72.61569799999999,44.025909,0 -72.615584,44.026569,0 -72.615146,44.029101,0 -72.614897,44.030358,0 -72.61475299999999,44.030985,0 -72.614597,44.031627,0 -72.614417,44.032293,0 -72.614222,44.032973,0 -72.614011,44.033663,0 -72.61378000000001,44.034352,0 -72.61354,44.03504,0 -72.613285,44.035724,0 -72.613013,44.036404,0 -72.612729,44.037081,0 -72.61243,44.037746,0 -72.61212399999999,44.038403,0 -72.611807,44.039057,0 -72.611628,44.03941,0 -72.611479,44.039703,0 -72.6111927,44.040234,0 -72.610776,44.040987,0 -72.61040800000001,44.041618,0 -72.61002499999999,44.042245,0 -72.609855,44.042516,0 -72.609752,44.04268,0 -72.60888,44.044069,0 -72.60691799999999,44.047204,0 -72.605554,44.049367,0 -72.605369,44.04968,0 -72.605193,44.049997,0 -72.605031,44.050322,0 -72.60489099999999,44.050658,0 -72.604772,44.051003,0 -72.60467300000001,44.05135,0 -72.604597,44.051686,0 -72.60454900000001,44.051991,0 -72.604516,44.052315,0 -72.604499,44.052621,0 -72.6045,44.052945,0 -72.60452100000001,44.053269,0 -72.60455899999999,44.053575,0 -72.60478999999999,44.054852,0 -72.60519619999999,44.0569921,0 -72.6052917,44.0574952,0 -72.605571,44.058967,0 -72.606264,44.062597,0 -72.6067994,44.0654342,0 -72.606977,44.06638,0 -72.60747000000001,44.068952,0 -72.60759299999999,44.069593,0 -72.60772799999999,44.070221,0 -72.607816,44.070571,0 -72.60791999999999,44.070919,0 -72.60803300000001,44.071265,0 -72.608158,44.071609,0 -72.608293,44.07195,0 -72.608437,44.072283,0 -72.608591,44.072611,0 -72.608756,44.072935,0 -72.609792,44.074866,0 -72.60989499999999,44.075055,0 -72.61153400000001,44.078072,0 -72.612235,44.079353,0 -72.61255,44.079952,0 -72.612573,44.079996,0 -72.612888,44.080658,0 -72.613163,44.081332,0 -72.613271,44.081634,0 -72.613287,44.081678,0 -72.6134,44.082025,0 -72.613501,44.082374,0 -72.61358199999999,44.082675,0 -72.61365600000001,44.082995,0 -72.613715,44.083296,0 -72.613747,44.083512,0 -72.61380699999999,44.083921,0 -72.61384700000001,44.084246,0 -72.613895,44.084873,0 -72.613907,44.08518,0 -72.61391,44.085507,0 -72.613905,44.085818,0 -72.61388700000001,44.086146,0 -72.613826,44.086782,0 -72.61378499999999,44.087092,0 -72.613732,44.087415,0 -72.613665,44.087754,0 -72.613585,44.088109,0 -72.613491,44.088461,0 -72.61339,44.088813,0 -72.613164,44.089508,0 -72.612568,44.091237,0 -72.61210699999999,44.092606,0 -72.61189,44.093303,0 -72.611711,44.093956,0 -72.611549,44.094612,0 -72.611413,44.095258,0 -72.611287,44.095936,0 -72.611181,44.096637,0 -72.61110499999999,44.097278,0 -72.61104400000001,44.097919,0 -72.610996,44.09859,0 -72.61097599999999,44.099248,0 -72.610973,44.099896,0 -72.610984,44.100359,0 -72.61098800000001,44.100545,0 -72.611018,44.101194,0 -72.611069,44.10185,0 -72.611141,44.102503,0 -72.611233,44.103163,0 -72.61153400000001,44.10509,0 -72.611559,44.105394,0 -72.61157300000001,44.105717,0 -72.611577,44.106025,0 -72.611565,44.106352,0 -72.611538,44.106661,0 -72.61149500000001,44.106985,0 -72.611447,44.107292,0 -72.611383,44.107616,0 -72.611301,44.107938,0 -72.61120200000001,44.10827,0 -72.611082,44.108614,0 -72.61094,44.108954,0 -72.61079100000001,44.10929,0 -72.610626,44.109615,0 -72.610282,44.110257,0 -72.609222,44.11218,0 -72.6085686,44.11332,0 -72.60768229999999,44.1148898,0 -72.6074223,44.1153694,0 -72.60697140000001,44.1162266,0 -72.606677,44.11677,0 -72.6061091,44.1178548,0 -72.6057698,44.1185495,0 -72.605312,44.119512,0 -72.60465600000001,44.120819,0 -72.60409900000001,44.121942,0 -72.604007,44.122128,0 -72.60334899999999,44.123429,0 -72.602718,44.124727,0 -72.602234,44.125696,0 -72.601754,44.126691,0 -72.601259,44.128065,0 -72.601023,44.129018,0 -72.600866,44.130006,0 -72.60060199999999,44.132274,0 -72.600492,44.13319,0 -72.60044499999999,44.133578,0 -72.600176,44.134936,0 -72.59984900000001,44.13598,0 -72.59927500000001,44.137319,0 -72.598359,44.138889,0 -72.59751199999999,44.140069,0 -72.596446,44.141538,0 -72.59407899999999,44.144799,0 -72.59321799999999,44.145979,0 -72.591706,44.148069,0 -72.590198,44.150134,0 -72.58891199999999,44.151911,0 -72.58762299999999,44.153669,0 -72.58696999999999,44.154541,0 -72.586308,44.155415,0 -72.585633,44.156286,0 -72.584953,44.157148,0 -72.584266,44.158,0 -72.58335599999999,44.159152,0 -72.583147,44.15941,0 -72.582173,44.160628,0 -72.580421,44.162822,0 -72.57961,44.163862,0 -72.57858400000001,44.165336,0 -72.57831229999999,44.1657372,0 -72.578081,44.166174,0 -72.57790199999999,44.166491,0 -72.57766100000001,44.166941,0 -72.5773485,44.1675235,0 -72.57712859999999,44.1680062,0 -72.576888,44.168593,0 -72.576545,44.169476,0 -72.576442,44.169748,0 -72.576145,44.170532,0 -72.57599,44.1712,0 -72.575907,44.17163,0 -72.57581500000001,44.172055,0 -72.575585,44.173355,0 -72.575475,44.174591,0 -72.5754501,44.1750447,0 -72.575435,44.175334,0 -72.57543,44.175458,0 -72.575429,44.175894,0 -72.57544,44.176233,0 -72.575473,44.177214,0 -72.575653,44.181144,0 -72.575729,44.182443,0 -72.575729,44.182451,0 -72.575917,44.185069,0 -72.576218,44.188989,0 -72.576412,44.191595,0 -72.576508,44.192887,0 -72.576808,44.196816,0 -72.576931,44.198126,0 -72.57699,44.198556,0 -72.57707000000001,44.198984,0 -72.577168,44.199407,0 -72.57727800000001,44.199829,0 -72.577406,44.200248,0 -72.577547,44.20066,0 -72.577699,44.201066,0 -72.57787,44.201466,0 -72.578239,44.202262,0 -72.57880400000001,44.203452,0 -72.5814192,44.2090628,0 -72.581571,44.209379,0 -72.582103,44.210568,0 -72.5824113,44.211315,0 -72.5825676,44.2117139,0 -72.5826005,44.2118048,0 -72.582887,44.212597,0 -72.58326599999999,44.214075,0 -72.5835458,44.215405,0 -72.58364469999999,44.2158749,0 -72.58396999999999,44.217421,0 -72.584031,44.217805,0 -72.584209,44.218693,0 -72.584413,44.219546,0 -72.584616,44.220473,0 -72.58495310000001,44.2220669,0 -72.584976,44.222175,0 -72.585256,44.223501,0 -72.5853003,44.2237102,0 -72.585967,44.226858,0 -72.586178,44.228154,0 -72.586203,44.228593,0 -72.58617,44.229469,0 -72.586034,44.230333,0 -72.585809,44.231178,0 -72.585053,44.233697,0 -72.58471400000001,44.234965,0 -72.58461200000001,44.235741,0 -72.584543,44.236271,0 -72.58453799999999,44.236752,0 -72.584563,44.237205,0 -72.58457199999999,44.237365,0 -72.58463,44.237796,0 -72.584918,44.239078,0 -72.585443,44.241201,0 -72.585796,44.242613,0 -72.586079,44.243742,0 -72.58632299999999,44.24458,0 -72.58648700000001,44.244984,0 -72.58669500000001,44.245367,0 -72.586944,44.245726,0 -72.587226,44.246059,0 -72.58753,44.246367,0 -72.587864,44.246648,0 -72.588144,44.2468329,0 -72.58861419999999,44.2471032,0 -72.5890641,44.2473378,0 -72.5895155,44.2475558,0 -72.589789,44.24766,0 -72.590205,44.247793,0 -72.590625,44.247919,0 -72.591042,44.248049,0 -72.591593,44.248203,0 -72.592037,44.248357,0 -72.5935602,44.2490204,0 -72.5941728,44.2493489,0 -72.59477870000001,44.2497284,0 -72.5955361,44.2503047,0 -72.5957379,44.2504717,0 -72.5959529,44.2506751,0 -72.59617299999999,44.250924,0 -72.59652,44.25131,0 -72.596817,44.251681,0 -72.597067,44.252039,0 -72.5992731,44.2552643,0 -72.5994255,44.2554871,0 -72.6009739,44.2577604,0 -72.60125600000001,44.258173,0 -72.60154799999999,44.258591,0 -72.601862,44.258988,0 -72.60221,44.25935,0 -72.602593,44.259677,0 -72.603005,44.259972,0 -72.603435,44.26023,0 -72.603887,44.260455,0 -72.604354,44.260649,0 -72.604845,44.260812,0 -72.60535,44.260949,0 -72.60588,44.261056,0 -72.60695699999999,44.261178,0 -72.608216,44.261271,0 -72.60965299999999,44.261378,0 -72.61054,44.261489,0 -72.610725,44.261512,0 -72.61175299999999,44.26174,0 -72.61274299999999,44.26205,0 -72.61377899999999,44.262492,0 -72.614164,44.262656,0 -72.615556,44.263289,0 -72.616469,44.263699,0 -72.616962,44.26392,0 -72.61975200000001,44.265185,0 -72.62050600000001,44.265524,0 -72.6226592,44.2664851,0 -72.6234039,44.2668037,0 -72.624424,44.26724,0 -72.6247419,44.267374,0 -72.62524999999999,44.267588,0 -72.62584699999999,44.267839,0 -72.62866,44.269002,0 -72.630082,44.269581,0 -72.631503,44.270177,0 -72.632918,44.270765,0 -72.634342,44.271342,0 -72.63578,44.271868,0 -72.637232,44.272334,0 -72.63869,44.27281,0 -72.64518099999999,44.2748952,0 -72.64714499999999,44.275536,0 -72.647544,44.275665,0 -72.64852500000001,44.275984,0 -72.64946500000001,44.276284,0 -72.649976,44.276447,0 -72.652889,44.277389,0 -72.65356199999999,44.277605,0 -72.654369,44.277863,0 -72.655343,44.278183,0 -72.65631399999999,44.278523,0 -72.657248,44.278973,0 -72.658095,44.279569,0 -72.658817,44.280324,0 -72.659677,44.281595,0 -72.66164499999999,44.284588,0 -72.66220800000001,44.285444,0 -72.663059,44.286725,0 -72.663647,44.287553,0 -72.664309,44.28832,0 -72.66504500000001,44.289023,0 -72.66583199999999,44.289664,0 -72.666668,44.290242,0 -72.66754299999999,44.290755,0 -72.668452,44.291219,0 -72.66937799999999,44.291616,0 -72.67034,44.291962,0 -72.67071199999999,44.292074,0 -72.671322,44.292257,0 -72.67232799999999,44.292497,0 -72.673824,44.292835,0 -72.674817,44.293054,0 -72.67580700000001,44.293304,0 -72.676782,44.293632,0 -72.677727,44.294034,0 -72.679089,44.294758,0 -72.679181,44.2948084,0 -72.6825443,44.2966509,0 -72.683831,44.29736,0 -72.684287,44.297601,0 -72.6848705,44.2979744,0 -72.6854336,44.2983646,0 -72.68576,44.298603,0 -72.685968,44.298774,0 -72.686325,44.299078,0 -72.686796,44.299511,0 -72.687256,44.299965,0 -72.68791299999999,44.300758,0 -72.68849,44.301612,0 -72.689052,44.302631,0 -72.68922999999999,44.302953,0 -72.691419,44.306948,0 -72.6921275,44.3082526,0 -72.692666,44.309211,0 -72.69320999999999,44.310069,0 -72.69384100000001,44.31086,0 -72.694543,44.311593,0 -72.695303,44.312262,0 -72.696118,44.312871,0 -72.696983,44.313417,0 -72.697873,44.313902,0 -72.698796,44.314328,0 -72.699765,44.314706,0 -72.700761,44.315028,0 -72.70175500000001,44.315286,0 -72.702758,44.315492,0 -72.70377000000001,44.315646,0 -72.704798,44.31575,0 -72.705826,44.315796,0 -72.706884,44.315793,0 -72.707927,44.315738,0 -72.708963,44.315628,0 -72.709985,44.315464,0 -72.71148100000001,44.315131,0 -72.71247200000001,44.314895,0 -72.713486,44.314696,0 -72.7137568,44.3146591,0 -72.7140441,44.314628,0 -72.71436850000001,44.3145971,0 -72.7146815,44.3145785,0 -72.7150075,44.3145738,0 -72.7153465,44.3145792,0 -72.715698,44.3145957,0 -72.716015,44.3146181,0 -72.7163303,44.3146563,0 -72.7166118,44.3146974,0 -72.7168753,44.3147479,0 -72.7171357,44.3148028,0 -72.71748169999999,44.3148867,0 -72.717753,44.314957,0 -72.7181866,44.3151035,0 -72.718602,44.31525,0 -72.720007,44.315851,0 -72.72141499999999,44.31646,0 -72.72281599999999,44.31708,0 -72.72332400000001,44.3173195,0 -72.723744,44.317533,0 -72.724625,44.318058,0 -72.725476,44.318643,0 -72.726687,44.319581,0 -72.730301,44.322452,0 -72.731116,44.323078,0 -72.73195699999999,44.323642,0 -72.732854,44.324127,0 -72.73378200000001,44.324532,0 -72.73666299999999,44.3256,0 -72.73763099999999,44.325955,0 -72.738585,44.32633,0 -72.739524,44.326755,0 -72.740436,44.327235,0 -72.741311,44.327771,0 -72.74215100000001,44.328358,0 -72.74295499999999,44.329009,0 -72.7434945,44.3295245,0 -72.743697,44.329718,0 -72.744381,44.330484,0 -72.744997,44.331305,0 -72.74552799999999,44.332185,0 -72.745555,44.332242,0 -72.745965,44.333115,0 -72.746298,44.33408,0 -72.746514,44.335074,0 -72.746635,44.336081,0 -72.74673900000001,44.3371,0 -72.746858,44.33811,0 -72.7468978,44.3383602,0 -72.746954,44.338612,0 -72.747021,44.338852,0 -72.74710330000001,44.339092,0 -72.7471924,44.3393237,0 -72.7472973,44.3395496,0 -72.74753200000001,44.339979,0 -72.7475843,44.3400617,0 -72.74785,44.340394,0 -72.74833630000001,44.3409014,0 -72.74867500000001,44.3411951,0 -72.74895309999999,44.3414191,0 -72.7493231,44.3416826,0 -72.74983899999999,44.34197,0 -72.75028,44.342215,0 -72.750911,44.342583,0 -72.751372,44.342824,0 -72.75182599999999,44.343072,0 -72.752921,44.343665,0 -72.75336799999999,44.343901,0 -72.754211,44.344276,0 -72.754429,44.34435,0 -72.754582,44.344402,0 -72.75506,44.344556,0 -72.756056,44.344801,0 -72.757086,44.344959,0 -72.757606,44.345006,0 -72.75864300000001,44.345033,0 -72.7594349,44.3450057,0 -72.761776,44.344925,0 -72.76230200000001,44.344913,0 -72.762507,44.344918,0 -72.762821,44.344926,0 -72.763339,44.344966,0 -72.76384400000001,44.345029,0 -72.764352,44.345137,0 -72.764528,44.345184,0 -72.764859,44.345272,0 -72.76534700000001,44.345442,0 -72.76582399999999,44.34565,0 -72.766288,44.345896,0 -72.767139,44.346483,0 -72.76834599999999,44.347445,0 -72.770753,44.349348,0 -72.771214,44.349688,0 -72.771574,44.349953,0 -72.77243900000001,44.350493,0 -72.77332699999999,44.35098,0 -72.774259,44.351419,0 -72.7752,44.351805,0 -72.776156,44.352144,0 -72.777124,44.352433,0 -72.77738909999999,44.3524963,0 -72.7784735,44.3527413,0 -72.779122,44.352866,0 -72.77963200000001,44.352953,0 -72.7803246,44.3530719,0 -72.7807645,44.3531525,0 -72.781964,44.35333,0 -72.78297499999999,44.353549,0 -72.783958,44.353858,0 -72.784261,44.353989,0 -72.784915,44.354272,0 -72.78585200000001,44.354696,0 -72.78612699999999,44.354843,0 -72.786317,44.35492,0 -72.787566,44.355515,0 -72.787981,44.355719,0 -72.788754,44.356086,0 -72.79195799999999,44.357593,0 -72.79430499999999,44.358701,0 -72.795232,44.359129,0 -72.79617,44.35952,0 -72.79713,44.359875,0 -72.798112,44.360191,0 -72.79909600000001,44.360467,0 -72.800077,44.360714,0 -72.801075,44.360928,0 -72.802092,44.361099,0 -72.8025859,44.3611725,0 -72.8031453,44.3612427,0 -72.8038729,44.36132,0 -72.80462730000001,44.3613838,0 -72.8053834,44.361431,0 -72.8061821,44.3614513,0 -72.806972,44.3614664,0 -72.807531,44.3614707,0 -72.8080839,44.3614767,0 -72.80855560000001,44.3614805,0 -72.80905970000001,44.3614809,0 -72.8096022,44.3614811,0 -72.810143,44.361475,0 -72.811728,44.361434,0 -72.813316,44.36135,0 -72.814356,44.361211,0 -72.815364,44.361,0 -72.816351,44.360718,0 -72.817328,44.360404,0 -72.81878399999999,44.359936,0 -72.819276,44.359783,0 -72.81976899999999,44.359639,0 -72.82025899999999,44.359519,0 -72.8205756,44.3594657,0 -72.8207628,44.35943,0 -72.8210146,44.3593965,0 -72.821285,44.359371,0 -72.8215462,44.3593539,0 -72.821817,44.359342,0 -72.822086,44.3593445,0 -72.8223428,44.3593491,0 -72.822621,44.3593691,0 -72.82289299999999,44.359395,0 -72.8231602,44.3594296,0 -72.82342199999999,44.359468,0 -72.82367290000001,44.3595169,0 -72.82393500000001,44.359571,0 -72.8241841,44.359634,0 -72.824437,44.359705,0 -72.82540299999999,44.360067,0 -72.825716,44.3602,0 -72.8268894,44.3606952,0 -72.827367,44.360884,0 -72.82751500000001,44.360936,0 -72.827726,44.361004,0 -72.82822400000001,44.361142,0 -72.828509,44.361214,0 -72.828799,44.361282,0 -72.829232,44.361364,0 -72.829453,44.361399,0 -72.829971,44.361466,0 -72.83009699999999,44.36148,0 -72.830856,44.361562,0 -72.83381799999999,44.361867,0 -72.8388822,44.3623906,0 -72.8396659,44.3624886,0 -72.84024890000001,44.3625754,0 -72.8408402,44.3626921,0 -72.8415364,44.362847,0 -72.8419178,44.3629472,0 -72.8426114,44.3631468,0 -72.8443236,44.3636501,0 -72.845851,44.364071,0 -72.847607,44.364534,0 -72.8526876,44.3658664,0 -72.857804,44.367209,0 -72.8609623,44.368039,0 -72.864133,44.368872,0 -72.86908099999999,44.370175,0 -72.870564,44.370565,0 -72.87206070000001,44.3709523,0 -72.87304,44.3712071,0 -72.8745922,44.3716183,0 -72.87569329999999,44.3719432,0 -72.8766012,44.3722625,0 -72.877408,44.3725815,0 -72.87795199999999,44.3728009,0 -72.87827489999999,44.3729312,0 -72.8796394,44.3734337,0 -72.88055799999999,44.3737717,0 -72.8817167,44.3741214,0 -72.88306799999999,44.374523,0 -72.89017200000001,44.37652,0 -72.891535,44.376905,0 -72.892234,44.377101,0 -72.892526,44.377181,0 -72.892779,44.37725,0 -72.892931,44.377293,0 -72.893629,44.377482,0 -72.8940181,44.3775727,0 -72.8945827,44.3777057,0 -72.895055,44.377812,0 -72.89570399999999,44.377932,0 -72.89592,44.377969,0 -72.896136,44.378003,0 -72.896354,44.378035,0 -72.896568,44.378063,0 -72.897869,44.37825,0 -72.898006,44.37827,0 -72.900913,44.378667,0 -72.901163,44.378701,0 -72.903758,44.379066,0 -72.905986,44.37937,0 -72.907843,44.379631,0 -72.908351,44.379699,0 -72.909899,44.379907,0 -72.910113,44.379939,0 -72.912888,44.380317,0 -72.91448099999999,44.380542,0 -72.915492,44.380707,0 -72.91671100000001,44.380944,0 -72.917783,44.381179,0 -72.918425,44.38134,0 -72.919208,44.381545,0 -72.919766,44.38171,0 -72.922077,44.382397,0 -72.922708,44.382575,0 -72.923275,44.382722,0 -72.923698,44.382833,0 -72.924127,44.382922,0 -72.92470400000001,44.383023,0 -72.92513700000001,44.383087,0 -72.92593100000001,44.383183,0 -72.92644,44.383227,0 -72.926734,44.383247,0 -72.92682000000001,44.383251,0 -72.92710099999999,44.383266,0 -72.927618,44.383282,0 -72.92769199999999,44.383284,0 -72.928952,44.383307,0 -72.929327,44.383305,0 -72.92992099999999,44.383321,0 -72.930218,44.383338,0 -72.930515,44.383363,0 -72.93081100000001,44.383398,0 -72.930953,44.38343,0 -72.93124400000001,44.383479,0 -72.931532,44.383538,0 -72.931816,44.383611,0 -72.93196399999999,44.38364,0 -72.93223999999999,44.383726,0 -72.932518,44.383823,0 -72.93279,44.383929,0 -72.93305700000001,44.384047,0 -72.93331999999999,44.384178,0 -72.933575,44.38432,0 -72.933826,44.384474,0 -72.93399100000001,44.384584,0 -72.934068,44.384635,0 -72.934307,44.384809,0 -72.934657,44.385076,0 -72.9349878,44.385348,0 -72.9354696,44.3857341,0 -72.93622999999999,44.386364,0 -72.936526,44.386583,0 -72.936797,44.386818,0 -72.937206,44.387126,0 -72.937567,44.387377,0 -72.937753,44.387497,0 -72.938282,44.387768,0 -72.938547,44.38789,0 -72.938682,44.387948,0 -72.93880799999999,44.388011,0 -72.93908500000001,44.388113,0 -72.939362,44.388204,0 -72.939718,44.388302,0 -72.93993399999999,44.388355,0 -72.940152,44.388403,0 -72.940667,44.388494,0 -72.940963,44.388535,0 -72.9422763,44.3887003,0 -72.94305180000001,44.3887982,0 -72.943702,44.388872,0 -72.944434,44.38897,0 -72.9448,44.389004,0 -72.945594,44.3891,0 -72.94580499999999,44.389139,0 -72.946378,44.389217,0 -72.946594,44.389247,0 -72.94717,44.389339,0 -72.948251,44.389534,0 -72.948894,44.389665,0 -72.9495682,44.3898026,0 -72.9503754,44.3899999,0 -72.95119680000001,44.3902168,0 -72.9529484,44.3907493,0 -72.9558775,44.3916742,0 -72.9621266,44.3936497,0 -72.9684493,44.395643,0 -72.972673,44.3969768,0 -72.9807551,44.3995277,0 -72.981728,44.399837,0 -72.982356,44.400042,0 -72.98274600000001,44.400179,0 -72.98298200000001,44.400262,0 -72.98318500000001,44.400338,0 -72.983588,44.400502,0 -72.984571,44.400978,0 -72.984764,44.401085,0 -72.98513800000001,44.401309,0 -72.985333,44.401415,0 -72.985412,44.401468,0 -72.985698,44.40166,0 -72.986053,44.401919,0 -72.986402,44.40219,0 -72.986572,44.402328,0 -72.986903,44.402614,0 -72.987225,44.402915,0 -72.98752899999999,44.403226,0 -72.98782799999999,44.403551,0 -72.98797399999999,44.403716,0 -72.988494,44.404414,0 -72.98865600000001,44.404656,0 -72.988772,44.40484,0 -72.988901,44.40502,0 -72.98911699999999,44.405402,0 -72.98925199999999,44.405662,0 -72.989435,44.406056,0 -72.989571,44.406397,0 -72.989665,44.406672,0 -72.99002299999999,44.407856,0 -72.990075,44.408061,0 -72.990579,44.409817,0 -72.990674,44.410171,0 -72.99093499999999,44.411085,0 -72.99104269999999,44.4113997,0 -72.9911571,44.4117338,0 -72.99132969999999,44.4121344,0 -72.991524,44.412502,0 -72.991632,44.412692,0 -72.991747,44.412879,0 -72.991868,44.413061,0 -72.991995,44.413239,0 -72.99212799999999,44.413415,0 -72.99226400000001,44.413585,0 -72.99255100000001,44.413913,0 -72.992699,44.414075,0 -72.99285399999999,44.414233,0 -72.99301,44.414383,0 -72.993171,44.414529,0 -72.99333799999999,44.414673,0 -72.993566,44.414857,0 -72.99372700000001,44.414998,0 -72.99452100000001,44.415591,0 -72.994848,44.415832,0 -72.995727,44.416475,0 -72.996315,44.41691,0 -72.996522,44.41706,0 -72.998097,44.418211,0 -72.99836999999999,44.418414,0 -72.998666,44.41863,0 -73.001328,44.420588,0 -73.001634,44.420796,0 -73.002681,44.421565,0 -73.0038378,44.4224113,0 -73.0041176,44.4226093,0 -73.0043005,44.4227249,0 -73.0044923,44.4228426,0 -73.004667,44.422952,0 -73.00505800000001,44.423157,0 -73.00525399999999,44.423251,0 -73.00545200000001,44.42334,0 -73.005723,44.423454,0 -73.0059605,44.4235497,0 -73.00649300000001,44.423716,0 -73.006702,44.423771,0 -73.006985,44.423839,0 -73.00727000000001,44.423901,0 -73.007485,44.423943,0 -73.007775,44.423992,0 -73.007994,44.424024,0 -73.008216,44.42405,0 -73.00899149999999,44.4241102,0 -73.0092551,44.4241138,0 -73.0096508,44.424105,0 -73.0099372,44.4240966,0 -73.010277,44.4240793,0 -73.0105552,44.4240535,0 -73.0107816,44.4240228,0 -73.0110353,44.4239768,0 -73.0117193,44.4238364,0 -73.0129874,44.4235729,0 -73.013563,44.423453,0 -73.015381,44.4230809,0 -73.0176105,44.4226336,0 -73.01855500000001,44.422451,0 -73.01870099999999,44.422424,0 -73.019065,44.422359,0 -73.019211,44.422334,0 -73.01943,44.4223,0 -73.01965,44.422269,0 -73.02001799999999,44.422223,0 -73.02016500000001,44.422206,0 -73.020387,44.422184,0 -73.02061,44.422165,0 -73.0210593,44.4221327,0 -73.0213967,44.4221104,0 -73.02172090000001,44.4220999,0 -73.0223017,44.4220892,0 -73.0229168,44.4220977,0 -73.023235,44.422113,0 -73.02368800000001,44.4221337,0 -73.02434460000001,44.4221918,0 -73.02472330000001,44.4222328,0 -73.0250899,44.4222821,0 -73.02546479999999,44.4223381,0 -73.02602520000001,44.4224382,0 -73.0264279,44.4225198,0 -73.0270277,44.4226564,0 -73.0276875,44.4228345,0 -73.0283671,44.4230418,0 -73.02919319999999,44.4233411,0 -73.02966739999999,44.4235351,0 -73.0300763,44.4237165,0 -73.0304903,44.4239092,0 -73.030868,44.424119,0 -73.031318,44.424366,0 -73.031672,44.424574,0 -73.031882,44.424704,0 -73.03243000000001,44.425071,0 -73.03278400000001,44.425326,0 -73.03295900000001,44.425459,0 -73.03313199999999,44.425601,0 -73.033297,44.425736,0 -73.033789,44.426174,0 -73.034254,44.426629,0 -73.034502,44.4269,0 -73.03458500000001,44.427,0 -73.03589700000001,44.428588,0 -73.036497,44.429324,0 -73.03678499999999,44.429654,0 -73.03708,44.429975,0 -73.037235,44.430131,0 -73.037395,44.430283,0 -73.037559,44.43043,0 -73.037727,44.430572,0 -73.03807,44.43084,0 -73.03854699999999,44.431176,0 -73.038853,44.431374,0 -73.03923399999999,44.4316,0 -73.039618,44.431806,0 -73.040012,44.432,0 -73.04041599999999,44.432181,0 -73.040617,44.432264,0 -73.041027,44.432419,0 -73.041235,44.432492,0 -73.04172699999999,44.432646,0 -73.042152,44.432769,0 -73.04236299999999,44.432825,0 -73.042788,44.432925,0 -73.04322000000001,44.433012,0 -73.04343799999999,44.43305,0 -73.043493,44.433058,0 -73.043948,44.433126,0 -73.044391,44.433184,0 -73.044839,44.433228,0 -73.045288,44.433257,0 -73.045963,44.433278,0 -73.048832,44.433348,0 -73.04996,44.433368,0 -73.050724,44.433394,0 -73.05864699999999,44.433584,0 -73.059017,44.43359,0 -73.060103,44.433617,0 -73.06161400000001,44.433648,0 -73.06209990000001,44.4336586,0 -73.062729,44.433684,0 -73.063469,44.433719,0 -73.064211,44.433762,0 -73.06495200000001,44.433817,0 -73.06622299999999,44.433926,0 -73.06635199999999,44.433937,0 -73.067457,44.434059,0 -73.06819,44.434151,0 -73.068996,44.434264,0 -73.070313,44.434459,0 -73.070897,44.434549,0 -73.0761516,44.4353474,0 -73.07882499999999,44.435762,0 -73.0809872,44.4360798,0 -73.0824952,44.4363064,0 -73.08475199999999,44.436608,0 -73.08623299999999,44.436777,0 -73.0869733,44.4368444,0 -73.088442,44.4369876,0 -73.0902023,44.4371538,0 -73.09438110000001,44.4375554,0 -73.0973388,44.4378378,0 -73.099577,44.4380478,0 -73.1047205,44.438536,0 -73.1064518,44.4387018,0 -73.1087974,44.4389281,0 -73.1095127,44.4390132,0 -73.11156,44.439197,0 -73.112689,44.439314,0 -73.113812,44.439419,0 -73.11470370000001,44.4394935,0 -73.1152932,44.4395492,0 -73.116406,44.4396662,0 -73.1175562,44.4397642,0 -73.1188865,44.4398929,0 -73.11948510000001,44.4399419,0 -73.1204371,44.4400179,0 -73.1214171,44.4401179,0 -73.1241976,44.4403838,0 -73.12581059999999,44.440538,0 -73.12656509999999,44.4406079,0 -73.1291461,44.4408529,0 -73.1300971,44.4409619,0 -73.13111739999999,44.4411308,0 -73.13196309999999,44.4413159,0 -73.13259309999999,44.4414769,0 -73.1330121,44.4415969,0 -73.1332941,44.4416839,0 -73.13357310000001,44.4417769,0 -73.13384809999999,44.4418749,0 -73.1347979,44.4422183,0 -73.13519890000001,44.4423748,0 -73.13547010000001,44.442482,0 -73.1368351,44.4430126,0 -73.13975309999999,44.4441759,0 -73.1400981,44.4443069,0 -73.1404481,44.4444329,0 -73.14079409999999,44.4445499,0 -73.1411411,44.4446599,0 -73.1414911,44.4447639,0 -73.1418441,44.4448609,0 -73.14220210000001,44.4449509,0 -73.1425641,44.4450349,0 -73.14292709999999,44.4451109,0 -73.1436561,44.4452469,0 -73.1475411,44.4459119,0 -73.1476811,44.4459359,0 -73.1487571,44.4461139,0 -73.1491896,44.446188,0 -73.1498371,44.4462989,0 -73.1514856,44.4465911,0 -73.1527341,44.4468339,0 -73.15415710000001,44.4471469,0 -73.15451210000001,44.4472289,0 -73.1552241,44.4474099,0 -73.1566421,44.4477819,0 -73.1580726,44.4481444,0 -73.1604054,44.4487558,0 -73.1609504,44.4488844,0 -73.1618551,44.4490799,0 -73.1625841,44.4492079,0 -73.1633001,44.4493149,0 -73.1640246,44.4494106,0 -73.1647693,44.4494893,0 -73.1654865,44.449548,0 -73.1659394,44.4495753,0 -73.1663302,44.4495934,0 -73.16667030000001,44.4496027,0 -73.1672641,44.4496175,0 -73.1682,44.4496106,0 -73.1690983,44.4495871,0 -73.1712366,44.4494948,0 -73.1736768,44.449392,0 -73.1738306,44.4493859,0 -73.1739836,44.4493799,0 -73.1741363,44.4493756,0 -73.1742909,44.4493716,0 -73.1744429,44.4493677,0 -73.1745955,44.4493652,0 -73.174744,44.4493644,0 -73.17489930000001,44.4493645,0 -73.17499429999999,44.4493662,0 -73.17505629999999,44.4493672,0 -73.1752041,44.449371,0 -73.1753576,44.4493782,0 -73.1755088,44.4493867,0 -73.1756623,44.4493965,0 -73.1758154,44.4494089,0 -73.1759672,44.4494231,0 -73.1761166,44.4494391,0 -73.1762648,44.4494576,0 -73.1764173,44.4494773,0 -73.1765705,44.4494989,0 -73.17672469999999,44.4495233,0 -73.1768653,44.4495466,0 -73.1770136,44.4495739,0 -73.17716009999999,44.4496027,0 -73.1773051,44.449633,0 -73.1774501,44.4496657,0 -73.17759479999999,44.4497015,0 -73.1777395,44.4497392,0 -73.177871,44.4497748,0 -73.1779722,44.4498035,0 -73.17811,44.449843,0 -73.1782436,44.4498845,0 -73.17838159999999,44.4499291,0 -73.17847279999999,44.4499595,0 -73.1785156,44.4499741,0 -73.1786508,44.4500218,0 -73.1787874,44.4500719,0 -73.17891590000001,44.4501207,0 -73.17904710000001,44.4501747,0 -73.1791746,44.4502281,0 -73.17930320000001,44.4502828,0 -73.17943200000001,44.4503404,0 -73.1795565,44.4503992,0 -73.1796762,44.4504582,0 -73.17979939999999,44.4505204,0 -73.17991840000001,44.450583,0 -73.1800405,44.4506479,0 -73.18015680000001,44.4507137,0 -73.18027050000001,44.4507781,0 -73.1803869,44.4508482,0 -73.1805006,44.4509177,0 -73.1806117,44.4509897,0 -73.1807194,44.4510619,0 -73.1808279,44.4511375,0 -73.18093399999999,44.4512132,0 -73.1809861,44.4512507,0 -73.1810392,44.4512893,0 -73.18113940000001,44.4513651,0 -73.1812431,44.4514469,0 -73.18134019999999,44.4515276,0 -73.18142659999999,44.4516013,0 -73.1815314,44.4516914,0 -73.1817154,44.4518573,0 -73.1818924,44.4520276,0 -73.18206240000001,44.4522042,0 -73.18222350000001,44.4523751,0 -73.1823909,44.4525621,0 -73.1825475,44.4527442,0 -73.1826994,44.4529295,0 -73.18283959999999,44.4531162,0 -73.1829762,44.4533061,0 -73.1831054,44.4534981,0 -73.18322740000001,44.453692,0 -73.18334710000001,44.4538881,0 -73.183455,44.4540892,0 -73.1835562,44.4542887,0 -73.1836526,44.4544901,0 -73.1837421,44.4546918,0 -73.183825,44.4548968,0 -73.1839016,44.455106,0 -73.1839693,44.4553142,0 -73.184032,44.4555223,0 -73.1840876,44.455733,0 -73.184135,44.4559425,0 -73.184179,44.4561571,0 -73.18421650000001,44.4563676,0 -73.1843832,44.457316,0 -73.1846312,44.4587418,0 -73.1849124,44.4603341,0 -73.184999,44.460806,0 -73.18504299999999,44.461048,0 -73.18513,44.461523,0 -73.185373,44.462968,0 -73.185427,44.463327,0 -73.185468,44.463688,0 -73.185495,44.464051,0 -73.185513,44.464413,0 -73.18550980000001,44.4648531,0 -73.1855023,44.4651433,0 -73.18549,44.465505,0 -73.185455,44.46587,0 -73.185412,44.466232,0 -73.18535799999999,44.466595,0 -73.18531,44.466844,0 -73.18519499999999,44.467379,0 -73.185106,44.467731,0 -73.185006,44.46808,0 -73.184895,44.468427,0 -73.1847953,44.4687074,0 -73.18477300000001,44.46877,0 -73.184579,44.46925,0 -73.184437,44.469571,0 -73.18424400000001,44.469959,0 -73.183967,44.47048,0 -73.183802,44.470763,0 -73.18354600000001,44.471161,0 -73.183249,44.471575,0 -73.182979,44.47192,0 -73.1828146,44.4721028,0 -73.1826499,44.4722941,0 -73.1824787,44.4724822,0 -73.18212579999999,44.4728611,0 -73.1806053,44.4744886,0 -73.1803079,44.4748067,0 -73.1792032,44.4759909,0 -73.1786139,44.476623,0 -73.178065,44.477221,0 -73.17753999999999,44.4777758,0 -73.177012,44.4783413,0 -73.1761048,44.4793153,0 -73.175764,44.479699,0 -73.17553100000001,44.479981,0 -73.175263,44.480329,0 -73.17513599999999,44.480506,0 -73.174977,44.48075,0 -73.174863,44.480938,0 -73.174786,44.481074,0 -73.174755,44.48113,0 -73.174689,44.481257,0 -73.17460199999999,44.481464,0 -73.174497,44.481658,0 -73.17441700000001,44.481861,0 -73.174284,44.482274,0 -73.174245,44.482411,0 -73.174224,44.482482,0 -73.17417,44.482697,0 -73.174125,44.48291,0 -73.1740137,44.4836204,0 -73.17397800000001,44.483848,0 -73.17391600000001,44.48421,0 -73.17387600000001,44.484574,0 -73.173822,44.484936,0 -73.1737823,44.4851817,0 -73.1733445,44.4880841,0 -73.1731929,44.4890511,0 -73.17316099999999,44.489255,0 -73.173132,44.489486,0 -73.173069,44.489982,0 -73.1730359,44.4903088,0 -73.173022,44.490649,0 -73.173024,44.491513,0 -73.17304300000001,44.491876,0 -73.17309299999999,44.492528,0 -73.17311460000001,44.4929947,0 -73.1731508,44.4934814,0 -73.1732555,44.4950255,0 -73.1732863,44.4954338,0 -73.17347820000001,44.4981209,0 -73.173508,44.498488,0 -73.17355499999999,44.498849,0 -73.173616,44.499209,0 -73.1736792,44.4994808,0 -73.1737321,44.4996693,0 -73.1738115,44.4999143,0 -73.17395089999999,44.5002923,0 -73.1740839,44.5005934,0 -73.1742481,44.5009214,0 -73.17442819999999,44.5012344,0 -73.17462949999999,44.5015407,0 -73.174843,44.5018347,0 -73.1750729,44.5021204,0 -73.1753143,44.502392,0 -73.17556209999999,44.502657,0 -73.1758279,44.5029074,0 -73.1760702,44.5031262,0 -73.1763863,44.5033799,0 -73.1769735,44.5038106,0 -73.1771804,44.5039463,0 -73.17759529999999,44.5042003,0 -73.1779933,44.5044271,0 -73.17845800000001,44.504656,0 -73.17856829999999,44.5047058,0 -73.1789084,44.504858,0 -73.1792514,44.5049966,0 -73.1808024,44.5055909,0 -73.1814014,44.5058211,0 -73.18267179999999,44.506303,0 -73.184046,44.506827,0 -73.184253,44.506909,0 -73.1850019,44.5071976,0 -73.185501,44.507375,0 -73.186108,44.507628,0 -73.186502,44.507803,0 -73.18668820000001,44.5079028,0 -73.186888,44.5080061,0 -73.1873593,44.5082687,0 -73.1878553,44.508576,0 -73.1880467,44.5087023,0 -73.188204,44.50881,0 -73.188551,44.509073,0 -73.18872,44.509209,0 -73.189048,44.509496,0 -73.18920799999999,44.509647,0 -73.189515,44.509961,0 -73.189662,44.510122,0 -73.189898,44.510399,0 -73.190123,44.510686,0 -73.19025000000001,44.510863,0 -73.19037,44.511044,0 -73.190485,44.511229,0 -73.190664,44.511546,0 -73.190764,44.511741,0 -73.19085800000001,44.511941,0 -73.190996,44.512277,0 -73.19105500000001,44.512487,0 -73.191123,44.512697,0 -73.19118400000001,44.512908,0 -73.19125099999999,44.513192,0 -73.191732,44.515919,0 -73.19185,44.516637,0 -73.19198,44.517382,0 -73.192037,44.517712,0 -73.192093,44.518071,0 -73.192222,44.518786,0 -73.192342,44.519504,0 -73.19241700000001,44.519861,0 -73.19246099999999,44.520222,0 -73.192525,44.520579,0 -73.192582,44.520939,0 -73.19282800000001,44.522373,0 -73.19290700000001,44.522729,0 -73.19296799999999,44.523086,0 -73.19301299999999,44.523443,0 -73.193028,44.523534,0 -73.193116,44.524059,0 -73.193123,44.5241,0 -73.19319400000001,44.524526,0 -73.19344599999999,44.525947,0 -73.193505,44.526311,0 -73.193573,44.526666,0 -73.193648,44.527022,0 -73.19373,44.527376,0 -73.193821,44.527729,0 -73.193926,44.528081,0 -73.194181,44.52877,0 -73.194317,44.529105,0 -73.19446600000001,44.529438,0 -73.194794,44.530091,0 -73.195114,44.530748,0 -73.195764,44.532057,0 -73.195916,44.532363,0 -73.196066,44.532689,0 -73.196147,44.532852,0 -73.196912,44.534378,0 -73.197042,44.534653,0 -73.19718,44.534988,0 -73.19730199999999,44.535329,0 -73.197401,44.53568,0 -73.19747599999999,44.536033,0 -73.19753,44.536394,0 -73.197563,44.536759,0 -73.197571,44.537125,0 -73.197531,44.537853,0 -73.197468,44.538213,0 -73.19738599999999,44.538565,0 -73.197281,44.538913,0 -73.197154,44.539257,0 -73.197011,44.539587,0 -73.196843,44.539912,0 -73.196662,44.540227,0 -73.19645,44.540526,0 -73.196254,44.540829,0 -73.19601900000001,44.541114,0 -73.19578,44.541386,0 -73.195036,44.542182,0 -73.19477500000001,44.542439,0 -73.19474700000001,44.542468,0 -73.19428000000001,44.542966,0 -73.19224800000001,44.545081,0 -73.19023900000001,44.547186,0 -73.18999599999999,44.54746,0 -73.18874099999999,44.548787,0 -73.18848199999999,44.549051,0 -73.187996,44.549595,0 -73.187758,44.549872,0 -73.18753599999999,44.55016,0 -73.18707999999999,44.55073,0 -73.186841,44.551042,0 -73.186635,44.55131,0 -73.186201,44.551901,0 -73.18599500000001,44.552199,0 -73.185777,44.552494,0 -73.185699,44.552612,0 -73.18541279999999,44.5530515,0 -73.18497600000001,44.553712,0 -73.1846252,44.5542715,0 -73.1844371,44.5545784,0 -73.18405799999999,44.555112,0 -73.183897,44.555356,0 -73.182575,44.557375,0 -73.182166,44.557987,0 -73.1819378,44.5583438,0 -73.181684,44.558721,0 -73.181493,44.559033,0 -73.18129500000001,44.55934,0 -73.18109,44.55964,0 -73.18070899999999,44.560255,0 -73.180194,44.561224,0 -73.18004000000001,44.561559,0 -73.179895,44.561897,0 -73.179762,44.562238,0 -73.17964000000001,44.562584,0 -73.179528,44.562934,0 -73.17946999999999,44.563135,0 -73.17942600000001,44.563285,0 -73.17932999999999,44.563638,0 -73.179249,44.563994,0 -73.179123,44.564709,0 -73.178759,44.566497,0 -73.178552,44.567569,0 -73.178342,44.568637,0 -73.17807000000001,44.570062,0 -73.1779968,44.5704206,0 -73.1777812,44.5715107,0 -73.1776733,44.5720713,0 -73.17748400000001,44.573065,0 -73.177421,44.573417,0 -73.177066,44.575192,0 -73.176783,44.576635,0 -73.17672899999999,44.576994,0 -73.176513,44.578062,0 -73.176428,44.578415,0 -73.17635199999999,44.578696,0 -73.176333,44.578767,0 -73.176225,44.579118,0 -73.176108,44.579463,0 -73.175982,44.579802,0 -73.175844,44.580138,0 -73.175697,44.580468,0 -73.175544,44.580794,0 -73.175381,44.581115,0 -73.175268,44.581306,0 -73.175195,44.58143,0 -73.17501799999999,44.581744,0 -73.174829,44.582053,0 -73.174629,44.582359,0 -73.17443799999999,44.582665,0 -73.174227,44.582957,0 -73.173996,44.583239,0 -73.17377500000001,44.583525,0 -73.173571,44.583819,0 -73.17335199999999,44.584107,0 -73.173115,44.584387,0 -73.1723605,44.58537,0 -73.171785,44.586122,0 -73.171566,44.586413,0 -73.171359,44.586703,0 -73.17115099999999,44.587007,0 -73.17095500000001,44.587319,0 -73.170773,44.58764,0 -73.17061699999999,44.587967,0 -73.170479,44.588309,0 -73.170377,44.588658,0 -73.170282,44.589009,0 -73.17027400000001,44.58905,0 -73.17021,44.589367,0 -73.170157,44.589731,0 -73.17012800000001,44.590243,0 -73.170124,44.590339,0 -73.170124,44.590571,0 -73.170134,44.590819,0 -73.170158,44.591036,0 -73.170216,44.591398,0 -73.17026199999999,44.591611,0 -73.170376,44.592032,0 -73.170446,44.592241,0 -73.170525,44.592449,0 -73.17075,44.593001,0 -73.171465,44.594735,0 -73.1719549,44.5959388,0 -73.172146,44.596429,0 -73.17225500000001,44.596777,0 -73.172343,44.59713,0 -73.17241799999999,44.597488,0 -73.172478,44.597847,0 -73.17251899999999,44.598211,0 -73.17254200000001,44.598576,0 -73.172543,44.598617,0 -73.17254800000001,44.598939,0 -73.172539,44.599301,0 -73.17251,44.599662,0 -73.17246400000001,44.600023,0 -73.17246,44.600046,0 -73.172399,44.600384,0 -73.17232,44.600736,0 -73.172218,44.601084,0 -73.172105,44.601429,0 -73.171978,44.60177,0 -73.171835,44.602108,0 -73.171679,44.602436,0 -73.17151,44.602758,0 -73.17132599999999,44.603071,0 -73.171131,44.603377,0 -73.17092100000001,44.603673,0 -73.17070200000001,44.603963,0 -73.17047599999999,44.604248,0 -73.169532,44.60537,0 -73.16552299999999,44.610097,0 -73.164817,44.610937,0 -73.164348,44.611485,0 -73.163173,44.612884,0 -73.162222,44.613999,0 -73.161512,44.614846,0 -73.160797,44.61568,0 -73.159848,44.616805,0 -73.158907,44.617909,0 -73.15655099999999,44.620698,0 -73.15608,44.621261,0 -73.1531571,44.6247188,0 -73.15136699999999,44.626821,0 -73.15088900000001,44.627371,0 -73.150638,44.627637,0 -73.150379,44.627891,0 -73.150116,44.628138,0 -73.149956,44.628274,0 -73.1496003,44.6285764,0 -73.149562,44.628609,0 -73.149293,44.628819,0 -73.148977,44.629055,0 -73.148673,44.629265,0 -73.148183,44.62958,0 -73.147929,44.629737,0 -73.146923,44.630355,0 -73.146603,44.630535,0 -73.146269,44.630739,0 -73.14525209999999,44.6313525,0 -73.143478,44.632442,0 -73.143171,44.632637,0 -73.14287,44.632844,0 -73.142582,44.633066,0 -73.142363,44.633255,0 -73.142303,44.633307,0 -73.142039,44.633563,0 -73.141792,44.633834,0 -73.141563,44.634121,0 -73.14135400000001,44.634426,0 -73.141187,44.634747,0 -73.14109000000001,44.634958,0 -73.14103299999999,44.635081,0 -73.140908,44.635427,0 -73.140845,44.635644,0 -73.140805,44.63578,0 -73.1406795,44.636227,0 -73.1403325,44.6376603,0 -73.140289,44.637908,0 -73.13996059999999,44.6391659,0 -73.13983880000001,44.6396375,0 -73.1396,44.64074,0 -73.139455,44.641454,0 -73.13940599999999,44.641815,0 -73.13936099999999,44.642539,0 -73.139376,44.643262,0 -73.139421,44.643626,0 -73.13947899999999,44.643986,0 -73.14000799999999,44.646843,0 -73.140186,44.647923,0 -73.14021200000001,44.648289,0 -73.14021700000001,44.648655,0 -73.14021889999999,44.6488473,0 -73.14020499999999,44.649017,0 -73.14017800000001,44.649376,0 -73.14013,44.649738,0 -73.140067,44.650096,0 -73.13989599999999,44.650956,0 -73.139854,44.651166,0 -73.139235,44.654076,0 -73.139099,44.654718,0 -73.138938,44.655429,0 -73.138785,44.656161,0 -73.138715,44.656494,0 -73.138177,44.658982,0 -73.138082,44.659393,0 -73.13796499999999,44.659902,0 -73.13794300000001,44.65998,0 -73.137635,44.661011,0 -73.137568,44.661226,0 -73.137362,44.661831,0 -73.137332,44.661919,0 -73.136943,44.662945,0 -73.136804,44.663278,0 -73.13636099999999,44.664274,0 -73.136268,44.664461,0 -73.1360289,44.6649401,0 -73.135867,44.665247,0 -73.135519,44.665886,0 -73.135153,44.666512,0 -73.134528,44.667601,0 -73.134432,44.667769,0 -73.134061,44.668397,0 -73.133696,44.669039,0 -73.13337,44.669632,0 -73.133342,44.669683,0 -73.132999,44.670333,0 -73.132668,44.670986,0 -73.132186,44.671969,0 -73.131878,44.672631,0 -73.13129000000001,44.673955,0 -73.13087400000001,44.674958,0 -73.13060299999999,44.675642,0 -73.130098,44.677013,0 -73.12985500000001,44.67773,0 -73.129638,44.6784,0 -73.128935,44.680772,0 -73.128849,44.681127,0 -73.12873,44.681471,0 -73.12853,44.682158,0 -73.12782300000001,44.684606,0 -73.12756400000001,44.685515,0 -73.127447,44.685864,0 -73.127343,44.686213,0 -73.12719800000001,44.686554,0 -73.127073,44.686889,0 -73.126763,44.687554,0 -73.126589,44.687882,0 -73.126411,44.688202,0 -73.12622399999999,44.688514,0 -73.125835,44.68913,0 -73.125821,44.68915,0 -73.12562800000001,44.689431,0 -73.12539599999999,44.689724,0 -73.125129,44.690075,0 -73.124841,44.690415,0 -73.12459800000001,44.690688,0 -73.12409700000001,44.691226,0 -73.12383800000001,44.691482,0 -73.12357,44.691738,0 -73.123018,44.692214,0 -73.122469,44.692674,0 -73.1221623,44.6928803,0 -73.12185890000001,44.6931028,0 -73.120955,44.693747,0 -73.120634,44.69395,0 -73.120305,44.694151,0 -73.11997599999999,44.694346,0 -73.119292,44.694718,0 -73.11894599999999,44.694898,0 -73.11859200000001,44.695071,0 -73.11787200000001,44.695401,0 -73.117508,44.69556,0 -73.11676300000001,44.695858,0 -73.11600300000001,44.696137,0 -73.115658,44.696256,0 -73.11561500000001,44.696271,0 -73.115224,44.696394,0 -73.11364399999999,44.696864,0 -73.11248000000001,44.697205,0 -73.112015,44.697336,0 -73.11187099999999,44.697376,0 -73.111701,44.697424,0 -73.110196,44.697862,0 -73.109244,44.698157,0 -73.108136,44.698479,0 -73.107705,44.698616,0 -73.107311,44.698722,0 -73.107209,44.698752,0 -73.10686099999999,44.698854,0 -73.106568,44.698948,0 -73.106188,44.699051,0 -73.105654,44.699213,0 -73.10349600000001,44.699851,0 -73.099863,44.700924,0 -73.09963,44.700997,0 -73.09912300000001,44.701156,0 -73.098755,44.701276,0 -73.098392,44.701401,0 -73.097669,44.701674,0 -73.097319,44.701814,0 -73.096974,44.701958,0 -73.096633,44.702109,0 -73.095969,44.70242,0 -73.095877,44.702465,0 -73.095293,44.702755,0 -73.094971,44.702927,0 -73.09494100000001,44.702944,0 -73.094341,44.703286,0 -73.094026,44.703471,0 -73.093957,44.703514,0 -73.09371299999999,44.703665,0 -73.093408,44.703861,0 -73.093104,44.704064,0 -73.09280200000001,44.704274,0 -73.092214,44.704704,0 -73.09205679999999,44.7048209,0 -73.091644,44.705157,0 -73.091364,44.705392,0 -73.09121089999999,44.7055337,0 -73.0910071,44.7057096,0 -73.09036039999999,44.7063229,0 -73.0902483,44.706422,0 -73.0899926,44.7066776,0 -73.0897949,44.7068949,0 -73.08955,44.707183,0 -73.089313,44.707468,0 -73.088852,44.708047,0 -73.088425,44.708637,0 -73.088205,44.708931,0 -73.087799,44.709533,0 -73.08759999999999,44.709842,0 -73.08740899999999,44.710153,0 -73.08704400000001,44.710787,0 -73.08686899999999,44.711109,0 -73.08654900000001,44.711758,0 -73.086395,44.712098,0 -73.08625000000001,44.712418,0 -73.086107,44.712751,0 -73.085841,44.713421,0 -73.083428,44.719935,0 -73.083054,44.720959,0 -73.082795,44.721633,0 -73.08242199999999,44.722655,0 -73.082291,44.722992,0 -73.08145399999999,44.725268,0 -73.081413,44.72538,0 -73.081171,44.726065,0 -73.080943,44.726759,0 -73.080725,44.727447,0 -73.080432,44.728506,0 -73.08025499999999,44.729217,0 -73.080151,44.729694,0 -73.0801,44.729929,0 -73.07988899999999,44.731008,0 -73.07982800000001,44.731367,0 -73.079728,44.732082,0 -73.079639,44.732799,0 -73.079565,44.733515,0 -73.079511,44.734237,0 -73.07947299999999,44.734969,0 -73.079448,44.735699,0 -73.079393,44.737871,0 -73.07939,44.738229,0 -73.07937,44.738953,0 -73.079302,44.740413,0 -73.079262,44.741142,0 -73.07911300000001,44.742963,0 -73.078959,44.744414,0 -73.0789436,44.7445153,0 -73.078914,44.74471,0 -73.07884900000001,44.745352,0 -73.078773,44.745918,0 -73.07875199999999,44.746073,0 -73.078687,44.746434,0 -73.07863,44.746794,0 -73.07858899999999,44.747155,0 -73.078447,44.747972,0 -73.07839,44.748303,0 -73.078332,44.748664,0 -73.078287,44.7489146,0 -73.078202,44.749388,0 -73.078081,44.750108,0 -73.078029,44.750465,0 -73.077966,44.750826,0 -73.07791,44.751189,0 -73.077855,44.751452,0 -73.07783499999999,44.751549,0 -73.07777299999999,44.751908,0 -73.07772,44.752259,0 -73.077656,44.752616,0 -73.077538,44.753339,0 -73.077427,44.753957,0 -73.077404,44.754086,0 -73.077292,44.754786,0 -73.077214,44.755148,0 -73.077083,44.755871,0 -73.077034,44.756233,0 -73.076972,44.756596,0 -73.076897,44.756957,0 -73.076852,44.757316,0 -73.076779,44.757675,0 -73.07666089999999,44.7583166,0 -73.076601,44.758755,0 -73.076554,44.759112,0 -73.076483,44.759468,0 -73.07646699999999,44.759608,0 -73.076441,44.759826,0 -73.076379,44.760192,0 -73.07633749999999,44.7605379,0 -73.07631360000001,44.7607368,0 -73.076204,44.76165,0 -73.076165,44.762014,0 -73.076047,44.763466,0 -73.0760422,44.763542,0 -73.07600100000001,44.76419,0 -73.075992,44.76455,0 -73.075971,44.764918,0 -73.075935,44.765284,0 -73.07588199999999,44.766015,0 -73.075845,44.766382,0 -73.07581500000001,44.766743,0 -73.07576,44.767108,0 -73.07566300000001,44.767835,0 -73.075422,44.769276,0 -73.07499,44.771446,0 -73.074856,44.77212,0 -73.074798,44.772476,0 -73.074657,44.773194,0 -73.074574,44.773555,0 -73.07451399999999,44.773915,0 -73.07400199999999,44.776499,0 -73.073803,44.777504,0 -73.07372100000001,44.777865,0 -73.073509,44.778947,0 -73.07328800000001,44.780025,0 -73.073229,44.780383,0 -73.07301200000001,44.781463,0 -73.07287700000001,44.782186,0 -73.072737,44.782899,0 -73.072661,44.783255,0 -73.071887,44.787202,0 -73.071817,44.787502,0 -73.071803,44.787559,0 -73.071743,44.787917,0 -73.07165999999999,44.788275,0 -73.071471,44.789225,0 -73.071304,44.790067,0 -73.071248,44.790428,0 -73.071172,44.790788,0 -73.070888,44.791794,0 -73.070761,44.792275,0 -73.070397,44.793187,0 -73.069819,44.794255,0 -73.069643,44.794612,0 -73.06956599999999,44.794752,0 -73.0693145,44.7951541,0 -73.069187,44.795358,0 -73.06831200000001,44.796735,0 -73.06761400000001,44.797822,0 -73.066867,44.798983,0 -73.066289,44.7999125,0 -73.0658,44.800801,0 -73.065522,44.801452,0 -73.065397,44.801745,0 -73.065218,44.802226,0 -73.065062,44.802707,0 -73.064982,44.802997,0 -73.06492900000001,44.803189,0 -73.06481700000001,44.803693,0 -73.06473200000001,44.804173,0 -73.064661,44.804717,0 -73.06460300000001,44.80516,0 -73.06406,44.809589,0 -73.06377500000001,44.812001,0 -73.063712,44.812537,0 -73.063496,44.81426,0 -73.06336,44.815497,0 -73.06317900000001,44.816978,0 -73.062983,44.818457,0 -73.062802,44.819945,0 -73.06263300000001,44.821421,0 -73.062532,44.822262,0 -73.062274,44.824398,0 -73.06192799999999,44.827219,0 -73.06170400000001,44.829056,0 -73.061609,44.829835,0 -73.061418,44.831319,0 -73.06136100000001,44.831813,0 -73.061318,44.832309,0 -73.061317,44.832804,0 -73.061368,44.833293,0 -73.06148,44.833782,0 -73.061643,44.834264,0 -73.06186,44.834735,0 -73.062128,44.835192,0 -73.06281199999999,44.836063,0 -73.063665,44.836841,0 -73.0642529,44.8372834,0 -73.06468409999999,44.8375431,0 -73.06582299999999,44.838064,0 -73.06703400000001,44.838572,0 -73.06886,44.839304,0 -73.070683,44.840047,0 -73.071201,44.840261,0 -73.072504,44.8408,0 -73.0726772,44.84087,0 -73.074338,44.841541,0 -73.075535,44.842053,0 -73.076132,44.842292,0 -73.076486,44.842427,0 -73.077512,44.842828,0 -73.077735,44.84292,0 -73.0779941,44.8430297,0 -73.078558,44.843264,0 -73.079077,44.843501,0 -73.0792666,44.843608,0 -73.07992,44.8439853,0 -73.080399,44.844304,0 -73.080805,44.844629,0 -73.08118,44.844974,0 -73.081579,44.8454,0 -73.081785,44.845653,0 -73.08201800000001,44.845978,0 -73.08214,44.84618,0 -73.082233,44.846356,0 -73.082488,44.846863,0 -73.082658,44.847358,0 -73.082769,44.847792,0 -73.082829,44.848225,0 -73.08286200000001,44.848732,0 -73.08283400000001,44.84904,0 -73.082825,44.849085,0 -73.082826,44.84913,0 -73.08280499999999,44.849364,0 -73.082803,44.849386,0 -73.08278199999999,44.849462,0 -73.08275999999999,44.84961,0 -73.08240000000001,44.850879,0 -73.08166199999999,44.853429,0 -73.081304,44.854699,0 -73.08093700000001,44.855976,0 -73.08060999999999,44.857249,0 -73.080416,44.858536,0 -73.080378,44.859829,0 -73.080484,44.861117,0 -73.080676,44.862413,0 -73.080877,44.863704,0 -73.081457,44.867625,0 -73.081838,44.870169,0 -73.082538,44.87473,0 -73.082633,44.875346,0 -73.082854,44.876632,0 -73.083062,44.877521,0 -73.08314300000001,44.877867,0 -73.08315399999999,44.877915,0 -73.083474,44.879161,0 -73.083483,44.879196,0 -73.084007,44.881171,0 -73.085515,44.886855,0 -73.08586,44.888133,0 -73.086231,44.889403,0 -73.08655,44.890235,0 -73.086738,44.890648,0 -73.08715100000001,44.89146,0 -73.087631,44.892252,0 -73.088167,44.893022,0 -73.088942,44.8941676,0 -73.0899129,44.8954546,0 -73.0901308,44.8957186,0 -73.09071729999999,44.8964874,0 -73.09245300000001,44.898758,0 -73.095299,44.902552,0 -73.09674699999999,44.904483,0 -73.09753000000001,44.905663,0 -73.098247,44.906855,0 -73.098928,44.908056,0 -73.099423,44.908842,0 -73.099689,44.90923,0 -73.101327,44.911544,0 -73.102161,44.912713,0 -73.102299,44.9129116,0 -73.102954,44.913874,0 -73.1030521,44.9139885,0 -73.103324,44.914468,0 -73.10363409999999,44.9149627,0 -73.104215,44.916023,0 -73.104349,44.91627,0 -73.104967,44.917485,0 -73.1056076,44.9187297,0 -73.10582839999999,44.9191556,0 -73.10617000000001,44.919841,0 -73.10640770000001,44.9203336,0 -73.1072458,44.9219444,0 -73.10760550000001,44.92263,0 -73.1085578,44.9245505,0 -73.109166,44.925703,0 -73.109246,44.92586,0 -73.10982199999999,44.927078,0 -73.11031699999999,44.928329,0 -73.110777,44.929576,0 -73.110913,44.929935,0 -73.110967,44.930079,0 -73.11125,44.930828,0 -73.111711,44.932081,0 -73.11215799999999,44.933333,0 -73.11384700000001,44.937909,0 -73.11430300000001,44.939166,0 -73.11444400000001,44.939591,0 -73.114565,44.940019,0 -73.11466,44.940449,0 -73.11472500000001,44.940881,0 -73.11476,44.941312,0 -73.114771,44.942178,0 -73.114676,44.94304,0 -73.114479,44.9439,0 -73.114178,44.944741,0 -73.1135305,44.9462603,0 -73.11312100000001,44.947221,0 -73.11152199999999,44.950931,0 -73.109931,44.954646,0 -73.109392,44.955885,0 -73.108949,44.956919,0 -73.108329,44.958367,0 -73.107646,44.960026,0 -73.107249,44.961195,0 -73.107221,44.961279,0 -73.106876,44.962542,0 -73.106567,44.963819,0 -73.10624300000001,44.9651,0 -73.105943,44.966376,0 -73.104749,44.97105,0 -73.104266,44.972294,0 -73.10387900000001,44.973111,0 -73.103645,44.973518,0 -73.103156,44.974314,0 -73.103138,44.974339,0 -73.102598,44.975089,0 -73.101986,44.975836,0 -73.101857,44.975971,0 -73.101826,44.97601,0 -73.10178500000001,44.976045,0 -73.100962,44.976905,0 -73.099818,44.977915,0 -73.098561,44.978854,0 -73.09746800000001,44.979627,0 -73.097269,44.979768,0 -73.095992,44.980678,0 -73.093394,44.982504,0 -73.09001499999999,44.984896,0 -73.08951399999999,44.985251,0 -73.08831600000001,44.986231,0 -73.087957,44.986579,0 -73.087615,44.986936,0 -73.087433,44.987154,0 -73.086996,44.98768,0 -73.086726,44.988067,0 -73.08624399999999,44.988862,0 -73.085848,44.989673,0 -73.08574900000001,44.989959,0 -73.08555699999999,44.990512,0 -73.085356,44.991365,0 -73.085264,44.992221,0 -73.085251,44.992652,0 -73.08525,44.992912,0 -73.08525,44.993082,0 -73.08529299999999,44.993596,0 -73.085416,44.994385,0 -73.085437,44.994485,0 -73.085864,44.996513,0 -73.08602999999999,44.997365,0 -73.086566,44.999923,0 -73.086747,45.001215,0 -73.08677299999999,45.002073,0 -73.086758,45.002515,0 -73.086691,45.003381,0 -73.086651,45.003637,0 -73.086557,45.004239,0 -73.0863801,45.0056365,0 -73.0863408,45.005898,0 -73.0862922,45.0061693,0 -73.08623059999999,45.0064938,0 -73.0857479,45.00876860000001,0 -73.0856419,45.009336,0 -73.08556,45.00973489999999,0 -73.0855148,45.00999769999999,0 -73.08546320000001,45.01025250000001,0 -73.0853766,45.0107414,0 -73.0853705,45.0107847,0 -73.0852938,45.01113180000001,0 -73.08518719999999,45.011722,0 -73.0850899,45.0121897,0 -73.0846645,45.0139955,0 -73.08458760000001,45.0143502,0 -73.084546,45.0146729,0 -73.0844661,45.0152778,0 -73.08445930000001,45.01533160000001,0 -73.0844408,45.0154785,0 
				</coordinates>
			</LineString>
		<atom:link rel="app" href="https://www.google.com/earth/about/versions/#earth-pro" title="Google Earth Pro 7.3.6.10201"></atom:link>
	</Placemark>
</Document>
</kml>
