<?xml version="1.0" encoding="UTF-8"?>
<kml xmlns="http://www.opengis.net/kml/2.2" xmlns:gx="http://www.google.com/kml/ext/2.2" xmlns:kml="http://www.opengis.net/kml/2.2" xmlns:atom="http://www.w3.org/2005/Atom">
<Document>
	<name>I.894.kml</name>
	<Placemark>
		<name>I.894</name>
		<LineString>
			<coordinates>
				-88.03658679999999,43.0166859,0 -88.0365779,43.0162206,0 -88.03655569999999,43.0142559,0 -88.0365809,43.0133638,0 -88.0366185,43.0125416,0 -88.0366662,43.0118654,0 -88.0367495,43.0112696,0 -88.03688769999999,43.0102815,0 -88.036991,43.0096269,0 -88.0376792,43.0063538,0 -88.0382711,43.0036276,0 -88.03838880000001,43.0027701,0 -88.0384284,43.0023904,0 -88.0384785,43.0015135,0 -88.0384586,43.0008161,0 -88.0384033,43.0000953,0 -88.0382848,42.999151,0 -88.03826770000001,42.9990233,0 -88.0381876,42.9984127,0 -88.0380961,42.9975843,0 -88.0380479,42.9969029,0 -88.03807740000001,42.9958953,0 -88.0381385,42.9903778,0 -88.0381565,42.9897698,0 -88.03821170000001,42.9892986,0 -88.0382913,42.9889016,0 -88.03843999999999,42.988361,0 -88.03857309999999,42.987861,0 -88.03874930000001,42.9872987,0 -88.0388421,42.9867991,0 -88.03901329999999,42.9859782,0 -88.0390884,42.9851243,0 -88.0391271,42.9841171,0 -88.0391777,42.9827982,0 -88.0393169,42.977399,0 -88.0393437,42.9768118,0 -88.0393196,42.9763981,0 -88.0392466,42.9760602,0 -88.0386671,42.9739471,0 -88.03849820000001,42.9734744,0 -88.0384099,42.9730872,0 -88.0383418,42.9724809,0 -88.0383326,42.9721255,0 -88.03859180000001,42.966614,0 -88.038614,42.9662199,0 -88.0386005,42.9661542,0 -88.0385801,42.9651761,0 -88.0385211,42.9649013,0 -88.0383624,42.9644881,0 -88.0382429,42.9642505,0 -88.0380412,42.9639153,0 -88.0379176,42.963743,0 -88.0378381,42.963637,0 -88.03762279999999,42.9633873,0 -88.03739969999999,42.9631741,0 -88.0372394,42.9630353,0 -88.03708020000001,42.9629074,0 -88.0369082,42.9627822,0 -88.0367356,42.9626687,0 -88.036569,42.9625649,0 -88.0364007,42.9624702,0 -88.0361906,42.9623588,0 -88.03593909999999,42.9622404,0 -88.0356658,42.9621293,0 -88.0354268,42.9620434,0 -88.0351905,42.9619734,0 -88.03486890000001,42.9618888,0 -88.0345698,42.9618166,0 -88.03409449999999,42.9617201,0 -88.03331439999999,42.9615837,0 -88.0326768,42.9615265,0 -88.0321649,42.9614935,0 -88.0312746,42.9614754,0 -88.0306435,42.9614945,0 -88.0303287,42.9615201,0 -88.029944,42.9615585,0 -88.0293319,42.9616225,0 -88.02340890000001,42.9622198,0 -88.02287579999999,42.9622582,0 -88.0223021,42.9622814,0 -88.02218019999999,42.9622821,0 -88.0217241,42.9622794,0 -88.021017,42.9622445,0 -88.0203058,42.9621876,0 -88.0184809,42.9620218,0 -88.017779,42.9619582,0 -88.01424799999999,42.961639,0 -88.0129302,42.9615184,0 -88.0120989,42.9614558,0 -88.0112987,42.9614351,0 -88.010671,42.9614419,0 -88.0103232,42.9614563,0 -88.01008,42.9614728,0 -88.00929600000001,42.9615519,0 -88.00465029999999,42.9621697,0 -88.004121,42.9622391,0 -88.0029732,42.9623751,0 -88.0023786,42.9624215,0 -88.00177239999999,42.9624451,0 -87.9939892,42.9623519,0 -87.99313050000001,42.9623434,0 -87.99133430000001,42.9623284,0 -87.9901754,42.962277,0 -87.98840149999999,42.9622592,0 -87.9872969,42.9622427,0 -87.98619189999999,42.9622717,0 -87.98563559999999,42.9622912,0 -87.9849354,42.9623249,0 -87.9820879,42.9624865,0 -87.9810039,42.9625226,0 -87.9802531,42.9625363,0 -87.9787192,42.9625407,0 -87.97818820000001,42.9625421,0 -87.9760843,42.9625429,0 -87.97543570000001,42.9625466,0 -87.9741422,42.9625357,0 -87.97379890000001,42.9625242,0 -87.97331149999999,42.9624936,0 -87.9729552,42.9624581,0 -87.9725351,42.9624081,0 -87.9721157,42.9623416,0 -87.97172550000001,42.9622689,0 -87.97117160000001,42.962144,0 -87.9697737,42.9618052,0 -87.968372,42.9614702,0 -87.96712549999999,42.9611651,0 -87.9662867,42.9609852,0 -87.96608569999999,42.9609509,0 -87.96587580000001,42.9609238,0 -87.96536380000001,42.9608853,0 -87.96499300000001,42.9608754,0 -87.9646541,42.9608802,0 -87.9642654,42.9608982,0 -87.9638866,42.960938,0 -87.9632666,42.9610318,0 -87.96035910000001,42.9615814,0 -87.95910189999999,42.9618106,0 -87.9571084,42.9621282,0 -87.95542159999999,42.9623707,0 -87.9550509,42.9624126,0 -87.95463909999999,42.962457,0 -87.9540442,42.9625213,0 -87.9534927,42.9625726,0 -87.9527573,42.9626307,0 -87.9518075,42.962686,0 -87.95081829999999,42.9627222,0 -87.94917719999999,42.9627162,0 
			</coordinates>
		</LineString>
		<atom:link rel="app" href="https://www.google.com/earth/about/versions/#earth-pro" title="Google Earth Pro 7.3.6.10201"></atom:link>
	</Placemark>
</Document>
</kml>
