<?xml version="1.0" encoding="UTF-8"?>
<kml xmlns="http://www.opengis.net/kml/2.2" xmlns:gx="http://www.google.com/kml/ext/2.2" xmlns:kml="http://www.opengis.net/kml/2.2" xmlns:atom="http://www.w3.org/2005/Atom">
<Document>
	<name>I.895.kml</name>
	<Placemark>
		<name>I.895</name>
		<LineString>
			<coordinates>
				-76.721369,39.221788,0 -76.721204,39.221868,0 -76.721002,39.221963,0 -76.720783,39.22204,0 -76.720533,39.222108,0 -76.720215,39.222176,0 -76.719829,39.222217,0 -76.71951,39.222228,0 -76.719228,39.22223,0 -76.718892,39.222199,0 -76.718378,39.222076,0 -76.718216,39.222022,0 -76.718054,39.221963,0 -76.71787,39.221884,0 -76.7153247,39.2204899,0 -76.7141774,39.2198614,0 -76.71384740000001,39.2196911,0 -76.7136194,39.2195638,0 -76.7132682,39.2194124,0 -76.7129781,39.219285,0 -76.71258539999999,39.2191491,0 -76.7123146,39.2190565,0 -76.7118408,39.2189018,0 -76.71119640000001,39.2187247,0 -76.7106789,39.2185917,0 -76.710256,39.2185085,0 -76.70966559999999,39.2184172,0 -76.7092179,39.2183619,0 -76.7087531,39.2183164,0 -76.70801040000001,39.2182767,0 -76.7073378,39.2182476,0 -76.7049579,39.2181608,0 -76.70448399999999,39.2181473,0 -76.704134,39.2181381,0 -76.703757,39.2181381,0 -76.70343080000001,39.2181456,0 -76.7029818,39.2181593,0 -76.7026707,39.2181706,0 -76.7023963,39.2181838,0 -76.7021352,39.218199,0 -76.70183350000001,39.2182248,0 -76.7014942,39.2182656,0 -76.7011143,39.2183169,0 -76.70082480000001,39.2183617,0 -76.7005078,39.2184155,0 -76.7002695,39.2184632,0 -76.7000421,39.2185147,0 -76.6997763,39.218584,0 -76.6995139,39.2186595,0 -76.6992327,39.2187485,0 -76.6989526,39.2188463,0 -76.69868099999999,39.2189541,0 -76.6984252,39.2190636,0 -76.69814359999999,39.2191945,0 -76.69789830000001,39.2193177,0 -76.697654,39.2194441,0 -76.6962161,39.2202724,0 -76.69587490000001,39.2204643,0 -76.69468449999999,39.221157,0 -76.6943325,39.2213298,0 -76.69399780000001,39.2214628,0 -76.6933112,39.2217222,0 -76.6928563,39.2218817,0 -76.6925044,39.2219748,0 -76.6921439,39.2220546,0 -76.69178340000001,39.2221211,0 -76.6911568,39.2222009,0 -76.69038430000001,39.2223006,0 -76.68637200000001,39.222865,0 -76.686035,39.222924,0 -76.6856465,39.2229988,0 -76.68523450000001,39.2230919,0 -76.6847624,39.2232315,0 -76.6842493,39.2234099,0 -76.6839232,39.2235296,0 -76.6836466,39.2236571,0 -76.6801306,39.2255408,0 -76.675832,39.227839,0 -76.675364,39.2281318,0 -76.6749434,39.228431,0 -76.6744542,39.22881,0 -76.67353799999999,39.229512,0 -76.6716132,39.2309508,0 -76.6711153,39.2312633,0 -76.6708064,39.2314628,0 -76.6701283,39.2318284,0 -76.6693987,39.2322074,0 -76.66841169999999,39.2326329,0 -76.6674637,39.2329507,0 -76.6667826,39.233162,0 -76.666112,39.2333369,0 -76.6655978,39.233471,0 -76.6648253,39.233624,0 -76.66419019999999,39.233717,0 -76.66351210000001,39.2338035,0 -76.66287699999999,39.2338699,0 -76.6620101,39.2339032,0 -76.66140919999999,39.2339098,0 -76.6607999,39.2338899,0 -76.660242,39.2338433,0 -76.6595725,39.2337769,0 -76.6584996,39.233624,0 -76.6560286,39.2331735,0 -76.645253,39.231209,0 -76.6443305,39.2310409,0 -76.64384800000001,39.230953,0 -76.6419226,39.2306104,0 -76.6413905,39.2305173,0 -76.63960400000001,39.23019,0 -76.63808,39.229944,0 -76.6362149,39.2296131,0 -76.63570850000001,39.22952,0 -76.6337837,39.2291561,0 -76.63058100000001,39.228572,0 -76.6299149,39.2284496,0 -76.6293141,39.2283565,0 -76.6287133,39.2283033,0 -76.62818969999999,39.2283033,0 -76.6274622,39.2283477,0 -76.6269214,39.2284208,0 -76.6263807,39.2285338,0 -76.6259172,39.2286535,0 -76.6254452,39.2288209,0 -76.6252053,39.2289225,0 -76.62497310000001,39.2290125,0 -76.6244152,39.2293184,0 -76.6240633,39.2295178,0 -76.6236856,39.2297771,0 -76.6233766,39.2300364,0 -76.6230848,39.2303024,0 -76.6228768,39.2305306,0 -76.6226127,39.2308077,0 -76.6223914,39.2310792,0 -76.6220205,39.2315523,0 -76.6216156,39.2320405,0 -76.618891,39.2353257,0 -76.61770319999999,39.2367578,0 -76.6174199,39.2370917,0 -76.6171815,39.2373398,0 -76.61691500000001,39.2375905,0 -76.6166231,39.2378301,0 -76.6163316,39.2380698,0 -76.6160084,39.2382944,0 -76.61566430000001,39.2385089,0 -76.6152393,39.2387513,0 -76.6148587,39.2389465,0 -76.614374,39.2391695,0 -76.6138653,39.2393553,0 -76.613617,39.2394358,0 -76.613401,39.2395058,0 -76.61299030000001,39.2396191,0 -76.61253960000001,39.2397298,0 -76.6120851,39.2398175,0 -76.6116509,39.2398871,0 -76.61083960000001,39.2399879,0 -76.6099993,39.2400918,0 -76.6088371,39.2402317,0 -76.60850689999999,39.240273,0 -76.60683950000001,39.2404657,0 -76.6064612,39.2405118,0 -76.6057733,39.2405962,0 -76.6051664,39.2406558,0 -76.6045797,39.2407028,0 -76.6039718,39.2407442,0 -76.6035972,39.2407622,0 -76.6033224,39.2407754,0 -76.6026227,39.2407936,0 -76.5999607,39.2408441,0 -76.5944715,39.2409136,0 -76.5932135,39.2409297,0 -76.5925996,39.2409372,0 -76.5909759,39.240958,0 -76.5902811,39.2409669,0 -76.58977539999999,39.2409734,0 -76.58942089999999,39.2409776,0 -76.58880360000001,39.2409858,0 -76.58805820000001,39.2409954,0 -76.58726849999999,39.2410055,0 -76.5871477,39.241007,0 -76.586375,39.2410169,0 -76.5852934,39.2410308,0 -76.584095,39.2410369,0 -76.5835362,39.2410396,0 -76.5827376,39.2410749,0 -76.5824661,39.2411007,0 -76.5822725,39.2411252,0 -76.5819201,39.2411913,0 -76.58163860000001,39.2412534,0 -76.5812552,39.2413522,0 -76.5808267,39.2414891,0 -76.58045490000001,39.2416384,0 -76.58004,39.2418491,0 -76.5796874,39.2420526,0 -76.5795167,39.2421777,0 -76.5793678,39.2422986,0 -76.57922000000001,39.2424286,0 -76.5791031,39.2425318,0 -76.5789766,39.2426591,0 -76.5788745,39.2427781,0 -76.5786421,39.2430731,0 -76.5786078,39.243122,0 -76.57839989999999,39.243402,0 -76.5779965,39.2439471,0 -76.5775502,39.244665,0 -76.5766417,39.2460224,0 -76.5757302,39.2475541,0 -76.56631830000001,39.2616721,0 -76.56546400000001,39.2626108,0 -76.5652656,39.2627938,0 -76.5649142,39.2631103,0 -76.5645937,39.263346,0 -76.5640106,39.2637621,0 -76.5637634,39.2639342,0 -76.56333909999999,39.2642247,0 -76.5622286,39.2650157,0 -76.5620416,39.2651542,0 -76.5615305,39.2655327,0 -76.56109549999999,39.2658737,0 -76.56056359999999,39.2663391,0 -76.55958560000001,39.2672437,0 -76.5586505,39.2681042,0 -76.55780729999999,39.2688629,0 -76.5570036,39.2696087,0 -76.55638380000001,39.2701901,0 -76.5553847,39.2712253,0 -76.55502439999999,39.2716515,0 -76.5546331,39.2720876,0 -76.5540501,39.2729171,0 -76.5537849,39.2733643,0 -76.5535783,39.2737685,0 -76.5534535,39.2740692,0 -76.5533657,39.2743028,0 -76.5533355,39.2744014,0 -76.55327579999999,39.2746236,0 -76.553247,39.2747482,0 -76.5532269,39.2748603,0 -76.5532108,39.2749566,0 -76.553192,39.2750783,0 -76.55318200000001,39.2751899,0 -76.5531719,39.2753015,0 -76.5531625,39.2754092,0 -76.5531585,39.2756291,0 -76.5531558,39.2757445,0 -76.55316120000001,39.2760679,0 -76.5531685,39.2763981,0 -76.5531786,39.2768372,0 -76.553184,39.2770614,0 -76.55318870000001,39.2772675,0 -76.5531938,39.2774067,0 -76.55319919999999,39.2777463,0 -76.55321050000001,39.2781503,0 -76.553242,39.27942,0 -76.55324400000001,39.279915,0 -76.553248,39.280313,0 -76.553241,39.280584,0 -76.5532553,39.2808463,0 -76.55328419999999,39.2812542,0 -76.5532975,39.281632,0 -76.5533126,39.2820725,0 -76.5533318,39.282537,0 -76.5533521,39.2829754,0 -76.5533776,39.2833112,0 -76.55339650000001,39.2836731,0 -76.55342090000001,39.284021,0 -76.553426,39.284107,0 -76.55342760000001,39.2841803,0 -76.5534287,39.2842274,0 -76.55345819999999,39.2846717,0 -76.55348410000001,39.2850361,0 -76.5534935,39.2851809,0 -76.55352999999999,39.2857306,0 -76.55354749999999,39.2860478,0 -76.55355520000001,39.2861806,0 -76.5535575,39.2862219,0 -76.55360760000001,39.2870257,0 -76.55360930000001,39.2870471,0 -76.55363149999999,39.2873195,0 -76.5536494,39.2875371,0 -76.5537011,39.2883103,0 -76.55371390000001,39.2885571,0 -76.5537296,39.2889253,0 -76.5537437,39.2891136,0 -76.5537625,39.2893643,0 -76.5537898,39.2897531,0 -76.5538146,39.2901888,0 -76.5538377,39.2906042,0 -76.55384170000001,39.2907004,0 -76.5538356,39.2907889,0 -76.5538267,39.2912307,0 -76.55378,39.291541,0 -76.553764,39.291632,0 -76.55372749999999,39.2917904,0 -76.55368559999999,39.2919784,0 -76.55361809999999,39.2921731,0 -76.553596,39.292255,0 -76.553414,39.292664,0 -76.55335100000001,39.292798,0 -76.553123,39.293187,0 -76.552888,39.293541,0 -76.55259700000001,39.293932,0 -76.5520508,39.2946151,0 -76.5516186,39.2951548,0 -76.551433,39.295427,0 -76.5511822,39.2957362,0 -76.550714,39.29631,0 -76.550183,39.2970272,0 -76.54969749999999,39.2976665,0 -76.54915080000001,39.2984148,0 -76.5485228,39.2992364,0 -76.5482318,39.2995845,0 -76.5480889,39.2997821,0 -76.54799199999999,39.299916,0 -76.5479663,39.299947,0 -76.547709,39.300257,0 -76.5474785,39.3005465,0 -76.5472481,39.3008359,0 -76.5469762,39.3012044,0 -76.546722,39.301549,0 -76.5464432,39.3019352,0 -76.54629060000001,39.3021344,0 -76.545829,39.3027369,0 -76.54567609999999,39.3029366,0 -76.5452269,39.3035178,0 -76.54477489999999,39.3041197,0 -76.54446780000001,39.3045368,0 -76.5442465,39.3048481,0 -76.5441754,39.3049498,0 -76.5441017,39.3050536,0 -76.54402930000001,39.3051667,0 -76.5439787,39.3052443,0 -76.54395820000001,39.3052757,0 -76.5438884,39.3053795,0 -76.5434271,39.3061225,0 -76.54296840000001,39.3069028,0 -76.5426825,39.3074069,0 -76.5425353,39.3076655,0 -76.5421906,39.3082684,0 -76.5418459,39.3088661,0 -76.5416676,39.3091764,0 -76.5414959,39.3094752,0 -76.5411472,39.3100781,0 -76.5410859,39.3101872,0 -76.54084659999999,39.3106134,0 -76.5402064,39.3117533,0 -76.5399785,39.3120643,0 -76.53984149999999,39.3122653,0 -76.53963280000001,39.3125574,0 -76.5394987,39.3127393,0 -76.53935749999999,39.3129237,0 -76.5392073,39.313113,0 -76.5390538,39.3133003,0 -76.53897569999999,39.313394,0 -76.5388978,39.313487,0 -76.5388184,39.3135794,0 -76.538738,39.3136715,0 -76.53865709999999,39.3137628,0 -76.53857530000001,39.3138531,0 -76.53856159999999,39.313868,0 -76.5384092,39.3140334,0 -76.5383817,39.3140623,0 -76.538247,39.3142042,0 -76.5380754,39.3143771,0 -76.5379035,39.3145513,0 -76.537543,39.3149087,0 -76.53706459999999,39.3153274,0 -76.5363555,39.3159083,0 -76.5354693,39.3165386,0 -76.53482,39.3169954,0 -76.5337823,39.3177329,0 -76.5334199,39.3180527,0 -76.5330325,39.3184152,0 -76.5327781,39.3186538,0 -76.5323187,39.3192204,0 -76.5310377,39.3207963,0 -76.5284741,39.323495,0 -76.5281122,39.3238759,0 -76.52806,39.3239687,0 -76.5279378,39.3241627,0 
			</coordinates>
		</LineString>
		<atom:link rel="app" href="https://www.google.com/earth/about/versions/#earth-pro" title="Google Earth Pro 7.3.6.10201"></atom:link>
	</Placemark>
</Document>
</kml>
