<?xml version="1.0" encoding="UTF-8"?>
<kml xmlns="http://www.opengis.net/kml/2.2" xmlns:gx="http://www.google.com/kml/ext/2.2" xmlns:kml="http://www.opengis.net/kml/2.2" xmlns:atom="http://www.w3.org/2005/Atom">
<Document>
	<name>I.96.kml</name>
	<Placemark>
		<name>I.96</name>
		<LineString>
			<coordinates>
				-86.21129500000001,43.1744393,0 -86.21076069999999,43.174103,0 -86.20898800000001,43.1729811,0 -86.2071715,43.1718373,0 -86.20660669999999,43.1714731,0 -86.2056966,43.1709159,0 -86.20525960000001,43.1706363,0 -86.2047701,43.1703078,0 -86.2043029,43.1699874,0 -86.20389489999999,43.1696769,0 -86.203569,43.169428,0 -86.2029838,43.1689273,0 -86.20260740000001,43.1686044,0 -86.20258819999999,43.1685874,0 -86.202184,43.168241,0 -86.2006109,43.1668793,0 -86.19976029999999,43.1661461,0 -86.199263,43.165709,0 -86.198842,43.165336,0 -86.198297,43.164887,0 -86.198195,43.164803,0 -86.1966377,43.1634572,0 -86.1963664,43.1632196,0 -86.1958578,43.1627983,0 -86.1956366,43.1626214,0 -86.19515199999999,43.1622449,0 -86.1946007,43.1618197,0 -86.1938359,43.1612688,0 -86.1933908,43.1609582,0 -86.1930466,43.1607199,0 -86.1922687,43.1602119,0 -86.19179459999999,43.159907,0 -86.185734,43.156278,0 -86.18384399999999,43.155058,0 -86.18247700000001,43.154293,0 -86.180914,43.153316,0 -86.174668,43.149492,0 -86.169793,43.1464831,0 -86.1680545,43.1453993,0 -86.16623370000001,43.1442825,0 -86.16448440000001,43.1432567,0 -86.164382,43.143194,0 -86.15905189999999,43.1401238,0 -86.1553073,43.1379643,0 -86.1549107,43.1377324,0 -86.15203700000001,43.136076,0 -86.151917,43.136004,0 -86.15181,43.13594,0 -86.150454,43.135157,0 -86.147835,43.133645,0 -86.1470971,43.1332131,0 -86.146979,43.133144,0 -86.145837,43.132284,0 -86.145627,43.132133,0 -86.145216,43.131843,0 -86.14405600000001,43.130787,0 -86.14106339999999,43.1280137,0 -86.1409654,43.1279203,0 -86.14058,43.1275704,0 -86.13782500000001,43.125018,0 -86.134643,43.1220797,0 -86.134134,43.1216125,0 -86.13068800000001,43.118528,0 -86.13032800000001,43.118151,0 -86.130071,43.117938,0 -86.12987099999999,43.117771,0 -86.12958999999999,43.117538,0 -86.126147,43.114517,0 -86.1254811,43.1139266,0 -86.125212,43.113688,0 -86.12129299999999,43.110211,0 -86.11446599999999,43.104174,0 -86.114068,43.103832,0 -86.113829,43.103619,0 -86.11326800000001,43.103153,0 -86.112595,43.102614,0 -86.112369,43.102446,0 -86.11212399999999,43.102255,0 -86.109329,43.100224,0 -86.100939,43.094182,0 -86.100483,43.093858,0 -86.099423,43.093067,0 -86.09850400000001,43.092316,0 -86.097917,43.091787,0 -86.097368,43.091234,0 -86.096825,43.090641,0 -86.096422,43.090171,0 -86.095523,43.089157,0 -86.09397509999999,43.0873949,0 -86.093912,43.087323,0 -86.091965,43.085113,0 -86.091497,43.084585,0 -86.09128699999999,43.084348,0 -86.0898753,43.0827373,0 -86.088705,43.081402,0 -86.088048,43.08066,0 -86.0875793,43.0801243,0 -86.087146,43.079629,0 -86.086309,43.078685,0 -86.0850696,43.0772544,0 -86.0846189,43.0767604,0 -86.0844616,43.0765852,0 -86.0841879,43.0762827,0 -86.083922,43.075993,0 -86.083662,43.075736,0 -86.08331099999999,43.075426,0 -86.083073,43.075234,0 -86.08294600000001,43.075124,0 -86.08239159999999,43.0747324,0 -86.081963,43.074436,0 -86.0813742,43.0740751,0 -86.0811681,43.0739582,0 -86.0808442,43.0737813,0 -86.08055520000001,43.0736359,0 -86.0800586,43.0733888,0 -86.07952640000001,43.0731578,0 -86.07911489999999,43.0729942,0 -86.0785777,43.0727907,0 -86.0782897,43.0726962,0 -86.0779335,43.0725801,0 -86.0775742,43.0724743,0 -86.076931,43.072297,0 -86.076196,43.07214,0 -86.075732,43.07206,0 -86.075289,43.071991,0 -86.074572,43.071893,0 -86.074314,43.071864,0 -86.073615,43.071803,0 -86.073305,43.071786,0 -86.072895,43.071774,0 -86.072485,43.071765,0 -86.071894,43.071775,0 -86.071416,43.07179,0 -86.070696,43.07184,0 -86.06983700000001,43.071937,0 -86.067714,43.072287,0 -86.063817,43.072928,0 -86.063266,43.073005,0 -86.061677,43.073273,0 -86.06041,43.07347,0 -86.059939,43.073536,0 -86.059495,43.07359,0 -86.058768,43.073657,0 -86.05795000000001,43.073719,0 -86.05709400000001,43.073749,0 -86.056799,43.07376,0 -86.056111,43.073765,0 -86.055526,43.073751,0 -86.05257400000001,43.073628,0 -86.052019,43.0736013,0 -86.050686,43.073549,0 -86.048912,43.073461,0 -86.048519,43.073437,0 -86.04772,43.073411,0 -86.04703499999999,43.073371,0 -86.045092,43.073272,0 -86.04325799999999,43.073161,0 -86.04265700000001,43.0731,0 -86.0425414,43.0730843,0 -86.04211100000001,43.073026,0 -86.041602,43.072947,0 -86.040848,43.072813,0 -86.04029,43.072708,0 -86.03962199999999,43.072562,0 -86.03626800000001,43.071706,0 -86.03521000000001,43.071442,0 -86.03310500000001,43.070902,0 -86.032039,43.070642,0 -86.03094,43.070418,0 -86.030214,43.070296,0 -86.029304,43.070173,0 -86.027824,43.070026,0 -86.027176,43.069991,0 -86.026606,43.069971,0 -86.025345,43.069946,0 -86.022892,43.069947,0 -86.016632,43.069939,0 -86.009444,43.06994,0 -86.0072103,43.0699485,0 -86.0068134,43.069947,0 -86.003641,43.069929,0 -85.997102,43.069926,0 -85.99057500000001,43.069914,0 -85.987387,43.069915,0 -85.986662,43.0699,0 -85.986164,43.069879,0 -85.98538600000001,43.069825,0 -85.984887,43.0697682,0 -85.98466500000001,43.069743,0 -85.983903,43.069627,0 -85.983187,43.06948,0 -85.98230599999999,43.069268,0 -85.981595,43.069063,0 -85.98106900000001,43.068881,0 -85.98028100000001,43.068585,0 -85.97965000000001,43.068312,0 -85.978753,43.067867,0 -85.978092,43.067523,0 -85.977051,43.066974,0 -85.975521,43.066183,0 -85.97401600000001,43.065388,0 -85.972621,43.064671,0 -85.97221159999999,43.0644553,0 -85.971251,43.063949,0 -85.97004699999999,43.063324,0 -85.96868000000001,43.062608,0 -85.96762200000001,43.062038,0 -85.96686699999999,43.061649,0 -85.96605099999999,43.061199,0 -85.964495,43.060361,0 -85.96373800000001,43.059958,0 -85.962304,43.059181,0 -85.960127,43.058031,0 -85.959557,43.057711,0 -85.9590805,43.0574557,0 -85.955821,43.055709,0 -85.95517,43.055361,0 -85.953266,43.054345,0 -85.952535,43.054012,0 -85.95209199999999,43.05383,0 -85.95157500000001,43.053647,0 -85.950892,43.053429,0 -85.950489,43.053305,0 -85.949754,43.053117,0 -85.948773,43.052915,0 -85.947954,43.052784,0 -85.947339,43.052698,0 -85.946866,43.052649,0 -85.946403,43.052622,0 -85.94552299999999,43.0526,0 -85.944311,43.0526,0 -85.940972,43.05263,0 -85.9314698,43.0527459,0 -85.92784349999999,43.0527901,0 -85.9272868,43.0527984,0 -85.913799,43.052947,0 -85.91053549999999,43.052983,0 -85.90389500000001,43.053061,0 -85.8967085,43.0531392,0 -85.89644699999999,43.053142,0 -85.891791,43.053215,0 -85.89076799999999,43.053201,0 -85.889788,43.05311,0 -85.88932,43.053058,0 -85.888876,43.052991,0 -85.88821,43.052877,0 -85.887232,43.052676,0 -85.882499,43.051612,0 -85.87540199999999,43.049995,0 -85.873699,43.049622,0 -85.869788,43.048756,0 -85.868709,43.048526,0 -85.867462,43.048249,0 -85.86614,43.047956,0 -85.857045,43.045915,0 -85.84778230000001,43.0438625,0 -85.84735209999999,43.043769,0 -85.843799,43.042974,0 -85.842569,43.042694,0 -85.84008900000001,43.042144,0 -85.839713,43.042055,0 -85.83845599999999,43.041777,0 -85.837388,43.041522,0 -85.836034,43.041174,0 -85.835033,43.040901,0 -85.834497,43.040727,0 -85.834203,43.040641,0 -85.8328655,43.0401941,0 -85.83208999999999,43.039935,0 -85.8289418,43.0388924,0 -85.82854500000001,43.038761,0 -85.826367,43.038032,0 -85.826126,43.037952,0 -85.82535,43.037694,0 -85.82257300000001,43.036782,0 -85.82003899999999,43.035965,0 -85.818273,43.035346,0 -85.817323,43.035029,0 -85.81603800000001,43.034591,0 -85.81461400000001,43.034083,0 -85.81314500000001,43.033495,0 -85.81212499999999,43.033134,0 -85.8069855,43.0310985,0 -85.8063155,43.0308381,0 -85.80390800000001,43.029884,0 -85.8020367,43.0291849,0 -85.8015267,43.0289673,0 -85.799469,43.028255,0 -85.79842499999999,43.02798,0 -85.79755400000001,43.027779,0 -85.796448,43.027579,0 -85.795725,43.027476,0 -85.79429,43.027292,0 -85.7896791,43.0267291,0 -85.78651309999999,43.0263426,0 -85.7845094,43.026098,0 -85.78354299999999,43.02598,0 -85.7813268,43.0257061,0 -85.78053939999999,43.0255578,0 -85.7796956,43.0253298,0 -85.7787783,43.0249951,0 -85.7782988,43.024786,0 -85.7775462,43.0243653,0 -85.7770599,43.0240779,0 -85.7765268,43.0236612,0 -85.77617739999999,43.0233408,0 -85.775587,43.022727,0 -85.77416100000001,43.020829,0 -85.773731,43.020344,0 -85.773203,43.019836,0 -85.77297299999999,43.019655,0 -85.77270799999999,43.019467,0 -85.77244899999999,43.019294,0 -85.7721244,43.0191059,0 -85.77166200000001,43.018865,0 -85.7712501,43.0186826,0 -85.771011,43.0185814,0 -85.77082900000001,43.0185094,0 -85.7705893,43.0184276,0 -85.77036769999999,43.0183541,0 -85.7701701,43.0182954,0 -85.7699685,43.0182421,0 -85.7697495,43.0181888,0 -85.7695587,43.0181444,0 -85.7693289,43.018096,0 -85.7690992,43.0180535,0 -85.7688414,43.0180139,0 -85.7686092,43.0179815,0 -85.7683917,43.017958,0 -85.7680919,43.0179339,0 -85.76779740000001,43.0179147,0 -85.7674444,43.0179015,0 -85.76690670000001,43.0178918,0 -85.7624235,43.0177692,0 -85.757113,43.017657,0 -85.7547526,43.0176023,0 -85.746582,43.017413,0 -85.746128,43.017397,0 -85.742881,43.017343,0 -85.742199,43.017365,0 -85.74145300000001,43.01741,0 -85.740566,43.017516,0 -85.739896,43.017619,0 -85.73956200000001,43.017681,0 -85.739344,43.017734,0 -85.7373532,43.0181942,0 -85.73674250000001,43.0183346,0 -85.7341004,43.0189455,0 -85.7308194,43.0197086,0 -85.729893,43.019922,0 -85.7257695,43.0208823,0 -85.7240066,43.0212768,0 -85.7236675,43.0213441,0 -85.7234229,43.0213915,0 -85.7231393,43.0214379,0 -85.7229348,43.0214681,0 -85.72257399999999,43.021514,0 -85.72186480000001,43.02159,0 -85.7216154,43.0216104,0 -85.7213675,43.0216268,0 -85.7210795,43.0216433,0 -85.7208184,43.0216509,0 -85.72049610000001,43.0216579,0 -85.7201578,43.0216589,0 -85.7198542,43.0216525,0 -85.7195869,43.0216421,0 -85.719275,43.021623,0 -85.718538,43.021568,0 -85.7172455,43.0214103,0 -85.71669919999999,43.0213307,0 -85.7088253,43.020157,0 -85.7084072,43.0200936,0 -85.70742920000001,43.0199468,0 -85.7063795,43.0197892,0 -85.7053836,43.0196125,0 -85.7048435,43.0195135,0 -85.70422910000001,43.0193879,0 -85.7040319,43.0193468,0 -85.70364669999999,43.0192666,0 -85.7029173,43.0191069,0 -85.7021558,43.018927,0 -85.70147729999999,43.0187556,0 -85.7007435,43.0185619,0 -85.700033,43.0183735,0 -85.6990109,43.0180999,0 -85.69782429999999,43.0177837,0 -85.6969653,43.017553,0 -85.6961398,43.0173313,0 -85.695599,43.0171881,0 -85.69423980000001,43.0168254,0 -85.6936211,43.016662,0 -85.69302570000001,43.0165109,0 -85.6923748,43.0163682,0 -85.6916454,43.0162235,0 -85.6911053,43.0161351,0 -85.6905738,43.0160542,0 -85.6897556,43.0159467,0 -85.6886817,43.0158022,0 -85.68719609999999,43.0156268,0 -85.6867166,43.0156136,0 -85.68647230000001,43.0156069,0 -85.68610820000001,43.0156022,0 -85.68537790000001,43.0155966,0 -85.6847212,43.0156108,0 -85.684388,43.0156263,0 -85.68398449999999,43.0156548,0 -85.6832922,43.0157354,0 -85.68266869999999,43.0158186,0 -85.6822671,43.0158855,0 -85.68188240000001,43.0159539,0 -85.6810469,43.0161497,0 -85.6799041,43.0164651,0 -85.6790757,43.0167515,0 -85.6782707,43.017076,0 -85.67693509999999,43.0176538,0 -85.676841,43.0176939,0 -85.6764471,43.0178628,0 -85.6757753,43.0181607,0 -85.6753293,43.0183565,0 -85.674571,43.0186938,0 -85.67318400000001,43.0193155,0 -85.67283949999999,43.0194646,0 -85.6710537,43.0202145,0 -85.67052,43.020413,0 -85.669774,43.0206457,0 -85.6695119,43.0207209,0 -85.669303,43.0207759,0 -85.66887970000001,43.0208607,0 -85.66777089999999,43.0210444,0 -85.6676516,43.0210574,0 -85.66719310000001,43.0211172,0 -85.6667064,43.0211494,0 -85.66624849999999,43.0211637,0 -85.6657225,43.0211628,0 -85.6640007,43.021135,0 -85.6611308,43.0211011,0 -85.66036649999999,43.0210894,0 -85.6598384,43.0210827,0 -85.6573891,43.021043,0 -85.65498409999999,43.021004,0 -85.6544432,43.0209971,0 -85.641749,43.020837,0 -85.641139,43.020816,0 -85.64080199999999,43.020792,0 -85.64048099999999,43.020748,0 -85.640063,43.020679,0 -85.639425,43.020538,0 -85.63903759999999,43.0204269,0 -85.63886290000001,43.020369,0 -85.6386122,43.0202784,0 -85.6382904,43.020149,0 -85.6376051,43.019829,0 -85.6372497,43.0196603,0 -85.635053,43.018556,0 -85.63412,43.018099,0 -85.63349100000001,43.017802,0 -85.63318,43.01768,0 -85.632831,43.017555,0 -85.632471,43.01745,0 -85.63209500000001,43.017351,0 -85.631394,43.01721,0 -85.630842,43.017139,0 -85.62902,43.016918,0 -85.6250344,43.0164391,0 -85.61768600000001,43.015556,0 -85.617059,43.015461,0 -85.61621700000001,43.015289,0 -85.615577,43.01514,0 -85.614862,43.014942,0 -85.61439,43.01479,0 -85.613505,43.01448,0 -85.612999,43.014274,0 -85.612435,43.014027,0 -85.611738,43.013697,0 -85.61093649999999,43.0132544,0 -85.610418,43.012946,0 -85.60986800000001,43.012582,0 -85.609475,43.01231,0 -85.608564,43.011566,0 -85.608011,43.011035,0 -85.60754900000001,43.010558,0 -85.607229,43.010181,0 -85.60682,43.009664,0 -85.606652,43.009423,0 -85.60624799999999,43.008799,0 -85.606041,43.008424,0 -85.605948,43.008243,0 -85.60583699999999,43.008028,0 -85.605655,43.007634,0 -85.60548900000001,43.007227,0 -85.60526,43.006567,0 -85.60512199999999,43.006036,0 -85.60502700000001,43.005494,0 -85.604949,43.004943,0 -85.604921,43.004105,0 -85.604919,43.003419,0 -85.604934,43.002782,0 -85.605009,42.995202,0 -85.605003,42.994209,0 -85.6050061,42.9940129,0 -85.60504539999999,42.9925466,0 -85.605045,42.9915731,0 -85.60507629999999,42.9896612,0 -85.6050827,42.9890644,0 -85.6050991,42.9881607,0 -85.6050887,42.9877299,0 -85.605113,42.984612,0 -85.6051464,42.981501,0 -85.6051585,42.9804846,0 -85.6051513,42.9802369,0 -85.6051476,42.9801512,0 -85.6051384,42.9800339,0 -85.60512730000001,42.9799409,0 -85.6051093,42.979824,0 -85.6050748,42.9796698,0 -85.605036,42.9794985,0 -85.60499729999999,42.9793586,0 -85.60495090000001,42.979209,0 -85.6049036,42.9790586,0 -85.60486179999999,42.9789496,0 -85.6048093,42.9788248,0 -85.6047547,42.9786956,0 -85.6046625,42.9785125,0 -85.6045848,42.9783726,0 -85.60450590000001,42.9782358,0 -85.6044194,42.9781027,0 -85.6043032,42.9779352,0 -85.60420449999999,42.9777992,0 -85.6041287,42.9777073,0 -85.6040091,42.9775657,0 -85.6038683,42.9774126,0 -85.60367359999999,42.9772041,0 -85.6035727,42.9771143,0 -85.6033891,42.976943,0 -85.6032036,42.9767882,0 -85.6030476,42.9766608,0 -85.6029236,42.9765694,0 -85.6027974,42.976477,0 -85.6025971,42.9763407,0 -85.6024389,42.9762438,0 -85.6022985,42.976157,0 -85.6021758,42.9760884,0 -85.6020259,42.9760051,0 -85.6018734,42.9759266,0 -85.60168609999999,42.9758323,0 -85.60151860000001,42.9757547,0 -85.6013593,42.9756839,0 -85.6011862,42.9756115,0 -85.6010199,42.9755479,0 -85.6008272,42.975479,0 -85.6006143,42.9754109,0 -85.600314,42.9753143,0 -85.6000469,42.9752289,0 -85.5997045,42.9751234,0 -85.5993837,42.9750258,0 -85.5984529,42.9747446,0 -85.59795509999999,42.9745929,0 -85.59665409999999,42.9742155,0 -85.59448,42.9735898,0 -85.593918,42.9734343,0 -85.59327330000001,42.9732583,0 -85.59274670000001,42.9731146,0 -85.5920909,42.9729395,0 -85.5915423,42.9728016,0 -85.59041329999999,42.972525,0 -85.59027260000001,42.9724893,0 -85.5900929,42.9724374,0 -85.5898852,42.9723698,0 -85.5897263,42.9723174,0 -85.5895556,42.9722511,0 -85.5893487,42.9721681,0 -85.58916240000001,42.9720866,0 -85.58903909999999,42.9720286,0 -85.58897109999999,42.9719964,0 -85.58870949999999,42.9718618,0 -85.58853430000001,42.9717684,0 -85.58840790000001,42.9716912,0 -85.58831309999999,42.971632,0 -85.5882048,42.9715622,0 -85.5881116,42.9714989,0 -85.58800170000001,42.971425,0 -85.5878802,42.9713371,0 -85.5877897,42.9712678,0 -85.5877222,42.971216,0 -85.5876262,42.9711436,0 -85.58753419999999,42.9710701,0 -85.587457,42.9709976,0 -85.587357,42.9709105,0 -85.5872727,42.9708311,0 -85.5871777,42.9707346,0 -85.5870657,42.9706204,0 -85.58696620000001,42.9705128,0 -85.5868547,42.9703842,0 -85.5867543,42.9702635,0 -85.5866743,42.9701609,0 -85.5865956,42.9700581,0 -85.58649320000001,42.969924,0 -85.5864014,42.9697995,0 -85.58632660000001,42.9697051,0 -85.58622889999999,42.9695865,0 -85.586044,42.9693467,0 -85.5858722,42.9691309,0 -85.5854305,42.9685822,0 -85.5850626,42.9681251,0 -85.5849176,42.9679397,0 -85.5847522,42.9677259,0 -85.58466110000001,42.967612,0 -85.58453919999999,42.9674623,0 -85.584367,42.9672519,0 -85.5842583,42.9671168,0 -85.5841483,42.9669736,0 -85.5840479,42.9668547,0 -85.5838929,42.9666742,0 -85.5837277,42.9664788,0 -85.5835697,42.9663099,0 -85.5833768,42.9661027,0 -85.583236,42.965956,0 -85.58289499999999,42.965628,0 -85.582652,42.965413,0 -85.582285,42.965113,0 -85.58188199999999,42.964806,0 -85.58016000000001,42.963545,0 -85.5798013,42.9632752,0 -85.57741540000001,42.9615303,0 -85.5766438,42.9609722,0 -85.5761978,42.960662,0 -85.5753903,42.9600849,0 -85.5750926,42.9598672,0 -85.573577,42.958773,0 -85.5731176,42.9584309,0 -85.57270750000001,42.9580977,0 -85.5725364,42.9579608,0 -85.5721343,42.9575996,0 -85.5720601,42.9575305,0 -85.5719301,42.9574127,0 -85.5718399,42.957313,0 -85.571774,42.9572339,0 -85.5716911,42.9571503,0 -85.57151639999999,42.9569915,0 -85.5713075,42.9567946,0 -85.5711146,42.9566072,0 -85.5709523,42.9564437,0 -85.57072549999999,42.9561906,0 -85.57060920000001,42.9560577,0 -85.57046010000001,42.9558789,0 -85.57017740000001,42.955537,0 -85.5695484,42.9546881,0 -85.56947030000001,42.9545669,0 -85.5693977,42.954457,0 -85.569126,42.954032,0 -85.568788,42.9534392,0 -85.5684487,42.9527683,0 -85.56837899999999,42.9526135,0 -85.5683441,42.9525017,0 -85.56807019999999,42.9518603,0 -85.5679872,42.951628,0 -85.5679094,42.951408,0 -85.567835,42.95118,0 -85.5677539,42.9509193,0 -85.5676778,42.9506411,0 -85.5676241,42.9504202,0 -85.56757,42.950184,0 -85.567453,42.949601,0 -85.56734,42.948526,0 -85.567329,42.948441,0 -85.56727600000001,42.94805,0 -85.56698299999999,42.944689,0 -85.566942,42.944278,0 -85.56690399999999,42.94389,0 -85.566883,42.943607,0 -85.566788,42.94267,0 -85.566683,42.941136,0 -85.566374,42.937999,0 -85.566348,42.937659,0 -85.5662954,42.9374018,0 -85.56608199999999,42.936359,0 -85.565855,42.935597,0 -85.56554199999999,42.934857,0 -85.565212,42.934173,0 -85.564763,42.933422,0 -85.56431000000001,42.932785,0 -85.563759,42.932097,0 -85.56310999999999,42.931397,0 -85.562151,42.930507,0 -85.561538,42.930007,0 -85.5490142,42.9214715,0 -85.54890349999999,42.9213938,0 -85.54874119999999,42.9212799,0 -85.548044,42.920798,0 -85.547848,42.920663,0 -85.546217,42.919537,0 -85.5440634,42.9180655,0 -85.542005,42.916659,0 -85.541421,42.916266,0 -85.5400143,42.9153092,0 -85.53772600000001,42.913737,0 -85.5367743,42.9130806,0 -85.53604869999999,42.9125889,0 -85.5359449,42.9125167,0 -85.533604,42.910916,0 -85.53247399999999,42.910149,0 -85.531312,42.909359,0 -85.53088700000001,42.90905,0 -85.52876500000001,42.907617,0 -85.52853500000001,42.90746,0 -85.527996,42.907087,0 -85.5276676,42.906869,0 -85.527176,42.906531,0 -85.52687299999999,42.906309,0 -85.52620400000001,42.905819,0 -85.5249967,42.9047544,0 -85.522538,42.902377,0 -85.521812,42.901771,0 -85.52116599999999,42.901283,0 -85.52074399999999,42.901002,0 -85.52041850000001,42.9007999,0 -85.52007089999999,42.9005938,0 -85.519778,42.9004336,0 -85.5191197,42.9000956,0 -85.51816599999999,42.899636,0 -85.51769899999999,42.899416,0 -85.516442,42.8988,0 -85.5149624,42.8979883,0 -85.51405699999999,42.897466,0 -85.512353,42.896397,0 -85.5113046,42.8956812,0 -85.508416,42.893704,0 -85.5078595,42.8933245,0 -85.50730299999999,42.892945,0 -85.504463,42.891009,0 -85.50385300000001,42.890653,0 -85.50326,42.89035,0 -85.50258599999999,42.890065,0 -85.501794,42.889776,0 -85.500738,42.889489,0 -85.50014760000001,42.8893675,0 -85.49839110000001,42.8891547,0 -85.496683,42.888992,0 -85.49262,42.888668,0 -85.491698,42.888587,0 -85.490064,42.888444,0 -85.4877388,42.8882534,0 -85.4861283,42.8881301,0 -85.48254799999999,42.887821,0 -85.48223900000001,42.8877914,0 -85.4794089,42.8875207,0 -85.4786268,42.8873662,0 -85.4780861,42.8872257,0 -85.4775242,42.8870354,0 -85.476945,42.886833,0 -85.47613800000001,42.886455,0 -85.475283,42.88595,0 -85.474547,42.885423,0 -85.474042,42.884954,0 -85.473771,42.884693,0 -85.470219,42.88046,0 -85.46990099999999,42.880134,0 -85.46987300000001,42.880105,0 -85.469658,42.879911,0 -85.46943400000001,42.879724,0 -85.46920799999999,42.879567,0 -85.468727,42.879271,0 -85.468188,42.878972,0 -85.467651,42.878734,0 -85.467105,42.878523,0 -85.466449,42.87834,0 -85.465738,42.878191,0 -85.465056,42.87811,0 -85.464643,42.878083,0 -85.4620687,42.8780962,0 -85.4295875,42.8782632,0 -85.425158,42.878286,0 -85.39851299999999,42.878437,0 -85.393838,42.878467,0 -85.38699509999999,42.8785052,0 -85.3842983,42.8785203,0 -85.380769,42.87854,0 -85.37721740000001,42.8785606,0 -85.36590080000001,42.8786187,0 -85.363747,42.878628,0 -85.36320000000001,42.878609,0 -85.36225,42.878543,0 -85.361192,42.878425,0 -85.36013269999999,42.8783105,0 -85.349259,42.877135,0 -85.346986,42.876893,0 -85.34532299999999,42.876713,0 -85.3314354,42.875214,0 -85.32842100000001,42.8748894,0 -85.326442,42.874667,0 -85.3237864,42.8743929,0 -85.32269599999999,42.874328,0 -85.32234200000001,42.874324,0 -85.321787,42.874327,0 -85.321472,42.874339,0 -85.320859,42.874371,0 -85.320266,42.874422,0 -85.319574,42.874501,0 -85.31885699999999,42.874615,0 -85.318153,42.874754,0 -85.317634,42.874869,0 -85.317291,42.874965,0 -85.316839,42.875084,0 -85.31651599999999,42.875183,0 -85.316023,42.875345,0 -85.315504,42.875532,0 -85.314779,42.875824,0 -85.3114863,42.8774026,0 -85.310681,42.877773,0 -85.310377,42.877907,0 -85.310057,42.878042,0 -85.30925499999999,42.878312,0 -85.308565,42.878506,0 -85.308087,42.878623,0 -85.307571,42.878722,0 -85.306916,42.878824,0 -85.306203,42.878898,0 -85.305717,42.878926,0 -85.304923,42.878939,0 -85.29674780000001,42.8789843,0 -85.293075,42.879008,0 -85.29074799999999,42.87901,0 -85.28969499999999,42.879011,0 -85.288867,42.879,0 -85.288437,42.878971,0 -85.287829,42.878924,0 -85.287171,42.878824,0 -85.286751,42.878758,0 -85.285557,42.87849,0 -85.284735,42.878324,0 -85.284378,42.878257,0 -85.283666,42.878185,0 -85.282737,42.878127,0 -85.281994,42.878121,0 -85.281237,42.878168,0 -85.28033499999999,42.878252,0 -85.278347,42.878427,0 -85.277361,42.87852,0 -85.276749,42.878591,0 -85.274427,42.878961,0 -85.273447,42.879054,0 -85.272965,42.879073,0 -85.27247699999999,42.879087,0 -85.25944200000001,42.879161,0 -85.2544973,42.8791866,0 -85.2494942,42.8792126,0 -85.249426,42.879213,0 -85.2483604,42.8792194,0 -85.244544,42.879231,0 -85.2416001,42.8792399,0 -85.23799200000001,42.879242,0 -85.2328704,42.8792413,0 -85.2303367,42.8792436,0 -85.22214200000001,42.879233,0 -85.21452979999999,42.879233,0 -85.2118591,42.8792334,0 -85.2083885,42.8792365,0 -85.2033788,42.879228,0 -85.1935256,42.879222,0 -85.18852200000001,42.879224,0 -85.185292,42.8792201,0 -85.182762,42.879217,0 -85.17355000000001,42.879205,0 -85.1680915,42.8792065,0 -85.1668583,42.8792022,0 -85.163389,42.879192,0 -85.160399,42.879111,0 -85.158035,42.878996,0 -85.1542424,42.8788821,0 -85.1530637,42.8788396,0 -85.1521723,42.878806,0 -85.15158270000001,42.8787952,0 -85.1509903,42.8788018,0 -85.1502416,42.8788207,0 -85.1495493,42.878853,0 -85.14885700000001,42.878894,0 -85.146912,42.8790078,0 -85.145864,42.8790691,0 -85.1450356,42.8791157,0 -85.1441718,42.8791619,0 -85.143308,42.879182,0 -85.139743,42.8791788,0 -85.1351816,42.8791771,0 -85.1324947,42.8791719,0 -85.12935109999999,42.879168,0 -85.126441,42.879176,0 -85.124334,42.879179,0 -85.12174570000001,42.8791698,0 -85.12153259999999,42.8791679,0 -85.1201994,42.8791622,0 -85.11441600000001,42.8791596,0 -85.1093192,42.8791606,0 -85.1042358,42.8791561,0 -85.09464699999999,42.879157,0 -85.09266030000001,42.8791455,0 -85.089789,42.879129,0 -85.0889964,42.8791267,0 -85.08284639999999,42.8791286,0 -85.0753431,42.8791107,0 -85.07254709999999,42.8791058,0 -85.06798259999999,42.8790987,0 -85.064859,42.879091,0 -85.0621491,42.8790832,0 -85.05995849999999,42.8790769,0 -85.058914,42.879078,0 -85.05729700000001,42.879064,0 -85.05513000000001,42.879067,0 -85.05473600000001,42.8790625,0 -85.05434200000001,42.879058,0 -85.0511588,42.8790491,0 -85.0448313,42.8790313,0 -85.0434434,42.8790266,0 -85.0393471,42.879009,0 -85.036095,42.878998,0 -85.0346378,42.8789913,0 -85.03109139999999,42.8789835,0 -85.03045590000001,42.8789846,0 -85.02698599999999,42.87898,0 -85.02337,42.8789655,0 -85.015361,42.878943,0 -84.99600599999999,42.878905,0 -84.992908,42.878906,0 -84.98180619999999,42.8788593,0 -84.9799835,42.8788476,0 -84.9792838,42.8788139,0 -84.978855,42.878781,0 -84.9783413,42.8787296,0 -84.9775762,42.878622,0 -84.97685439999999,42.8784933,0 -84.9759802,42.8782962,0 -84.97545890000001,42.8781578,0 -84.97505990000001,42.8780353,0 -84.9717218,42.8769235,0 -84.96927100000001,42.876077,0 -84.96850499999999,42.87573,0 -84.967252,42.875066,0 -84.96674299999999,42.874738,0 -84.966437,42.874541,0 -84.966284,42.87443,0 -84.9659169,42.8741294,0 -84.9653452,42.873646,0 -84.9648231,42.8731557,0 -84.9631976,42.8715836,0 -84.9628792,42.871277,0 -84.9621428,42.8705657,0 -84.9617621,42.8702158,0 -84.9613657,42.8698659,0 -84.9609033,42.8695003,0 -84.9604284,42.8691347,0 -84.95979699999999,42.8686834,0 -84.959445,42.8684542,0 -84.959096,42.868225,0 -84.95814799999999,42.867687,0 -84.957324,42.867237,0 -84.95674099999999,42.866938,0 -84.95629889999999,42.8667537,0 -84.9554894,42.8664139,0 -84.9550327,42.8662333,0 -84.95459719999999,42.8660746,0 -84.9541732,42.8659305,0 -84.95375249999999,42.8657886,0 -84.953305,42.8656489,0 -84.9527159,42.8654782,0 -84.9521001,42.8653185,0 -84.95158739999999,42.865196,0 -84.950919,42.865052,0 -84.950294,42.86493,0 -84.94983259999999,42.864851,0 -84.94935940000001,42.8647786,0 -84.9484709,42.8646624,0 -84.94767520000001,42.8645831,0 -84.94684700000001,42.864519,0 -84.9465065,42.8645057,0 -84.94616379999999,42.8644941,0 -84.94538,42.864479,0 -84.94207230000001,42.8644995,0 -84.9394751,42.8645215,0 -84.9381776,42.8645333,0 -84.9375278,42.8645277,0 -84.9368779,42.864514,0 -84.9364605,42.8644914,0 -84.9359269,42.8644622,0 -84.935517,42.864428,0 -84.9350361,42.8643866,0 -84.9344337,42.8643192,0 -84.93398379999999,42.8642577,0 -84.93353399999999,42.8641919,0 -84.93278840000001,42.8640657,0 -84.93242069999999,42.863994,0 -84.9296674,42.8633971,0 -84.9273819,42.8628907,0 -84.9232459,42.8619845,0 -84.9217994,42.8616634,0 -84.918637,42.8609601,0 -84.91828889999999,42.8608807,0 -84.9168114,42.8605526,0 -84.9155051,42.8602831,0 -84.9147801,42.8601644,0 -84.91441380000001,42.8601239,0 -84.9138714,42.8600765,0 -84.9135162,42.8600567,0 -84.9132723,42.8600467,0 -84.9130232,42.8600391,0 -84.91253639999999,42.8600414,0 -84.9120009,42.8600626,0 -84.91173190000001,42.8600813,0 -84.91122300000001,42.8601285,0 -84.910859,42.8601732,0 -84.91051,42.860229,0 -84.9095836,42.8603758,0 -84.90873999999999,42.86051,0 -84.906177,42.8609273,0 -84.9059342,42.8609628,0 -84.9056823,42.8609966,0 -84.9051125,42.8610566,0 -84.90481509999999,42.8610758,0 -84.90452000000001,42.86109,0 -84.9041845,42.8610983,0 -84.9038151,42.8611,0 -84.9035567,42.8610955,0 -84.9032802,42.8610836,0 -84.90275200000001,42.861044,0 -84.9020007,42.8609868,0 -84.9015721,42.8609556,0 -84.89155839999999,42.8602062,0 -84.8911507,42.8601759,0 -84.89056170000001,42.8601306,0 -84.88999819999999,42.8600858,0 -84.8847899,42.8596955,0 -84.88422370000001,42.8596523,0 -84.88258070000001,42.859527,0 -84.881811,42.8594695,0 -84.8814522,42.8594415,0 -84.879227,42.859268,0 -84.877027,42.859116,0 -84.876721,42.859085,0 -84.876305,42.859042,0 -84.87583480000001,42.8589763,0 -84.8753567,42.8588953,0 -84.87495029999999,42.8588122,0 -84.8747022,42.8587556,0 -84.8744501,42.8586914,0 -84.87398090000001,42.8585611,0 -84.87347800000001,42.8584,0 -84.87307680000001,42.8582589,0 -84.87270700000001,42.858114,0 -84.87227,42.857923,0 -84.87181,42.857696,0 -84.871422,42.857484,0 -84.87059600000001,42.85697,0 -84.86835960000001,42.8555512,0 -84.86728599999999,42.85487,0 -84.865956,42.854019,0 -84.864419,42.853052,0 -84.859714,42.850061,0 -84.857356,42.848562,0 -84.85534,42.847282,0 -84.85438000000001,42.846665,0 -84.853888,42.846362,0 -84.851703,42.844973,0 -84.850724,42.844332,0 -84.850313,42.844036,0 -84.84995499999999,42.843754,0 -84.849512,42.843372,0 -84.8491751,42.8430597,0 -84.8487854,42.8426659,0 -84.84852600000001,42.842369,0 -84.8481658,42.841921,0 -84.84784000000001,42.841467,0 -84.847542,42.841002,0 -84.846767,42.839705,0 -84.846523,42.839244,0 -84.845365,42.837237,0 -84.84489069999999,42.8364237,0 -84.84442110000001,42.8356103,0 -84.84191199999999,42.831286,0 -84.841449,42.830508,0 -84.841165,42.830097,0 -84.84087100000001,42.82971,0 -84.840557,42.829361,0 -84.84019000000001,42.829009,0 -84.83955899999999,42.828463,0 -84.839159,42.828156,0 -84.838672,42.827837,0 -84.838222,42.827565,0 -84.838015,42.827454,0 -84.837772,42.827324,0 -84.8371095,42.8270118,0 -84.836733,42.826859,0 -84.836305,42.826703,0 -84.835916,42.826569,0 -84.83525899999999,42.826368,0 -84.833037,42.825735,0 -84.832491,42.825584,0 -84.8304028,42.8249939,0 -84.82804299999999,42.824327,0 -84.81321,42.820101,0 -84.8012679,42.8166761,0 -84.7984804,42.8158807,0 -84.7943714,42.8147082,0 -84.7917652,42.8139863,0 -84.78902410000001,42.8132047,0 -84.78825260000001,42.8129866,0 -84.7850155,42.8120563,0 -84.779642,42.810539,0 -84.778826,42.810299,0 -84.7739479,42.808916,0 -84.772216,42.808425,0 -84.76869499999999,42.807411,0 -84.76389500000001,42.806043,0 -84.75904800000001,42.804678,0 -84.75779,42.80432,0 -84.753918,42.803435,0 -84.7508165,42.8027071,0 -84.7496585,42.8024224,0 -84.74698530000001,42.8018038,0 -84.7453843,42.8014404,0 -84.73713890000001,42.7995353,0 -84.7365963,42.7994106,0 -84.7360728,42.7992897,0 -84.73559040000001,42.7991863,0 -84.73433919999999,42.7989518,0 -84.7338881,42.7988844,0 -84.73353160000001,42.7988395,0 -84.732964,42.798771,0 -84.73238910000001,42.7987116,0 -84.7317863,42.7986617,0 -84.7313515,42.7986359,0 -84.7308475,42.7986143,0 -84.729501,42.798602,0 -84.7280921,42.7985837,0 -84.724564,42.798538,0 -84.721271,42.798507,0 -84.719617,42.798492,0 -84.718593,42.798478,0 -84.71576,42.798434,0 -84.711367,42.798387,0 -84.704325,42.7982975,0 -84.69861899999999,42.798225,0 -84.69702700000001,42.798208,0 -84.696077,42.798169,0 -84.69528699999999,42.798115,0 -84.6944,42.79802,0 -84.69363300000001,42.797906,0 -84.6923413,42.7976604,0 -84.6921107,42.7976147,0 -84.6913644,42.7974445,0 -84.6905282,42.7972296,0 -84.689697,42.7969871,0 -84.688754,42.79668,0 -84.68826730000001,42.7965022,0 -84.688138,42.796455,0 -84.687029,42.795997,0 -84.686132,42.795579,0 -84.685737,42.795378,0 -84.6852736,42.7951378,0 -84.6848493,42.7949009,0 -84.6844499,42.7946646,0 -84.68389259999999,42.7943173,0 -84.68234699999999,42.793302,0 -84.6803683,42.7920064,0 -84.6779689,42.7904266,0 -84.67720730000001,42.7899342,0 -84.6763521,42.789369,0 -84.6751524,42.7885812,0 -84.67461299999999,42.7881716,0 -84.674162,42.7878007,0 -84.6736861,42.787343,0 -84.67311549999999,42.786777,0 -84.67263699999999,42.7862,0 -84.67228660000001,42.7856911,0 -84.6718762,42.785059,0 -84.67155700000001,42.7844866,0 -84.67122500000001,42.783694,0 -84.67106099999999,42.78326,0 -84.670936,42.782732,0 -84.670862,42.782381,0 -84.670777,42.781847,0 -84.670672,42.78096,0 -84.6699538,42.7758493,0 -84.66991899999999,42.775602,0 -84.6697104,42.7744025,0 -84.66964179999999,42.7739077,0 -84.6690509,42.7698187,0 -84.66875659999999,42.7678857,0 -84.6686631,42.7671539,0 -84.6683902,42.7652922,0 -84.6682892,42.7645428,0 -84.6680042,42.7625283,0 -84.6679863,42.7619013,0 -84.667956,42.761571,0 -84.667852,42.760574,0 -84.667751,42.75917,0 -84.66769600000001,42.756642,0 -84.6677885,42.7534534,0 -84.66785900000001,42.751923,0 -84.668001,42.7483,0 -84.66803779999999,42.7474319,0 -84.6680424,42.7473384,0 -84.668114,42.744827,0 -84.668173,42.743858,0 -84.6682746,42.741681,0 -84.66827910000001,42.7412868,0 -84.6683032,42.7408406,0 -84.66830520000001,42.7408058,0 -84.6685653,42.7343161,0 -84.6685626,42.7341269,0 -84.668572,42.733947,0 -84.668576,42.7337987,0 -84.6686966,42.7307949,0 -84.66874350000001,42.7300409,0 -84.668783,42.7289117,0 -84.6688345,42.727195,0 -84.66892129999999,42.7250002,0 -84.669077,42.7209971,0 -84.6691369,42.7195295,0 -84.669155,42.7190847,0 -84.66924849999999,42.7167923,0 -84.66932629999999,42.7147597,0 -84.6693846,42.7132368,0 -84.6694445,42.711746,0 -84.66945339999999,42.7115238,0 -84.6695326,42.7094895,0 -84.6696547,42.7064362,0 -84.6697195,42.7048024,0 -84.66973280000001,42.7044995,0 -84.66978570000001,42.7032894,0 -84.6698311,42.701933,0 -84.669876,42.7008536,0 -84.6698983,42.700073,0 -84.6698959,42.6995064,0 -84.6698724,42.6989797,0 -84.6697984,42.6981688,0 -84.6697412,42.6976901,0 -84.66962100000001,42.6969677,0 -84.6695093,42.6963352,0 -84.66937350000001,42.6957055,0 -84.66906659999999,42.69437,0 -84.66896300000001,42.6939872,0 -84.6688511,42.6934759,0 -84.6687381,42.6929466,0 -84.6685731,42.6921661,0 -84.6684479,42.6916187,0 -84.668339,42.6912171,0 -84.6682235,42.6908513,0 -84.6680788,42.6904736,0 -84.66790640000001,42.6900803,0 -84.66773999999999,42.6897225,0 -84.6674022,42.6891455,0 -84.6671176,42.6887164,0 -84.6668607,42.6883697,0 -84.6665629,42.688011,0 -84.666284,42.687675,0 -84.66594190000001,42.6873261,0 -84.6656069,42.6869998,0 -84.665119,42.6865754,0 -84.66441759999999,42.6859678,0 -84.66354939999999,42.6852189,0 -84.66296560000001,42.6847186,0 -84.6623883,42.6842351,0 -84.66158249999999,42.6835354,0 -84.6599523,42.6821182,0 -84.65953589999999,42.6817593,0 -84.65876900000001,42.6811,0 -84.657674,42.680112,0 -84.654579,42.677501,0 -84.65387,42.676863,0 -84.65365180000001,42.6766701,0 -84.652869,42.6759908,0 -84.65266200000001,42.675805,0 -84.65107399999999,42.674461,0 -84.64978499999999,42.67334,0 -84.64918400000001,42.672827,0 -84.64609969999999,42.6701806,0 -84.6451064,42.6692974,0 -84.64396000000001,42.668331,0 -84.643418,42.66789,0 -84.642923,42.667536,0 -84.64252,42.667283,0 -84.642032,42.667023,0 -84.641589,42.666792,0 -84.64097099999999,42.666526,0 -84.640306,42.666282,0 -84.639982,42.666177,0 -84.639618,42.666073,0 -84.639258,42.665977,0 -84.638881,42.665889,0 -84.63836499999999,42.665788,0 -84.63783599999999,42.665701,0 -84.637381,42.665644,0 -84.636957,42.665606,0 -84.63636700000001,42.665581,0 -84.63327700000001,42.665569,0 -84.62804149999999,42.6655617,0 -84.627567,42.665561,0 -84.622674,42.665551,0 -84.620073,42.665564,0 -84.619032,42.665575,0 -84.61259699999999,42.665538,0 -84.6037032,42.6655808,0 -84.602413,42.665575,0 -84.59864899999999,42.665462,0 -84.59705,42.665402,0 -84.59588789999999,42.6653261,0 -84.593941,42.665208,0 -84.591407,42.66498,0 -84.5897152,42.6647911,0 -84.58895990000001,42.664704,0 -84.5876013,42.6645009,0 -84.5846774,42.6640639,0 -84.5838009,42.6639271,0 -84.58330479999999,42.6638486,0 -84.5762794,42.6627632,0 -84.5726923,42.6622083,0 -84.5673194,42.6613754,0 -84.5642529,42.6608979,0 -84.56385880000001,42.6608375,0 -84.56018299999999,42.660294,0 -84.556685,42.659784,0 -84.55091400000001,42.65886,0 -84.549251,42.658601,0 -84.548213,42.658495,0 -84.547088,42.658436,0 -84.5456559,42.6584489,0 -84.54436699999999,42.658574,0 -84.54423009999999,42.658592,0 -84.5432526,42.6587203,0 -84.542115,42.658982,0 -84.538077,42.6601268,0 -84.5373915,42.6603184,0 -84.53502880000001,42.6609577,0 -84.5328367,42.6615713,0 -84.5323277,42.661714,0 -84.53202810000001,42.661799,0 -84.5289743,42.6626586,0 -84.5274345,42.6630886,0 -84.52309,42.6643114,0 -84.5192546,42.6654165,0 -84.51869360000001,42.6655746,0 -84.517948,42.665785,0 -84.51738,42.665953,0 -84.516283,42.666285,0 -84.515525,42.666532,0 -84.515046,42.666697,0 -84.514044,42.66706,0 -84.5116075,42.6679859,0 -84.5110925,42.6681942,0 -84.5091451,42.6690188,0 -84.5035113,42.6714044,0 -84.5009579,42.6724711,0 -84.49739460000001,42.6739546,0 -84.49441659999999,42.6751789,0 -84.4930816,42.6757554,0 -84.4922682,42.6760952,0 -84.49162629999999,42.6763558,0 -84.4909273,42.6765984,0 -84.49034899999999,42.676776,0 -84.48989,42.6769,0 -84.48940020000001,42.6770222,0 -84.4888874,42.6771339,0 -84.4883969,42.6772229,0 -84.4876946,42.677331,0 -84.4870348,42.6774103,0 -84.4865889,42.6774451,0 -84.4861038,42.6774835,0 -84.4847907,42.6775075,0 -84.48414560000001,42.6775519,0 -84.477778,42.677621,0 -84.46446880000001,42.6777996,0 -84.461232,42.677843,0 -84.4506502,42.6779951,0 -84.44752200000001,42.67804,0 -84.44297,42.67813,0 -84.438675,42.678155,0 -84.435677,42.678249,0 -84.434136,42.678267,0 -84.43376600000001,42.678255,0 -84.433182,42.678245,0 -84.43143000000001,42.6782,0 -84.429435,42.678094,0 -84.426113,42.6779133,0 -84.42496300000001,42.6778227,0 -84.4194998,42.6774371,0 -84.417581,42.67731,0 -84.41026599999999,42.676825,0 -84.40342099999999,42.676371,0 -84.402703,42.676313,0 -84.402145,42.676252,0 -84.401651,42.676174,0 -84.401006,42.676065,0 -84.400505,42.675975,0 -84.399429,42.675718,0 -84.396721,42.675075,0 -84.395048,42.674684,0 -84.39446340000001,42.6745437,0 -84.393035,42.674201,0 -84.392533,42.674089,0 -84.39187699999999,42.673951,0 -84.391212,42.67382,0 -84.39064500000001,42.673719,0 -84.390263,42.67366,0 -84.389777,42.673598,0 -84.38911,42.673502,0 -84.388273,42.67344,0 -84.38706000000001,42.673369,0 -84.386296,42.673358,0 -84.383427,42.673369,0 -84.38017000000001,42.673386,0 -84.378427,42.67338,0 -84.377675,42.673369,0 -84.377008,42.673334,0 -84.37613399999999,42.673265,0 -84.37539,42.673186,0 -84.374843,42.673114,0 -84.373391,42.672868,0 -84.372401,42.672665,0 -84.3670137,42.6714492,0 -84.35482399999999,42.668698,0 -84.35266799999999,42.668208,0 -84.35171,42.668009,0 -84.350409,42.667764,0 -84.349625,42.667629,0 -84.348675,42.667479,0 -84.346402,42.667199,0 -84.342471,42.666767,0 -84.341142,42.666619,0 -84.3362946,42.6661009,0 -84.333641,42.665799,0 -84.331801,42.665665,0 -84.33075599999999,42.665614,0 -84.329684,42.665583,0 -84.32796399999999,42.665562,0 -84.317294,42.665633,0 -84.31320359999999,42.6656637,0 -84.31156,42.665667,0 -84.30780799999999,42.665628,0 -84.29706299999999,42.665478,0 -84.2931028,42.6654201,0 -84.2897188,42.6653725,0 -84.2895412,42.6653692,0 -84.287638,42.665338,0 -84.284582,42.665274,0 -84.28194259999999,42.6652598,0 -84.278775,42.665231,0 -84.277202,42.665187,0 -84.276421,42.665164,0 -84.27599600000001,42.665165,0 -84.271655,42.665134,0 -84.2697386,42.6650959,0 -84.2677142,42.6651578,0 -84.2676701,42.6651591,0 -84.2611727,42.6654304,0 -84.259584,42.665518,0 -84.248813,42.665948,0 -84.247767,42.665985,0 -84.2460258,42.6660624,0 -84.2458105,42.66607,0 -84.243116,42.66617,0 -84.24268600000001,42.666182,0 -84.24181299999999,42.66619,0 -84.237838,42.666149,0 -84.21784700000001,42.665844,0 -84.217186,42.665811,0 -84.216441,42.665755,0 -84.215504,42.66566,0 -84.21460500000001,42.66553,0 -84.213173,42.665272,0 -84.2129857,42.6652287,0 -84.21253299999999,42.665124,0 -84.211893,42.664967,0 -84.21121599999999,42.664779,0 -84.210429,42.664545,0 -84.20968499999999,42.664293,0 -84.20824399999999,42.663728,0 -84.207748,42.663499,0 -84.206112,42.662696,0 -84.205235,42.66226,0 -84.202701,42.661022,0 -84.1983366,42.6588597,0 -84.19783219999999,42.6586098,0 -84.19226999999999,42.655854,0 -84.1893571,42.654442,0 -84.188732,42.654139,0 -84.18800299999999,42.65382,0 -84.187535,42.653629,0 -84.186733,42.65334,0 -84.18633199999999,42.653209,0 -84.185828,42.653051,0 -84.184972,42.652806,0 -84.184107,42.652583,0 -84.183245,42.652395,0 -84.182238,42.652192,0 -84.1811098,42.652049,0 -84.179599,42.651916,0 -84.17875600000001,42.651872,0 -84.173101,42.65165,0 -84.16578800000001,42.651357,0 -84.15828,42.651043,0 -84.156385,42.650971,0 -84.151088,42.650896,0 -84.145017,42.650817,0 -84.14408400000001,42.65081,0 -84.14324240000001,42.6507926,0 -84.14309590000001,42.650791,0 -84.136724,42.650704,0 -84.1291988,42.6506167,0 -84.127931,42.650602,0 -84.12355100000001,42.650552,0 -84.121212,42.650511,0 -84.117063,42.650441,0 -84.115514,42.650425,0 -84.11447800000001,42.650323,0 -84.113404,42.650142,0 -84.11291900000001,42.650022,0 -84.111135,42.649524,0 -84.10592699999999,42.647933,0 -84.102137,42.646796,0 -84.10167300000001,42.646657,0 -84.100793,42.646412,0 -84.100213,42.646297,0 -84.099765,42.646235,0 -84.099206,42.646168,0 -84.098606,42.646117,0 -84.096418,42.646094,0 -84.091245,42.64608,0 -84.0822388,42.6460081,0 -84.0820585,42.6460057,0 -84.079071,42.645977,0 -84.07693500000001,42.64605,0 -84.0758586,42.646113,0 -84.074899,42.646177,0 -84.072806,42.64628,0 -84.07196399999999,42.64633,0 -84.07019099999999,42.646439,0 -84.066829,42.646604,0 -84.06190599999999,42.646873,0 -84.060778,42.646926,0 -84.059805,42.646971,0 -84.05873,42.646971,0 -84.057778,42.646932,0 -84.05685,42.64689,0 -84.05679240000001,42.6468821,0 -84.05561,42.64672,0 -84.054576,42.646559,0 -84.053501,42.646357,0 -84.052834,42.646195,0 -84.051592,42.645843,0 -84.05078,42.645589,0 -84.049953,42.645323,0 -84.038022,42.640865,0 -84.035144,42.639814,0 -84.03310399999999,42.63906,0 -84.032454,42.638832,0 -84.031531,42.638456,0 -84.021383,42.6338,0 -84.014199,42.630418,0 -84.011977,42.629364,0 -84.006753,42.626975,0 -84.00546199999999,42.626358,0 -84.004636,42.625894,0 -84.003308,42.625148,0 -84.002436,42.624513,0 -84.00160700000001,42.623896,0 -84.0000409,42.6224853,0 -83.9925729,42.6157654,0 -83.9919747,42.6152366,0 -83.99112700000001,42.61457,0 -83.99077490000001,42.6143064,0 -83.990542,42.614132,0 -83.990188,42.61388,0 -83.989908,42.61368,0 -83.98849800000001,42.6127609,0 -83.9877707,42.6123567,0 -83.9853619,42.6113644,0 -83.98495490000001,42.6112148,0 -83.98465659999999,42.6111128,0 -83.9843492,42.611007,0 -83.9839679,42.6108912,0 -83.98338990000001,42.6107131,0 -83.98299710000001,42.6106071,0 -83.982197,42.6104042,0 -83.98143930000001,42.6102345,0 -83.9806657,42.6100716,0 -83.97896489999999,42.6096956,0 -83.9771334,42.6092902,0 -83.9696062,42.6076426,0 -83.9661184,42.6068836,0 -83.96456670000001,42.6065363,0 -83.9635435,42.6063085,0 -83.9571311,42.6049009,0 -83.9559525,42.6046228,0 -83.955304,42.6044507,0 -83.955023,42.60437,0 -83.95454460000001,42.6042296,0 -83.9539722,42.6040402,0 -83.9534889,42.6038801,0 -83.95298649999999,42.6036899,0 -83.95234360000001,42.6034324,0 -83.9516618,42.603125,0 -83.95119680000001,42.602907,0 -83.9507442,42.6026836,0 -83.94988499999999,42.6022255,0 -83.9493282,42.6019046,0 -83.94904819999999,42.6017355,0 -83.948691,42.6014994,0 -83.9480518,42.6010543,0 -83.94719600000001,42.6004178,0 -83.93996079999999,42.594888,0 -83.93914220000001,42.5942381,0 -83.9382677,42.5935677,0 -83.9364637,42.5921998,0 -83.9345781,42.5907339,0 -83.9326891,42.5892509,0 -83.9297737,42.5870441,0 -83.929367,42.58678,0 -83.92889580000001,42.5865014,0 -83.92836730000001,42.5862243,0 -83.9278327,42.585974,0 -83.9272608,42.5857432,0 -83.9268024,42.5855847,0 -83.92635509999999,42.585445,0 -83.9257772,42.5852964,0 -83.9251711,42.5851639,0 -83.9246211,42.5850614,0 -83.9240145,42.5849792,0 -83.92353199999999,42.5849309,0 -83.918527,42.584565,0 -83.914115,42.5842874,0 -83.911001,42.5840831,0 -83.91047500000001,42.5840451,0 -83.9048476,42.5836933,0 -83.90388900000001,42.5836382,0 -83.903167,42.583579,0 -83.902548,42.583499,0 -83.902095,42.583422,0 -83.901166,42.583196,0 -83.900464,42.5829682,0 -83.8997281,42.5826822,0 -83.8987406,42.5822674,0 -83.8978745,42.5818816,0 -83.8961984,42.5811784,0 -83.890812,42.578884,0 -83.8903961,42.5787115,0 -83.8899212,42.578539,0 -83.8895009,42.578421,0 -83.88904839999999,42.5783149,0 -83.8886418,42.5782349,0 -83.8882244,42.578155,0 -83.8877653,42.5780935,0 -83.887333,42.5780518,0 -83.8868756,42.5780125,0 -83.8864129,42.577997,0 -83.88602229999999,42.5780024,0 -83.8851811,42.5780079,0 -83.88442809999999,42.5780261,0 -83.8825164,42.5780474,0 -83.8798214,42.5781329,0 -83.8723147,42.5784808,0 -83.86526379999999,42.5787364,0 -83.8626977,42.5788649,0 -83.8619661,42.5788877,0 -83.86120649999999,42.5788623,0 -83.86029790000001,42.5787698,0 -83.85938,42.578588,0 -83.85874750000001,42.5784488,0 -83.8581238,42.5782683,0 -83.8576174,42.5781084,0 -83.85708649999999,42.5779061,0 -83.8564628,42.5776241,0 -83.85575129999999,42.5772645,0 -83.8554391,42.5770858,0 -83.8551214,42.5768764,0 -83.8548696,42.5767101,0 -83.85469260000001,42.5766026,0 -83.8541779,42.5762608,0 -83.85348930000001,42.5758347,0 -83.8513394,42.5743947,0 -83.8487154,42.5726371,0 -83.8428923,42.5687864,0 -83.8416647,42.5679878,0 -83.838902,42.5663313,0 -83.8379829,42.5658433,0 -83.83742549999999,42.5655492,0 -83.8328367,42.5630441,0 -83.8313078,42.5622251,0 -83.82924730000001,42.5610896,0 -83.8248621,42.5586811,0 -83.8212181,42.5566966,0 -83.816903,42.5543252,0 -83.8147926,42.5532828,0 -83.8137912,42.5528237,0 -83.8127939,42.5524573,0 -83.8117407,42.5521132,0 -83.8104271,42.5517891,0 -83.80966050000001,42.5516507,0 -83.80909250000001,42.5515437,0 -83.8080053,42.5513903,0 -83.8069,42.5512551,0 -83.80604719999999,42.5511771,0 -83.80471350000001,42.5511175,0 -83.80377350000001,42.551125,0 -83.8001367,42.5512031,0 -83.7978167,42.5511989,0 -83.7971316,42.5511325,0 -83.7964279,42.5510317,0 -83.7958355,42.5509158,0 -83.7952633,42.550782,0 -83.7940148,42.5504006,0 -83.79299690000001,42.54998,0 -83.79232020000001,42.5496342,0 -83.7917186,42.5492565,0 -83.7911975,42.5489076,0 -83.7906562,42.5485499,0 -83.7903712,42.5483563,0 -83.7898058,42.5479785,0 -83.78979510000001,42.5479709,0 -83.7893219,42.5476482,0 -83.7881718,42.5468907,0 -83.78758449999999,42.5465028,0 -83.78705189999999,42.5461876,0 -83.7867469,42.5460007,0 -83.7863569,42.5457809,0 -83.78525740000001,42.5452752,0 -83.7829472,42.5443405,0 -83.7819319,42.5439405,0 -83.776067,42.541534,0 -83.775367,42.541229,0 -83.774732,42.540929,0 -83.773697,42.54029,0 -83.77309,42.53988,0 -83.77277599999999,42.539634,0 -83.771776,42.538758,0 -83.771642,42.53863,0 -83.771546,42.538532,0 -83.771298,42.538277,0 -83.76950100000001,42.535984,0 -83.7682417,42.5344333,0 -83.7663032,42.5320463,0 -83.76347819999999,42.5283797,0 -83.7631895,42.5280165,0 -83.7622981,42.5271436,0 -83.76189530000001,42.5267584,0 -83.76148000000001,42.5264241,0 -83.76067810000001,42.5258825,0 -83.7602703,42.5256452,0 -83.7598754,42.525431,0 -83.75934890000001,42.5251856,0 -83.7588648,42.5249733,0 -83.7582748,42.5247617,0 -83.7577115,42.5245937,0 -83.75725009999999,42.5244672,0 -83.7567734,42.5243646,0 -83.75598770000001,42.5241943,0 -83.75310880000001,42.5235895,0 -83.7524469,42.5234532,0 -83.7505393,42.5230438,0 -83.7494288,42.5228383,0 -83.74836670000001,42.5226762,0 -83.7473742,42.5225418,0 -83.7463265,42.5224194,0 -83.74503970000001,42.5223189,0 -83.7421227,42.522132,0 -83.733642,42.5219,0 -83.731926,42.521934,0 -83.720894,42.522323,0 -83.71549,42.522497,0 -83.700625,42.523023,0 -83.699245,42.523061,0 -83.69797699999999,42.523035,0 -83.69673,42.522974,0 -83.695779,42.5228848,0 -83.69467899999999,42.522718,0 -83.693799,42.522583,0 -83.692441,42.522276,0 -83.6920219,42.5221668,0 -83.69174510000001,42.5220947,0 -83.69036800000001,42.5216939,0 -83.6889604,42.5211625,0 -83.68522129999999,42.5196675,0 -83.68392,42.519194,0 -83.68323700000001,42.518984,0 -83.68265700000001,42.518825,0 -83.681934,42.518663,0 -83.68115400000001,42.518535,0 -83.68063600000001,42.518454,0 -83.68016299999999,42.518395,0 -83.6779368,42.5182086,0 -83.675635,42.51799,0 -83.6738831,42.5178277,0 -83.67267,42.517689,0 -83.671791,42.5175963,0 -83.670663,42.517453,0 -83.664778,42.516697,0 -83.663715,42.516611,0 -83.662374,42.516549,0 -83.6620102,42.516543,0 -83.6613176,42.5165192,0 -83.6596511,42.5164989,0 -83.658906,42.516531,0 -83.65690600000001,42.516631,0 -83.65516599999999,42.516768,0 -83.6545654,42.5168386,0 -83.6538544,42.5169202,0 -83.65187899999999,42.517156,0 -83.65154,42.517197,0 -83.64968,42.5174931,0 -83.64891299999999,42.517628,0 -83.6484031,42.5177451,0 -83.6420215,42.5190678,0 -83.635347,42.520494,0 -83.63361,42.520837,0 -83.632701,42.520991,0 -83.630999,42.521172,0 -83.629943,42.521231,0 -83.62799099999999,42.521256,0 -83.62691100000001,42.521201,0 -83.62626,42.521152,0 -83.6254857,42.5210612,0 -83.6245706,42.5209402,0 -83.62369510000001,42.5207752,0 -83.62265530000001,42.5205185,0 -83.620228,42.519948,0 -83.61810509999999,42.5193593,0 -83.6164519,42.5188975,0 -83.6158891,42.5187461,0 -83.6158181,42.5187264,0 -83.6156357,42.5186696,0 -83.614597,42.5183829,0 -83.6098901,42.5170661,0 -83.60925400000001,42.5168736,0 -83.6060325,42.5159828,0 -83.6055861,42.5158586,0 -83.60298179999999,42.5151547,0 -83.6001054,42.5143565,0 -83.59711950000001,42.5135335,0 -83.587605,42.5108985,0 -83.5843363,42.5099924,0 -83.5768814,42.5079449,0 -83.572811,42.506822,0 -83.57068,42.506243,0 -83.56817959999999,42.5055288,0 -83.562517,42.5039662,0 -83.559629,42.503171,0 -83.5578221,42.5026592,0 -83.555727,42.502131,0 -83.5534966,42.5016078,0 -83.551338,42.501168,0 -83.5473099,42.5003024,0 -83.54465879999999,42.4997434,0 -83.5434085,42.4994525,0 -83.53967299999999,42.498685,0 -83.538787,42.498495,0 -83.5364246,42.4979828,0 -83.5363749,42.4979723,0 -83.5356709,42.4978234,0 -83.52891459999999,42.4963757,0 -83.5236625,42.4952518,0 -83.518835,42.4942388,0 -83.5162976,42.4936973,0 -83.51554470000001,42.4935344,0 -83.514138,42.493253,0 -83.513317,42.493078,0 -83.51137559999999,42.4926843,0 -83.5088956,42.4921365,0 -83.5072948,42.4917459,0 -83.502447,42.490763,0 -83.50103,42.490463,0 -83.50034239999999,42.4903273,0 -83.496666,42.489531,0 -83.49331100000001,42.48881,0 -83.4926348,42.488663,0 -83.491737,42.48848,0 -83.491062,42.488351,0 -83.490273,42.488215,0 -83.4895009,42.488092,0 -83.48870770000001,42.4879938,0 -83.48770709999999,42.4878973,0 -83.487234,42.48785,0 -83.485907,42.4877462,0 -83.4841814,42.4875961,0 -83.48306359999999,42.4874967,0 -83.479608,42.487208,0 -83.477693,42.487047,0 -83.4761218,42.4868855,0 -83.4683466,42.4862291,0 -83.465277,42.485975,0 -83.46455880000001,42.4859168,0 -83.4626092,42.4857587,0 -83.4601854,42.4855501,0 -83.4597098,42.485507,0 -83.4594902,42.4854417,0 -83.4582363,42.4853131,0 -83.45726449999999,42.4852153,0 -83.45615429999999,42.4850641,0 -83.45592689999999,42.4850223,0 -83.4556973,42.4849852,0 -83.4546313,42.4847867,0 -83.4538999,42.4846329,0 -83.45325149999999,42.4844778,0 -83.4530182,42.4844154,0 -83.4518942,42.48412,0 -83.449614,42.4834859,0 -83.4490284,42.4833641,0 -83.4460552,42.4825697,0 -83.444097,42.48203,0 -83.44273099999999,42.481594,0 -83.441835,42.481289,0 -83.4414645,42.4811477,0 -83.4413789,42.4811201,0 -83.4412473,42.4811061,0 -83.438616,42.48013,0 -83.436865,42.479479,0 -83.436684,42.479412,0 -83.43617500000001,42.479208,0 -83.4359077,42.4790839,0 -83.435839,42.479052,0 -83.4355418,42.4789068,0 -83.4352411,42.4787353,0 -83.43493100000001,42.478534,0 -83.4344901,42.4782396,0 -83.4340723,42.4778999,0 -83.43384690000001,42.477694,0 -83.43363770000001,42.4774883,0 -83.4334432,42.4772756,0 -83.4332589,42.4770639,0 -83.4330758,42.4768276,0 -83.4328987,42.4765783,0 -83.4327392,42.4763172,0 -83.43260359999999,42.47607,0 -83.43250310000001,42.4758681,0 -83.4324074,42.4756579,0 -83.4323127,42.4754091,0 -83.4322312,42.475164,0 -83.43215979999999,42.4748829,0 -83.43209760000001,42.474601,0 -83.4320336,42.4741989,0 -83.4319869,42.4739022,0 -83.4318811,42.4698176,0 -83.431781,42.464311,0 -83.43174449999999,42.4625535,0 -83.431721,42.461419,0 -83.43164,42.458076,0 -83.431623,42.456977,0 -83.431588,42.455763,0 -83.43155489999999,42.453834,0 -83.4315404,42.4532969,0 -83.43150799999999,42.452346,0 -83.4314668,42.4508678,0 -83.431461,42.45066,0 -83.43145,42.449758,0 -83.43142400000001,42.448789,0 -83.431422,42.447852,0 -83.431493,42.446448,0 -83.43153700000001,42.445888,0 -83.43161480000001,42.4451731,0 -83.431622,42.445131,0 -83.4317762,42.4443877,0 -83.431798,42.444045,0 -83.432204,42.442113,0 -83.432214,42.442047,0 -83.43239800000001,42.440958,0 -83.432424,42.4404,0 -83.432428,42.440041,0 -83.43241,42.4396421,0 -83.4323548,42.4391879,0 -83.4323167,42.4389841,0 -83.4322631,42.4387531,0 -83.43207200000001,42.438217,0 -83.43191400000001,42.437833,0 -83.431596,42.437203,0 -83.43128900000001,42.436749,0 -83.43047300000001,42.435759,0 -83.429913,42.4352,0 -83.4287891,42.4340344,0 -83.428673,42.433914,0 -83.428056,42.433274,0 -83.42753999999999,42.432681,0 -83.427142,42.432143,0 -83.426633,42.431391,0 -83.4263359,42.4308717,0 -83.42571700000001,42.429773,0 -83.425534,42.42938,0 -83.425421,42.429098,0 -83.425214,42.42854,0 -83.42515299999999,42.428345,0 -83.425084,42.428123,0 -83.424993,42.427802,0 -83.424825,42.427157,0 -83.42473699999999,42.426697,0 -83.424638,42.426165,0 -83.42460699999999,42.425802,0 -83.4245789,42.4252443,0 -83.4245122,42.4239204,0 -83.424419,42.42207,0 -83.4243202,42.4192485,0 -83.4243055,42.4189756,0 -83.42429970000001,42.4187773,0 -83.4242945,42.418571,0 -83.424104,42.414724,0 -83.424093,42.414319,0 -83.4240387,42.4109677,0 -83.4239371,42.4099459,0 -83.42393749999999,42.4096495,0 -83.4239786,42.4091058,0 -83.4240283,42.4088033,0 -83.4240873,42.408485,0 -83.42414789999999,42.4082287,0 -83.4242149,42.4079347,0 -83.42428,42.407647,0 -83.4245612,42.4069022,0 -83.4247034,42.4065975,0 -83.4247927,42.4064101,0 -83.424882,42.4062306,0 -83.4252209,42.4056302,0 -83.42556709999999,42.4050992,0 -83.4258837,42.4046892,0 -83.4259574,42.4045937,0 -83.4260803,42.4044159,0 -83.42668999999999,42.403603,0 -83.42726,42.402807,0 -83.427896,42.401936,0 -83.428399,42.401247,0 -83.4287394,42.4007798,0 -83.428928,42.400521,0 -83.429301,42.400011,0 -83.42976779999999,42.3993801,0 -83.43003330000001,42.3990099,0 -83.43040480000001,42.3983622,0 -83.43102469999999,42.3975295,0 -83.4315024,42.3968674,0 -83.433155,42.394401,0 -83.43344,42.393828,0 -83.4336153,42.3934411,0 -83.43375709999999,42.3930482,0 -83.43389879999999,42.392515,0 -83.43394840000001,42.3922669,0 -83.43399239999999,42.3919873,0 -83.43403139999999,42.3916927,0 -83.4340436,42.3913598,0 -83.43403739999999,42.390579,0 -83.43392040000001,42.389861,0 -83.43383040000001,42.389527,0 -83.433718,42.389173,0 -83.4335403,42.388722,0 -83.43339659999999,42.3883941,0 -83.43323959999999,42.3881001,0 -83.4330872,42.3878371,0 -83.4328998,42.387542,0 -83.4326674,42.3872034,0 -83.4324751,42.3869571,0 -83.43216870000001,42.386604,0 -83.43173280000001,42.3861538,0 -83.4313942,42.3858499,0 -83.431164,42.38565,0 -83.4308463,42.3854061,0 -83.430516,42.385171,0 -83.42996599999999,42.384816,0 -83.429292,42.384437,0 -83.428499,42.384049,0 -83.42768100000001,42.383755,0 -83.42637000000001,42.383239,0 -83.423896,42.382428,0 -83.423575,42.382333,0 -83.42276,42.382118,0 -83.42217599999999,42.381987,0 -83.42179160000001,42.3819018,0 -83.4216553,42.3818691,0 -83.4214691,42.3818319,0 -83.42044509999999,42.3816733,0 -83.4198372,42.381596,0 -83.41923920000001,42.3815368,0 -83.41847199999999,42.381487,0 -83.417615,42.381456,0 -83.416816,42.381462,0 -83.4153764,42.3814965,0 -83.41303929999999,42.3815526,0 -83.410492,42.3816137,0 -83.40776219999999,42.3816791,0 -83.4057664,42.381727,0 -83.4047097,42.3817502,0 -83.40413940000001,42.3817627,0 -83.4033941,42.3817794,0 -83.4023399,42.3818031,0 -83.3983346,42.38191,0 -83.39756610000001,42.3819279,0 -83.39549100000001,42.3819719,0 -83.3949077,42.3819898,0 -83.39430179999999,42.3820086,0 -83.39192300000001,42.3820521,0 -83.384199,42.382255,0 -83.38356,42.382262,0 -83.3807132,42.3823124,0 -83.38028300000001,42.382318,0 -83.37760710000001,42.3823582,0 -83.37585850000001,42.3823699,0 -83.37364580000001,42.3823848,0 -83.3729563,42.3823894,0 -83.3722513,42.3824088,0 -83.3682639,42.3825188,0 -83.3666477,42.3825566,0 -83.36361599999999,42.382626,0 -83.3622371,42.3826622,0 -83.36209890000001,42.3826658,0 -83.36157300000001,42.3826778,0 -83.357946,42.382738,0 -83.35691,42.382773,0 -83.353335,42.382848,0 -83.349064,42.382953,0 -83.3452376,42.3830695,0 -83.343717,42.383087,0 -83.34334800000001,42.383093,0 -83.34207670000001,42.3831317,0 -83.3408566,42.3831598,0 -83.3401952,42.3831751,0 -83.33934050000001,42.3831957,0 -83.337092,42.38325,0 -83.33504739999999,42.3833043,0 -83.3349377,42.3833072,0 -83.333704,42.38334,0 -83.333224,42.383352,0 -83.33245839999999,42.3833813,0 -83.33233319999999,42.3833846,0 -83.331722,42.383407,0 -83.32972599999999,42.383512,0 -83.3268534,42.383682,0 -83.32549,42.383758,0 -83.3244198,42.3838145,0 -83.3233436,42.3838538,0 -83.3227,42.3838638,0 -83.32075690000001,42.3838818,0 -83.3200207,42.3838818,0 -83.31833,42.3839,0 -83.3172802,42.3839097,0 -83.3148197,42.3839324,0 -83.314216,42.383938,0 -83.313953,42.383944,0 -83.313545,42.383971,0 -83.313138,42.384009,0 -83.312431,42.384103,0 -83.3110586,42.3842917,0 -83.310388,42.3843997,0 -83.3096913,42.3845137,0 -83.30950180000001,42.3845447,0 -83.3088291,42.3846342,0 -83.30717370000001,42.3847413,0 -83.3048405,42.3848622,0 -83.3042087,42.3848936,0 -83.3029439,42.3849554,0 -83.301067,42.385038,0 -83.30022700000001,42.385058,0 -83.29934950000001,42.3850449,0 -83.298818,42.3850269,0 -83.2981316,42.3849856,0 -83.298005,42.384978,0 -83.2958696,42.3848959,0 -83.29477799999999,42.384854,0 -83.2911653,42.3849198,0 -83.2879657,42.3849781,0 -83.28382019999999,42.3850722,0 -83.27854000000001,42.385192,0 -83.27520199999999,42.385264,0 -83.274908,42.385267,0 -83.273188,42.38533,0 -83.2722605,42.3853615,0 -83.2693589,42.3855537,0 -83.2686942,42.3855848,0 -83.26806980000001,42.3855944,0 -83.266803,42.3855937,0 -83.2660273,42.3855926,0 -83.2649462,42.3855916,0 -83.26336689999999,42.385576,0 -83.2617211,42.3855579,0 -83.260564,42.385513,0 -83.259952,42.385486,0 -83.257755,42.385449,0 -83.25693269999999,42.3854193,0 -83.25364810000001,42.385384,0 -83.25261999999999,42.385373,0 -83.25131399999999,42.385379,0 -83.25003100000001,42.385383,0 -83.2491393,42.3853982,0 -83.246161,42.385449,0 -83.24591650000001,42.3854455,0 -83.245744,42.385443,0 -83.245419,42.385427,0 -83.244604,42.385336,0 -83.244208,42.385264,0 -83.243818,42.385175,0 -83.243588,42.385113,0 -83.243382,42.385052,0 -83.243004,42.384925,0 -83.242637,42.384782,0 -83.242422,42.384688,0 -83.24221199999999,42.38459,0 -83.241872,42.384413,0 -83.241619,42.384265,0 -83.24144,42.384152,0 -83.24121100000001,42.383993,0 -83.240993,42.383826,0 -83.23992699999999,42.38294,0 -83.238378,42.381565,0 -83.237787,42.381079,0 -83.23682599999999,42.380386,0 -83.236525,42.380172,0 -83.236321,42.380029,0 -83.235927,42.379777,0 -83.23554799999999,42.379541,0 -83.2348705,42.3791446,0 -83.2345749,42.3789838,0 -83.23427599999999,42.378835,0 -83.23360599999999,42.378537,0 -83.233282,42.378419,0 -83.233025,42.378339,0 -83.232651,42.378233,0 -83.232313,42.378155,0 -83.231937,42.378082,0 -83.23154529999999,42.3780079,0 -83.231253,42.377976,0 -83.2309624,42.377953,0 -83.23025699999999,42.377912,0 -83.229725,42.377887,0 -83.229193,42.377868,0 -83.228483,42.377853,0 -83.227912,42.37785,0 -83.22738099999999,42.377854,0 -83.22685,42.377866,0 -83.22614299999999,42.377891,0 -83.22559699999999,42.377919,0 -83.22503500000001,42.377955,0 -83.224018,42.378037,0 -83.223496,42.378089,0 -83.222925,42.378153,0 -83.221531,42.378332,0 -83.221007,42.378393,0 -83.22001400000001,42.3785153,0 -83.2189343,42.3785958,0 -83.2184208,42.3786218,0 -83.21738209999999,42.3786411,0 -83.2165893,42.3786483,0 -83.21618239999999,42.3786485,0 -83.21562179999999,42.3786599,0 -83.2126902,42.3786738,0 -83.21123369999999,42.3786966,0 -83.2098422,42.3787487,0 -83.20900349999999,42.3787937,0 -83.208223,42.3788329,0 -83.2079312,42.3788519,0 -83.2070026,42.3789039,0 -83.2065944,42.3789235,0 -83.2062839,42.3789468,0 -83.2056,42.378976,0 -83.20498550000001,42.3790079,0 -83.2045956,42.3790228,0 -83.2036731,42.3790389,0 -83.20266890000001,42.3790429,0 -83.20205230000001,42.3790479,0 -83.201334,42.379058,0 -83.197896,42.379064,0 -83.19655969999999,42.3790769,0 -83.19503589999999,42.3790859,0 -83.19352600000001,42.3790939,0 -83.193071,42.379107,0 -83.1926247,42.3791459,0 -83.19222600000001,42.3791949,0 -83.191919,42.3792429,0 -83.191607,42.3793029,0 -83.19121199999999,42.379402,0 -83.190864,42.379511,0 -83.19055299999999,42.379615,0 -83.19029260000001,42.3797174,0 -83.189841,42.379895,0 -83.18970899999999,42.379941,0 -83.186036,42.381226,0 -83.185233,42.381489,0 -83.184487,42.381716,0 -83.183819,42.381895,0 -83.18318499999999,42.38206,0 -83.1794714,42.3828941,0 -83.178617,42.383086,0 -83.17399589999999,42.3840946,0 -83.17372400000001,42.384154,0 -83.171102,42.384723,0 -83.1704347,42.3848623,0 -83.16997050000001,42.3849393,0 -83.16975600000001,42.3849749,0 -83.169229,42.3850478,0 -83.1687029,42.3851159,0 -83.167815,42.3852009,0 -83.16743080000001,42.3852328,0 -83.16685289999999,42.3852678,0 -83.1659421,42.3852939,0 -83.165013,42.3852899,0 -83.163225,42.385273,0 -83.162137,42.38526,0 -83.1617049,42.3852597,0 -83.1581738,42.3852571,0 -83.157314,42.38525,0 -83.1568934,42.3852519,0 -83.1563639,42.3852488,0 -83.15574030000001,42.3852199,0 -83.15533069999999,42.38519,0 -83.1549096,42.3851489,0 -83.1546053,42.3851119,0 -83.15418,42.3850529,0 -83.15385019999999,42.3849939,0 -83.15353760000001,42.3849339,0 -83.15323600000001,42.3848709,0 -83.1529256,42.3847979,0 -83.1527842,42.3847609,0 -83.15256220000001,42.3846989,0 -83.1521314,42.3845746,0 -83.1518353,42.3844749,0 -83.1514292,42.3843388,0 -83.1507479,42.3840729,0 -83.1503295,42.3838869,0 -83.149421,42.383408,0 -83.14919860000001,42.3832653,0 -83.14907410000001,42.3831993,0 -83.1487611,42.3830011,0 -83.14836099999999,42.382694,0 -83.14799600000001,42.382392,0 -83.147802,42.382213,0 -83.147609,42.382003,0 -83.147267,42.381564,0 -83.147074,42.3812787,0 -83.1469864,42.3811276,0 -83.14682910000001,42.3808628,0 -83.146731,42.3806666,0 -83.14659279999999,42.3803004,0 -83.146445,42.379828,0 -83.14637999999999,42.379503,0 -83.146356,42.379163,0 -83.14634599999999,42.379055,0 -83.146339,42.378864,0 -83.14634100000001,42.378673,0 -83.14635800000001,42.378405,0 -83.146365,42.378098,0 -83.1463669,42.3774314,0 -83.1464604,42.3758864,0 -83.1464754,42.3751153,0 -83.14644509999999,42.3746446,0 -83.14635440000001,42.3738386,0 -83.1462768,42.3735047,0 -83.1462104,42.3732673,0 -83.1461115,42.3729305,0 -83.14599939999999,42.3726354,0 -83.1458538,42.3722965,0 -83.145634,42.371853,0 -83.1455017,42.3716149,0 -83.1452275,42.3711713,0 -83.14504839999999,42.370908,0 -83.1448188,42.370598,0 -83.1446488,42.3703906,0 -83.144327,42.3700238,0 -83.14379630000001,42.3695391,0 -83.14329549999999,42.3691419,0 -83.1429961,42.3689509,0 -83.142708,42.3687759,0 -83.14222100000001,42.3685107,0 -83.1417544,42.3683045,0 -83.140985,42.3680097,0 -83.1393101,42.3673906,0 -83.1382715,42.3670067,0 -83.137756,42.3668162,0 -83.1355255,42.3659818,0 -83.1344611,42.3655836,0 -83.13356520000001,42.3652559,0 -83.1321579,42.364732,0 -83.1315494,42.3645055,0 -83.12982239999999,42.3638615,0 -83.1291983,42.3636288,0 -83.1277841,42.3630996,0 -83.12624700000001,42.3625264,0 -83.1261088,42.3624782,0 -83.1257576,42.3623523,0 -83.1248877,42.362008,0 -83.1230463,42.3612658,0 -83.121336,42.360543,0 -83.12012780000001,42.3600716,0 -83.1185522,42.3594348,0 -83.11673020000001,42.3586902,0 -83.1163756,42.3585493,0 -83.115126,42.357959,0 -83.11385199999999,42.357346,0 -83.113156,42.357005,0 -83.111396,42.356142,0 -83.110716,42.355811,0 -83.11049,42.3557,0 -83.109814,42.355378,0 -83.109182,42.355104,0 -83.10860599999999,42.354889,0 -83.1073875,42.354493,0 -83.1065332,42.3542389,0 -83.10583889999999,42.3540371,0 -83.10544470000001,42.3539242,0 -83.10465240000001,42.353661,0 -83.1041061,42.3534434,0 -83.10364730000001,42.3532419,0 -83.10308449999999,42.3529778,0 -83.1026013,42.3527256,0 -83.102149,42.3524645,0 -83.1018005,42.3522488,0 -83.1014299,42.3520038,0 -83.10103770000001,42.3517229,0 -83.1006896,42.3514579,0 -83.1003261,42.3511467,0 -83.0999053,42.3507565,0 -83.0994424,42.3503114,0 -83.09904400000001,42.3498388,0 -83.0988182,42.3495708,0 -83.0985826,42.3492514,0 -83.09832160000001,42.3488603,0 -83.09805230000001,42.3484227,0 -83.09774,42.347892,0 -83.0969315,42.3464221,0 -83.09624700000001,42.345292,0 -83.09618,42.345185,0 -83.09545300000001,42.343947,0 -83.093667,42.340915,0 -83.09362299999999,42.340848,0 -83.0935223,42.3406836,0 -83.0920524,42.338204,0 -83.091264,42.336876,0 -83.09113600000001,42.336678,0 -83.090954,42.336419,0 -83.0905368,42.3359293,0 -83.09044299999999,42.3358282,0 -83.08964899999999,42.334749,0 -83.088964,42.333952,0 -83.08823,42.333057,0 -83.088081,42.332862,0 -83.08794,42.332663,0 -83.087765,42.332393,0 -83.087642,42.332188,0 -83.08748199999999,42.331844,0 -83.08723000000001,42.331141,0 -83.08715599999999,42.330856,0 -83.0871006,42.3306013,0 -83.0869958,42.3300857,0 -83.08693409999999,42.3299209,0 -83.0868578,42.3295888,0 -83.0867405,42.3291486,0 -83.0866687,42.3289501,0 -83.08657770000001,42.3287179,0 -83.0864928,42.3285308,0 -83.0863418,42.3282331,0 -83.086246,42.3280692,0 -83.0860368,42.3277518,0 -83.0852256,42.3264136,0 -83.0845546,42.3252556,0 -83.0842334,42.3246794,0 -83.0840166,42.3243422,0 -83.0837872,42.3239158,0 -83.08359969999999,42.3234807,0 -83.0835209,42.3232479,0 -83.0833927,42.3228597,0 -83.0831657,42.3222036,0 -83.0828504,42.3212818,0 -83.0827171,42.3208925,0 -83.08265539999999,42.3206922,0 -83.0826181,42.3204782,0 -83.0825856,42.3202238,0 -83.0825729,42.3200232,0 -83.08256950000001,42.3197503,0 -83.08256969999999,42.3195687,0 -83.0825858,42.319373,0 -83.08262879999999,42.3190216,0 
			</coordinates>
		</LineString>
		<atom:link rel="app" href="https://www.google.com/earth/about/versions/#earth-pro" title="Google Earth Pro 7.3.6.10201"></atom:link>
	</Placemark>
</Document>
</kml>
