<?xml version="1.0" encoding="UTF-8"?>
<kml xmlns="http://www.opengis.net/kml/2.2" xmlns:gx="http://www.google.com/kml/ext/2.2" xmlns:kml="http://www.opengis.net/kml/2.2" xmlns:atom="http://www.w3.org/2005/Atom">
<Document>
	<name>I.985.kml</name>
	<Placemark>
		<name>I.985</name>
		<LineString>
			<coordinates>
				-84.03144020000001,34.0429998,0 -84.0313259,34.0431894,0 -84.0302451,34.0441632,0 -84.0299754,34.0444455,0 -84.0297559,34.044726,0 -84.0296372,34.0448917,0 -84.02951880000001,34.0450793,0 -84.0293692,34.0453589,0 -84.02923490000001,34.0456199,0 -84.02915,34.0458403,0 -84.0289478,34.0465441,0 -84.02881840000001,34.0470795,0 -84.02873219999999,34.0473878,0 -84.0285935,34.0478503,0 -84.0285057,34.0480946,0 -84.02835,34.0484359,0 -84.0281928,34.04877,0 -84.0280459,34.0490378,0 -84.026989,34.050811,0 -84.02629899999999,34.051922,0 -84.025612,34.052939,0 -84.024874,34.053923,0 -84.02405299999999,34.054948,0 -84.022409,34.057058,0 -84.021491,34.058163,0 -84.020904,34.058792,0 -84.020413,34.059261,0 -84.01935,34.060169,0 -84.01850899999999,34.060787,0 -84.01772099999999,34.061343,0 -84.016633,34.062124,0 -84.015266,34.063096,0 -84.01415,34.063902,0 -84.01222199999999,34.065259,0 -84.00984200000001,34.066987,0 -84.00919399999999,34.067471,0 -84.00876,34.067842,0 -84.00819799999999,34.068339,0 -84.008067,34.068455,0 -84.007642,34.068879,0 -84.006648,34.070006,0 -84.00492,34.071974,0 -84.00418000000001,34.072863,0 -84.00405499999999,34.073013,0 -84.003754,34.073327,0 -84.001724,34.075704,0 -84.0016,34.07585,0 -84.001012,34.076494,0 -84.00055399999999,34.077037,0 -84.000021,34.077682,0 -83.999548,34.078242,0 -83.99942299999999,34.078378,0 -83.999049,34.078786,0 -83.998829,34.079055,0 -83.998491,34.079467,0 -83.99843199999999,34.079534,0 -83.997022,34.081147,0 -83.99695,34.081234,0 -83.99630500000001,34.08201,0 -83.995886,34.082576,0 -83.99560959999999,34.0829866,0 -83.9954487,34.0832257,0 -83.9950687,34.0838208,0 -83.99413300000001,34.085617,0 -83.993604,34.086544,0 -83.99334899999999,34.086992,0 -83.993298,34.087082,0 -83.992946,34.087737,0 -83.99256699999999,34.088442,0 -83.991568,34.0903,0 -83.99089499999999,34.0916,0 -83.98876300000001,34.094982,0 -83.987774,34.096545,0 -83.984981,34.10102,0 -83.98461399999999,34.101618,0 -83.981849,34.10612,0 -83.98130399999999,34.107007,0 -83.980009,34.109114,0 -83.979111,34.110359,0 -83.978911,34.110635,0 -83.978408,34.111267,0 -83.977981,34.111805,0 -83.976,34.114016,0 -83.97294599999999,34.117426,0 -83.97136,34.119197,0 -83.970741,34.119887,0 -83.970243,34.120434,0 -83.968874,34.121938,0 -83.96671000000001,34.124268,0 -83.96436300000001,34.126674,0 -83.963576,34.127371,0 -83.962974,34.127911,0 -83.962036,34.128809,0 -83.960898,34.12986,0 -83.959671,34.131082,0 -83.959609,34.131139,0 -83.95913,34.131581,0 -83.957551,34.132929,0 -83.956509,34.133896,0 -83.956304,34.134086,0 -83.95608199999999,34.134304,0 -83.955027,34.135342,0 -83.953845,34.136441,0 -83.9531494,34.1370625,0 -83.95272799999999,34.137439,0 -83.952417,34.137757,0 -83.951891,34.13826,0 -83.950057,34.140011,0 -83.94752699999999,34.142269,0 -83.94721,34.142509,0 -83.946827,34.142799,0 -83.946566,34.142996,0 -83.945959,34.143456,0 -83.945804,34.143574,0 -83.94476299999999,34.144434,0 -83.94455600000001,34.144605,0 -83.943646,34.145312,0 -83.943061,34.1458,0 -83.94184199999999,34.146738,0 -83.936961,34.150554,0 -83.935596,34.151616,0 -83.933469,34.153326,0 -83.93335500000001,34.153414,0 -83.931802,34.154617,0 -83.931003,34.155321,0 -83.93035999999999,34.155982,0 -83.92967400000001,34.156762,0 -83.929068,34.157541,0 -83.92843499999999,34.158478,0 -83.92785000000001,34.15944,0 -83.927443,34.16013,0 -83.927086,34.16071,0 -83.92617300000001,34.162175,0 -83.925194,34.163745,0 -83.92392,34.165843,0 -83.92345899999999,34.166621,0 -83.923231,34.167005,0 -83.92245200000001,34.168301,0 -83.921972,34.169064,0 -83.92168599999999,34.169518,0 -83.920963,34.170615,0 -83.920069,34.171809,0 -83.91906400000001,34.173005,0 -83.918994,34.173087,0 -83.918038,34.174213,0 -83.91783100000001,34.174457,0 -83.9169146,34.1755162,0 -83.916175,34.176371,0 -83.914969,34.177836,0 -83.91432639999999,34.1785998,0 -83.91406189999999,34.1789217,0 -83.911761,34.181547,0 -83.9112456,34.1821289,0 -83.910231,34.183409,0 -83.910201,34.183449,0 -83.908844,34.185022,0 -83.908646,34.185251,0 -83.90732,34.186852,0 -83.906576,34.187744,0 -83.906257,34.188126,0 -83.90524600000001,34.189151,0 -83.90403499999999,34.190352,0 -83.902631,34.191659,0 -83.901911,34.19233,0 -83.89756,34.196374,0 -83.89729199999999,34.196623,0 -83.8960885,34.1977957,0 -83.8959909,34.1978908,0 -83.895298,34.198566,0 -83.89460800000001,34.199268,0 -83.89346500000001,34.200612,0 -83.892554,34.201766,0 -83.891344,34.203288,0 -83.890801,34.203971,0 -83.89022799999999,34.204692,0 -83.8891325,34.2061108,0 -83.88848299999999,34.206952,0 -83.8877265,34.2079496,0 -83.88505000000001,34.21136,0 -83.88418299999999,34.212421,0 -83.88357499999999,34.213199,0 -83.88288900000001,34.214005,0 -83.88245999999999,34.21445,0 -83.88210599999999,34.214761,0 -83.88162800000001,34.215141,0 -83.881508,34.215216,0 -83.880988,34.215542,0 -83.880729,34.215698,0 -83.88006,34.216101,0 -83.879982,34.216148,0 -83.878551,34.216985,0 -83.877838,34.217421,0 -83.877588,34.217574,0 -83.876469,34.218233,0 -83.874439,34.219439,0 -83.874185,34.21959,0 -83.872663,34.220516,0 -83.872383,34.220686,0 -83.871515,34.221279,0 -83.8706636,34.2218466,0 -83.869856,34.222385,0 -83.86848500000001,34.223315,0 -83.86594770000001,34.2250835,0 -83.865171,34.2256211,0 -83.8645708,34.2260241,0 -83.864442,34.2261106,0 -83.862022,34.227748,0 -83.860326,34.228917,0 -83.859928,34.229177,0 -83.85965899999999,34.229354,0 -83.859238,34.229587,0 -83.858842,34.229769,0 -83.85878599999999,34.229795,0 -83.8583,34.229978,0 -83.858046,34.230055,0 -83.857781,34.230136,0 -83.856904,34.230298,0 -83.855841,34.230463,0 -83.85493099999999,34.230611,0 -83.85439100000001,34.230708,0 -83.853362,34.230859,0 -83.85319699999999,34.23091,0 -83.85212,34.23124,0 -83.850482,34.23194,0 -83.8487449,34.2329708,0 -83.848271,34.233252,0 -83.84759,34.233656,0 -83.846924,34.234051,0 -83.84487900000001,34.235282,0 -83.84380400000001,34.236082,0 -83.84298800000001,34.236763,0 -83.842868,34.236864,0 -83.842747,34.236964,0 -83.842501,34.237168,0 -83.84197399999999,34.237659,0 -83.84137,34.238335,0 -83.840391,34.239485,0 -83.84011,34.239835,0 -83.8401039,34.2398426,0 -83.83661499999999,34.244206,0 -83.836112,34.244857,0 -83.835869,34.245135,0 -83.835425,34.245642,0 -83.834879,34.24609,0 -83.833624,34.247079,0 -83.83247900000001,34.247823,0 -83.831351,34.248596,0 -83.830865,34.248942,0 -83.830225,34.249397,0 -83.829666,34.249746,0 -83.829195,34.25004,0 -83.826245,34.252122,0 -83.825737,34.252655,0 -83.8253,34.253285,0 -83.82477900000001,34.253945,0 -83.82413099999999,34.254833,0 -83.823153,34.256039,0 -83.82265099999999,34.256755,0 -83.82244300000001,34.257126,0 -83.822138,34.257654,0 -83.82190199999999,34.258209,0 -83.821763,34.258606,0 -83.82162599999999,34.25906,0 -83.821521,34.259471,0 -83.82148100000001,34.259824,0 -83.821437,34.260529,0 -83.82136300000001,34.261348,0 -83.8213566,34.2614638,0 -83.82125859999999,34.263223,0 -83.821203,34.264186,0 -83.82112499999999,34.264871,0 -83.82099100000001,34.26539,0 -83.820823,34.265882,0 -83.820604,34.266376,0 -83.82042800000001,34.266617,0 -83.820217,34.266831,0 -83.82002199999999,34.267044,0 -83.819649,34.26743,0 -83.8191722,34.2679374,0 -83.8186383,34.2684209,0 -83.8183995,34.2686448,0 -83.81784469999999,34.2691649,0 -83.8175052,34.2694893,0 -83.81626,34.270614,0 -83.815758,34.271107,0 -83.815675,34.271189,0 -83.815184,34.271563,0 -83.81447300000001,34.272194,0 -83.81403,34.272627,0 -83.813669,34.273015,0 -83.81311700000001,34.273746,0 -83.81023,34.277982,0 -83.809089,34.279656,0 -83.808914,34.279959,0 -83.808752,34.280241,0 -83.8079741,34.281305,0 -83.80774599999999,34.281617,0 -83.807304,34.282282,0 -83.806438,34.283632,0 -83.805773,34.285011,0 -83.805708,34.285106,0 -83.805351,34.285914,0 -83.805333,34.285949,0 -83.8051,34.286321,0 -83.80446499999999,34.287124,0 -83.803909,34.28777,0 -83.803664,34.288044,0 -83.803352,34.288347,0 -83.80312000000001,34.288578,0 -83.80298999999999,34.288707,0 -83.802919,34.288772,0 -83.802661,34.28901,0 -83.80241599999999,34.289248,0 -83.802014,34.289637,0 -83.801295,34.290281,0 -83.800951,34.290655,0 -83.800504,34.291303,0 -83.8003693,34.2915514,0 -83.80030499999999,34.29167,0 -83.800116,34.292097,0 -83.799952,34.29264,0 -83.799902,34.292806,0 -83.7998,34.293316,0 -83.799733,34.294523,0 -83.799671,34.294932,0 -83.799667,34.294966,0 -83.799588,34.29563,0 -83.799402,34.296142,0 -83.798969,34.296898,0 -83.79866199999999,34.29737,0 -83.797451,34.298722,0 -83.797023,34.299204,0 -83.795013,34.301468,0 -83.792399,34.304285,0 -83.789236,34.307942,0 -83.788599,34.308713,0 -83.788375,34.309112,0 -83.78823,34.309355,0 -83.788167,34.309497,0 -83.78801,34.309881,0 -83.787953,34.310143,0 -83.787879,34.310595,0 -83.78782,34.3111,0 -83.787798,34.31146,0 -83.787802,34.311823,0 -83.7878042,34.311859,0 -83.78783799999999,34.312412,0 -83.787952,34.31301,0 -83.7883985,34.3159459,0 -83.78851450000001,34.3167084,0 -83.78864,34.317468,0 -83.788751,34.318269,0 -83.788814,34.319127,0 -83.78873299999999,34.319776,0 -83.78864400000001,34.320173,0 -83.788394,34.320812,0 -83.788218,34.32114,0 
			</coordinates>
		</LineString>
		<atom:link rel="app" href="https://www.google.com/earth/about/versions/#earth-pro" title="Google Earth Pro 7.3.6.10201"></atom:link>
	</Placemark>
</Document>
</kml>
