<?xml version="1.0" encoding="UTF-8"?>
<kml xmlns="http://www.opengis.net/kml/2.2" xmlns:gx="http://www.google.com/kml/ext/2.2" xmlns:kml="http://www.opengis.net/kml/2.2" xmlns:atom="http://www.w3.org/2005/Atom">
<Document>
	<name>I.980.kml</name>
	<Placemark>
		<name>I.980</name>
		<LineString>
			<coordinates>
				-122.2764171,37.7991785,0 -122.2767506,37.7994161,0 -122.2769398,37.7995019,0 -122.2784809,37.8001707,0 -122.27866,37.8002539,0 -122.2788033,37.8003278,0 -122.2789486,37.8004144,0 -122.2790833,37.8005087,0 -122.2792098,37.8006097,0 -122.2793159,37.8007062,0 -122.2795218,37.8009267,0 -122.279695,37.8011706,0 -122.2798038,37.8013731,0 -122.2798679,37.8014902,0 -122.2799221,37.8016358,0 -122.2799641,37.8017718,0 -122.2799946,37.8019063,0 -122.2800109,37.8020416,0 -122.2800173,37.8021575,0 -122.2800123,37.8022796,0 -122.2800108,37.8023113,0 -122.2799969,37.8024434,0 -122.2799745,37.802579,0 -122.2799439,37.8027132,0 -122.2799038,37.8028454,0 -122.2798524,37.8029733,0 -122.279795,37.8031002,0 -122.2797314,37.8032309,0 -122.2796052,37.8034863,0 -122.2795432,37.8036102,0 -122.2791622,37.8043788,0 -122.2788477,37.8050173,0 -122.2787189,37.8052709,0 -122.2785832,37.8055326,0 -122.2784533,37.8057719,0 -122.2783125,37.8060264,0 -122.2781719,37.8062737,0 -122.2780276,37.8065217,0 -122.2779539,37.8066451,0 -122.277878,37.8067691,0 -122.277802,37.806892,0 -122.2777242,37.8070152,0 -122.2776485,37.8071359,0 -122.2775725,37.807257,0 -122.2774937,37.8073812,0 -122.2774151,37.8075032,0 -122.2773342,37.8076254,0 -122.2770942,37.8079857,0 -122.2770106,37.8081087,0 -122.2766778,37.808584,0 -122.2761689,37.8093058,0 -122.2759974,37.8095497,0 -122.2758351,37.8097813,0 -122.275667,37.8100196,0 -122.2754856,37.8102609,0 -122.2752914,37.8105078,0 -122.2752039,37.8106211,0 -122.2751161,37.8107326,0 -122.2750256,37.8108439,0 -122.2749302,37.8109536,0 -122.2748337,37.8110615,0 -122.2747331,37.8111687,0 -122.2746306,37.8112724,0 -122.2745257,37.8113754,0 -122.2744193,37.8114774,0 -122.2743093,37.8115787,0 -122.2742008,37.8116791,0 -122.2739679,37.8118886,0 -122.2730315,37.8127222,0 -122.2720821,37.8135658,0 -122.2719097,37.8137193,0 -122.2718109,37.8138106,0 -122.2717066,37.8139102,0 -122.2716056,37.8140109,0 -122.2715088,37.8141129,0 -122.2714128,37.8142191,0 -122.2713418,37.8143019,0 -122.2712422,37.8144246,0 -122.2711521,37.8145418,0 -122.271073,37.8146516,0 -122.2710003,37.8147606,0 -122.2709258,37.8148754,0 -122.2708548,37.8149967,0 -122.2707861,37.8151178,0 -122.2707192,37.8152485,0 -122.2706633,37.8153684,0 -122.2706129,37.8154841,0 -122.2705636,37.815609,0 -122.2705179,37.8157336,0 -122.2704757,37.8158588,0 -122.2704352,37.8159913,0 -122.2704009,37.816119,0 -122.2703676,37.8162396,0 -122.2703316,37.8163702,0 
			</coordinates>
		</LineString>
		<atom:link rel="app" href="https://www.google.com/earth/about/versions/#earth-pro" title="Google Earth Pro 7.3.6.10201"></atom:link>
	</Placemark>
</Document>
</kml>
