<?xml version="1.0" encoding="UTF-8"?>
<kml xmlns="http://www.opengis.net/kml/2.2" xmlns:gx="http://www.google.com/kml/ext/2.2" xmlns:kml="http://www.opengis.net/kml/2.2" xmlns:atom="http://www.w3.org/2005/Atom">
<Document>
	<name>I.990.kml</name>
	<Placemark>
		<name>I.990</name>
		<LineString>
			<coordinates>
				-78.8042463,42.999253,0 -78.8041647,42.9993324,0 -78.8040476,42.999459,0 -78.8039665,42.9995518,0 -78.8038887,42.999646,0 -78.80381869999999,42.9997331,0 -78.803746,42.9998307,0 -78.8036774,42.9999245,0 -78.80361259999999,43.0000174,0 -78.8035426,43.0001231,0 -78.8034828,43.0002159,0 -78.80341749999999,43.000324,0 -78.8031184,43.0009394,0 -78.80288950000001,43.0015662,0 -78.80281530000001,43.0019509,0 -78.8027543,43.0028778,0 -78.80278010000001,43.0036813,0 -78.8027984,43.004077,0 -78.8028147,43.0045064,0 -78.80285069999999,43.0055986,0 -78.80288109999999,43.0066851,0 -78.80289620000001,43.0076909,0 -78.80289930000001,43.0089355,0 -78.80279520000001,43.0096868,0 -78.80262159999999,43.0107601,0 -78.8023919,43.011754,0 -78.80224200000001,43.0122407,0 -78.8021237,43.0126248,0 -78.8018206,43.0134105,0 -78.8016925,43.0136964,0 -78.80148,43.0141703,0 -78.80088720000001,43.0152069,0 -78.800265,43.0161718,0 -78.7997527,43.0168453,0 -78.79922430000001,43.0174583,0 -78.79878239999999,43.0179107,0 -78.7983552,43.0183447,0 -78.7973789,43.0192621,0 -78.7966708,43.0198739,0 -78.7958447,43.0205093,0 -78.7949692,43.0211195,0 -78.7946764,43.0212879,0 -78.7943353,43.0214806,0 -78.7939215,43.0217288,0 -78.7936892,43.0218622,0 -78.7933549,43.0220493,0 -78.7923212,43.0226205,0 -78.7908556,43.0232778,0 -78.78986740000001,43.0236827,0 -78.78927349999999,43.0239038,0 -78.7877599,43.0243614,0 -78.7875926,43.024412,0 -78.7868995,43.024568,0 -78.78595540000001,43.0248147,0 -78.7852365,43.0249637,0 -78.784161,43.0251606,0 -78.7826455,43.0253734,0 -78.7820179,43.0254363,0 -78.7800491,43.0255653,0 -78.7781131,43.0256065,0 -78.77536120000001,43.0256665,0 -78.77233390000001,43.0255986,0 -78.7680725,43.0255011,0 -78.767859,43.0255075,0 -78.767594,43.0255167,0 -78.76719319999999,43.0255493,0 -78.76671930000001,43.0256141,0 -78.7662243,43.0257049,0 -78.7657679,43.0258145,0 -78.76495970000001,43.0260655,0 -78.76423920000001,43.026349,0 -78.76365869999999,43.0266517,0 -78.7631032,43.0270142,0 -78.762721,43.0272835,0 -78.76243530000001,43.0275414,0 -78.7621152,43.0278688,0 -78.76171429999999,43.0283552,0 -78.7613925,43.0288652,0 -78.7611381,43.0294251,0 -78.7610705,43.0296165,0 -78.7609954,43.0298517,0 -78.7608791,43.0302848,0 -78.760802,43.0305718,0 -78.7607679,43.0306988,0 -78.76064409999999,43.0311712,0 -78.7600673,43.0333706,0 -78.759776,43.0345939,0 -78.7596736,43.0350084,0 -78.759123,43.0369969,0 -78.75876,43.0383686,0 -78.75858270000001,43.039033,0 -78.7584197,43.0395486,0 -78.7583166,43.0398189,0 -78.75824780000001,43.039987,0 -78.75817259999999,43.0401537,0 -78.7580734,43.0403566,0 -78.757971,43.040571,0 -78.7578853,43.0407237,0 -78.7576612,43.0411049,0 -78.7571836,43.0418096,0 -78.7567973,43.042307,0 -78.7557047,43.0434227,0 -78.7546763,43.0442429,0 -78.7538072,43.0448142,0 -78.7528161,43.0453828,0 -78.7514008,43.045992,0 -78.7502446,43.0463738,0 -78.7482595,43.0468541,0 -78.74684550000001,43.0470467,0 -78.7447622,43.0471516,0 -78.7413083,43.0472591,0 -78.74077080000001,43.0472852,0 -78.73929889999999,43.0473164,0 
			</coordinates>
		</LineString>
		<atom:link rel="app" href="https://www.google.com/earth/about/versions/#earth-pro" title="Google Earth Pro 7.3.6.10201"></atom:link>
	</Placemark>
</Document>
</kml>
