<?xml version="1.0" encoding="UTF-8"?>
<kml xmlns="http://www.opengis.net/kml/2.2" xmlns:gx="http://www.google.com/kml/ext/2.2" xmlns:kml="http://www.opengis.net/kml/2.2" xmlns:atom="http://www.w3.org/2005/Atom">
<Document>
	<name>I.99.kml</name>
	<Placemark>
		<name>I.99</name>
		<MultiGeometry>
			<LineString>
				<coordinates>
					-78.517813,40.058757,0 -78.517797,40.059048,0 -78.517735,40.060538,0 -78.517644,40.062488,0 -78.51759079999999,40.0636349,0 -78.517537,40.064794,0 -78.51751400000001,40.065434,0 -78.517501,40.066035,0 -78.51751299999999,40.066463,0 -78.517544,40.066812,0 -78.517602,40.067275,0 -78.517627,40.067422,0 -78.51774500000001,40.067964,0 -78.517888,40.068476,0 -78.51810999999999,40.069083,0 -78.51827900000001,40.069469,0 -78.518314,40.06955,0 -78.518559,40.07004,0 -78.518824,40.070498,0 -78.519088,40.07089,0 -78.519514,40.071464,0 -78.51958999999999,40.071556,0 -78.519711,40.071703,0 -78.51978200000001,40.071788,0 -78.52010300000001,40.07215,0 -78.520495,40.072551,0 -78.523089,40.075157,0 -78.52391299999999,40.075982,0 -78.524636,40.076701,0 -78.52506700000001,40.077146,0 -78.525368,40.077479,0 -78.52569800000001,40.077855,0 -78.52607999999999,40.078345,0 -78.52648499999999,40.078884,0 -78.526814,40.079371,0 -78.527124,40.079881,0 -78.52746399999999,40.080501,0 -78.52776299999999,40.081097,0 -78.52798300000001,40.081614,0 -78.528026,40.081725,0 -78.528166,40.08209,0 -78.52840500000001,40.082781,0 -78.52856199999999,40.08336,0 -78.528713,40.084085,0 -78.52881499999999,40.084714,0 -78.528935,40.085665,0 -78.529132,40.08722,0 -78.529342,40.088903,0 -78.52938399999999,40.089303,0 -78.529404,40.089659,0 -78.5294269,40.0901956,0 -78.52942299999999,40.090655,0 -78.52938899999999,40.091295,0 -78.529308,40.092186,0 -78.529228,40.093138,0 -78.529122,40.094315,0 -78.5290286,40.0955585,0 -78.5289741,40.0961641,0 -78.528758,40.098431,0 -78.5286842,40.0993228,0 -78.528604,40.099938,0 -78.52856800000001,40.100353,0 -78.52856,40.100516,0 -78.528533,40.100849,0 -78.52847559999999,40.1015724,0 -78.52833560000001,40.1031304,0 -78.5282234,40.104554,0 -78.52810599999999,40.105775,0 -78.528043,40.106344,0 -78.527969,40.106764,0 -78.527878,40.107129,0 -78.527772,40.107497,0 -78.527631,40.107878,0 -78.527485,40.108245,0 -78.52731799999999,40.108601,0 -78.526995,40.10917,0 -78.526787,40.109498,0 -78.526698,40.109638,0 -78.5264305,40.1100097,0 -78.52608189999999,40.1104314,0 -78.525898,40.110609,0 -78.525566,40.110954,0 -78.525139,40.111339,0 -78.52363699999999,40.112556,0 -78.523342,40.11281,0 -78.522831,40.1133,0 -78.52228100000001,40.113891,0 -78.522075,40.114145,0 -78.521828,40.114466,0 -78.521647,40.114732,0 -78.52131900000001,40.115259,0 -78.521226,40.115416,0 -78.521039,40.115789,0 -78.520852,40.116197,0 -78.520684,40.116615,0 -78.520556,40.11701,0 -78.520433,40.117494,0 -78.519481,40.121681,0 -78.51745699999999,40.130732,0 -78.51727200000001,40.131542,0 -78.517105,40.132167,0 -78.516929,40.132704,0 -78.516655,40.133437,0 -78.51639299999999,40.134033,0 -78.51574599999999,40.135335,0 -78.515349,40.136099,0 -78.51283890000001,40.1410214,0 -78.51244199999999,40.141759,0 -78.512047,40.142515,0 -78.51194,40.142721,0 -78.51146199999999,40.143691,0 -78.510515,40.145549,0 -78.5100334,40.1464388,0 -78.5098016,40.1468338,0 -78.50936799999999,40.147509,0 -78.508973,40.148114,0 -78.508573,40.148687,0 -78.508145,40.149274,0 -78.507577,40.150006,0 -78.50728100000001,40.150375,0 -78.506812,40.150933,0 -78.50658900000001,40.151184,0 -78.506344,40.151472,0 -78.505848,40.15203,0 -78.5054689,40.1524744,0 -78.50538400000001,40.152574,0 -78.505216,40.15277,0 -78.50518099999999,40.152811,0 -78.504852,40.153183,0 -78.5042138,40.1538749,0 -78.5035537,40.1547906,0 -78.5024341,40.156069,0 -78.5016694,40.1570681,0 -78.5007375,40.1583912,0 -78.49978729999999,40.1597862,0 -78.49927479999999,40.1605435,0 -78.498637,40.161539,0 -78.49762699999999,40.163238,0 -78.49682199999999,40.164702,0 -78.496673,40.164993,0 -78.496025,40.166254,0 -78.495981,40.166342,0 -78.495574,40.167163,0 -78.4951377,40.168141,0 -78.4945518,40.1695055,0 -78.49396659999999,40.1709782,0 -78.4931823,40.1731873,0 -78.4930088,40.173756,0 -78.4926432,40.1749647,0 -78.4923178,40.1761567,0 -78.4919522,40.1774136,0 -78.4915572,40.1787423,0 -78.491208,40.1800814,0 -78.4909293,40.1811144,0 -78.4906503,40.1821483,0 -78.49025229999999,40.1836086,0 -78.4899668,40.184632,0 -78.48965130000001,40.1857593,0 -78.4894443,40.1864531,0 -78.48929699999999,40.186947,0 -78.4890971,40.1877254,0 -78.4889281,40.188336,0 -78.4887045,40.189156,0 -78.48835630000001,40.1902173,0 -78.4880422,40.191098,0 -78.487718,40.191848,0 -78.4870411,40.1933526,0 -78.48628410000001,40.194877,0 -78.4855532,40.1961844,0 -78.48483640000001,40.1974457,0 -78.4843236,40.1982925,0 -78.4841572,40.1985673,0 -78.48339729999999,40.1997361,0 -78.48251980000001,40.2010353,0 -78.48116450000001,40.2029423,0 -78.4797166,40.2049743,0 -78.478115,40.207274,0 -78.47802299999999,40.207415,0 -78.4768325,40.2092743,0 -78.47637210000001,40.2100409,0 -78.47538900000001,40.211642,0 -78.4743388,40.213537,0 -78.4732078,40.2156057,0 -78.4719338,40.2179273,0 -78.4709762,40.2196573,0 -78.4702656,40.2209583,0 -78.46972460000001,40.2219327,0 -78.4685976,40.2239897,0 -78.466767,40.227312,0 -78.46617500000001,40.228389,0 -78.46517,40.230208,0 -78.46476,40.230958,0 -78.46439700000001,40.23162,0 -78.46428,40.231845,0 -78.46361419999999,40.2331467,0 -78.4629236,40.2346897,0 -78.4623922,40.2361137,0 -78.4618571,40.2379813,0 -78.4614572,40.239403,0 -78.4610698,40.240894,0 -78.46083609999999,40.2417823,0 -78.4603231,40.243689,0 -78.4594015,40.247145,0 -78.45876250000001,40.249557,0 -78.4583232,40.2511798,0 -78.4581403,40.2518826,0 -78.45790100000001,40.2527922,0 -78.4566205,40.2575785,0 -78.4562006,40.2591667,0 -78.45518559999999,40.2630202,0 -78.4548094,40.2643608,0 -78.4543087,40.2659135,0 -78.4536404,40.2678218,0 -78.4484042,40.282321,0 -78.4443528,40.2935719,0 -78.4439443,40.2947064,0 -78.4437054,40.2954403,0 -78.4434092,40.2964668,0 -78.44316569999999,40.2974337,0 -78.44302570000001,40.2981063,0 -78.4425916,40.3002204,0 -78.4422931,40.3016689,0 -78.4407406,40.3092121,0 -78.4404523,40.3105733,0 -78.44028,40.3112703,0 -78.4399907,40.3122632,0 -78.4397748,40.3129304,0 -78.4394831,40.3137517,0 -78.4391961,40.3144662,0 -78.4389297,40.3150931,0 -78.4386334,40.3157393,0 -78.4382016,40.3166148,0 -78.4377561,40.3174676,0 -78.432954,40.3267984,0 -78.4303336,40.3318739,0 -78.43009240000001,40.3323623,0 -78.4298972,40.332807,0 -78.429725,40.3332657,0 -78.4295826,40.3337244,0 -78.4294494,40.3342618,0 -78.42935749999999,40.334836,0 -78.4293047,40.3354155,0 -78.4292749,40.3358303,0 -78.42927950000001,40.3362347,0 -78.4293024,40.3366916,0 -78.42937360000001,40.3372518,0 -78.4294448,40.3376509,0 -78.4295651,40.3381745,0 -78.4296921,40.3386038,0 -78.42988889999999,40.3391057,0 -78.4301078,40.3396046,0 -78.43053089999999,40.340393,0 -78.4314691,40.3421176,0 -78.4325384,40.3440652,0 -78.4333271,40.3455051,0 -78.4335493,40.3460427,0 -78.433713,40.346554,0 -78.43378370000001,40.3470438,0 -78.4338017,40.3477425,0 -78.4338568,40.3512702,0 -78.4339073,40.3566083,0 -78.433926,40.3571495,0 -78.43392160000001,40.3618217,0 -78.4339214,40.3620265,0 -78.43398000000001,40.3631834,0 -78.4340602,40.3642181,0 -78.4341348,40.3646984,0 -78.4342237,40.3651966,0 -78.4343413,40.3657864,0 -78.43446489999999,40.3663778,0 -78.43471599999999,40.3672629,0 -78.4351728,40.3685198,0 -78.43680449999999,40.3722723,0 -78.4369676,40.3727487,0 -78.43711329999999,40.3732405,0 -78.4371991,40.3737191,0 -78.4372604,40.3741764,0 -78.4372683,40.3745632,0 -78.43725240000001,40.3749622,0 -78.4371969,40.3754155,0 -78.4371017,40.3759172,0 -78.4369985,40.3763283,0 -78.4368874,40.3766547,0 -78.43676050000001,40.3769992,0 -78.43660180000001,40.3773377,0 -78.4364034,40.3776943,0 -78.4361892,40.3780328,0 -78.4360997,40.378167,0 -78.43595120000001,40.3783894,0 -78.4355779,40.3788566,0 -78.4350546,40.3793867,0 -78.4343413,40.3800796,0 -78.4339035,40.3804762,0 -78.43149990000001,40.3827654,0 -78.43101590000001,40.3832549,0 -78.43051610000001,40.383811,0 -78.43009549999999,40.3843731,0 -78.42960359999999,40.3851467,0 -78.42923860000001,40.385884,0 -78.42910999999999,40.3862365,0 -78.42896090000001,40.3866455,0 -78.4288181,40.3872136,0 -78.4287229,40.3878119,0 -78.42869109999999,40.3883256,0 -78.42868319999999,40.3888755,0 -78.4287308,40.3894315,0 -78.428826,40.39006,0 -78.4289682,40.3907127,0 -78.4291413,40.391178,0 -78.429362,40.391728,0 -78.429621,40.3922329,0 -78.4298367,40.3926103,0 -78.43014549999999,40.3930738,0 -78.43080070000001,40.3940215,0 -78.4311052,40.3944643,0 -78.43175840000001,40.3954861,0 -78.432181,40.3962199,0 -78.4325833,40.3969928,0 -78.4329571,40.3977779,0 -78.4332691,40.3984681,0 -78.4335445,40.3991733,0 -78.43374059999999,40.3997159,0 -78.4339227,40.4003039,0 -78.4342838,40.4018374,0 -78.4344006,40.4026501,0 -78.4344679,40.4035506,0 -78.4344902,40.4041905,0 -78.43449819999999,40.4048731,0 -78.4344816,40.4055557,0 -78.43443569999999,40.4066046,0 -78.4343777,40.4070647,0 -78.4342889,40.4075436,0 -78.43418389999999,40.4080698,0 -78.4340495,40.4086047,0 -78.4339279,40.4090394,0 -78.4336819,40.4097946,0 -78.43348349999999,40.4103625,0 -78.4331979,40.4109968,0 -78.4329123,40.4115526,0 -78.4326901,40.4119151,0 -78.4322954,40.4124995,0 -78.4319272,40.4129973,0 -78.4313306,40.4136256,0 -78.4308101,40.4141137,0 -78.43044190000001,40.4144278,0 -78.42996580000001,40.4147758,0 -78.429458,40.4151141,0 -78.4288741,40.4154669,0 -78.427668,40.4161628,0 -78.42709670000001,40.416506,0 -78.4265128,40.4168974,0 -78.4260177,40.417284,0 -78.4255352,40.4177093,0 -78.4251163,40.4181491,0 -78.424672,40.4186903,0 -78.4242539,40.4192743,0 -78.4239615,40.4197799,0 -78.42373569999999,40.4202638,0 -78.4235012,40.4208626,0 -78.42332949999999,40.4214868,0 -78.4232177,40.4221867,0 -78.42320530000001,40.4229606,0 -78.42325649999999,40.4236307,0 -78.42336760000001,40.4242253,0 -78.42354400000001,40.4248123,0 -78.4237274,40.4253983,0 -78.4240619,40.4264485,0 -78.42468150000001,40.4282992,0 -78.42521549999999,40.4299206,0 -78.4254588,40.4306507,0 -78.42590199999999,40.4319623,0 -78.426143,40.4326832,0 -78.42639200000001,40.4334346,0 -78.4266195,40.4341189,0 -78.4267639,40.4346489,0 -78.4268182,40.4348809,0 -78.4268673,40.4351094,0 -78.4269293,40.435416,0 -78.4269616,40.4356279,0 -78.4269967,40.4358886,0 -78.4270326,40.4361914,0 -78.4270551,40.4365255,0 -78.42706389999999,40.4368714,0 -78.427053,40.4374389,0 -78.4270416,40.4377943,0 -78.4270076,40.4381201,0 -78.4269427,40.4385563,0 -78.4268623,40.4389973,0 -78.4268312,40.4391658,0 -78.42673379999999,40.4395404,0 -78.426625,40.4398635,0 -78.4264953,40.4402232,0 -78.4263416,40.4405828,0 -78.4261511,40.4409989,0 -78.4259814,40.4413041,0 -78.4256572,40.441835,0 -78.42539499999999,40.4422403,0 -78.424845,40.4430554,0 -78.4242728,40.4439254,0 -78.4237838,40.4446866,0 -78.4231503,40.4456476,0 -78.42281920000001,40.4462548,0 -78.42254079999999,40.4468392,0 -78.4224876,40.4469675,0 -78.4223305,40.447347,0 -78.42215210000001,40.4478521,0 -78.4220057,40.4483574,0 -78.4218613,40.4489235,0 -78.4217733,40.4494429,0 -78.42170659999999,40.4499296,0 -78.4216693,40.4504248,0 -78.4216505,40.4508489,0 -78.42166400000001,40.4513338,0 -78.42169079999999,40.4518509,0 -78.4217575,40.4523806,0 -78.4218489,40.4529004,0 -78.4219602,40.4534733,0 -78.4221112,40.4540446,0 -78.4223418,40.4549995,0 -78.4224907,40.4556082,0 -78.4225751,40.4559533,0 -78.4231741,40.4586117,0 -78.42323210000001,40.4591281,0 -78.4232708,40.4595625,0 -78.4232344,40.4599391,0 -78.4231858,40.4603239,0 -78.4230883,40.4606935,0 -78.4229766,40.461018,0 -78.4228267,40.4613109,0 -78.42259919999999,40.4616703,0 -78.42239170000001,40.4619961,0 -78.42213169999999,40.4623116,0 -78.4218566,40.4626158,0 -78.42161040000001,40.4628779,0 -78.42132100000001,40.463134,0 -78.42098489999999,40.4634372,0 -78.4206672,40.4636628,0 -78.4202757,40.4639104,0 -78.4198305,40.46415,0 -78.4192965,40.4643929,0 -78.4187563,40.46455,0 -78.41824269999999,40.464682,0 -78.41765030000001,40.4647737,0 -78.4169474,40.4648398,0 -78.41608170000001,40.4648804,0 -78.41412320000001,40.4650147,0 -78.41119089999999,40.4651973,0 -78.40983249999999,40.4652846,0 -78.4085961,40.4653619,0 -78.4081867,40.4653892,0 -78.40740099999999,40.46548,0 -78.406155,40.4657081,0 -78.40543889999999,40.4659022,0 -78.4046932,40.4661447,0 -78.40396629999999,40.4664204,0 -78.4027823,40.466955,0 -78.4024251,40.467161,0 -78.40157290000001,40.4676904,0 -78.40088419999999,40.4682185,0 -78.4003232,40.468751,0 -78.3999391,40.4691571,0 -78.3997461,40.4693612,0 -78.3992832,40.4700433,0 -78.39887950000001,40.4706278,0 -78.3982077,40.4718639,0 -78.39697080000001,40.4741463,0 -78.3954421,40.4769311,0 -78.39482030000001,40.4780675,0 -78.39465749999999,40.4783653,0 -78.39322199999999,40.4809849,0 -78.3920255,40.4831398,0 -78.39110290000001,40.48458,0 -78.3905527,40.485316,0 -78.38980789999999,40.4863598,0 -78.3890923,40.4872053,0 -78.38889349999999,40.4874402,0 -78.3861496,40.4903876,0 -78.38388740000001,40.492777,0 -78.38129120000001,40.4955607,0 -78.3795813,40.4973519,0 -78.3765219,40.5006087,0 -78.3751493,40.502082,0 -78.3748035,40.5024532,0 -78.37428749999999,40.5030648,0 -78.37381739999999,40.5036508,0 -78.3733532,40.504291,0 -78.37293029999999,40.5049095,0 -78.371978,40.5065772,0 -78.3710687,40.5082674,0 -78.3707484,40.5088504,0 -78.3704425,40.5093587,0 -78.3697098,40.5104773,0 -78.3692023,40.5111064,0 -78.3687549,40.5116967,0 -78.36772569999999,40.512868,0 -78.3668732,40.5138976,0 -78.3659821,40.5148838,0 -78.36561260000001,40.5153062,0 -78.3645527,40.5165179,0 -78.3626026,40.5187537,0 -78.3619174,40.5195456,0 -78.3612301,40.5202835,0 -78.3604825,40.5210017,0 -78.35970759999999,40.5216439,0 -78.3589621,40.5222088,0 -78.35813949999999,40.5227314,0 -78.3565454,40.5237778,0 -78.3547468,40.5249267,0 -78.3542674,40.5252724,0 -78.35388140000001,40.5255939,0 -78.35349069999999,40.5259533,0 -78.3531783,40.5262796,0 -78.35283459999999,40.5266875,0 -78.35244520000001,40.5272213,0 -78.35211580000001,40.5277001,0 -78.3517765,40.5283956,0 -78.35090270000001,40.5307709,0 -78.34954569999999,40.5345995,0 -78.34932980000001,40.5351152,0 -78.3490934,40.5356387,0 -78.3488158,40.5361699,0 -78.3485074,40.5366934,0 -78.3481373,40.5372481,0 -78.34775689999999,40.5377872,0 -78.3473149,40.5383419,0 -78.34659600000001,40.5392238,0 -78.3420308,40.5438653,0 -78.34033460000001,40.545623,0 -78.3385665,40.5473936,0 -78.3357176,40.5503232,0 -78.3350334,40.5510831,0 -78.3344939,40.551733,0 -78.3340925,40.5522229,0 -78.3336978,40.5527228,0 -78.33343069999999,40.5530772,0 -78.33325689999999,40.5533077,0 -78.3327898,40.5539576,0 -78.33242129999999,40.5545245,0 -78.3318582,40.5554123,0 -78.3313321,40.5563436,0 -78.33090679999999,40.5571562,0 -78.33028640000001,40.5583446,0 -78.3294574,40.5600491,0 -78.32911420000001,40.5607921,0 -78.3288324,40.5613187,0 -78.328506,40.5619296,0 -78.328243,40.5623408,0 -78.32762959999999,40.5631716,0 -78.32700850000001,40.5639542,0 -78.3255163,40.5657622,0 -78.3228608,40.5690729,0 -78.3227662,40.5691908,0 -78.32212800000001,40.5700554,0 -78.3215227,40.57096,0 -78.32098310000001,40.5718146,0 -78.32046339999999,40.5727042,0 -78.31999620000001,40.5735688,0 -78.319562,40.5744333,0 -78.3191738,40.5753079,0 -78.3188371,40.576204,0 -78.3185027,40.5770919,0 -78.3183198,40.5776757,0 -78.3180503,40.5785361,0 -78.3178544,40.5792773,0 -78.317707,40.5799817,0 -78.3175481,40.5807148,0 -78.31742370000001,40.5814382,0 -78.31720679999999,40.5828919,0 -78.3168333,40.5856694,0 -78.31607,40.5910655,0 -78.315889,40.5923353,0 -78.3156819,40.5937884,0 -78.31550420000001,40.5951673,0 -78.31540750000001,40.5958328,0 -78.3152742,40.5965197,0 -78.31506039999999,40.5973627,0 -78.3146449,40.5986015,0 -78.3144654,40.5989955,0 -78.3141722,40.5995546,0 -78.313761,40.6003102,0 -78.3133333,40.6010533,0 -78.31271649999999,40.6020836,0 -78.3119023,40.603451,0 -78.31135519999999,40.6043914,0 -78.31028209999999,40.6062359,0 -78.30940200000001,40.6077313,0 -78.3067156,40.6122957,0 -78.3063314,40.6128951,0 -78.30589980000001,40.6134864,0 -78.3054313,40.6140498,0 -78.30494179999999,40.6146092,0 -78.30448920000001,40.6150567,0 -78.30397859999999,40.6155442,0 -78.30350489999999,40.6159517,0 -78.30297059999999,40.6163818,0 -78.3022157,40.6170098,0 -78.3017315,40.6173247,0 -78.3012956,40.6176132,0 -78.3003313,40.6181846,0 -78.2993335,40.6187351,0 -78.2872976,40.6254349,0 -78.28556349999999,40.6263989,0 -78.28475299999999,40.6268892,0 -78.2839874,40.6274027,0 -78.2832061,40.6279803,0 -78.2825259,40.6285371,0 -78.2819312,40.6290724,0 -78.28131999999999,40.629663,0 -78.2806538,40.6303995,0 -78.2800123,40.6311859,0 -78.2792438,40.6322751,0 -78.27788889999999,40.6341954,0 -78.2773284,40.6349864,0 -78.276803,40.6356643,0 -78.2764298,40.636128,0 -78.2760327,40.6365802,0 -78.2756993,40.6369299,0 -78.2751004,40.6375623,0 -78.2746491,40.6379885,0 -78.2738129,40.638831,0 -78.2729648,40.6396595,0 -78.27203230000001,40.6405781,0 -78.2710471,40.6414899,0 -78.27049510000001,40.6419725,0 -78.2694546,40.64286,0 -78.26836,40.6436947,0 -78.26737660000001,40.6444078,0 -78.2663913,40.6451361,0 -78.2637433,40.6470424,0 -78.2627801,40.6477386,0 -78.26023910000001,40.6495755,0 -78.25462210000001,40.6536487,0 -78.2496361,40.6574547,0 -78.2448504,40.6611637,0 -78.2440971,40.6618438,0 -78.2436407,40.6622783,0 -78.2429059,40.6630881,0 -78.2421293,40.6639821,0 -78.240567,40.6657654,0 -78.2400805,40.6662704,0 -78.23944830000001,40.6668621,0 -78.2387951,40.6674324,0 -78.2381403,40.6679979,0 -78.2378377,40.6682603,0 -78.23705270000001,40.6689664,0 -78.2365748,40.6693851,0 -78.2361745,40.6697269,0 -78.2353186,40.6704583,0 -78.234784,40.6709441,0 -78.2343248,40.67143,0 -78.2340755,40.6717466,0 -78.23379679999999,40.6721153,0 -78.2336124,40.6724033,0 -78.23340020000001,40.6727686,0 -78.2332172,40.6731165,0 -78.23307869999999,40.6734191,0 -78.2329211,40.6738162,0 -78.2328029,40.674167,0 -78.23249920000001,40.6751326,0 -78.2316974,40.6776987,0 -78.2312091,40.6791118,0 -78.2308364,40.6800863,0 -78.23060510000001,40.6806321,0 -78.2303179,40.6811964,0 -78.22997460000001,40.6817986,0 -78.2292558,40.6828149,0 -78.2286337,40.6835954,0 -78.22815970000001,40.6841901,0 -78.22662149999999,40.6860989,0 -78.2248721,40.688314,0 -78.2241597,40.6891601,0 -78.223516,40.689928,0 -78.2226276,40.6907871,0 -78.22184230000001,40.691503,0 -78.2209539,40.6922937,0 -78.2200485,40.6930875,0 -78.219336,40.6936993,0 -78.21459369999999,40.6978805,0 -78.213787,40.6984857,0 -78.2128902,40.6990875,0 -78.2117271,40.6997838,0 -78.20562459999999,40.7029917,0 -78.2042343,40.70369,0 -78.2032214,40.7041988,0 -78.2009592,40.7053022,0 -78.1983761,40.7064561,0 -78.1958681,40.7075782,0 -78.1940974,40.7083624,0 -78.19221039999999,40.7092059,0 -78.19080510000001,40.7098326,0 -78.1887637,40.710725,0 -78.1881684,40.710983,0 -78.18655269999999,40.7117229,0 -78.1851467,40.7123532,0 -78.183301,40.7132115,0 -78.18212370000001,40.7137922,0 -78.1805997,40.7145391,0 -78.179177,40.7152582,0 -78.17814629999999,40.715785,0 -78.1776204,40.7160487,0 -78.17676299999999,40.7164811,0 -78.17625150000001,40.7167287,0 -78.17588979999999,40.7168881,0 -78.17554560000001,40.7170367,0 -78.1752843,40.7171345,0 -78.1750054,40.7172287,0 -78.17472170000001,40.7173157,0 -78.17446839999999,40.7173821,0 -78.1741895,40.7174449,0 -78.1739027,40.7174981,0 -78.1736429,40.7175379,0 -78.1733083,40.7175766,0 -78.17294819999999,40.7176092,0 -78.1726852,40.7176225,0 -78.1723681,40.7176297,0 -78.1720717,40.7176273,0 -78.171796,40.7176128,0 -78.17143590000001,40.7175862,0 -78.1710503,40.7175428,0 -78.1693181,40.7173531,0 -78.1683349,40.7172408,0 -78.16788870000001,40.7172022,0 -78.1676385,40.717184,0 -78.16738359999999,40.7171708,0 -78.16711429999999,40.7171635,0 -78.16689599999999,40.7171635,0 -78.1666713,40.7171695,0 -78.16634139999999,40.7171877,0 -78.16604820000001,40.7172142,0 -78.1657709,40.7172493,0 -78.1654793,40.717294,0 -78.1652307,40.7173398,0 -78.1650156,40.7173882,0 -78.164759,40.7174485,0 -78.1644611,40.7175343,0 -78.164176,40.7176211,0 -78.1638653,40.717731,0 -78.16358169999999,40.7178434,0 -78.1633124,40.7179593,0 -78.16295700000001,40.7181284,0 -78.1606778,40.7192434,0 -78.16029159999999,40.7194226,0 -78.16003670000001,40.7195361,0 -78.15976259999999,40.7196497,0 -78.1594837,40.7197548,0 -78.1591682,40.7198683,0 -78.1588766,40.7199637,0 -78.1585149,40.7200663,0 -78.1582057,40.7201497,0 -78.15785510000001,40.7202318,0 -78.1575301,40.7202982,0 -78.1566935,40.7204601,0 -78.1549278,40.7207753,0 -78.15355099999999,40.7210277,0 -78.1526124,40.721198,0 -78.15213439999999,40.7212886,0 -78.1517886,40.721361,0 -78.1514253,40.7214383,0 -78.1509472,40.7215458,0 -78.15049310000001,40.7216557,0 -78.14999109999999,40.7217874,0 -78.1494397,40.7219407,0 -78.1488039,40.7221279,0 -78.14826050000001,40.7223006,0 -78.1476438,40.7225059,0 -78.1470686,40.7227149,0 -78.1465164,40.7229229,0 -78.14598100000001,40.7231379,0 -78.1451938,40.7234749,0 -78.1446057,40.723743,0 -78.1438982,40.7240848,0 -78.1431827,40.7244531,0 -78.142335,40.7249157,0 -78.1395816,40.7264125,0 -78.1388322,40.726829,0 -78.138113,40.727247,0 -78.1370215,40.7279136,0 -78.1361223,40.7284852,0 -78.13460860000001,40.7294529,0 -78.13190640000001,40.7311756,0 -78.12852340000001,40.7333274,0 -78.12595779999999,40.7349683,0 -78.12469419999999,40.7357713,0 -78.1234608,40.7365416,0 -78.1223214,40.7372347,0 -78.11966339999999,40.7388056,0 -78.11795100000001,40.7398122,0 -78.11581030000001,40.7410827,0 -78.1120543,40.7432849,0 -78.1099605,40.744532,0 -78.10937130000001,40.7449141,0 -78.1087301,40.7453521,0 -78.1079445,40.7459173,0 -78.10700110000001,40.7466525,0 -78.1063398,40.7472224,0 -78.1054252,40.7480783,0 -78.1045264,40.7490272,0 -78.1039559,40.7496815,0 -78.1032866,40.7505181,0 -78.10212180000001,40.7519775,0 -78.09969169999999,40.754999,0 -78.0977984,40.7573689,0 -78.09688079999999,40.7585051,0 -78.096468,40.7589823,0 -78.09610619999999,40.759383,0 -78.0957126,40.7597983,0 -78.09522819999999,40.760269,0 -78.0947223,40.7607365,0 -78.0943261,40.7610845,0 -78.0938457,40.7614828,0 -78.0934199,40.7618248,0 -78.0929288,40.7622012,0 -78.0877335,40.7659303,0 -78.0864444,40.7668573,0 -78.0860247,40.7671827,0 -78.0856589,40.7674835,0 -78.0852429,40.7678355,0 -78.0848621,40.7681857,0 -78.08447750000001,40.7685623,0 -78.08410910000001,40.7689419,0 -78.0837283,40.7693612,0 -78.0833299,40.7698347,0 -78.0829816,40.7702607,0 -78.0820044,40.7714524,0 -78.0817526,40.7717588,0 -78.0815233,40.7720226,0 -78.0812856,40.7722888,0 -78.0810721,40.7725113,0 -78.0808701,40.7727061,0 -78.0805144,40.773022,0 -78.08016619999999,40.7733138,0 -78.07986200000001,40.7735519,0 -78.0794174,40.7738822,0 -78.07820220000001,40.7747717,0 -78.0760243,40.7763623,0 -78.0748353,40.7772375,0 -78.07040240000001,40.7804739,0 -78.0700356,40.7807413,0 -78.0696858,40.7810178,0 -78.0694812,40.7811944,0 -78.069226,40.7814299,0 -78.06898940000001,40.781659,0 -78.0687291,40.7819393,0 -78.0685381,40.7821543,0 -78.068293,40.7824614,0 -78.0680936,40.7827481,0 -78.0678401,40.7831359,0 -78.0676744,40.7834315,0 -78.0675037,40.7837655,0 -78.0673635,40.7840842,0 -78.067235,40.7844271,0 -78.0671268,40.7847688,0 -78.0670423,40.7850952,0 -78.066973,40.7854381,0 -78.066928,40.785747,0 -78.06688800000001,40.7862399,0 -78.06688440000001,40.7865729,0 -78.0668975,40.7869016,0 -78.0669298,40.7872774,0 -78.0669889,40.7877138,0 -78.06715629999999,40.788799,0 -78.0673257,40.7899958,0 -78.0673802,40.7905178,0 -78.0674109,40.7908911,0 -78.06743419999999,40.7913671,0 -78.0674375,40.791893,0 -78.0674223,40.792552,0 -78.06739020000001,40.7930613,0 -78.0673192,40.7937715,0 -78.0672246,40.7944215,0 -78.067086,40.7951777,0 -78.0669254,40.7958392,0 -78.0667581,40.7964342,0 -78.0666195,40.7968897,0 -78.0664623,40.7973401,0 -78.0661784,40.7980848,0 -78.0657436,40.7990719,0 -78.06552259999999,40.7995715,0 -78.0653994,40.7998495,0 -78.06466570000001,40.8015047,0 -78.0636911,40.8036751,0 -78.06346600000001,40.8041853,0 -78.0631028,40.8049894,0 -78.0629709,40.8052581,0 -78.06286609999999,40.8054461,0 -78.0627495,40.8056393,0 -78.0625737,40.8058977,0 -78.0623844,40.8061447,0 -78.06225259999999,40.8063046,0 -78.062162,40.8064033,0 -78.0619129,40.8066692,0 -78.06164080000001,40.8069302,0 -78.0613822,40.8071566,0 -78.0611607,40.8073357,0 -78.06095120000001,40.8074905,0 -78.0606437,40.8076861,0 -78.0603402,40.8078701,0 -78.0600343,40.8080416,0 -78.0597588,40.8081861,0 -78.0592146,40.8084458,0 -78.05895940000001,40.8085443,0 -78.0586467,40.8086556,0 -78.0582782,40.8087733,0 -78.05773569999999,40.8089153,0 -78.0571458,40.8090586,0 -78.056539,40.8092019,0 -78.05432999999999,40.8097225,0 -78.0520326,40.8102585,0 -78.0514622,40.810392,0 -78.0499828,40.8107395,0 -78.048416,40.811108,0 -78.0477916,40.8112206,0 -78.04738,40.8113152,0 -78.0470521,40.8113843,0 -78.046905,40.8114111,0 -78.0465839,40.811461,0 -78.0460684,40.8115288,0 -78.04572020000001,40.8115544,0 -78.04541260000001,40.8115634,0 -78.04507460000001,40.8115608,0 -78.0447298,40.8115455,0 -78.044527,40.8115288,0 -78.0442346,40.8114956,0 -78.04390669999999,40.8114482,0 -78.0435416,40.8113856,0 -78.0432306,40.8113165,0 -78.0430345,40.8112733,0 -78.04271,40.8112039,0 -78.0420154,40.8110351,0 -78.04122599999999,40.8108329,0 -78.0402316,40.8105754,0 -78.03942259999999,40.8103711,0 -78.0388547,40.8102381,0 -78.0385556,40.8101792,0 -78.0382568,40.8101342,0 -78.03766570000001,40.8100577,0 -78.03708140000001,40.8100216,0 -78.0366169,40.8100117,0 -78.0361927,40.8100193,0 -78.0357989,40.8100411,0 -78.03545920000001,40.8100705,0 -78.03515489999999,40.810105,0 -78.0348676,40.8101434,0 -78.0345617,40.8101984,0 -78.0341476,40.8102854,0 -78.0337741,40.8103801,0 -78.03346980000001,40.8104671,0 -78.0330862,40.8105899,0 -78.03274469999999,40.8107178,0 -78.0324219,40.8108508,0 -78.03204839999999,40.8110223,0 -78.0317543,40.8111719,0 -78.0314535,40.8113421,0 -78.03124219999999,40.81147,0 -78.03077740000001,40.811777,0 -78.0302489,40.8121422,0 -78.0282326,40.8135789,0 -78.0277354,40.8139172,0 -78.0272932,40.8142067,0 -78.0267319,40.8145609,0 -78.0260693,40.8149472,0 -78.025487,40.8152692,0 -78.02491809999999,40.8155695,0 -78.0243851,40.8158372,0 -78.02370620000001,40.8161592,0 -78.0222243,40.8168502,0 -78.0167601,40.8194063,0 -78.0162569,40.8196379,0 -78.01581229999999,40.8198362,0 -78.015165,40.8201061,0 -78.014695,40.8202876,0 -78.0140004,40.8205472,0 -78.0135837,40.8206923,0 -78.0131344,40.8208407,0 -78.0126013,40.8210161,0 -78.0121137,40.821159,0 -78.0115974,40.8213055,0 -78.0109066,40.821481,0 -78.0084255,40.8221231,0 -78.0077467,40.8223094,0 -78.0070487,40.8225066,0 -78.0064536,40.8226893,0 -78.0057676,40.8229009,0 -78.00413260000001,40.8234345,0 -77.9998779,40.8248182,0 -77.9992718,40.825024,0 -77.9984554,40.8253207,0 -77.997781,40.8255854,0 -77.99713029999999,40.825863,0 -77.9964188,40.8261725,0 -77.9924292,40.8279749,0 -77.99169500000001,40.8282993,0 -77.9910781,40.8285602,0 -77.9905339,40.8287776,0 -77.9899727,40.8289874,0 -77.9893288,40.829215,0 -77.9885783,40.829458,0 -77.98685070000001,40.8300104,0 -77.984599,40.8307302,0 -77.98382460000001,40.8309889,0 -77.98314809999999,40.8312366,0 -77.982497,40.8314922,0 -77.98163839999999,40.8318452,0 -77.98036399999999,40.8323823,0 -77.97924,40.8328644,0 -77.978677,40.8331,0 -77.9783187,40.8332368,0 -77.9778438,40.8333992,0 -77.9773469,40.8335514,0 -77.9769328,40.8336563,0 -77.9764917,40.8337522,0 -77.9761807,40.8338085,0 -77.97575980000001,40.8338775,0 -77.97530519999999,40.8339338,0 -77.9747271,40.8339862,0 -77.9742741,40.8340054,0 -77.9737823,40.8340118,0 -77.9734071,40.8340041,0 -77.97298790000001,40.8339811,0 -77.9725096,40.8339389,0 -77.9720516,40.8338865,0 -77.9716071,40.8338149,0 -77.97115239999999,40.8337266,0 -77.97063009999999,40.833609,0 -77.97012479999999,40.8334875,0 -77.9683737,40.8330578,0 -77.96428899999999,40.8320763,0 -77.9619031,40.8315117,0 -77.9615481,40.8314184,0 -77.9612152,40.8313224,0 -77.96087540000001,40.8312112,0 -77.9605712,40.8311012,0 -77.9602197,40.830958,0 -77.9599425,40.8308301,0 -77.9596399,40.8306766,0 -77.9593678,40.830527,0 -77.9591092,40.8303735,0 -77.9589132,40.8302495,0 -77.9586698,40.830082,0 -77.9584234,40.8298816,0 -77.9576995,40.829243,0 -77.9574248,40.828941,0 -77.95712640000001,40.8285725,0 -77.9567873,40.828122,0 -77.9561326,40.8272446,0 -77.955558,40.826491,0 -77.9553451,40.8262327,0 -77.95509,40.8259424,0 -77.95485789999999,40.8257116,0 -77.9546163,40.8255011,0 -77.9543918,40.8253226,0 -77.9541904,40.8251789,0 -77.9539699,40.8250381,0 -77.9537186,40.8248901,0 -77.9535114,40.8247798,0 -77.9531758,40.8246186,0 -77.9528765,40.8244967,0 -77.95254850000001,40.8243835,0 -77.9522858,40.8243008,0 -77.9520421,40.824234,0 -77.9518216,40.8241832,0 -77.95153190000001,40.8241251,0 -77.95109840000001,40.8240555,0 -77.9495697,40.8238436,0 -77.94918029999999,40.8237782,0 -77.94886959999999,40.8237216,0 -77.9485857,40.8236607,0 -77.9482289,40.8235721,0 -77.94787789999999,40.8234705,0 -77.9474694,40.8233297,0 -77.9472315,40.8232368,0 -77.9469783,40.8231338,0 -77.9468191,40.8230627,0 -77.94671409999999,40.8230143,0 -77.94637090000001,40.8228378,0 -77.9460943,40.8226818,0 -77.9458298,40.8225278,0 -77.945526,40.8223246,0 -77.9451909,40.8220783,0 -77.94489799999999,40.8218484,0 -77.94463620000001,40.8216226,0 -77.9444457,40.8214333,0 -77.9442337,40.8212142,0 -77.9439118,40.8208386,0 -77.9435098,40.8203961,0 -77.94328350000001,40.8201387,0 -77.9430955,40.8199341,0 -77.9430467,40.8198815,0 -77.942942,40.8197686,0 -77.942779,40.8196147,0 -77.9426179,40.8194638,0 -77.9424088,40.8192954,0 -77.9422036,40.819143,0 -77.9419561,40.8189789,0 -77.9417432,40.8188454,0 -77.9414651,40.8186944,0 -77.9411812,40.8185551,0 -77.94083209999999,40.818407,0 -77.9405118,40.8182938,0 -77.940201,40.8181922,0 -77.93982509999999,40.8180862,0 -77.9386299,40.8177671,0 -77.93664099999999,40.8172629,0 -77.9319782,40.8160827,0 -77.93094379999999,40.8158338,0 -77.93060850000001,40.8157549,0 -77.9303388,40.8156966,0 -77.9300217,40.8156332,0 -77.92963880000001,40.8155732,0 -77.9291585,40.815508,0 -77.9286668,40.8154617,0 -77.9282772,40.8154394,0 -77.9277357,40.8154223,0 -77.92430779999999,40.8154086,0 -77.9229213,40.8154051,0 -77.9213716,40.8153948,0 -77.9178939,40.8153863,0 -77.9168631,40.8153811,0 -77.91638279999999,40.8153914,0 -77.91592350000001,40.8154106,0 -77.9153519,40.8154446,0 -77.9147493,40.8154926,0 -77.91430250000001,40.8155354,0 -77.9134579,40.8156417,0 -77.91310319999999,40.815694,0 -77.9124023,40.8158077,0 -77.911815,40.815919,0 -77.91125099999999,40.816042,0 -77.91039600000001,40.816243,0 -77.90803390000001,40.816821,0 -77.90664150000001,40.8171556,0 -77.9013163,40.8184565,0 -77.90080930000001,40.8185801,0 -77.89859,40.819121,0 -77.89806299999999,40.819252,0 -77.897621,40.819353,0 -77.8941526,40.8201932,0 -77.8938801,40.8202535,0 -77.8935831,40.8203129,0 -77.893288,40.820367,0 -77.893004,40.820415,0 -77.89250800000001,40.820477,0 -77.892027,40.820525,0 -77.89142,40.820562,0 -77.890745,40.820575,0 -77.890168,40.820567,0 -77.88962600000001,40.820535,0 -77.889044,40.820482,0 -77.888396,40.820395,0 -77.88804500000001,40.820341,0 -77.887421,40.820217,0 -77.886396,40.820026,0 -77.88556199999999,40.819867,0 -77.8851446,40.8198013,0 -77.884389,40.819712,0 -77.8839871,40.8196811,0 -77.883312,40.819653,0 -77.88308499999999,40.819649,0 -77.882991,40.819648,0 -77.882313,40.819661,0 -77.8819518,40.8196795,0 -77.881609,40.819705,0 -77.8811779,40.8197533,0 -77.8810081,40.8197722,0 -77.8807312,40.8198104,0 -77.8804583,40.8198506,0 -77.88021999999999,40.819888,0 -77.8799195,40.8199505,0 -77.87933289999999,40.8200867,0 -77.8758447,40.8209016,0 -77.8750186,40.8210924,0 -77.872508,40.821679,0 -77.8707002,40.8221063,0 -77.8700243,40.8222575,0 -77.8689687,40.8225013,0 -77.868442,40.82262,0 -77.8682903,40.8226556,0 -77.8679903,40.8227263,0 -77.86765819999999,40.822805,0 -77.8673244,40.8228841,0 -77.867029,40.822952,0 -77.8639366,40.823675,0 -77.86361599999999,40.82375,0 -77.8587722,40.8248909,0 -77.8580042,40.8250989,0 -77.8572121,40.8252706,0 -77.85634570000001,40.8254228,0 -77.8556054,40.8255304,0 -77.8548759,40.8256156,0 -77.8542482,40.8256745,0 -77.85352399999999,40.8257171,0 -77.85285349999999,40.8257455,0 -77.8521641,40.8257537,0 -77.8514909,40.8257476,0 -77.84839890000001,40.8256711,0 -77.847785,40.8256537,0 -77.8471983,40.8256496,0 -77.8467952,40.8256602,0 -77.8464062,40.8256805,0 -77.8460335,40.8257212,0 -77.8456077,40.8257851,0 -77.8452832,40.825849,0 -77.8449828,40.8259191,0 -77.8447031,40.8259941,0 -77.8444296,40.8260784,0 -77.8441794,40.8261662,0 -77.84383750000001,40.8262961,0 -77.84357799999999,40.8264097,0 -77.84333119999999,40.8265279,0 -77.8430623,40.8266685,0 -77.84283430000001,40.8268009,0 -77.8426063,40.826943,0 -77.84241590000001,40.8270724,0 -77.84218989999999,40.8272388,0 -77.841982,40.8274057,0 -77.8417903,40.8275747,0 -77.8415241,40.8278285,0 -77.84129540000001,40.828077,0 -77.84105529999999,40.8283469,0 -77.840816,40.8286214,0 -77.84040469999999,40.8290948,0 -77.8398517,40.8297255,0 -77.8392918,40.8303653,0 -77.8387252,40.8309852,0 -77.8378776,40.831953,0 -77.8375248,40.8323716,0 -77.8368875,40.8331111,0 -77.8361378,40.8339696,0 -77.8357221,40.8344464,0 -77.83502660000001,40.8352448,0 -77.8340824,40.8363306,0 -77.8331075,40.8374372,0 -77.8323338,40.8383275,0 -77.8317296,40.8390449,0 -77.8315636,40.8392253,0 -77.8313095,40.839502,0 -77.8309464,40.8399026,0 -77.8308555,40.8400054,0 -77.8304866,40.8404003,0 -77.8300674,40.8407861,0 -77.8296125,40.841164,0 -77.8291662,40.8414863,0 -77.8286907,40.8417953,0 -77.8281807,40.8420836,0 -77.8275677,40.8423758,0 -77.82697039999999,40.8426224,0 -77.826457,40.8428122,0 -77.8258885,40.8429888,0 -77.825262,40.8431394,0 -77.8247272,40.8432431,0 -77.82433690000001,40.8433106,0 -77.8238806,40.8433835,0 -77.823544,40.8434251,0 -77.8231986,40.8434501,0 -77.8227851,40.8434701,0 -77.8213976,40.8435334,0 -77.8204951,40.8435821,0 -77.81997819999999,40.8436289,0 -77.8193862,40.843716,0 -77.8187805,40.8438396,0 -77.8180612,40.8440123,0 -77.8177688,40.8440925,0 -77.81724939999999,40.8442597,0 -77.8168465,40.8444065,0 -77.8164915,40.84455,0 -77.81590540000001,40.8447873,0 -77.8149095,40.8452003,0 -77.81334750000001,40.8458222,0 -77.8112757,40.8466664,0 -77.8106044,40.846937,0 -77.81001569999999,40.8471884,0 -77.8091747,40.8475753,0 -77.8083101,40.8479961,0 -77.8077615,40.8482828,0 -77.80729359999999,40.8485418,0 -77.8069371,40.8487465,0 -77.80636920000001,40.8490904,0 -77.8055895,40.849568,0 -77.8050207,40.8499208,0 -77.8047048,40.8501224,0 -77.8023835,40.8515537,0 -77.8011477,40.8523237,0 -77.798528,40.853935,0 -77.79797619999999,40.8542773,0 -77.7973932,40.8546389,0 -77.796504,40.8551984,0 -77.7957778,40.8556996,0 -77.79509779999999,40.8561773,0 -77.79450559999999,40.8566512,0 -77.79382750000001,40.8572094,0 -77.7933211,40.8576444,0 -77.7927718,40.8581767,0 -77.7924632,40.8584793,0 -77.7921588,40.8587911,0 -77.7917781,40.859183,0 -77.7907977,40.8601631,0 -77.78974049999999,40.8613118,0 -77.789494,40.8615606,0 -77.7885445,40.8625411,0 -77.7878966,40.8632075,0 -77.78726159999999,40.8638764,0 -77.78664190000001,40.8645268,0 -77.78591249999999,40.8652861,0 -77.7850753,40.866158,0 -77.784622,40.8666267,0 -77.7835389,40.8677654,0 -77.7820028,40.8693658,0 -77.7815712,40.8698088,0 -77.7810415,40.8703524,0 -77.7803978,40.8709819,0 -77.7799222,40.8714135,0 -77.7794178,40.8718474,0 -77.7791308,40.8720878,0 -77.7782598,40.8727551,0 -77.777981,40.872966,0 -77.7772343,40.8734852,0 -77.776644,40.873874,0 -77.7760756,40.8742159,0 -77.7753975,40.8746124,0 -77.7749357,40.8748653,0 -77.7744481,40.8751223,0 -77.77382040000001,40.8754324,0 -77.7733748,40.8756476,0 -77.77240980000001,40.876093,0 -77.7718407,40.8763557,0 -77.76524740000001,40.8794315,0 -77.7641876,40.8798588,0 -77.7634517,40.8801172,0 -77.76270359999999,40.8803355,0 -77.7616908,40.8805765,0 -77.76045329999999,40.8808346,0 -77.7597267,40.8809635,0 -77.75934770000001,40.8810115,0 -77.7584803,40.8811042,0 -77.7574589,40.881195,0 -77.7569405,40.8812217,0 -77.7561972,40.8812599,0 -77.7549441,40.8813767,0 -77.75367730000001,40.8815359,0 -77.7521538,40.8818035,0 -77.75067420000001,40.8821118,0 -77.7470275,40.8828704,0 -77.7454597,40.8831931,0 -77.74445559999999,40.8833935,0 -77.74397310000001,40.8834948,0 -77.7425408,40.8838071,0 -77.7415645,40.884022,0 -77.74133380000001,40.8840748,0 -77.740556,40.8842532,0 -77.7399712,40.8844114,0 -77.73960649999999,40.884529,0 -77.7389574,40.884748,0 -77.73835649999999,40.8849833,0 -77.7378738,40.8852022,0 -77.73736409999999,40.8854537,0 -77.7368974,40.8857011,0 -77.73646290000001,40.8859687,0 -77.73613570000001,40.8861796,0 -77.7358138,40.8864027,0 -77.7354598,40.886654,0 -77.7351862,40.8868772,0 -77.7348482,40.887157,0 -77.73451559999999,40.8874896,0 -77.73425279999999,40.8877735,0 -77.7339899,40.8881182,0 -77.7338075,40.8883858,0 -77.73361439999999,40.8886981,0 -77.7334535,40.8890104,0 -77.7333301,40.8893551,0 -77.73326040000001,40.8896268,0 -77.7332013,40.8898741,0 -77.73316920000001,40.8901317,0 -77.7331611,40.8904277,0 -77.7331638,40.8906934,0 -77.73318260000001,40.8909103,0 -77.73322279999999,40.8911232,0 -77.73328720000001,40.8913624,0 -77.73339180000001,40.8916463,0 -77.7334883,40.8918673,0 -77.7336573,40.8921897,0 -77.7338424,40.8924796,0 -77.734065,40.8927919,0 -77.7345478,40.8934367,0 -77.73481870000001,40.8938259,0 -77.7350601,40.8941787,0 -77.7354168,40.8946775,0 -77.73556170000001,40.8948904,0 -77.7357586,40.895227,0 -77.7358972,40.8954612,0 -77.7361113,40.8958345,0 -77.736223,40.8960325,0 -77.73646840000001,40.8965213,0 -77.7365645,40.8967323,0 -77.73667210000001,40.8969504,0 -77.7368223,40.8973031,0 -77.7370154,40.8978141,0 -77.73721930000001,40.8984222,0 -77.73758410000001,40.8995495,0 -77.73775569999999,40.9000847,0 -77.7390003,40.9035798,0 -77.73931140000001,40.9044961,0 -77.7401483,40.9068152,0 -77.7403199,40.9073423,0 -77.74048089999999,40.9078855,0 -77.7406096,40.9084207,0 -77.7407491,40.9091342,0 -77.7408349,40.909718,0 -77.7409334,40.9102241,0 -77.7409816,40.9106625,0 -77.7411828,40.9127214,0 -77.74122300000001,40.9131331,0 -77.7413435,40.9142477,0 -77.7414316,40.9150529,0 -77.741491,40.915581,0 -77.7415713,40.9164495,0 -77.7416904,40.9177558,0 -77.7417674,40.9184193,0 -77.7418242,40.9190358,0 -77.7418536,40.9196591,0 -77.7418615,40.9200498,0 -77.74184990000001,40.9205581,0 -77.7418261,40.9209321,0 -77.74176370000001,40.9215623,0 -77.7417032,40.9219751,0 -77.74162080000001,40.922417,0 -77.74151259999999,40.9228838,0 -77.74138979999999,40.9233519,0 -77.74125600000001,40.9237702,0 -77.7410708,40.9242869,0 -77.7408288,40.9248908,0 -77.7406052,40.9253963,0 -77.740332,40.9259213,0 -77.7399364,40.926615,0 -77.7397493,40.9269129,0 -77.73955460000001,40.9272058,0 -77.7352789,40.933355,0 -77.7345337,40.9344266,0 -77.73432320000001,40.9347156,0 -77.7341026,40.9350058,0 -77.733878,40.9352854,0 -77.7336399,40.9355666,0 -77.7333998,40.935841,0 -77.7331451,40.9361167,0 -77.7328923,40.9363817,0 -77.7326261,40.9366473,0 -77.7323566,40.9369058,0 -77.731962,40.9372613,0 -77.7306387,40.9384534,0 
				</coordinates>
			</LineString>
			<LineString>
				<coordinates>
					-77.1334873,42.0015819,0 -77.1323641,42.0026551,0 -77.13159810000001,42.0034617,0 -77.13103289999999,42.0041648,0 -77.130483,42.0049865,0 -77.1300779,42.0057465,0 -77.1297151,42.0065654,0 -77.1294339,42.0073653,0 -77.1292246,42.0082556,0 -77.12913930000001,42.0087697,0 -77.129082,42.0092913,0 -77.1290582,42.0096991,0 -77.1290608,42.0101258,0 -77.1290838,42.0106398,0 -77.1291445,42.0111539,0 -77.1292443,42.0117236,0 -77.12930900000001,42.0120183,0 -77.12942390000001,42.0124409,0 -77.1295662,42.012871,0 -77.129751,42.013367,0 -77.1300008,42.0139261,0 -77.13023130000001,42.0143718,0 -77.1304822,42.0148045,0 -77.13073079999999,42.0151898,0 -77.1309852,42.0155517,0 -77.1312358,42.0158942,0 -77.1316918,42.0164275,0 -77.1321409,42.0169055,0 -77.1327333,42.0175009,0 -77.13413060000001,42.0188676,0 -77.1362288,42.0209335,0 -77.1376084,42.0222878,0 -77.1385942,42.0232657,0 -77.13897969999999,42.0236663,0 -77.13934329999999,42.0240874,0 -77.1397145,42.0245768,0 -77.1401436,42.0252761,0 -77.1403456,42.0256616,0 -77.1405101,42.0260275,0 -77.14066149999999,42.0264008,0 -77.1407639,42.0267215,0 -77.1408517,42.0270244,0 -77.1409094,42.0272747,0 -77.140987,42.0276847,0 -77.1410401,42.0280893,0 -77.14105000000001,42.0283702,0 -77.14102149999999,42.0291343,0 -77.14093149999999,42.0301055,0 -77.1407684,42.0313025,0 -77.1405798,42.032597,0 -77.1402484,42.0348921,0 -77.1398993,42.0372678,0 -77.13962100000001,42.0392469,0 -77.139335,42.0412066,0 -77.1392012,42.0420985,0 -77.1390904,42.0428926,0 -77.13898039999999,42.0437235,0 -77.13894620000001,42.0441002,0 -77.13892730000001,42.0445472,0 -77.13892180000001,42.0449179,0 -77.13892869999999,42.045217,0 -77.1389516,42.0456457,0 -77.1390167,42.046252,0 -77.1390547,42.0465106,0 -77.1391536,42.0470266,0 -77.1392982,42.0476284,0 -77.13937420000001,42.0479001,0 -77.13952879999999,42.0483728,0 -77.1396099,42.0485896,0 -77.1398846,42.0492707,0 -77.1400956,42.049771,0 -77.1406607,42.0510549,0 -77.14127740000001,42.0524806,0 -77.1416076,42.0532596,0 -77.1426975,42.0557717,0 -77.1438136,42.0583382,0 -77.1446469,42.0602907,0 -77.1454404,42.0621354,0 -77.1457722,42.0629567,0 -77.14594099999999,42.0634371,0 -77.1461922,42.0642856,0 -77.1463009,42.0646603,0 -77.14641399999999,42.0651456,0 -77.14653389999999,42.0656922,0 -77.14663950000001,42.0662376,0 -77.1469007,42.0676309,0 -77.1473044,42.0697796,0 -77.1476823,42.0717591,0 -77.14832850000001,42.0751997,0 -77.1486072,42.0766469,0 -77.14869400000001,42.0769745,0 -77.1488105,42.077386,0 -77.1489639,42.0777886,0 -77.14910070000001,42.0780997,0 -77.14929789999999,42.0784838,0 -77.1494466,42.0787381,0 -77.1496111,42.0789881,0 -77.149934,42.0794296,0 -77.15029560000001,42.0798667,0 -77.1508458,42.0804567,0 -77.15213900000001,42.0817744,0 -77.1525314,42.0821818,0 -77.15307799999999,42.082731,0 -77.15365199999999,42.083323,0 -77.155441,42.085155,0 -77.155942,42.085716,0 -77.15638199999999,42.086265,0 -77.156707,42.086697,0 -77.15706,42.087226,0 -77.157302,42.087623,0 -77.157712,42.088417,0 -77.15796400000001,42.089009,0 -77.158171,42.089576,0 -77.158378,42.090195,0 -77.158501,42.09069,0 -77.158592,42.091092,0 -77.158658,42.091521,0 -77.15871799999999,42.092023,0 -77.158753,42.092486,0 -77.158756,42.093181,0 -77.158708,42.094039,0 -77.15858900000001,42.094797,0 -77.158383,42.095691,0 -77.15831,42.095945,0 -77.158081,42.096614,0 -77.156043,42.102135,0 -77.1548094,42.1055012,0 -77.1545655,42.1061625,0 -77.154348,42.106751,0 -77.153946,42.107864,0 -77.15302939999999,42.1103682,0 -77.1528199,42.1109448,0 -77.152134,42.112803,0 -77.152033,42.113078,0 -77.1517934,42.1136822,0 -77.1516034,42.1140682,0 -77.15126890000001,42.1145828,0 -77.1509899,42.1150046,0 -77.1507861,42.1152911,0 -77.14979599999999,42.116394,0 -77.149333,42.116845,0 -77.14873,42.117365,0 -77.14805200000001,42.117897,0 -77.147373,42.118371,0 -77.14635199999999,42.119013,0 -77.141346,42.121938,0 -77.13561199999999,42.125288,0 -77.13384600000001,42.126351,0 -77.133245,42.126743,0 -77.132542,42.127229,0 -77.131899,42.127708,0 -77.131376,42.128114,0 -77.13129000000001,42.12818,0 -77.13072,42.128646,0 -77.13017600000001,42.129127,0 -77.129306,42.129938,0 -77.128979,42.130264,0 -77.12839200000001,42.130872,0 -77.12808800000001,42.131211,0 -77.12754099999999,42.131843,0 -77.127173,42.13229,0 -77.125257,42.13462,0 -77.12429,42.13578,0 -77.12388900000001,42.136239,0 -77.12352799999999,42.136605,0 -77.123025,42.137095,0 -77.12260999999999,42.137473,0 -77.12214710000001,42.1379019,0 -77.1212787,42.1385651,0 -77.12080280000001,42.1388966,0 -77.12053179999999,42.1390854,0 -77.1198742,42.1394979,0 -77.11939,42.139762,0 -77.11885599999999,42.140057,0 -77.11824300000001,42.140371,0 -77.117627,42.140675,0 -77.1170027,42.1409824,0 -77.11648270000001,42.1412174,0 -77.1152958,42.1417652,0 -77.114767,42.1420426,0 -77.1141763,42.1423915,0 -77.1136398,42.1427705,0 -77.11316619999999,42.1431599,0 -77.11271790000001,42.1435286,0 -77.11109279999999,42.1448688,0 -77.110286,42.1455234,0 -77.1094454,42.146131,0 -77.1076671,42.1473148,0 -77.10533,42.1488844,0 -77.1025104,42.1507451,0 
				</coordinates>
			</LineString>
		</MultiGeometry>
		<atom:link rel="app" href="https://www.google.com/earth/about/versions/#earth-pro" title="Google Earth Pro 7.3.6.10201"></atom:link>
	</Placemark>
</Document>
</kml>
