<?xml version="1.0" encoding="UTF-8"?>
<kml xmlns="http://www.opengis.net/kml/2.2" xmlns:gx="http://www.google.com/kml/ext/2.2" xmlns:kml="http://www.opengis.net/kml/2.2" xmlns:atom="http://www.w3.org/2005/Atom">
<Document>
	<name>US.14A.SD.kml</name>
	<Placemark>
		<name>US.14A.SD</name>
		<LineString>
			<coordinates>
				-103.8213785,44.4777447,0 -103.8188911,44.4774391,0 -103.8175392,44.4772477,0 -103.8159693,44.4770025,0 -103.8156161,44.4769529,0 -103.8147875,44.4767923,0 -103.8146568,44.4767359,0 -103.8146473,44.4767273,0 -103.8145883,44.4766801,0 -103.8145292,44.4766228,0 -103.8144887,44.4765362,0 -103.8144302,44.4763442,0 -103.8144312,44.4762668,0 -103.8144376,44.4758806,0 -103.814441,44.4757469,0 -103.8145752,44.4757533,0 -103.8148796,44.4757685,0 -103.8154564,44.4758325,0 -103.815667,44.4758685,0 -103.816348,44.4759845,0 -103.8165356,44.4760317,0 -103.8170484,44.4761606,0 -103.8176251,44.4763444,0 -103.8182038,44.47653,0 -103.819138,44.476887,0 -103.819641,44.477055,0 -103.820076,44.477169,0 -103.820351,44.47723,0 -103.820541,44.477264,0 -103.8209487,44.4773264,0 -103.8218911,44.4774573,0 -103.82254,44.477547,0 -103.823295,44.477665,0 -103.823677,44.477718,0 -103.823814,44.477737,0 -103.824532,44.477844,0 -103.8250725,44.4779314,0 -103.825508,44.478039,0 -103.826019,44.478195,0 -103.8262894,44.4782898,0 -103.827705,44.478786,0 -103.828628,44.479095,0 -103.829346,44.479305,0 -103.8299902,44.4794337,0 -103.8305683,44.4795521,0 -103.8322547,44.4798845,0 -103.8330108,44.4800498,0 -103.833374,44.480137,0 -103.833809,44.480209,0 -103.834093,44.4802433,0 -103.83419,44.480255,0 -103.8349429,44.4803044,0 -103.835228,44.48032,0 -103.836052,44.480358,0 -103.8368491,44.4803907,0 -103.83754,44.480419,0 -103.837833,44.480434,0 -103.838066,44.480446,0 -103.838188,44.480461,0 -103.838478,44.480488,0 -103.83889,44.480556,0 -103.8395962,44.4807202,0 -103.840324,44.480923,0 -103.840858,44.481075,0 -103.8414374,44.4812343,0 -103.8435223,44.4818132,0 -103.8443638,44.4820361,0 -103.8445329,44.4817877,0 -103.8446886,44.4815425,0 -103.844722,44.48149,0 -103.8448014,44.4813649,0 -103.844887,44.481262,0 -103.845108,44.481083,0 -103.8458557,44.4805945,0 -103.846481,44.480186,0 -103.846718,44.480026,0 -103.847999,44.479195,0 -103.848495,44.478859,0 -103.84861,44.478779,0 -103.848755,44.478653,0 -103.848892,44.478497,0 -103.848946,44.478413,0 -103.849045,44.478241,0 -103.8491024,44.4780718,0 -103.8491514,44.4778934,0 -103.8491717,44.4777249,0 -103.8491561,44.4775499,0 -103.8491108,44.477352,0 -103.8490701,44.4772426,0 -103.8490236,44.4771326,0 -103.8489191,44.4769603,0 -103.8486015,44.4764466,0 -103.8484352,44.4761828,0 -103.848392,44.4760905,0 -103.8483427,44.4759454,0 -103.8483058,44.4757519,0 -103.8482996,44.4755717,0 -103.8482934,44.4754529,0 -103.8483058,44.4751056,0 -103.848351,44.474796,0 -103.848358,44.474571,0 -103.848335,44.474323,0 -103.8483169,44.4742352,0 -103.848297,44.474117,0 -103.848267,44.474026,0 -103.848251,44.473965,0 -103.848137,44.473637,0 -103.848084,44.473457,0 -103.848045,44.473244,0 -103.848045,44.473114,0 -103.848068,44.472935,0 -103.848091,44.47282,0 -103.848404,44.472015,0 -103.848564,44.471622,0 -103.848862,44.470921,0 -103.849007,44.470524,0 -103.849174,44.470089,0 -103.849335,44.469543,0 -103.849449,44.46912,0 -103.849535,44.468775,0 -103.849732,44.467983,0 -103.8497712,44.467849,0 -103.849838,44.467621,0 -103.849907,44.467457,0 -103.849983,44.467323,0 -103.850121,44.467125,0 -103.850235,44.466991,0 -103.850357,44.466862,0 -103.850502,44.466732,0 -103.850655,44.466614,0 -103.850822,44.466499,0 -103.851006,44.466393,0 -103.851196,44.466297,0 -103.8517,44.466095,0 -103.8517707,44.4660736,0 -103.852089,44.465977,0 -103.852286,44.465922,0 -103.8523736,44.4658989,0 -103.8529308,44.4657435,0 -103.8531441,44.4656742,0 -103.8533129,44.4656053,0 -103.8534817,44.4655243,0 -103.8536762,44.4654024,0 -103.8539123,44.4652311,0 -103.8540741,44.4650837,0 -103.8542329,44.4649192,0 -103.8543669,44.4647242,0 -103.8544645,44.4645477,0 -103.8545301,44.4643522,0 -103.8545865,44.4640825,0 -103.854597,44.4637817,0 -103.8545714,44.4629693,0 -103.8545748,44.4628229,0 -103.8545803,44.4625707,0 -103.8546201,44.4622753,0 -103.854682,44.4620353,0 -103.8547961,44.4617403,0 -103.8549102,44.461521,0 -103.8550374,44.461319,0 -103.8552037,44.4611043,0 -103.8553849,44.4609125,0 -103.8556158,44.4606945,0 -103.8559446,44.4604471,0 -103.8562063,44.4602787,0 -103.8572856,44.4596112,0 -103.857933,44.45916,0 -103.858055,44.459061,0 -103.858284,44.458858,0 -103.85862,44.458542,0 -103.859421,44.457649,0 -103.859856,44.457188,0 -103.860123,44.45697,0 -103.860374,44.456802,0 -103.86068,44.456627,0 -103.860931,44.456509,0 -103.86113,44.456429,0 -103.861382,44.456341,0 -103.861763,44.45623,0 -103.861954,44.456184,0 -103.86235,44.4561,0 -103.8631843,44.4559618,0 -103.863358,44.455933,0 -103.863945,44.455826,0 -103.864143,44.455784,0 -103.864326,44.45573,0 -103.864502,44.455669,0 -103.864662,44.455593,0 -103.864807,44.455502,0 -103.864937,44.455399,0 -103.865051,44.455284,0 -103.865135,44.455162,0 -103.865204,44.455032,0 -103.865242,44.454899,0 -103.86525,44.454765,0 -103.865234,44.454632,0 -103.865204,44.454498,0 -103.865135,44.454369,0 -103.865059,44.454247,0 -103.86496,44.454132,0 -103.864723,44.453911,0 -103.8631717,44.4525931,0 -103.8628928,44.4523442,0 -103.8628016,44.452237,0 -103.8627372,44.4521413,0 -103.8626943,44.452057,0 -103.8626568,44.4519421,0 -103.8626353,44.4518426,0 -103.8626407,44.4517162,0 -103.8626675,44.4515745,0 -103.8627211,44.4514788,0 -103.862866,44.4512797,0 -103.8630323,44.4511265,0 -103.864067,44.450497,0 -103.864204,44.45039,0 -103.864449,44.450157,0 -103.864555,44.450039,0 -103.864647,44.449909,0 -103.864723,44.449779,0 -103.864784,44.449642,0 -103.864838,44.449505,0 -103.864891,44.449215,0 -103.864899,44.449062,0 -103.864899,44.44891,0 -103.864868,44.448387,0 -103.864838,44.448158,0 -103.86483,44.448006,0 -103.864838,44.447857,0 -103.864868,44.447708,0 -103.864929,44.447567,0 -103.865021,44.447445,0 -103.865135,44.44733,0 -103.86528,44.447231,0 -103.86544,44.447151,0 -103.865631,44.447079,0 -103.865929,44.447033,0 -103.866173,44.447025,0 -103.866371,44.447056,0 -103.866562,44.447102,0 -103.867088,44.447266,0 -103.867249,44.447308,0 -103.867561,44.447372,0 -103.867721,44.447392,0 -103.867889,44.447403,0 -103.868195,44.447395,0 -103.868385,44.44738,0 -103.868561,44.44735,0 -103.868881,44.447269,0 -103.869003,44.447224,0 -103.869164,44.447151,0 -103.869476,44.446953,0 -103.869598,44.446861,0 -103.869743,44.446705,0 -103.86982,44.446606,0 -103.869911,44.446476,0 -103.8702635,44.4458685,0 -103.87058,44.4451562,0 -103.872082,44.4419352,0 -103.872398,44.441154,0 -103.872513,44.440845,0 -103.872574,44.440632,0 -103.872589,44.44054,0 -103.872604,44.440365,0 -103.872582,44.440166,0 -103.872566,44.440048,0 -103.872543,44.439957,0 -103.87249,44.439808,0 -103.872437,44.439678,0 -103.872177,44.43914,0 -103.872101,44.438961,0 -103.872048,44.438786,0 -103.872017,44.438606,0 -103.872025,44.438423,0 -103.87207,44.438248,0 -103.872139,44.43808,0 -103.872253,44.43792,0 -103.872398,44.43779,0 -103.872551,44.437683,0 -103.8727258,44.4375766,0 -103.8728974,44.4375191,0 -103.8731067,44.4374808,0 -103.8733373,44.4374655,0 -103.8735143,44.437477,0 -103.8737397,44.4375114,0 -103.8741098,44.4376149,0 -103.8742868,44.4376838,0 -103.874557,44.437778,0 -103.874718,44.437817,0 -103.874893,44.437836,0 -103.875061,44.437836,0 -103.875221,44.437828,0 -103.875336,44.437817,0 -103.875465,44.43779,0 -103.875565,44.437759,0 -103.875679,44.437717,0 -103.875809,44.437656,0 -103.875923,44.437588,0 -103.875999,44.437531,0 -103.876129,44.437393,0 -103.876198,44.437309,0 -103.876236,44.437248,0 -103.876282,44.437145,0 -103.876312,44.437031,0 -103.87632,44.436943,0 -103.87632,44.436821,0 -103.876289,44.436699,0 -103.876259,44.436619,0 -103.876144,44.436432,0 -103.876007,44.436306,0 -103.875145,44.435612,0 -103.874985,44.435467,0 -103.874866,44.435342,0 -103.874741,44.435158,0 -103.874535,44.434719,0 -103.874493,44.434612,0 -103.87436,44.434272,0 -103.874283,44.434074,0 -103.874206,44.433868,0 -103.874146,44.433617,0 -103.874123,44.433399,0 -103.874123,44.433231,0 -103.874153,44.43306,0 -103.874214,44.432892,0 -103.874306,44.43272,0 -103.87442,44.432564,0 -103.874702,44.432251,0 -103.874992,44.431946,0 -103.87513,44.431812,0 -103.875359,44.431549,0 -103.875519,44.431324,0 -103.875557,44.431236,0 -103.875588,44.431149,0 -103.87561,44.431057,0 -103.875603,44.430874,0 -103.875572,44.430763,0 -103.875542,44.430695,0 -103.875481,44.430599,0 -103.875336,44.430424,0 -103.87526,44.430351,0 -103.875122,44.430256,0 -103.874985,44.43018,0 -103.874725,44.430058,0 -103.874451,44.429939,0 -103.873817,44.429646,0 -103.873749,44.429604,0 -103.873642,44.429527,0 -103.873566,44.429466,0 -103.873497,44.429398,0 -103.873436,44.429321,0 -103.873383,44.429241,0 -103.873329,44.429146,0 -103.873299,44.42907,0 -103.873276,44.428978,0 -103.873276,44.42881,0 -103.873283,44.428715,0 -103.873329,44.428535,0 -103.87339,44.428352,0 -103.873535,44.427982,0 -103.873596,44.427795,0 -103.873634,44.427643,0 -103.873642,44.427582,0 -103.873642,44.427502,0 -103.873619,44.427315,0 -103.8735457,44.4269445,0 -103.873497,44.426773,0 -103.873459,44.426575,0 -103.873436,44.426384,0 -103.873451,44.426189,0 -103.873482,44.425999,0 -103.87355,44.425819,0 -103.873642,44.425644,0 -103.873749,44.425484,0 -103.8738738,44.4253146,0 -103.8740615,44.4251154,0 -103.8743834,44.4248587,0 -103.8748662,44.4245177,0 -103.8753382,44.4241959,0 -103.8756977,44.4240005,0 -103.8760464,44.4238473,0 -103.8762609,44.4237668,0 -103.8764862,44.4237055,0 -103.8767491,44.423648,0 -103.8769851,44.4236059,0 -103.877251,44.423584,0 -103.877487,44.423561,0 -103.877762,44.423553,0 -103.878105,44.423569,0 -103.878441,44.423592,0 -103.87883,44.423595,0 -103.878952,44.423592,0 -103.8791363,44.4235867,0 -103.8793186,44.4235638,0 -103.8795708,44.4235101,0 -103.8798014,44.423445,0 -103.880455,44.423172,0 -103.881294,44.422848,0 -103.881531,44.422718,0 -103.8816,44.422665,0 -103.881676,44.422596,0 -103.881744,44.422524,0 -103.881813,44.422409,0 -103.881851,44.422318,0 -103.881882,44.422169,0 -103.881882,44.42205,0 -103.881851,44.421883,0 -103.881828,44.42181,0 -103.881729,44.421669,0 -103.88166,44.421593,0 -103.881523,44.421463,0 -103.88121,44.4212,0 -103.88105,44.421055,0 -103.880966,44.420971,0 -103.880859,44.420822,0 -103.880821,44.420746,0 -103.880791,44.420666,0 -103.880768,44.420574,0 -103.880753,44.420483,0 -103.880753,44.420395,0 -103.880775,44.420208,0 -103.880882,44.419849,0 -103.880928,44.41967,0 -103.880959,44.419483,0 -103.880958,44.419296,0 -103.880936,44.419106,0 -103.88089,44.418789,0 -103.8808743,44.4184949,0 -103.8809065,44.418265,0 -103.8810245,44.4179125,0 -103.8810835,44.4177056,0 -103.881142,44.417522,0 -103.881165,44.417324,0 -103.88118,44.417133,0 -103.881165,44.416916,0 -103.881134,44.416721,0 -103.880951,44.416111,0 -103.880905,44.415905,0 -103.88089,44.415695,0 -103.88089,44.415489,0 -103.88092,44.415279,0 -103.880974,44.415073,0 -103.88105,44.414886,0 -103.8811586,44.4146173,0 -103.8812177,44.41451,0 -103.8813142,44.4143452,0 -103.881502,44.4141191,0 -103.8817219,44.4139505,0 -103.8819097,44.4138049,0 -103.8821403,44.4136593,0 -103.88265,44.4133757,0 -103.8831488,44.4131267,0 -103.883637,44.4128929,0 -103.8840769,44.4127435,0 -103.8848762,44.4125481,0 -103.88549,44.412369,0 -103.885849,44.412262,0 -103.886208,44.412167,0 -103.886459,44.412113,0 -103.886602,44.412094,0 -103.886719,44.412079,0 -103.88697,44.412064,0 -103.887482,44.412071,0 -103.888496,44.412117,0 -103.889038,44.412163,0 -103.889145,44.412182,0 -103.889351,44.412235,0 -103.88942,44.412258,0 -103.889481,44.412285,0 -103.889732,44.412418,0 -103.89006,44.412647,0 -103.890358,44.412888,0 -103.890686,44.41312,0 -103.890877,44.413242,0 -103.891106,44.413345,0 -103.891266,44.413406,0 -103.8914851,44.413483,0 -103.8918553,44.4135482,0 -103.8920538,44.4135712,0 -103.8921986,44.4135827,0 -103.8924293,44.4135865,0 -103.8926439,44.413552,0 -103.8929121,44.4134907,0 -103.8930677,44.4134256,0 -103.893204,44.413349,0 -103.893311,44.413303,0 -103.893425,44.413246,0 -103.893509,44.413193,0 -103.893631,44.413075,0 -103.893715,44.412945,0 -103.893753,44.412838,0 -103.893791,44.412704,0 -103.893868,44.412388,0 -103.8940118,44.4116246,0 -103.8940601,44.4112337,0 -103.8941888,44.4108697,0 -103.894333,44.410664,0 -103.894425,44.410534,0 -103.894585,44.410358,0 -103.894768,44.41021,0 -103.894974,44.410069,0 -103.895218,44.409943,0 -103.89544,44.409844,0 -103.896739,44.409268,0 -103.897568,44.408899,0 -103.89801,44.408703,0 -103.899185,44.408165,0 -103.899292,44.408115,0 -103.899452,44.408001,0 -103.899529,44.407928,0 -103.899666,44.407745,0 -103.899757,44.407578,0 -103.899795,44.407482,0 -103.899826,44.407379,0 -103.899857,44.407173,0 -103.899864,44.40704,0 -103.899849,44.406891,0 -103.899826,44.40678,0 -103.89978,44.406658,0 -103.899735,44.406555,0 -103.899658,44.406441,0 -103.899521,44.406277,0 -103.899422,44.406181,0 -103.899315,44.406094,0 -103.899147,44.405979,0 -103.898949,44.405861,0 -103.898346,44.405571,0 -103.897766,44.405304,0 -103.897049,44.404964,0 -103.896835,44.404839,0 -103.896637,44.404701,0 -103.896454,44.404541,0 -103.896301,44.404369,0 -103.896187,44.404194,0 -103.896103,44.404015,0 -103.895844,44.403248,0 -103.895722,44.402817,0 -103.895485,44.402023,0 -103.895439,44.401825,0 -103.895416,44.401619,0 -103.895409,44.401417,0 -103.895409,44.401047,0 -103.895416,44.400963,0 -103.895439,44.400829,0 -103.895531,44.400482,0 -103.89566,44.400066,0 -103.895737,44.399872,0 -103.895828,44.399693,0 -103.896042,44.399334,0 -103.896187,44.399128,0 -103.896332,44.398945,0 -103.8966929,44.3985367,0 -103.896774,44.398445,0 -103.896919,44.398304,0 -103.89727,44.39801,0 -103.897476,44.397861,0 -103.8976009,44.3977846,0 -103.897641,44.39776,0 -103.897835,44.39764,0 -103.898125,44.39748,0 -103.89859,44.39727,0 -103.899407,44.396923,0 -103.900307,44.39661,0 -103.900741,44.396469,0 -103.901085,44.39637,0 -103.901314,44.396324,0 -103.901558,44.396305,0 -103.90184,44.396317,0 -103.902054,44.396358,0 -103.902245,44.396431,0 -103.90239,44.396503,0 -103.90258,44.396633,0 -103.902687,44.396748,0 -103.902794,44.396893,0 -103.90287,44.397034,0 -103.902901,44.397156,0 -103.902901,44.397305,0 -103.902878,44.397446,0 -103.902817,44.397621,0 -103.902588,44.398117,0 -103.902527,44.398285,0 -103.902481,44.398457,0 -103.902466,44.398624,0 -103.902473,44.398781,0 -103.902511,44.398949,0 -103.902565,44.399109,0 -103.902649,44.399261,0 -103.902756,44.399406,0 -103.902893,44.399559,0 -103.903053,44.399689,0 -103.903229,44.399803,0 -103.903442,44.399902,0 -103.903648,44.399971,0 -103.90387,44.400028,0 -103.904083,44.400059,0 -103.904312,44.400063,0 -103.904533,44.400051,0 -103.904755,44.400013,0 -103.904938,44.399956,0 -103.905106,44.399876,0 -103.905243,44.399788,0 -103.905441,44.399643,0 -103.905624,44.399475,0 -103.906097,44.398952,0 -103.906319,44.398682,0 -103.906731,44.398159,0 -103.906937,44.397881,0 -103.907143,44.397564,0 -103.90731,44.397266,0 -103.90741,44.397064,0 -103.907448,44.396965,0 -103.907486,44.396828,0 -103.907524,44.396648,0 -103.907547,44.396477,0 -103.907585,44.396286,0 -103.9076306,44.3958185,0 -103.9076835,44.3953857,0 -103.9077322,44.3952404,0 -103.9077857,44.3951114,0 -103.9079152,44.3949732,0 -103.908049,44.3948425,0 -103.9084384,44.3946096,0 -103.9103541,44.3941069,0 -103.9109459,44.393927,0 -103.9110829,44.3938723,0 -103.9113262,44.3937628,0 -103.911384,44.3937226,0 -103.9114119,44.3937039,0 -103.9116329,44.3935307,0 -103.9118275,44.3933064,0 -103.911911,44.393112,0 -103.9119665,44.3929685,0 -103.9119941,44.3928089,0 -103.9119978,44.3926515,0 -103.9119781,44.3924899,0 -103.9119022,44.3922698,0 -103.9117571,44.3920406,0 -103.9115,44.3917599,0 -103.9104902,44.3908113,0 -103.9102746,44.3905035,0 -103.9101586,44.3902913,0 -103.9100108,44.3897506,0 -103.9098955,44.3893105,0 -103.9098391,44.3890261,0 -103.9098552,44.3889648,0 -103.909882,44.3887539,0 -103.9099625,44.3885968,0 -103.9101497,44.3883411,0 -103.9103809,44.3881713,0 -103.9106921,44.3880371,0 -103.9109276,44.3879654,0 -103.9112714,44.3879374,0 -103.9114372,44.3879271,0 -103.9117167,44.3879681,0 -103.9119253,44.3879999,0 -103.9121941,44.3881061,0 -103.9128105,44.3883526,0 -103.9130572,44.3884139,0 -103.9133791,44.3884407,0 -103.9136854,44.3884358,0 -103.9141414,44.3883629,0 -103.9150963,44.3880908,0 -103.9154449,44.3879451,0 -103.9156756,44.3877726,0 -103.915858,44.3875272,0 -103.9159277,44.387324,0 -103.9159433,44.3870798,0 -103.9159111,44.386984,0 -103.9158258,44.3868333,0 -103.915703,44.386673,0 -103.9156483,44.38657,0 -103.9148817,44.3858826,0 -103.912048,44.383492,0 -103.911842,44.383255,0 -103.911735,44.382999,0 -103.911758,44.382587,0 -103.911949,44.382267,0 -103.912987,44.381241,0 -103.9139594,44.3801251,0 -103.9146355,44.3795008,0 -103.9148286,44.3793359,0 -103.9148876,44.3792669,0 -103.9150244,44.3790215,0 -103.9150754,44.3787972,0 -103.915078,44.3785921,0 -103.9150244,44.3783831,0 -103.9149225,44.3782029,0 -103.914901,44.3781809,0 -103.9148836,44.3781636,0 -103.914284,44.377438,0 -103.9140054,44.3768628,0 -103.9138944,44.3765127,0 -103.9137866,44.3761658,0 -103.9136664,44.3759125,0 -103.913594,44.375776,0 -103.9135185,44.3756373,0 -103.9132798,44.3751649,0 -103.9132448,44.375021,0 -103.9132301,44.3748878,0 -103.9132435,44.3747009,0 -103.913277,44.3745916,0 -103.9133703,44.3744217,0 -103.9134433,44.3743375,0 -103.9135962,44.3742062,0 -103.9137665,44.3741123,0 -103.9142453,44.373979,0 -103.9144773,44.3739627,0 -103.9147066,44.3739771,0 -103.9150151,44.3740528,0 -103.9152565,44.3741295,0 -103.9158251,44.3743538,0 -103.9161621,44.3744942,0 -103.9163769,44.3745743,0 -103.9165871,44.3746419,0 -103.9167725,44.3746969,0 -103.9169243,44.3747161,0 -103.9172267,44.3747253,0 -103.9172559,44.3747236,0 -103.9174007,44.3747194,0 -103.9176225,44.3746944,0 -103.9177649,44.3746694,0 -103.9178478,44.3746443,0 -103.9180253,44.3745959,0 -103.9182401,44.3745058,0 -103.9183428,44.3744557,0 -103.9184374,44.374399,0 -103.9185413,44.3743331,0 -103.9186919,44.3742071,0 -103.9188017,44.3740794,0 -103.9189242,44.3739025,0 -103.9189777,44.3737891,0 -103.9190149,44.3736839,0 -103.9190512,44.3735041,0 -103.9190583,44.3734412,0 -103.9190586,44.3731999,0 -103.91906,44.371655,0 -103.919281,44.371082,0 -103.920006,44.370239,0 -103.921829,44.368423,0 -103.922256,44.36808,0 -103.922798,44.367779,0 -103.924492,44.367226,0 -103.925148,44.366894,0 -103.928955,44.364258,0 -103.929535,44.363724,0 -103.929756,44.363434,0 -103.929901,44.363132,0 -103.93,44.36264,0 -103.929993,44.362255,0 -103.929909,44.361877,0 -103.929093,44.359829,0 -103.92897,44.359257,0 -103.929008,44.358849,0 -103.929222,44.358227,0 -103.929703,44.357563,0 -103.9316834,44.3560939,0 -103.9318651,44.3558736,0 -103.9320192,44.3556136,0 -103.9320685,44.355433,0 -103.9321055,44.355281,0 -103.9321147,44.3551246,0 -103.9321116,44.3549858,0 -103.9320623,44.3547875,0 -103.9316957,44.3537234,0 -103.9316556,44.3534877,0 -103.9316495,44.3533555,0 -103.9316778,44.3532015,0 -103.9317116,44.3530434,0 -103.9317137,44.3529809,0 -103.9317002,44.3529173,0 -103.931673,44.3528602,0 -103.9316421,44.3528032,0 -103.9315917,44.3527396,0 -103.9315334,44.3526728,0 -103.931427,44.3526117,0 -103.9313546,44.3525834,0 -103.9312958,44.3525604,0 -103.931175,44.3525303,0 -103.9310339,44.3525098,0 -103.9301924,44.352499,0 -103.9291992,44.3524823,0 -103.9290093,44.352461,0 -103.9287494,44.3524181,0 -103.928436,44.352341,0 -103.92749,44.352047,0 -103.926544,44.351685,0 -103.925781,44.351307,0 -103.924431,44.350521,0 -103.92363,44.349979,0 -103.923401,44.349674,0 -103.923317,44.349319,0 -103.923332,44.349106,0 -103.9238821,44.3475668,0 -103.9239371,44.3473781,0 -103.9239753,44.3471926,0 -103.923988,44.3470501,0 -103.9239796,44.346932,0 -103.9239363,44.346713,0 -103.9238674,44.3464505,0 -103.9237547,44.3460335,0 -103.92366,44.345825,0 -103.923141,44.344852,0 -103.922615,44.344093,0 -103.921684,44.343037,0 -103.921308,44.3427396,0 -103.921249,44.342693,0 -103.918861,44.341164,0 -103.917526,44.340389,0 -103.916588,44.340069,0 -103.915932,44.339687,0 -103.914284,44.338558,0 -103.910584,44.336582,0 -103.909432,44.335491,0 -103.908966,44.335053,0 -103.907478,44.333702,0 -103.90696,44.333393,0 -103.906395,44.333141,0 -103.905678,44.332897,0 -103.904671,44.332653,0 -103.90374,44.332588,0 -103.902504,44.332634,0 -103.901588,44.332638,0 -103.900948,44.332504,0 -103.89991,44.332161,0 -103.898514,44.331566,0 -103.896233,44.33028,0 -103.895973,44.330067,0 -103.895622,44.329609,0 -103.893883,44.326206,0 -103.89312,44.324699,0 -103.892914,44.324123,0 -103.892746,44.323345,0 -103.892235,44.321365,0 -103.8917123,44.3201926,0 -103.8917069,44.3200172,0 -103.8917214,44.3198716,0 -103.8918089,44.319673,0 -103.8919464,44.3194221,0 -103.8919969,44.3192645,0 -103.8920233,44.3191025,0 -103.8919841,44.3189735,0 -103.8919194,44.318858,0 -103.8918448,44.3187699,0 -103.8910649,44.3182553,0 -103.888855,44.316738,0 -103.888588,44.316631,0 -103.8876832,44.3164953,0 -103.886673,44.316101,0 -103.8857163,44.3159202,0 -103.8852365,44.3157805,0 -103.8847487,44.3155536,0 -103.884194,44.315323,0 -103.882347,44.315037,0 -103.882042,44.314911,0 -103.881424,44.314487,0 -103.880089,44.313465,0 -103.878761,44.312366,0 -103.877258,44.310657,0 -103.876724,44.310165,0 -103.876175,44.309769,0 -103.874855,44.309097,0 -103.873657,44.307739,0 -103.8733638,44.3074347,0 -103.8709975,44.3045664,0 -103.87088,44.304424,0 -103.868813,44.302559,0 -103.8683602,44.3021825,0 -103.8680982,44.3019554,0 -103.8678663,44.3017314,0 -103.8677866,44.3016065,0 -103.8676374,44.3013295,0 -103.8675429,44.3010385,0 -103.8675,44.300766,0 -103.867409,44.299122,0 -103.867401,44.298828,0 -103.867371,44.298508,0 -103.867271,44.298302,0 -103.8666766,44.2978069,0 -103.866393,44.2979282,0 -103.8661379,44.298023,0 -103.8657624,44.2980998,0 -103.8654298,44.2981305,0 -103.8649902,44.2981489,0 -103.8623831,44.2981125,0 -103.8618493,44.2980779,0 -103.8614067,44.2980318,0 -103.860983,44.2979704,0 -103.8606665,44.2979051,0 -103.8601354,44.2977727,0 -103.859665,44.297634,0 -103.8586897,44.2973388,0 -103.858223,44.2971718,0 -103.8579118,44.297024,0 -103.8574961,44.2967226,0 -103.8573164,44.2965805,0 -103.8571394,44.2963886,0 -103.8558358,44.2947107,0 -103.8552189,44.2939101,0 -103.854484,44.2928945,0 -103.8534218,44.2913624,0 -103.8531429,44.2909362,0 -103.8528907,44.2906693,0 -103.852542,44.2903909,0 -103.8521799,44.2902124,0 -103.8517776,44.2900626,0 -103.8514343,44.2899858,0 -103.8511124,44.289957,0 -103.8508362,44.2899474,0 -103.8498292,44.29001,0 -103.8493106,44.2900399,0 -103.8488487,44.2900293,0 -103.848251,44.2899611,0 -103.8473678,44.2897731,0 -103.8465058,44.2896053,0 -103.8462268,44.2895715,0 -103.8459337,44.2895732,0 -103.8456636,44.2896116,0 -103.8454148,44.2896753,0 -103.8451177,44.2898081,0 -103.8448773,44.2899662,0 -103.8443667,44.2903964,0 -103.8438703,44.2909483,0 -103.8437155,44.2911631,0 -103.8435942,44.2913682,0 -103.843384,44.2919384,0 -103.843285,44.2922388,0 -103.8431577,44.2925089,0 -103.8430061,44.2927253,0 -103.8428191,44.292957,0 -103.8426529,44.2931084,0 -103.84243,44.2932599,0 -103.8421529,44.2934073,0 -103.8418333,44.2935649,0 -103.8408925,44.2938317,0 -103.8401074,44.2940377,0 -103.8393657,44.2941883,0 -103.838657,44.2943221,0 -103.838005,44.294395,0 -103.8375888,44.2943936,0 -103.8371125,44.2943535,0 -103.8366455,44.2942732,0 -103.8362252,44.2941529,0 -103.835973,44.2940326,0 -103.835562,44.2937986,0 -103.8347401,44.2932303,0 -103.8340804,44.2927966,0 -103.8336459,44.2925816,0 -103.8330589,44.292388,0 -103.8325194,44.2922878,0 -103.831932,44.2922341,0 -103.8313499,44.2922398,0 -103.8309744,44.2922744,0 -103.830425,44.2923813,0 -103.8302644,44.292417,0 -103.8301542,44.2924415,0 -103.8295097,44.2926821,0 -103.8291268,44.292876,0 -103.827595,44.2938855,0 -103.827087,44.294231,0 -103.8263449,44.2946243,0 -103.8259774,44.2947913,0 -103.8253149,44.2950236,0 -103.8246498,44.295206,0 -103.8238478,44.2953557,0 -103.8235098,44.2954095,0 -103.820833,44.295755,0 -103.8199586,44.2958222,0 -103.8193095,44.2958145,0 -103.8166064,44.2957466,0 -103.8162752,44.2957498,0 -103.8160388,44.2957585,0 -103.8157498,44.2957822,0 -103.8154882,44.2958182,0 -103.8152603,44.295864,0 -103.8149383,44.2959416,0 -103.8144163,44.2961345,0 -103.8135427,44.2965882,0 -103.812848,44.2970393,0 -103.8090276,44.2994356,0 -103.8077937,44.3001987,0 -103.805557,44.301582,0 -103.804886,44.302063,0 -103.803795,44.303082,0 -103.8020066,44.305039,0 -103.801829,44.3052464,0 -103.8017276,44.3054549,0 -103.801647,44.3056474,0 -103.8015463,44.3059397,0 -103.8015193,44.3061109,0 -103.8015204,44.3062888,0 -103.8015295,44.3065118,0 -103.8015574,44.3067348,0 -103.8017583,44.307948,0 -103.8019689,44.3093475,0 -103.801984,44.3098014,0 -103.8019624,44.3101938,0 -103.8018235,44.3107688,0 -103.8013977,44.3116928,0 -103.8009739,44.3123031,0 -103.7996111,44.3143712,0 -103.799576,44.314426,0 -103.7994223,44.314732,0 -103.7992701,44.3150909,0 -103.7991838,44.3153074,0 -103.7991389,44.3155035,0 -103.7991127,44.3156997,0 -103.7990888,44.3159783,0 -103.7990909,44.3161561,0 -103.7991117,44.3163873,0 -103.7992259,44.3171276,0 -103.7992591,44.3173423,0 -103.799273,44.3174785,0 -103.7992913,44.3176336,0 -103.7993002,44.3179185,0 -103.7992883,44.3180638,0 -103.7992643,44.3182193,0 -103.799126,44.31889,0 -103.7987444,44.3204768,0 -103.798462,44.321651,0 -103.798203,44.322403,0 -103.7976667,44.323589,0 -103.7975568,44.3238231,0 -103.7975246,44.3240783,0 -103.7975675,44.3242453,0 -103.7976882,44.3244813,0 -103.7979162,44.3247211,0 -103.7982354,44.3249821,0 -103.7988925,44.3254772,0 -103.7990883,44.325669,0 -103.799208,44.3258566,0 -103.7992703,44.3260015,0 -103.7993214,44.3261487,0 -103.7993475,44.3263324,0 -103.7993576,44.3265573,0 -103.7993568,44.326578,0 -103.7993189,44.3275571,0 -103.7992659,44.327813,0 -103.7992129,44.32795,0 -103.7991069,44.3281761,0 -103.7989487,44.328419,0 -103.7988078,44.3286172,0 -103.7986223,44.3287972,0 -103.7983477,44.329037,0 -103.7982557,44.3290959,0 -103.7981304,44.3291762,0 -103.7977488,44.3293977,0 -103.7973627,44.3295697,0 -103.7968744,44.3297189,0 -103.7963671,44.3298191,0 -103.796026,44.3298677,0 -103.7955366,44.3299242,0 -103.7950422,44.3299696,0 -103.7941892,44.3300607,0 -103.7933463,44.3301662,0 -103.793073,44.3302198,0 -103.7928583,44.3302798,0 -103.7927016,44.3303386,0 -103.7925718,44.3303973,0 -103.7924184,44.3304819,0 -103.7922966,44.3305666,0 -103.7921358,44.330687,0 -103.7918424,44.3309819,0 -103.7913912,44.3314766,0 -103.791313,44.3315437,0 -103.7911954,44.3316445,0 -103.7909915,44.331799,0 -103.7908142,44.3318869,0 -103.7905859,44.3319613,0 -103.7903198,44.3320256,0 -103.7900447,44.3320663,0 -103.7890936,44.3321625,0 -103.78886,44.3322284,0 -103.7886747,44.3323097,0 -103.7885334,44.3323878,0 -103.7884243,44.3324659,0 -103.7882482,44.3326493,0 -103.7881101,44.3328673,0 -103.7879384,44.3332555,0 -103.787071,44.33551,0 -103.786843,44.3361003,0 -103.7865709,44.3366017,0 -103.7865445,44.3366502,0 -103.7863937,44.336884,0 -103.7862365,44.3370813,0 -103.7860749,44.337276,0 -103.7857167,44.3376509,0 -103.7850368,44.3382386,0 -103.7839096,44.3392189,0 -103.7836491,44.3394738,0 -103.783538,44.3396083,0 -103.7834824,44.339676,0 -103.7834204,44.3397704,0 -103.7833595,44.3398762,0 -103.783309,44.3399738,0 -103.7832782,44.3400499,0 -103.7832544,44.3401184,0 -103.7832084,44.3402474,0 -103.7831712,44.3403687,0 -103.7831418,44.3404885,0 -103.7830209,44.3409295,0 -103.7829943,44.3410171,0 -103.7829538,44.3411037,0 -103.7829123,44.3411755,0 -103.7828718,44.3412355,0 -103.7828295,44.3412917,0 -103.7827684,44.3413565,0 -103.7826909,44.3414272,0 -103.7826377,44.3414744,0 -103.7825773,44.3415211,0 -103.7825147,44.3415649,0 -103.7824498,44.341606,0 -103.7823828,44.3416406,0 -103.782329,44.3416661,0 -103.7823068,44.3416766,0 -103.7821585,44.3417366,0 -103.7820026,44.3417849,0 -103.7818688,44.3418156,0 -103.7817714,44.3418355,0 -103.7816638,44.3418593,0 -103.7815793,44.3418831,0 -103.781487,44.3419152,0 -103.7813908,44.3419538,0 -103.7810459,44.3421201,0 -103.7804824,44.3424827,0 -103.7802115,44.3426713,0 -103.7800033,44.3428186,0 -103.7798674,44.3429262,0 -103.7795654,44.3432251,0 -103.7794897,44.3433232,0 -103.7794349,44.3434205,0 -103.7793539,44.3435838,0 -103.779332,44.3436404,0 -103.7793123,44.3436969,0 -103.7792973,44.3437412,0 -103.7792814,44.3437958,0 -103.7792522,44.3439102,0 -103.7792184,44.3440442,0 -103.778867,44.3457177,0 -103.7788378,44.3458174,0 -103.778802,44.345918,0 -103.7787647,44.3459834,0 -103.7787201,44.3460548,0 -103.7786623,44.3461304,0 -103.7786045,44.3461859,0 -103.778366,44.346333,0 -103.778122,44.346481,0 -103.777946,44.346577,0 -103.777763,44.346684,0 -103.7772037,44.3470657,0 -103.7770921,44.347152,0 -103.7769975,44.3472498,0 -103.7769563,44.3473168,0 -103.7769307,44.34736,0 -103.776887,44.3474588,0 -103.776771,44.3478174,0 -103.7767079,44.3480533,0 -103.7765631,44.3485827,0 -103.776459,44.348848,0 -103.776169,44.349945,0 -103.776077,44.350262,0 -103.7760843,44.3504066,0 -103.7760758,44.3507586,0 -103.7760967,44.3508873,0 -103.7761445,44.3510312,0 -103.7761817,44.351113,0 -103.7762004,44.351154,0 -103.7762828,44.3512758,0 -103.7763417,44.3513526,0 -103.7765904,44.3516384,0 -103.776817,44.351898,0 -103.776985,44.352089,0 -103.777183,44.352436,0 -103.7772412,44.3526325,0 -103.777313,44.352875,0 -103.7774381,44.3530657,0 -103.777458,44.353096,0 -103.7775608,44.3532471,0 -103.777688,44.3533982,0 -103.7779577,44.3536447,0 -103.7781607,44.3538522,0 -103.7782844,44.3540004,0 -103.77839,44.3541572,0 -103.7786067,44.3546194,0 -103.778824,44.355083,0 -103.7789992,44.3554866,0 -103.7791198,44.3558772,0 -103.7791557,44.3562462,0 -103.7791626,44.3564615,0 -103.7791635,44.3568068,0 -103.7791502,44.3569934,0 -103.7791654,44.3573678,0 -103.7792646,44.3581117,0 -103.7793146,44.3585132,0 -103.779373,44.359158,0 -103.779396,44.359337,0 -103.779457,44.359539,0 -103.779549,44.35976,0 -103.779747,44.360073,0 -103.779922,44.360321,0 -103.780182,44.360687,0 -103.78035,44.36095,0 -103.780487,44.361202,0 -103.78054,44.361362,0 -103.780548,44.361431,0 -103.780548,44.3615,0 -103.780556,44.361588,0 -103.780556,44.361679,0 -103.780525,44.361885,0 -103.780487,44.36203,0 -103.780449,44.362141,0 -103.78042,44.362202,0 -103.780365,44.362316,0 -103.78032,44.362396,0 -103.780274,44.362476,0 -103.78022,44.36256,0 -103.78009,44.362728,0 -103.7799,44.362949,0 -103.779747,44.363106,0 -103.779426,44.363403,0 -103.779137,44.363651,0 -103.778908,44.363827,0 -103.778633,44.364014,0 -103.778389,44.364147,0 -103.778275,44.364204,0 -103.778069,44.364296,0 -103.777847,44.364384,0 -103.777588,44.364468,0 -103.777367,44.364532,0 -103.776962,44.364662,0 -103.776604,44.364765,0 -103.77623,44.364887,0 -103.7759132,44.3649772,0 -103.775398,44.365124,0 -103.77504,44.365231,0 -103.774651,44.365314,0 -103.774315,44.365379,0 -103.77401,44.365429,0 -103.773735,44.365456,0 -103.773354,44.365482,0 -103.772644,44.36549,0 -103.772429,44.365497,0 -103.772385,44.365498,0 -103.77214,44.365517,0 -103.771988,44.365536,0 -103.771736,44.365589,0 -103.771431,44.365684,0 -103.771088,44.365822,0 -103.770798,44.365955,0 -103.77047,44.366127,0 -103.770241,44.366272,0 -103.770012,44.36644,0 -103.769493,44.366844,0 -103.76928,44.36702,0 -103.768696,44.367503,0 -103.768616,44.367569,0 -103.768356,44.367741,0 -103.768105,44.367901,0 -103.767883,44.368027,0 -103.7676569,44.3681583,0 -103.7675546,44.3682064,0 -103.7674373,44.3682592,0 -103.7673361,44.3682952,0 -103.7672555,44.3683183,0 -103.767059,44.368378,0 -103.766617,44.368511,0 -103.766327,44.368591,0 -103.765053,44.368919,0 -103.7645377,44.3690554,0 -103.764333,44.36911,0 -103.764058,44.369184,0 -103.7626655,44.3695816,0 -103.761055,44.369942,0 -103.760185,44.369987,0 -103.757757,44.369714,0 -103.756714,44.369736,0 -103.756035,44.369827,0 -103.750275,44.371056,0 -103.7497208,44.3712453,0 -103.7495,44.3713428,0 -103.7491275,44.3715486,0 -103.748973,44.3716368,0 -103.7487064,44.3717882,0 -103.7484564,44.3719121,0 -103.7483428,44.3719527,0 -103.7481973,44.3719958,0 -103.7480642,44.3720247,0 -103.747932,44.3720421,0 -103.7478198,44.3720513,0 -103.7477021,44.3720486,0 -103.7476174,44.3720457,0 -103.7475429,44.3720385,0 -103.7474484,44.3720274,0 -103.7473626,44.3720116,0 -103.7472908,44.3719928,0 -103.7472113,44.3719707,0 -103.7471356,44.3719413,0 -103.7470471,44.3719046,0 -103.7469426,44.3718506,0 -103.7468738,44.3718089,0 -103.7468235,44.3717708,0 -103.7462826,44.3713156,0 -103.7461641,44.3712423,0 -103.7460812,44.3712018,0 -103.7459877,44.3711623,0 -103.7458895,44.3711279,0 -103.7457962,44.371101,0 -103.745698,44.3710788,0 -103.7455677,44.3710558,0 -103.7446046,44.3709511,0 -103.7438176,44.370786,0 -103.7434389,44.3706924,0 -103.7422488,44.3703886,0 -103.741961,44.3703235,0 -103.7415631,44.3702927,0 -103.7413387,44.3702851,0 -103.7410924,44.3703078,0 -103.7408199,44.3703407,0 -103.7406486,44.3703755,0 -103.7404981,44.3704179,0 -103.7401439,44.3705602,0 -103.7369941,44.3719796,0 -103.736738,44.3720667,0 -103.7364656,44.3721336,0 -103.7360631,44.3721975,0 -103.7350467,44.3722789,0 -103.7347947,44.3723196,0 -103.7344776,44.3724068,0 -103.7341971,44.3725143,0 -103.7337661,44.3727032,0 -103.7333921,44.3729444,0 -103.7326684,44.3734704,0 -103.7320181,44.3739574,0 -103.7317197,44.374222,0 -103.7313652,44.3745784,0 -103.7308507,44.3751492,0 -103.7304355,44.3757431,0 -103.7302187,44.3760318,0 -103.7301514,44.3761061,0 -103.7300414,44.3762194,0 -103.7296241,44.376579,0 -103.7288866,44.3771624,0 -103.728687,44.3773751,0 -103.7285221,44.3775927,0 -103.7282109,44.3781419,0 -103.7280661,44.3783413,0 -103.7278783,44.3785254,0 -103.7275538,44.3787238,0 -103.7272668,44.3788618,0 -103.7269811,44.378949,0 -103.7264487,44.379111,0 -103.7254643,44.3794104,0 -103.7248179,44.3796545,0 -103.7246271,44.3797615,0 -103.7244072,44.3799762,0 -103.724279,44.3801815,0 -103.7242212,44.3802982,0 -103.7241872,44.3803673,0 -103.7241428,44.3804445,0 -103.7239732,44.3807413,0 -103.7238618,44.3809238,0 -103.7238445,44.3809521,0 -103.7236832,44.3811424,0 -103.7236567,44.3811745,0 -103.7232431,44.3817293,0 -103.7231847,44.3818129,0 -103.7231042,44.3819213,0 -103.7229936,44.382053,0 -103.722673,44.3824826,0 -103.722151,44.3831332,0 -103.722086,44.3832316,0 -103.7219926,44.3833449,0 -103.7219541,44.3833914,0 -103.7217797,44.3836022,0 -103.7217058,44.383689,0 -103.7216253,44.3837791,0 -103.7214774,44.3839433,0 -103.7214089,44.3840155,0 -103.7213427,44.3840865,0 -103.7210816,44.3843188,0 -103.720821,44.3845357,0 -103.7206702,44.384648,0 -103.7203857,44.3848428,0 -103.7200323,44.3850804,0 -103.7195191,44.3853966,0 -103.719402,44.3854678,0 -103.7189904,44.3857138,0 -103.7186436,44.3859266,0 -103.7186342,44.3859318,0 -103.718479,44.386024,0 -103.718366,44.386091,0 -103.718257,44.3861538,0 -103.718048,44.3862596,0 -103.7179436,44.3863128,0 -103.7178921,44.3863379,0 -103.7173986,44.3865858,0 -103.7173104,44.3866242,0 -103.7171194,44.3867134,0 -103.7168976,44.3868014,0 -103.7165967,44.3869158,0 -103.7163161,44.3870148,0 -103.7162214,44.3870448,0 -103.7160404,44.3871057,0 -103.7157872,44.3871685,0 -103.7155583,44.3872298,0 -103.7145607,44.3874528,0 -103.7143134,44.3875096,0 -103.7126945,44.3878916,0 -103.712418,44.387966,0 -103.7121939,44.3880277,0 -103.711906,44.388107,0 -103.710129,44.388577,0 -103.709526,44.388718,0 -103.708878,44.388859,0 -103.708046,44.389019,0 -103.706169,44.389347,0 -103.705894,44.389385,0 -103.705704,44.3894,0 -103.7055856,44.3894111,0 -103.7053549,44.3894206,0 -103.705261,44.389423,0 -103.7048562,44.3894227,0 -103.7045482,44.3894043,0 -103.7042564,44.3893704,0 -103.704002,44.389328,0 -103.703224,44.389145,0 -103.700151,44.3879475,0 -103.6998834,44.3878651,0 -103.6995944,44.3877879,0 -103.6992745,44.387726,0 -103.6987844,44.3876441,0 -103.6977966,44.3875111,0 -103.6974701,44.3874276,0 -103.6971833,44.3873421,0 -103.6968693,44.3872282,0 -103.6966057,44.3870774,0 -103.6963946,44.3869412,0 -103.695724,44.386482,0 -103.695118,44.3861219,0 -103.6946708,44.385936,0 -103.6938892,44.3856911,0 -103.69239,44.38522,0 -103.6899143,44.3845035,0 -103.6891615,44.3842642,0 -103.6885709,44.3841358,0 -103.6879175,44.3840844,0 -103.6873543,44.3841103,0 -103.686573,44.3842921,0 -103.6864232,44.3843662,0 -103.6858644,44.3846427,0 -103.6841235,44.3858538,0 -103.6827573,44.3868747,0 -103.682037,44.387413,0 -103.6814311,44.387772,0 -103.6808679,44.3880057,0 -103.6803046,44.3881615,0 -103.6796877,44.3882524,0 -103.6764709,44.3880446,0 -103.6754981,44.3880452,0 -103.6743996,44.3881355,0 -103.6709122,44.388452,0 -103.669839,44.388574,0 -103.669067,44.388657,0 -103.6683347,44.3888413,0 -103.664124,44.389996,0 -103.6631878,44.3903403,0 -103.661399,44.3910782,0 -103.660195,44.391464,0 -103.6586707,44.3916773,0 -103.6561261,44.391822,0 -103.6558212,44.3918394,0 -103.6550894,44.3918219,0 -103.650955,44.391468,0 -103.6494872,44.3913862,0 -103.647819,44.39138,0 -103.6429255,44.3913862,0 -103.6413075,44.39127,0 -103.639168,44.390915,0 -103.6378844,44.3907529,0 -103.636803,44.3905437,0 -103.63625,44.390352,0 -103.635876,44.3901137,0 -103.6352093,44.3896257,0 -103.6343799,44.3889633,0 -103.634014,44.388725,0 -103.6335668,44.3885333,0 -103.6317374,44.387929,0 -103.6312658,44.3878186,0 -103.6306397,44.3877663,0 -103.628607,44.3877082,0 -103.6278345,44.387714,0 -103.6269808,44.3876617,0 -103.6262246,44.3876559,0 -103.6258099,44.3877431,0 -103.6253627,44.3878419,0 -103.6249562,44.3879929,0 -103.6238992,44.3884578,0 -103.623021,44.3887134,0 -103.6221917,44.3887948,0 -103.6209476,44.3887773,0 -103.6200126,44.3889749,0 -103.6193377,44.3892247,0 -103.6188498,44.3895617,0 -103.6186059,44.389829,0 -103.6181668,44.3905263,0 -103.6180553,44.3917884,0 -103.617874,44.392284,0 -103.617653,44.392639,0 -103.617226,44.393044,0 -103.616768,44.39336,0 -103.616047,44.3936883,0 -103.615745,44.393711,0 -103.615234,44.393776,0 -103.613251,44.39381,0 -103.612831,44.393929,0 -103.611573,44.394455,0 -103.610375,44.394928,0 -103.6077112,44.3955783,0 -103.604164,44.396439,0 -103.603028,44.396648,0 -103.602295,44.396706,0 -103.601349,44.396683,0 -103.60035,44.396538,0 -103.5997518,44.3963533,0 -103.599152,44.396168,0 -103.5973895,44.3953608,0 -103.596689,44.3950671,0 -103.59625,44.394927,0 -103.5957737,44.3948135,0 -103.5951292,44.3947067,0 -103.5947416,44.3946734,0 -103.5941952,44.3946567,0 -103.5924626,44.3946734,0 -103.5868913,44.3946767,0 -103.5856367,44.3946879,0 -103.5849902,44.3947454,0 -103.584722,44.3947895,0 -103.584442,44.394829,0 -103.5842365,44.3948259,0 -103.5840407,44.3948048,0 -103.5837806,44.3947473,0 -103.5835311,44.3946534,0 -103.5833139,44.3945308,0 -103.5831047,44.3943775,0 -103.5828901,44.3942241,0 -103.5827399,44.3941341,0 -103.5825736,44.3940631,0 -103.5823858,44.3940076,0 -103.5822008,44.3939788,0 -103.5820076,44.3939654,0 -103.5818413,44.3939731,0 -103.5815973,44.3940056,0 -103.5814658,44.3940421,0 -103.5813424,44.3940881,0 -103.5811654,44.3941647,0 -103.5810125,44.3942605,0 -103.5808194,44.3944311,0 -103.580673,44.394695,0 -103.580581,44.3948934,0 -103.5805203,44.395092,0 -103.580483,44.3952772,0 -103.5805017,44.3954674,0 -103.5805297,44.3955641,0 -103.5805694,44.3956526,0 -103.5806137,44.3957427,0 -103.5806721,44.3958177,0 -103.5808099,44.3959412,0 -103.5809546,44.3960497,0 -103.5810854,44.3961231,0 -103.5812302,44.3961831,0 -103.5816411,44.396335,0 -103.5821618,44.3965151,0 -103.58358,44.396965,0 -103.584137,44.397198,0 -103.584351,44.397362,0 -103.584526,44.397617,0 -103.584572,44.397873,0 -103.58448,44.398209,0 -103.584198,44.398525,0 -103.582756,44.399765,0 -103.5813555,44.4005651,0 -103.5809662,44.4008483,0 -103.5804919,44.4013995,0 -103.5801451,44.4016777,0 -103.579685,44.4018446,0 -103.5791187,44.4019103,0 -103.5773987,44.4019508,0 -103.5760962,44.4019862,0 -103.574524,44.401985,0 -103.5740718,44.4021177,0 -103.5737675,44.4022643,0 -103.5735834,44.4023705,0 -103.5733286,44.402679,0 -103.572998,44.403362,0 -103.5726278,44.4037612,0 -103.571473,44.4043567,0 -103.5705916,44.4046876,0 -103.5693567,44.4050222,0 -103.5689316,44.4051263,0 -103.568608,44.4051998,0 -103.5679543,44.4053716,0 -103.5673222,44.4055359,0 -103.566781,44.405649,0 -103.566337,44.405901,0 -103.565019,44.406821,0 -103.564454,44.407126,0 -103.563799,44.407312,0 -103.562014,44.407605,0 -103.561516,44.407793,0 -103.560985,44.408122,0 -103.560653,44.408443,0 -103.560469,44.408715,0 -103.559604,44.410648,0 -103.55902,44.411566,0 -103.558291,44.412311,0 -103.556751,44.413626,0 -103.556378,44.414054,0 -103.555524,44.415222,0 -103.555042,44.415592,0 -103.5544177,44.4159082,0 -103.55418,44.416022,0 -103.554045,44.416086,0 -103.552565,44.416752,0 -103.5519134,44.4169564,0 -103.5512035,44.4170395,0 -103.550228,44.4170235,0 -103.547146,44.4169173,0 -103.5461914,44.4168935,0 -103.5449976,44.4169012,0 -103.544341,44.416916,0 -103.5407939,44.4169957,0 -103.5387818,44.4170436,0 -103.5384585,44.4170478,0 -103.5379338,44.4170617,0 -103.5377291,44.4170718,0 -103.5374633,44.4170991,0 -103.5372461,44.4171317,0 -103.5371474,44.4171515,0 -103.53697,44.4171872,0 -103.5351654,44.417779,0 -103.5344762,44.4180223,0 -103.534319,44.4180777,0 -103.533731,44.4182853,0 -103.5336846,44.4183017,0 -103.5335496,44.4183878,0 -103.5334001,44.4184415,0 -103.532808,44.4186545,0 -103.5327284,44.4186831,0 -103.5320664,44.4189211,0 -103.53139,44.4191501,0 -103.5313145,44.4190606,0 -103.5312767,44.4189962,0 -103.5311025,44.4186998,0 -103.530604,44.4177874,0 -103.5300897,44.4167638,0 
			</coordinates>
		</LineString>
		<atom:link rel="app" href="https://www.google.com/earth/about/versions/#earth-pro" title="Google Earth Pro 7.3.6.10201"></atom:link>
	</Placemark>
</Document>
</kml>
