<?xml version="1.0" encoding="UTF-8"?>
<kml xmlns="http://www.opengis.net/kml/2.2" xmlns:gx="http://www.google.com/kml/ext/2.2" xmlns:kml="http://www.opengis.net/kml/2.2" xmlns:atom="http://www.w3.org/2005/Atom">
<Document>
	<name>US.16A.kml</name>
	<Placemark>
		<name>US.16A</name>
		<LineString>
			<coordinates>
				-103.6002901,43.7662251,0 -103.6001454,43.7662622,0 -103.598876,43.7666034,0 -103.5987402,43.7666402,0 -103.598653,43.766667,0 -103.5979938,43.7668451,0 -103.5973858,43.7670089,0 -103.5972328,43.7670489,0 -103.5964577,43.7672543,0 -103.5958152,43.7674299,0 -103.5957116,43.7674597,0 -103.5955678,43.7674969,0 -103.5941805,43.7678838,0 -103.5934602,43.7680887,0 -103.5918206,43.7685291,0 -103.5908666,43.7687046,0 -103.5906435,43.7687288,0 -103.5903484,43.7687456,0 -103.5901274,43.7687468,0 -103.5896545,43.7687054,0 -103.5892325,43.7686867,0 -103.588864,43.7686507,0 -103.5878387,43.7685479,0 -103.5870519,43.7684707,0 -103.5866552,43.7684268,0 -103.5865009,43.7684097,0 -103.5863956,43.7683981,0 -103.5852838,43.7683136,0 -103.585086,43.7683006,0 -103.5825724,43.7680921,0 -103.5810447,43.7679413,0 -103.5802282,43.7678947,0 -103.579705,43.7679194,0 -103.5780416,43.7679851,0 -103.5777549,43.7680107,0 -103.5771038,43.7681034,0 -103.5748775,43.7685505,0 -103.5736771,43.7687875,0 -103.5724628,43.7690373,0 -103.5694828,43.769629,0 -103.568532,43.76982,0 -103.568406,43.769845,0 -103.568228,43.769879,0 -103.568226,43.76988,0 -103.568122,43.7699,0 -103.567355,43.770054,0 -103.567149,43.770094,0 -103.567054,43.770114,0 -103.567016,43.770121,0 -103.565772,43.770305,0 -103.5656724,43.7703231,0 -103.5649205,43.7703665,0 -103.564352,43.77038,0 -103.5637811,43.7703645,0 -103.5633385,43.7703454,0 -103.5628528,43.77031,0 -103.5621727,43.7702644,0 -103.562047,43.770256,0 -103.561797,43.77024,0 -103.559793,43.770107,0 -103.559438,43.7700919,0 -103.5591042,43.7700842,0 -103.5587279,43.7700842,0 -103.5580248,43.7700827,0 -103.5575022,43.7701018,0 -103.5569747,43.770122,0 -103.5565883,43.7701489,0 -103.5565027,43.7701549,0 -103.5562265,43.7701741,0 -103.555356,43.77026,0 -103.555185,43.7702703,0 -103.5546048,43.7703425,0 -103.554096,43.7704095,0 -103.5536959,43.770465,0 -103.553204,43.77055,0 -103.5517245,43.7708764,0 -103.5513826,43.7709568,0 -103.5503873,43.7711932,0 -103.5491659,43.7714834,0 -103.548296,43.77169,0 -103.5475594,43.7718538,0 -103.5473973,43.7718905,0 -103.5470793,43.7719613,0 -103.5466732,43.7720251,0 -103.5463824,43.7720646,0 -103.5460907,43.7720877,0 -103.5457703,43.7720952,0 -103.5453967,43.7720857,0 -103.545056,43.772067,0 -103.5447691,43.7720271,0 -103.5443716,43.7719535,0 -103.5439873,43.7718581,0 -103.5402593,43.7706384,0 -103.5393115,43.7703087,0 -103.5389663,43.7702011,0 -103.5386651,43.7701171,0 -103.5382237,43.7700142,0 -103.5378724,43.7699509,0 -103.537548,43.76991,0 -103.5369537,43.769832,0 -103.5356139,43.7696761,0 -103.5352268,43.7696384,0 -103.5350479,43.7696288,0 -103.534862,43.7696188,0 -103.5346201,43.7696119,0 -103.5343403,43.7696195,0 -103.5340392,43.7696367,0 -103.5336238,43.7696875,0 -103.5335371,43.7697011,0 -103.5331747,43.7697582,0 -103.532812,43.7698532,0 -103.5324314,43.7699726,0 -103.532124,43.770079,0 -103.5317619,43.7702389,0 -103.531163,43.770521,0 -103.531055,43.770574,0 -103.5281143,43.7719614,0 -103.5266303,43.7726615,0 -103.524497,43.773668,0 -103.5240305,43.7738673,0 -103.52342,43.773996,0 -103.5230649,43.7740455,0 -103.522593,43.774067,0 -103.5220993,43.77403,0 -103.521734,43.773985,0 -103.5207775,43.7737272,0 -103.519538,43.773393,0 -103.518611,43.773249,0 -103.5182458,43.7732442,0 -103.518074,43.773242,0 -103.517077,43.773351,0 -103.5164731,43.7734212,0 -103.515778,43.773502,0 -103.515268,43.773489,0 -103.514711,43.773369,0 -103.5144754,43.7732445,0 -103.514206,43.773102,0 -103.513889,43.772796,0 -103.513261,43.771978,0 -103.513007,43.771759,0 -103.512699,43.771588,0 -103.512358,43.771477,0 -103.511933,43.771411,0 -103.5112682,43.7714432,0 -103.51086,43.771463,0 -103.510601,43.77147,0 -103.510078,43.77144,0 -103.509443,43.771262,0 -103.507567,43.770281,0 -103.506221,43.77006,0 -103.505909,43.770067,0 -103.50562,43.770156,0 -103.504843,43.770738,0 -103.504507,43.770909,0 -103.504019,43.770993,0 -103.503576,43.770945,0 -103.502659,43.770644,0 -103.50138,43.770567,0 -103.501028,43.770505,0 -103.499733,43.769888,0 -103.498446,43.769467,0 -103.497566,43.769128,0 -103.496976,43.768834,0 -103.495999,43.768128,0 -103.495583,43.76796,0 -103.494606,43.767793,0 -103.494361,43.767684,0 -103.494121,43.767434,0 -103.493755,43.766796,0 -103.493422,43.766568,0 -103.493053,43.766498,0 -103.492298,43.766508,0 -103.491636,43.766454,0 -103.491005,43.766329,0 -103.490655,43.766171,0 -103.489896,43.765568,0 -103.489565,43.765419,0 -103.489197,43.76535,0 -103.488533,43.765329,0 -103.488161,43.765265,0 -103.486874,43.764573,0 -103.486408,43.764475,0 -103.485552,43.764475,0 -103.485028,43.7644,0 -103.483813,43.76387,0 -103.483256,43.763683,0 -103.48013,43.762875,0 -103.479819,43.762707,0 -103.4796887,43.7626168,0 -103.4795721,43.7624553,0 -103.4795257,43.7622591,0 -103.4795314,43.7620016,0 -103.4795822,43.76163,0 -103.4795765,43.761377,0 -103.4795196,43.7612243,0 -103.4793712,43.7610743,0 -103.4792596,43.7609603,0 -103.4791537,43.7608765,0 -103.4788749,43.760734,0 -103.4787235,43.7606812,0 -103.478556,43.76064,0 -103.4780943,43.7605795,0 -103.4775296,43.7605527,0 -103.4767149,43.7606423,0 -103.4756892,43.760906,0 -103.4746362,43.7612187,0 -103.472155,43.7620567,0 -103.47202,43.7620916,0 -103.470436,43.76249,0 -103.469978,43.762502,0 -103.469533,43.762416,0 -103.4682085,43.7617002,0 -103.4679935,43.761621,0 -103.467781,43.7615683,0 -103.4675113,43.7615561,0 -103.4673162,43.7616016,0 -103.4671797,43.7616394,0 -103.4670579,43.7616857,0 -103.466921,43.7617506,0 -103.4667587,43.7618342,0 -103.4665017,43.7619633,0 -103.4663564,43.7620264,0 -103.4661894,43.7620836,0 -103.4660374,43.7621191,0 -103.4658253,43.7621536,0 -103.4657033,43.7621637,0 -103.4655582,43.7621701,0 -103.4653921,43.7621681,0 -103.4652082,43.762159,0 -103.4650555,43.762144,0 -103.4649045,43.7621214,0 -103.4647104,43.7620793,0 -103.4646133,43.7620546,0 -103.4639949,43.7618785,0 -103.4638145,43.7618499,0 -103.4636841,43.761841,0 -103.4635455,43.7618467,0 -103.4634224,43.761865,0 -103.4633187,43.7618861,0 -103.4632058,43.7619282,0 -103.4630581,43.7619981,0 -103.462939,43.7620717,0 -103.4628309,43.7621614,0 -103.4627152,43.7622662,0 -103.4626,43.7623948,0 -103.4624811,43.7625589,0 -103.4624101,43.7626928,0 -103.4623451,43.7628977,0 -103.4623427,43.7630554,0 -103.4623571,43.7631768,0 -103.4623883,43.7633051,0 -103.4625707,43.7636917,0 -103.4626571,43.763879,0 -103.4626931,43.7639778,0 -103.4627148,43.7640905,0 -103.462734,43.764198,0 -103.4627172,43.7643107,0 -103.4626516,43.7645303,0 -103.4625323,43.7647476,0 -103.4623571,43.7650544,0 -103.4621458,43.7653474,0 -103.461985,43.7655035,0 -103.4618073,43.7656439,0 -103.4612312,43.7659404,0 -103.4609527,43.7660894,0 -103.4608182,43.7661709,0 -103.4607054,43.7662576,0 -103.4605446,43.7664084,0 -103.4604125,43.7665645,0 -103.4601677,43.7668835,0 -103.4600164,43.7670066,0 -103.4598484,43.7671019,0 -103.4596155,43.7671695,0 -103.4593659,43.7671973,0 -103.4591186,43.7672111,0 -103.4589817,43.7672285,0 -103.4588473,43.7672527,0 -103.4587153,43.7672874,0 -103.4585712,43.7673342,0 -103.4583096,43.7674677,0 -103.457743,43.7677329,0 -103.4576302,43.7677798,0 -103.4575006,43.7678162,0 -103.4573685,43.767837,0 -103.4572053,43.7678404,0 -103.4569172,43.76783,0 -103.4566003,43.7677988,0 -103.4559809,43.7677191,0 -103.4547849,43.767542,0 -103.4544133,43.7674798,0 -103.4541036,43.7674192,0 -103.4537988,43.7673481,0 -103.453468,43.76729,0 -103.4533138,43.7672753,0 -103.4531482,43.7672805,0 -103.4529369,43.7673065,0 -103.4527281,43.7673533,0 -103.4519743,43.7676411,0 -103.4510956,43.7680086,0 -103.4509468,43.768045,0 -103.4507667,43.768071,0 -103.4506083,43.768071,0 -103.4504427,43.7680537,0 -103.449971,43.7679522,0 -103.4497021,43.7679293,0 -103.4494213,43.7679236,0 -103.4490061,43.7679522,0 -103.4477131,43.7681121,0 -103.447415,43.7681132,0 -103.4471299,43.7680783,0 -103.4468659,43.7680106,0 -103.4466066,43.7679361,0 -103.4463761,43.7678824,0 -103.4462561,43.7678633,0 -103.4461385,43.7678615,0 -103.44598,43.7678806,0 -103.4458768,43.7679032,0 -103.445788,43.7679448,0 -103.4457111,43.7680054,0 -103.4456607,43.7680869,0 -103.4456151,43.7683054,0 -103.4455959,43.7685169,0 -103.4455311,43.7686555,0 -103.4454375,43.7687821,0 -103.4453366,43.768848,0 -103.4452286,43.7688965,0 -103.4450846,43.7689294,0 -103.4449453,43.7689451,0 -103.4448181,43.7689433,0 -103.4446813,43.7689242,0 -103.4445108,43.7688705,0 -103.444362,43.7688081,0 -103.4441699,43.768711,0 -103.4439995,43.7686001,0 -103.4435938,43.76834,0 -103.4433873,43.7682412,0 -103.4432217,43.7681909,0 -103.443044,43.7681823,0 -103.4428592,43.7681979,0 -103.4426767,43.768262,0 -103.4425447,43.7683487,0 -103.4424751,43.7684198,0 -103.4424223,43.7684943,0 -103.442194,43.769082,0 -103.441958,43.769515,0 -103.441725,43.769769,0 -103.44139,43.769985,0 -103.44082,43.770211,0 -103.43933,43.770551,0 -103.438228,43.771068,0 -103.436899,43.771489,0 -103.436386,43.771727,0 -103.435358,43.772321,0 -103.434203,43.772538,0 -103.433733,43.772671,0 -103.433475,43.772825,0 -103.433265,43.773047,0 -103.432953,43.773736,0 -103.432764,43.773902,0 -103.432511,43.774036,0 -103.432111,43.774153,0 -103.431158,43.774332,0 -103.4297,43.775019,0 -103.429408,43.775115,0 -103.428886,43.775181,0 -103.4280979,43.7752569,0 -103.4277238,43.7753611,0 -103.4274454,43.775508,0 -103.4271313,43.7758193,0 -103.4267303,43.7761099,0 -103.4263683,43.7762467,0 -103.4258978,43.7763123,0 -103.4255652,43.7762747,0 -103.425349,43.776202,0 -103.424822,43.775901,0 -103.42324,43.774737,0 -103.421221,43.773359,0 -103.420714,43.77319,0 -103.420206,43.773171,0 -103.419674,43.773359,0 -103.419335,43.773657,0 -103.419195,43.774027,0 -103.419189,43.774875,0 -103.419032,43.775372,0 -103.418671,43.775838,0 -103.4176283,43.7768677,0 -103.4169931,43.7775112,0 -103.4166514,43.7778407,0 -103.4164886,43.7779803,0 -103.4163016,43.7780908,0 -103.4160597,43.7781956,0 -103.4158399,43.7782606,0 -103.415604,43.778314,0 -103.4151935,43.7783695,0 -103.4150151,43.7783841,0 -103.4147669,43.7783503,0 -103.414337,43.7782189,0 -103.4140121,43.7780834,0 -103.4136281,43.7779712,0 -103.413429,43.777942,0 -103.4131279,43.7779302,0 -103.4125481,43.7779329,0 -103.4121938,43.7779285,0 -103.4120649,43.7779195,0 -103.4119468,43.7778989,0 -103.4117444,43.7778459,0 -103.4115822,43.7777774,0 -103.4113327,43.7776123,0 -103.4111983,43.7774974,0 -103.4110691,43.7772934,0 -103.4108991,43.7767098,0 -103.4107953,43.7763406,0 -103.4106861,43.7760798,0 -103.4105796,43.7758863,0 -103.4104623,43.7756966,0 -103.4102539,43.7754275,0 -103.4101635,43.7752708,0 -103.4100776,43.7750062,0 -103.4099675,43.7747436,0 -103.409895,43.774672,0 -103.4098172,43.7746198,0 -103.4097179,43.7745695,0 -103.409573,43.7745056,0 -103.4094761,43.7744831,0 -103.4093631,43.7744799,0 -103.4092635,43.7744865,0 -103.4091156,43.7745046,0 -103.4082967,43.7747468,0 -103.4072174,43.7748679,0 -103.4069299,43.7749189,0 -103.406637,43.774993,0 -103.4063307,43.7751276,0 -103.4061293,43.7752684,0 -103.4059734,43.7754712,0 -103.4058911,43.7756935,0 -103.405881,43.775947,0 -103.4062557,43.7774743,0 -103.4062946,43.7777815,0 -103.4062405,43.7780874,0 -103.4061257,43.7782836,0 -103.4058793,43.7785079,0 -103.4055568,43.7786444,0 -103.4051078,43.7787212,0 -103.4047415,43.7786822,0 -103.4044342,43.7785822,0 -103.4022414,43.7775901,0 -103.4002536,43.7767,0 -103.3997362,43.7764306,0 -103.3986338,43.7758202,0 -103.3984595,43.775703,0 -103.3982658,43.7755728,0 -103.3978658,43.7751986,0 -103.3973272,43.7743502,0 -103.3961607,43.7728497,0 -103.395791,43.7724584,0 -103.3951834,43.772104,0 -103.3950551,43.7720119,0 -103.3949643,43.7719269,0 -103.3948955,43.7718405,0 -103.3948617,43.7717423,0 -103.3948472,43.7716284,0 -103.3948553,43.7714895,0 -103.3948704,43.7713953,0 -103.3949172,43.7712824,0 -103.3949545,43.7712052,0 -103.3950149,43.7711384,0 -103.3951302,43.7710289,0 -103.3952928,43.7709419,0 -103.3958738,43.7706579,0 -103.3960189,43.7705311,0 -103.3960932,43.7703556,0 -103.396078,43.7701801,0 -103.395978,43.770019,0 -103.3957269,43.7698302,0 -103.395023,43.7694962,0 -103.3943629,43.7692256,0 -103.3940742,43.7691353,0 -103.3931474,43.7689574,0 -103.392847,43.7688806,0 -103.3919084,43.7685892,0 -103.39138,43.7684795,0 -103.389989,43.7682869,0 -103.3895433,43.7682064,0 -103.3889322,43.7680053,0 -103.3885254,43.7678017,0 -103.3882097,43.7675042,0 -103.3878214,43.7668923,0 -103.3877691,43.7666801,0 -103.3878232,43.7663594,0 -103.3879017,43.7660749,0 -103.3879919,43.7658437,0 -103.388036,43.765599,0 -103.3879767,43.7654171,0 -103.3878754,43.7652952,0 -103.3875917,43.7650908,0 -103.3873279,43.7649705,0 -103.3869733,43.7648638,0 -103.3865645,43.7647942,0 -103.3862641,43.7647886,0 -103.3857906,43.7648045,0 -103.385246,43.7648271,0 -103.3835224,43.7649076,0 -103.3825205,43.7649475,0 -103.3817203,43.7650005,0 -103.3814441,43.7650125,0 -103.3811852,43.7650086,0 -103.3808757,43.7649718,0 -103.3806009,43.7648939,0 -103.3803831,43.7647944,0 -103.3801646,43.7646488,0 -103.3795941,43.7641205,0 -103.3793935,43.7639848,0 -103.3791791,43.7638789,0 -103.3785537,43.763695,0 -103.378131,43.7635556,0 -103.3776305,43.7633377,0 -103.3767133,43.7628794,0 -103.3759041,43.7624044,0 -103.3755831,43.7622688,0 -103.3752554,43.7621697,0 -103.3746362,43.7620507,0 -103.3733424,43.7618281,0 -103.3722304,43.761669,0 -103.3719692,43.761616,0 -103.3717367,43.7615358,0 -103.3715545,43.7614126,0 -103.3713541,43.761232,0 -103.3712321,43.7611217,0 -103.3709199,43.7608092,0 -103.3705225,43.7603931,0 -103.3702793,43.7602309,0 -103.3701335,43.7601744,0 -103.3700248,43.7601434,0 -103.3699221,43.7601243,0 -103.3698077,43.7601148,0 -103.3696527,43.7601198,0 -103.369516,43.7601399,0 -103.369314,43.7601851,0 -103.3691121,43.7602487,0 -103.3689374,43.7603212,0 -103.3686456,43.7604704,0 -103.3682202,43.7606878,0 -103.3680992,43.7607446,0 -103.3679362,43.7608029,0 -103.3677332,43.7608552,0 -103.3675201,43.7608927,0 -103.3672428,43.7609099,0 -103.3670237,43.7608988,0 -103.3667383,43.7608574,0 -103.3649568,43.7605417,0 -103.3647025,43.7605027,0 -103.3644479,43.7604783,0 -103.3641883,43.7604698,0 -103.363905,43.7604722,0 -103.3636352,43.7604849,0 -103.3633434,43.7605118,0 -103.3630643,43.7605477,0 -103.3628727,43.7605853,0 -103.3626584,43.7606387,0 -103.3623502,43.7607334,0 -103.3599986,43.7616753,0 -103.3597636,43.7617625,0 -103.3596218,43.761807,0 -103.3594625,43.7618489,0 -103.3593018,43.7618788,0 -103.3591367,43.7618972,0 -103.3589491,43.7619008,0 -103.3585454,43.7619009,0 -103.3584043,43.7619142,0 -103.3582793,43.7619317,0 -103.3581684,43.7619697,0 -103.3580765,43.7620162,0 -103.3580143,43.7620663,0 -103.3579678,43.7621268,0 -103.3579313,43.762185,0 -103.3579065,43.7622574,0 -103.3579021,43.7623376,0 -103.3579141,43.76241,0 -103.3579602,43.7625143,0 -103.3580304,43.762614,0 -103.3582522,43.7628888,0 -103.3582991,43.7629857,0 -103.3583125,43.7630554,0 -103.3583085,43.7631214,0 -103.3582855,43.7631893,0 -103.3582547,43.7632503,0 -103.3581811,43.7633402,0 -103.3580573,43.7634638,0 -103.3576338,43.7638646,0 -103.3572782,43.7642786,0 -103.3571322,43.7644062,0 -103.3569615,43.764508,0 -103.356799,43.7645746,0 -103.3565935,43.7646324,0 -103.3560078,43.7647419,0 -103.3557956,43.7647992,0 -103.3556309,43.7648721,0 -103.3554979,43.7649555,0 -103.3553704,43.7650634,0 -103.3552456,43.7652072,0 -103.3550235,43.7655154,0 -103.3548974,43.7656455,0 -103.3547918,43.7657325,0 -103.3546198,43.7658411,0 -103.3544505,43.7659223,0 -103.3542211,43.7659926,0 -103.3539008,43.7660403,0 -103.3533626,43.7661052,0 -103.3530738,43.7661122,0 -103.3528901,43.7660822,0 -103.3527288,43.7660291,0 -103.3525671,43.765935,0 -103.3517579,43.7653429,0 -103.3515591,43.7652253,0 -103.3513338,43.7651399,0 -103.3511089,43.7650871,0 -103.3509451,43.7650734,0 -103.3507861,43.7650784,0 -103.3506417,43.7651063,0 -103.3504746,43.7651646,0 -103.3503274,43.7652546,0 -103.3499755,43.7654955,0 -103.3498057,43.7655816,0 -103.3495894,43.7656742,0 -103.3493414,43.7657411,0 -103.3491113,43.7657796,0 -103.3488384,43.7657845,0 -103.3457154,43.7655364,0 -103.3453369,43.7654907,0 -103.3450401,43.7654228,0 -103.34456,43.7652931,0 -103.3443482,43.7652614,0 -103.3441516,43.7652604,0 -103.3439437,43.7652882,0 -103.3437535,43.7653537,0 -103.3436047,43.7654518,0 -103.3434867,43.7655804,0 -103.3434032,43.7657398,0 -103.3433059,43.7660392,0 -103.3432964,43.7663454,0 -103.3433101,43.7666781,0 -103.3432261,43.7669813,0 -103.3430023,43.7674919,0 -103.3425659,43.7689812,0 -103.3424049,43.7696339,0 -103.3422991,43.7699142,0 -103.3421525,43.7701641,0 -103.3419144,43.7704503,0 -103.3409438,43.7713117,0 -103.3407122,43.7715192,0 -103.3402697,43.7719155,0 -103.3399444,43.7722069,0 -103.3393814,43.7727513,0 -103.3394925,43.7728551,0 -103.3396158,43.7730128,0 -103.3396866,43.7731432,0 -103.3397255,43.7732454,0 -103.3397893,43.7734345,0 -103.3397709,43.7741019,0 -103.3398156,43.7742634,0 -103.3398928,43.7744014,0 -103.3399741,43.7744806,0 -103.340092,43.7745834,0 -103.340336,43.7746861,0 -103.3405758,43.7747155,0 -103.3409255,43.7747331,0 -103.3413239,43.7747536,0 -103.341954,43.7748094,0 -103.3424134,43.7748476,0 -103.3427468,43.77483,0 -103.3432103,43.7748094,0 -103.3434176,43.7748358,0 -103.3435802,43.7748975,0 -103.3436859,43.775012,0 -103.343755,43.7751206,0 -103.3437794,43.7752292,0 -103.3437632,43.7753231,0 -103.3436859,43.7754259,0 -103.343565,43.775541,0 -103.3432062,43.7758314,0 -103.3431261,43.7759604,0 -103.3431384,43.7761562,0 -103.3432,43.7764009,0 -103.3433541,43.7766545,0 -103.3435266,43.7768458,0 -103.3437916,43.777006,0 -103.3441182,43.7770905,0 -103.3443277,43.7771395,0 -103.3447591,43.7771528,0 -103.3449747,43.7772151,0 -103.3450918,43.7773308,0 -103.3451904,43.7774687,0 -103.3452397,43.7777001,0 -103.3452212,43.7779715,0 -103.3450918,43.7782651,0 -103.3450302,43.778452,0 -103.3450425,43.7785855,0 -103.3451596,43.7787679,0 -103.3456217,43.7792751,0 -103.3460469,43.7797289,0 -103.3462144,43.7798494,0 -103.346392,43.7799602,0 -103.3471438,43.7802761,0 -103.3473225,43.780374,0 -103.3473803,43.7804302,0 -103.3474026,43.7804897,0 -103.3474153,43.7805544,0 -103.3473841,43.7806143,0 -103.3473483,43.7806785,0 -103.3472855,43.7807433,0 -103.3472083,43.7808553,0 -103.3471376,43.7809746,0 -103.3471326,43.7810679,0 -103.3471438,43.7811392,0 -103.3471704,43.7812362,0 -103.3472301,43.7813216,0 -103.3474149,43.7814818,0 -103.3476737,43.7816242,0 -103.3477563,43.7816971,0 -103.3478274,43.7817729,0 -103.34787,43.7818528,0 -103.3478832,43.7819311,0 -103.3478771,43.7820468,0 -103.3478339,43.7821669,0 -103.3477155,43.7826483,0 -103.3477505,43.7828251,0 -103.3478263,43.7829871,0 -103.3487445,43.7845654,0 -103.3489864,43.7848369,0 -103.3496247,43.7854093,0 -103.3497472,43.7858933,0 -103.3497851,43.7861205,0 -103.3497909,43.7862447,0 -103.3497792,43.7863352,0 -103.3497443,43.7864088,0 -103.349657,43.786492,0 -103.3495373,43.7865372,0 -103.3493712,43.7865435,0 -103.3489603,43.7864319,0 -103.3488496,43.7864161,0 -103.3487533,43.7864133,0 -103.348639,43.786437,0 -103.3485489,43.786484,0 -103.3484908,43.7865452,0 -103.3484637,43.7866206,0 -103.3484529,43.7867083,0 -103.3484773,43.7868002,0 -103.348624,43.7871035,0 -103.348779,43.7873454,0 -103.3491904,43.7877946,0 -103.3495324,43.7883026,0 -103.3497789,43.7886274,0 -103.34996,43.7888377,0 -103.3500702,43.7889442,0 -103.3501916,43.7890331,0 -103.3504436,43.7892097,0 -103.3506005,43.7893607,0 -103.3506602,43.7894739,0 -103.3506957,43.7895885,0 -103.3507013,43.78973,0 -103.3506714,43.7898702,0 -103.3505967,43.7900238,0 -103.350509,43.7901384,0 -103.3503895,43.7902355,0 -103.3502382,43.7903204,0 -103.3500777,43.7903797,0 -103.3498555,43.7904363,0 -103.3495772,43.7904902,0 -103.3494447,43.7905253,0 -103.3493551,43.7905765,0 -103.3492804,43.7906371,0 -103.3492542,43.7906857,0 -103.349243,43.7907679,0 -103.3492542,43.7908218,0 -103.3493102,43.790904,0 -103.34937,43.7909458,0 -103.3494335,43.7909795,0 -103.3496538,43.7910388,0 -103.3499395,43.7911048,0 -103.3501001,43.7911534,0 -103.3502401,43.7912032,0 -103.3506714,43.7913811,0 -103.3508955,43.7914593,0 -103.3511457,43.7915442,0 -103.3512521,43.7915901,0 -103.3513063,43.7916298,0 -103.3513445,43.7916676,0 -103.3513782,43.7917201,0 -103.3513894,43.7917902,0 -103.3513763,43.7918515,0 -103.3513445,43.7919034,0 -103.3512997,43.7919486,0 -103.3512474,43.7919897,0 -103.3511681,43.7920315,0 -103.351071,43.7920706,0 -103.3508348,43.792138,0 -103.3506565,43.7921851,0 -103.350506,43.792218,0 -103.3503288,43.7922438,0 -103.3502009,43.7922525,0 -103.3499946,43.7922404,0 -103.3498247,43.7922128,0 -103.3496659,43.7921824,0 -103.349497,43.7921582,0 -103.3493149,43.7921494,0 -103.3483589,43.7921744,0 -103.3481862,43.792169,0 -103.3476428,43.792142,0 -103.3463283,43.7920544,0 -103.3450932,43.7919708,0 -103.3449083,43.791956,0 -103.3446376,43.7919486,0 -103.3443258,43.7919513,0 -103.3441223,43.7919681,0 -103.343971,43.7919823,0 -103.3438039,43.7920066,0 -103.3435434,43.792051,0 -103.3433558,43.7920915,0 -103.3431625,43.7921461,0 -103.3429515,43.7922175,0 -103.3427107,43.7923098,0 -103.342397,43.7924432,0 -103.3419432,43.7926515,0 -103.3415978,43.7928146,0 -103.3414391,43.7928988,0 -103.3413373,43.7929554,0 -103.3412225,43.7930343,0 -103.3411432,43.7931097,0 -103.3410899,43.7931758,0 -103.3410265,43.7932728,0 -103.3409928,43.7933476,0 -103.340963,43.7934615,0 -103.3409574,43.7935936,0 -103.340963,43.7936799,0 -103.3409854,43.7937655,0 -103.3410563,43.7939717,0 -103.3411777,43.7942763,0 -103.34123,43.7943861,0 -103.3413056,43.794562,0 -103.3414279,43.7948545,0 -103.341889,43.796248,0 -103.341959,43.7966,0 -103.342045,43.798109,0 -103.342001,43.798479,0 -103.341894,43.798751,0 -103.341629,43.799138,0 -103.341006,43.799799,0 -103.340905,43.800051,0 -103.340903,43.800319,0 -103.3419493,43.8025737,0 -103.342387,43.803517,0 -103.3425928,43.8038626,0 -103.3428882,43.8040779,0 -103.3436112,43.8042789,0 -103.3440378,43.8044668,0 -103.3447082,43.8045859,0 -103.3449442,43.8046979,0 -103.3451577,43.804957,0 -103.3454097,43.805789,0 -103.3455897,43.805949,0 -103.3458597,43.806021,0 -103.3466747,43.806086,0 -103.3469377,43.806189,0 -103.3472397,43.806418,0 -103.3492595,43.8101404,0 -103.3494305,43.8103609,0 -103.3498023,43.8108185,0 -103.3499094,43.8109485,0 -103.3500212,43.8110735,0 -103.3500987,43.8111789,0 -103.3501421,43.8112628,0 -103.3501694,43.8113385,0 -103.3501694,43.8114208,0 -103.350158,43.8114982,0 -103.350122,43.811587,0 -103.3500622,43.8116611,0 -103.3499893,43.8117121,0 -103.349914,43.8117565,0 -103.3498023,43.8117829,0 -103.3495833,43.8118108,0 -103.3487327,43.8119014,0 -103.3486004,43.811926,0 -103.3484749,43.8119672,0 -103.3483472,43.8120281,0 -103.3482492,43.8120988,0 -103.348183,43.8121828,0 -103.348142,43.8122651,0 -103.3481146,43.8123506,0 -103.34811,43.8124642,0 -103.3482879,43.8150166,0 -103.3483107,43.8152125,0 -103.3483518,43.8153836,0 -103.3484065,43.8155564,0 -103.3485069,43.8158477,0 -103.348815,43.8166348,0 -103.3488791,43.816767,0 -103.3489684,43.8169091,0 -103.3490829,43.817043,0 -103.3493051,43.8172743,0 -103.3500585,43.8179964,0 -103.3502738,43.8182657,0 -103.3504387,43.8185318,0 -103.3506402,43.8188309,0 -103.3507387,43.8189465,0 -103.3508486,43.8190424,0 -103.3509723,43.8191349,0 -103.3511394,43.8192093,0 -103.3512906,43.8192522,0 -103.3515379,43.8192886,0 -103.3532647,43.8194323,0 -103.3534341,43.8194604,0 -103.3535715,43.8195034,0 -103.35367,43.8195513,0 -103.3537616,43.8196174,0 -103.3538303,43.8196785,0 -103.3538853,43.8197645,0 -103.3539196,43.8198686,0 -103.3539059,43.8199644,0 -103.3538716,43.8200437,0 -103.3538028,43.8201296,0 -103.3537181,43.8202172,0 -103.3536083,43.8202983,0 -103.3528875,43.8207211,0 -103.3528084,43.8207865,0 -103.3527428,43.8208542,0 -103.3526889,43.8209405,0 -103.3526702,43.8210116,0 -103.3526725,43.8210962,0 -103.352696,43.8211757,0 -103.3527499,43.8212518,0 -103.3528132,43.8213127,0 -103.3528953,43.8213702,0 -103.3530008,43.8214176,0 -103.353125,43.8214548,0 -103.3533408,43.8215106,0 -103.3539691,43.8216375,0 -103.3541286,43.8216561,0 -103.3542552,43.8216663,0 -103.35441,43.8216561,0 -103.3548297,43.8216172,0 -103.3551603,43.8216037,0 -103.3553267,43.8216223,0 -103.3554463,43.8216392,0 -103.3555612,43.821668,0 -103.3557371,43.8217356,0 -103.3574347,43.8224732,0 -103.3576129,43.8225324,0 -103.3577981,43.8225798,0 -103.3579388,43.8226069,0 -103.3581052,43.8226204,0 -103.3582553,43.8226255,0 -103.3584124,43.8226187,0 -103.3585859,43.8226018,0 -103.3587665,43.822573,0 -103.3589634,43.8225257,0 -103.3591627,43.8224766,0 -103.3603771,43.8220809,0 -103.3610381,43.8219249,0 -103.3616711,43.8218999,0 -103.3627495,43.8220475,0 -103.3634855,43.8223108,0 -103.3642635,43.8227988,0 -103.364468,43.823138,0 -103.364632,43.824022,0 -103.365223,43.824649,0 -103.367081,43.825769,0 -103.3681575,43.8262052,0 -103.368829,43.826541,0 -103.3690824,43.8268522,0 -103.36919,43.8271426,0 -103.3694088,43.8290908,0 -103.3693715,43.8294666,0 -103.3690909,43.8303642,0 -103.3690473,43.8312136,0 -103.36855,43.832768,0 -103.3686358,43.8330911,0 -103.368664,43.8333314,0 -103.3687277,43.8335503,0 -103.3688126,43.8337571,0 -103.3688956,43.8339043,0 -103.3690267,43.8340568,0 -103.3692284,43.8342109,0 -103.369419,43.8343136,0 -103.3696782,43.8344143,0 -103.3702784,43.8345934,0 -103.3725651,43.8352535,0 -103.3729524,43.8353441,0 -103.3732011,43.8353768,0 -103.373442,43.8353846,0 -103.3736906,43.8353593,0 -103.3748282,43.8351063,0 -103.375129,43.8350652,0 -103.3752768,43.8350674,0 -103.3754055,43.8350858,0 -103.3755244,43.8351172,0 -103.3756589,43.8351747,0 -103.3759721,43.8353704,0 -103.3762836,43.8355814,0 -103.3765519,43.8357016,0 -103.3770053,43.8358648,0 -103.3771414,43.8359407,0 -103.3772715,43.8360447,0 -103.3773652,43.8361385,0 -103.377613,43.836467,0 -103.3777187,43.8365814,0 -103.3778055,43.8366467,0 -103.3779301,43.8367192,0 -103.3781145,43.8367723,0 -103.3783401,43.8368024,0 -103.3786006,43.8368275,0 -103.3787594,43.8368641,0 -103.3791256,43.8369842,0 -103.3793162,43.8370262,0 -103.3795325,43.8370463,0 -103.3797966,43.8370316,0 -103.3808378,43.8369628,0 -103.3814707,43.8368948,0 -103.3819586,43.836971,0 -103.3827066,43.8371822,0 -103.3831945,43.8374578,0 -103.383414,43.8377041,0 -103.3835035,43.837839,0 -103.383536,43.8380443,0 -103.3834342,43.8384758,0 -103.3832595,43.8389768,0 -103.3832034,43.8392359,0 -103.383151,43.839571,0 -103.3831331,43.8398754,0 -103.3831579,43.8400428,0 -103.3831902,43.8401928,0 -103.38325,43.8403403,0 -103.3833448,43.8405043,0 -103.3834817,43.8406599,0 -103.3844464,43.8413533,0 -103.3846009,43.8414312,0 -103.3847838,43.8415081,0 -103.3850262,43.8415579,0 -103.3856384,43.8415891,0 -103.3862193,43.8416254,0 -103.3864954,43.8415891,0 -103.3867582,43.8415249,0 -103.3870212,43.8413709,0 -103.3872396,43.8411631,0 -103.3873476,43.8409727,0 -103.3873885,43.840777,0 -103.3874293,43.8405675,0 -103.3874989,43.8403701,0 -103.3875613,43.8402783,0 -103.3876605,43.8401934,0 -103.3878446,43.8400965,0 -103.3880606,43.8400446,0 -103.3883055,43.8400376,0 -103.3884255,43.8400515,0 -103.3885504,43.8400827,0 -103.388668,43.8401329,0 -103.3887832,43.8402004,0 -103.3889081,43.8403459,0 -103.3889705,43.8404619,0 -103.3889753,43.8406714,0 -103.3888961,43.8410852,0 -103.3889225,43.841248,0 -103.3890161,43.8414021,0 -103.3891457,43.8415233,0 -103.3893354,43.8416358,0 -103.3894866,43.8416843,0 -103.3898275,43.8417016,0 -103.390058,43.8416756,0 -103.3902245,43.841606,0 -103.391865,43.840618,0 -103.392341,43.840399,0 -103.3925763,43.8403441,0 -103.3928427,43.8403078,0 -103.3931308,43.8403216,0 -103.3934381,43.8403909,0 -103.3937382,43.8404878,0 -103.3940238,43.8405813,0 -103.3941717,43.8406365,0 -103.3943448,43.8406762,0 -103.3947015,43.8406819,0 -103.3951699,43.8406617,0 -103.3953822,43.8407101,0 -103.3955699,43.8407943,0 -103.3956923,43.8408999,0 -103.3958723,43.8411216,0 -103.3960356,43.8413726,0 -103.3961724,43.8415025,0 -103.3963477,43.8416133,0 -103.3965349,43.8416999,0 -103.3967414,43.8417726,0 -103.3969862,43.8418142,0 -103.3972383,43.8418384,0 -103.3977664,43.8418782,0 -103.3979609,43.8419129,0 -103.3981457,43.8419925,0 -103.3984602,43.842183,0 -103.3987411,43.8423977,0 -103.3990364,43.8426158,0 -103.3993341,43.8428357,0 -103.3996053,43.8430712,0 -103.3997326,43.8432132,0 -103.3998046,43.8433673,0 -103.399918,43.8435418,0 -103.4000327,43.8436582,0 -103.4004336,43.8440079,0 -103.4008441,43.844349,0 -103.4009277,43.8444979,0 -103.4009717,43.8446511,0 -103.4009685,43.8447931,0 -103.4009276,43.844955,0 -103.4008945,43.8450606,0 -103.4007937,43.8451922,0 -103.40065,43.845272,0 -103.400169,43.845483,0 -103.3999462,43.8456268,0 -103.399723,43.8457982,0 -103.3994205,43.846096,0 -103.3991084,43.8463989,0 -103.3987651,43.8466379,0 -103.3986771,43.8467299,0 -103.3985859,43.8468321,0 -103.398545,43.8469359,0 -103.3985354,43.8470398,0 -103.3985907,43.8471333,0 -103.3986819,43.8472233,0 -103.3988427,43.8472874,0 -103.3989802,43.8473008,0 -103.3990809,43.8472917,0 -103.3992233,43.8472622,0 -103.3994134,43.8471612,0 -103.3999295,43.8468216,0 -103.4002257,43.8466358,0 -103.4005167,43.8465097,0 -103.4008685,43.8464034,0 -103.4011662,43.8463275,0 -103.4013938,43.8462822,0 -103.4016298,43.8462782,0 -103.4018844,43.8463536,0 -103.4020204,43.846431,0 -103.4020901,43.8464803,0 -103.4021978,43.8465658,0 -103.4023601,43.8467128,0 -103.4024013,43.8467469,0 -103.4026446,43.8468456,0 -103.4029374,43.8469703,0 -103.4036408,43.8472282,0 -103.4040273,43.8474464,0 -103.4044594,43.8476663,0 -103.404894,43.8477978,0 -103.4053237,43.8478654,0 -103.4057102,43.8479589,0 -103.4060823,43.8480852,0 -103.4064736,43.8482601,0 -103.4068001,43.8484488,0 -103.407165,43.848776,0 -103.4076355,43.8492591,0 -103.4079524,43.8495776,0 -103.4085717,43.8500018,0 -103.4089246,43.8502978,0 -103.4092031,43.8505938,0 -103.4094408,43.8509072,0 -103.4095056,43.8511201,0 -103.4093952,43.8518126,0 -103.4093832,43.8522558,0 -103.409364,43.852467,0 -103.4093376,43.8526834,0 -103.4094096,43.8528755,0 -103.4095176,43.8531058,0 -103.4095608,43.8532651,0 -103.4095584,43.8534295,0 -103.4094912,43.8538986,0 -103.4094342,43.8541972,0 -103.4094362,43.8543715,0 -103.4094396,43.8543907,0 -103.40946,43.8545063,0 -103.4095441,43.8546555,0 -103.4095964,43.8547283,0 -103.4097317,43.8548722,0 -103.4099152,43.8549972,0 -103.4100962,43.855081,0 -103.410281,43.8551537,0 -103.4105787,43.8552126,0 -103.410886,43.8552558,0 -103.4114357,43.8553078,0 -103.4116155,43.8553075,0 -103.4117451,43.8552999,0 -103.4118575,43.8552776,0 -103.4122331,43.8551714,0 -103.4123664,43.8551457,0 -103.4124541,43.8551418,0 -103.4125906,43.8551455,0 -103.4127117,43.8551883,0 -103.4127892,43.8552294,0 -103.4128703,43.8552817,0 -103.4129635,43.8553822,0 -103.4130995,43.8554859,0 -103.413221,43.855545,0 -103.4134037,43.8556197,0 -103.4135956,43.8556799,0 -103.413955,43.8557889,0 -103.414102,43.855832,0 -103.4141827,43.8558462,0 -103.4142455,43.8558572,0 -103.4143966,43.8558689,0 -103.4144943,43.8558774,0 -103.4146113,43.8558721,0 -103.4147275,43.8558562,0 -103.4152538,43.8557476,0 -103.4153592,43.8557286,0 -103.4155078,43.8557092,0 -103.415649,43.8557001,0 -103.4158073,43.8557002,0 -103.415971,43.8557181,0 -103.4161235,43.8557384,0 -103.4163339,43.8557919,0 -103.4164979,43.855844,0 -103.416713,43.8559365,0 -103.4172055,43.8561632,0 -103.4174433,43.8562405,0 -103.417675,43.8562774,0 -103.4178619,43.856289,0 -103.4181305,43.8562846,0 -103.4184092,43.8562721,0 -103.4186096,43.8562583,0 -103.4188644,43.8562215,0 -103.4190752,43.8561771,0 -103.41927,43.8561162,0 -103.4198003,43.8559055,0 -103.4199044,43.8558702,0 -103.4200479,43.8558375,0 -103.4202528,43.8558011,0 -103.4204521,43.855782,0 -103.4205799,43.8557853,0 -103.4208235,43.8558043,0 -103.4211441,43.8558496,0 -103.4214215,43.8558555,0 -103.4216248,43.8558238,0 -103.4219417,43.8557963,0 -103.422076,43.8558072,0 -103.4222044,43.855838,0 -103.422282,43.8558845,0 -103.4223661,43.8559488,0 -103.4224415,43.8560254,0 -103.4226822,43.8562855,0 -103.4227548,43.8563411,0 -103.422835,43.8563948,0 -103.422936,43.8564418,0 -103.4230472,43.8564687,0 -103.4232066,43.8564774,0 -103.4233454,43.85646,0 -103.4234651,43.856427,0 -103.4235624,43.8563748,0 -103.4236924,43.8562872,0 -103.4247131,43.8552506,0 -103.4251392,43.8547763,0 -103.4254663,43.8544759,0 -103.4256436,43.8543435,0 -103.4259378,43.8541499,0 -103.4262972,43.853965,0 -103.4265908,43.8538535,0 -103.4267745,43.8537981,0 -103.4269664,43.8537895,0 -103.4271702,43.8538233,0 -103.4273009,43.8538755,0 -103.4274945,43.8540074,0 -103.4277432,43.8541991,0 -103.4278891,43.8543879,0 -103.4279582,43.8545183,0 -103.4282413,43.8552591,0 -103.4283746,43.8555888,0 -103.4288933,43.8564186,0 -103.4293223,43.8575948,0 -103.4296359,43.8584554,0 -103.429879,43.859145,0 -103.4300046,43.85929,0 -103.4301926,43.8593833,0 -103.4305002,43.8594924,0 -103.431059,43.8596944,0 -103.4312021,43.8597712,0 -103.4312902,43.8598185,0 -103.4314453,43.8599162,0 -103.4317172,43.8600874,0 -103.4320531,43.8603154,0 -103.432173,43.8603585,0 -103.4323281,43.8603782,0 -103.4324882,43.8603616,0 -103.4327017,43.8603233,0 -103.4330395,43.8603379,0 -103.4334283,43.860372,0 -103.4336195,43.8603965,0 -103.4337846,43.8604253,0 -103.4340014,43.8605279,0 -103.4340979,43.8605643,0 -103.43417,43.860577,0 -103.4342386,43.8605734,0 -103.4342991,43.8605552,0 -103.4343352,43.8605284,0 -103.4343621,43.8604909,0 -103.4343667,43.8604492,0 -103.4343417,43.8603959,0 -103.4342843,43.8603527,0 -103.4341293,43.8603022,0 -103.4339632,43.8602596,0 -103.4337215,43.8601922,0 -103.4335182,43.8601276,0 -103.4333271,43.860056,0 -103.4331672,43.8599756,0 -103.4329699,43.8598794,0 -103.432752,43.859771,0 -103.4325154,43.8596304,0 -103.4323067,43.8594716,0 -103.4321989,43.8593667,0 -103.4321339,43.8592627,0 -103.4320646,43.8591466,0 -103.4319313,43.8588685,0 -103.4318326,43.8586755,0 -103.4317578,43.8585398,0 -103.4316751,43.8584278,0 -103.4315803,43.8583286,0 -103.4314249,43.8581885,0 -103.4314023,43.8581418,0 -103.4314018,43.8580844,0 -103.4314113,43.8580577,0 -103.4314474,43.8580302,0 -103.4315043,43.8580079,0 -103.4315878,43.8580034,0 -103.4316587,43.858011,0 -103.4317172,43.8580424,0 -103.4317549,43.8580908,0 -103.4318928,43.8583291,0 -103.4320209,43.8584771,0 -103.4323556,43.8587326,0 -103.4327292,43.8589985,0 -103.4329663,43.8591126,0 -103.4331654,43.8591604,0 -103.4333834,43.8591822,0 -103.4335797,43.8591745,0 -103.4337637,43.8591426,0 -103.4339891,43.859049,0 -103.4341161,43.8589709,0 -103.4342182,43.858899,0 -103.4342725,43.8588155,0 -103.4342653,43.8587706,0 -103.4342298,43.8587252,0 -103.4341526,43.8586913,0 -103.4340554,43.8587005,0 -103.4338876,43.8587833,0 -103.4336978,43.8588948,0 -103.4335526,43.8589455,0 -103.4333849,43.8589633,0 -103.4332125,43.8589336,0 -103.4330584,43.8588645,0 -103.4329681,43.8587986,0 -103.4328836,43.8587109,0 -103.4328074,43.858603,0 -103.4325456,43.8581977,0 -103.4323498,43.8580217,0 -103.4322049,43.8579424,0 -103.4321164,43.8578631,0 -103.432103,43.857809,0 -103.4321352,43.857749,0 -103.4321711,43.857721,0 -103.4322287,43.8576963,0 -103.4323094,43.8576919,0 -103.4323873,43.8577026,0 -103.4324517,43.8577509,0 -103.4325992,43.8579405,0 -103.4328084,43.8581068,0 -103.4329931,43.8582671,0 -103.4332242,43.8584723,0 -103.4333127,43.8585323,0 -103.4333788,43.8585399,0 -103.4334361,43.8585342,0 -103.4334937,43.8585063,0 -103.4335284,43.8584734,0 -103.4335416,43.858434,0 -103.433538,43.8583776,0 -103.4334843,43.858277,0 -103.4333958,43.85819,0 -103.4332833,43.8580959,0 -103.4331437,43.8580062,0 -103.4330159,43.8579351,0 -103.4329908,43.8579211,0 -103.4328513,43.8578341,0 -103.4327535,43.8577272,0 -103.4326743,43.8576242,0 -103.4325643,43.8574608,0 -103.4324624,43.8573738,0 -103.4323744,43.8573148,0 -103.4322136,43.8572448,0 -103.4319916,43.8571781,0 -103.4318767,43.8571227,0 -103.4318145,43.8570634,0 -103.4317819,43.857014,0 -103.4317618,43.8569554,0 -103.4317475,43.8568837,0 -103.4317646,43.8567781,0 -103.4317957,43.85673,0 -103.4318363,43.8566859,0 -103.431892,43.8566549,0 -103.4319998,43.8566293,0 -103.4321095,43.856627,0 -103.4321939,43.8566429,0 -103.43237,43.8566985,0 -103.4326589,43.8568169,0 -103.4328133,43.8568723,0 -103.4329177,43.8568926,0 -103.4330227,43.856889,0 -103.4331123,43.8568552,0 -103.4331789,43.8568009,0 -103.4332424,43.856727,0 -103.4333072,43.8565429,0 -103.433366,43.8563194,0 -103.4333989,43.8562213,0 -103.4334476,43.8560956,0 -103.4335261,43.8559119,0 -103.4335625,43.8557553,0 -103.4335615,43.8556505,0 -103.4335464,43.8555816,0 -103.4334861,43.8554281,0 -103.4334016,43.8552714,0 -103.4333296,43.855155,0 -103.4332548,43.855011,0 -103.4332217,43.8548932,0 -103.4332185,43.8548272,0 -103.4332281,43.8547347,0 -103.4332815,43.8545491,0 -103.4333119,43.8543888,0 -103.4333283,43.8541533,0 -103.4333457,43.853959,0 -103.4333771,43.8538449,0 -103.4334442,43.8536888,0 -103.4335078,43.8535937,0 -103.4337172,43.8533392,0 -103.4338378,43.8532205,0 -103.4339169,43.8531656,0 -103.4340055,43.8531151,0 -103.4341638,43.8530774,0 -103.4343061,43.8530692,0 -103.4344737,43.8530843,0 -103.4347021,43.8531255,0 -103.4350899,43.8531944,0 -103.4352667,43.853243,0 -103.4354538,43.8533047,0 -103.4356188,43.8533747,0 -103.4357777,43.8534594,0 -103.4359025,43.85354,0 -103.4359939,43.8536086,0 -103.4360751,43.8536863,0 -103.4361451,43.8537748,0 -103.436297,43.853982,0 -103.4363927,43.8541104,0 -103.4365058,43.8542455,0 -103.436628,43.8543632,0 -103.4368634,43.8545907,0 -103.4369408,43.8546772,0 -103.436979,43.8547376,0 -103.4369602,43.8548543,0 -103.4368977,43.855013,0 -103.4367142,43.8553788,0 -103.436699,43.8554567,0 -103.436683,43.8555627,0 -103.4366907,43.8556972,0 -103.4366912,43.8558392,0 -103.4366773,43.8559649,0 -103.4366317,43.8561629,0 -103.4366298,43.8562402,0 -103.4366401,43.8562917,0 -103.436666,43.856363,0 -103.4369055,43.8568315,0 -103.436971,43.8569613,0 -103.4369994,43.8569944,0 -103.4371039,43.8570905,0 -103.4373023,43.8572579,0 -103.4374022,43.8573559,0 -103.437462,43.8574505,0 -103.4376711,43.8578196,0 -103.4377212,43.8579137,0 -103.4377288,43.85799,0 -103.4377073,43.8580886,0 -103.4376788,43.8581901,0 -103.4376193,43.8583108,0 -103.4376076,43.8583994,0 -103.4376081,43.858483,0 -103.4376669,43.8585757,0 -103.4377077,43.8586158,0 -103.4377685,43.8586547,0 -103.4378705,43.8587101,0 -103.4380408,43.8588057,0 -103.4381329,43.8588918,0 -103.4383211,43.8590531,0 -103.4385418,43.8591543,0 -103.4386616,43.8592143,0 -103.4388568,43.8593115,0 -103.4390887,43.8594694,0 -103.4393108,43.8596553,0 -103.4394487,43.8598064,0 -103.4395977,43.8599794,0 -103.4396949,43.8601347,0 -103.4397367,43.8602982,0 -103.4398183,43.8604248,0 -103.439888,43.8604983,0 -103.4399953,43.860564,0 -103.4401133,43.8606027,0 -103.4402581,43.8606298,0 -103.4412506,43.8607458,0 -103.4415939,43.8608116,0 -103.4417119,43.8608425,0 -103.4418246,43.860885,0 -103.441905,43.8609392,0 -103.4419426,43.8610088,0 -103.4419426,43.8611365,0 -103.4419158,43.8613028,0 -103.4418859,43.8614363,0 -103.4417012,43.8617553,0 -103.4415027,43.8621228,0 -103.4413739,43.8625327,0 -103.4412452,43.8627107,0 -103.4411057,43.8628383,0 -103.440937,43.862923,0 -103.4407678,43.862993,0 -103.4405639,43.8630355,0 -103.4403172,43.8630549,0 -103.4400382,43.8630394,0 -103.4398505,43.8630007,0 -103.4394964,43.8629156,0 -103.4393194,43.8628306,0 -103.439196,43.8627377,0 -103.4390565,43.862583,0 -103.4389752,43.862361,0 -103.4389063,43.8621653,0 -103.4388205,43.8620299,0 -103.4387454,43.8619564,0 -103.4386703,43.8619216,0 -103.4385844,43.86191,0 -103.4384986,43.8619255,0 -103.4384503,43.8619371,0 -103.4384143,43.861963,0 -103.4383668,43.8620018,0 -103.4383267,43.8620499,0 -103.4382883,43.8621223,0 -103.4382755,43.8621592,0 -103.4382454,43.8621829,0 -103.4382216,43.862198,0 -103.4381835,43.8622146,0 -103.4381522,43.8622198,0 -103.4381102,43.8622178,0 -103.4380472,43.8622119,0 -103.4379595,43.8621862,0 -103.4375888,43.8618688,0 -103.4374207,43.8617305,0 -103.4373734,43.8616723,0 -103.4373645,43.8616411,0 -103.4373619,43.8616061,0 -103.4373655,43.8615767,0 -103.437368,43.8615508,0 -103.4373792,43.8615245,0 -103.4373953,43.8614995,0 -103.4374219,43.8614802,0 -103.437475,43.8614644,0 -103.4375334,43.8614635,0 -103.4375778,43.8614749,0 -103.4376453,43.8615109,0 -103.4376759,43.8615413,0 -103.4376994,43.8615684,0 -103.4377213,43.8616148,0 -103.4377215,43.8616597,0 -103.4377232,43.861699,0 -103.437694,43.8617692,0 -103.4376562,43.861808,0 -103.4374901,43.8619308,0 -103.4374537,43.8619595,0 -103.4374256,43.8620102,0 -103.4374099,43.8620793,0 -103.437417,43.8621627,0 -103.4374379,43.8622113,0 -103.4374927,43.8622818,0 -103.4375353,43.8623401,0 -103.4375657,43.8623895,0 -103.437707,43.8627007,0 -103.437741,43.8628647,0 -103.4377264,43.8630568,0 -103.4376997,43.8633839,0 -103.4375316,43.8637533,0 -103.4374894,43.8638991,0 -103.4374361,43.8640718,0 -103.437247,43.8644667,0 -103.4371905,43.8646334,0 -103.4371798,43.8646924,0 -103.4371718,43.8647553,0 -103.4371741,43.8648255,0 -103.437182,43.8649727,0 -103.4371778,43.8650494,0 -103.4371604,43.8651024,0 -103.4371223,43.8651851,0 -103.4370259,43.8653203,0 -103.4369704,43.8653707,0 -103.4369232,43.8654098,0 -103.43682,43.8654679,0 -103.4367142,43.8655158,0 -103.4366455,43.8655392,0 -103.4364912,43.8655898,0 -103.4363932,43.8656177,0 -103.4362821,43.8656475,0 -103.4361846,43.8656746,0 -103.4361012,43.8657085,0 -103.4360218,43.8657535,0 -103.4359364,43.8657971,0 -103.4358575,43.8658266,0 -103.4357877,43.8658538,0 -103.4354228,43.8659522,0 -103.4353037,43.8659881,0 -103.4351523,43.8660492,0 -103.4348107,43.8662213,0 -103.4347175,43.8662705,0 -103.4346325,43.8663191,0 -103.4345603,43.8663815,0 -103.434531,43.8664236,0 -103.4345115,43.8664749,0 -103.4345012,43.8665264,0 -103.4345092,43.8666193,0 -103.4345144,43.8666686,0 -103.4345006,43.8667233,0 -103.434473,43.8667726,0 -103.4344179,43.8668711,0 -103.4343209,43.8669863,0 -103.4342477,43.8670929,0 -103.4341023,43.8673014,0 -103.4339492,43.8675142,0 -103.4339199,43.8675575,0 -103.4338798,43.8676257,0 -103.4338736,43.8676683,0 -103.4338742,43.8677044,0 -103.4338817,43.8677443,0 -103.4338959,43.8677951,0 -103.4339325,43.8678336,0 -103.4339728,43.8678727,0 -103.434087,43.8679287,0 -103.4343256,43.8680276,0 -103.4345455,43.8681178,0 -103.4350623,43.8683353,0 -103.4351481,43.8683643,0 -103.4352515,43.8683648,0 -103.4353645,43.8683319,0 -103.4354729,43.8682855,0 -103.4355423,43.8682646,0 -103.4356139,43.8682501,0 -103.4357146,43.8682465,0 -103.4359458,43.8682547,0 -103.4361811,43.8682618,0 -103.4364466,43.8682701,0 -103.4366631,43.8682592,0 -103.4368865,43.8682504,0 -103.4371129,43.8682297,0 -103.4373227,43.8681923,0 -103.4374392,43.8681689,0 -103.4375168,43.8681402,0 -103.4376066,43.8681013,0 -103.4377392,43.8680581,0 -103.4378005,43.8680506,0 -103.437869,43.8680562,0 -103.4379429,43.8680746,0 -103.4380161,43.8681139,0 -103.4380586,43.8681704,0 -103.4380632,43.8681983,0 -103.4380637,43.8682276,0 -103.4380487,43.8682774,0 -103.4380131,43.8683285,0 -103.4379366,43.8683793,0 -103.4376265,43.8685747,0 -103.4374605,43.8686643,0 -103.4373821,43.8687029,0 -103.4373035,43.8687242,0 -103.4372017,43.8687436,0 -103.4371088,43.8687499,0 -103.4369839,43.8687422,0 -103.4366675,43.8687132,0 -103.436546,43.868695,0 -103.4363456,43.8686417,0 -103.4362381,43.8686065,0 -103.4360966,43.8685841,0 -103.4359719,43.8685681,0 -103.4358774,43.8685704,0 -103.4357803,43.8685816,0 -103.4355437,43.8686205,0 -103.4351442,43.8687077,0 -103.4349071,43.8687547,0 -103.4348193,43.8687911,0 -103.4347504,43.8688394,0 -103.4347013,43.8689086,0 -103.4346848,43.8689671,0 -103.4346754,43.8690158,0 -103.4346751,43.869051,0 -103.4346763,43.8690803,0 -103.434708,43.8691669,0 -103.4347486,43.8692352,0 -103.434787,43.8692855,0 -103.4348387,43.8693301,0 -103.4348817,43.8693635,0 -103.4349676,43.8694125,0 -103.4350453,43.8694377,0 -103.4351371,43.8694528,0 -103.4352678,43.8694584,0 -103.4353506,43.8694537,0 -103.4354329,43.8694523,0 -103.4354996,43.8694416,0 -103.4355639,43.8694275,0 -103.4356126,43.8694115,0 -103.435675,43.8693772,0 -103.4357191,43.8693426,0 -103.4357592,43.8692924,0 -103.4357803,43.8692404,0 -103.4357822,43.8691852,0 -103.4357711,43.8691353,0 -103.435751,43.869099,0 -103.4357129,43.8690585,0 -103.4356834,43.8690334,0 -103.4356256,43.8690081,0 -103.4355456,43.8689929,0 -103.4354725,43.868991,0 -103.4354004,43.8690114,0 -103.4353534,43.8690399,0 -103.4353129,43.8690795,0 -103.4353009,43.869139,0 -103.4353188,43.869198,0 -103.4353401,43.8692307,0 -103.4353766,43.869258,0 -103.4354714,43.8693083,0 -103.4355752,43.8693633,0 -103.4356599,43.8694079,0 -103.4357569,43.8694479,0 -103.4358471,43.8694577,0 -103.4359373,43.8694447,0 -103.4361701,43.8693706,0 -103.4363093,43.8693363,0 -103.4364389,43.8693299,0 -103.4365679,43.8693369,0 -103.4366604,43.8693514,0 -103.4368344,43.8693853,0 -103.4372832,43.8694957,0 -103.4373972,43.8695291,0 -103.4375252,43.8695758,0 -103.4376224,43.8696223,0 -103.4377162,43.8696897,0 -103.4378022,43.8697784,0 -103.4378578,43.8698583,0 -103.4379653,43.8700163,0 -103.4381055,43.8702249,0 -103.4381996,43.8703378,0 -103.4383003,43.870439,0 -103.4384171,43.8705558,0 -103.4384981,43.8706752,0 -103.4385368,43.8707674,0 -103.438551,43.8709019,0 -103.4385628,43.8711077,0 -103.4385415,43.8713686,0 -103.4385177,43.871521,0 -103.4384668,43.8716717,0 -103.4383804,43.8719142,0 -103.4382465,43.8721996,0 -103.4381816,43.8723726,0 -103.4380957,43.8725582,0 -103.4380198,43.8727059,0 -103.4378732,43.8729004,0 -103.4377221,43.8730921,0 -103.4376378,43.8732165,0 -103.4376087,43.8732856,0 -103.4375897,43.8733574,0 -103.437592,43.8734807,0 -103.4376207,43.873574,0 -103.4376664,43.8736442,0 -103.4377192,43.8736984,0 -103.4377711,43.8737431,0 -103.4378407,43.8737847,0 -103.4381018,43.8738959,0 -103.4383984,43.8740091,0 -103.4388278,43.8741783,0 -103.4392181,43.8743405,0 -103.4394878,43.874463,0 -103.4396776,43.874559,0 -103.4397326,43.8746093,0 -103.4397745,43.8746547,0 -103.4398001,43.8746939,0 -103.4398124,43.8747374,0 -103.4398139,43.8747914,0 -103.4398057,43.8748294,0 -103.439792,43.8748643,0 -103.439776,43.8748962,0 -103.4397292,43.8749586,0 -103.4396622,43.8749988,0 -103.4395983,43.8750238,0 -103.4395298,43.8750314,0 -103.439457,43.8750343,0 -103.4393867,43.875028,0 -103.4393196,43.8750127,0 -103.4392621,43.8749955,0 -103.4392019,43.8749631,0 -103.4391545,43.8749166,0 -103.4391116,43.8748553,0 -103.4390906,43.8748025,0 -103.4390904,43.8747469,0 -103.4391305,43.8747,0 -103.4391891,43.8746703,0 -103.439254,43.8746626,0 -103.4393365,43.8746769,0 -103.4393953,43.8747051,0 -103.4394311,43.8747303,0 -103.4394633,43.8747748,0 -103.439496,43.8748286,0 -103.4395187,43.8749065,0 -103.4395384,43.874971,0 -103.4395705,43.8750908,0 -103.439669,43.8754117,0 -103.4397196,43.8755795,0 -103.439743,43.87572,0 -103.4397372,43.8758217,0 -103.4397252,43.875917,0 -103.4396978,43.8760205,0 -103.439654,43.8761204,0 -103.4396029,43.8762058,0 -103.4391966,43.8767453,0 -103.4389149,43.8771024,0 -103.4384996,43.8776008,0 -103.4383699,43.8777513,0 -103.4382283,43.8778742,0 -103.437906,43.8780994,0 -103.4376345,43.8782947,0 -103.4373112,43.8785407,0 -103.437161,43.8786878,0 -103.4370809,43.8787771,0 -103.4370255,43.8788443,0 -103.4368171,43.8791584,0 -103.436666,43.8794328,0 -103.4365475,43.8796627,0 -103.4365212,43.8797625,0 -103.4365183,43.8798455,0 -103.4365402,43.879919,0 -103.4365752,43.8799841,0 -103.4366509,43.8800482,0 -103.43675,43.8801102,0 -103.4368331,43.8801449,0 -103.4369628,43.8801848,0 -103.4375531,43.8802835,0 -103.4377688,43.8803402,0 -103.4379029,43.8803938,0 -103.4379519,43.8804221,0 -103.4380209,43.8804579,0 -103.4380836,43.8805062,0 -103.4381361,43.880564,0 -103.4381739,43.8806239,0 -103.4381871,43.8806932,0 -103.4381754,43.8807657,0 -103.4381419,43.8808266,0 -103.4380923,43.880877,0 -103.4380326,43.8809096,0 -103.4379655,43.8809401,0 -103.4378998,43.8809518,0 -103.437795,43.8809663,0 -103.4376424,43.8809629,0 -103.4375458,43.8809663,0 -103.4374307,43.8809968,0 -103.4373126,43.8810451,0 -103.4370328,43.8812888,0 -103.4365737,43.8817153,0 -103.436511,43.881813,0 -103.4364688,43.8819107,0 -103.4364469,43.8820021,0 -103.436444,43.8820966,0 -103.4364688,43.8822395,0 -103.4365023,43.8823099,0 -103.4365591,43.8823761,0 -103.4366335,43.882437,0 -103.4367588,43.882499,0 -103.4369453,43.8825631,0 -103.4373112,43.8826891,0 -103.4374744,43.8827374,0 -103.4376289,43.8827984,0 -103.4377323,43.8828614,0 -103.4377746,43.8829013,0 -103.437814,43.8829601,0 -103.4378225,43.8830264,0 -103.4377982,43.8831172,0 -103.4377461,43.8831873,0 -103.4376799,43.8832395,0 -103.437591,43.8832847,0 -103.4374844,43.8833136,0 -103.4372899,43.883343,0 -103.4371483,43.8833845,0 -103.4370019,43.8834468,0 -103.4369515,43.8835056,0 -103.4368866,43.8835835,0 -103.436817,43.8837202,0 -103.4367474,43.8839001,0 -103.4367114,43.8841008,0 -103.4366058,43.8845126,0 -103.4364242,43.8853022,0 -103.4363461,43.8854776,0 -103.43624,43.8858761,0 -103.4361304,43.8861194,0 -103.4359369,43.8864922,0 -103.4355327,43.8869248,0 -103.435201,43.8872194,0 -103.43503,43.8873102,0 -103.4348924,43.8873594,0 -103.4347327,43.8873943,0 -103.4345715,43.8874095,0 -103.4343854,43.8873979,0 -103.4342291,43.8873732,0 -103.433837,43.8872415,0 -103.4335167,43.887218,0 -103.4332919,43.8872222,0 -103.4325911,43.8873142,0 -103.4323789,43.8873186,0 -103.4318729,43.8872886,0 -103.431521,43.8872865,0 -103.431227,43.8873087,0 -103.4299246,43.8875137,0 -103.4295551,43.8875321,0 -103.4291837,43.8875389,0 -103.4282605,43.8875538,0 -103.4274317,43.8875689,0 -103.4268693,43.8875827,0 -103.4266314,43.8875933,0 -103.4264283,43.8876199,0 -103.4262214,43.8876741,0 -103.4260507,43.8877496,0 -103.4259607,43.8878096,0 -103.4258761,43.887876,0 -103.4258311,43.887919,0 -103.425337,43.8884643,0 -103.4252526,43.8885599,0 -103.425157,43.8886792,0 -103.4251068,43.8887813,0 -103.4250754,43.8888872,0 -103.42507,43.8889951,0 -103.4250862,43.8891051,0 -103.4251216,43.8891912,0 -103.4251853,43.889289,0 -103.4252759,43.8893833,0 -103.4254015,43.8894723,0 -103.4255075,43.8895249,0 -103.4256586,43.8895851,0 -103.4258704,43.8896463,0 -103.42604,43.889684,0 -103.4265121,43.8897355,0 -103.4270861,43.8897901,0 -103.4272586,43.8898255,0 -103.4274258,43.8898924,0 -103.4275552,43.8899715,0 -103.4276911,43.8900954,0 -103.4277825,43.8902427,0 -103.4278288,43.8903771,0 -103.4278479,43.8904545,0 -103.4278818,43.8906759,0 -103.4278759,43.8908393,0 -103.4278514,43.8909483,0 -103.4278143,43.8910484,0 -103.4277538,43.8911643,0 -103.4276685,43.8912847,0 -103.427511,43.8914252,0 -103.4273224,43.891543,0 -103.4268565,43.8917691,0 -103.4267515,43.8918247,0 -103.4264202,43.8920009,0 -103.4263398,43.8920895,0 -103.4259928,43.8926322,0 -103.4256377,43.893192,0 -103.4255459,43.8933393,0 -103.4254998,43.8934228,0 -103.4254213,43.8935671,0 -103.4254002,43.8936118,0 -103.4252925,43.8938594,0 -103.4252326,43.8940507,0 -103.425207,43.8942526,0 -103.4252069,43.894442,0 -103.4252278,43.894643,0 -103.4252379,43.8947617,0 -103.4254359,43.8952533,0 -103.4256901,43.8959641,0 -103.4258235,43.8962606,0 -103.4259194,43.8964428,0 -103.4260421,43.8966109,0 -103.4261634,43.8967595,0 -103.4263181,43.8969057,0 -103.4265591,43.8970946,0 -103.4268033,43.8972375,0 -103.427105,43.89736,0 -103.4274011,43.8974709,0 -103.4277252,43.8976019,0 -103.4280074,43.8977517,0 -103.4282098,43.8978968,0 -103.4284141,43.8980712,0 -103.4286169,43.8982808,0 -103.4287422,43.8984797,0 -103.4288458,43.8986592,0 -103.4289433,43.8989165,0 -103.4289846,43.8991378,0 -103.4290242,43.8993436,0 -103.4290575,43.8996357,0 -103.429137,43.8999144,0 -103.4292071,43.9000701,0 -103.4292869,43.9002534,0 -103.4295053,43.9006024,0 -103.42977,43.9009171,0 -103.429894,43.9010784,0 -103.430019,43.9012493,0 -103.4301454,43.9014303,0 -103.4302792,43.901634,0 -103.4303552,43.9017635,0 -103.4303994,43.9019151,0 -103.4304375,43.9020698,0 -103.4304519,43.9022172,0 -103.4304259,43.9024322,0 -103.430316,43.9028645,0 -103.4302398,43.9031735,0 -103.4302169,43.9033775,0 -103.4302289,43.9035607,0 -103.4302474,43.9036983,0 -103.4302952,43.9038685,0 -103.4303691,43.9040367,0 -103.4304739,43.9042192,0 -103.4312661,43.9051925,0 -103.4315651,43.9054873,0 -103.4318757,43.9057383,0 -103.4322937,43.9059663,0 -103.4328104,43.9061723,0 -103.4338264,43.9063877,0 -103.4350965,43.9066313,0 -103.4357378,43.9068039,0 -103.4362952,43.9070862,0 -103.4367291,43.907471,0 -103.437051,43.907917,0 -103.437146,43.90842,0 -103.4370854,43.9091226,0 -103.4371297,43.9095508,0 -103.437224,43.9099481,0 -103.4376674,43.9107454,0 -103.4378457,43.9110893,0 -103.437951,43.9114473,0 -103.4381307,43.9125588,0 -103.438236,43.9129269,0 -103.4384044,43.9132738,0 -103.438622,43.913562,0 -103.4388719,43.9138159,0 -103.4393491,43.9142545,0 -103.4397676,43.914629,0 -103.4400779,43.9149738,0 -103.4405655,43.9156644,0 -103.4410203,43.916377,0 -103.4412955,43.9168161,0 -103.4415534,43.9171865,0 -103.4416994,43.9174633,0 -103.4417505,43.9176006,0 -103.4418084,43.9178557,0 -103.4418288,43.9180838,0 -103.4418096,43.9186997,0 -103.4417913,43.9188832,0 -103.4417811,43.919099,0 -103.4418288,43.9194987,0 -103.4420671,43.9200628,0 -103.4422577,43.9203717,0 -103.4423903,43.9206792,0 -103.442477,43.9208145,0 -103.4425078,43.9209798,0 -103.4425352,43.9214238,0 -103.442629,43.9221671,0 -103.4426516,43.9224303,0 -103.4426878,43.9226874,0 -103.4427878,43.9229312,0 -103.4428468,43.9230865,0 -103.4429646,43.9232483,0 -103.4431756,43.9235601,0 -103.4432368,43.9237394,0 -103.4432654,43.9238547,0 -103.4432518,43.9240181,0 -103.4431974,43.9241898,0 -103.4431191,43.9243516,0 -103.4430408,43.9244472,0 -103.4429284,43.9245698,0 -103.4427752,43.9246851,0 -103.4426186,43.9247782,0 -103.4424416,43.9248445,0 -103.4422646,43.9249082,0 -103.4420943,43.9249548,0 -103.4418526,43.9249744,0 -103.441536,43.9249646,0 -103.4413011,43.9249131,0 -103.4410696,43.9248396,0 -103.4405045,43.9245943,0 -103.4401504,43.9244717,0 -103.4396942,43.9243639,0 -103.4394014,43.9243344,0 -103.4391837,43.924359,0 
			</coordinates>
		</LineString>
		<atom:link rel="app" href="https://www.google.com/earth/about/versions/#earth-pro" title="Google Earth Pro 7.3.6.10201"></atom:link>
	</Placemark>
</Document>
</kml>
