<?xml version="1.0" encoding="UTF-8"?>
<kml xmlns="http://www.opengis.net/kml/2.2" xmlns:gx="http://www.google.com/kml/ext/2.2" xmlns:kml="http://www.opengis.net/kml/2.2" xmlns:atom="http://www.w3.org/2005/Atom">
<Document>
	<name>US.192.kml</name>
	<Placemark>
		<name>US.192</name>
			<LineString>
				<coordinates>
					-81.67086430000001,28.3468988,0 -81.67022299999999,28.3469014,0 -81.66934790000001,28.3469049,0 -81.66892970000001,28.3469032,0 -81.6678964,28.346906,0 -81.6677225,28.3469068,0 -81.66698150000001,28.3469102,0 -81.6659896,28.3469145,0 -81.665359,28.3469173,0 -81.6643632,28.3469194,0 -81.6642449,28.3469191,0 -81.66332730000001,28.3469221,0 -81.66324609999999,28.3469223,0 -81.6621109,28.346926,0 -81.66205650000001,28.3469262,0 -81.6615948,28.3469284,0 -81.66149299999999,28.3469289,0 -81.6613395,28.3469297,0 -81.66096520000001,28.3469315,0 -81.6605234,28.3469324,0 -81.6603673,28.3469327,0 -81.66008770000001,28.3469329,0 -81.65977169999999,28.3469335,0 -81.65966419999999,28.3469342,0 -81.6592902,28.3469369,0 -81.658974,28.3469391,0 -81.6586594,28.3469404,0 -81.6584093,28.3469415,0 -81.6583341,28.3469418,0 -81.6580778,28.3469428,0 -81.6577721,28.3469439,0 -81.6576125,28.3469445,0 -81.65729570000001,28.3469468,0 -81.65722460000001,28.3469456,0 -81.65625780000001,28.3469454,0 -81.65574359999999,28.3469453,0 -81.65527729999999,28.3469368,0 -81.65462599999999,28.3469255,0 -81.6542907,28.3469171,0 -81.65246519999999,28.3468587,0 -81.65156279999999,28.3468299,0 -81.6512484,28.3468224,0 -81.6495085,28.3467747,0 -81.649091,28.3467651,0 -81.6487753,28.3467595,0 -81.64844050000001,28.3467563,0 -81.6482322,28.3467547,0 -81.6479769,28.3467531,0 -81.6466212,28.3467589,0 -81.6454603,28.3467638,0 -81.6439202,28.3467734,0 -81.6434608,28.3467762,0 -81.64341829999999,28.3467765,0 -81.6426716,28.3467811,0 -81.64071079999999,28.3467917,0 -81.6402765,28.3467941,0 -81.6387898,28.3468021,0 -81.63869649999999,28.3468026,0 -81.6385542,28.3468047,0 -81.6384417,28.3468054,0 -81.6365873,28.3468168,0 -81.6349811,28.3468277,0 -81.6347899,28.346829,0 -81.63471680000001,28.3468295,0 -81.6346437,28.3468299,0 -81.6343877,28.3468314,0 -81.6334063,28.34683709999999,0 -81.6332165,28.346838,0 -81.6330196,28.34684,0 -81.6323683,28.3468459,0 -81.631567,28.3468523,0 -81.6314694,28.3468592,0 -81.6313445,28.34686,0 -81.6311046,28.3468615,0 -81.6308646,28.3468629,0 -81.63036990000001,28.3468682,0 -81.6297277,28.3468751,0 -81.6295868,28.346877,0 -81.6294408,28.3468792,0 -81.62868690000001,28.3468904,0 -81.62785119999999,28.3469029,0 -81.62745409999999,28.3469088,0 -81.626144,28.3469252,0 -81.62401300000001,28.346952,0 -81.62386549999999,28.3469556,0 -81.6227176,28.3469558,0 -81.62162410000001,28.3469525,0 -81.6195472,28.3469452,0 -81.6185941,28.3469353,0 -81.61847880000001,28.3469335,0 -81.6180231,28.3469266,0 -81.6177644,28.3469226,0 -81.6172596,28.3469109,0 -81.6158846,28.3469096,0 -81.6152127,28.3469089,0 -81.614863,28.3469098,0 -81.6139039,28.3469298,0 -81.6129428,28.3469305,0 -81.6128355,28.3469287,0 -81.61267429999999,28.3469261,0 -81.61109980000001,28.3469309,0 -81.6103983,28.3469439,0 -81.6096106,28.3469551,0 -81.60952690000001,28.3469563,0 -81.6086816,28.3469649,0 -81.60857489999999,28.3469609,0 -81.60851769999999,28.3469587,0 -81.6081755,28.3469457,0 -81.6078972,28.3469308,0 -81.60786349999999,28.3469279,0 -81.6076046,28.3469053,0 -81.6072923,28.3468637,0 -81.6069964,28.3468162,0 -81.60659510000001,28.3467354,0 -81.60622720000001,28.3466476,0 -81.6058393,28.3465414,0 -81.6056226,28.3464764,0 -81.6054812,28.3464287,0 -81.6052789,28.3463562,0 -81.6049747,28.346236,0 -81.604534,28.3460447,0 -81.60411620000001,28.3458384,0 -81.6040187,28.3457821,0 -81.60358909999999,28.345534,0 -81.6032247,28.3452891,0 -81.60287529999999,28.345041,0 -81.6025327,28.3447643,0 -81.60220150000001,28.3444836,0 -81.6008825,28.3433585,0 -81.60082490000001,28.343311,0 -81.60063959999999,28.3431514,0 -81.5999207,28.3425437,0 -81.59981430000001,28.3424503,0 -81.59925010000001,28.341972,0 -81.59908489999999,28.3418319,0 -81.59846520000001,28.3413026,0 -81.59792469999999,28.3408463,0 -81.5970916,28.3401431,0 -81.59702040000001,28.3400805,0 -81.5969138,28.3399922,0 -81.5968108,28.3399052,0 -81.5954011,28.3387013,0 -81.59533810000001,28.3386487,0 -81.5950361,28.3383976,0 -81.5943544,28.3378128,0 -81.5937441,28.3372927,0 -81.59291090000001,28.3365843,0 -81.59241900000001,28.3361673,0 -81.5920773,28.3358777,0 -81.5917738,28.3356183,0 -81.5916477,28.3355116,0 -81.5915218,28.33540500000001,0 -81.59132820000001,28.335238,0 -81.59102110000001,28.3349783,0 -81.5908407,28.3348243,0 -81.59054690000001,28.3345751,0 -81.59028910000001,28.33437,0 -81.59003319999999,28.3341825,0 -81.5897488,28.3339817,0 -81.5896899,28.3339449,0 -81.5895414,28.3338522,0 -81.58935630000001,28.3337455,0 -81.5890564,28.3335759,0 -81.5887147,28.3334017,0 -81.58844360000001,28.3332749,0 -81.5883728,28.3332444,0 -81.5881519,28.3331491,0 -81.5879233,28.3330615,0 -81.58769650000001,28.3329791,0 -81.5875806,28.3329386,0 -81.587498,28.3329115,0 -81.5874297,28.3328891,0 -81.5873344,28.3328581,0 -81.5869533,28.332751,0 -81.58635839999999,28.3326129,0 -81.5859913,28.3325433,0 -81.5856071,28.3324924,0 -81.5853498,28.3324646,0 -81.585093,28.3324422,0 -81.5848405,28.3324295,0 -81.58454450000001,28.3324199,0 -81.583885,28.3324173,0 -81.58373419999999,28.33241810000001,0 -81.5835596,28.3324192,0 -81.5831362,28.3324197,0 -81.5825253,28.3324205,0 -81.58143990000001,28.3324404,0 -81.5812155,28.3324438,0 -81.5803884,28.33244789999999,0 -81.57972049999999,28.3324489,0 -81.5780738,28.3324511,0 -81.57691509999999,28.3324566,0 -81.576759,28.3324574,0 -81.5685557,28.3324867,0 -81.5674994,28.3324901,0 -81.56248119999999,28.3325114,0 -81.5593051,28.3325215,0 -81.5580439,28.332528,0 -81.5558376,28.3325377,0 -81.5551203,28.3325444,0 -81.5540752,28.3325541,0 -81.5538243,28.3325564,0 -81.5492878,28.3325876,0 -81.5489274,28.332587,0 -81.5485553,28.3325811,0 -81.54817389999999,28.3325691,0 -81.5478021,28.33255,0 -81.54743360000001,28.3325246,0 -81.5471869,28.3325038,0 -81.5470474,28.3324921,0 -81.5462873,28.3324243,0 -81.5460226,28.3324122,0 -81.54596359999999,28.3324095,0 -81.5456136,28.3324029,0 -81.54525820000001,28.3324055,0 -81.5449021,28.3324141,0 -81.54446710000001,28.3324401,0 -81.54408650000001,28.3324736,0 -81.54355820000001,28.3325336,0 -81.5431674,28.3325723,0 -81.54274460000001,28.332604,0 -81.54232759999999,28.3326249,0 -81.5418801,28.3326381,0 -81.5414576,28.3326459,0 -81.5382757,28.3326559,0 -81.5360393,28.3326646,0 -81.53564950000001,28.3326662,0 -81.5348386,28.3326694,0 -81.5347017,28.33267,0 -81.5345629,28.3326712,0 -81.5344571,28.3326718,0 -81.53381659999999,28.3326765,0 -81.53317610000001,28.3326812,0 -81.5326544,28.332685,0 -81.5325826,28.3326855,0 -81.53223730000001,28.332688,0 -81.53141960000001,28.332694,0 -81.5312788,28.3326951,0 -81.5312364,28.3326948,0 -81.53113879999999,28.332694,0 -81.5307641,28.3326949,0 -81.52956279999999,28.3326869,0 -81.52923970000001,28.3326848,0 -81.5291265,28.3326841,0 -81.5283567,28.3326856,0 -81.52797769999999,28.3326876,0 -81.5278394,28.3326883,0 -81.5277533,28.3326888,0 -81.52755449999999,28.3326898,0 -81.5274277,28.3326904,0 -81.5270785,28.3326943,0 -81.5264389,28.3327014,0 -81.5259873,28.3327064,0 -81.5258931,28.3327075,0 -81.5256787,28.332712,0 -81.52531500000001,28.3327239,0 -81.5249245,28.3327226,0 -81.52488959999999,28.3327227,0 -81.5247195,28.3327229,0 -81.5240757,28.3327182,0 -81.52276430000001,28.3327184,0 -81.5225614,28.3327184,0 -81.5224127,28.3327196,0 -81.5221714,28.3327215,0 -81.5211441,28.3327212,0 -81.5210227,28.3327227,0 -81.52082540000001,28.332726,0 -81.5202111,28.3327287,0 -81.5198372,28.3327328,0 -81.519745,28.3327329,0 -81.51928909999999,28.3327337,0 -81.5190309,28.3327386,0 -81.5180477,28.3327377,0 -81.51787849999999,28.3327384,0 -81.5175756,28.3327408,0 -81.51662930000001,28.3327485,0 -81.5165643,28.332749,0 -81.5158658,28.3327505,0 -81.514731,28.3327574,0 -81.5141558,28.3327522,0 -81.5140043,28.3327527,0 -81.5130097,28.3327619,0 -81.5127912,28.3327639,0 -81.5120703,28.33275920000001,0 -81.51192589999999,28.33275950000001,0 -81.51174229999999,28.33276,0 -81.5116159,28.3327602,0 -81.5110178,28.3327628,0 -81.5108917,28.3327633,0 -81.51083490000001,28.3327636,0 -81.5105973,28.3327646,0 -81.5084196,28.3327741,0 -81.5073599,28.3327705,0 -81.50677880000001,28.3327733,0 -81.5065681,28.3327744,0 -81.5044458,28.3327847,0 -81.5037269,28.3327882,0 -81.5031065,28.3327893,0 -81.50294340000001,28.3327896,0 -81.5028192,28.3327898,0 -81.5020131,28.3327938,0 -81.50189349999999,28.3327932,0 -81.5007243,28.3327991,0 -81.4996922,28.3327992,0 -81.49866969999999,28.3328042,0 -81.49841859999999,28.3328053,0 -81.4982856,28.3328059,0 -81.49753819999999,28.3328089,0 -81.4968616,28.3328097,0 -81.4966725,28.3328101,0 -81.49648259999999,28.3328102,0 -81.4960389,28.3328124,0 -81.4957096,28.3328132,0 -81.49544400000001,28.3328142,0 -81.49485199999999,28.3328165,0 -81.494643,28.3328173,0 -81.49449370000001,28.3328179,0 -81.4942276,28.3328189,0 -81.4935942,28.3328177,0 -81.49220200000001,28.332823,0 -81.4919895,28.3328234,0 -81.4915878,28.3328252,0 -81.4912004,28.3328249,0 -81.4910854,28.3328248,0 -81.4908289,28.3328245,0 -81.49005289999999,28.3328291,0 -81.4898097,28.3328302,0 -81.48964410000001,28.3328313,0 -81.4894924,28.3328324,0 -81.4893634,28.3328333,0 -81.4889513,28.3328332,0 -81.48633220000001,28.3328326,0 -81.4861195,28.3328347,0 -81.4853724,28.3328338,0 -81.4852456,28.3328351,0 -81.48449050000001,28.3328399,0 -81.484133,28.3328422,0 -81.4835903,28.3328441,0 -81.4832863,28.3328432,0 -81.4829524,28.3328422,0 -81.4828225,28.3328418,0 -81.4826394,28.3328418,0 -81.4822824,28.3328417,0 -81.4817594,28.3328432,0 -81.4813834,28.3328465,0 -81.4810075,28.3328498,0 -81.48047440000001,28.3328544,0 -81.47982090000001,28.3328502,0 -81.4796351,28.3328525,0 -81.4786904,28.3328492,0 -81.47845820000001,28.3328504,0 -81.4781255,28.3328397,0 -81.47780330000001,28.3328117,0 -81.4777052,28.3327989,0 -81.4774836,28.33277,0 -81.4773173,28.3327423,0 -81.47723259999999,28.3327282,0 -81.4771166,28.3327022,0 -81.4770005,28.3326762,0 -81.4767008,28.3325864,0 -81.4765103,28.3325252,0 -81.4762094,28.3324197,0 -81.4759524,28.332311,0 -81.4759277,28.3322993,0 -81.4757901,28.3322344,0 -81.4757298,28.332206,0 -81.47568130000001,28.3321814,0 -81.4755617,28.3321207,0 -81.47548449999999,28.3320815,0 -81.47541339999999,28.3320421,0 -81.4751461,28.3318775,0 -81.4750758,28.3318287,0 -81.4748891,28.3316991,0 -81.4746409,28.3315114,0 -81.4744094,28.3313111,0 -81.4741877,28.3310978,0 -81.473968,28.3308595,0 -81.473877,28.3307545,0 -81.4737658,28.3306242,0 -81.4732831,28.3300586,0 -81.47317839999999,28.3299373,0 -81.4723381,28.3289521,0 -81.4721804,28.3287673,0 -81.4720848,28.3286552,0 -81.47189229999999,28.3284271,0 -81.4717,28.3281784,0 -81.4715602,28.3279825,0 -81.4714153,28.3277313,0 -81.47127209999999,28.3274593,0 -81.47115239999999,28.3271994,0 -81.4710425,28.3269075,0 -81.4709914,28.3267414,0 -81.47094540000001,28.3265781,0 -81.4709141,28.3264336,0 -81.4708964,28.3263523,0 -81.4708503,28.3260941,0 -81.4708158,28.3257834,0 -81.47081319999999,28.3256887,0 -81.4708114,28.3253862,0 -81.47082140000001,28.3251711,0 -81.47083960000001,28.3248383,0 -81.47085800000001,28.3244947,0 -81.47087139999999,28.3242694,0 -81.4709163,28.3235339,0 -81.4709589,28.3228527,0 -81.4709737,28.3226067,0 -81.4709974,28.3221934,0 -81.4710084,28.3219038,0 -81.47100620000001,28.3216956,0 -81.4710036,28.3215504,0 -81.47097549999999,28.3211939,0 -81.470938,28.3208429,0 -81.4708856,28.3205284,0 -81.4707961,28.3201241,0 -81.4707188,28.3198348,0 -81.4706731,28.3196848,0 -81.470646,28.3195958,0 -81.4706008,28.3194719,0 -81.4704909,28.3191697,0 -81.470327,28.3187831,0 -81.47024089999999,28.31858009999999,0 -81.470105,28.3183333,0 -81.46993550000001,28.3180254,0 -81.46973,28.3176521,0 -81.4696411,28.3174906,0 -81.4695696,28.3173573,0 -81.4692336,28.3167385,0 -81.46857199999999,28.3155199,0 -81.4685149,28.3154131,0 -81.46826679999999,28.3149489,0 -81.4680652,28.3145836,0 -81.46800330000001,28.3144712,0 -81.4676851,28.3138884,0 -81.4676146,28.3137593,0 -81.4675829,28.3137008,0 -81.4672286,28.3130459,0 -81.4666343,28.3119536,0 -81.46655509999999,28.3118028,0 -81.4662383,28.311228,0 -81.4662311,28.31121419999999,0 -81.46622050000001,28.3111942,0 -81.46615079999999,28.3110656,0 -81.466008,28.3108022,0 -81.4659247,28.3106487,0 -81.465833,28.3104796,0 -81.4658177,28.3104514,0 -81.46532240000001,28.3095431,0 -81.46488770000001,28.308745,0 -81.4647342,28.3084647,0 -81.4646738,28.3083506,0 -81.46436610000001,28.3077841,0 -81.4638831,28.3068835,0 -81.4637075,28.3065693,0 -81.4635504,28.3063295,0 -81.4635219,28.3062861,0 -81.46350030000001,28.3062574,0 -81.4633321,28.3060338,0 -81.4633053,28.3059981,0 -81.4630904,28.3057438,0 -81.4628732,28.30552339999999,0 -81.46262040000001,28.3052855,0 -81.4623811,28.3050854,0 -81.4620802,28.304864,0 -81.46181780000001,28.304691,0 -81.4615026,28.3045112,0 -81.46125979999999,28.3043907,0 -81.4611319,28.3043272,0 -81.4608219,28.3041941,0 -81.46046,28.3040624,0 -81.46013189999999,28.3039624,0 -81.4597816,28.3038764,0 -81.45946429999999,28.3038145,0 -81.45915239999999,28.3037671,0 -81.4588055,28.3037314,0 -81.4584431,28.3037159,0 -81.4576538,28.3037183,0 -81.4574654,28.3037189,0 -81.4567775,28.3037152,0 -81.4564068,28.3037241,0 -81.4560834,28.3037396,0 -81.4556989,28.3037731,0 -81.4553514,28.3038163,0 -81.4542691,28.303954,0 -81.4533187,28.3040749,0 -81.4529162,28.3041198,0 -81.45257789999999,28.3041467,0 -81.45219849999999,28.3041599,0 -81.4513809,28.3041763,0 -81.45089280000001,28.3041853,0 -81.4505352,28.3041877,0 -81.4502959,28.304193,0 -81.4501044,28.30419729999999,0 -81.44935390000001,28.3042292,0 -81.4483054,28.3042906,0 -81.4477445,28.3043114,0 -81.4464955,28.3043415,0 -81.4456527,28.3043611,0 -81.44517949999999,28.304377,0 -81.4449977,28.3043776,0 -81.44485419999999,28.3043782,0 -81.4443777,28.30438,0 -81.44421319999999,28.3043807,0 -81.4439366,28.3043819,0 -81.4435144,28.3043856,0 -81.44325929999999,28.3043877,0 -81.44316379999999,28.3043879,0 -81.44285379999999,28.3043884,0 -81.4425928,28.3043905,0 -81.4423001,28.3043909,0 -81.4418885,28.3043935,0 -81.441389,28.3043956,0 -81.44126439999999,28.3043959,0 -81.44112730000001,28.3043962,0 -81.4408967,28.3043978,0 -81.4404521,28.3044008,0 -81.4400833,28.3044036,0 -81.43992369999999,28.3044043,0 -81.4397407,28.3044056,0 -81.43968719999999,28.3044059,0 -81.43962670000001,28.3044056,0 -81.4393008,28.3044062,0 -81.43911129999999,28.3044065,0 -81.4389541,28.3044075,0 -81.43865099999999,28.3044093,0 -81.43846259999999,28.3044104,0 -81.43818090000001,28.3044121,0 -81.43790869999999,28.3044137,0 -81.43769949999999,28.3044149,0 -81.43748960000001,28.3044162,0 -81.437273,28.3044175,0 -81.4368861,28.3044198,0 -81.4367688,28.3044211,0 -81.43664,28.3044226,0 -81.4364094,28.3044242,0 -81.4358824,28.3044242,0 -81.4356241,28.30442559999999,0 -81.43516959999999,28.304428,0 -81.43508629999999,28.3044284,0 -81.4345452,28.3044313,0 -81.43444770000001,28.3044318,0 -81.4340062,28.3044349,0 -81.43277089999999,28.3044388,0 -81.4319576,28.3044414,0 -81.43174860000001,28.3044421,0 -81.43152739999999,28.3044437,0 -81.4314013,28.3044446,0 -81.4308042,28.3044457,0 -81.4304119,28.3044464,0 -81.430245,28.3044467,0 -81.4299479,28.3044473,0 -81.42964720000001,28.3044478,0 -81.4295413,28.304448,0 -81.4294732,28.3044486,0 -81.4285022,28.3044567,0 -81.4281502,28.3044568,0 -81.42802949999999,28.3044568,0 -81.4277036,28.3044569,0 -81.4275828,28.3044569,0 -81.42746959999999,28.3044575,0 -81.4269982,28.3044607,0 -81.4267936,28.3044612,0 -81.4267038,28.3044614,0 -81.42634700000001,28.3044622,0 -81.4261357,28.3044627,0 -81.4258437,28.3044544,0 -81.4256275,28.3044453,0 -81.425388,28.3044361,0 -81.4251415,28.3044265,0 -81.42475589999999,28.3044188,0 -81.4243958,28.3044154,0 -81.4242891,28.3044164,0 -81.4241578,28.3044177,0 -81.4239592,28.3044182,0 -81.42358299999999,28.3044191,0 -81.4231324,28.3044202,0 -81.4229346,28.3044212,0 -81.4227185,28.3044224,0 -81.4225101,28.3044223,0 -81.4221503,28.304424,0 -81.42197040000001,28.3044246,0 -81.421558,28.3044261,0 -81.4211727,28.3044276,0 -81.42075869999999,28.3044293,0 -81.4205403,28.3044303,0 -81.42013660000001,28.3044318,0 -81.4200069,28.3044325,0 -81.4197609,28.3044331,0 -81.419258,28.3044345,0 -81.419186,28.3044347,0 -81.41813550000001,28.3044387,0 -81.4180034,28.3044392,0 -81.4176882,28.3044404,0 -81.41757819999999,28.3044409,0 -81.4174046,28.3044415,0 -81.41722009999999,28.30444230000001,0 -81.41688310000001,28.3044405,0 -81.4165263,28.3044419,0 -81.416194,28.3044433,0 -81.41610420000001,28.30444320000001,0 -81.4159049,28.3044451,0 -81.41581429999999,28.3044436,0 -81.41544589999999,28.3044447,0 -81.41492700000001,28.3044462,0 -81.41423330000001,28.3044481,0 -81.413993,28.3044502,0 -81.4137527,28.3044505,0 -81.4133296,28.304451,0 -81.41303310000001,28.3044514,0 -81.412871,28.3044516,0 -81.4125746,28.3044519,0 -81.41235039999999,28.3044522,0 -81.4121854,28.3044524,0 -81.41190279999999,28.3044539,0 -81.4115164,28.3044552,0 -81.4110491,28.3044568,0 -81.4109076,28.3044573,0 -81.4106508,28.3044581,0 -81.4104248,28.3044589,0 -81.410229,28.3044595,0 -81.4097884,28.304461,0 -81.4091439,28.3044632,0 -81.4090266,28.3044645,0 -81.4088337,28.3044667,0 -81.4085097,28.3044671,0 -81.4081851,28.3044675,0 -81.4079115,28.3044678,0 -81.4078009,28.3044684,0 -81.40766069999999,28.3044661,0 -81.4074784,28.3044632,0 -81.4070942,28.304457,0 -81.4043683,28.3044131,0 -81.4038491,28.3043995,0 -81.40369440000001,28.3043967,0 -81.403522,28.3043964,0 -81.4031676,28.3043957,0 -81.4029073,28.3043859,0 -81.4024299,28.3043538,0 -81.40216580000001,28.3043429,0 -81.40186249999999,28.3043414,0 -81.4016697,28.3043415,0 -81.4014683,28.3043417,0 -81.4014142,28.3043417,0 -81.4009023,28.3043461,0 -81.4006746,28.3043509,0 -81.4003239,28.3043649,0 -81.3999385,28.3043873,0 -81.3994553,28.3044201,0 -81.39942550000001,28.3044213,0 -81.3992484,28.3044282,0 -81.39896450000001,28.3044441,0 -81.3989253,28.3044463,0 -81.398746,28.3044563,0 -81.39851090000001,28.3044653,0 -81.3982817,28.3044741,0 -81.3976873,28.3044868,0 -81.3976115,28.3044878,0 -81.3972035,28.304493,0 -81.3971346,28.3044939,0 -81.3965888,28.3044911,0 -81.3965164,28.3044898,0 -81.396033,28.3044809,0 -81.3957273,28.3044709,0 -81.3953023,28.3044569,0 -81.3951009,28.3044454,0 -81.394814,28.3044291,0 -81.39459789999999,28.304417,0 -81.39426520000001,28.3043938,0 -81.39402320000001,28.3043769,0 -81.39383549999999,28.3043592,0 -81.3934296,28.304321,0 -81.39307049999999,28.3042878,0 -81.3927176,28.3042635,0 -81.3925017,28.3042486,0 -81.3923676,28.3042445,0 -81.3918005,28.3042308,0 -81.3915251,28.3042241,0 -81.39130950000001,28.3042193,0 -81.39113089999999,28.3042148,0 -81.3898441,28.3041819,0 -81.3885346,28.3041629,0 -81.3881712,28.3041552,0 -81.388004,28.3041516,0 -81.38777949999999,28.3041494,0 -81.3876058,28.3041477,0 -81.3874878,28.3041466,0 -81.3868676,28.3041339,0 -81.3866905,28.3041303,0 -81.38587630000001,28.3041137,0 -81.3854031,28.3041022,0 -81.3849189,28.3040924,0 -81.383206,28.3040427,0 -81.3829111,28.3040289,0 -81.38255890000001,28.3039972,0 -81.3822612,28.3039625,0 -81.38223309999999,28.3039592,0 -81.3820771,28.3039368,0 -81.3818845,28.3039092,0 -81.38171800000001,28.3038809,0 -81.38155140000001,28.3038526,0 -81.3814007,28.3038233,0 -81.3812193,28.303788,0 -81.3809055,28.3037209,0 -81.38059440000001,28.3036434,0 -81.3802724,28.3035561,0 -81.3799659,28.3034624,0 -81.3796705,28.3033671,0 -81.3793599,28.3032596,0 -81.37897630000001,28.303107,0 -81.3788254,28.3030428,0 -81.3786051,28.3029491,0 -81.37825960000001,28.3027883,0 -81.3778028,28.3025564,0 -81.37744979999999,28.3023567,0 -81.37711419999999,28.3021534,0 -81.3768061,28.3019516,0 -81.3767142,28.3018877,0 -81.3765137,28.3017483,0 -81.37621059999999,28.3015275,0 -81.3759273,28.3013031,0 -81.3758697,28.3012561,0 -81.3757561,28.3011634,0 -81.37556979999999,28.3010114,0 -81.3746969,28.300299,0 -81.37457070000001,28.3001936,0 -81.37365389999999,28.2994492,0 -81.3721784,28.298247,0 -81.37169,28.297849,0 -81.37108449999999,28.2973557,0 -81.3707225,28.2970636,0 -81.3703637,28.2967762,0 -81.3699841,28.29648359999999,0 -81.3698713,28.2963986,0 -81.3695914,28.2961877,0 -81.36923880000001,28.2959309,0 -81.369221,28.2959179,0 -81.368824,28.2956349,0 -81.36802609999999,28.2950949,0 -81.3668768,28.2943391,0 -81.3649901,28.2930904,0 -81.3648314,28.292986,0 -81.3647654,28.2929425,0 -81.3632674,28.29195500000001,0 -81.3631919,28.2919058,0 -81.36221310000001,28.2912608,0 -81.3620308,28.2911401,0 -81.3611428,28.2905521,0 -81.36047120000001,28.2901055,0 -81.35958189999999,28.2895142,0 -81.359273,28.2893088,0 -81.3581176,28.2885503,0 -81.35551169999999,28.2868305,0 -81.3553891,28.2867496,0 -81.3548787,28.2864105,0 -81.35449319999999,28.2861545,0 -81.3541056,28.2858923,0 -81.3533831,28.2854136,0 -81.3528228,28.28505150000001,0 -81.35194509999999,28.2844743,0 -81.35148820000001,28.2841669,0 -81.3514179,28.2841185,0 -81.3513062,28.2840416,0 -81.3504406,28.2834788,0 -81.34994279999999,28.283148,0 -81.3497146,28.2829964,0 -81.34908609999999,28.2825828,0 -81.3487567,28.2823661,0 -81.34864779999999,28.2822933,0 -81.3481379,28.2819603,0 -81.347386,28.2814632,0 -81.347365,28.2814493,0 -81.34724060000001,28.2813679,0 -81.3471455,28.2813048,0 -81.3471201,28.2812879,0 -81.34632999999999,28.2807779,0 -81.3457665,28.2803939,0 -81.34516410000001,28.279996,0 -81.34487919999999,28.2798054,0 -81.34447369999999,28.279535,0 -81.3442977,28.2794182,0 -81.3440951,28.2792838,0 -81.34378959999999,28.2790683,0 -81.3433921,28.2787938,0 -81.34321850000001,28.2786488,0 -81.3427891,28.27829,0 -81.34264779999999,28.278167,0 -81.3424887,28.278033,0 -81.3423088,28.2778704,0 -81.34216259999999,28.2777382,0 -81.3420703,28.2776502,0 -81.3419622,28.2775471,0 -81.3418894,28.2774776,0 -81.34185359999999,28.2774434,0 -81.3415274,28.2771108,0 -81.3411598,28.2767346,0 -81.3408606,28.2763898,0 -81.340772,28.2762832,0 -81.34056529999999,28.2760344,0 -81.34040659999999,28.27583,0 -81.3403232,28.2757256,0 -81.34016269999999,28.2755159,0 -81.3399829,28.27526200000001,0 -81.3398061,28.2750123,0 -81.339749,28.2749286,0 -81.3395877,28.27469200000001,0 -81.339421,28.274422,0 -81.33932160000001,28.2742611,0 -81.3390727,28.2738302,0 -81.33848260000001,28.2727191,0 -81.3382447,28.2722744,0 -81.3379437,28.271718,0 -81.3374142,28.2707393,0 -81.3371844,28.2703303,0 -81.33691829999999,28.2698843,0 -81.33661480000001,28.2694065,0 -81.3365185,28.2692613,0 -81.336017,28.2684685,0 -81.3357456,28.2680819,0 -81.335554,28.2678238,0 -81.33530949999999,28.2675085,0 -81.3350306,28.2671514,0 -81.3348115,28.2668826,0 -81.3346009,28.2666391,0 -81.3344476,28.2664644,0 -81.3342174,28.2662135,0 -81.33388600000001,28.2658501,0 -81.33356449999999,28.26552239999999,0 -81.33325670000001,28.2652069,0 -81.332814,28.2647579,0 -81.3323814,28.2643475,0 -81.33215850000001,28.2641686,0 -81.3320245,28.2640448,0 -81.33157110000001,28.2636477,0 -81.3314331,28.2635347,0 -81.331228,28.2633636,0 -81.330938,28.2631171,0 -81.3308013,28.2630086,0 -81.3305781,28.2628315,0 -81.32999940000001,28.2623932,0 -81.3295854,28.2620835,0 -81.32903,28.2616932,0 -81.3289345,28.2616288,0 -81.3286961,28.2614668,0 -81.32856169999999,28.2613801,0 -81.3283891,28.2612593,0 -81.327901,28.2609313,0 -81.32753750000001,28.2606888,0 -81.3263292,28.2598734,0 -81.3261607,28.2597597,0 -81.32539509999999,28.2592431,0 -81.32467010000001,28.2587538,0 -81.3245067,28.2586435,0 -81.3236115,28.2580394,0 -81.32332769999999,28.2578479,0 -81.32269479999999,28.2574189,0 -81.3223364,28.2571801,0 -81.32099890000001,28.2562841,0 -81.32045460000001,28.255919,0 -81.3199582,28.2555873,0 -81.31935230000001,28.2551819,0 -81.3186814,28.254733,0 -81.3183425,28.2545064,0 -81.3182884,28.2544703,0 -81.3181495,28.2543774,0 -81.317847,28.2541719,0 -81.3176098,28.2540108,0 -81.31750820000001,28.2539421,0 -81.31735430000001,28.2538379,0 -81.3169511,28.25356680000001,0 -81.3166602,28.2533713,0 -81.3164754,28.2532471,0 -81.3163172,28.2531414,0 -81.3154212,28.252543,0 -81.3150674,28.2523094,0 -81.3149883,28.2522528,0 -81.3148918,28.2521863,0 -81.3148107,28.2521314,0 -81.31368260000001,28.2513678,0 -81.3130889,28.250971,0 -81.3127023,28.2507126,0 -81.31242570000001,28.2505269,0 -81.31173939999999,28.2500666,0 -81.31159940000001,28.2499727,0 -81.3111114,28.2496453,0 -81.31040969999999,28.2491774,0 -81.3102609,28.2490821,0 -81.3100586,28.2489525,0 -81.3099076,28.2488557,0 -81.3097574,28.2487661,0 -81.3095773,28.2486587,0 -81.30937710000001,28.2485434,0 -81.30922579999999,28.2484562,0 -81.3088482,28.2482532,0 -81.30859169999999,28.2481209,0 -81.3082955,28.2479737,0 -81.30797699999999,28.2478245,0 -81.3077608,28.2477255,0 -81.30767590000001,28.2476866,0 -81.30735439999999,28.2475442,0 -81.3072267,28.2474936,0 -81.3067954,28.2473228,0 -81.3064849,28.2472056,0 -81.306161,28.2470931,0 -81.30604150000001,28.2470539,0 -81.30587199999999,28.2469984,0 -81.3055686,28.246902,0 -81.3052491,28.2468052,0 -81.3050265,28.2467483,0 -81.3049271,28.2467213,0 -81.3047608,28.2466761,0 -81.3045355,28.2466196,0 -81.3044616,28.2466016,0 -81.30429289999999,28.2465604,0 -81.3040342,28.2465036,0 -81.3039481,28.2464858,0 -81.3037953,28.2464542,0 -81.3033973,28.2463632,0 -81.30295529999999,28.2462856,0 -81.3028956,28.2462735,0 -81.30274,28.2462428,0 -81.30241150000001,28.2461779,0 -81.30224939999999,28.2461461,0 -81.3020654,28.24611,0 -81.3018277,28.2460675,0 -81.3016004,28.2460348,0 -81.3015228,28.2460256,0 -81.3014786,28.2460203,0 -81.3013469,28.2460036,0 -81.3012128,28.2459882,0 -81.30090420000001,28.245957,0 -81.3006044,28.2459378,0 -81.30032749999999,28.2459218,0 -81.3001089,28.245919,0 -81.29988609999999,28.2459161,0 -81.29961160000001,28.2459126,0 -81.29947129999999,28.2459108,0 -81.299215,28.245909,0 -81.29853749999999,28.2459091,0 -81.2984948,28.2459091,0 -81.29836040000001,28.2459091,0 -81.2981022,28.2459061,0 -81.2974583,28.2459098,0 -81.2972019,28.2459112,0 -81.29704599999999,28.2459121,0 -81.2969837,28.2459137,0 -81.2969066,28.2459148,0 -81.2963905,28.2459061,0 -81.29611970000001,28.2459016,0 -81.2958684,28.2459038,0 -81.2955377,28.2459049,0 -81.2952523,28.2459058,0 -81.2947478,28.2459051,0 -81.2941215,28.2459003,0 -81.2938796,28.2458985,0 -81.2936603,28.245902,0 -81.2926264,28.2459008,0 -81.2925134,28.2459007,0 -81.2923984,28.2459004,0 -81.29138930000001,28.2458982,0 -81.29066570000001,28.24589629999999,0 -81.29049209999999,28.2458959,0 -81.29027309999999,28.2458952,0 -81.2896356,28.2458948,0 -81.28940369999999,28.2458947,0 -81.2891518,28.2458946,0 -81.2886379,28.24589659999999,0 -81.2880375,28.2458911,0 -81.28757,28.24589629999999,0 -81.2869178,28.2458883,0 -81.28648099999999,28.2458931,0 -81.28579740000001,28.2458849,0 -81.2852472,28.2458869,0 -81.2846868,28.2458869,0 -81.2842679,28.2458852,0 -81.2836447,28.2458826,0 -81.2835637,28.2458823,0 -81.2834853,28.2458836,0 -81.2830783,28.2458799,0 -81.2824414,28.2458778,0 -81.2822498,28.2458782,0 -81.2820365,28.2458786,0 -81.2818893,28.2458789,0 -81.2813433,28.2458803,0 -81.2812242,28.2458797,0 -81.2810623,28.2458789,0 -81.28068519999999,28.2458771,0 -81.28011720000001,28.2458771,0 -81.2795685,28.2458764,0 -81.2789969,28.2458724,0 -81.27837270000001,28.2458742,0 -81.2778756,28.2458724,0 -81.27762370000001,28.2458722,0 -81.2774521,28.2458721,0 -81.27730649999999,28.245872,0 -81.27717850000001,28.2458719,0 -81.2768449,28.2458716,0 -81.2767614,28.2458715,0 -81.27667030000001,28.2458713,0 -81.2763933,28.2458706,0 -81.27625999999999,28.2458705,0 -81.2756402,28.2458667,0 -81.2751789,28.2458672,0 -81.27509240000001,28.2458709,0 -81.2745231,28.2458676,0 -81.2740799,28.2458643,0 -81.27340700000001,28.2458639,0 -81.2726692,28.2458608,0 -81.27237030000001,28.2458636,0 -81.2722897,28.2458636,0 -81.27221470000001,28.245863,0 -81.27180060000001,28.2458597,0 -81.2716751,28.2458591,0 -81.2711716,28.2458565,0 -81.2709284,28.2458572,0 -81.270843,28.2458569,0 -81.2707004,28.2458565,0 -81.27031770000001,28.2458553,0 -81.2700506,28.2458535,0 -81.2692785,28.2458576,0 -81.2689318,28.24585950000001,0 -81.26864620000001,28.2458617,0 -81.2683974,28.2458668,0 -81.2677817,28.2458599,0 -81.267651,28.2458584,0 -81.26754409999999,28.2458572,0 -81.26751470000001,28.2458568,0 -81.2673545,28.2458544,0 -81.2670598,28.2458432,0 -81.2668127,28.245841,0 -81.26662899999999,28.2458407,0 -81.2664559,28.2458393,0 -81.2659862,28.2458414,0 -81.2657555,28.2458424,0 -81.26430689999999,28.2458488,0 -81.2630853,28.2458591,0 -81.26140289999999,28.2458734,0 -81.26106489999999,28.2458759,0 -81.2602065,28.2458823,0 -81.2584768,28.2458989,0 -81.25817050000001,28.2459011,0 -81.25628829999999,28.2459146,0 -81.256085,28.2459161,0 -81.2559047,28.245918,0 -81.255364,28.2459237,0 -81.2541317,28.2459339,0 -81.25203550000001,28.2459512,0 -81.2499885,28.2459645,0 -81.249509,28.2459697,0 -81.2479713,28.2459863,0 -81.2475829,28.2459891,0 -81.2472842,28.2459913,0 -81.2471348,28.2459924,0 -81.24700970000001,28.2459933,0 -81.2465907,28.2459963,0 -81.2459463,28.246001,0 -81.2457213,28.2460026,0 -81.2452888,28.2460058,0 -81.2447433,28.2460098,0 -81.2441146,28.2460157,0 -81.2439538,28.2460172,0 -81.243763,28.2460083,0 -81.24362790000001,28.2460073,0 -81.2429764,28.2459984,0 -81.2426607,28.2460014,0 -81.24145849999999,28.2460182,0 -81.2399037,28.2460506,0 -81.239166,28.2460595,0 -81.238265,28.2460554,0 -81.2377031,28.2460424,0 -81.2371634,28.2460209,0 -81.2363817,28.2459767,0 -81.2356395,28.2459234,0 -81.2349621,28.2458627,0 -81.23441029999999,28.2458029,0 -81.2343237,28.2457927,0 -81.23296310000001,28.2456101,0 -81.2328413,28.2455938,0 -81.2315971,28.24538739999999,0 -81.23151780000001,28.2453725,0 -81.22874419999999,28.2448534,0 -81.22832699999999,28.2447704,0 -81.2274826,28.2446024,0 -81.22614059999999,28.2443607,0 -81.2258021,28.2442973,0 -81.22317959999999,28.2438059,0 -81.2220119,28.2435855,0 -81.220553,28.2433108,0 -81.21977889999999,28.2431633,0 -81.2189745,28.2430279,0 -81.21829169999999,28.2429229,0 -81.21821749999999,28.2429115,0 -81.21748599999999,28.2428125,0 -81.2168138,28.2427187,0 -81.216382,28.2426597,0 -81.2156052,28.2425537,0 -81.2144697,28.2424148,0 -81.2132749,28.2422845,0 -81.2118225,28.2421532,0 -81.2107317,28.2420709,0 -81.2091279,28.2419658,0 -81.20889819999999,28.2419455,0 -81.208741,28.2419347,0 -81.2080416,28.2418868,0 -81.20754580000001,28.2418525,0 -81.2064441,28.2417791,0 -81.2057314,28.2417301,0 -81.20483729999999,28.2416452,0 -81.2042537,28.2415616,0 -81.20366199999999,28.2414652,0 -81.2029722,28.2413269,0 -81.2023047,28.2411666,0 -81.20140790000001,28.2409151,0 -81.20075249999999,28.2406976,0 -81.2001313,28.2404716,0 -81.1996328,28.2402685,0 -81.19910969999999,28.2400395,0 -81.19863239999999,28.2398149,0 -81.1980473,28.2395125,0 -81.1968181,28.2388486,0 -81.19668249999999,28.2387749,0 -81.1964229,28.2386337,0 -81.1954247,28.2380909,0 -81.19368129999999,28.23715079999999,0 -81.1923601,28.2364395,0 -81.19183719999999,28.236153,0 -81.19086419999999,28.2356253,0 -81.1900407,28.2351101,0 -81.1897206,28.2348871,0 -81.18930899999999,28.2345924,0 -81.1890247,28.2343807,0 -81.1885971,28.2340396,0 -81.1882255,28.2337246,0 -81.1877696,28.2333191,0 -81.1871967,28.2327578,0 -81.1866988,28.2322153,0 -81.18636979999999,28.2318373,0 -81.1859693,28.2313345,0 -81.1855882,28.2308186,0 -81.1852197,28.2302627,0 -81.18492190000001,28.2297801,0 -81.1846316,28.2292842,0 -81.1839042,28.2279938,0 -81.1831505,28.2266706,0 -81.18236419999999,28.22529,0 -81.1819308,28.224529,0 -81.18092540000001,28.2227671,0 -81.1808992,28.2227212,0 -81.18085259999999,28.2226405,0 -81.180307,28.221696,0 -81.17997579999999,28.2211556,0 -81.1795467,28.2204556,0 -81.17871270000001,28.2191137,0 -81.17775690000001,28.2175878,0 -81.1761624,28.21501900000001,0 -81.17395689999999,28.21148609999999,0 -81.1738934,28.2113844,0 -81.17049009999999,28.2059342,0 -81.1684099,28.2025881,0 -81.16654370000001,28.1995992,0 -81.1662879,28.1992073,0 -81.1660092,28.1988215,0 -81.1656935,28.1984256,0 -81.16529989999999,28.1979784,0 -81.16494470000001,28.1976133,0 -81.1646957,28.197377,0 -81.16440299999999,28.1971151,0 -81.1641611,28.1969161,0 -81.16391,28.1967171,0 -81.16360830000001,28.1964913,0 -81.1631349,28.1961687,0 -81.1628726,28.1960025,0 -81.1626399,28.1958658,0 -81.16233080000001,28.1956891,0 -81.16194419999999,28.19548929999999,0 -81.16126970000001,28.1951475,0 -81.1606173,28.1948135,0 -81.1602669,28.1946369,0 -81.15888080000001,28.1939381,0 -81.1582674,28.1936289,0 -81.1568602,28.1929144,0 -81.1563924,28.1926769,0 -81.15547909999999,28.1922162,0 -81.1547204,28.1918335,0 -81.1546242,28.1917896,0 -81.1527761,28.1908494,0 -81.1499977,28.1894451,0 -81.1478436,28.1883594,0 -81.1464143,28.1876357,0 -81.1462634,28.1875593,0 -81.1446861,28.1867591,0 -81.1426685,28.1857399,0 -81.1405378,28.1846647,0 -81.14016030000001,28.1844621,0 -81.1397833,28.1842424,0 -81.1394255,28.1840298,0 -81.1389638,28.1837328,0 -81.1385358,28.1834455,0 -81.13822589999999,28.183216,0 -81.1379319,28.1829978,0 -81.137587,28.1827254,0 -81.1375646,28.1827077,0 -81.13706620000001,28.1822853,0 -81.13676270000001,28.1820108,0 -81.1367357,28.1819852,0 -81.1363537,28.1816222,0 -81.13590170000001,28.18115329999999,0 -81.1357424,28.1809786,0 -81.1355023,28.1807154,0 -81.13518639999999,28.1803314,0 -81.1351653,28.1803057,0 -81.1349652,28.1800531,0 -81.1349065,28.179979,0 -81.13461719999999,28.1795856,0 -81.1345855,28.1795425,0 -81.134557,28.1795007,0 -81.13451240000001,28.1794354,0 -81.13429309999999,28.1791145,0 -81.13426939999999,28.179077,0 -81.13395680000001,28.1785832,0 -81.1338698,28.1784457,0 -81.13367650000001,28.1781101,0 -81.13356779999999,28.1779213,0 -81.13329,28.1774389,0 -81.13267740000001,28.1763774,0 -81.1324594,28.1759998,0 -81.1324091,28.1759127,0 -81.1314263,28.17421270000001,0 -81.13139390000001,28.1741566,0 -81.1311311,28.1737019,0 -81.1310625,28.1735833,0 -81.13079329999999,28.1731175,0 -81.1305617,28.1727373,0 -81.1303013,28.1723275,0 -81.1302082,28.1721913,0 -81.1300521,28.1719628,0 -81.1297726,28.171577,0 -81.1294707,28.1711925,0 -81.1291688,28.1708292,0 -81.1288557,28.1704716,0 -81.1285426,28.1701294,0 -81.12811929999999,28.1696999,0 -81.1278501,28.1694465,0 -81.12771840000001,28.1693225,0 -81.1273206,28.1689747,0 -81.1269612,28.1686719,0 -81.1264868,28.1683044,0 -81.1259836,28.16792,0 -81.1251338,28.1672792,0 -81.1242419,28.1666078,0 -81.12377770000001,28.1662583,0 -81.1222793,28.1651247,0 -81.1203848,28.1636939,0 -81.1188913,28.1625673,0 -81.1181134,28.16198,0 -81.11728909999999,28.1613576,0 -81.1150816,28.1596831,0 -81.1131663,28.158241,0 -81.1118384,28.1572331,0 -81.1104093,28.1561551,0 -81.108209,28.154492,0 -81.10679260000001,28.1534204,0 -81.1059161,28.1527811,0 -81.1052655,28.1523389,0 -81.1047143,28.1519764,0 -81.1040998,28.151592,0 -81.1032459,28.1510841,0 -81.1025388,28.1506837,0 -81.1018837,28.1503352,0 -81.10128280000001,28.1500304,0 -81.1005983,28.1496958,0 -81.10005839999999,28.1494428,0 -81.0996023,28.1492439,0 -81.09942820000001,28.149168,0 -81.0988679,28.148929,0 -81.0978672,28.1485087,0 -81.0955804,28.1475445,0 -81.09471790000001,28.1471808,0 -81.09238240000001,28.1461973,0 -81.09176119999999,28.1459467,0 -81.09133199999999,28.1457814,0 -81.09090279999999,28.145632,0 -81.0904578,28.1454886,0 -81.0899179,28.1453292,0 -81.0894164,28.1451997,0 -81.08884949999999,28.14507,0 -81.0881808,28.1449345,0 -81.08758899999999,28.1448369,0 -81.08686830000001,28.1447393,0 -81.0864662,28.1446975,0 -81.08592179999999,28.1446537,0 -81.0854588,28.1446309,0 -81.08502059999999,28.1446189,0 -81.0846365,28.144612,0 -81.08417230000001,28.144616,0 -81.0836121,28.1446359,0 -81.0830089,28.1446717,0 -81.08245770000001,28.1447215,0 -81.0817213,28.1447932,0 -81.0811836,28.1448371,0 -81.0803928,28.1448861,0 -81.079905,28.1449088,0 -81.0791799,28.1449367,0 -81.07861339999999,28.1449433,0 -81.07848199999999,28.1449448,0 -81.07832860000001,28.1449466,0 -81.0778229,28.1449459,0 -81.07681719999999,28.1449444,0 -81.0761042,28.1449434,0 -81.0755625,28.1449438,0 -81.0753277,28.144944,0 -81.0745424,28.1449446,0 -81.0736004,28.1449326,0 -81.0730349,28.1449175,0 -81.0725896,28.1449009,0 -81.07215669999999,28.1448781,0 -81.07159919999999,28.1448423,0 -81.0710041,28.144799,0 -81.0704525,28.1447463,0 -81.0698807,28.1446875,0 -81.069326,28.1446225,0 -81.06875719999999,28.1445436,0 -81.06820399999999,28.1444595,0 -81.0673723,28.1443222,0 -81.06712210000001,28.1442745,0 -81.0665613,28.1441675,0 -81.0663812,28.1441294,0 -81.0659319,28.1440345,0 -81.0657556,28.1439972,0 -81.06494480000001,28.1438192,0 -81.0636598,28.1435171,0 -81.0612304,28.142955,0 -81.0607737,28.14284930000001,0 -81.0594248,28.142537,0 -81.0584745,28.14231699999999,0 -81.0567345,28.1419142,0 -81.0520764,28.1408358,0 -81.04124520000001,28.1383281,0 -81.03036849999999,28.13580869999999,0 -81.02082849999999,28.1335988,0 -81.01662949999999,28.1326268,0 -81.0160645,28.132502,0 -81.015564,28.1323965,0 -81.01490389999999,28.1322568,0 -81.0142386,28.1321233,0 -81.0135535,28.1319941,0 -81.0128708,28.1318726,0 -81.0122082,28.1317589,0 -81.0115168,28.1316473,0 -81.0101544,28.1314481,0 -81.0020543,28.1303461,0 -81.0014309,28.1302623,0 -80.9959467,28.1295255,0 -80.9854498,28.1281064,0 -80.9847761,28.1280131,0 -80.98410199999999,28.1279118,0 -80.9832148,28.1277704,0 -80.9824666,28.1276406,0 -80.981568,28.1274791,0 -80.9804554,28.127262,0 -80.9793875,28.1270391,0 -80.9782529,28.126792,0 -80.978224,28.1267857,0 -80.9776011,28.1266505,0 -80.976147,28.1263067,0 -80.9755184,28.1261726,0 -80.9746427,28.1259857,0 -80.9700003,28.1249951,0 -80.9674569,28.1244676,0 -80.96726049999999,28.1244268,0 -80.9637659,28.123702,0 -80.9627655,28.123493,0 -80.9573493,28.1223618,0 -80.95237160000001,28.1213272,0 -80.9443665,28.1196655,0 -80.9363764,28.1180069,0 -80.9332304,28.1173486,0 -80.93278050000001,28.117255,0 -80.9324352,28.1171875,0 -80.9316041,28.1170144,0 -80.9310758,28.1169026,0 -80.9304317,28.1167477,0 -80.92992479999999,28.1166132,0 -80.9294338,28.116475,0 -80.9287812,28.1162711,0 -80.9278798,28.1159575,0 -80.9272745,28.1157334,0 -80.927224,28.1157124,0 -80.92650999999999,28.1154159,0 -80.9259059,28.115144,0 -80.92519059999999,28.1147946,0 -80.9212459,28.1128052,0 -80.9209613,28.1126617,0 -80.91965380000001,28.1120022,0 -80.9123357,28.1083113,0 -80.910124,28.1071959,0 -80.905187,28.1047067,0 -80.900052,28.1021111,0 -80.8993907,28.1017667,0 -80.8991044,28.1016176,0 -80.89790139999999,28.1009741,0 -80.8909302,28.0969777,0 -80.8859672,28.0941325,0 -80.885589,28.0939208,0 -80.88518550000001,28.0937073,0 -80.88485609999999,28.0935501,0 -80.88451139999999,28.0933914,0 -80.8841315,28.0932297,0 -80.88376169999999,28.09308,0 -80.8833364,28.0929228,0 -80.88296819999999,28.0927908,0 -80.882548,28.0926603,0 -80.8821159,28.0925357,0 -80.88162680000001,28.0924082,0 -80.881072,28.0922791,0 -80.8805912,28.0921842,0 -80.8801407,28.0921071,0 -80.8796784,28.0920419,0 -80.8792061,28.0919885,0 -80.8786698,28.0919395,0 -80.8782563,28.0919161,0 -80.8778239,28.0919008,0 -80.8773401,28.0918955,0 -80.87555450000001,28.0918977,0 -80.8656342,28.0919325,0 -80.8639021,28.0919385,0 -80.86279330000001,28.0919424,0 -80.86261,28.0919429,0 -80.8533664,28.0919696,0 -80.8533506,28.0919696,0 -80.84705150000001,28.0919872,0 -80.8372634,28.0920158,0 -80.8360279,28.0920187,0 -80.8302192,28.0920348,0 -80.83000389999999,28.09203430000001,0 -80.8201237,28.0920596,0 -80.80681939999999,28.0920875,0 -80.8031605,28.092096,0 -80.7955219,28.0921135,0 -80.7883818,28.09213,0 -80.7812042,28.0921436,0 -80.7751701,28.092166,0 -80.7741927,28.0921685,0 -80.7691294,28.0921813,0 -80.7686312,28.0921849,0 -80.7681451,28.0921724,0 -80.76736030000001,28.0921353,0 -80.76660939999999,28.0920735,0 -80.7658582,28.0919822,0 -80.7651254,28.091862,0 -80.7646688,28.091768,0 -80.7641959,28.0916611,0 -80.7635859,28.0915108,0 -80.7630116,28.0913399,0 -80.7627269,28.0912551,0 -80.7621977,28.0910794,0 -80.7613099,28.0907406,0 -80.7606749,28.0904607,0 -80.76017880000001,28.0902289,0 -80.7597282,28.0899952,0 -80.7592085,28.0897116,0 -80.7587666,28.0894522,0 -80.7581223,28.0890502,0 -80.7544206,28.0866877,0 -80.7529457,28.0857467,0 -80.7524949,28.0854591,0 -80.7497943,28.0837396,0 -80.7465706,28.0816792,0 -80.7460931,28.0813813,0 -80.7455798,28.0810818,0 -80.7450752,28.080803,0 -80.7445129,28.0805217,0 -80.74419140000001,28.080363,0 -80.7439074,28.0802337,0 -80.7435995,28.0801014,0 -80.7432644,28.0799661,0 -80.7429633,28.0798498,0 -80.7426407,28.0797305,0 -80.7422851,28.07960720000001,0 -80.7419427,28.0794957,0 -80.7415467,28.0793757,0 -80.741165,28.0792695,0 -80.7407571,28.0791662,0 -80.74035619999999,28.0790687,0 -80.7393616,28.0788701,0 -80.7389525,28.0788051,0 -80.73852650000001,28.078748,0 -80.73809249999999,28.0786949,0 -80.73767049999999,28.0786528,0 -80.73715300000001,28.0786167,0 -80.7366282,28.0785896,0 -80.73552479999999,28.0785788,0 -80.7295642,28.0786028,0 -80.72123569999999,28.0786384,0 
				
					-80.7155206,28.0786557,0 -80.7153489,28.0786517,0 -80.715149,28.0786541,0 -80.7123981,28.078667,0 -80.7118095,28.0786788,0 -80.71123059999999,28.0786878,0 -80.7105801,28.0787206,0 -80.71010889999999,28.0787378,0 -80.7092418,28.0787688,0 -80.70913419999999,28.07877269999999,0 -80.7085306,28.0787901,0 -80.707474,28.0788031,0 -80.7070583,28.0788122,0 -80.7069023,28.0788119,0 -80.7068194,28.0788117,0 -80.70559799999999,28.078809,0 -80.70541780000001,28.0788086,0 -80.70512530000001,28.078805,0 -80.7049574,28.0788035,0 -80.70464699999999,28.0788008,0 -80.70351119999999,28.0787908,0 -80.7030037,28.0787876,0 -80.702428,28.0787902,0 -80.7023671,28.0787905,0 -80.70180879999999,28.0787929,0 -80.70151610000001,28.0787942,0 -80.7011,28.07879610000001,0 -80.700778,28.0787975,0 -80.7001939,28.0788001,0 -80.69904390000001,28.0788036,0 -80.6988802,28.0788041,0 -80.6986672,28.0788048,0 -80.6984009,28.078807,0 -80.6978301,28.0788087,0 -80.69733549999999,28.0788101,0 -80.6968756,28.0788096,0 -80.696718,28.0788103,0 -80.6960084,28.0788137,0 -80.69540790000001,28.0788165,0 -80.6948015,28.0788188,0 -80.6946567,28.0788194,0 -80.6942863,28.0788208,0 -80.69418159999999,28.0788212,0 -80.69361189999999,28.0788226,0 -80.6931592,28.0788236,0 -80.6930993,28.0788243,0 -80.69297690000001,28.0788247,0 -80.69222499999999,28.0788271,0 -80.6915492,28.0788285,0 -80.69137449999999,28.0788289,0 -80.69112389999999,28.0788295,0 -80.6906939,28.0788303,0 -80.6903416,28.0788325,0 -80.6902321,28.07883319999999,0 -80.6901421,28.0788337,0 -80.6899573,28.0788348,0 -80.6896898,28.0788351,0 -80.6882859,28.0788394,0 -80.6879419,28.0788405,0 -80.68766429999999,28.0788382,0 -80.68670590000001,28.0788354,0 -80.68607369999999,28.0788336,0 -80.6850611,28.0788326,0 -80.68403499999999,28.0788274,0 -80.68302989999999,28.0788273,0 -80.68267160000001,28.0788251,0 -80.6820786,28.0788222,0 -80.6807324,28.0788209,0 -80.6804727,28.0788143,0 -80.6799505,28.0788117,0 -80.67911580000001,28.0788117,0 -80.67879619999999,28.0788101,0 -80.67778149999999,28.0788052,0 -80.67743350000001,28.0788035,0 -80.6773218,28.078803,0 -80.6771603,28.0788022,0 -80.6768134,28.0788071,0 -80.676749,28.0788061,0 -80.6763462,28.0787998,0 -80.67599319999999,28.0787978,0 -80.6757128,28.0787962,0 -80.6755848,28.0787955,0 -80.6754147,28.0787945,0 -80.67525620000001,28.0787936,0 -80.6746035,28.0787924,0 -80.6743175,28.0787919,0 -80.67353989999999,28.078787,0 -80.673445,28.0787882,0 -80.67277540000001,28.0787874,0 -80.67261120000001,28.0787872,0 -80.6725031,28.0787858,0 -80.6723393,28.0787853,0 -80.6718037,28.0787836,0 -80.67166229999999,28.0787832,0 -80.6712421,28.0787818,0 -80.67075749999999,28.07878029999999,0 -80.670649,28.0787798,0 -80.6702149,28.0787779,0 -80.6699017,28.0787765,0 -80.6694887,28.0787746,0 -80.6691915,28.0787785,0 -80.66866210000001,28.0787746,0 -80.66805650000001,28.0787699,0 -80.6677968,28.078773,0 -80.66666530000001,28.0787674,0 -80.66648259999999,28.0787665,0 -80.6663447,28.0787654,0 -80.6659221,28.078762,0 -80.6654051,28.0787616,0 -80.66513,28.0787618,0 -80.6648479,28.0787617,0 -80.6644163,28.0787586,0 -80.66430579999999,28.0787578,0 -80.6641283,28.0787566,0 -80.66378760000001,28.0787564,0 -80.6626996,28.0787515,0 -80.6623173,28.0787498,0 -80.6622247,28.0787494,0 -80.66203779999999,28.0787487,0 -80.6616499,28.0787472,0 -80.6612817,28.0787467,0 -80.66040839999999,28.0787454,0 -80.65926210000001,28.0787437,0 -80.6587043,28.078753,0 -80.6582879,28.0787645,0 -80.6581927,28.0787671,0 -80.65793189999999,28.0787736,0 -80.65714680000001,28.0787987,0 -80.6564571,28.0788014,0 -80.65626229999999,28.0788008,0 -80.65550690000001,28.0787984,0 -80.6551556,28.0787972,0 -80.654945,28.0787965,0 -80.65419780000001,28.078794,0 -80.65402880000001,28.0787934,0 -80.65386650000001,28.0787929,0 -80.6536607,28.0787922,0 -80.6535399,28.0787918,0 -80.65338559999999,28.0787912,0 -80.6528976,28.0787891,0 -80.65232829999999,28.0787866,0 -80.6522567,28.0787863,0 -80.6520986,28.0787856,0 -80.65165159999999,28.0787809,0 -80.6512845,28.0787771,0 -80.6512302,28.0787768,0 -80.6509842,28.0787774,0 -80.6508824,28.0787758,0 -80.64987379999999,28.0787738,0 -80.6493475,28.0787728,0 -80.649134,28.0787724,0 -80.64856829999999,28.0787702,0 -80.6473342,28.0787673,0 -80.6471835,28.078767,0 -80.6458109,28.0787614,0 -80.64553979999999,28.0787603,0 -80.6454367,28.0787599,0 -80.645234,28.078759,0 -80.64494670000001,28.0787523,0 -80.6448482,28.0787577,0 -80.64475040000001,28.0787475,0 -80.6442334,28.0787253,0 -80.6440145,28.0787157,0 -80.64384269999999,28.0787081,0 -80.64381349999999,28.0787068,0 -80.6437373,28.0787035,0 -80.6437011,28.0787027,0 -80.6432654,28.0786931,0 -80.6427044,28.0786873,0 -80.6425256,28.0786855,0 -80.64205990000001,28.0786807,0 -80.64193779999999,28.0786795,0 -80.64156,28.0786756,0 -80.6413122,28.078678,0 -80.6407696,28.0786745,0 -80.64072880000001,28.0786742,0 -80.64062180000001,28.0786735,0 -80.6403428,28.0786718,0 -80.6394493,28.0786732,0 -80.6393523,28.0786734,0 -80.6388208,28.0786711,0 -80.6387376,28.0786697,0 -80.6380429,28.0786656,0 -80.6379244,28.0786649,0 -80.6371592,28.0786618,0 -80.6369318,28.0786609,0 -80.63670430000001,28.0786599,0 -80.6358271,28.0786559,0 -80.6352758,28.0786541,0 -80.63497220000001,28.0786531,0 -80.63459829999999,28.0786518,0 -80.63429189999999,28.078652,0 -80.6338334,28.0786483,0 -80.6335433,28.078646,0 -80.6334238,28.078645,0 -80.63257179999999,28.0786403,0 -80.632094,28.0786376,0 -80.6314972,28.0786385,0 -80.6300042,28.0786243,0 -80.6297709,28.0786238,0 -80.6296317,28.0786235,0 -80.62889920000001,28.0786201,0 -80.6283877,28.0786165,0 -80.6271181,28.0786089,0 -80.62651630000001,28.0786054,0 -80.62639900000001,28.0786047,0 -80.62513869999999,28.0785964,0 -80.6247035,28.0785935,0 -80.62448620000001,28.0785927,0 -80.6241828,28.0785916,0 -80.62417739999999,28.0785916,0 -80.6239853,28.0785908,0 -80.62369219999999,28.0785897,0 -80.6234707,28.0785889,0 -80.6231918,28.0785851,0 -80.6225505,28.0785808,0 -80.6221534,28.0785782,0 -80.62163959999999,28.0785729,0 -80.6214918,28.0785714,0 -80.6213278,28.0785711,0 -80.6211905,28.0785708,0 -80.62099240000001,28.0785704,0 -80.6207682,28.07857,0 -80.6204209,28.07856930000001,0 -80.6201274,28.0785671,0 -80.619646,28.0785634,0 -80.6193942,28.0785643,0 -80.6193823,28.0785643,0 -80.6190009,28.0785621,0 -80.6186043,28.0785573,0 -80.618376,28.0785875,0 -80.61815369999999,28.0786582,0 -80.61788989999999,28.0786645,0 -80.6176882,28.0786692,0 -80.61765579999999,28.07867,0 -80.617402,28.0787048,0 -80.61733889999999,28.078722,0 -80.6171399,28.0787764,0 -80.6168428,28.0788658,0 -80.6164742,28.0789767,0 -80.6162803,28.0790506,0 -80.6161197,28.0791119,0 -80.61544929999999,28.0793517,0 -80.61531410000001,28.0794,0 -80.6149047,28.0794585,0 -80.61488,28.079462,0 -80.6146913,28.0794856,0 -80.6144372,28.0794832,0 -80.6142301,28.0794813,0 -80.6142206,28.0794812,0 -80.6140697,28.0794798,0 -80.6139843,28.079479,0 -80.61387240000001,28.0794779,0 -80.6138169,28.0794774,0 -80.6135287,28.0794747,0 -80.613322,28.0794728,0 -80.61321700000001,28.0794718,0 -80.61312890000001,28.0794697,0 -80.6127766,28.0794611,0 -80.61254839999999,28.0794556,0 -80.61232819999999,28.0794522,0 -80.61225159999999,28.0794513,0 -80.6118491,28.0794463,0 -80.61134,28.0794391,0 -80.6110864,28.079435,0 -80.6110013,28.0794329,0 -80.6099883,28.0794078,0 -80.6097286,28.0794014,0 -80.6095785,28.0793977,0 -80.609487,28.0794171,0 -80.60932459999999,28.0794516,0 -80.6091267,28.0794486,0 -80.6085935,28.0794405,0 -80.60824119999999,28.0794351,0 -80.6078984,28.0794299,0 -80.6078129,28.0794286,0 -80.60773020000001,28.0794273,0 -80.60725549999999,28.0794196,0 -80.6064591,28.0794068,0 -80.60612949999999,28.0794016,0 -80.60588749999999,28.0793978,0 -80.60566970000001,28.0793944,0 -80.6054075,28.0793902,0 -80.6051483,28.0793434,0 -80.60510170000001,28.0793488,0 -80.6050516,28.0793548,0 -80.6049628,28.0793767,0 -80.60481609999999,28.0794325,0 -80.60467389999999,28.0794867,0 -80.60445660000001,28.0795676,0 -80.6043445,28.079612,0 -80.6040366,28.0797292,0 -80.603692,28.0798605,0 -80.60351900000001,28.0799263,0 -80.6033911,28.0799751,0 -80.60332630000001,28.0799998,0 -80.6031136,28.0800809,0 -80.60268379999999,28.0802448,0 -80.6023773,28.0803616,0 -80.6022775,28.080399,0 -80.6019599,28.0805246,0 -80.6018425,28.0805894,0 -80.60172230000001,28.0806631,0 -80.6014079,28.0807827,0 -80.6011051,28.0808832,0 -80.60080139999999,28.0809739,0 -80.60048260000001,28.081059,0 -80.600156,28.0811373,0 -80.5996116,28.0812936,0 -80.5995217,28.0813219,0 -80.5992189,28.0814273,0 -80.5986013,28.0816422,0 -80.5983846,28.0817235,0 -80.5980239,28.0818589,0 -80.5976587,28.0820049,0 -80.5972022,28.0821993,0 -80.5967021,28.082397,0 -80.59637069999999,28.0825245,0 -80.5960243,28.0826511,0 -80.5953495,28.0828892,0 -80.5878786,28.0855546,0 -80.5847131,28.0866014,0 -80.5838064,28.0869186,0 -80.583342,28.087067,0 -80.5828843,28.0871936,0 -80.58210680000001,28.0874091,0 -80.5795765,28.0881157,0 -80.5792527,28.0881875,0 -80.5788553,28.0882631,0 -80.5784754,28.0883323,0 -80.5782258,28.0883822,0 -80.57736679999999,28.08861539999999,0 -80.576705,28.0887949,0 -80.57589160000001,28.0890221,0 -80.57521509999999,28.0892147,0 -80.575125,28.0892377,0 -80.5750511,28.0892579,0 -80.5749745,28.0892771,0 -80.57428520000001,28.0894755,0 -80.5740339,28.0895479,0 -80.573825,28.0896063,0 -80.5729492,28.0898513,0 -80.57265700000001,28.089933,0 -80.5723648,28.0900147,0 -80.57224890000001,28.0900471,0 -80.5721005,28.0900886,0 -80.5719758,28.0901235,0 -80.57185389999999,28.0901577,0 -80.571619,28.0902237,0 -80.5710708,28.0903777,0 -80.5709913,28.0903987,0 -80.5709195,28.0904176,0 -80.5706326,28.0904992,0 -80.5699655,28.090689,0 -80.5695638,28.0908011,0 -80.5690379,28.0909478,0 -80.5688475,28.0910008,0 -80.56868799999999,28.0910453,0 -80.56822560000001,28.0911741,0 -80.568062,28.0912197,0 -80.56787540000001,28.0912721,0 -80.56772839999999,28.0913134,0 -80.566903,28.0915451,0 -80.5668924,28.091548,0 -80.56677120000001,28.0915809,0 
				</coordinates>
			</LineString>
		<atom:link rel="app" href="https://www.google.com/earth/about/versions/#earth-pro" title="Google Earth Pro 7.3.6.10201"></atom:link>
	</Placemark>
</Document>
</kml>
