<?xml version="1.0" encoding="UTF-8"?>
<kml xmlns="http://www.opengis.net/kml/2.2" xmlns:gx="http://www.google.com/kml/ext/2.2" xmlns:kml="http://www.opengis.net/kml/2.2" xmlns:atom="http://www.w3.org/2005/Atom">
<Document>
	<name>US.175.kml</name>
	<Placemark>
		<name>US.175</name>
		<LineString>
			<coordinates>
				-96.7707669,32.7520748,0 -96.77046420000001,32.7505279,0 -96.7702084,32.7491053,0 -96.77017970000001,32.7489866,0 -96.770134,32.7488331,0 -96.77007399999999,32.748669,0 -96.7700201,32.7485216,0 -96.7699607,32.7483757,0 -96.7698965,32.7482469,0 -96.769802,32.7480658,0 -96.7697162,32.7479254,0 -96.7696231,32.7477848,0 -96.76952499999999,32.7476495,0 -96.7694173,32.7475169,0 -96.7693319,32.7474249,0 -96.76926120000002,32.7473494,0 -96.76918089999999,32.7472741,0 -96.7675904,32.7459086,0 -96.76742919999998,32.7457728,0 -96.76724379999999,32.7456191,0 -96.767079,32.7455081,0 -96.76691599999999,32.7453969,0 -96.76673529999999,32.7452897,0 -96.7665562,32.745194,0 -96.76635209999999,32.7450904,0 -96.7661592,32.7449992,0 -96.76597099999999,32.7449207,0 -96.7657904,32.7448563,0 -96.76559820000001,32.74479,0 -96.76540080000001,32.7447273,0 -96.7652186,32.7446811,0 -96.765039,32.7446423,0 -96.76484499999999,32.7446044,0 -96.76462670000001,32.7445703,0 -96.76441320000001,32.7445423,0 -96.7641634,32.7445157,0 -96.76388489999999,32.744492,0 -96.7636134,32.7444758,0 -96.76339140000002,32.7444651,0 -96.76317839999999,32.744462,0 -96.76296439999999,32.7444617,0 -96.76275340000001,32.7444666,0 -96.7625415,32.7444759,0 -96.7623348,32.7444918,0 -96.7621426,32.7445104,0 -96.7619397,32.7445354,0 -96.7617523,32.744565,0 -96.76158329999998,32.7445975,0 -96.7614013,32.744636,0 -96.7612117,32.7446832,0 -96.76107759999999,32.7447226,0 -96.7609004,32.7447751,0 -96.7580627,32.745884,0 -96.7562507,32.7465883,0 -96.75601690000002,32.746668,0 -96.75574149999998,32.746755,0 -96.755461,32.7468282,0 -96.7551335,32.7469063,0 -96.7545473,32.7470165,0 -96.7541039,32.7470717,0 -96.75363419999999,32.7471238,0 -96.75316080000002,32.7471567,0 -96.7527376,32.7471729,0 -96.7523861,32.7471715,0 -96.75213840000001,32.7471699,0 -96.751233,32.7471642,0 -96.750765,32.7471612,0 -96.749841,32.7471529,0 -96.7496653,32.7471499,0 -96.7440699,32.7471574,0 -96.7435266,32.7471488,0 -96.74314339999998,32.7471294,0 -96.7428271,32.7471076,0 -96.7422787,32.7470595,0 -96.74176779999999,32.7470054,0 -96.7408216,32.7468972,0 -96.74008890000002,32.7468052,0 -96.7356556,32.7462429,0 -96.73498540000001,32.7461572,0 -96.7312902,32.7456874,0 -96.730616,32.7456011,0 -96.7292064,32.7454226,0 -96.7285196,32.7453347,0 -96.7281464,32.7452869,0 -96.72773189999999,32.7452209,0 -96.72741470000001,32.7451558,0 -96.72690799999998,32.7450291,0 -96.7265798,32.7449208,0 -96.7263452,32.744834,0 -96.7260117,32.7446954,0 -96.7256558,32.744533,0 -96.72537320000002,32.7443981,0 -96.72507179999999,32.7442192,0 -96.7247555,32.7440153,0 -96.7244549,32.7438045,0 -96.72414830000001,32.7435686,0 -96.72299150000002,32.742567,0 -96.72194260000001,32.7416697,0 -96.7216342,32.7414064,0 -96.719987,32.7399954,0 -96.71968100000001,32.7397277,0 -96.71780029999999,32.7381074,0 -96.71741969999999,32.7377826,0 -96.7159556,32.7365259,0 -96.7147306,32.7354735,0 -96.714462,32.7352357,0 -96.7142011,32.7349867,0 -96.71394559999999,32.7347239,0 -96.71370660000001,32.7344676,0 -96.7134685,32.7341952,0 -96.71285760000001,32.7334669,0 -96.71239439999998,32.7329258,0 -96.71214809999999,32.7326649,0 -96.7118881,32.7324061,0 -96.71161530000001,32.7321632,0 -96.7113396,32.7319323,0 -96.7110358,32.7317021,0 -96.71074299999999,32.731502,0 -96.71006939999999,32.7310209,0 -96.7097301,32.7307867,0 -96.70883790000001,32.730197,0 -96.70767499999999,32.7294131,0 -96.70643889999999,32.7286284,0 -96.70540440000001,32.7279264,0 -96.70359310000001,32.7266884,0 -96.70319499999999,32.726416,0 -96.70272760000002,32.7260984,0 -96.7018097,32.7254487,0 -96.7012766,32.7250469,0 -96.70085039999999,32.7247416,0 -96.7000103,32.7241673,0 -96.69869129999999,32.7232629,0 -96.69841179999999,32.7230737,0 -96.6973496,32.7223334,0 -96.69389270000001,32.7199911,0 -96.69310270000001,32.7194552,0 -96.6925751,32.7190957,0 -96.69187750000002,32.7186162,0 -96.690533,32.717703,0 -96.6895638,32.7171163,0 -96.68835359999999,32.7163963,0 -96.68799039999999,32.7161915,0 -96.68762150000001,32.7159732,0 -96.6869603,32.7155692,0 -96.68650159999999,32.7152666,0 -96.68575620000001,32.7147596,0 -96.68442829999999,32.7138518,0 -96.68366519999999,32.7133441,0 -96.68308589999999,32.7129472,0 -96.6811915,32.7116454,0 -96.68035860000001,32.7110948,0 -96.6799974,32.7108488,0 -96.6788171,32.7100294,0 -96.6784205,32.7097621,0 -96.6783054,32.7096874,0 -96.67755510000001,32.7092761,0 -96.67715089999999,32.709053,0 -96.6768141,32.7088593,0 -96.6764989,32.708659,0 -96.6758607,32.7082232,0 -96.67413999999999,32.707054,0 -96.6731939,32.7064054,0 -96.6728868,32.7062022,0 -96.6725738,32.7060113,0 -96.67224419999998,32.7058262,0 -96.6718886,32.7056548,0 -96.67155879999999,32.7055127,0 -96.67120390000001,32.7053832,0 -96.6708266,32.7052609,0 -96.67044660000002,32.7051578,0 -96.67010759999999,32.7050756,0 -96.66973479999999,32.7049868,0 -96.66826399999999,32.7046269,0 -96.66790500000002,32.704543,0 -96.6675209,32.7044696,0 -96.66713350000001,32.7044099,0 -96.66674440000001,32.7043628,0 -96.6663618,32.7043144,0 -96.66584670000002,32.7042496,0 -96.6653592,32.7041666,0 -96.6649525,32.7040739,0 -96.66459100000002,32.7039823,0 -96.6641827,32.703878,0 -96.663298,32.7036491,0 -96.6620997,32.703356,0 -96.66155710000001,32.7032332,0 -96.66061569999999,32.7030376,0 -96.6597005,32.7028661,0 -96.65921099999998,32.7027715,0 -96.65870320000001,32.7026644,0 -96.65819759999999,32.7025572,0 -96.65771479999999,32.7024488,0 -96.65697920000001,32.7022662,0 -96.65645419999998,32.7021283,0 -96.6550984,32.7017492,0 -96.6533321,32.7012496,0 -96.6529166,32.7011363,0 -96.6525321,32.7010142,0 -96.6514521,32.700704,0 -96.6498546,32.7001918,0 -96.64938660000001,32.7000349,0 -96.64896609999998,32.6998866,0 -96.6483415,32.6996564,0 -96.6478505,32.6994582,0 -96.647391,32.6992652,0 -96.6469271,32.6990589,0 -96.6464809,32.6988438,0 -96.64602980000001,32.6986197,0 -96.64561279999999,32.6983951,0 -96.64476980000001,32.697938,0 -96.6435415,32.6972655,0 -96.64287419999999,32.6969009,0 -96.6416858,32.6962521,0 -96.6411045,32.6959381,0 -96.6402339,32.6954591,0 -96.6394896,32.6950645,0 -96.63777540000001,32.6942222,0 -96.63729380000001,32.6939828,0 -96.6365759,32.6936052,0 -96.63592099999998,32.693249,0 -96.635375,32.69294,0 -96.6345183,32.6924734,0 -96.6320784,32.6910957,0 -96.63033900000001,32.690114,0 -96.62937599999999,32.6895421,0 -96.6286788,32.6891842,0 -96.6281384,32.6888784,0 -96.626586,32.687992,0 -96.6256728,32.6875099,0 -96.6230784,32.6860926,0 -96.621332,32.685136,0 -96.61884100000002,32.683791,0 -96.61716599999998,32.683,0 -96.61706500000001,32.682946,0 -96.6148702,32.6819396,0 -96.6143491,32.6816938,0 -96.6139,32.681489,0 -96.6137978,32.6814451,0 -96.612613,32.680889,0 -96.6092776,32.679346,0 -96.60845149999999,32.6789638,0 -96.60532200000002,32.677495,0 -96.604806,32.677245,0 -96.60360300000001,32.676676,0 -96.603388,32.676583,0 -96.60307899999999,32.676434,0 -96.60273890000001,32.6762631,0 -96.60216740000001,32.6760013,0 -96.601349,32.67562,0 -96.60083059999999,32.6753919,0 -96.59802399999998,32.674073,0 -96.59748209999999,32.6738208,0 -96.5957983,32.6730278,0 -96.59438400000001,32.672367,0 -96.59158900000001,32.671053,0 -96.59082189999998,32.6706867,0 -96.59045160000001,32.6705178,0 -96.59013770000001,32.670367,0 -96.58846200000001,32.66958,0 -96.5855823,32.6682281,0 -96.5849489,32.6679429,0 -96.583747,32.667371,0 -96.58132500000001,32.66619,0 -96.5796874,32.6654384,0 -96.5795026,32.6653519,0 -96.57923270000001,32.6652218,0 -96.5783277,32.6647659,0 -96.57776200000001,32.664431,0 -96.57707600000002,32.663975,0 -96.57648800000001,32.663562,0 -96.57554270000001,32.6629303,0 -96.57513420000001,32.6626879,0 -96.57480409999998,32.6625074,0 -96.5743587,32.6622775,0 -96.57401299999999,32.662103,0 -96.572973,32.661554,0 -96.57232199999999,32.6612404,0 -96.57065900000001,32.660453,0 -96.57011799999999,32.660207,0 -96.56761099999999,32.659145,0 -96.56730399999999,32.659003,0 -96.566992,32.658866,0 -96.56683,32.658794,0 -96.56651599999999,32.658653,0 -96.56311929999998,32.657184,0 -96.561913,32.656637,0 -96.560731,32.656129,0 -96.5580489,32.6549537,0 -96.55750980000001,32.6547115,0 -96.556597,32.654339,0 -96.55563600000001,32.654038,0 -96.55470099999999,32.653768,0 -96.554103,32.653574,0 -96.553327,32.653295,0 -96.55253020000001,32.6529797,0 -96.55135550000001,32.6524644,0 -96.55019040000001,32.6519535,0 -96.54967809999999,32.6517265,0 -96.5490722,32.6514595,0 -96.54867230000001,32.6512833,0 -96.5461684,32.6501767,0 -96.5455961,32.6499249,0 -96.54412600000001,32.649278,0 -96.543052,32.648891,0 -96.54144429999999,32.648426,0 -96.54039359999999,32.6481928,0 -96.53863200000001,32.6478748,0 -96.5344623,32.6471402,0 -96.5339475,32.6470467,0 -96.53052,32.646428,0 -96.529743,32.646279,0 -96.52606419999998,32.6456325,0 -96.5254901,32.6455317,0 -96.52161610000002,32.6448509,0 -96.52085599999999,32.644713,0 -96.520146,32.644585,0 -96.519654,32.644499,0 -96.51932999999998,32.644435,0 -96.5179036,32.644189,0 -96.51711299999998,32.644045,0 -96.516355,32.643904,0 -96.51483839999999,32.643651,0 -96.511055,32.642975,0 -96.50783199999999,32.642395,0 -96.504727,32.641829,0 -96.50413500000001,32.641736,0 -96.50357099999999,32.64163,0 -96.503432,32.64161,0 -96.502734,32.641492,0 -96.50220899999999,32.641402,0 -96.501434,32.641261,0 -96.50044699999999,32.641095,0 -96.500047,32.641005,0 -96.499098,32.640824,0 -96.498516,32.640718,0 -96.498448,32.640701,0 -96.497827,32.640603,0 -96.49692400000001,32.640433,0 -96.49675000000002,32.640394,0 -96.495598,32.640165,0 -96.4936134,32.6398396,0 -96.4922104,32.6395864,0 -96.490139,32.639198,0 -96.48853890000001,32.6389445,0 -96.48139630000001,32.6376638,0 -96.4791625,32.6372752,0 -96.47774510000001,32.6370176,0 -96.47455909999998,32.6364527,0 -96.47326550000001,32.6362326,0 -96.4724923,32.6360865,0 -96.47193429999999,32.635988,0 -96.4703353,32.6356894,0 -96.469505,32.635519,0 -96.46938200000001,32.635494,0 -96.469188,32.635463,0 -96.46753200000002,32.63517,0 -96.46635600000002,32.634959,0 -96.464823,32.634717,0 -96.463455,32.634544,0 -96.461748,32.6343543,0 -96.461648,32.634326,0 -96.46127300000001,32.634287,0 -96.459986,32.634147,0 -96.45962,32.634107,0 -96.45882499999999,32.634013,0 -96.458212,32.633919,0 -96.457747,32.633823,0 -96.45741200000001,32.633737,0 -96.456647,32.633516,0 -96.45583000000001,32.633218,0 -96.45553,32.633108,0 -96.455063,32.632903,0 -96.45452400000001,32.632641,0 -96.453675,32.632147,0 -96.45307000000001,32.631712,0 -96.45283000000001,32.631531,0 -96.45237200000001,32.631186,0 -96.452085,32.630958,0 -96.45194400000001,32.630848,0 -96.451131,32.630204,0 -96.45045699999999,32.629683,0 -96.44965240000001,32.6290676,0 -96.44918800000001,32.628697,0 -96.448899,32.628476,0 -96.44840910000001,32.6281086,0 -96.44813499999999,32.627903,0 -96.446984,32.627028,0 -96.446895,32.626959,0 -96.44609200000001,32.626374,0 -96.444861,32.625591,0 -96.44475749999999,32.6255353,0 -96.443763,32.625,0 -96.442965,32.624646,0 -96.44224889999998,32.6243074,0 -96.4416324,32.6240294,0 -96.44002900000001,32.623358,0 -96.439701,32.623205,0 -96.438429,32.622632,0 -96.43700680000001,32.6220128,0 -96.43547100000001,32.621344,0 -96.43397400000001,32.620685,0 -96.43246600000001,32.620047,0 -96.42948400000002,32.61872,0 -96.42887399999999,32.618453,0 -96.428184,32.618147,0 -96.42740499999999,32.617806,0 -96.426649,32.6174557,0 -96.424992,32.616749,0 -96.423725,32.616239,0 -96.42228899999999,32.615761,0 -96.420913,32.615409,0 -96.419048,32.615065,0 -96.416313,32.614687,0 -96.41510100000001,32.614509,0 -96.412995,32.614199,0 -96.41136710000001,32.613963,0 -96.410539,32.613843,0 -96.4100373,32.6137659,0 -96.4092615,32.6136552,0 -96.40825329999998,32.6135391,0 -96.40771279999998,32.6134905,0 -96.4071668,32.6134587,0 -96.4063677,32.6134397,0 -96.4055707,32.6134356,0 -96.402008,32.613456,0 -96.40088799999999,32.613456,0 -96.40022900000001,32.613453,0 -96.397329,32.613462,0 -96.396422,32.613432,0 -96.39598399999998,32.613394,0 -96.395568,32.613335,0 -96.39502100000001,32.613231,0 -96.39429799999999,32.613047,0 -96.39400299999998,32.612943,0 -96.39346999999999,32.61276,0 -96.39295199999999,32.61254,0 -96.391953,32.612018,0 -96.391115,32.611454,0 -96.390384,32.610827,0 -96.39036299999999,32.610805,0 -96.38996800000001,32.610408,0 -96.389219,32.609436,0 -96.38852400000002,32.608427,0 -96.3878098,32.6073897,0 -96.3871695,32.606455,0 -96.386557,32.60555,0 -96.385909,32.60456,0 -96.3843615,32.6021713,0 -96.38398599999999,32.601613,0 -96.382941,32.600109,0 -96.382638,32.599676,0 -96.38234499999999,32.599297,0 -96.38212499999999,32.599051,0 -96.38183200000002,32.598734,0 -96.38139199999999,32.598349,0 -96.380962,32.597963,0 -96.380667,32.597765,0 -96.38037600000001,32.597546,0 -96.37974400000002,32.597168,0 -96.37953000000002,32.597056,0 -96.37933599999998,32.596935,0 -96.37887499999999,32.596747,0 -96.37757000000001,32.596299,0 -96.377234,32.596198,0 -96.37675699999998,32.596106,0 -96.376041,32.595968,0 -96.371923,32.595278,0 -96.37047320000001,32.5950415,0 -96.36980229999999,32.5949299,0 -96.36594650000001,32.594291,0 -96.3629644,32.5937978,0 -96.3614132,32.5935402,0 -96.359818,32.5932746,0 -96.35869999999998,32.593096,0 -96.35213699999998,32.592005,0 -96.35053490000001,32.59174,0 -96.34936300000001,32.5915463,0 -96.3475608,32.5912477,0 -96.34564349999998,32.5909276,0 -96.34496699999998,32.59082,0 -96.3442414,32.5906991,0 -96.34397180000001,32.5906532,0 -96.3437285,32.5906149,0 -96.34333259999998,32.5905573,0 -96.342963,32.590515,0 -96.3424989,32.5904801,0 -96.340766,32.590398,0 -96.340129,32.5903615,0 -96.33942879999999,32.5903302,0 -96.33904309999998,32.5903115,0 -96.3370958,32.5902124,0 -96.33609300000001,32.590173,0 -96.33471849999998,32.5900939,0 -96.3330089,32.590007,0 -96.332785,32.590001,0 -96.33265900000001,32.589998,0 -96.33027400000002,32.58992,0 -96.32825099999999,32.589877,0 -96.32755100000001,32.589874,0 -96.32736,32.58986,0 -96.32724399999999,32.589857,0 -96.326927,32.589819,0 -96.326795,32.589793,0 -96.32641200000002,32.589703,0 -96.32631000000001,32.589675,0 -96.32597599999998,32.589587,0 -96.3255202,32.5894545,0 -96.32514610000001,32.5893444,0 -96.32483499999999,32.589252,0 -96.324455,32.589143,0 -96.324264,32.589069,0 -96.324034,32.588951,0 -96.323651,32.588732,0 -96.32346900000002,32.5886,0 -96.32315499999999,32.588365,0 -96.32294,32.588163,0 -96.32284300000002,32.588047,0 -96.322647,32.5878,0 -96.322412,32.587452,0 -96.32233699999999,32.587291,0 -96.32208199999999,32.586682,0 -96.321696,32.585744,0 -96.32134499999999,32.58479,0 -96.320992,32.583917,0 -96.319496,32.580236,0 -96.319357,32.579822,0 -96.31915100000002,32.579348,0 -96.318949,32.57893,0 -96.31877900000001,32.578592,0 -96.318569,32.578301,0 -96.3185465,32.5782703,0 -96.31851060000001,32.5782165,0 -96.31775200000001,32.577527,0 -96.31747860000002,32.5773155,0 -96.31717159999998,32.5771182,0 -96.31675090000002,32.5768886,0 -96.31608500000002,32.576628,0 -96.31552499999999,32.576476,0 -96.31400499999999,32.576174,0 -96.31344989999998,32.5760581,0 -96.31195900000002,32.57577,0 -96.31164200000001,32.575691,0 -96.31124800000002,32.575561,0 -96.31068399999999,32.575359,0 -96.310418,32.575243,0 -96.31019999999999,32.575132,0 -96.30951599999999,32.574733,0 -96.30905540000001,32.5744484,0 -96.30860800000001,32.574148,0 -96.30833999999999,32.573981,0 -96.308272,32.573929,0 -96.307851,32.5736,0 -96.307562,32.57339,0 -96.30707700000001,32.57305,0 -96.30655999999999,32.572679,0 -96.30629999999999,32.572519,0 -96.30599400000001,32.572317,0 -96.30547900000001,32.572007,0 -96.30526330000001,32.5719067,0 -96.304624,32.571514,0 -96.303819,32.571053,0 -96.30317900000001,32.570697,0 -96.30276700000002,32.570444,0 -96.30175300000001,32.569854,0 -96.29987100000001,32.568772,0 -96.299565,32.568596,0 -96.29925900000001,32.56841,0 -96.299114,32.568309,0 -96.298919,32.568167,0 -96.29831900000001,32.567725,0 -96.29805399999998,32.567506,0 -96.29779000000001,32.567272,0 -96.297438,32.566927,0 -96.29701799999999,32.566518,0 -96.296781,32.566302,0 -96.296127,32.565633,0 -96.2951115,32.5646249,0 -96.29490800000002,32.564424,0 -96.293898,32.563466,0 -96.29320400000002,32.562769,0 -96.291822,32.561464,0 -96.29110699999998,32.56073,0 -96.290914,32.560533,0 -96.289843,32.559336,0 -96.289452,32.558802,0 -96.289164,32.558394,0 -96.28895900000001,32.558079,0 -96.288775,32.557799,0 -96.2887279,32.5577193,0 -96.28863200000001,32.557557,0 -96.28836099999999,32.557045,0 -96.2877855,32.5559119,0 -96.28770929999999,32.555762,0 -96.2875243,32.5553977,0 -96.2872193,32.5547972,0 -96.28704020000001,32.5544446,0 -96.286343,32.553072,0 -96.2862726,32.5529328,0 -96.28539900000001,32.551205,0 -96.28524400000001,32.550869,0 -96.2848048,32.5500128,0 -96.284633,32.549678,0 -96.2844681,32.5493395,0 -96.284426,32.549253,0 -96.2843013,32.5490073,0 -96.283963,32.548341,0 -96.28340309999999,32.5471865,0 -96.28327400000001,32.546944,0 -96.28321820000001,32.546835,0 -96.282758,32.5459362,0 -96.282568,32.545565,0 -96.28242419999999,32.5452772,0 -96.281989,32.544406,0 -96.280102,32.540664,0 -96.27894900000001,32.538327,0 -96.278436,32.537315,0 -96.277659,32.535808,0 -96.277337,32.535179,0 -96.27688499999999,32.53425,0 -96.27613799999999,32.532777,0 -96.2752895,32.5310894,0 -96.27504110000001,32.5305962,0 -96.27346,32.527462,0 -96.272989,32.526542,0 -96.272678,32.525911,0 -96.272492,32.525532,0 -96.27219599999999,32.524924,0 -96.271945,32.52441,0 -96.27179,32.52409,0 -96.27147099999999,32.523437,0 -96.27124100000002,32.522964,0 -96.27116299999999,32.5228176,0 -96.2710336,32.5225875,0 -96.27076,32.522061,0 -96.27058699999999,32.521735,0 -96.27042,32.521451,0 -96.270111,32.520927,0 -96.270014,32.520764,0 -96.269869,32.520552,0 -96.268807,32.518842,0 -96.26825100000001,32.517893,0 -96.267931,32.517293,0 -96.26781099999998,32.517066,0 -96.267737,32.516928,0 -96.267239,32.515956,0 -96.266808,32.515141,0 -96.26663700000002,32.514802,0 -96.266406,32.514319,0 -96.26634500000002,32.514194,0 -96.26600999999999,32.513516,0 -96.26317499999999,32.507875,0 -96.2618999,32.5052946,0 -96.2613309,32.5041535,0 -96.2611668,32.5038224,0 -96.2610469,32.5035968,0 -96.26015410000001,32.5018177,0 -96.25944800000002,32.500451,0 -96.258234,32.498058,0 -96.25771400000001,32.4970072,0 -96.25752100000001,32.496627,0 -96.25650200000001,32.494543,0 -96.25628200000001,32.494086,0 -96.2561656,32.4938449,0 -96.256113,32.493736,0 -96.255976,32.493453,0 -96.255042,32.491673,0 -96.254009,32.489694,0 -96.25367900000001,32.489046,0 -96.2521689,32.486009,0 -96.25106700000001,32.483806,0 -96.25006199999999,32.481851,0 -96.24892199999999,32.479528,0 -96.247693,32.477139,0 -96.247507,32.476761,0 -96.24673199999998,32.475192,0 -96.246246,32.474224,0 -96.24615300000001,32.4740347,0 -96.2457801,32.473278,0 -96.24537549999999,32.4724609,0 -96.24502649999999,32.4717696,0 -96.24491380000001,32.4715463,0 -96.2446159,32.4709721,0 -96.24404599999998,32.469851,0 -96.24382,32.469405,0 -96.24252879999999,32.4668233,0 -96.24216429999998,32.4660903,0 -96.2420118,32.4657791,0 -96.2418232,32.4654108,0 -96.2417667,32.4652942,0 -96.24111270000002,32.464007,0 -96.24028610000001,32.462353,0 -96.2400207,32.4618296,0 -96.2396505,32.4611321,0 -96.23943670000001,32.460778,0 -96.2392521,32.4604813,0 -96.23906160000001,32.4601927,0 -96.2388268,32.4598629,0 -96.2384761,32.4594019,0 -96.23830030000001,32.459165,0 -96.2381559,32.4589628,0 -96.238015,32.4587457,0 -96.23788489999998,32.4585291,0 -96.23718279999999,32.457272,0 -96.2370755,32.457093,0 -96.2368994,32.456838,0 -96.23673739999998,32.4566355,0 -96.2365801,32.456461,0 -96.23643800000002,32.456314,0 -96.23625440000001,32.456137,0 -96.2361161,32.4560215,0 -96.2359175,32.455861,0 -96.23571309999998,32.455712,0 -96.23550590000001,32.455568,0 -96.23533159999999,32.4554532,0 -96.23522619999999,32.4553838,0 -96.234506,32.454959,0 -96.23443299999998,32.454925,0 -96.23365800000002,32.454566,0 -96.23258900000002,32.45411,0 -96.231872,32.453756,0 -96.23169799999999,32.453666,0 -96.230305,32.452818,0 -96.228853,32.451976,0 -96.22787099999999,32.451421,0 -96.22696699999999,32.45073,0 -96.22617699999999,32.450035,0 -96.22560300000001,32.449505,0 -96.224902,32.448819,0 -96.224282,32.448146,0 -96.22400399999999,32.44783,0 -96.223315,32.446894,0 -96.223236,32.446779,0 -96.2225,32.4456732,0 -96.22213639999998,32.4451182,0 -96.221952,32.444842,0 -96.22116459999999,32.4437054,0 -96.22050220000001,32.4428022,0 -96.2201185,32.4422468,0 -96.2198908,32.4418868,0 -96.2197549,32.4416584,0 -96.21955730000001,32.4412831,0 -96.21933420000001,32.4408451,0 -96.21918769999999,32.4404945,0 -96.21907480000002,32.4401666,0 -96.2183622,32.4377679,0 -96.21763559999999,32.4353699,0 -96.21740219999998,32.4345798,0 -96.2166517,32.4321005,0 -96.2165205,32.4317043,0 -96.2163923,32.4313539,0 -96.21625790000002,32.4310152,0 -96.2161006,32.4306774,0 -96.21596060000002,32.4303901,0 -96.215805,32.4300985,0 -96.2156588,32.4298418,0 -96.21545589999999,32.429514,0 -96.2152116,32.4291543,0 -96.214972,32.4288117,0 -96.214761,32.4285507,0 -96.2145178,32.4282743,0 -96.21425669999999,32.427986,0 -96.2140024,32.4277282,0 -96.21370520000001,32.4274421,0 -96.2134449,32.427212,0 -96.2131694,32.4269721,0 -96.2129197,32.4267805,0 -96.2125875,32.4265265,0 -96.2123189,32.4263426,0 -96.21200709999999,32.4261337,0 -96.2114952,32.4258258,0 -96.2107171,32.4253766,0 -96.20859590000001,32.4241518,0 -96.20833919999998,32.4240003,0 -96.20795170000001,32.4237785,0 -96.207606,32.4235888,0 -96.20635070000002,32.422889,0 -96.206339,32.422882,0 -96.205969,32.4226669,0 -96.2057538,32.4225418,0 -96.20557789999999,32.4224395,0 -96.2053526,32.4223086,0 -96.2043425,32.4216928,0 -96.2015043,32.4200408,0 -96.20064020000001,32.4195381,0 -96.1992123,32.4187124,0 -96.1977861,32.4178819,0 -96.1960333,32.4168689,0 -96.1949693,32.4162572,0 -96.19220800000001,32.4146501,0 -96.19101239999999,32.4139574,0 -96.1877899,32.4120974,0 -96.1867063,32.411461,0 -96.18523010000001,32.4106092,0 -96.1847844,32.4103416,0 -96.183419,32.409568,0 -96.18306900000002,32.409354,0 -96.18274,32.409171,0 -96.18232700000002,32.40894,0 -96.17875740000001,32.4068744,0 -96.17836019999999,32.4066446,0 -96.17403899999999,32.404144,0 -96.17265260000001,32.4033438,0 -96.17210900000001,32.40303,0 -96.170694,32.402205,0 -96.16821000000002,32.400779,0 -96.16805300000001,32.400688,0 -96.1648343,32.3987883,0 -96.16453929999999,32.3986144,0 -96.1600992,32.3960761,0 -96.15922959999999,32.3955726,0 -96.15876400000001,32.395303,0 -96.15837000000002,32.395058,0 -96.158101,32.394903,0 -96.15650299999999,32.39398,0 -96.1560455,32.3936836,0 -96.15525049999999,32.3932187,0 -96.15356800000002,32.3922461,0 -96.1527577,32.3917803,0 -96.15159149999999,32.3911015,0 -96.1507216,32.3905909,0 -96.14931129999999,32.3897753,0 -96.147944,32.3889848,0 -96.1471088,32.3884952,0 -96.1461367,32.3879313,0 -96.1451605,32.3873623,0 -96.14416239999998,32.3867864,0 -96.1435821,32.3864499,0 -96.1433273,32.3863008,0 -96.14276599999999,32.385987,0 -96.142432,32.385789,0 -96.14106099999999,32.38501,0 -96.138161,32.383321,0 -96.13786770000002,32.3831293,0 -96.1374392,32.3828797,0 -96.136703,32.382492,0 -96.13607039999999,32.3820887,0 -96.13370740000001,32.3807111,0 -96.1309725,32.3791239,0 -96.13051679999998,32.37886,0 -96.13005560000002,32.3785943,0 -96.12961799999999,32.3783591,0 -96.12920179999999,32.378143,0 -96.1286901,32.3779005,0 -96.12838369999999,32.3777709,0 -96.1276585,32.3774807,0 -96.12716129999998,32.3772947,0 -96.12672379999999,32.3771383,0 -96.12636350000001,32.377023,0 -96.1259482,32.3768967,0 -96.1255002,32.3767751,0 -96.1250063,32.3766463,0 -96.1245826,32.3765527,0 -96.12404900000001,32.3764396,0 -96.12340799999998,32.3763226,0 -96.1229405,32.3762493,0 -96.1205204,32.375943,0 -96.11815420000001,32.3756581,0 -96.11783860000001,32.3756128,0 -96.11751569999998,32.3755595,0 -96.1172108,32.375505,0 -96.11695109999999,32.3754463,0 -96.11672540000001,32.375397,0 -96.11611809999999,32.3752416,0 -96.114733,32.3748858,0 -96.1143948,32.3748085,0 -96.11409719999999,32.3747568,0 -96.1137104,32.3746879,0 -96.11316770000001,32.3746134,0 -96.11237599999998,32.3745121,0 -96.1108734,32.3743341,0 -96.1099318,32.3742544,0 -96.1092554,32.3742044,0 -96.1085447,32.3741627,0 -96.10773869999998,32.3741279,0 -96.1065916,32.3741077,0 -96.10608759999998,32.3740914,0 -96.10568459999999,32.3740704,0 -96.10530369999999,32.3740452,0 -96.104902,32.3740175,0 -96.1045269,32.3739851,0 -96.1040644,32.3739398,0 -96.1037419,32.3739008,0 -96.0978235,32.3731707,0 -96.09678979999998,32.3730409,0 -96.09505439999998,32.372836,0 -96.0946623,32.3727846,0 -96.09433110000001,32.3727312,0 -96.09401580000001,32.3726672,0 -96.0936931,32.372599,0 -96.093373,32.3725146,0 -96.09301360000002,32.3724052,0 -96.09268949999999,32.3722914,0 -96.0923556,32.3721661,0 -96.09204620000001,32.3720407,0 -96.091741,32.3718977,0 -96.09143859999999,32.3717473,0 -96.0911117,32.3715639,0 -96.0908144,32.3713911,0 -96.0904669,32.3711699,0 -96.0901513,32.3709321,0 -96.08985439999999,32.3706963,0 -96.08956360000001,32.3704426,0 -96.0892905,32.3701831,0 -96.08904200000001,32.3699256,0 -96.0888336,32.3696871,0 -96.0885859,32.3693802,0 -96.0883565,32.3690564,0 -96.0881368,32.3687118,0 -96.0879609,32.3684084,0 -96.0877752,32.368047,0 -96.08734639999999,32.3671026,0 -96.08717830000002,32.3667408,0 -96.08703969999999,32.3663853,0 -96.08688990000002,32.3659848,0 -96.0864971,32.3647664,0 -96.08635219999999,32.3643687,0 -96.0861828,32.3638963,0 -96.08606589999999,32.3636387,0 -96.08581680000002,32.3631033,0 -96.0856275,32.362674,0 -96.0854276,32.3622644,0 -96.0851275,32.3616863,0 -96.0849331,32.3613684,0 -96.08407750000001,32.3600023,0 -96.0839108,32.35971,0 -96.0836915,32.3593014,0 -96.083428,32.3587913,0 -96.0829037,32.3576723,0 -96.08277749999999,32.3574245,0 -96.0825652,32.3570698,0 -96.0823534,32.3567256,0 -96.0821382,32.3564197,0 -96.08194899999999,32.3561922,0 -96.08164909999999,32.3558115,0 -96.08135310000002,32.3554786,0 -96.08102030000001,32.3551582,0 -96.08067349999999,32.3548768,0 -96.0802992,32.3546026,0 -96.07957620000001,32.3541169,0 -96.0793202,32.3539519,0 -96.07763119999998,32.3529048,0 -96.0734466,32.3502308,0 -96.0713351,32.3488892,0 -96.070998,32.3486753,0 -96.0692083,32.3475476,0 -96.068675,32.347211,0 -96.06817150000001,32.3468896,0 -96.06515559999998,32.3449645,0 -96.06350890000002,32.3439201,0 -96.0625751,32.3433578,0 -96.06204689999998,32.3429961,0 -96.0616309,32.3427281,0 -96.05931940000002,32.3412603,0 -96.055618,32.3389125,0 -96.05389099999999,32.3378142,0 -96.0524022,32.3368761,0 -96.05149219999998,32.3363545,0 -96.0507787,32.3360063,0 -96.04920300000001,32.3352366,0 -96.04896020000001,32.3351179,0 -96.0484663,32.3348315,0 -96.04811179999999,32.3346259,0 -96.0460527,32.3334318,0 -96.0419358,32.330928,0 -96.04133600000002,32.330551,0 -96.04070969999999,32.3301682,0 -96.0393316,32.3292506,0 -96.03583930000001,32.3270385,0 -96.0347659,32.3261974,0 -96.0346152,32.3260701,0 -96.03351069999998,32.3251366,0 -96.03286689999999,32.3245927,0 -96.03209440000001,32.3240578,0 -96.031268,32.323534,0 -96.02939080000002,32.3223442,0 -96.0291276,32.3221846,0 -96.02906130000001,32.3221428,0 -96.02851679999999,32.3217998,0 -96.0261247,32.3202929,0 -96.0257108,32.3200322,0 -96.0256419,32.3199888,0 -96.0245273,32.3192864,0 -96.0240484,32.3189847,0 -96.02331820000001,32.3185245,0 -96.02322169999999,32.3184637,0 -96.0215694,32.3174114,0 -96.0180077,32.315143,0 -96.01712670000001,32.314554,0 -96.0157366,32.3136246,0 -96.0140036,32.3125132,0 -96.01376519999999,32.3123603,0 -96.0132444,32.3120263,0 -96.01176100000001,32.3110687,0 -96.0115203,32.3109133,0 -96.01117910000001,32.3106931,0 -96.010935,32.3105355,0 -96.01081430000001,32.3104576,0 -96.01067879999999,32.3103752,0 -96.01036279999998,32.3101831,0 -96.01024030000001,32.3101086,0 -96.0098299,32.3098591,0 -96.00942180000001,32.3096283,0 -96.00937519999999,32.309602,0 -96.00917029999999,32.3094861,0 -96.00908050000001,32.3094353,0 -96.00891660000001,32.3093426,0 -96.00872800000002,32.309236,0 -96.00851739999999,32.3091118,0 -96.0083894,32.3090364,0 -96.0082585,32.3089593,0 -96.0082115,32.3089367,0 -96.00787650000001,32.308776,0 -96.0075236,32.3086067,0 -96.0069956,32.3083534,0 -96.0061741,32.3079685,0 -96.0055699,32.3076845,0 -96.00524220000001,32.3075305,0 -96.0049805,32.3073995,0 -96.0041544,32.3069597,0 -96.00358410000001,32.3066951,0 -96.0022876,32.3060937,0 -96.00123750000002,32.30546,0 -96.0008941,32.3052502,0 -95.99941800000001,32.3043483,0 -95.99903070000002,32.3041277,0 -95.99798269999999,32.303531,0 -95.99656920000001,32.3027261,0 -95.996432,32.302648,0 -95.99627649999999,32.302556,0 -95.99621089999999,32.3025172,0 -95.99603300000001,32.302412,0 -95.9959662,32.3023724,0 -95.995834,32.302294,0 -95.99551699999999,32.302107,0 -95.994771,32.301666,0 -95.994355,32.30142,0 -95.99375300000001,32.301064,0 -95.99322139999998,32.3007495,0 -95.99300479999999,32.3006214,0 -95.99170600000001,32.299853,0 -95.9915153,32.299736,0 -95.9898816,32.2987335,0 -95.9896256,32.2985764,0 -95.9889427,32.2981573,0 -95.98823419999999,32.2977226,0 -95.98794460000001,32.2975449,0 -95.9868354,32.2968642,0 -95.9865368,32.2966903,0 -95.98543030000002,32.2960458,0 -95.98505609999998,32.2958279,0 -95.983101,32.294689,0 -95.9821498,32.2941047,0 -95.98068910000001,32.2932075,0 -95.97993820000001,32.2927462,0 -95.9798942,32.2927192,0 -95.97907409999999,32.2922087,0 -95.9783271,32.2919341,0 -95.9768304,32.2911271,0 -95.97563719999999,32.2904888,0 -95.9733063,32.289242,0 -95.97282799999999,32.2889467,0 -95.9717428,32.2882767,0 -95.9682225,32.2861854,0 -95.9604069,32.2815421,0 -95.9587156,32.2805373,0 -95.95699210000001,32.2795133,0 -95.9549176,32.2782722,0 -95.94810320000001,32.2741825,0 -95.94501169999998,32.272327,0 -95.9447612,32.2721839,0 -95.94184289999998,32.2704058,0 -95.93980129999998,32.2690108,0 -95.9374658,32.2670655,0 -95.9355929,32.2655056,0 -95.933961,32.2641464,0 -95.9330748,32.2634083,0 -95.9322202,32.2626965,0 -95.93158620000001,32.2621684,0 -95.92973499999999,32.2605818,0 -95.9284104,32.2594466,0 -95.9277089,32.2588887,0 -95.92628670000002,32.2577576,0 -95.925139,32.2568448,0 -95.92373329999999,32.2557268,0 -95.9212007,32.2537125,0 -95.92113670000001,32.253665,0 -95.9178043,32.2510475,0 -95.91635620000001,32.2499234,0 -95.9163248,32.2499003,0 -95.914751,32.248745,0 -95.9106864,32.2459091,0 -95.90797389999999,32.2439517,0 -95.90305050000001,32.2403988,0 -95.90253250000001,32.240025,0 -95.9020522,32.2396784,0 -95.90107759999999,32.238975,0 -95.8995778,32.2378927,0 -95.8991122,32.2375222,0 -95.89488300000001,32.2344874,0 -95.8940309,32.2338948,0 -95.8929819,32.2331818,0 -95.89225329999998,32.2326932,0 -95.8916579,32.2322744,0 -95.89100860000002,32.2318002,0 -95.89046690000001,32.2313925,0 -95.89000129999998,32.2310112,0 -95.8885897,32.2298095,0 -95.8882187,32.2294655,0 -95.8878072,32.2290817,0 -95.88726149999999,32.2285471,0 -95.88669580000001,32.2279789,0 -95.88586169999999,32.2272025,0 -95.885773,32.2271185,0 -95.8856392,32.226909,0 -95.8849329,32.226307,0 -95.88435130000001,32.2258288,0 -95.88377309999998,32.2253413,0 -95.88212630000001,32.2240085,0 -95.8818579,32.2237926,0 -95.88161020000001,32.2235994,0 -95.8812902,32.2233237,0 -95.8810684,32.2231243,0 -95.8807698,32.2228188,0 -95.88050559999999,32.2225248,0 -95.88025590000001,32.2222438,0 -95.87985,32.2219222,0 -95.8796005,32.2217339,0 -95.87934690000002,32.2215942,0 -95.87922039999999,32.2215411,0 -95.87907439999998,32.2214945,0 -95.8789281,32.221459,0 -95.87877019999999,32.2214301,0 -95.87854550000002,32.2214192,0 -95.8783401,32.2214175,0 -95.8781985,32.2214314,0 -95.8780376,32.2214518,0 -95.87708670000001,32.2217105,0 -95.87635820000001,32.2219114,0 -95.87526970000002,32.2221898,0 -95.8745825,32.2224458,0 -95.8742252,32.2225924,0 -95.87308489999999,32.2230328,0 -95.8658045,32.2258446,0 -95.86509779999999,32.2261144,0 -95.86401669999999,32.2265197,0 -95.86329550000001,32.2267558,0 -95.8625766,32.2269603,0 -95.86190650000002,32.2271316,0 -95.8612645,32.2272739,0 -95.86063770000001,32.2273869,0 -95.86000199999998,32.2274834,0 -95.8592056,32.2275777,0 -95.85841929999999,32.2276458,0 -95.8573222,32.2276994,0 -95.85652190000002,32.2276989,0 -95.85555359999999,32.2276606,0 -95.85455329999999,32.2275695,0 -95.8531483,32.2273633,0 -95.85214780000001,32.2271981,0 -95.84827089999999,32.2265716,0 -95.84769470000001,32.2265001,0 -95.8470877,32.2264641,0 -95.84651220000001,32.2264535,0 -95.84457039999999,32.2265263,0 -95.8426049,32.2265999,0 -95.8417599,32.2266306,0 -95.841131,32.2266534,0 -95.84050070000001,32.2266674,0 -95.83331870000002,32.2267188,0 -95.83222329999998,32.2267262,0 -95.8312524,32.226739,0 -95.83034809999999,32.2268045,0 -95.8294853,32.2269201,0 -95.82833789999999,32.2271571,0 -95.82701419999999,32.227487,0 -95.8264313,32.2276322,0 -95.82588640000002,32.2277258,0 -95.825569,32.2277803,0 -95.8242439,32.227926,0 -95.81856620000001,32.2280112,0 -95.8167353,32.2280112,0 -95.81607579999999,32.2280085,0 -95.8154493,32.2279776,0 -95.8148884,32.2279061,0 -95.81441670000001,32.2278132,0 -95.8139177,32.2276777,0 -95.8134795,32.2275188,0 -95.8129941,32.227318,0 -95.8125909,32.2271065,0 -95.8121417,32.2268268,0 -95.81174799999999,32.226554,0 -95.8114698,32.2263348,0 -95.8110733,32.2259648,0 -95.81062670000001,32.2254859,0 -95.81022419999999,32.224912,0 -95.80994680000001,32.2243674,0 -95.80970000000001,32.2237321,0 -95.8096632,32.223606,0 -95.809067,32.2215628,0 -95.8087237,32.2204101,0 -95.80855200000001,32.2199835,0 -95.8082945,32.2193572,0 -95.80827429999999,32.21932,0 -95.80757260000001,32.2180272,0 -95.8069749,32.2168429,0 -95.8061702,32.2152363,0 -95.80579470000001,32.2144193,0 -95.80555870000001,32.2138202,0 -95.8053731,32.2131779,0 -95.80527669999999,32.2126874,0 -95.80520159999999,32.2122831,0 -95.8051645,32.2118798,0 -95.80514030000001,32.2111515,0 -95.80512950000001,32.2104616,0 -95.80513560000001,32.2086157,0 -95.8051383,32.2077787,0 -95.80515200000001,32.2036233,0 -95.80518320000002,32.2027634,0 -95.80516169999999,32.2018374,0 -95.8052476,32.2011112,0 -95.80540850000001,32.2003758,0 -95.80564450000001,32.1996132,0 -95.80596,32.1989109,0 -95.8062608,32.198394,0 -95.80653940000002,32.1980068,0 -95.80684360000001,32.1975921,0 -95.80752270000002,32.1968845,0 -95.80828539999999,32.1961939,0 -95.8102112,32.1944505,0 -95.81060230000001,32.1940515,0 -95.81101119999998,32.1935822,0 -95.8112213,32.1932991,0 -95.8118345,32.1919576,0 -95.81198620000001,32.1915862,0 -95.81215100000001,32.1910848,0 -95.8123441,32.1904674,0 -95.81258019999999,32.1899226,0 -95.81273280000001,32.1896717,0 -95.81297020000001,32.1892813,0 -95.81253450000001,32.1890387,0 -95.80807549999999,32.1865556,0 -95.8056203,32.1851931,0 -95.8038815,32.1842282,0 -95.8006263,32.1824211,0 -95.80048619999999,32.1823459,0 -95.79974860000002,32.1819463,0 -95.79514330000001,32.1794451,0 -95.7942639,32.1789675,0 -95.7901391,32.176674,0 -95.7901162,32.1766613,0 -95.78861130000001,32.1758245,0 -95.78838450000001,32.1756984,0 -95.78653370000001,32.1746247,0 -95.7862678,32.1744705,0 -95.78445020000001,32.1734723,0 -95.7820545,32.1721567,0 -95.78069389999999,32.171397,0 -95.77841160000001,32.1701137,0 -95.77618579999999,32.1689146,0 -95.7742224,32.1678338,0 -95.77237530000001,32.1667915,0 -95.7723234,32.1667622,0 -95.7693086,32.1651002,0 -95.76264600000002,32.1614036,0 -95.75737820000001,32.1584699,0 -95.75412630000001,32.1566621,0 -95.7516325,32.155239,0 -95.7498116,32.1542143,0 -95.747946,32.153197,0 -95.74775169999998,32.1530497,0 -95.74613549999999,32.1521504,0 -95.74494080000001,32.1514255,0 -95.74392479999999,32.1507765,0 -95.7431826,32.1502851,0 -95.7427801,32.1500167,0 -95.7416857,32.1493259,0 -95.7401302,32.1484569,0 -95.73904659999998,32.1478572,0 -95.7374049,32.1469517,0 -95.732342,32.1441115,0 -95.7320038,32.1439259,0 -95.7310286,32.1433907,0 -95.73100289999999,32.1433765,0 -95.73073159999998,32.1432263,0 -95.72946939999999,32.1425277,0 -95.7276504,32.1415237,0 -95.72676269999999,32.1410337,0 -95.72605280000002,32.140635,0 -95.72003770000001,32.1372961,0 -95.7198939,32.1372163,0 -95.7089424,32.1311042,0 -95.70630849999999,32.1296369,0 -95.7038194,32.1282513,0 -95.7025079,32.1274895,0 -95.6983396,32.1251614,0 -95.696715,32.1242366,0 -95.695668,32.1235757,0 -95.6946116,32.1229245,0 -95.6914142,32.1209004,0 -95.6871888,32.1182102,0 -95.68491109999999,32.116786,0 -95.68378649999998,32.1160136,0 -95.68170859999998,32.1146097,0 -95.68091440000001,32.1140985,0 -95.6796942,32.1134321,0 -95.6792044,32.1131711,0 -95.67881300000001,32.1129921,0 -95.6782941,32.1127788,0 -95.67769970000001,32.1125425,0 -95.67710649999999,32.1123262,0 -95.6759058,32.1119388,0 -95.67511380000001,32.1117334,0 -95.6746741,32.1116381,0 -95.6743106,32.1115595,0 -95.6726572,32.111289,0 -95.67091220000002,32.1110218,0 -95.67002359999999,32.1108594,0 -95.66908040000001,32.1106129,0 -95.66859479999999,32.1104794,0 -95.667958,32.1102807,0 -95.66729719999998,32.1100474,0 -95.66683900000001,32.1098845,0 -95.66639549999999,32.1097037,0 -95.66595200000002,32.1095089,0 -95.6655519,32.1093267,0 -95.6651952,32.1091555,0 -95.66475680000001,32.1089393,0 -95.66434889999999,32.1087223,0 -95.6634207,32.1081731,0 -95.6613941,32.1069767,0 -95.6590403,32.1056104,0 -95.65761179999998,32.104865,0 -95.65623410000001,32.1042226,0 -95.65523200000001,32.1037433,0 -95.65320099999998,32.1027582,0 -95.6520496,32.1021935,0 -95.65092509999999,32.1016766,0 -95.6486761,32.1005333,0 -95.6471421,32.0997507,0 -95.6455012,32.0988645,0 -95.6441852,32.0982004,0 -95.64300249999998,32.0975664,0 -95.6425759,32.097353,0 -95.64200790000001,32.0970957,0 -95.641569,32.0968966,0 -95.6411153,32.0966661,0 -95.64086039999998,32.096538,0 -95.6397504,32.0960255,0 -95.6383323,32.0953218,0 -95.638014,32.0951638,0 -95.6375244,32.094943,0 -95.63685339999999,32.0946669,0 -95.6357417,32.0942232,0 -95.6348741,32.0938844,0 -95.63438190000001,32.0936913,0 -95.6337183,32.0934187,0 -95.6330066,32.0931329,0 -95.62524209999999,32.0898123,0 -95.6240183,32.0892421,0 -95.62287299999998,32.0886354,0 -95.62042490000002,32.0872581,0 -95.6175173,32.0855946,0 -95.6158174,32.0845994,0 -95.61235069999999,32.0826451,0 -95.60888259999999,32.0807025,0 -95.6079393,32.080154,0 -95.6075376,32.0799029,0 -95.60714900000001,32.0796462,0 -95.60662429999999,32.0792835,0 -95.60528290000002,32.0782939,0 -95.6047319,32.0778846,0 -95.6044728,32.0776558,0 -95.603123,32.0764317,0 -95.60204690000002,32.0754421,0 -95.60164519999999,32.075098,0 -95.6013159,32.0748189,0 -95.6009449,32.0745157,0 -95.60049919999999,32.0741827,0 -95.59973519999998,32.0736042,0 -95.59922149999998,32.0732228,0 -95.59829720000002,32.072581,0 -95.59810179999999,32.0724452,0 -95.59787789999999,32.0723038,0 -95.5976694,32.0721885,0 -95.59736200000002,32.0720397,0 -95.597081,32.0719132,0 -95.59678460000001,32.0717829,0 -95.596429,32.0716415,0 -95.59607990000001,32.0715206,0 -95.5957616,32.0714257,0 -95.59540370000001,32.0713234,0 -95.5950459,32.071236,0 -95.59463529999998,32.0711448,0 -95.59430159999999,32.0710853,0 -95.59393280000002,32.0710295,0 -95.59360789999999,32.0709979,0 -95.59304199999998,32.0709721,0 -95.59262000000001,32.0709551,0 -95.59223360000001,32.0709328,0 -95.59181649999999,32.0708974,0 -95.59136200000002,32.0708583,0 -95.59058490000001,32.0707914,0 -95.5899745,32.0707374,0 -95.58950249999999,32.0706742,0 -95.5883082,32.0704937,0 -95.5877814,32.0704063,0 -95.5870832,32.0702798,0 -95.5835245,32.0696342,0 -95.5819812,32.0693328,0 -95.58174409999999,32.0692882,0 -95.5807827,32.0691404,0 -95.5795684,32.0688864,0 -95.57886000000001,32.0687037,0 -95.57845759999998,32.0685999,0 -95.5775728,32.068358,0 -95.57655200000001,32.0680566,0 -95.5715694,32.0665448,0 -95.5705085,32.0661963,0 -95.5699061,32.0660221,0 -95.56918829999998,32.0658385,0 -95.56852320000002,32.0656615,0 -95.56726580000002,32.0653614,0 -95.5622724,32.0641114,0 -95.55918319999999,32.0633781,0 -95.55368439999999,32.0620337,0 -95.55055160000001,32.0612751,0 -95.5430248,32.059455,0 -95.5383434,32.0583377,0 -95.53463669999999,32.0574416,0 -95.5333222,32.05711,0 -95.53143070000002,32.0565947,0 -95.52905029999999,32.0560071,0 -95.52794419999998,32.0556558,0 -95.52466510000001,32.0546142,0 -95.52157579999999,32.0536739,0 -95.5212258,32.0534896,0 -95.5195938,32.0530041,0 -95.51842139999999,32.0526629,0 -95.51750500000001,32.0523833,0 -95.51665239999998,32.0521284,0 -95.51588320000002,32.0519038,0 -95.51576960000001,32.0518668,0 -95.51546879999999,32.0517771,0 -95.51522980000001,32.0517163,0 -95.51499719999998,32.0516599,0 -95.51475689999999,32.0516106,0 -95.51456680000001,32.0515777,0 -95.5143961,32.0515532,0 -95.51415550000002,32.0515261,0 -95.51388790000001,32.0515052,0 -95.5136298,32.0514935,0 -95.5133642,32.0514885,0 -95.5124534,32.0514914,0 -95.51153599999999,32.051499,0 -95.5106232,32.0514977,0 -95.50907599999999,32.051502,0 -95.50806800000001,32.05151,0 -95.507042,32.051516,0 -95.50601020000001,32.0515075,0 -95.5049837,32.0515116,0 -95.50302770000002,32.0515135,0 -95.50181619999999,32.0515221,0 -95.50098430000001,32.0515408,0 -95.50074049999999,32.0515498,0 -95.50049189999999,32.0515626,0 -95.5002255,32.0515836,0 -95.50002529999999,32.0516022,0 -95.49976659999999,32.0516291,0 -95.4966447,32.0519719,0 -95.4929059,32.0523864,0 -95.48885939999998,32.0528414,0 -95.4881429,32.05292,0 -95.48410919999999,32.0533639,0 -95.4808616,32.0537268,0 -95.48040650000002,32.0537748,0 -95.47986670000002,32.0538346,0 -95.47796700000001,32.0540452,0 -95.4776452,32.0540823,0 -95.4773331,32.0541118,0 -95.4770844,32.0541295,0 -95.47686839999999,32.0541395,0 -95.47658720000001,32.0541437,0 -95.476314,32.0541421,0 -95.476006,32.0541311,0 -95.47566580000002,32.0541091,0 -95.47531140000001,32.054068,0 -95.47501780000002,32.054023,0 -95.4747625,32.0539799,0 -95.4744109,32.0539039,0 -95.47411630000001,32.0538342,0 -95.47382519999999,32.0537509,0 -95.4734741,32.0536393,0 -95.47315680000001,32.0535282,0 -95.47266210000001,32.0533564,0 -95.469176,32.0521083,0 -95.4630774,32.0499423,0 -95.4622248,32.0496363,0 -95.45586950000001,32.0473784,0 -95.45426500000001,32.0468081,0 -95.4537066,32.0466098,0 -95.45324479999998,32.0464442,0 -95.4528047,32.0462723,0 -95.45238810000001,32.0461051,0 -95.4517749,32.0458457,0 -95.4505741,32.0453519,0 -95.45047029999999,32.0453045,0 -95.449466,32.0448923,0 -95.4430984,32.0422317,0 -95.4420638,32.041804,0 -95.44174380000001,32.041678,0 -95.44111119999999,32.0414421,0 -95.44013099999999,32.0410974,0 -95.4385655,32.0405699,0 -95.4377011,32.0402839,0 -95.43475119999999,32.0393094,0 -95.4338678,32.0390144,0 -95.43293,32.0387,0 -95.4324503,32.0385153,0 -95.4309603,32.0378605,0 -95.4267937,32.0359624,0 -95.42466649999999,32.0350399,0 -95.4207601,32.0331958,0 -95.42047289999999,32.0330668,0 -95.41859809999998,32.0322056,0 -95.417796,32.0318474,0 -95.4175439,32.0317281,0 -95.4164979,32.0312505,0 -95.41623629999999,32.0311346,0 -95.41509670000001,32.030614,0 -95.41341009999999,32.0298436,0 -95.4122419,32.0293162,0 -95.40851960000001,32.0276544,0 -95.4056121,32.0262627,0 -95.40417890000001,32.0256061,0 -95.40352,32.0253076,0 -95.40282259999999,32.0250075,0 -95.4019107,32.0246436,0 -95.40015529999998,32.0243647,0 -95.39974459999999,32.0242994,0 -95.3997044,32.024293,0 -95.39889410000001,32.0241642,0 -95.3923513,32.0231245,0 -95.38978710000001,32.0228971,0 -95.3883494,32.0227425,0 -95.3865577,32.0225333,0 -95.384174,32.0222297,0 -95.382909,32.0221039,0 -95.38204069999999,32.022007,0 -95.3802491,32.0218147,0 -95.37877930000001,32.0215418,0 -95.37753469999998,32.0212052,0 -95.37544259999999,32.0206776,0 -95.37462720000001,32.020432,0 -95.37288920000002,32.0199499,0 -95.3713549,32.0195315,0 -95.3699987,32.0191612,0 -95.3675569,32.0184944,0 -95.36679519999998,32.0183125,0 -95.36620360000001,32.0181501,0 -95.36566860000001,32.0180032,0 -95.3648962,32.0177849,0 -95.36387200000001,32.0175302,0 -95.3634692,32.0174301,0 -95.35588400000002,32.0160747,0 -95.3546394,32.015829,0 -95.353824,32.0155652,0 -95.35295499999999,32.0150922,0 -95.35113699999999,32.013731,0 -95.35001530000001,32.0128452,0 -95.34902820000001,32.0121538,0 -95.3462964,32.0099164,0 -95.34436119999998,32.0084329,0 -95.34315960000001,32.0074503,0 -95.3421618,32.0066588,0 -95.33792390000002,32.0030833,0 -95.33646479999999,32.0019005,0 -95.33583900000001,32.001368,0 -95.3342761,32.00019,0 -95.33245220000001,31.9989162,0 -95.33070340000002,31.9975878,0 -95.329609,31.9969235,0 -95.3282572,31.99627750000001,0 -95.32748580000002,31.9959504,0 -95.32512440000002,31.9949491,0 -95.3240086,31.9944395,0 -95.3229357,31.9939573,0 -95.322701,31.993883,0 -95.32199199999999,31.993578,0 -95.321567,31.993396,0 -95.32048700000001,31.992932,0 -95.3192772,31.9924559,0 -95.31686319999999,31.9915004,0 -95.31499639999998,31.9904813,0 -95.312929,31.989335,0 -95.31006900000001,31.987746,0 -95.30950319999999,31.9874329,0 -95.3088273,31.9870689,0 -95.2957917,31.9798525,0 -95.29103890000002,31.9771587,0 -95.289451,31.9763123,0 -95.28868930000002,31.9758845,0 -95.28727299999998,31.9752566,0 -95.28642550000001,31.9750017,0 -95.28436550000001,31.974574,0 -95.28372179999998,31.9744193,0 -95.282875,31.974268,0 -95.28147950000002,31.9740188,0 -95.2811658,31.9739618,0 -95.28027780000001,31.9738004,0 -95.2802542,31.9737983,0 -95.27919489999999,31.9737038,0 -95.2781675,31.9737053,0 -95.27769219999999,31.9736912,0 -95.2769079,31.9736889,0 -95.2763921,31.9736819,0 -95.27512270000001,31.9736781,0 -95.2741413,31.9736752,0 -95.2733692,31.9736775,0 
			</coordinates>
		</LineString>
		<atom:link rel="app" href="https://www.google.com/earth/about/versions/#earth-pro" title="Google Earth Pro 7.3.6.10201"></atom:link>
	</Placemark>
</Document>
</kml>
