<?xml version="1.0" encoding="UTF-8"?>
<kml xmlns="http://www.opengis.net/kml/2.2" xmlns:gx="http://www.google.com/kml/ext/2.2" xmlns:kml="http://www.opengis.net/kml/2.2" xmlns:atom="http://www.w3.org/2005/Atom">
<Document>
	<name>US.163.kml</name>
	<Style id="line-1267FF-5000-nodesc-highlight1010">
		<LineStyle>
			<color>ff0000ff</color>
			<width>3</width>
		</LineStyle>
	</Style>
	<Style id="line-1267FF-5000-nodesc-normal1010">
		<LineStyle>
			<color>ff0000ff</color>
			<width>3</width>
		</LineStyle>
	</Style>
	<StyleMap id="line-1267FF-5000-nodesc94">
		<Pair>
			<key>normal</key>
			<styleUrl>#line-1267FF-5000-nodesc-normal1010</styleUrl>
		</Pair>
		<Pair>
			<key>highlight</key>
			<styleUrl>#line-1267FF-5000-nodesc-highlight1010</styleUrl>
		</Pair>
	</StyleMap>
	<Placemark>
		<name>US.163</name>
		<styleUrl>#line-1267FF-5000-nodesc94</styleUrl>
		<LineString>
			<coordinates>
				-110.2472648,36.7077402,0 -110.247527,36.7081637,0 -110.2476118,36.7082999,0 -110.2476752,36.7084017,0 -110.2478402,36.7086712,0 -110.2484744,36.7096771,0 -110.2488921,36.7103255,0 -110.2493808,36.7110942,0 -110.2497543,36.7116749,0 -110.2501218,36.7122513,0 -110.2504108,36.7127227,0 -110.2510162,36.7136691,0 -110.2520543,36.7153007,0 -110.2526609,36.7162413,0 -110.2529315,36.7166885,0 -110.2538434,36.7181192,0 -110.2543842,36.7189633,0 -110.2550709,36.7200397,0 -110.255781,36.7211597,0 -110.2564485,36.7222218,0 -110.2565971,36.7225794,0 -110.2566952,36.7229107,0 -110.2567289,36.723332,0 -110.2567182,36.7235692,0 -110.2566829,36.7238203,0 -110.2566032,36.7240886,0 -110.2565551,36.7242344,0 -110.2563427,36.7246357,0 -110.256289,36.7247187,0 -110.256232,36.7247887,0 -110.2559238,36.7251629,0 -110.2555683,36.7254659,0 -110.2551908,36.7257098,0 -110.2548306,36.7258727,0 -110.2544868,36.7260042,0 -110.2537105,36.7262823,0 -110.2527296,36.7266071,0 -110.2514791,36.7270351,0 -110.2511929,36.7271349,0 -110.2500286,36.7275421,0 -110.2483223,36.7281333,0 -110.2478529,36.7282943,0 -110.2474806,36.7284315,0 -110.2472211,36.728532,0 -110.2470771,36.7285919,0 -110.2469223,36.728665,0 -110.2467744,36.7287364,0 -110.2465764,36.7288363,0 -110.2462554,36.7290059,0 -110.2459342,36.7291847,0 -110.245652,36.7293638,0 -110.2453692,36.7295504,0 -110.2451402,36.7297114,0 -110.2447949,36.7299709,0 -110.2445244,36.7302004,0 -110.2444032,36.730312,0 -110.2441584,36.7305537,0 -110.2434885,36.7312767,0 -110.2431666,36.7316319,0 -110.2421103,36.7327795,0 -110.2411883,36.7337909,0 -110.241018,36.7339752,0 -110.2408965,36.7341059,0 -110.2408264,36.7341793,0 -110.2406839,36.73433,0 -110.240601,36.7344164,0 -110.2405114,36.73451,0 -110.2403534,36.7346729,0 -110.2401999,36.7348301,0 -110.2400855,36.7349449,0 -110.2396463,36.7353854,0 -110.2394126,36.7356238,0 -110.2391523,36.7358933,0 -110.238865,36.7361948,0 -110.2386389,36.7364359,0 -110.2383102,36.736795,0 -110.2372819,36.7379344,0 -110.2371991,36.7380233,0 -110.2370712,36.7381643,0 -110.2369476,36.7383004,0 -110.2367928,36.7384711,0 -110.2366588,36.7386192,0 -110.2365024,36.7387899,0 -110.236353,36.7389507,0 -110.2362613,36.7390448,0 -110.2361388,36.7391683,0 -110.23613,36.7391772,0 -110.2359051,36.7393933,0 -110.2357287,36.7395538,0 -110.2355384,36.7397204,0 -110.2354017,36.7398383,0 -110.2352877,36.7399303,0 -110.2350666,36.740105,0 -110.2348602,36.7402596,0 -110.234725,36.7403565,0 -110.2345159,36.7405047,0 -110.2342405,36.7407022,0 -110.2340359,36.7408488,0 -110.2338244,36.7410007,0 -110.2335849,36.7411734,0 -110.2314874,36.7427,0 -110.2309466,36.7430914,0 -110.2303537,36.7435619,0 -110.2298663,36.7440189,0 -110.229397,36.7445461,0 -110.2290393,36.7450229,0 -110.2286425,36.74557,0 -110.2277209,36.7468351,0 -110.2267446,36.7482621,0 -110.226412,36.7488983,0 -110.226058,36.7499471,0 -110.2259184,36.7507439,0 -110.2258728,36.7515069,0 -110.225905,36.7520291,0 -110.2262511,36.7547696,0 -110.2264978,36.756463,0 -110.2269021,36.7597993,0 -110.2272542,36.7624873,0 -110.2273764,36.7634744,0 -110.2276167,36.7652424,0 -110.2278068,36.7669062,0 -110.227914,36.7676195,0 -110.2279906,36.7681534,0 -110.2280699,36.768791,0 -110.2281953,36.7697429,0 -110.2284934,36.7720198,0 -110.2287109,36.7737443,0 -110.2288726,36.7749924,0 -110.2289681,36.7757431,0 -110.2290805,36.7766388,0 -110.2292127,36.777618,0 -110.2295688,36.7803939,0 -110.2297785,36.7819784,0 -110.2299734,36.7834858,0 -110.2303525,36.7863976,0 -110.2308752,36.7903401,0 -110.2312293,36.7933988,0 -110.2314653,36.795203,0 -110.2318086,36.7976945,0 -110.2320232,36.7993096,0 -110.2322807,36.8014058,0 -110.2324094,36.8022133,0 -110.2324922,36.8027948,0 -110.2325704,36.8033387,0 -110.23286,36.8056925,0 -110.2330961,36.8077885,0 -110.2336093,36.8114053,0 -110.23389,36.8137412,0 -110.2342011,36.8158627,0 -110.2344479,36.8178725,0 -110.2346839,36.8188087,0 -110.2350487,36.8196848,0 -110.2360476,36.8215309,0 -110.2376022,36.8244685,0 -110.238226,36.825557,0 -110.2388467,36.8263837,0 -110.2393939,36.8269591,0 -110.2427231,36.8296517,0 -110.2448799,36.8314598,0 -110.2467172,36.8329812,0 -110.2475178,36.8335336,0 -110.2484711,36.8340636,0 -110.2494002,36.834548,0 -110.2513617,36.8355552,0 -110.2531054,36.836491,0 -110.2549936,36.8374957,0 -110.2568819,36.8384316,0 -110.2576973,36.838818,0 -110.2590062,36.8392044,0 -110.2599718,36.8394019,0 -110.2617743,36.8396337,0 -110.262536,36.8397454,0 -110.2630295,36.8398484,0 -110.2635445,36.8400201,0 -110.2640702,36.8402777,0 -110.2644565,36.8405181,0 -110.265188,36.84131,0 -110.2677931,36.8445966,0 -110.2695527,36.8468718,0 -110.2702393,36.8476874,0 -110.2705719,36.8482283,0 -110.2707865,36.8488722,0 -110.2708079,36.8495762,0 -110.2708723,36.8517225,0 -110.2709001,36.8525793,0 -110.2708938,36.8533022,0 -110.2707972,36.853946,0 -110.270647,36.8544697,0 -110.2704431,36.8548904,0 -110.2691557,36.856882,0 -110.2679004,36.8587963,0 -110.2657225,36.8620068,0 -110.2639415,36.8647107,0 -110.2616133,36.8682042,0 -110.2596306,36.8712374,0 -110.2589234,36.872279,0 -110.2581714,36.8733865,0 -110.2571415,36.8749451,0 -110.2562574,36.8762153,0 -110.2551931,36.8779181,0 -110.2546524,36.8786527,0 -110.25425,36.879252,0 -110.2539657,36.8796825,0 -110.2536096,36.8802369,0 -110.2525324,36.8819138,0 -110.250687,36.884701,0 -110.2498459,36.8859506,0 -110.2480521,36.8886811,0 -110.2467813,36.8906957,0 -110.2438678,36.8952195,0 -110.2427413,36.896987,0 -110.2409067,36.8998784,0 -110.2390828,36.9027525,0 -110.2373447,36.9054893,0 -110.2363469,36.9071279,0 -110.2342441,36.9103707,0 -110.2328922,36.9125152,0 -110.2301349,36.9167957,0 -110.2289491,36.9186305,0 -110.227965,36.920224,0 -110.2259399,36.9234346,0 -110.2227535,36.9283663,0 -110.220951,36.9309992,0 -110.2208008,36.9311707,0 -110.2195026,36.9330575,0 -110.2183332,36.9346354,0 -110.2163591,36.9375168,0 -110.2153077,36.9389146,0 -110.2141275,36.9405954,0 -110.2125182,36.9427906,0 -110.2106192,36.9452515,0 -110.2087094,36.9477638,0 -110.2073791,36.9494701,0 -110.2054693,36.9519823,0 -110.2053796,36.9520981,0 -110.2053298,36.9521623,0 -110.2052118,36.9522995,0 -110.2046225,36.9530287,0 -110.2032699,36.9548545,0 -110.2021863,36.9562433,0 -110.2008666,36.9579751,0 -110.1975193,36.9623473,0 -110.1953091,36.9652191,0 -110.1917579,36.9698481,0 -110.1904704,36.9715281,0 -110.1890542,36.9733796,0 -110.1881422,36.9745453,0 -110.1870264,36.9759852,0 -110.1862754,36.9769538,0 -110.1820103,36.9825613,0 -110.181631,36.9831814,0 -110.1813847,36.9836919,0 -110.181176,36.9841831,0 -110.1808827,36.9849367,0 -110.1805875,36.985698,0 -110.1802426,36.9866077,0 -110.1799919,36.9872503,0 -110.1785962,36.9908632,0 -110.1782411,36.9917841,0 -110.1756903,36.9983942,0 -110.1735643503053,37.00388002196962,0 -110.1734692362292,37.00403637823717,0 -110.1733455337434,37.00408965896251,0 -110.1732586657711,37.00416406760256,0 -110.1732232154608,37.00427239573441,0 -110.1732796055119,37.00441989387843,0 -110.1732634372002,37.00454518268949,0 -110.1732031781678,37.00470090649296,0 -110.1728541,37.0055746,0 -110.1718607,37.0083132,0 -110.1717203,37.0086214,0 -110.1715511,37.0088946,0 -110.1713332,37.0091687,0 -110.1711587,37.0093524,0 -110.1709658,37.0095127,0 -110.1707371,37.0096759,0 -110.1704253,37.0098542,0 -110.1700142,37.0100396,0 -110.1696015,37.0102077,0 -110.1534192,37.0169692,0 -110.1517535,37.0176651,0 -110.1416942,37.021866,0 -110.140544,37.0222361,0 -110.1382438,37.0227774,0 -110.134025,37.023669,0 -110.131782,37.024201,0 -110.1302443,37.0246413,0 -110.1282101,37.0255527,0 -110.1242844,37.027634,0 -110.1185305,37.0306846,0 -110.1156614,37.0322127,0 -110.1145848,37.0327775,0 -110.1142947,37.032918,0 -110.1138944,37.0330941,0 -110.1135351,37.0332233,0 -110.1131774,37.0333352,0 -110.111986,37.033653,0 -110.1116155,37.0337849,0 -110.1113576,37.033925,0 -110.1110903,37.0341158,0 -110.1109189,37.0342803,0 -110.1107344,37.034467,0 -110.1095939,37.03602,0 -110.1092573,37.0364653,0 -110.1089622,37.0368443,0 -110.1087154,37.0370948,0 -110.1084451,37.0373263,0 -110.1081707,37.0375597,0 -110.1078744,37.0377747,0 -110.1074528,37.0380401,0 -110.1070427,37.0382628,0 -110.1066295,37.0384514,0 -110.1043355,37.0393796,0 -110.1014658,37.0405428,0 -110.1003565,37.0409814,0 -110.0996851,37.041276,0 -110.099277,37.04149,0 -110.09885,37.0417607,0 -110.0984063,37.0421014,0 -110.0980836,37.0423804,0 -110.0978142,37.0426762,0 -110.0975045,37.0430448,0 -110.0972596,37.0433875,0 -110.0967103,37.0441274,0 -110.0964582,37.0444875,0 -110.0962093,37.0448473,0 -110.09604,37.0450885,0 -110.0956754,37.0456111,0 -110.0946693,37.0469935,0 -110.0936099,37.048412,0 -110.0933216,37.0487652,0 -110.0929447,37.0491806,0 -110.0926709,37.0494432,0 -110.09254,37.0495688,0 -110.0920406,37.0499721,0 -110.091387,37.050444,0 -110.0909142,37.0507844,0 -110.0905011,37.0511184,0 -110.0901406,37.0514671,0 -110.0898285,37.0518273,0 -110.0891495,37.0526485,0 -110.0870442,37.0552,0 -110.0858161,37.0564293,0 -110.0848317,37.057277,0 -110.0840968,37.0578206,0 -110.0819296,37.0592376,0 -110.081006,37.059815,0 -110.0804919,37.0601045,0 -110.0799635,37.060325,0 -110.0788345,37.0607224,0 -110.0768232,37.0614823,0 -110.0764461,37.0616143,0 -110.0750666,37.0621334,0 -110.0720425,37.0632318,0 -110.0672107,37.0650434,0 -110.0661149,37.0654542,0 -110.0624209,37.0668137,0 -110.059866,37.0677054,0 -110.0595962,37.0678075,0 -110.0591579,37.0679109,0 -110.0588277,37.0679487,0 -110.0584712,37.0679623,0 -110.04922,37.0676897,0 -110.0445196,37.0675548,0 -110.0424796,37.06748,0 -110.0414416,37.0675035,0 -110.0403312,37.0676298,0 -110.0392717,37.0678524,0 -110.0383142,37.0681306,0 -110.0374424,37.0684859,0 -110.0367665,37.0688176,0 -110.0355388,37.0695806,0 -110.0335345,37.0709813,0 -110.0294619,37.0737786,0 -110.028535,37.0745729,0 -110.0280789,37.0750923,0 -110.0276122,37.0756958,0 -110.0272903,37.0761966,0 -110.0265265,37.0773463,0 -110.0254905,37.078925,0 -110.0251754,37.0793048,0 -110.0248991,37.0795551,0 -110.024529,37.0798226,0 -110.0241233,37.0800306,0 -110.021102,37.0812837,0 -110.0203725,37.0816945,0 -110.0196,37.0822218,0 -110.0179723,37.0833137,0 -110.0100859,37.0885896,0 -110.0002024,37.0951743,0 -109.9993792,37.0957426,0 -109.9908187,37.1014512,0 -109.988186,37.1032196,0 -109.9873254,37.1038034,0 -109.9863732,37.104381,0 -109.9853171,37.1049304,0 -109.9842355,37.1054356,0 -109.978812,37.1077458,0 -109.9744246,37.1095881,0 -109.9600421,37.1156704,0 -109.9570861,37.1169304,0 -109.9559544,37.117333,0 -109.954125,37.1178565,0 -109.9528831,37.1181132,0 -109.9491119,37.1187933,0 -109.9405986,37.1203439,0 -109.9395311,37.1205834,0 -109.9388284,37.1207695,0 -109.9377662,37.1211053,0 -109.9369803,37.1213983,0 -109.9309668,37.1238256,0 -109.9281156,37.1249591,0 -109.9267611,37.1254381,0 -109.9255648,37.1258102,0 -109.9240708,37.1262508,0 -109.9233328,37.1264744,0 -109.9225832,37.1266987,0 -109.9189635,37.1277839,0 -109.9182223,37.1279899,0 -109.9178119,37.1280792,0 -109.9173499,37.1281621,0 -109.917026,37.1282043,0 -109.9165653,37.1282326,0 -109.9161623,37.1282428,0 -109.9120787,37.128331,0 -109.9116683,37.1283626,0 -109.9110849,37.1284374,0 -109.9100886,37.1286256,0 -109.9068182,37.1292645,0 -109.906432,37.1293227,0 -109.9058466,37.1293735,0 -109.9031758,37.1294131,0 -109.9028686,37.129396,0 -109.9023288,37.1293179,0 -109.9015597,37.1291383,0 -109.9006806,37.1289549,0 -109.900218,37.1288956,0 -109.8998129,37.1288688,0 -109.8990787,37.1288886,0 -109.8985027,37.128971,0 -109.8980031,37.1290581,0 -109.896711,37.1292901,0 -109.8959338,37.129466,0 -109.8949769,37.1297504,0 -109.894233,37.1300169,0 -109.8932254,37.1304599,0 -109.8904227,37.1318207,0 -109.8888775,37.1325775,0 -109.8881869,37.1329035,0 -109.8875353,37.1332383,0 -109.8867546,37.1337064,0 -109.8860078,37.1342097,0 -109.8806111,37.1379086,0 -109.8802659,37.1382265,0 -109.880089,37.1384194,0 -109.8799385,37.1386117,0 -109.8797246,37.1389885,0 -109.8796201,37.1392061,0 -109.8795468,37.1394331,0 -109.8792881,37.1403344,0 -109.8790778,37.1407943,0 -109.8788915,37.1410678,0 -109.8785073,37.1415527,0 -109.8771193,37.1432307,0 -109.8757815,37.1448286,0 -109.8754954,37.1451599,0 -109.8750611,37.1455163,0 -109.8746451,37.1457754,0 -109.8741378,37.1460189,0 -109.873906,37.1461234,0 -109.8730188,37.1465231,0 -109.8725425,37.1467904,0 -109.8721829,37.1470534,0 -109.8718403,37.1473663,0 -109.8716437,37.1476016,0 -109.8713944,37.1479359,0 -109.8709789,37.1485017,0 -109.8707363,37.1488066,0 -109.8704066,37.149104,0 -109.8700184,37.149356,0 -109.8696615,37.1495326,0 -109.868945,37.1498126,0 -109.8686248,37.1499597,0 -109.8684096,37.1500942,0 -109.8681461,37.1503036,0 -109.8679319,37.1505444,0 -109.8678474,37.1506352,0 -109.8674196,37.1511077,0 -109.8673673,37.1511515,0 -109.8673163,37.1511868,0 -109.867264,37.1512071,0 -109.8672211,37.1512221,0 -109.8671688,37.1512253,0 -109.8670695,37.1512199,0 -109.8669716,37.1511996,0 -109.8668925,37.1511729,0 -109.8668107,37.1511366,0 -109.8663788,37.1508743,0 -109.8654065,37.1502669,0 -109.8652135,37.1501232,0 -109.8649761,37.1499244,0 -109.8645767,37.1495509,0 -109.8636806,37.148722,0 -109.8634379,37.1485147,0 -109.8632416,37.1483735,0 -109.8629972,37.1482453,0 -109.8626961,37.1481357,0 -109.8623835,37.1480654,0 -109.8620994,37.1480401,0 -109.8618331,37.1480402,0 -109.8615716,37.1480787,0 -109.8612394,37.1481763,0 -109.8609585,37.148283,0 -109.8603272,37.148586,0 -109.8600814,37.1487116,0 -109.8596029,37.1489451,0 -109.8595422,37.1489743,0 -109.8587287,37.1493936,0 -109.858178,37.1496757,0 -109.8579588,37.1498063,0 -109.8576374,37.1500171,0 -109.8573274,37.150277,0 -109.8570588,37.1505998,0 -109.8570136,37.150672,0 -109.8568465,37.1509384,0 -109.8567217,37.1512363,0 -109.8566537,37.1515012,0 -109.8566138,37.1518019,0 -109.8566156,37.1521125,0 -109.8566439,37.1524313,0 -109.8567286,37.1529978,0 -109.8567927,37.1534213,0 -109.8569749,37.1545707,0 -109.8570282,37.1549048,0 -109.8574257,37.1572821,0 -109.8574986,37.1576316,0 -109.8576596,37.1582686,0 -109.8578688,37.1589826,0 -109.8581005,37.1596288,0 -109.8583677,37.1603592,0 -109.8585412,37.1608466,0 -109.8599102,37.1645639,0 -109.8603453,37.1657556,0 -109.8604558,37.1661078,0 -109.8605488,37.1665259,0 -109.8606331,37.1670667,0 -109.8606703,37.1675623,0 -109.8606532,37.1681343,0 -109.8604499,37.1701323,0 -109.8599301,37.1749043,0 -109.8598437,37.1758763,0 -109.8595387,37.1787304,0 -109.8594301,37.1798252,0 -109.8594363,37.1803419,0 -109.8595092,37.1808781,0 -109.8596731,37.181441,0 -109.8598973,37.1819944,0 -109.8601857,37.1824742,0 -109.8605633,37.182968,0 -109.8625606,37.1851793,0 -109.8636184,37.1864108,0 -109.8640059,37.1869881,0 -109.8642286,37.187386,0 -109.864424,37.1878075,0 -109.8646073,37.1882666,0 -109.8647663,37.1888335,0 -109.8648849,37.1893604,0 -109.8654302,37.1927067,0 -109.8655058,37.1934398,0 -109.8655184,37.193946,0 -109.865506,37.1943384,0 -109.8654664,37.1947381,0 -109.8654234,37.1951714,0 -109.8652669,37.1959064,0 -109.8649987,37.1967867,0 -109.8646983,37.1975387,0 -109.8642906,37.1983335,0 -109.8638293,37.1990685,0 -109.8632284,37.199829,0 -109.8626491,37.2004443,0 -109.8619517,37.2010938,0 -109.8607202,37.2020247,0 -109.8482224,37.2110891,0 -109.8470601,37.2118265,0 -109.8462005,37.2123207,0 -109.8454293,37.2127151,0 -109.844508,37.2131194,0 -109.8420175,37.2140993,0 -109.8375114,37.2159021,0 -109.8362561,37.216372,0 -109.835076,37.2167821,0 -109.833649,37.2171922,0 -109.8323401,37.2174742,0 -109.8285528,37.2182089,0 -109.8272868,37.2184994,0 -109.8265036,37.2188156,0 -109.8259028,37.2191744,0 -109.8253342,37.219593,0 -109.8247763,37.220174,0 -109.8227699,37.2226481,0 -109.8226505,37.2228017,0 -109.8195728,37.2265301,0 -109.8185321,37.2278884,0 -109.8176416,37.2293407,0 -109.8152062,37.2333299,0 -109.8142298,37.2349273,0 -109.8138919,37.2353159,0 -109.8136612,37.2355508,0 -109.8131784,37.2359395,0 -109.8125937,37.2362897,0 -109.8120358,37.2365331,0 -109.8113599,37.2367467,0 -109.7965522,37.239441,0 -109.7918891,37.2402895,0 -109.7898796,37.240738,0 -109.7871089,37.2414226,0 -109.7792635,37.2433558,0 -109.7741228,37.2446228,0 -109.7725483,37.2450924,0 -109.7708109,37.2457574,0 -109.763346,37.2489006,0 -109.7444036,37.2568243,0 -109.7374173,37.2597388,0 -109.7337963,37.2612496,0 -109.7327101,37.2617027,0 -109.7319167,37.2620521,0 -109.7304124,37.2628541,0 -109.7294673,37.2634414,0 -109.7230828,37.2675752,0 -109.7177545,37.2709899,0 -109.6987875,37.2832756,0 -109.6979746,37.2837885,0 -109.6978369,37.2838614,0 -109.697592,37.283991,0 -109.6972726,37.2841353,0 -109.6969268,37.2842782,0 -109.6964968,37.2844278,0 -109.6961166,37.2845259,0 -109.6956213,37.2846191,0 -109.6951361,37.2846805,0 -109.6947347,37.2847079,0 -109.6943383,37.2847068,0 -109.6938287,37.284661,0 -109.6933952,37.2846055,0 -109.6929236,37.2845089,0 -109.6925273,37.2843986,0 -109.6920834,37.284242,0 -109.6917374,37.2841017,0 -109.691462,37.2839764,0 -109.6909442,37.2836812,0 -109.6884775,37.2819235,0 -109.6835783,37.2784205,0 -109.6815866,37.2770132,0 -109.6806844,37.2763401,0 -109.680013,37.2757978,0 -109.6795513,37.2753737,0 -109.67912,37.2749447,0 -109.678886,37.2747003,0 -109.6784049,37.2741661,0 -109.677928,37.2735937,0 -109.6773548,37.2728379,0 -109.6770062,37.2723146,0 -109.6767269,37.2718648,0 -109.6763924,37.2712621,0 -109.6761635,37.2707736,0 -109.67463,37.2673461,0 -109.6743824,37.2667907,0 -109.6741756,37.2663314,0 -109.6739342,37.2656011,0 -109.6738647,37.2652239,0 -109.6737976,37.2648098,0 -109.6737443,37.2644226,0 -109.6737225,37.2641203,0 -109.6737198,37.2638257,0 -109.6737171,37.2635504,0 -109.6737242,37.2634082,0 -109.6737306,37.2632921,0 -109.6737386,37.2631277,0 -109.6737547,37.2629719,0 -109.673811,37.2626453,0 -109.6738486,37.2624126,0 -109.6738969,37.262165,0 -109.6740095,37.2616953,0 -109.6740471,37.2615374,0 -109.6740739,37.2613794,0 -109.6740739,37.2611958,0 -109.6740474,37.2610101,0 -109.6740095,37.2608414,0 -109.6739527,37.2606931,0 -109.6738513,37.260502,0 -109.6737279,37.2603334,0 -109.6736072,37.2602032,0 -109.6734597,37.2600729,0 -109.6732451,37.2599128,0 -109.6730868,37.2598253,0 -109.6729447,37.2597719,0 -109.6727997,37.2597305,0 -109.6727435,37.2597143,0 -109.6725343,37.2596759,0 -109.6720326,37.2595812,0 -109.671721,37.259545,0 -109.6706903,37.2595533,0 -109.6694024,37.2595777,0 -109.6682597,37.2596674,0 -109.6677823,37.2597357,0 -109.6672566,37.2598424,0 -109.6667632,37.2599555,0 -109.6663286,37.2600773,0 -109.6654112,37.2603975,0 -109.6652539,37.260457,0 -109.6586843,37.262942,0 -109.6575309,37.2633007,0 -109.6569247,37.2634501,0 -109.6562917,37.2635867,0 -109.6551598,37.2637447,0 -109.6541138,37.263813,0 -109.6418343,37.2641702,0 -109.639421,37.2642488,0 -109.638723,37.2642904,0 -109.6378838,37.2643579,0 -109.6273887,37.2653613,0 -109.6258931,37.2655043,0 -109.6257075,37.265522,0 
			</coordinates>
		</LineString>
		<atom:link rel="app" href="https://www.google.com/earth/about/versions/#earth-pro" title="Google Earth Pro 7.3.6.10201"></atom:link>
	</Placemark>
</Document>
</kml>
