<?xml version="1.0" encoding="UTF-8"?>
<kml xmlns="http://www.opengis.net/kml/2.2" xmlns:gx="http://www.google.com/kml/ext/2.2" xmlns:kml="http://www.opengis.net/kml/2.2" xmlns:atom="http://www.w3.org/2005/Atom">
<Document>
	<name>US.123.kml</name>
	<Placemark>
		<name>US.123</name>
			<LineString>
				<coordinates>
					-83.4475801,34.5899971,0 -83.446552,34.590467,0 -83.446203,34.590648,0 -83.44587300000001,34.59085,0 -83.445533,34.591117,0 -83.445188,34.5914390000001,0 -83.44489,34.59182,0 -83.44483,34.591902,0 -83.4446327,34.5922161,0 -83.44435590000001,34.5925254,0 -83.4440949,34.5927533,0 -83.44372199999999,34.59296,0 -83.443403,34.593075,0 -83.4430866,34.5931439,0 -83.4427544,34.5931634,0 -83.4424207,34.5931570999999,0 -83.4414506,34.593147,0 -83.4404542,34.5931459,0 -83.4402463,34.5931602999999,0 -83.44003979999999,34.5931845,0 -83.4397608,34.5932287000001,0 -83.4392673,34.5933446,0 -83.43891499999999,34.5934332,0 -83.4384506,34.59355,0 -83.4374112,34.5938238,0 -83.4337951,34.5947614,0 -83.4330889,34.5948896,0 -83.4326976,34.5949447,0 -83.4323941,34.5949704,0 -83.4319699,34.594987,0 -83.4314739,34.5949767,0 -83.4309782,34.5949309,0 -83.4292483,34.5946315,0 -83.4229871,34.5935143,0 -83.4207109,34.5930913,0 -83.4199904,34.5929091,0 -83.4192929,34.5926701,0 -83.41875589999999,34.5924474,0 -83.41823290000001,34.592197,0 -83.41800569999999,34.5920706,0 -83.4177785,34.5919441,0 -83.4173272,34.591675,0 -83.41677900000001,34.5913047,0 -83.4163978,34.5910045,0 -83.4160435,34.5906823,0 -83.41578490000001,34.5904325,0 -83.41556610000001,34.5901871,0 -83.4152742,34.5898421,0 -83.414278,34.5884807,0 -83.4136616,34.5876012,0 -83.410223,34.583023,0 -83.40970160000001,34.5822905,0 -83.4094802,34.5819709,0 -83.40892839999999,34.5811746,0 -83.4077432,34.5795334,0 -83.4052429,34.5760804,0 -83.4047156,34.575387,0 -83.4028922,34.5728913,0 -83.4027677,34.572718,0 -83.4018509,34.5714811,0 -83.4015314,34.57105,0 -83.4006258,34.5698452,0 -83.40030230000001,34.5694148,0 -83.39970599999999,34.5686044,0 -83.3988232,34.5672703,0 -83.39833470000001,34.5666377,0 -83.3978054,34.5660436000001,0 -83.3970631,34.5653211,0 -83.39670150000001,34.5649757,0 -83.39644699999999,34.5647454,0 -83.39588449999999,34.5642797,0 -83.39381950000001,34.562808,0 -83.3930739,34.5622914,0 -83.39161970000001,34.5613588,0 -83.39041020000001,34.5605436,0 -83.3881626,34.5590374,0 -83.3858761,34.5574684,0 -83.3858731,34.5574664,0 -83.38569390000001,34.5573383,0 -83.3841189,34.5562799,0 -83.38227929999999,34.5550156,0 -83.38135800000001,34.5544662,0 -83.38116170000001,34.5543751,0 -83.38091060000001,34.5542702,0 -83.38055629999999,34.5541362,0 -83.38023200000001,34.5540561,0 -83.3796705,34.5539395,0 -83.3765339,34.5534441,0 -83.375433,34.5532619,0 -83.374584,34.5530865,0 -83.3741407,34.5529467,0 -83.3738223,34.5528463,0 -83.37339590000001,34.5526617,0 -83.37284320000001,34.5523851,0 -83.3722506,34.5519909,0 -83.3715547,34.5514579,0 -83.3707842,34.5507676,0 -83.3701171,34.5501635,0 -83.3697781,34.5498575,0 -83.3695058,34.5496111999999,0 -83.3676529,34.5479123,0 -83.3667334,34.5470868,0 -83.36547419999999,34.5459557,0 -83.3650762,34.5455797000001,0 -83.3636727,34.5442543,0 -83.36257929999999,34.5431979,0 -83.3621804,34.5427961,0 -83.36174819999999,34.5423519,0 -83.3610516,34.5427627999999,0 -83.3609409,34.5428393,0 -83.3597913,34.5434801,0 -83.359453,34.54367,0 -83.359118,34.543852,0 -83.35880899999999,34.544056,0 -83.35855100000001,34.544286,0 -83.358298,34.544643,0 -83.358161,34.54492,0 -83.35805999999999,34.545274,0 -83.357917,34.545908,0 -83.35784700000001,34.546173,0 -83.357846,34.546585,0 -83.357877,34.546796,0 -83.357957,34.547203,0 -83.358,34.547512,0 -83.358007,34.547779,0 -83.358007,34.548068,0 -83.35790900000001,34.548507,0 -83.35786,34.548758,0 -83.357764,34.548978,0 -83.357572,34.5492320000001,0 -83.356633,34.550074,0 -83.35636700000001,34.550276,0 -83.356182,34.550378,0 -83.35597199999999,34.55046,0 -83.355701,34.550521,0 -83.355243,34.55058,0 -83.354789,34.550627,0 -83.354297,34.550693,0 -83.354066,34.550733,0 -83.353838,34.55076,0 -83.353661,34.550868,0 -83.35341200000001,34.550993,0 -83.35330999999999,34.551059,0 -83.353165,34.551153,0 -83.353004,34.551303,0 -83.3527204,34.5516237,0 -83.352706,34.55164,0 -83.352529,34.551872,0 -83.35246979999999,34.5519664,0 -83.35242,34.552046,0 -83.35237600000001,34.552117,0 -83.35226400000001,34.55236,0 -83.352216,34.552548,0 -83.35212199999999,34.552989,0 -83.352164,34.55446,0 -83.35213299999999,34.55479,0 -83.352125,34.554988,0 -83.352101,34.555107,0 -83.35206700000001,34.555275,0 -83.351996,34.555562,0 -83.351899,34.555894,0 -83.35186299999999,34.556071,0 -83.351814,34.556215,0 -83.35175099999999,34.556337,0 -83.351287,34.557784,0 -83.351102,34.558282,0 -83.350939,34.558626,0 -83.350863,34.558748,0 -83.350483,34.559314,0 -83.350234,34.559741,0 -83.350211,34.55978,0 -83.350182,34.559829,0 -83.350093,34.559962,0 -83.35002900000001,34.560058,0 -83.34981399999999,34.560382,0 -83.349324,34.561082,0 -83.348456,34.562338,0 -83.34804800000001,34.562929,0 -83.347819,34.563285,0 -83.347719,34.563495,0 -83.347584,34.563871,0 -83.347561,34.564048,0 -83.34758600000001,34.564464,0 -83.347684,34.565131,0 -83.34766399999999,34.565351,0 -83.347565,34.565616,0 -83.34748999999999,34.565771,0 -83.34736100000001,34.565905,0 -83.347112,34.5660003,0 -83.34696580000001,34.5660964,0 -83.3468223,34.5661869,0 -83.34656750000001,34.5663448,0 -83.3463502,34.5665072,0 -83.34618260000001,34.5666618,0 -83.3461236,34.5667402,0 -83.3460807,34.566833,0 -83.3460123,34.5669854,0 -83.3459479,34.5671875,0 -83.3459077,34.5674006,0 -83.34586880000001,34.5677871,0 -83.3458285,34.5683327,0 -83.34581110000001,34.5685049,0 -83.3457856,34.568675,0 -83.3457575,34.5688075,0 -83.3457212,34.5689389,0 -83.34567699999999,34.5690726,0 -83.34557909999999,34.569321,0 -83.34547310000001,34.5695298,0 -83.3453779,34.5697071,0 -83.3452735,34.5698771,0 -83.3450807,34.5701581,0 -83.34492729999999,34.5703569,0 -83.3444602,34.5708778,0 -83.3438941,34.5714976,0 -83.3433448,34.5720984000001,0 -83.343164,34.572294,0 -83.342917,34.5725688,0 -83.3423095,34.5732578,0 -83.342052,34.5735747,0 -83.34189600000001,34.5737584,0 -83.34132510000001,34.5744527,0 -83.3410207,34.5748049,0 -83.3406861,34.5751671,0 -83.3403273,34.5755445,0 -83.34014259999999,34.5757377,0 -83.33977609999999,34.5761212,0 -83.3395062,34.576407,0 -83.33923830000001,34.5766832,0 -83.3391316,34.5767876,0 -83.33903720000001,34.5768662,0 -83.33893260000001,34.5769306,0 -83.33883280000001,34.5769851,0 -83.3387187,34.5770298,0 -83.338606,34.5770619,0 -83.33849290000001,34.5770858,0 -83.3383776,34.5770987,0 -83.33820900000001,34.5771093,0 -83.3376317,34.5771304,0 -83.3361278,34.5771863,0 -83.3346263,34.5772393,0 -83.33375820000001,34.5772694,0 -83.3330357,34.5772945,0 -83.332544,34.5773136,0 -83.3314579,34.5773507,0 -83.3302844,34.5773926,0 -83.3298942,34.5774074,0 -83.32947369999999,34.5774214,0 -83.32878789999999,34.577443,0 -83.3283497,34.5774582,0 -83.32789099999999,34.5774748,0 -83.3268345,34.5775133,0 -83.3255719,34.5775546,0 -83.3254038,34.5775522,0 -83.32525269999999,34.5775455,0 -83.3250736,34.5775301,0 -83.32482419999999,34.5775025,0 -83.3245841,34.577465,0 -83.32428470000001,34.5774048,0 -83.3239873,34.5773298,0 -83.3237792,34.5772633,0 -83.32347439999999,34.5771565,0 -83.32295449999999,34.5769742,0 -83.322504,34.5768135,0 -83.3221652,34.5766962,0 -83.3219265,34.5766112,0 -83.32145199999999,34.5764473,0 -83.3213006,34.5763932,0 -83.3211489,34.5763424,0 -83.3209315,34.5762796,0 -83.3206995,34.5762242,0 -83.3204696,34.5761793,0 -83.32028630000001,34.5761505,0 -83.32012949999999,34.5761327,0 -83.3199362,34.5761162,0 -83.3197471,34.5761083,0 -83.3195676,34.5761094,0 -83.319243,34.5761272,0 -83.31845029999999,34.5762067,0 -83.3175667,34.5763029,0 -83.3170016,34.5763628,0 -83.31655259999999,34.5764088,0 -83.3151129,34.5765642,0 -83.3148027,34.5765966,0 -83.31461760000001,34.5766156,0 -83.3143762,34.57664,0 -83.31418170000001,34.5766598,0 -83.3115102,34.5769447,0 -83.31027400000001,34.577084,0 -83.309538,34.577204,0 -83.309269,34.577268,0 -83.309072,34.57733,0 -83.308734,34.577466,0 -83.30815800000001,34.577736,0 -83.307346,34.578198,0 -83.306631,34.578637,0 -83.30560800000001,34.579186,0 -83.304361,34.579892,0 -83.30343499999999,34.58039,0 -83.30318200000001,34.5805259999999,0 -83.303101,34.580566,0 -83.302622,34.580806,0 -83.302396,34.5808930000001,0 -83.302171,34.580968,0 -83.30188800000001,34.5810320000001,0 -83.3014374,34.5811171,0 -83.300032,34.581326,0 -83.299505,34.581415,0 -83.29937700000001,34.581436,0 -83.298816,34.581539,0 -83.29856700000001,34.581595,0 -83.29841500000001,34.581629,0 -83.298126,34.58171,0 -83.29804799999999,34.581737,0 -83.297787,34.581834,0 -83.297743,34.581852,0 -83.297499,34.581947,0 -83.297338,34.582017,0 -83.297161,34.5820940000001,0 -83.296785,34.582318,0 -83.29638,34.5826,0 -83.296183,34.582744,0 -83.296127,34.582784,0 -83.295946,34.582916,0 -83.295874,34.582978,0 -83.29568,34.583146,0 -83.295514,34.583311,0 -83.29543,34.583392,0 -83.29534700000001,34.583472,0 -83.295269,34.583559,0 -83.295064,34.583786,0 -83.294935,34.583955,0 -83.29481199999999,34.584115,0 -83.294794,34.584146,0 -83.294707,34.584298,0 -83.29455799999999,34.584549,0 -83.29442,34.584784,0 -83.29431599999999,34.58496,0 -83.29428,34.58504,0 -83.29425500000001,34.585085,0 -83.293891,34.585741,0 -83.29371,34.586122,0 -83.293425,34.586682,0 -83.293103,34.587174,0 -83.29280199999999,34.587577,0 -83.292429,34.587951,0 -83.292219,34.588173,0 -83.291937,34.588376,0 -83.291601,34.588571,0 -83.290751,34.589063,0 -83.290043,34.589503,0 -83.2863004,34.5917177,0 -83.28530499999999,34.592299,0 -83.2848092,34.5925888,0 -83.2845908,34.5927186,0 -83.284063,34.5930277,0 -83.283635,34.5932801,0 -83.2830384,34.5936208,0 -83.28243139999999,34.5939294,0 -83.2820518,34.5941002,0 -83.2818532,34.5941871,0 -83.28162140000001,34.5942834999999,0 -83.2814698,34.5943448,0 -83.2813554,34.5943916000001,0 -83.2809402,34.5945684,0 -83.28041260000001,34.5947925,0 -83.2801218,34.5949131,0 -83.27971599999999,34.5950826,0 -83.27954,34.5951559,0 -83.2791813,34.5952846,0 -83.27881499999999,34.595395,0 -83.2785324,34.5954735,0 -83.2782574,34.5955335,0 -83.27796119999999,34.5955799,0 -83.27757099999999,34.5956249,0 -83.27708800000001,34.5956542,0 -83.2768998,34.5956578,0 -83.27671599999999,34.595658,0 -83.2765023,34.5956526,0 -83.27628799999999,34.5956379999999,0 -83.275926,34.5956079999999,0 -83.2755049,34.5955523,0 -83.27511730000001,34.5955324,0 -83.27482759999999,34.5955368,0 -83.27452049999999,34.5955655,0 -83.27418249999999,34.5956229,0 -83.27391160000001,34.5956958,0 -83.2735871,34.5958106,0 -83.2733269,34.5959342,0 -83.2730198,34.5961108999999,0 -83.2726215,34.5964123,0 -83.2723519,34.5966353,0 -83.27203009999999,34.5968748,0 -83.2718115,34.5970183,0 -83.2715298,34.5971685,0 -83.2712227,34.5973032,0 -83.27095300000001,34.597395,0 -83.2706474,34.5974621,0 -83.27039929999999,34.5975008,0 -83.2701512,34.5975284,0 -83.26983199999999,34.5975306,0 -83.2695128,34.5975129,0 -83.2691614,34.5974533,0 -83.26878189999999,34.5973418,0 -83.26857939999999,34.5972656,0 -83.268283,34.5971298,0 -83.2680148,34.5969742,0 -83.2678445,34.5968583,0 -83.267701,34.5967412,0 -83.26754,34.5965867,0 -83.267414,34.5964498,0 -83.2671323,34.5960921,0 -83.26685070000001,34.5956693,0 -83.2666455,34.5953734,0 -83.26643900000001,34.5951261,0 -83.2661372,34.5948546,0 -83.26578859999999,34.5946128,0 -83.2653272,34.5943622,0 -83.2650536,34.5942529,0 -83.2646647,34.5941292,0 -83.26432269999999,34.5940564,0 -83.2639781,34.5940034,0 -83.2636213,34.5939835,0 -83.2626906,34.5939625,0 -83.2621461,34.5938941,0 -83.2616419,34.5937848,0 -83.26129589999999,34.5936645,0 -83.2609861,34.5935419,0 -83.2606736,34.5933818,0 -83.2604496,34.5932394,0 -83.2594411,34.5926278,0 -83.2590723,34.5924346,0 -83.2586244,34.5922519,0 -83.2581862,34.5921297,0 -83.25770540000001,34.5920322,0 -83.2571921,34.5919742,0 -83.25679649999999,34.5919687,0 -83.25645179999999,34.5919886,0 -83.2561031,34.5920361,0 -83.2558523,34.5920868,0 -83.25555730000001,34.5921707,0 -83.2549296,34.5924103,0 -83.2539251,34.5928552,0 -83.2516399,34.5938113,0 -83.2510565,34.5940696,0 -83.24878339999999,34.5950489,0 -83.2478794,34.595433,0 -83.2475549,34.5955887,0 -83.2472827,34.5957433,0 -83.24704800000001,34.5959022,0 -83.2468092,34.5960877,0 -83.2465826,34.5963085,0 -83.24640890000001,34.5965168,0 -83.2462577,34.5967125,0 -83.2461132,34.5969422,0 -83.24592680000001,34.5973451,0 -83.24565990000001,34.5982647,0 -83.2455298,34.5986522,0 -83.24531260000001,34.5991832,0 -83.2450913,34.5996004,0 -83.2447279,34.6001248,0 -83.24438859999999,34.6005343,0 -83.24395,34.6009770000001,0 -83.24330759999999,34.6015488,0 -83.24254190000001,34.6021151,0 -83.24186589999999,34.6025434,0 -83.2414502,34.6027576,0 -83.2409164,34.6029905,0 -83.23903749999999,34.6037852,0 -83.2380599,34.6041968,0 -83.2357557,34.6051579,0 -83.2347877,34.6055817,0 -83.23373479999999,34.6061587000001,0 -83.2330877,34.6065649,0 -83.2316446,34.6076383,0 -83.23091549999999,34.6081947,0 -83.2302342,34.6087074,0 -83.2299556,34.6089172,0 -83.2295599,34.6092151,0 -83.2276758,34.6106459,0 -83.22703009999999,34.6111259999999,0 -83.2263495,34.6116454,0 -83.22587729999999,34.6119899,0 -83.2255018,34.6122371,0 -83.22525229999999,34.6123762,0 -83.2249063,34.6125395,0 -83.22465819999999,34.6126488,0 -83.2242773,34.6127746,0 -83.2239139,34.6128828,0 -83.2236202,34.6129468,0 -83.22333860000001,34.6129943,0 -83.2228652,34.6130484,0 -83.22225229999999,34.6130715,0 -83.2216287,34.6130373,0 -83.2182021,34.6127603,0 -83.21679,34.6126499,0 -83.2159223,34.6125826,0 -83.2144792,34.6124689,0 -83.213452,34.6124181,0 -83.2125212,34.612417,0 -83.2107604,34.6124612,0 -83.210004,34.6124855,0 -83.2092409,34.6124788,0 -83.2085958,34.6124424,0 -83.20778180000001,34.6123541,0 -83.2059592,34.6121168,0 -83.20466639999999,34.6119535,0 -83.2037756,34.6118398,0 -83.2033776,34.611789,0 -83.20240800000001,34.6116654,0 -83.2017669,34.6116345,0 -83.2011473,34.6116565,0 -83.2004982,34.6117404,0 -83.1990134,34.6119886,0 -83.19625069999999,34.6124595,0 -83.1956929,34.612552,0 -83.193119,34.6129836,0 -83.1902656,34.6134689,0 -83.1897841,34.6135451,0 -83.18808629999999,34.6138331000001,0 -83.1864649,34.6141035,0 -83.184059,34.6145042,0 -83.18351850000001,34.6146234,0 -83.1830344,34.6147713,0 -83.1812793,34.6154848,0 -83.1807974,34.6156807,0 -83.1793986,34.616258,0 -83.1788468,34.6164712,0 -83.17837539999999,34.6166299,0 -83.1778362,34.6167635,0 -83.177277,34.6168562,0 -83.17661990000001,34.6169103,0 -83.1738478,34.6170791,0 -83.1733248,34.6171144,0 -83.1697226,34.6173275,0 -83.1686282,34.6173981,0 -83.168379,34.617418,0 -83.16785299999999,34.617453,0 -83.1675963,34.6174678,0 -83.1673443,34.6174715,0 -83.1670752,34.6174568,0 -83.166854,34.61743,0 -83.16661000000001,34.617388,0 -83.166381,34.617331,0 -83.166152,34.617258,0 -83.165938,34.617174,0 -83.16573200000001,34.617075,0 -83.165541,34.616968,0 -83.165358,34.61685,0 -83.16519,34.61672,0 -83.1650321,34.616579,0 -83.1648027,34.6163646,0 -83.1645609,34.6161267,0 -83.16386850000001,34.6154714,0 -83.16349219999999,34.615122,0 -83.1632742,34.6149214,0 -83.1630139,34.6146999,0 -83.1628864,34.6146031,0 -83.16274420000001,34.6145112,0 -83.1625394,34.6143855,0 -83.1623539,34.6142809,0 -83.1621399,34.6141758,0 -83.1619195,34.6140759,0 -83.16168209999999,34.6139871,0 -83.1614622,34.6139149,0 -83.1612183,34.6138461,0 -83.1608744,34.6137545,0 -83.1607396,34.6137394,0 -83.16049099999999,34.613707,0 -83.160247,34.613676,0 -83.15978629999999,34.6136268,0 -83.159499,34.613588,0 -83.15924699999999,34.613546,0 -83.1590703,34.6135056,0 -83.1588627,34.6134486999999,0 -83.15869000000001,34.613392,0 -83.15849900000001,34.613325,0 -83.15826300000001,34.613226,0 -83.15804199999999,34.613115,0 -83.15782799999999,34.612993,0 -83.157674,34.612892,0 -83.1575821,34.6128265,0 -83.15743000000001,34.6126957,0 -83.1571062,34.6124156,0 -83.1568047,34.6121487,0 -83.1565975,34.6119916,0 -83.156436,34.6118774,0 -83.15626589999999,34.6117725,0 -83.1561547,34.6117064,0 -83.1559098,34.6115658,0 -83.1556969,34.6114658000001,0 -83.1554524,34.6113722,0 -83.1551829,34.6112735,0 -83.15478280000001,34.611159,0 -83.1545457,34.6111125,0 -83.154281,34.6110675,0 -83.15375400000001,34.6109982,0 -83.1534757,34.6109639,0 -83.1531892,34.6109239,0 -83.15293130000001,34.6108837,0 -83.1526801,34.6108326,0 -83.1524076,34.6107655,0 -83.1521714,34.6106948999999,0 -83.1519194,34.610605,0 -83.15174210000001,34.6105358,0 -83.1515648,34.6104553,0 -83.15138140000001,34.6103622,0 -83.1512312,34.6102772,0 -83.15108050000001,34.6101849,0 -83.15094879999999,34.6100904,0 -83.1508261,34.6100131,0 -83.1506504,34.6098851,0 -83.15047199999999,34.6097438,0 -83.1502977,34.6096191,0 -83.1501073,34.6094955,0 -83.1499115,34.6093862,0 -83.1496795,34.6092758,0 -83.1494484,34.609187,0 -83.1492195,34.609118,0 -83.1489928,34.609065,0 -83.1487487,34.6090224,0 -83.1484966,34.6089944,0 -83.1482213,34.6089772,0 -83.14798709999999,34.6089866,0 -83.1477261,34.609004,0 -83.1475512,34.6090325,0 -83.1473757,34.6090726,0 -83.1472241,34.6090998000001,0 -83.1470858,34.6091456,0 -83.1468698,34.6092195,0 -83.146666,34.6093045,0 -83.1465022,34.6093866,0 -83.1463317,34.6094884,0 -83.1461839,34.6095896,0 -83.1460598,34.6096801,0 -83.1459294,34.6097850000001,0 -83.1458152,34.6099,0 -83.1457056,34.6100173,0 -83.145591,34.6101597,0 -83.14549239999999,34.6102953,0 -83.1453853,34.6104634,0 -83.14530329999999,34.6106132,0 -83.1452295,34.6107742,0 -83.1451687,34.610926,0 -83.144972,34.611486,0 -83.14479129999999,34.6119959,0 -83.14459600000001,34.6126005,0 -83.1443491,34.6133618,0 -83.144171,34.613874,0 -83.1439293,34.6145711,0 -83.14370510000001,34.6152602,0 -83.14357099999999,34.615609,0 -83.14350399999999,34.6157856,0 -83.1434443,34.6159092,0 -83.14334909999999,34.6160816,0 -83.1432573,34.6162455,0 -83.14313610000001,34.6164415,0 -83.14301039999999,34.6166321,0 -83.142852,34.616827,0 -83.142706,34.617002,0 -83.1425141,34.6172057,0 -83.14222599999999,34.617491,0 -83.1420255,34.6176555,0 -83.14184590000001,34.6177998,0 -83.14158620000001,34.6179897,0 -83.1409733,34.6184146,0 -83.1406997,34.6185996,0 -83.14006259999999,34.6190411,0 -83.1395048,34.6194321,0 -83.1387016,34.6199829,0 -83.1383266,34.6202565,0 -83.1381233,34.6204227,0 -83.13793,34.6205979,0 -83.13776300000001,34.620772,0 -83.13761,34.620951,0 -83.13747050000001,34.6211299000001,0 -83.1373698,34.621283,0 -83.1372477,34.6214949,0 -83.1371444,34.6216869,0 -83.1370653,34.6218855,0 -83.13698890000001,34.6220819999999,0 -83.1369191,34.6223093,0 -83.1368749,34.6225069,0 -83.13683330000001,34.622743,0 -83.1367944,34.6230355,0 -83.1367233,34.6236325,0 -83.13664559999999,34.6241634,0 -83.13661070000001,34.6244624,0 -83.13655439999999,34.6249381,0 -83.1364578,34.6257404,0 -83.13639209999999,34.6262072,0 -83.136341,34.6265585,0 -83.1363116,34.6268638,0 -83.13619799999999,34.627623,0 -83.1360729,34.6287985,0 -83.13596699999999,34.6294902,0 -83.1358919,34.6301248,0 -83.13584090000001,34.6305573,0 -83.1357837,34.6309512,0 -83.13571210000001,34.6315195999999,0 -83.1356083,34.6323463,0 -83.1354755,34.6333527,0 -83.13535520000001,34.6342062,0 -83.1352395,34.635199,0 -83.13507490000001,34.6365300000001,0 -83.1349558,34.6375343,0 -83.1348909,34.63793,0 -83.13484800000001,34.6382111,0 -83.1347997,34.6386498999999,0 -83.1347817,34.6388262,0 -83.1347525,34.6390363,0 -83.13467110000001,34.6395491,0 -83.1346262,34.6398767,0 -83.1345884,34.6402762,0 -83.13454590000001,34.6406004,0 -83.1345151,34.6408756,0 -83.1344526,34.6413047,0 -83.1344187,34.6416565,0 -83.13439990000001,34.6418048,0 -83.1343717,34.6420446,0 -83.1343339,34.6422851,0 -83.1342849,34.6426617,0 -83.1342628,34.6428278,0 -83.13423229999999,34.6431261,0 -83.1341783,34.643528,0 -83.134101,34.643992,0 -83.1340563,34.6443071,0 -83.1340371,34.644465,0 -83.1340301,34.6447053,0 -83.1340088,34.6449211,0 -83.1339753,34.6452072,0 -83.1339373,34.6454607,0 -83.13390010000001,34.645699,0 -83.1338745,34.6459315,0 -83.133849,34.6461102,0 -83.13383090000001,34.6462561,0 -83.13368800000001,34.647364,0 -83.1336295,34.6478837,0 -83.13354649999999,34.6485139999999,0 -83.1335081,34.6488345,0 -83.133467,34.649119,0 -83.133437,34.649385,0 -83.1333976,34.6496702,0 -83.1333382,34.6501883,0 -83.1333078,34.6504335,0 -83.1332864,34.6506189,0 -83.133223,34.6510749999999,0 -83.1331445,34.651686,0 -83.1330648,34.6523081,0 -83.133002,34.6527222,0 -83.132926,34.653116,0 -83.13278800000001,34.65373,0 -83.132735,34.653933,0 -83.132552,34.654558,0 -83.132346,34.655172,0 -83.13226899999999,34.655375,0 -83.132079,34.655817,0 -83.1320032,34.6559904,0 -83.13176009999999,34.6565082,0 -83.1315146,34.6569884,0 -83.131293,34.657362,0 -83.1310714,34.6577278,0 -83.1309297,34.6579514,0 -83.130759,34.658209,0 -83.13047539999999,34.6586049,0 -83.13022239999999,34.6589423,0 -83.12988780000001,34.65937,0 -83.12967500000001,34.6596170000001,0 -83.12952300000001,34.659796,0 -83.12921,34.660143,0 -83.12905000000001,34.660311,0 -83.128569,34.660795,0 -83.12804300000001,34.66128,0 -83.1277671,34.6615123,0 -83.12728,34.661905,0 -83.126875,34.662214,0 -83.126662,34.662367,0 -83.126464,34.66252,0 -83.1256226,34.6631175,0 -83.12528,34.663367,0 -83.1245771,34.663868,0 -83.1244063,34.6639907,0 -83.124236,34.664114,0 -83.1239753,34.6643036,0 -83.123625,34.664553,0 -83.12274410000001,34.6651957,0 -83.12217510000001,34.6656,0 -83.1216446,34.6659664,0 -83.120467,34.666815,0 -83.120085,34.667078,0 -83.119879,34.6672,0 -83.119681,34.667326,0 -83.11933070000001,34.6675026,0 -83.11914280000001,34.6675889,0 -83.118827,34.667727,0 -83.1186111,34.667809,0 -83.118376,34.667891,0 -83.11814,34.667959,0 -83.117987,34.667998,0 -83.1177694,34.6680458,0 -83.1172667,34.668141,0 -83.1166577,34.6682195,0 -83.1162054,34.6682777,0 -83.1149207,34.6684492,0 -83.11377210000001,34.6686044,0 -83.11328330000001,34.668664,0 -83.11291730000001,34.6687167,0 -83.11244790000001,34.6687831,0 -83.1119466,34.6688492,0 -83.11075169999999,34.6689881,0 -83.11015639999999,34.6690649,0 -83.1101051,34.6690702,0 -83.1081149,34.6693321,0 -83.1071661,34.6694545,0 -83.1066457,34.6695306,0 -83.10604960000001,34.6696177000001,0 -83.1051484,34.6697562,0 -83.1044121,34.6698483,0 -83.1041341,34.6698554,0 -83.1038192,34.669865,0 -83.10351350000001,34.6698554,0 -83.10314,34.6698250000001,0 -83.102988,34.669809,0 -83.102762,34.6697818,0 -83.10239679999999,34.6697251,0 -83.10200639999999,34.6696603,0 -83.1017162,34.6695806,0 -83.1015467,34.6695233,0 -83.10143739999999,34.669493,0 -83.10127230000001,34.6694199,0 -83.10105,34.669306,0 -83.100691,34.669069,0 -83.100607,34.669005,0 -83.100531,34.668928,0 -83.10050099999999,34.66889,0 -83.1004616,34.6688334999999,0 -83.1004338,34.6687738,0 -83.1003906,34.6686458,0 -83.1002519,34.6682456,0 -83.1001784,34.668051,0 -83.10013480000001,34.6679424,0 -83.1000386,34.6677025,0 -83.0999484,34.6675573,0 -83.09988509999999,34.6674479,0 -83.09981430000001,34.6673457,0 -83.0996967,34.6672314,0 -83.09927999999999,34.666922,0 -83.098929,34.666643,0 -83.09847670000001,34.666292,0 -83.0982984,34.6661537,0 -83.0981949,34.666066,0 -83.09781580000001,34.6657446,0 -83.097358,34.665415,0 -83.09725210000001,34.6653317,0 -83.09700599999999,34.665148,0 -83.096892,34.665056,0 -83.09666300000001,34.664885,0 -83.09621300000001,34.664534,0 -83.095992,34.6643699999999,0 -83.09564899999999,34.664156,0 -83.095488,34.664064,0 -83.09529000000001,34.663954,0 -83.09505299999999,34.663828,0 -83.0949256,34.6637695,0 -83.09481700000001,34.663733,0 -83.094695,34.663702,0 -83.0946149,34.6636863,0 -83.09451610000001,34.6636359999999,0 -83.0944544,34.6636239,0 -83.0942573,34.6636018,0 -83.09415129999999,34.6635732,0 -83.0940715,34.6635483,0 -83.0940025,34.6635186,0 -83.0938888,34.6635075,0 -83.09384970000001,34.6634819,0 -83.0938271,34.6634621,0 -83.093733,34.6633932,0 -83.0936371,34.6633131,0 -83.0933187,34.6630339,0 -83.0927387,34.6625569,0 -83.0924211,34.6623048,0 -83.09229910000001,34.6621988,0 -83.09216910000001,34.6620988,0 -83.0920471,34.6619958,0 -83.0919251,34.6619008,0 -83.0916811,34.6616948,0 -83.0911898,34.661266,0 -83.0910337,34.6611523,0 -83.0909558,34.6610988,0 -83.09091479999999,34.661071,0 -83.0908146,34.6609907,0 -83.09067349999999,34.6608775,0 -83.0905607,34.6607839,0 -83.090227,34.660507,0 -83.0901705,34.6604615,0 -83.0900956,34.660401,0 -83.0900044,34.6603274,0 -83.0894874,34.6599208,0 -83.0894203,34.6598703,0 -83.0893495,34.6598115,0 -83.0892949,34.6597664,0 -83.08888330000001,34.6594306,0 -83.0886895,34.6592565,0 -83.0883845,34.6590005,0 -83.08816330000001,34.6588423,0 -83.0879601,34.6587149,0 -83.0878433,34.6586513,0 -83.0877464,34.6585953,0 -83.0876031,34.658524,0 -83.0873296,34.6584302,0 -83.08704830000001,34.6583643,0 -83.0867813,34.6583203,0 -83.0855225,34.6581567,0 -83.08498640000001,34.6580866,0 -83.08457869999999,34.6580542,0 -83.0843733,34.6580503,0 -83.0840261,34.65809,0 -83.0837131,34.6581731,0 -83.0835266,34.658263,0 -83.083332,34.6583607,0 -83.08291850000001,34.6586362,0 -83.08241219999999,34.6589542,0 -83.0822708,34.6590369999999,0 -83.08213430000001,34.6591181,0 -83.0819412,34.659266,0 -83.0817991,34.659359,0 -83.0815425,34.6595724,0 -83.0814515,34.6596484,0 -83.0812375,34.6598314,0 -83.0808404,34.6601994,0 -83.0808104,34.6602304,0 -83.0806654,34.6603604,0 -83.0805124,34.6604894,0 -83.08037539999999,34.6606194,0 -83.0801685,34.6607832,0 -83.07975519999999,34.661116,0 -83.079498,34.6612764,0 -83.0792393,34.6614191,0 -83.07905580000001,34.6615034,0 -83.07885349999999,34.6615843,0 -83.0785017,34.6616977,0 -83.0780398,34.6618131,0 -83.07767,34.6619051,0 -83.0771457,34.6620333,0 -83.0769516,34.662073,0 -83.0762119,34.6622583,0 -83.0757996,34.6623655,0 -83.0755474,34.6624529,0 -83.0752229,34.6625788,0 -83.07508540000001,34.6626382,0 -83.0748261,34.6627641,0 -83.0746972,34.6628422,0 -83.0745782,34.6629179,0 -83.0743401,34.6630741,0 -83.0741417,34.6632256,0 -83.0739434,34.6633818,0 -83.072661,34.6644412,0 -83.07220049999999,34.6648188000001,0 -83.0720003,34.6649910000001,0 -83.0715895,34.6653179,0 -83.0712946,34.6655455,0 -83.07103789999999,34.6657094,0 -83.07065660000001,34.6659305,0 -83.0704513,34.6660304,0 -83.0701542,34.6660933,0 -83.0697862,34.6662392,0 -83.06923089999999,34.6664311,0 -83.068922,34.6665095,0 -83.06861960000001,34.6665595,0 -83.0684512,34.6665949,0 -83.0682585,34.6666275,0 -83.067679,34.6666811,0 -83.0670555,34.6666975,0 -83.0668373,34.6666892999999,0 -83.0665922,34.666673,0 -83.0662308,34.6666392,0 -83.06573349999999,34.6665716,0 -83.0653325,34.6665133,0 -83.0647062,34.6664224,0 -83.06416350000001,34.6663467,0 -83.0628981,34.6661672,0 -83.06232989999999,34.6660891,0 -83.0612998,34.6659528,0 -83.06078119999999,34.6658887,0 -83.05977230000001,34.6657779,0 -83.05820799999999,34.6656404,0 -83.05690300000001,34.6655507,0 -83.05540910000001,34.6654526,0 -83.0543607,34.6653855,0 -83.05421219999999,34.6653761,0 -83.053096,34.6653077,0 -83.05167059999999,34.6652195,0 -83.0510975,34.6651813,0 -83.0499155,34.6651082,0 -83.0491585,34.6650615,0 -83.0484312,34.6650166,0 -83.04799970000001,34.66499,0 -83.0476446,34.6649689,0 -83.0458885,34.6648645,0 -83.0457668,34.6648561,0 -83.04487659999999,34.6647949,0 -83.0444945,34.6647729,0 -83.0440795,34.664749,0 -83.0432823,34.6647015,0 -83.04246860000001,34.6646488,0 -83.0417195,34.6646026,0 -83.04161569999999,34.6645962,0 -83.0411873,34.6645651,0 -83.04107279999999,34.6645644,0 -83.04024649999999,34.6645333,0 -83.03951960000001,34.6645299,0 -83.0389249,34.6645486,0 -83.0385965,34.6645656,0 -83.0379811,34.6646064,0 -83.03753260000001,34.6646436,0 -83.0369547,34.6647066,0 -83.0361121,34.6648238,0 -83.0353583,34.6649648,0 -83.0346128,34.6651227,0 -83.0338363,34.6653215,0 -83.03333480000001,34.6654782,0 -83.03307789999999,34.6655585,0 -83.0325263,34.6657316,0 -83.03219660000001,34.6658484,0 -83.03216380000001,34.6658597,0 -83.0318122,34.6659921,0 -83.0311787,34.6662496,0 -83.0303504,34.6665992,0 -83.0295507,34.6669466,0 -83.0290507,34.6671696,0 -83.0283341,34.6674732,0 -83.02700710000001,34.668048,0 -83.02604239999999,34.6684417,0 -83.02503299999999,34.6688963,0 -83.0242782,34.6692278,0 -83.0236846,34.6694818,0 -83.0235967,34.6695144999999,0 -83.0229313,34.6698011,0 -83.0221432,34.6701394,0 -83.02079430000001,34.6707256,0 -83.0202445,34.670957,0 -83.0194443,34.6712815,0 -83.01868020000001,34.6716093,0 -83.0178128,34.6719813,0 -83.0172591,34.6722172,0 -83.0166832,34.6724636,0 -83.0164486,34.6725659,0 -83.01585300000001,34.6728254000001,0 -83.01540900000001,34.673036,0 -83.0150084,34.6732686000001,0 -83.01456640000001,34.6735438,0 -83.014205,34.6738087,0 -83.013952,34.674,0 -83.01392420000001,34.674021,0 -83.0136268,34.6742826,0 -83.0134058,34.6744932,0 -83.0131566,34.6747918,0 -83.01285919999999,34.6751437,0 -83.0126661,34.675386,0 -83.0125286,34.6756042,0 -83.01238960000001,34.675819,0 -83.01217149999999,34.6762087,0 -83.0120242,34.6765035,0 -83.0118023,34.6769806,0 -83.01159699999999,34.6774182,0 -83.0113753,34.6779181,0 -83.01114750000001,34.6784071,0 -83.0108585,34.6790321,0 -83.0106028,34.67956,0 -83.01034300000001,34.6801096,0 -83.0100387,34.6806283,0 -83.0097636,34.681002,0 -83.0094746,34.6813539,0 -83.0091731,34.6816875000001,0 -83.0089299,34.681916,0 -83.0086465,34.6821617,0 -83.0081213,34.6825547,0 -83.0079142,34.6826964,0 -83.00776,34.6828027,0 -83.00751820000001,34.6829512,0 -83.0070736,34.683198,0 -83.0065623,34.6834425,0 -83.00606209999999,34.6836527,0 -83.00573420000001,34.683759,0 -83.0051854,34.6839475,0 -83.0046268,34.6841303,0 -83.00415510000001,34.6843292,0 -83.0034864,34.6845669,0 -83.0032556,34.684649,0 -83.00274210000001,34.6848317,0 -83.00272200000001,34.6848388,0 -83.0021397,34.6850627,0 -83.00164940000001,34.6852479,0 -83.0011511,34.6854320000001,0 -83.00079169999999,34.6855577,0 -83.00031420000001,34.6857275,0 -82.99993600000001,34.6858687,0 -82.9995176,34.6860142,0 -82.9991534,34.6861716,0 -82.9989348,34.6862633,0 -82.998758,34.6863386,0 -82.9983336,34.6865639,0 -82.9981195,34.686683,0 -82.9979721,34.6867822,0 -82.9975695,34.6870475,0 -82.9974826,34.6871063,0 -82.997434,34.6871379,0 -82.99712239999999,34.6873469,0 -82.9969296,34.6875011,0 -82.99665709999999,34.6877371,0 -82.9963642,34.6879923,0 -82.9963073,34.6880419,0 -82.9961825,34.688139,0 -82.99578289999999,34.688479,0 -82.9956451,34.688601,0 -82.9955368,34.6887004,0 -82.99538149999999,34.6888326,0 -82.9949763,34.6891907,0 -82.99480819999999,34.6893258,0 -82.9946247,34.6894864,0 -82.99459,34.6895128,0 -82.9943447,34.6896969,0 -82.9940208,34.6899138,0 -82.9938559,34.6900121,0 -82.9938105,34.6900404,0 -82.99371720000001,34.690091,0 -82.993605,34.6901516,0 -82.99356659999999,34.6901716,0 -82.99344499999999,34.6902349,0 -82.9932116,34.6903319,0 -82.9931797,34.6903451,0 -82.99284230000001,34.6904832,0 -82.9926645,34.690542,0 -82.992498,34.6905980000001,0 -82.9922637,34.6906733,0 -82.9920341,34.6907471,0 -82.99188119999999,34.690791,0 -82.9918115,34.690811,0 -82.99159160000001,34.69087,0 -82.99116239999999,34.6909853,0 -82.9907225,34.6911154,0 -82.9905053,34.6911859,0 -82.9901752,34.6912782,0 -82.9898374,34.6913646,0 -82.9895933,34.6914307,0 -82.9886733,34.6916976,0 -82.98859229999999,34.6917209,0 -82.987759,34.6919609,0 -82.9874973,34.6920363,0 -82.9872491,34.6921078,0 -82.9871232,34.6921438,0 -82.98664220000001,34.6922811,0 -82.9862067,34.6924054,0 -82.9856063,34.6925769,0 -82.9852145,34.6926895,0 -82.98500559999999,34.6927495,0 -82.9849868,34.6927549,0 -82.98468459999999,34.6928417,0 -82.98450680000001,34.6928809,0 -82.9840519,34.6929811,0 -82.9834243,34.6930561,0 -82.9827805,34.6930892,0 -82.98200540000001,34.6931002,0 -82.98152930000001,34.693087,0 -82.9813455,34.6930759,0 -82.9802157,34.6930555,0 -82.9799575,34.6930583,0 -82.97992669999999,34.6930569,0 -82.97953149999999,34.6930392,0 -82.9793741,34.6930444,0 -82.9792597,34.6930465,0 -82.9790386,34.6930468,0 -82.97876170000001,34.6930515,0 -82.97858340000001,34.6930499,0 -82.9785177,34.6930493,0 -82.9782573,34.6930418,0 -82.97798090000001,34.6930338,0 -82.9779707,34.6930335,0 -82.9777673,34.6930369,0 -82.9777066,34.6930379,0 -82.97757369999999,34.6930401,0 -82.9773349,34.6930539,0 -82.97695450000001,34.6930864,0 -82.9768631,34.6930943,0 -82.97672919999999,34.6931097,0 -82.97632849999999,34.6931656,0 -82.9763008,34.6931692,0 -82.9760185,34.6932276,0 -82.9758602,34.6932603,0 -82.97575759999999,34.6932784,0 -82.9756191,34.6933113,0 -82.9755614,34.6933235,0 -82.9754392,34.6933494,0 -82.975112,34.6934412,0 -82.9749545,34.6934855,0 -82.9748282,34.6935209,0 -82.97467159999999,34.6935715,0 -82.97452130000001,34.6936201,0 -82.9741921,34.6937363,0 -82.9740953,34.693765,0 -82.9739678,34.6938027,0 -82.9738072,34.6938837,0 -82.97374499999999,34.693915,0 -82.973395,34.694098,0 -82.97320740000001,34.6941895,0 -82.97302089999999,34.6942719,0 
				
					-82.97301884748742,34.69427029842356,0 -82.972426,34.694575,0 -82.97229830000001,34.6946372,0 -82.97209650000001,34.6947373,0 -82.9718294,34.6948697,0 -82.97172399999999,34.694922,0 -82.97126040000001,34.6951495,0 -82.971243,34.695158,0 -82.970274,34.695643,0 -82.9700737,34.695747,0 -82.9697759,34.6958835,0 -82.96965760000001,34.6959399,0 -82.96956489999999,34.695984,0 -82.96947419999999,34.6960263,0 -82.9693765,34.6960719,0 -82.9691461,34.6961893,0 -82.96892579999999,34.6963029,0 -82.96867709999999,34.6964243,0 -82.9684321,34.6965445,0 -82.96783000000001,34.6968127,0 -82.96757460000001,34.6969177000001,0 -82.9670701,34.6971054999999,0 -82.9667771,34.6971983,0 -82.9662412,34.6973583,0 -82.9660081,34.6974133,0 -82.9656165,34.6974878,0 -82.9652433,34.6975492,0 -82.96487399999999,34.6976028,0 -82.9646236,34.6976311,0 -82.96453959999999,34.6976411,0 -82.96431870000001,34.6976571,0 -82.9642589,34.6976612,0 -82.9638837,34.6976868,0 -82.9638411,34.6976897,0 -82.96358909999999,34.6976915,0 -82.9634271,34.6976888,0 -82.963345,34.6976874,0 -82.9632773,34.6976849,0 -82.9625052,34.6976569,0 -82.9623096,34.6976498,0 -82.9622133,34.6976463,0 -82.9621339,34.6976434,0 -82.9618909,34.6976726,0 -82.96171940000001,34.6976899,0 -82.96044860000001,34.6976462,0 -82.9598007,34.6976235,0 -82.9595101,34.6976147,0 -82.9587581,34.6975879,0 -82.9583457,34.6975705,0 -82.9575672,34.6975447,0 -82.95618109999999,34.6974933,0 -82.9555156,34.6974707,0 -82.9553413,34.6974098,0 -82.9549435,34.6973918,0 -82.95479760000001,34.6973762,0 -82.9545117,34.697357,0 -82.9542618,34.6973494000001,0 -82.9534816,34.6973256,0 -82.95330149999999,34.6973235,0 -82.9529692,34.6973196,0 -82.9529507,34.6973194,0 -82.9525412,34.6973011,0 -82.9522748,34.6972891,0 -82.9520005,34.6972768,0 -82.951955,34.6972748,0 -82.951621,34.6972628,0 -82.9510274,34.697247,0 -82.950506,34.6972332,0 -82.9503053,34.6972293,0 -82.950148,34.6972257,0 -82.94972730000001,34.6972111,0 -82.94947860000001,34.6971996,0 -82.9492346,34.6971916,0 -82.94902159999999,34.6971846,0 -82.94892520000001,34.6971853,0 -82.9485653,34.6971877,0 -82.9483572,34.6971907,0 -82.94819699999999,34.697193,0 -82.9480791,34.6971954,0 -82.9476257,34.697219,0 -82.9473699,34.6972509,0 -82.947248,34.6972658,0 -82.94690490000001,34.6973079,0 -82.946849,34.6973165,0 -82.9466695,34.6973442,0 -82.94635289999999,34.6974039,0 -82.9462259,34.6974299,0 -82.9460867,34.6974701,0 -82.9459583,34.6974953,0 -82.94578009999999,34.6975373,0 -82.94535209999999,34.6976523,0 -82.9452422,34.6976874,0 -82.9449481,34.6977813,0 -82.9447966,34.6978366,0 -82.9445511,34.6979263,0 -82.9442304,34.698047,0 -82.944181,34.6980656,0 -82.94389940000001,34.6982011,0 -82.9437216,34.6982866,0 -82.94361550000001,34.6983397,0 -82.943528,34.6983835,0 -82.9430565,34.6986195,0 -82.9427036,34.6987875,0 -82.94253519999999,34.6988676,0 -82.94239450000001,34.6989375,0 -82.94162540000001,34.6993193,0 -82.9413668,34.6994437000001,0 -82.94127349999999,34.6994886,0 -82.9411611,34.6995329,0 -82.9410086,34.699593,0 -82.9408615,34.6996509,0 -82.9407403,34.6997167,0 -82.94055,34.69982,0 -82.940237,34.699904,0 -82.940128,34.6999269999999,0 -82.93992009999999,34.6999719000001,0 -82.939589,34.700026,0 -82.93950169999999,34.7000353,0 -82.93906920000001,34.7000508,0 -82.9388634,34.7000408,0 -82.938709,34.7000352,0 -82.9384063,34.7000241,0 -82.93822950000001,34.7000225,0 -82.9380816,34.7000093,0 -82.93754029999999,34.6999462,0 -82.9370789,34.6998509999999,0 -82.93665230000001,34.6997797,0 -82.93601839999999,34.6996482,0 -82.93574889999999,34.6995952,0 -82.9355865,34.6995632,0 -82.9354778,34.6995478,0 -82.935315,34.699524,0 -82.935278,34.699518,0 -82.934721,34.699442,0 -82.934263,34.699392,0 -82.933752,34.6993659999999,0 -82.9335,34.699362,0 -82.932768,34.699377,0 -82.9326899,34.699383,0 -82.932417,34.699406,0 -82.932329,34.699412,0 -82.932287,34.699415,0 -82.932211,34.699427,0 -82.932036,34.699446,0 -82.93195830000001,34.6994549,0 -82.93178399999999,34.69948,0 -82.93132900000001,34.6995522,0 -82.93128,34.69956,0 -82.931029,34.69961,0 -82.93091680000001,34.6996305,0 -82.9303019,34.6997427,0 -82.9290992,34.6999606000001,0 -82.928793,34.700014,0 -82.92792300000001,34.700178,0 -82.9276141,34.7002314,0 -82.92710700000001,34.700327,0 -82.9269824,34.7003498,0 -82.92642840000001,34.7004511,0 -82.9259003,34.7005476,0 -82.92558099999999,34.700606,0 -82.925482,34.700621,0 -82.92419630000001,34.7008317,0 -82.923163,34.700991,0 -82.9229402,34.7010229,0 -82.9218083,34.7011855,0 -82.921342,34.701247,0 -82.92092,34.701304,0 -82.920304,34.701393,0 -82.91959199999999,34.701495,0 -82.918791,34.7016010000001,0 -82.917342,34.701803,0 -82.916884,34.701872,0 -82.91607500000001,34.701983,0 -82.915808,34.702032,0 -82.915541,34.702055,0 -82.914259,34.702234,0 -82.913912,34.7022800000001,0 -82.91373299999999,34.702303,0 -82.9132561,34.7023726,0 -82.912924,34.702421,0 -82.9117332,34.7025856,0 -82.908613,34.703017,0 -82.908148,34.703078,0 -82.907591,34.703142,0 -82.907515,34.7031500000001,0 -82.90671399999999,34.703226,0 -82.90651699999999,34.703242,0 -82.90618000000001,34.703268,0 -82.905669,34.703299,0 -82.905035,34.703329,0 -82.904448,34.703337,0 -82.903875,34.703337,0 -82.9031092,34.7033107,0 -82.90169400000001,34.703238,0 -82.900946,34.703169,0 -82.900465,34.703116,0 -82.90003,34.703062,0 -82.89949729999999,34.7029872,0 -82.899382,34.702971,0 -82.89915999999999,34.702936,0 -82.898443,34.70281,0 -82.8980205,34.7027243,0 -82.897955,34.702711,0 -82.89699400000001,34.702498,0 -82.89675699999999,34.70244,0 -82.896277,34.702314,0 -82.895804,34.702185,0 -82.8956194,34.7021262,0 -82.8954416,34.7020735,0 -82.894346,34.701727,0 -82.89399880000001,34.7015992,0 -82.8934,34.701388,0 -82.891119,34.70048,0 -82.8910896,34.7004681,0 -82.89060000000001,34.70027,0 -82.88941459999999,34.699785,0 -82.88792410000001,34.6992108,0 -82.88783100000001,34.699175,0 -82.88688500000001,34.6988050000001,0 -82.885977,34.698435,0 -82.884863,34.698,0 -82.884649,34.697912,0 -82.884428,34.697829,0 -82.884215,34.6977410000001,0 -82.883993,34.697657,0 -82.883178,34.697333,0 -82.883062,34.697287,0 -82.882811,34.697184,0 -82.88255100000001,34.697085,0 -82.88175,34.696768,0 -82.88096400000001,34.696447,0 -82.880461,34.69623,0 -82.880202,34.696127,0 -82.879942,34.696032,0 -82.87969,34.695929,0 -82.879431,34.695841,0 -82.87901100000001,34.695708,0 -82.878912,34.695677,0 -82.87866,34.695589,0 -82.8783167,34.6954537,0 -82.877943,34.695276,0 -82.87788500000001,34.695247,0 -82.877501,34.695051,0 -82.8774351,34.6950199,0 -82.87705,34.694838,0 -82.876356,34.694544,0 -82.875654,34.694254,0 -82.87541,34.694159,0 -82.8750883,34.6940285,0 -82.874779,34.693903,0 -82.8747477,34.6938904,0 -82.874685,34.693865,0 -82.87445700000001,34.693766,0 -82.873587,34.693411,0 -82.873266,34.693285,0 -82.87302200000001,34.693182,0 -82.872771,34.693083,0 -82.87226699999999,34.692892,0 -82.872015,34.692801,0 -82.8718016,34.6927126,0 -82.87153499999999,34.692614,0 -82.871061,34.692423,0 -82.87081000000001,34.692332,0 -82.870771,34.692319,0 -82.87003199999999,34.692064,0 -82.869497,34.691893,0 -82.868719,34.69163,0 -82.86846,34.691538,0 -82.868208,34.691443,0 -82.867712,34.691244,0 -82.867468,34.691141,0 -82.86698,34.690924,0 -82.866484,34.690729,0 -82.8661609,34.6905996,0 -82.8656974,34.6904655,0 -82.8652531,34.6903802,0 -82.8648668,34.6903262,0 -82.8645975,34.6903062,0 -82.8642602,34.6902807,0 -82.86414499999999,34.6902766,0 -82.86363969999999,34.6902902,0 -82.863314,34.6903199,0 -82.8630331,34.6903572,0 -82.862696,34.6904166,0 -82.86228509999999,34.6905266,0 -82.8620391,34.6906005,0 -82.8618326,34.6906694,0 -82.861609,34.690756,0 -82.86138699999999,34.690844,0 -82.861239,34.690907,0 -82.8609348,34.6909693,0 -82.8606849,34.6910936,0 -82.860032,34.6914198,0 -82.85987129999999,34.6914942,0 -82.85916570000001,34.6918205,0 -82.8588444,34.6919643,0 -82.8586234,34.6920612,0 -82.8583016,34.6921942,0 -82.85815289999999,34.692251,0 -82.8580192,34.6922973999999,0 -82.85786349999999,34.692348,0 -82.85757289999999,34.6924955,0 -82.8572133,34.6925944,0 -82.8569126,34.6926708000001,0 -82.8566414,34.6926903,0 -82.8563893,34.692741,0 -82.85591239999999,34.6928156,0 -82.8554663,34.6928702,0 -82.8550846,34.6929016,0 -82.8547166,34.6929194,0 -82.854443,34.6929258,0 -82.85416119999999,34.6929289,0 -82.8538961,34.6929234,0 -82.85363700000001,34.6929137,0 -82.8528743,34.6928791,0 -82.8525173,34.6928643,0 -82.85195830000001,34.6928432000001,0 -82.8493435,34.6927374,0 -82.84920409999999,34.6927353,0 -82.8482781,34.6927151,0 -82.8480228,34.6926995,0 -82.8476204,34.6926964,0 -82.8473145,34.6926770999999,0 -82.8471833,34.6926689,0 -82.8468845,34.6926501,0 -82.8467321,34.6926405,0 -82.84653520000001,34.6926198,0 -82.8464682,34.6926128,0 -82.84621300000001,34.6925860000001,0 -82.84566289999999,34.6925381,0 -82.8452971,34.6925062,0 -82.84519280000001,34.6924954,0 -82.84462069999999,34.6924232,0 -82.8444561,34.6924024,0 -82.8443602,34.6923904,0 -82.8441727,34.692367,0 -82.8435561,34.69229,0 -82.8433694,34.6922667,0 -82.8432652,34.6922537,0 -82.84311460000001,34.6922322000001,0 -82.8428765,34.6921981,0 -82.8426722,34.6921689,0 -82.84202019999999,34.6920927,0 -82.8417409,34.6920477,0 -82.8414897,34.6920072,0 -82.8406677,34.6918812000001,0 -82.8405272,34.6918642,0 -82.84023019999999,34.6918027,0 -82.84003010000001,34.691788,0 -82.8398837,34.6917678,0 -82.8398083,34.6917577,0 -82.8396326,34.6917341,0 -82.8395568,34.6917239,0 -82.8392959,34.6916859,0 -82.83922080000001,34.6916781,0 -82.8389081,34.6916379,0 -82.83887420000001,34.6916335,0 -82.8386897,34.6916088,0 -82.83845719999999,34.6915776,0 -82.8384279,34.6915737,0 -82.8382125,34.6915448,0 -82.8380679,34.6915253,0 -82.8379228,34.6915057,0 -82.8378841,34.6915002,0 -82.8376506,34.6914672,0 -82.83756289999999,34.6914548,0 -82.8374081,34.6914339,0 -82.83731109999999,34.6914201,0 -82.8370827,34.6913897,0 -82.83693890000001,34.6913749,0 -82.8368464,34.6913621,0 -82.8367571,34.6913498,0 -82.8363615,34.6912943,0 -82.8360038,34.6912466,0 -82.8357173,34.6912058,0 
				
					-82.8357173,34.6912058,0 -82.8346956,34.6911143,0 -82.8345516,34.6910946,0 -82.83436450000001,34.6910688,0 -82.83405209999999,34.6910275,0 -82.8340333,34.6910228,0 -82.833806,34.6909653,0 -82.8335976,34.6909364,0 -82.8331943,34.6908805,0 -82.8330076,34.6908546,0 -82.83296660000001,34.6908489,0 -82.8323493,34.6907442,0 -82.8321349,34.6907183,0 -82.8318946,34.6906813,0 -82.8317813,34.6906646,0 -82.8316736,34.6906472,0 -82.8305586,34.6904897,0 -82.82993829999999,34.6904126,0 -82.8294219,34.6903402000001,0 -82.8291571,34.6903001,0 -82.8287026,34.6902118,0 -82.82814980000001,34.6900725,0 -82.8280572,34.6900548,0 -82.8272764,34.6898753,0 -82.827048,34.6898115,0 -82.8266251,34.6896934,0 -82.8263082,34.6896155,0 -82.8258447,34.6894944,0 -82.82543250000001,34.6893758,0 -82.8245778,34.6891604,0 -82.8234061,34.6888336,0 -82.8231084,34.688767,0 -82.82217730000001,34.6885292,0 -82.82081959999999,34.6881709,0 -82.82049809999999,34.6880891,0 -82.82025969999999,34.6880246,0 -82.81982189999999,34.6879062,0 -82.81895059999999,34.6876576,0 -82.8188305,34.6876269,0 -82.8176709,34.6873299,0 -82.8171224,34.6872041999999,0 -82.8166195,34.6871587,0 -82.815749,34.687058,0 -82.815665,34.68705,0 -82.814274,34.686913,0 -82.814007,34.686886,0 -82.8133636,34.6868144,0 -82.812601,34.686723,0 -82.81200800000001,34.68667,0 -82.81156799999999,34.686643,0 -82.81108999999999,34.686631,0 -82.81033979999999,34.6866411,0 -82.809971,34.686635,0 -82.80922200000001,34.6866247,0 -82.809169,34.686624,0 -82.807586,34.6866119999999,0 -82.806785,34.68661,0 -82.80200600000001,34.686599,0 -82.800284,34.68659,0 -82.798359,34.686599,0 -82.797719,34.686601,0 -82.796752,34.6866119999999,0 -82.79580199999999,34.686637,0 -82.79523,34.686656,0 -82.79507700000001,34.686667,0 -82.794372,34.68672,0 -82.793763,34.686792,0 -82.793215,34.686857,0 -82.792709,34.686939,0 -82.792164,34.6870280000001,0 -82.79161999999999,34.687153,0 -82.79081100000001,34.687339,0 -82.789866,34.687592,0 -82.78969499999999,34.687638,0 -82.78899,34.687881,0 -82.78831,34.68813,0 -82.78775400000001,34.688371,0 -82.78748,34.688495,0 -82.7868969,34.6887603,0 -82.78683599999999,34.688788,0 -82.78625,34.689078,0 -82.7855617,34.6894839,0 -82.78475469999999,34.6899642,0 -82.7843819,34.6901896,0 -82.78414410000001,34.6903423,0 -82.7834486,34.6907627,0 -82.7822261,34.6914907,0 -82.7817972,34.691758,0 -82.780377,34.692593,0 -82.7785212,34.6937209,0 -82.775853,34.695344,0 -82.773161,34.696981,0 -82.767259,34.700549,0 -82.764701,34.70211,0 -82.76447899999999,34.702244,0 -82.763408,34.702887,0 -82.76221200000001,34.703593,0 -82.7614662,34.7040787,0 -82.7606937,34.7045374,0 -82.7604534,34.7046854999999,0 -82.757784,34.706284,0 -82.757193,34.706666,0 -82.756934,34.706829,0 -82.756028,34.70733,0 -82.75557499999999,34.707586,0 -82.755132,34.707876,0 -82.754621,34.708242,0 -82.75429080000001,34.7085451,0 -82.7537343,34.7090052,0 -82.753345,34.709327,0 -82.752394,34.710327,0 -82.75149999999999,34.711292,0 -82.749899,34.713045,0 -82.749568,34.713407,0 -82.74804399999999,34.715102,0 -82.74729600000001,34.715991,0 -82.74713199999999,34.716186,0 -82.74630500000001,34.7171919999999,0 -82.74559000000001,34.718031,0 -82.74554000000001,34.718089,0 -82.74473999999999,34.719042,0 -82.744372,34.71941,0 -82.743988,34.719754,0 -82.743622,34.720067,0 -82.7433,34.720314,0 -82.743019,34.72051,0 -82.74227,34.72094,0 -82.741866,34.721148,0 -82.741647,34.721255,0 -82.74135800000001,34.721389,0 -82.740668,34.721685,0 -82.739696,34.722095,0 -82.73804699999999,34.722838,0 -82.73778799999999,34.722955,0 -82.7371746,34.7232508,0 -82.73659600000001,34.723559,0 -82.734054,34.72496,0 -82.733588,34.725234,0 -82.733046,34.72554,0 -82.732382,34.725908,0 -82.731979,34.726125,0 -82.731616,34.726327,0 -82.730619,34.726851,0 -82.730149,34.727033,0 -82.729551,34.727292,0 -82.72894100000001,34.727567,0 -82.72835600000001,34.727813,0 -82.72791100000001,34.728019,0 -82.72781089999999,34.7280634,0 -82.72758399999999,34.728164,0 -82.72685300000001,34.72855,0 -82.726551,34.72873,0 -82.725675,34.729408,0 -82.725393,34.729641,0 -82.725111,34.72995,0 -82.724782,34.730272,0 -82.72445999999999,34.730711,0 -82.724025,34.731292,0 -82.723134,34.732687,0 -82.72266999999999,34.73344,0 -82.721822,34.7347969999999,0 -82.71990700000001,34.737722,0 -82.716972,34.742308,0 -82.71581,34.744116,0 -82.71487999999999,34.745406,0 -82.714383,34.745988,0 -82.713849,34.7465359999999,0 -82.713396,34.746986,0 -82.71294,34.747409,0 -82.71229099999999,34.747965,0 -82.711681,34.74843,0 -82.71091800000001,34.748979,0 -82.710323,34.749377,0 -82.709732,34.7496810000001,0 -82.709352,34.749887,0 -82.70913,34.750007,0 -82.708218,34.750481,0 -82.70673499999999,34.75126,0 -82.70659999999999,34.751328,0 -82.702662,34.753324,0 -82.70173,34.753803,0 -82.70087169999999,34.754233,0 -82.696307,34.75652,0 -82.695046,34.757127,0 -82.6940378,34.7576213,0 -82.69104400000001,34.75901,0 -82.690843,34.759111,0 -82.68942300000001,34.759826,0 -82.68899330000001,34.7600413,0 -82.68827400000001,34.760465,0 -82.68670899999999,34.761294,0 -82.686522,34.761393,0 -82.68423799999999,34.762676,0 -82.68077099999999,34.764379,0 -82.676526,34.766547,0 -82.67569450000001,34.7670631,0 -82.67531150000001,34.7673362,0 -82.67494499999999,34.767631,0 -82.674565,34.76797,0 -82.674139,34.76843,0 -82.67372,34.768913,0 -82.67333600000001,34.769459,0 -82.673231,34.769609,0 -82.67289100000001,34.770171,0 -82.67227699999999,34.771832,0 -82.672185,34.772151,0 -82.671774,34.773281,0 -82.671036,34.7754034,0 -82.6709055,34.7757759,0 -82.6702834,34.7776277,0 -82.670198,34.777828,0 -82.670181,34.777878,0 -82.670118,34.777995,0 -82.66985750000001,34.7787332,0 -82.669504,34.779735,0 -82.669297,34.780249,0 -82.669173,34.78054,0 -82.669017,34.780851,0 -82.668699,34.781454,0 -82.668308,34.782142,0 -82.66780199999999,34.782764,0 -82.667304,34.783343,0 -82.666719,34.783938,0 -82.666267,34.784313,0 -82.666222,34.784351,0 -82.66575400000001,34.784726,0 -82.665395,34.785005,0 -82.665187,34.785115,0 -82.665099,34.785172,0 -82.664922,34.785301,0 -82.664717,34.785414,0 -82.664135,34.785751,0 -82.66230400000001,34.786797,0 -82.6620673,34.7869313,0 -82.66021600000001,34.787982,0 -82.6583601,34.7890274,0 -82.65571799999999,34.790533,0 -82.65550399999999,34.790651,0 -82.6552315,34.7908198,0 -82.6548085,34.791051,0 -82.6542376,34.7913994,0 -82.65364,34.79171,0 -82.65322399999999,34.791939,0 -82.652698,34.792209,0 -82.651884,34.792571,0 -82.651321,34.792814,0 -82.65086599999999,34.79299,0 -82.650274,34.793205,0 -82.65012299999999,34.79326,0 -82.6482486,34.7938474,0 -82.647685,34.794024,0 -82.6460756,34.7945197,0 -82.64576599999999,34.7946150000001,0 -82.645157,34.79481,0 -82.644566,34.794981,0 -82.644014,34.79516,0 -82.643469,34.795308,0 -82.64314,34.795422,0 -82.643039,34.795449,0 -82.64276099999999,34.795563,0 -82.64259,34.795629,0 -82.640412,34.796557,0 -82.63684499999999,34.798078,0 -82.629755,34.801101,0 -82.62339299999999,34.803813,0 -82.6218636,34.8044642,0 -82.620564,34.80502,0 -82.61993200000001,34.805362,0 -82.619573,34.805571,0 -82.619265,34.805783,0 -82.619032,34.805935,0 -82.61870500000001,34.806176,0 -82.618343,34.806443,0 -82.618088,34.8066820000001,0 -82.617577,34.807187,0 -82.61731399999999,34.807465,0 -82.617023,34.807805,0 -82.61612100000001,34.809029,0 -82.614896,34.8106905,0 -82.61404400000001,34.811865,0 -82.613829,34.812158,0 -82.61322699999999,34.812979,0 -82.612864,34.813488,0 -82.61250800000001,34.813971,0 -82.61245599999999,34.814041,0 -82.61216,34.814406,0 -82.61192200000001,34.814664,0 -82.611555,34.815014,0 -82.611259,34.815243,0 -82.61097599999999,34.815422,0 -82.610648,34.815618,0 -82.61006,34.8159180000001,0 -82.609706,34.816049,0 -82.60910699999999,34.816235,0 -82.6088379,34.8162991000001,0 -82.60853590000001,34.8163422,0 -82.6072715,34.8165462,0 -82.60684620000001,34.8166095,0 -82.6066794,34.8166343,0 -82.6065519,34.8166579,0 -82.6064614,34.8166746,0 -82.6052498,34.8169772,0 -82.604546,34.8171949,0 -82.604266,34.817279,0 -82.60380550000001,34.8174383,0 -82.60165139999999,34.8181601,0 -82.6012185,34.8183072,0 -82.60107619999999,34.8183555,0 -82.59957300000001,34.818856,0 -82.59941000000001,34.818921,0 -82.599304,34.818948,0 -82.5984705,34.8191986,0 -82.598235,34.819227,0 -82.5977829,34.8193227,0 -82.597538,34.819379,0 -82.597183,34.8194537,0 -82.596987,34.819495,0 -82.5967098,34.819554,0 -82.5966724,34.819562,0 -82.5964414,34.8196111,0 -82.5961052,34.8196827,0 -82.5960848,34.819687,0 -82.5954689,34.8198236,0 -82.59473819999999,34.819983,0 -82.59458960000001,34.8200165,0 -82.593704,34.820216,0 -82.59366660000001,34.8202244,0 -82.592989,34.820377,0 -82.59211670000001,34.8205693,0 -82.592032,34.820588,0 -82.591476,34.8207105,0 -82.59125469999999,34.8207593,0 -82.5906277,34.8208975,0 -82.59005310000001,34.8210241,0 -82.58950900000001,34.821144,0 -82.588641,34.821335,0 -82.588145,34.821441,0 -82.58776899999999,34.821526,0 -82.587574,34.82157,0 -82.5874637,34.8215941,0 -82.5871107,34.8216713,0 -82.5867925,34.8217426,0 -82.5864234,34.8218215,0 -82.58622130000001,34.8218657,0 -82.5861511,34.821881,0 -82.5857429,34.8219423,0 -82.5852537,34.8220485,0 -82.5846923,34.8221866,0 -82.5844262,34.8222699,0 
				
					-82.568016,34.826119,0 -82.56772309999999,34.8262222,0 -82.567491,34.826304,0 -82.5674053,34.8263282,0 -82.567123,34.826408,0 -82.56694880000001,34.8264507,0 -82.566805,34.826486,0 -82.56652800000001,34.826548,0 -82.56639819999999,34.8265611,0 -82.56617900000001,34.826583,0 -82.566029,34.826584,0 -82.56569,34.8265813,0 -82.5654335,34.826566,0 -82.5651395,34.8265208,0 -82.5649684,34.8264799,0 -82.56463960000001,34.826384,0 -82.5643549,34.8263051,0 -82.5641629,34.8262520999999,0 -82.5634641,34.8260378,0 -82.562972,34.8258903,0 -82.56275309999999,34.825823,0 -82.5623459,34.8256973,0 -82.56180550000001,34.8255321,0 -82.5614681,34.8254298,0 -82.5610689,34.825307,0 -82.5602219,34.8250551,0 -82.5600118,34.8249929,0 -82.5598202,34.8249361,0 -82.559484,34.824852,0 -82.559106,34.824754,0 -82.55883799999999,34.824699,0 -82.5583694,34.8246364,0 -82.558263,34.8246222,0 -82.5582248,34.8246188,0 -82.5577785,34.8245792,0 -82.55773619999999,34.8245754,0 -82.5576789,34.8245718,0 -82.55721749999999,34.8245402,0 -82.556645,34.824538,0 -82.5560716,34.8245674,0 -82.555924,34.824574,0 -82.55550049999999,34.8246274,0 -82.55518790000001,34.82467,0 -82.554545,34.824763,0 -82.553566,34.824925,0 -82.55335650000001,34.8249568,0 -82.552605,34.825067,0 -82.551754,34.825196,0 -82.5511594,34.8252875,0 -82.5509344,34.8253221,0 -82.5507425,34.8253511,0 -82.54924800000001,34.825577,0 -82.548669,34.825671,0 -82.5479246,34.8258157,0 -82.545376,34.826205,0 -82.54391529999999,34.8264348,0 -82.54267400000001,34.82663,0 -82.541692,34.826786,0 -82.5414067,34.8268323,0 -82.541211,34.826864,0 -82.540311,34.826998,0 -82.539731,34.827092,0 -82.538354,34.827315,0 -82.53768669999999,34.8274185,0 -82.5370106,34.8275207,0 -82.536935,34.827533,0 -82.535764,34.827712,0 -82.5357245,34.8277175,0 -82.53489140000001,34.8278333,0 -82.5344142,34.8278997,0 -82.53406699999999,34.827948,0 -82.533694,34.8280037,0 -82.533625,34.828014,0 -82.53267630000001,34.8281548,0 -82.53216999999999,34.82823,0 -82.530762,34.828437,0 -82.5290509,34.8286672,0 -82.528538,34.8287540000001,0 -82.527462,34.828906,0 -82.52701999999999,34.828951,0 -82.526736,34.82898,0 -82.52625999999999,34.829027,0 -82.525932,34.8290599999999,0 -82.524376,34.829205,0 -82.523388,34.829297,0 -82.521389,34.82949,0 -82.51993299999999,34.829615,0 -82.518816,34.829714,0 -82.5166558,34.8299046,0 -82.515601,34.8300029999999,0 -82.5148372,34.8300732,0 -82.513284,34.830216,0 -82.512935,34.830248,0 -82.51283599999999,34.830258,0 -82.51146900000001,34.830382,0 -82.5108187,34.8304422,0 -82.51010719999999,34.8305082,0 -82.509641,34.8305513,0 -82.508263,34.830679,0 -82.508071,34.830697,0 -82.5070545,34.8307898,0 -82.506636,34.830828,0 -82.50611600000001,34.8308752,0 -82.5057454,34.8309089,0 -82.505061,34.830971,0 -82.5048458,34.8309899,0 -82.50456,34.831015,0 -82.5043137,34.831027,0 -82.5040788,34.8310523,0 -82.50334580000001,34.8311312000001,0 -82.50243810000001,34.8312162,0 -82.5023178,34.8312163,0 -82.50166400000001,34.831255,0 -82.5008559,34.8312805,0 -82.4999787,34.8313078,0 -82.49956830000001,34.8313206,0 -82.49948999999999,34.831323,0 -82.498935,34.831322,0 -82.497927,34.831345,0 -82.4972135,34.8313688,0 -82.4964935,34.831392,0 -82.496092,34.831396,0 -82.4955743,34.8314063,0 -82.4950905,34.8314159,0 -82.4941073,34.8314384,0 -82.4936088,34.8314499,0 -82.492339,34.831479,0 -82.4919215,34.8314983,0 -82.491743,34.83151,0 -82.49118300000001,34.831553,0 -82.4910557,34.8315672,0 -82.490545,34.831624,0 -82.48965099999999,34.831744,0 -82.488874,34.831859,0 -82.48877400000001,34.831875,0 -82.48840149999999,34.8319356,0 -82.488253,34.8319579,0 -82.4878066,34.8320248,0 -82.4871924,34.8321213,0 -82.48714099999999,34.8321290000001,0 -82.486791,34.832183,0 -82.4862274,34.8322622,0 -82.485338,34.832405,0 -82.485202,34.8324222,0 -82.485021,34.832445,0 -82.484638,34.832496,0 -82.48393,34.832576,0 -82.483739,34.832593,0 -82.48307699999999,34.832651,0 -82.482794,34.832669,0 -82.48264880000001,34.8326767,0 -82.48202120000001,34.8327099,0 -82.4818338,34.8327198,0 -82.4814946,34.8327377,0 -82.480846,34.832772,0 -82.480178,34.832808,0 -82.479749,34.832827,0 -82.4796399,34.8328344,0 -82.479602,34.832837,0 -82.4795616,34.8328389,0 -82.47888399999999,34.832871,0 -82.478605,34.832892,0 -82.4785481,34.8328948,0 -82.47803330000001,34.8329203,0 -82.47779800000001,34.832932,0 -82.4776279,34.8329407,0 -82.4770908,34.8329681,0 -82.47673899999999,34.832986,0 -82.4760991,34.8330251,0 -82.475921,34.833036,0 -82.47503,34.833076,0 -82.473325,34.833163,0 -82.473038,34.833183,0 -82.4710551,34.8332841,0 -82.4709,34.833292,0 -82.470583,34.833305,0 -82.46990700000001,34.833344,0 -82.4697486,34.8333516,0 -82.46942799999999,34.833367,0 -82.468891,34.833393,0 -82.4684187,34.8334175,0 -82.4666553,34.8335092,0 -82.464619,34.833615,0 -82.4629857,34.8337023,0 -82.4623438,34.8337367,0 -82.4623083,34.8337385,0 -82.461794,34.833756,0 -82.461191,34.833771,0 -82.460171,34.833761,0 -82.460072,34.83376,0 -82.45995979999999,34.8337532,0 -82.4598092,34.8337441,0 -82.4592981,34.8337132,0 -82.4590857,34.8337004,0 -82.458073,34.8336392,0 -82.4566136,34.8335511,0 -82.4552485,34.8334676,0 -82.4547886,34.8334394,0 -82.45429300000001,34.8334091,0 -82.4541282,34.833399,0 -82.4530893,34.8333341,0 -82.4513098,34.8332206,0 -82.451215,34.833217,0 -82.450751,34.833186,0 -82.450548,34.8331791,0 -82.450287,34.8331659,0 -82.44974000000001,34.8331190000001,0 -82.449654,34.833117,0 -82.449183,34.833103,0 -82.448908,34.833103,0 -82.448633,34.83311,0 -82.44836100000001,34.833122,0 -82.448092,34.833139,0 -82.44782499999999,34.833161,0 -82.44756099999999,34.833189,0 -82.4473,34.833222,0 -82.44678500000001,34.833306,0 -82.44624589999999,34.8334078,0 -82.44546920000001,34.8336079,0 -82.444304,34.833954,0 -82.44373,34.834119,0 -82.442488,34.834475,0 -82.442368,34.834519,0 -82.44214770000001,34.8345742,0 -82.4417074,34.8346958999999,0 -82.4415254,34.8347486,0 -82.4412526,34.8348276,0 -82.4411159,34.8348672,0 -82.440191,34.835075,0 -82.4401348,34.8350922,0 -82.44009509999999,34.8351044,0 -82.44007259999999,34.8351113,0 -82.4399081,34.83516,0 -82.4398467,34.8351791,0 -82.43949600000001,34.835288,0 -82.43936100000001,34.835319,0 -82.43924699999999,34.835345,0 -82.4389802,34.8354222,0 -82.4388557,34.8354582,0 -82.4387866,34.8354782,0 -82.4387052,34.8355017,0 -82.4381537,34.8356612,0 -82.437933,34.8357249999999,0 -82.437453,34.8358629,0 -82.4372139,34.8359316,0 -82.436899,34.836022,0 -82.4365894,34.8361063,0 -82.43651699999999,34.836126,0 -82.436441,34.8361462,0 -82.43628,34.836189,0 -82.4359303,34.8362935,0 -82.4357383,34.8363476,0 -82.43553780000001,34.836408,0 -82.43498599999999,34.83657,0 -82.434003,34.836847,0 -82.433047,34.837105,0 -82.43286430000001,34.8371534,0 -82.432086,34.837361,0 -82.4319859,34.8373935,0 -82.43144700000001,34.837558,0 -82.4311185,34.8376588,0 -82.4310065,34.8377079,0 -82.43094000000001,34.837737,0 -82.430831,34.837781,0 -82.430429,34.837953,0 -82.43002300000001,34.8381029999999,0 -82.42985899999999,34.838174,0 -82.429306,34.838401,0 -82.42876699999999,34.838622,0 -82.428597,34.838696,0 -82.428364,34.838808,0 -82.42799290000001,34.8390095000001,0 -82.4279095,34.8390548,0 -82.42786220000001,34.8390879000001,0 -82.42744,34.839383,0 -82.427209,34.839576,0 -82.42701099999999,34.839755,0 -82.42686399999999,34.839901,0 -82.42670099999999,34.840075,0 -82.426624,34.840159,0 -82.42647100000001,34.840353,0 -82.426224,34.840715,0 -82.42615790000001,34.8408179,0 -82.4260163,34.841049,0 -82.42591400000001,34.841216,0 -82.425832,34.841332,0 -82.425732,34.841455,0 -82.425662,34.84154,0 -82.425479,34.841726,0 -82.42535719999999,34.8418398,0 -82.425297,34.841896,0 -82.42515710000001,34.8420185,0 -82.425073,34.842088,0 -82.4248424,34.8422671,0 -82.424604,34.842421,0 -82.42437700000001,34.842525,0 -82.4240356,34.8426468,0 -82.424007,34.842657,0 -82.4234742,34.8428337,0 -82.42343099999999,34.842848,0 -82.4232466,34.8429001,0 -82.42259319999999,34.8431012,0 -82.4219847,34.8432885,0 -82.421913,34.8433075,0 -82.4217565,34.8433588,0 -82.42102010000001,34.8436145,0 -82.420928,34.8436464,0 
				
					-82.420928,34.8436464,0 -82.4205741,34.8438535,0 -82.42005450000001,34.8441216,0 -82.419949,34.8441608,0 -82.41979600000001,34.8442273,0 -82.4196886,34.8442883,0 -82.41957979999999,34.8443622,0 -82.41936010000001,34.8445345,0 -82.41928830000001,34.8445957,0 -82.4191386,34.8447429,0 -82.4190112,34.8448662,0 -82.4185985,34.8452161,0 -82.4183831,34.8453566,0 -82.4182122,34.845431,0 -82.41811130000001,34.8454818,0 -82.4179685,34.8455499,0 -82.4177868,34.8456184,0 -82.41753509999999,34.8457081000001,0 -82.4172736,34.8457844,0 -82.41703510000001,34.845822,0 -82.4168097,34.8458606,0 -82.4165993,34.8458803,0 -82.4164212,34.8459088,0 -82.41565300000001,34.8460042,0 -82.41483529999999,34.8460953,0 -82.41470169999999,34.8461064,0 -82.41359490000001,34.8462457,0 -82.4129511,34.8463226,0 -82.4123671,34.8463799,0 -82.4117921,34.8464466,0 -82.4116219,34.8464693,0 -82.4110458,34.8465463,0 -82.4109194,34.8465619,0 -82.4108136,34.846575,0 -82.4107298,34.8465919,0 -82.4106271,34.8465961,0 -82.4105689,34.8465985,0 -82.4103436,34.8466007,0 -82.41011690000001,34.8465886,0 -82.4091634,34.8464973,0 -82.4087785,34.8464676,0 -82.408395,34.8464533,0 -82.4081904,34.84644,0 -82.40814020000001,34.8464367,0 -82.4080335,34.8464377,0 -82.40791350000001,34.8464389,0 -82.40782950000001,34.8464399,0 -82.40771100000001,34.8464412,0 -82.40743879999999,34.8464676,0 -82.40720810000001,34.846505,0 -82.4070217,34.8465369,0 -82.4067883,34.8465963,0 -82.4065939,34.8466591,0 -82.4063592,34.8467416,0 -82.40619820000001,34.846822,0 -82.4060132,34.8469276,0 -82.405826,34.8470428,0 -82.4058039,34.8470563999999,0 -82.4057097,34.8471239,0 -82.4055157,34.8472682,0 -82.4055025,34.8472814,0 -82.4053991,34.8473851,0 -82.40530699999999,34.8474733,0 -82.40520050000001,34.8476002,0 -82.4048648,34.8479688,0 -82.40394790000001,34.8490023,0 -82.4037333,34.8492488,0 -82.4036327,34.8493655,0 -82.4035603,34.8494447,0 -82.40337390000001,34.8496641,0 -82.4032423,34.8498138,0 -82.4030648,34.8500739,0 -82.4030102,34.850182,0 -82.40290779999999,34.8503911,0 -82.4028211,34.8505661,0 -82.4027816,34.8506525,0 -82.4027325,34.8507626,0 -82.4024646,34.8512695,0 -82.40224259999999,34.8516742,0 -82.40219980000001,34.8517572,0 -82.4021501,34.8518532,0 -82.40191609999999,34.8523546,0 -82.4018315,34.8525244,0 -82.4018262,34.8525351,0 -82.40153789999999,34.8530742,0 -82.4010758,34.8539202,0 -82.40102280000001,34.8540116,0 -82.40097900000001,34.8541107,0 -82.40062330000001,34.8547108,0 -82.4004156,34.8550759,0 -82.40037599999999,34.8551454,0 -82.4003264,34.8552656,0 -82.400306,34.8553182,0 -82.400102,34.8556862,0 -82.4000116,34.8558071,0 -82.3999266,34.8559203,0 -82.39989300000001,34.855978,0 -82.3998246,34.856096,0 -82.3996822,34.8563416,0 -82.3994685,34.8566894,0 -82.3993397,34.856859,0 -82.3992932,34.8569148,0 -82.3990439,34.8571227,0 -82.3988861,34.8572249,0 -82.3987252,34.8573157,0 -82.398623,34.8573573,0 -82.3985169,34.857396,0 -82.39840479999999,34.8574327,0 -82.398267,34.8574665,0 -82.39812449999999,34.8574903,0 -82.3979743,34.8575093,0 -82.397837,34.857519,0 -82.39768050000001,34.8575192,0 -82.3974513,34.857503,0 -82.397364,34.8574873,0 -82.3971669,34.8574488,0 -82.396373,34.8572452,0 -82.3962765,34.8572233,0 -82.39617079999999,34.8571625,0 -82.3960429,34.8571147,0 -82.395922,34.857066,0 -82.3951539,34.8567804,0 -82.39460699999999,34.856577,0 -82.39425199999999,34.856455,0 -82.393964,34.856369,0 -82.39355399999999,34.856276,0 -82.39299269999999,34.8561624,0 -82.39275670000001,34.8561207,0 -82.39259199999999,34.856095,0 -82.392425,34.856053,0 -82.392273,34.855995,0 -82.39210799999999,34.855923,0 -82.39192300000001,34.855816,0 -82.391808,34.855741,0 -82.39168600000001,34.855644,0 -82.391659,34.8556171,0 -82.39148900000001,34.855417,0 -82.391436,34.855337,0 -82.3913349,34.8551532,0 -82.391282,34.855057,0 -82.3912452,34.8549039,0 -82.39121830000001,34.8547915,0 -82.3910278,34.8543919,0 -82.3909625,34.8542581,0 -82.39075699999999,34.8538371,0 -82.3906309,34.853595,0 -82.3905805,34.8534708,0 -82.3905446,34.8533413,0 -82.3905271,34.8532136,0 -82.3905245,34.8531201,0 -82.39053250000001,34.853031,0 -82.3905432,34.8529451,0 -82.3905578,34.8528671,0 -82.39057409999999,34.8527624,0 -82.39058609999999,34.8526557,0 -82.3905929,34.8525786,0 -82.3905942,34.8525049,0 -82.39059109999999,34.8524613,0 -82.3905888,34.8524301,0 -82.39057939999999,34.852353,0 -82.39055930000001,34.8522386,0 -82.3905298,34.8521215,0 -82.3905223,34.8520935,0 -82.3904909,34.8519766,0 -82.3904603,34.8518666,0 
				</coordinates>
			</LineString>
		<atom:link rel="app" href="https://www.google.com/earth/about/versions/#earth-pro" title="Google Earth Pro 7.3.6.10201"></atom:link>
	</Placemark>
</Document>
</kml>
