<?xml version="1.0" encoding="UTF-8"?>
<kml xmlns="http://www.opengis.net/kml/2.2" xmlns:gx="http://www.google.com/kml/ext/2.2" xmlns:kml="http://www.opengis.net/kml/2.2" xmlns:atom="http://www.w3.org/2005/Atom">
<Document>
	<name>US.117.kml</name>
	<Placemark>
		<name>US.117</name>
			<LineString>
				<coordinates>
					-77.94858600000001,34.191556,0 -77.94840600000001,34.191556,0 -77.947684,34.191555,0 -77.9472063,34.1915587,0 -77.947168,34.191559,0 -77.946985,34.191555,0 -77.946637,34.191562,0 -77.9461701,34.1915633,0 -77.945936,34.191564,0 -77.944751,34.191568,0 -77.9444735,34.1915705,0 -77.943539,34.191576,0 -77.942723,34.191578,0 -77.941526,34.191584,0 -77.940352,34.19159,0 -77.9396124,34.1915933,0 -77.9394259,34.1915942,0 -77.93893540000001,34.1915964,0 -77.9387062,34.1915974,0 -77.9374033,34.1916033,0 -77.93592200000001,34.19161,0 -77.9355314,34.1916133,0 -77.934404,34.191623,0 -77.93375639999999,34.19163,0 -77.933256,34.191634,0 -77.93239699999999,34.1916419,0 -77.9320809,34.1916448,0 -77.93181180000001,34.1916458,0 -77.931404,34.191651,0 -77.9307824,34.191667,0 -77.93047199999999,34.191675,0 -77.930048,34.191693,0 -77.92966300000001,34.191722,0 -77.928866,34.191801,0 -77.92852600000001,34.191846,0 -77.927975,34.191937,0 -77.927474,34.192028,0 -77.92735,34.192051,0 -77.927027,34.1921131,0 -77.925076,34.192488,0 -77.923596,34.19277,0 -77.923025,34.192878,0 -77.9224619,34.1929864,0 -77.922387,34.193,0 -77.920091,34.193443,0 -77.91994,34.193472,0 -77.919844,34.1934905,0 -77.919292,34.193597,0 -77.9185324,34.1937426,0 -77.9152548,34.1943709,0 -77.913225,34.19476,0 -77.911417,34.195107,0 -77.91080409999999,34.1952244,0 -77.909046,34.195561,0 -77.908911,34.195587,0 -77.90877,34.1956152,0 -77.9087328,34.195622,0 -77.908193,34.195722,0 -77.90794699999999,34.195769,0 -77.90775240000001,34.1958064,0 -77.90610169999999,34.1961237,0 -77.9059223,34.1961592,0 -77.9041282,34.1965087,0 -77.9029417,34.1967399,0 -77.90177300000001,34.196947,0 -77.9005365,34.1971817,0 -77.899916,34.1973,0 -77.899272,34.197423,0 -77.8982187,34.1976235,0 -77.897034,34.197849,0 -77.89496029999999,34.1982679,0 -77.89445499999999,34.19837,0 -77.8942954,34.1984017,0 -77.8942632,34.1984081,0 -77.8936226,34.1985354,0 -77.893373,34.198585,0 -77.8931113,34.1986369,0 -77.8929783,34.1986632,0 -77.8929005,34.1986801,0 -77.8925046,34.1987662,0 -77.89220160000001,34.1988459,0 -77.8921251,34.198866,0 -77.8918554,34.1989539,0 -77.89164700000001,34.1990218,0 -77.8915149,34.1990673,0 -77.89141429999999,34.1991039,0 -77.89137940000001,34.1991183,0 -77.8912198,34.1991771,0 -77.8909479,34.1993036,0 -77.890727,34.199418,0 -77.890618,34.199483,0 -77.890489,34.199559,0 -77.890287,34.199684,0 -77.890118,34.199799,0 -77.88989100000001,34.199968,0 -77.88969400000001,34.200126,0 -77.889579,34.200227,0 -77.889529,34.200271,0 -77.88934,34.200452,0 -77.88924400000001,34.200551,0 -77.889076,34.20074,0 -77.888955,34.200888,0 -77.888903,34.200944,0 -77.88885000000001,34.201009,0 -77.888598,34.201377,0 -77.88850499999999,34.201529,0 -77.888386,34.201744,0 -77.888352,34.201819,0 -77.888209,34.202181,0 -77.888159,34.202274,0 -77.8880566,34.2028911,0 -77.8878982,34.2038452,0 -77.887787,34.204115,0 -77.8877542,34.2043272,0 -77.8876341,34.2051152,0 -77.88752100000001,34.205756,0 -77.88742809999999,34.2063645,0 -77.887405,34.2064683,0 -77.887372,34.206616,0 -77.8872008,34.2076034,0 -77.88716549999999,34.2077978,0 -77.88715860000001,34.2078465,0 -77.8871449,34.2079336,0 -77.88709059999999,34.2082789,0 -77.8870826,34.2083299,0 -77.88705400000001,34.208512,0 -77.8869345,34.2094037,0 -77.8869189,34.2095134,0 -77.8868494,34.2095728,0 -77.8868391,34.2096347,0 -77.88675189999999,34.2101779,0 -77.8867709,34.2103363,0 -77.8867474,34.2104646,0 -77.8867188,34.2106644,0 -77.88668610000001,34.2108932,0 -77.88664919999999,34.2111553,0 -77.8866199,34.2113575,0 -77.8865729,34.2116896,0 -77.8865382,34.2119341,0 -77.8865181,34.2120761,0 -77.886505,34.2121685,0 -77.8864913,34.2122651,0 -77.8864026,34.2127936,0 -77.88638090000001,34.2129231,0 -77.886326,34.213289,0 -77.88627459999999,34.2136175,0 -77.8862307,34.2139098,0 -77.8862043,34.2140856,0 -77.88620229999999,34.2140986,0 -77.88619,34.214179,0 -77.8861639,34.2143263,0 -77.88614389999999,34.2144133,0 -77.8861094,34.2146142,0 -77.8860569,34.2149296,0 -77.886008,34.215205,0 -77.88596010000001,34.2155083,0 -77.8859372,34.2156535,0 -77.8859346,34.2156699,0 -77.88587390000001,34.2159274,0 -77.8858249,34.2161353,0 -77.8857684,34.216375,0 -77.885715,34.2165543,0 -77.885561,34.217071,0 -77.8854597,34.2176278,0 -77.8853343,34.2179795,0 -77.8853233,34.2180234,0 -77.885184,34.218404,0 -77.8851633,34.2184606,0 -77.885121,34.218576,0 -77.8849063,34.219018,0 -77.8845685,34.2197134,0 -77.8844543,34.2199486,0 -77.8842205,34.2203156,0 -77.8838846,34.2208428,0 -77.88382129999999,34.2209422,0 -77.882975,34.22219,0 -77.88274440000001,34.2225177,0 -77.8826457,34.2226579,0 -77.8823912,34.2230196,0 -77.88219599999999,34.223297,0 -77.8821394,34.2233864,0 -77.8821313,34.2233991,0 -77.8817007,34.2240216,0 -77.881266,34.22465,0 -77.8811159,34.224861,0 -77.8808137,34.2252856,0 -77.880696,34.225451,0 -77.8801342,34.2262538,0 -77.87983079999999,34.2266873,0 -77.87977290000001,34.22677,0 -77.8796016,34.2270149,0 -77.879435,34.227253,0 -77.8793889,34.2273185,0 -77.87906700000001,34.2277682,0 -77.8789757,34.2279032,0 -77.878621,34.2284049,0 -77.8784727,34.2286323,0 -77.878333,34.2288178,0 -77.87807069999999,34.2291877,0 -77.8775874,34.2298774,0 -77.87730809999999,34.230276,0 -77.8771577,34.2304906,0 -77.8770653,34.2306224,0 -77.87700270000001,34.2307044,0 -77.8769293,34.2308077,0 -77.87663689999999,34.2312243,0 -77.87648059999999,34.2314469,0 -77.87637599999999,34.231596,0 -77.8762643,34.2317544,0 -77.8759405,34.2322138,0 -77.8756372,34.2326441,0 -77.87549780000001,34.2328418,0 -77.875344,34.23306,0 -77.874185,34.234716,0 -77.8733908,34.2358569,0 -77.87291190000001,34.2365416,0 -77.87284099999999,34.236643,0 -77.8727306,34.2368019,0 -77.87263590000001,34.23694,0 -77.87226,34.2374922,0 -77.872158,34.2376438,0 -77.87197569999999,34.2379552,0 -77.8717432,34.2383673,0 -77.8715673,34.238714,0 -77.8714343,34.2390163,0 -77.8713544,34.2392368,0 -77.8712924,34.2394278,0 -77.8711595,34.2398215,0 -77.871075,34.2401368,0 -77.87095480000001,34.2406521,0 -77.87088780000001,34.240984,0 -77.8708524,34.2412073,0 -77.8708159,34.2413856,0 -77.8707969,34.2415293,0 -77.87078150000001,34.241738,0 -77.8707658,34.2419612,0 -77.87075729999999,34.2422642,0 -77.8707562,34.2425091,0 -77.8707624,34.2427477,0 -77.870774,34.2429952,0 -77.8707843,34.2431248,0 -77.8708117,34.2433852,0 -77.8708499,34.2437107,0 -77.8708913,34.2440244,0 -77.8709545,34.2444469,0 -77.8710195,34.2449049,0 -77.8710535,34.24512,0 -77.8710839,34.245338,0 -77.87112399999999,34.2456208,0 -77.8712598,34.2465872,0 -77.8713283,34.2470572,0 -77.8714035,34.2476069,0 -77.87146370000001,34.2480362,0 -77.8715109,34.2483721,0 -77.8715548,34.2486951,0 -77.87157809999999,34.2489165,0 -77.8716101,34.2491798,0 -77.87162480000001,34.2493609,0 -77.8716378,34.2495679,0 -77.8716519,34.2497883,0 -77.8716623,34.2500203,0 -77.8716659,34.2501113,0 -77.87166809999999,34.2503467,0 -77.8716699,34.2505144,0 -77.8716659,34.2507399,0 -77.87166499999999,34.25079,0 -77.87165899999999,34.250897,0 -77.871627,34.251445,0 -77.87159699999999,34.251762,0 -77.871585,34.251887,0 -77.871549,34.25217,0 -77.871444,34.252864,0 -77.87142799999999,34.252973,0 -77.871201,34.254381,0 -77.87111489999999,34.2549287,0 -77.87108689999999,34.2551246,0 -77.8710676,34.2552491,0 -77.8710226,34.2555688,0 -77.870796,34.256931,0 -77.870693,34.2575955,0 -77.87067879999999,34.2576838,0 -77.8704863,34.2588756,0 -77.87027809999999,34.2601626,0 -77.87026640000001,34.2602612,0 -77.87015100000001,34.261002,0 -77.869972,34.262125,0 -77.869696,34.263849,0 -77.8692447,34.2667042,0 -77.869079,34.267731,0 -77.86898739999999,34.2683412,0 -77.8688796,34.268989,0 -77.86885599999999,34.269131,0 -77.868765,34.269849,0 -77.868737,34.27007,0 -77.868668,34.270724,0 -77.868623,34.271385,0 -77.868544,34.272711,0 -77.868543,34.272956,0 -77.868548,34.273113,0 -77.868565,34.27334,0 -77.86860299999999,34.273581,0 -77.868634,34.2737,0 -77.86866999999999,34.273809,0 -77.868714,34.273916,0 -77.86878900000001,34.274062,0 -77.868864,34.274185,0 -77.86891900000001,34.274264,0 -77.86897999999999,34.274342,0 -77.869254,34.274657,0 -77.869338,34.274753,0 -77.869474,34.274921,0 -77.86953800000001,34.275007,0 -77.869619,34.275135,0 -77.869691,34.275268,0 -77.869722,34.275335,0 -77.86977,34.275463,0 -77.869844,34.275768,0 -77.869857,34.275894,0 -77.869861,34.275982,0 -77.86985900000001,34.276109,0 -77.869839,34.276297,0 -77.86978999999999,34.2764807,0 -77.869772,34.276548,0 -77.869669,34.276846,0 -77.869443,34.277426,0 -77.869326,34.277683,0 -77.869072,34.27823,0 -77.868736,34.279129,0 -77.868668,34.279385,0 -77.868526,34.279868,0 -77.868493,34.280004,0 -77.868461,34.280192,0 -77.868439,34.280424,0 -77.868431,34.280577,0 -77.86843,34.280721,0 -77.86843500000001,34.280864,0 -77.868447,34.280995,0 -77.86847400000001,34.281192,0 -77.868509,34.281375,0 -77.86855300000001,34.28155,0 -77.868604,34.281716,0 -77.86868,34.28193,0 -77.86937349999999,34.2837493,0 -77.87020699999999,34.28591,0 -77.870289,34.286123,0 -77.870474,34.286592,0 -77.87073700000001,34.287279,0 -77.870955,34.287805,0 -77.87101800000001,34.287958,0 -77.8712194,34.2884907,0 -77.8713597,34.2888609,0 -77.8714605,34.2891323,0 -77.8714993,34.2892401,0 -77.87177269999999,34.2899542,0 -77.8719025,34.2902931,0 -77.8719026,34.2904554,0 -77.87198739999999,34.2906461,0 -77.8721106,34.2909234,0 -77.87218489999999,34.2910905,0 -77.8724759,34.2918652,0 -77.872547,34.2920545,0 -77.872783,34.2926838,0 -77.8732347,34.2938257,0 -77.8736475,34.2948691,0 -77.87381569999999,34.2952943,0 -77.8739478,34.2956282,0 -77.874647,34.297434,0 -77.87478,34.297781,0 -77.874876,34.298053,0 -77.8756999,34.3002859,0 -77.876712,34.303256,0 -77.877132,34.304447,0 -77.878604,34.308734,0 -77.88007899999999,34.313039,0 -77.88053619999999,34.3143871,0 -77.88170150000001,34.3178072,0 -77.88189989999999,34.3183891,0 -77.882306,34.319557,0 -77.8826115,34.3204521,0 -77.88276980000001,34.3209156,0 -77.8827884,34.3209701,0 -77.883172,34.322094,0 -77.883386,34.322723,0 -77.88466889999999,34.3264403,0 -77.8847004,34.3265336,0 -77.885192,34.3279591,0 -77.885408,34.328584,0 -77.885626,34.329116,0 -77.885746,34.329393,0 -77.885841,34.329599,0 -77.886019,34.32996,0 -77.886201,34.330309,0 -77.886484,34.330809,0 -77.88674,34.331233,0 -77.88680100000001,34.331324,0 -77.887041,34.331679,0 -77.88728399999999,34.332019,0 -77.887632,34.332474,0 -77.887783,34.332647,0 -77.8885011,34.3334671,0 -77.888733,34.333732,0 -77.889792,34.334922,0 -77.8900429,34.3352004,0 -77.891999,34.3373704,0 -77.8922311,34.3376209,0 -77.89407199999999,34.33967,0 -77.89438199999999,34.340014,0 -77.89486220000001,34.3405466,0 -77.89563699999999,34.341406,0 -77.898426,34.3445,0 -77.8986036,34.3446946,0 -77.898979,34.345116,0 -77.89903700000001,34.3451816,0 -77.89937209999999,34.3455606,0 -77.89966200000001,34.3458883,0 -77.8997256,34.3459603,0 -77.900012,34.3462931,0 -77.9001087,34.3464196,0 -77.90024819999999,34.346617,0 -77.9003069,34.3467116,0 -77.9003586,34.3468023,0 -77.9004211,34.3469139,0 -77.9004642,34.3470012,0 -77.9005035,34.3470838,0 -77.9005434,34.347169,0 -77.900586,34.3472771,0 -77.90061679999999,34.3473575,0 -77.9006452,34.3474313,0 -77.9006645,34.3474939,0 -77.90068549999999,34.3475591,0 -77.90070969999999,34.3476467,0 -77.9007321,34.3477328,0 -77.9007522,34.3478174,0 -77.9007659,34.3478689,0 -77.9007811,34.3479101,0 -77.9007998,34.3479474,0 -77.90082169999999,34.3479964,0 -77.90087870000001,34.3480324,0 -77.9009066,34.3480653,0 -77.9009373,34.3481026,0 -77.9009707,34.3481367,0 -77.9010684,34.3482304,0 -77.9010921,34.3482346,0 -77.90111589999999,34.3482413,0 -77.90114490000001,34.3482522,0 -77.90117290000001,34.3482655,0 -77.90119970000001,34.3482825,0 -77.9012225,34.3483015,0 -77.90124040000001,34.3483202,0 -77.9012558,34.3483396,0 -77.9012697,34.3483604,0 -77.90128129999999,34.3483838,0 -77.9012894,34.3484045,0 -77.9012956,34.3484261,0 -77.9012986,34.3484486,0 -77.9012991,34.3484654,0 -77.90129659999999,34.3484822,0 -77.9012927,34.3485032,0 -77.9012875,34.3485217,0 -77.9012792,34.3485426,0 -77.90126960000001,34.3485617,0 -77.9012558,34.3485838,0 -77.9012366,34.3486047,0 -77.9011967,34.3486477,0 -77.9011801,34.3486669,0 -77.90116449999999,34.3486895,0 -77.9011498,34.3487157,0 -77.9011359,34.3487424,0 -77.90112550000001,34.348767,0 -77.901116,34.3487923,0 -77.901111,34.3488164,0 -77.9011043,34.3488455,0 -77.90108960000001,34.348889,0 -77.9010758,34.3489141,0 -77.90106129999999,34.3489358,0 -77.9010406,34.3489563,0 -77.9010171,34.3489748,0 -77.900993,34.348992,0 -77.900969,34.3490041,0 -77.90094360000001,34.3490147,0 -77.9009161,34.3490246,0 -77.90088830000001,34.3490322,0 -77.90086119999999,34.3490374,0 -77.90082,34.3490799,0 -77.90080020000001,34.3491057,0 -77.9007896,34.3491236,0 -77.9007819,34.3491414,0 -77.9007732,34.3491684,0 -77.9007653,34.3492121,0 -77.9007088,34.3495308,0 -77.90068479999999,34.3496804,0 -77.9006566,34.3498858,0 -77.9006365,34.3500306,0 -77.90057280000001,34.3504463,0 -77.900558,34.3505541,0 -77.9005066,34.3509634,0 -77.9004228,34.3511209,0 -77.9003893,34.3514387,0 -77.9002777,34.3524383,0 -77.90027000000001,34.352507,0 -77.90023859999999,34.352744,0 -77.90016749999999,34.3532805,0 -77.90015200000001,34.3533975,0 -77.9000942,34.353779,0 -77.90007900000001,34.353872,0 -77.90005170000001,34.3540399,0 -77.89996600000001,34.354566,0 -77.89982999999999,34.355608,0 -77.8996013,34.3571717,0 -77.899592,34.357235,0 -77.899494,34.357907,0 -77.89937399999999,34.358729,0 -77.89922799999999,34.359717,0 -77.8991733,34.3600813,0 -77.8991391,34.3603154,0 -77.89912339999999,34.3604024,0 -77.8991173,34.3604361,0 -77.89907100000001,34.3606458,0 -77.8990033,34.3608959,0 -77.898899,34.36123,0 -77.898825,34.361453,0 -77.89866000000001,34.361899,0 -77.89828900000001,34.362899,0 -77.8978716,34.3640118,0 -77.8976407,34.3646393,0 -77.8973946,34.3652999,0 -77.897034,34.366277,0 -77.896505,34.367754,0 -77.89637,34.368164,0 -77.896306,34.368448,0 -77.896237,34.368805,0 -77.89616599999999,34.369207,0 -77.89613,34.369712,0 -77.89614,34.370281,0 -77.896163,34.370786,0 -77.89620600000001,34.371537,0 -77.89631300000001,34.372842,0 -77.896376,34.373873,0 -77.896418,34.374707,0 -77.896508,34.375736,0 -77.896511,34.3757694,0 -77.89652100000001,34.375883,0 -77.8965421,34.3762979,0 -77.89657579999999,34.3769203,0 -77.8965831,34.3770619,0 -77.8965913,34.3776489,0 -77.8965817,34.377975,0 -77.89656119999999,34.3782959,0 -77.8965383,34.3785109,0 -77.89649900000001,34.378817,0 -77.896466,34.379038,0 -77.896449,34.379125,0 -77.89638100000001,34.37947,0 -77.89637430000001,34.3795219,0 -77.896333,34.379664,0 -77.896173,34.380217,0 -77.895955,34.380916,0 -77.895492,34.382262,0 -77.8954,34.382541,0 -77.895217,34.383089,0 -77.89515299999999,34.383268,0 -77.895123,34.383338,0 -77.895031,34.383626,0 -77.894964,34.383783,0 -77.894713,34.384533,0 -77.89452300000001,34.385123,0 -77.89443900000001,34.38536,0 -77.89433200000001,34.385687,0 -77.89427999999999,34.385822,0 -77.89420699999999,34.386043,0 -77.89417899999999,34.386115,0 -77.89412400000001,34.386284,0 -77.89406099999999,34.386431,0 -77.89400999999999,34.386574,0 -77.893956,34.386752,0 -77.89387499999999,34.387014,0 -77.893827,34.387133,0 -77.893618,34.38773,0 -77.893562,34.387924,0 -77.893511,34.388075,0 -77.893362,34.388485,0 -77.89323899999999,34.38882,0 -77.893097,34.389181,0 -77.893016,34.389425,0 -77.892979,34.389505,0 -77.89297000000001,34.389538,0 -77.892915,34.389664,0 -77.89285599999999,34.389844,0 -77.892719,34.390208,0 -77.89254800000001,34.390556,0 -77.89252999999999,34.390605,0 -77.89215,34.391436,0 -77.8919666,34.391822,0 -77.891814,34.392143,0 -77.8916351,34.3925701,0 -77.891605,34.392642,0 -77.891515,34.392884,0 -77.8914868,34.3929822,0 -77.891445,34.393128,0 -77.8914018,34.3933187,0 -77.891373,34.393446,0 -77.8913103,34.3937373,0 -77.89113999999999,34.394529,0 -77.89095399999999,34.395418,0 -77.89057699999999,34.397277,0 -77.89053149999999,34.3974811,0 -77.890458,34.397811,0 -77.89029600000001,34.398453,0 -77.889973,34.399731,0 -77.88993790000001,34.3998566,0 -77.889892,34.400021,0 -77.8898277,34.400227,0 -77.889745,34.400492,0 -77.8897375,34.4005187,0 -77.889545,34.401199,0 -77.88950850000001,34.4013035,0 -77.88944499999999,34.401485,0 -77.889358,34.4018211,0 -77.889154,34.402609,0 -77.88889,34.403629,0 -77.88886720000001,34.4037319,0 -77.88874800000001,34.404269,0 -77.8887354,34.4043216,0 -77.887782,34.407861,0 -77.887502,34.408859,0 -77.887469,34.409006,0 -77.88745,34.409094,0 -77.887298,34.409737,0 -77.887282,34.409851,0 -77.88725700000001,34.41009,0 -77.887237,34.410339,0 -77.8872279,34.4105262,0 -77.887216,34.410769,0 -77.887219,34.410922,0 -77.887249,34.411151,0 -77.887264,34.411366,0 -77.88727799999999,34.411479,0 -77.88741899999999,34.4122626,0 -77.8874952,34.4126861,0 -77.887534,34.412902,0 -77.88758300000001,34.41318,0 -77.88762800000001,34.41351,0 -77.887649,34.413769,0 -77.88764999999999,34.414067,0 -77.887637,34.414195,0 -77.887607,34.414463,0 -77.887575,34.414648,0 -77.887519,34.414862,0 -77.88739,34.415205,0 -77.887281,34.415436,0 -77.88715500000001,34.415671,0 -77.886951,34.416009,0 -77.8863958,34.4167713,0 -77.88595770000001,34.4173728,0 -77.885836,34.41754,0 -77.88547699999999,34.417982,0 -77.885099,34.418554,0 -77.884991,34.418717,0 -77.884942,34.418801,0 -77.88485,34.418978,0 -77.88475699999999,34.419191,0 -77.884643,34.419476,0 -77.884541,34.41978,0 -77.88445230000001,34.4200947,0 -77.8844034,34.4202958,0 -77.8842642,34.4207785,0 -77.8841817,34.4210813,0 -77.884157,34.421172,0 -77.8841036,34.4213662,0 -77.88408,34.421452,0 -77.88405590000001,34.4215416,0 -77.8839895,34.4217881,0 -77.8839534,34.4219219,0 -77.8837606,34.4226375,0 -77.88370260000001,34.422853,0 -77.8834635,34.4237407,0 -77.8828627,34.4259709,0 -77.8823968,34.4277003,0 -77.882319,34.427989,0 -77.8823019,34.4280522,0 -77.88218689999999,34.4284781,0 -77.88215959999999,34.4285793,0 -77.88208,34.428874,0 -77.882048,34.428993,0 -77.88187019999999,34.4296552,0 -77.88163400000001,34.430535,0 -77.88161650000001,34.4306013,0 -77.881332,34.43168,0 -77.88117699999999,34.432224,0 -77.88116599999999,34.432265,0 -77.8810991,34.4325141,0 -77.88104,34.432734,0 -77.880824,34.433517,0 -77.880703,34.433981,0 -77.880571,34.434455,0 -77.880031,34.4365,0 -77.87985,34.437181,0 -77.8795999,34.4382655,0 -77.8795538,34.4386595,0 -77.8795442,34.4388329,0 -77.8795552,34.439336,0 -77.8795739,34.4395589,0 -77.8796206,34.4399005,0 -77.8796461,34.4400867,0 -77.87969440000001,34.4402034,0 -77.87973719999999,34.440315,0 -77.87991820000001,34.4408361,0 -77.88013549999999,34.4415196,0 -77.8803889,34.4422689,0 -77.880675,34.443181,0 -77.8810381,34.4442588,0 -77.881175,34.444665,0 -77.88137500000001,34.445284,0 -77.88195,34.447021,0 -77.882031,34.447266,0 -77.8822583,34.4478744,0 -77.88233099999999,34.4480852,0 -77.8825377,34.4487348,0 -77.882711,34.449307,0 -77.882745,34.449433,0 -77.88298500000001,34.450425,0 -77.88360110000001,34.453001,0 -77.8837204,34.4535927,0 -77.883894,34.4546914,0 -77.88418729999999,34.4566355,0 -77.88457649999999,34.4591454,0 -77.8846317,34.4595319,0 -77.8850778,34.4624516,0 -77.8852777,34.4636956,0 -77.8853572,34.463998,0 -77.8854722,34.464351,0 -77.8855722,34.464585,0 -77.88564100000001,34.464753,0 -77.8861295,34.4656629,0 -77.88630689999999,34.4660094,0 -77.88646610000001,34.4663137,0 -77.8867278,34.4668286,0 -77.8867844,34.4669497,0 -77.88684619999999,34.4671009,0 -77.88690800000001,34.467275,0 -77.88695,34.467435,0 -77.886972,34.467548,0 -77.88698599999999,34.4676303,0 -77.88700059999999,34.4677752,0 -77.8870099,34.4679538,0 -77.8870919,34.4702311,0 -77.8870998,34.4706773,0 -77.887111,34.471193,0 -77.887131,34.471588,0 -77.88718,34.472529,0 -77.887229,34.472929,0 -77.88738499999999,34.473896,0 -77.88753699999999,34.474669,0 -77.887665,34.47521,0 -77.887683,34.475307,0 -77.887739,34.475565,0 -77.88775200000001,34.475644,0 -77.88778499999999,34.475838,0 -77.88787499999999,34.476146,0 -77.8881368,34.4766982,0 -77.888205,34.476842,0 -77.888932,34.478413,0 -77.8889923,34.4785425,0 -77.889365,34.479343,0 -77.88961089999999,34.4798807,0 -77.88978969999999,34.4802714,0 -77.89009540000001,34.4809397,0 -77.890101,34.480952,0 -77.8902094,34.4811825,0 -77.8904878,34.4817747,0 -77.890771,34.482377,0 -77.89115,34.483186,0 -77.89160099999999,34.484183,0 -77.89215710000001,34.4853554,0 -77.892211,34.485469,0 -77.89256,34.486218,0 -77.892816,34.486745,0 -77.892948,34.487035,0 -77.89343700000001,34.488075,0 -77.8939037,34.4890655,0 -77.894615,34.4904933,0 -77.896345,34.494247,0 -77.8970551,34.4957109,0 -77.897215,34.496095,0 -77.89754600000001,34.49677,0 -77.897706,34.497075,0 -77.897949,34.497466,0 -77.898163,34.49781,0 -77.898303,34.498025,0 -77.8993,34.499528,0 -77.89989799999999,34.500428,0 -77.900677,34.501546,0 -77.9007,34.501579,0 -77.901297,34.502466,0 -77.9013683,34.5025738,0 -77.901713,34.503095,0 -77.902007,34.50354,0 -77.902514,34.504312,0 -77.90268500000001,34.504596,0 -77.902715,34.504651,0 -77.902809,34.504825,0 -77.90293010000001,34.5050948,0 -77.902941,34.505119,0 -77.903108,34.505564,0 -77.903295,34.506116,0 -77.90373099999999,34.507448,0 -77.903762,34.507648,0 -77.903783,34.507726,0 -77.903831,34.507958,0 -77.903896,34.508399,0 -77.90394000000001,34.508832,0 -77.903963,34.509208,0 -77.903965,34.51125,0 -77.903976,34.511611,0 -77.904006,34.511992,0 -77.904037,34.512259,0 -77.90408499999999,34.512574,0 -77.9041929,34.5132493,0 -77.90421430000001,34.5134418,0 -77.90423149999999,34.5136435,0 -77.9042405,34.5138269,0 -77.9042377,34.5140774,0 -77.9042329,34.5141467,0 -77.9042184,34.5143591,0 -77.9041964,34.5145686,0 -77.90416949999999,34.5148293,0 -77.904115,34.5153336,0 -77.90407709999999,34.5157159,0 -77.90405989999999,34.5159953,0 -77.9040578,34.5161674,0 -77.904062,34.5163803,0 -77.904082,34.5166427,0 -77.90410679999999,34.5168409,0 -77.9041495,34.5170857,0 -77.90420469999999,34.5173248,0 -77.90426530000001,34.5175429,0 -77.90435840000001,34.5178427,0 -77.904481,34.5182255,0 -77.9046024,34.5185918,0 -77.9046889,34.5188437,0 -77.90495629999999,34.5196473,0 -77.905125,34.5201526,0 -77.90526819999999,34.5206053,0 -77.90538119999999,34.5209697,0 -77.9054374,34.521186,0 -77.9054919,34.5214424,0 -77.9055261,34.5216487,0 -77.90555449999999,34.5218531,0 -77.90558059999999,34.5221745,0 -77.9055997,34.5224262,0 -77.9057457,34.5252524,0 -77.9057727,34.5257602,0 -77.9058072,34.5263747,0 -77.90583410000001,34.526875,0 -77.90584370000001,34.527072,0 -77.9058568,34.5273156,0 -77.9058871,34.5278573,0 -77.9059051,34.5282219,0 -77.9059106,34.5283428,0 -77.905912,34.5283531,0 -77.9059451,34.5290225,0 -77.9059582,34.5293232,0 -77.905978,34.5296646,0 -77.90600550000001,34.5301592,0 -77.9060096,34.5302565,0 -77.9060207,34.5304841,0 -77.906046,34.5309143,0 -77.9060593,34.5311684,0 -77.9060755,34.5315389,0 -77.9060947,34.5318894,0 -77.906126,34.5324308,0 -77.9061399,34.532638,0 -77.9061567,34.5328424,0 -77.9061833,34.5330711,0 -77.9062227,34.5333094,0 -77.90627840000001,34.5335581,0 -77.9063833,34.5339224,0 -77.9064755,34.5342008,0 -77.9065827,34.5345016,0 -77.9067873,34.5350344,0 -77.9068997,34.5353381,0 -77.9070301,34.5356757,0 -77.90706609999999,34.5357755,0 -77.9074243,34.5367318,0 -77.90750610000001,34.5369525,0 -77.90766259999999,34.5373611,0 -77.90779809999999,34.5377349,0 -77.9079169,34.5380519,0 -77.9081517,34.5386767,0 -77.9084478,34.5394714,0 -77.9085991,34.5398672,0 -77.9087365,34.5402443,0 -77.90885470000001,34.5405609,0 -77.9089276,34.5407428,0 -77.9090552,34.5410808,0 -77.9092169,34.5415444,0 -77.9092946,34.5417554,0 -77.90936929999999,34.541957,0 -77.90943179999999,34.5421185,0 -77.9095411,34.5424059,0 -77.9096207,34.542615,0 -77.9098789,34.5433027,0 -77.9100238,34.5436903,0 -77.91023130000001,34.5442452,0 -77.9103436,34.5445497,0 -77.9104286,34.5447912,0 -77.910533,34.5450864,0 -77.91064849999999,34.545396,0 -77.9106839,34.5455059,0 -77.911008,34.546472,0 -77.91117,34.54693,0 -77.911432,34.54767,0 -77.911721,34.548466,0 -77.911783,34.548638,0 -77.9120532,34.549407,0 -77.9127352,34.5513411,0 -77.913344,34.553045,0 -77.91338500000001,34.553148,0 -77.913539,34.553485,0 -77.91364900000001,34.55369,0 -77.913803,34.553945,0 -77.914068,34.554312,0 -77.914168,34.554438,0 -77.914361,34.554659,0 -77.91467799999999,34.554976,0 -77.914839,34.555131,0 -77.91513,34.555391,0 -77.91547799999999,34.555678,0 -77.915735,34.555929,0 -77.91588419999999,34.5560639,0 -77.91655,34.556666,0 -77.91678400000001,34.556877,0 -77.918136,34.558093,0 -77.91842200000001,34.55835,0 -77.918572,34.558486,0 -77.91887680000001,34.5587611,0 -77.919292,34.559136,0 -77.9197681,34.5595575,0 -77.9200761,34.5598301,0 -77.92032500000001,34.560065,0 -77.920368,34.5601107,0 -77.920581,34.560337,0 -77.9207487,34.5605466,0 -77.92079150000001,34.5606001,0 -77.920873,34.560702,0 -77.921064,34.5609473,0 -77.9211758,34.5611076,0 -77.92124130000001,34.5612186,0 -77.9213357,34.5614043,0 -77.92144740000001,34.5616264,0 -77.92163429999999,34.5621056,0 -77.9216878,34.5622744,0 -77.9217629,34.5625354,0 -77.92190340000001,34.5631577,0 -77.922025,34.5637265,0 -77.92211399999999,34.5641237,0 -77.922512,34.5659182,0 -77.92285699999999,34.567553,0 -77.922973,34.568076,0 -77.923022,34.568319,0 -77.92303200000001,34.568379,0 -77.92306499999999,34.568575,0 -77.92308800000001,34.568763,0 -77.923104,34.569083,0 -77.923104,34.569217,0 -77.923095,34.569459,0 -77.92308800000001,34.569523,0 -77.922957,34.570621,0 -77.92285,34.571461,0 -77.922798,34.571897,0 -77.922771,34.572196,0 -77.92276200000001,34.572442,0 -77.922764,34.572603,0 -77.922782,34.572894,0 -77.922825,34.573206,0 -77.9229998,34.5740403,0 -77.923213,34.575058,0 -77.923382,34.575845,0 -77.92375,34.577596,0 -77.923849,34.578087,0 -77.924987,34.583438,0 -77.92563699999999,34.5864264,0 -77.92580599999999,34.587292,0 -77.9259206,34.5878315,0 -77.92601790000001,34.5882894,0 -77.926118,34.5887606,0 -77.926196,34.589128,0 -77.926557,34.590828,0 -77.92703400000001,34.593072,0 -77.927212,34.593909,0 -77.92735999999999,34.594643,0 -77.927403,34.594907,0 -77.927429,34.595228,0 -77.92743400000001,34.595547,0 -77.92741700000001,34.595763,0 -77.927368,34.596061,0 -77.92729799999999,34.596364,0 -77.927182,34.596799,0 -77.927142,34.596974,0 -77.927111,34.59707,0 -77.9269293,34.5976977,0 -77.926807,34.59812,0 -77.9263902,34.5995553,0 -77.9263735,34.5996127,0 -77.92634700000001,34.599704,0 -77.9262624,34.5999472,0 -77.92625200000001,34.599977,0 -77.926142,34.600268,0 -77.926069,34.600444,0 -77.9260175,34.6005537,0 -77.925946,34.600706,0 -77.925827,34.600919,0 -77.925703,34.601105,0 -77.92477100000001,34.60238,0 -77.9242508,34.6030805,0 -77.9238738,34.603604,0 -77.92336899999999,34.604292,0 -77.9233048,34.6043787,0 -77.923078,34.604685,0 -77.922967,34.604871,0 -77.922781,34.60523,0 -77.92275050000001,34.6052996,0 -77.922679,34.605463,0 -77.922625,34.605605,0 -77.9225885,34.6056982,0 -77.92252000000001,34.605873,0 -77.922453,34.606062,0 -77.922392,34.606252,0 -77.922286,34.606546,0 -77.9221807,34.6068373,0 -77.922054,34.607188,0 -77.9219729,34.6074172,0 -77.921648,34.608335,0 -77.921351,34.609192,0 -77.92118120000001,34.6096974,0 -77.9210985,34.609968,0 -77.92086430000001,34.6106258,0 -77.9205473,34.6115072,0 -77.9202835,34.6122768,0 -77.9194834,34.6145652,0 -77.9182869,34.6179262,0 -77.9181143,34.6184226,0 -77.91800929999999,34.6188356,0 -77.9179563,34.6190836,0 -77.9179243,34.6192886,0 -77.9179183,34.6193706,0 -77.9179213,34.6195526,0 -77.9179443,34.6198446,0 -77.918013,34.621217,0 -77.918087,34.622237,0 -77.918222,34.624101,0 -77.918424,34.626783,0 -77.91843230000001,34.626898,0 -77.918554,34.628592,0 -77.918609,34.629211,0 -77.9188175,34.6319325,0 -77.9190941,34.6352149,0 -77.9191759,34.6361766,0 -77.9191994,34.6371733,0 -77.9191675,34.6376615,0 -77.91908460000001,34.6384858,0 -77.91894739999999,34.639717,0 -77.9186538,34.6424863,0 -77.9185422,34.6436019,0 -77.91853260000001,34.6439274,0 -77.918542,34.6441371,0 -77.9185645,34.6443842,0 -77.9185797,34.6444983,0 -77.9186359,34.6448531,0 -77.91869490000001,34.645087,0 -77.91879950000001,34.6454335,0 -77.9188934,34.6456652,0 -77.9189739,34.6458439,0 -77.91908119999999,34.6460579,0 -77.9192314,34.6463183,0 -77.91936819999999,34.6465235,0 -77.91951570000001,34.6467309,0 -77.91989390000001,34.6471701,0 -77.9200092,34.647276,0 -77.9201862,34.6474459,0 -77.9205108,34.6477349,0 -77.92171020000001,34.6486749,0 -77.9237536,34.6502901,0 -77.92388769999999,34.650407,0 -77.92410219999999,34.6506122,0 -77.9242998,34.6508283,0 -77.9245248,34.6511143,0 -77.9246988,34.6513653,0 -77.92480879999999,34.6515463,0 -77.9249868,34.6518853,0 -77.92509440000001,34.6520887,0 -77.92594800000001,34.65374,0 -77.925979,34.653794,0 -77.926053,34.653926,0 -77.926242,34.654218,0 -77.926428,34.654465,0 -77.92666199999999,34.6547311,0 -77.9268661,34.6549608,0 -77.9279135,34.65603,0 -77.9301766,34.6583747,0 -77.9307336,34.6588747,0 -77.9313949,34.6594493,0 -77.9318887,34.6598613,0 -77.93323359999999,34.6610097,0 -77.9336514,34.6613664,0 -77.93369300000001,34.661402,0 -77.93432919999999,34.6619319,0 -77.93452499999999,34.662095,0 -77.93499199999999,34.662484,0 -77.935294,34.662746,0 -77.935531,34.662966,0 -77.935851,34.663327,0 -77.93600600000001,34.663529,0 -77.93618499999999,34.663796,0 -77.93675500000001,34.664685,0 -77.936774,34.664718,0 -77.936989,34.665092,0 -77.937005,34.665126,0 -77.937066,34.665255,0 -77.93723,34.665655,0 -77.93727199999999,34.665763,0 -77.937337,34.66597,0 -77.93756399999999,34.666815,0 -77.937696,34.667332,0 -77.93813299999999,34.668972,0 -77.938363,34.669787,0 -77.93847700000001,34.67014,0 -77.938952,34.6715,0 -77.93902,34.671694,0 -77.93951199999999,34.673081,0 -77.93992799999999,34.674251,0 -77.940979,34.677224,0 -77.94131899999999,34.678188,0 -77.9415071,34.6786937,0 -77.9415496,34.6788132,0 -77.94195499999999,34.6799521,0 -77.942009,34.68014,0 -77.94215699999999,34.680558,0 -77.94227600000001,34.680896,0 -77.942925,34.682736,0 -77.943122,34.683296,0 -77.943253,34.68364,0 -77.943411,34.684,0 -77.94371460000001,34.6845541,0 -77.9439721,34.6849225,0 -77.94409280000001,34.6850967,0 -77.9443266,34.6854001,0 -77.9444709,34.6855709,0 -77.9447445,34.6858444,0 -77.9453106,34.6863146,0 -77.94569129999999,34.6866229,0 -77.9462783,34.6870389,0 -77.94688189999999,34.6874894,0 -77.9476038,34.6880014,0 -77.948133,34.688349,0 -77.948486,34.688646,0 -77.948728,34.68886,0 -77.948964,34.689079,0 -77.949167,34.689279,0 -77.949499,34.689627,0 -77.949595,34.689731,0 -77.9497327,34.6898565,0 -77.9499591,34.6900784,0 -77.9501988,34.6903197,0 -77.951126,34.691265,0 -77.95148500000001,34.691624,0 -77.951555,34.691694,0 -77.95194100000001,34.692084,0 -77.952046,34.692181,0 -77.953346,34.693483,0 -77.95473699999999,34.694878,0 -77.9564429,34.6965516,0 -77.95659929999999,34.6967087,0 -77.957993,34.698157,0 -77.958144,34.698324,0 -77.958279,34.698445,0 -77.9602692,34.7004142,0 -77.96062550000001,34.7007725,0 -77.9611371,34.7012924,0 -77.962948,34.703149,0 -77.963117,34.703338,0 -77.96332200000001,34.703596,0 -77.96348,34.703828,0 -77.96366999999999,34.70414,0 -77.963866,34.704483,0 -77.964105,34.704917,0 -77.96491210000001,34.7063313,0 -77.9650462,34.7065739,0 -77.96519910000001,34.706801,0 -77.965343,34.706978,0 -77.96547200000001,34.707114,0 -77.965602,34.707229,0 -77.9659233,34.7074603,0 -77.966196,34.70764,0 -77.96633749999999,34.7077309,0 -77.96693399999999,34.708114,0 -77.968126,34.708874,0 -77.968467,34.709094,0 -77.9692313,34.7095978,0 -77.97055899999999,34.71042,0 -77.973337,34.712178,0 -77.97392499999999,34.712555,0 -77.973945,34.712569,0 -77.97429,34.712803,0 -77.97488800000001,34.713238,0 -77.97626099999999,34.714275,0 -77.97665600000001,34.714596,0 -77.97681799999999,34.714742,0 -77.977082,34.714989,0 -77.977214,34.715121,0 -77.977425,34.715348,0 -77.977602,34.715519,0 -77.97788199999999,34.715773,0 -77.978054,34.71592,0 -77.978224,34.716057,0 -77.978407,34.716186,0 -77.97862499999999,34.716322,0 -77.9791527,34.7166307,0 -77.9798016,34.7169957,0 -77.981015,34.717701,0 -77.98104499999999,34.717718,0 -77.9817977,34.7181576,0 -77.98307,34.718882,0 -77.98482199999999,34.719896,0 -77.985544,34.720332,0 -77.9862,34.720796,0 -77.986642,34.721151,0 -77.986701,34.721205,0 -77.986891,34.721376,0 -77.987143,34.721624,0 -77.98719800000001,34.721684,0 -77.98753499999999,34.722056,0 -77.98759699999999,34.722133,0 -77.98778900000001,34.722369,0 -77.987908,34.722531,0 -77.987944,34.72258,0 -77.988221,34.722994,0 -77.98829499999999,34.723119,0 -77.988456,34.723419,0 -77.988533,34.723563,0 -77.98866,34.723822,0 -77.988809,34.724166,0 -77.98897599999999,34.724595,0 -77.989183,34.725177,0 -77.989203,34.725231,0 -77.98932600000001,34.725574,0 -77.989512,34.726104,0 -77.989937,34.727275,0 -77.99014,34.727835,0 -77.990239,34.728108,0 -77.99027839999999,34.7282165,0 -77.990391,34.728527,0 -77.99052,34.728893,0 -77.99061,34.729149,0 -77.990774,34.72959,0 -77.990998,34.730224,0 -77.991131,34.730599,0 -77.99135800000001,34.731236,0 -77.991801,34.732465,0 -77.992014,34.7330603,0 -77.992245,34.733706,0 -77.992689,34.734946,0 -77.9927572,34.7351367,0 -77.992942,34.735653,0 -77.993098,34.736087,0 -77.9932017,34.736354,0 -77.9932111,34.7363809,0 -77.99340100000001,34.736912,0 -77.9934603,34.7370742,0 -77.9935253,34.7372517,0 -77.99358960000001,34.7374277,0 -77.993664,34.737631,0 -77.993841,34.738135,0 -77.99398600000001,34.738527,0 -77.99431199999999,34.739437,0 -77.99451190000001,34.7399957,0 -77.994741,34.740636,0 -77.99518,34.741853,0 -77.99562400000001,34.743097,0 -77.99587200000001,34.743783,0 -77.996059,34.744302,0 -77.9962201,34.744759,0 -77.996439,34.745364,0 -77.99656210000001,34.74571,0 -77.996821,34.746428,0 -77.996849,34.746506,0 -77.996876,34.746583,0 -77.99703700000001,34.747031,0 -77.99718799999999,34.747441,0 -77.997281,34.7477,0 -77.997558,34.748473,0 -77.99775,34.749005,0 -77.998041,34.7498099,0 -77.99822500000001,34.750319,0 -77.9983725,34.7507309,0 -77.99861180000001,34.7513989,0 -77.9987928,34.7519042,0 -77.9988942,34.7521873,0 -77.999032,34.752572,0 -77.9990562,34.7526411,0 -77.9991959,34.7530399,0 -77.9992932,34.7533178,0 -77.999351,34.753483,0 -77.999472,34.753814,0 -77.99970500000001,34.754451,0 -77.99986370000001,34.7548847,0 -78.00011600000001,34.755574,0 -78.000302,34.756099,0 -78.0003339,34.7561892,0 -78.000731,34.757312,0 -78.000821,34.757591,0 -78.0008579,34.7577253,0 -78.001018,34.758332,0 -78.0011427,34.7588159,0 -78.001152,34.758852,0 -78.001181,34.759034,0 -78.00121900000001,34.759327,0 -78.001232,34.759426,0 -78.001248,34.759525,0 -78.001276,34.759705,0 -78.00133599999999,34.7601584,0 -78.001339,34.760181,0 -78.00138800000001,34.760589,0 -78.00144400000001,34.76111,0 -78.00146700000001,34.761379,0 -78.001496,34.761595,0 -78.001554,34.761888,0 -78.00156,34.761937,0 -78.00162,34.762381,0 -78.00163499999999,34.762494,0 -78.001693,34.762884,0 -78.001761,34.763332,0 -78.0018056,34.7637014,0 -78.0018537,34.7640994,0 -78.00188199999999,34.764337,0 -78.001929,34.764775,0 -78.002061,34.765703,0 -78.002111,34.766158,0 -78.00231700000001,34.767779,0 -78.002387,34.76828,0 -78.002543,34.769111,0 -78.002633,34.769527,0 -78.002662,34.769656,0 -78.00283,34.770265,0 -78.00309799999999,34.771068,0 -78.003198,34.771324,0 -78.00329499999999,34.771576,0 -78.003497,34.772147,0 -78.00362,34.772475,0 -78.00387600000001,34.773151,0 -78.00407199999999,34.773695,0 -78.00429699999999,34.774279,0 -78.004516,34.774897,0 -78.00470199999999,34.77541,0 -78.00487800000001,34.775892,0 -78.004914,34.77599,0 -78.005008,34.77628,0 -78.005073,34.776457,0 -78.00532200000001,34.777133,0 -78.005618,34.777906,0 -78.005869,34.778584,0 -78.00598960000001,34.7789285,0 -78.0061,34.77924,0 -78.006361,34.779906,0 -78.006547,34.780432,0 -78.006835,34.781186,0 -78.007062,34.781813,0 -78.00711699999999,34.781959,0 -78.00723600000001,34.782277,0 -78.007412,34.78273,0 -78.0074326,34.7827872,0 -78.007493,34.78296,0 -78.00757,34.783164,0 -78.00766299999999,34.783428,0 -78.00774699999999,34.783666,0 -78.007785,34.783773,0 -78.007867,34.783994,0 -78.007976,34.784286,0 -78.00847400000001,34.785651,0 -78.008735,34.786341,0 -78.00908339999999,34.7872931,0 -78.009446,34.788284,0 -78.00968899999999,34.788914,0 -78.010169,34.7902,0 -78.010333,34.790719,0 -78.01044,34.79112,0 -78.010533,34.791512,0 -78.01057900000001,34.791749,0 -78.01061199999999,34.791915,0 -78.01071,34.792377,0 -78.01087800000001,34.793219,0 -78.010986,34.793803,0 -78.011233,34.79504,0 -78.01134399999999,34.795506,0 -78.01149100000001,34.796121,0 -78.011613,34.796534,0 -78.0118205,34.7971406,0 -78.011875,34.797313,0 -78.011889,34.797354,0 -78.012157,34.798093,0 -78.01235200000001,34.798631,0 -78.012809,34.79991,0 -78.013006,34.800461,0 -78.01323499999999,34.801084,0 -78.01345000000001,34.801707,0 -78.013676,34.80232,0 -78.0138187,34.8027165,0 -78.0139166,34.8029885,0 -78.0141742,34.8037043,0 -78.014264,34.803954,0 -78.014392,34.804309,0 -78.014702,34.805172,0 -78.014922,34.805795,0 -78.01513199999999,34.806372,0 -78.0152415,34.8066728,0 -78.015328,34.806923,0 -78.01544199999999,34.807246,0 -78.015956,34.80867,0 -78.016034,34.808863,0 -78.016282,34.809473,0 -78.016851,34.811189,0 -78.016886,34.811283,0 -78.017133,34.811949,0 -78.0174517,34.8128421,0 -78.0174749,34.8129072,0 -78.01764900000001,34.813398,0 -78.01788500000001,34.814051,0 -78.018022,34.814431,0 -78.018119,34.8147,0 -78.018344,34.815345,0 -78.0185481,34.8159096,0 -78.0186894,34.8162731,0 -78.01893,34.816966,0 -78.01904399999999,34.817281,0 -78.019093,34.817417,0 -78.01912059999999,34.8174911,0 -78.0193,34.817994,0 -78.0194474,34.8184119,0 -78.019543,34.818674,0 -78.01965,34.818974,0 -78.02031100000001,34.820813,0 -78.020565,34.821502,0 -78.02058820000001,34.8215636,0 -78.020708,34.821882,0 -78.020815,34.82218,0 -78.02100799999999,34.822719,0 -78.0212532,34.8233594,0 -78.0214237,34.8238187,0 -78.0215275,34.8241201,0 -78.0215563,34.8242036,0 -78.021664,34.824492,0 -78.021809,34.824866,0 -78.02202200000001,34.825447,0 -78.022379,34.826401,0 -78.02262,34.827039,0 -78.02271500000001,34.827308,0 -78.02288160000001,34.8277247,0 -78.0229059,34.8277954,0 -78.023048,34.828227,0 -78.0232086,34.8286504,0 -78.0233525,34.8290298,0 -78.02339499999999,34.829142,0 -78.023544,34.829557,0 -78.023687,34.829948,0 -78.02381800000001,34.830306,0 -78.02395,34.830661,0 -78.024021,34.8308526,0 -78.024102,34.831071,0 -78.024207,34.831377,0 -78.024314,34.831661,0 -78.02446999999999,34.832073,0 -78.024637,34.832529,0 -78.0247811,34.8329306,0 -78.02493200000001,34.833366,0 -78.025092,34.833806,0 -78.025132,34.833906,0 -78.02522500000001,34.834138,0 -78.025479,34.834842,0 -78.025825,34.835786,0 -78.02623,34.836885,0 -78.0263064,34.837097,0 -78.026421,34.837398,0 -78.026746,34.838271,0 -78.02701999999999,34.839034,0 -78.02739,34.840032,0 -78.02764999999999,34.840732,0 -78.028142,34.842082,0 -78.028604,34.843326,0 -78.029095,34.844667,0 -78.029285,34.84516,0 -78.02941300000001,34.845536,0 -78.029489,34.845736,0 -78.029622,34.846084,0 -78.02978400000001,34.846545,0 -78.029957,34.846987,0 -78.03012200000001,34.847447,0 -78.030293,34.847891,0 -78.03044300000001,34.848294,0 -78.030674,34.848914,0 -78.03088200000001,34.849505,0 -78.03108,34.850023,0 -78.031538,34.851267,0 -78.031756,34.851872,0 -78.031768,34.851902,0 -78.032218,34.853078,0 -78.032432,34.853667,0 -78.032664,34.854287,0 -78.03280100000001,34.854668,0 -78.032884,34.854901,0 -78.033001,34.855257,0 -78.03309729999999,34.855498,0 -78.03318899999999,34.8557349,0 -78.03330699999999,34.856083,0 -78.03339099999999,34.856312,0 -78.03353,34.856693,0 -78.03357320000001,34.8568108,0 -78.033599,34.856881,0 -78.0338706,34.8575613,0 -78.0339906,34.8578619,0 -78.0341379,34.8582357,0 -78.034407,34.859052,0 -78.03465,34.859681,0 -78.034811,34.860111,0 -78.034915,34.860388,0 -78.035038,34.860717,0 -78.035236,34.861265,0 -78.0357418,34.8624532,0 -78.03595900000001,34.862976,0 -78.036171,34.86341,0 -78.036232,34.863524,0 -78.036762,34.864522,0 -78.03716799999999,34.8651811,0 -78.037492,34.8657045,0 -78.037615,34.865909,0 -78.03791699999999,34.866393,0 -78.038521,34.867317,0 -78.0390472,34.8681118,0 -78.039241,34.868432,0 -78.039393,34.868671,0 -78.039591,34.868983,0 -78.04007,34.869735,0 -78.04103600000001,34.871225,0 -78.04137799999999,34.871762,0 -78.042377,34.873284,0 -78.04347199999999,34.87498,0 -78.04372499999999,34.875365,0 -78.04432300000001,34.87629,0 -78.044568,34.876669,0 -78.044708,34.876885,0 -78.045689,34.878413,0 -78.04602,34.878915,0 -78.046319,34.879381,0 -78.0468465,34.8801662,0 -78.047388,34.881032,0 -78.048592,34.88289,0 -78.048665,34.883003,0 -78.04902300000001,34.883543,0 -78.049335,34.884046,0 -78.04959599999999,34.884501,0 -78.049649,34.884594,0 -78.04992900000001,34.885144,0 -78.050057,34.885413,0 -78.050168,34.885648,0 -78.050372,34.886139,0 -78.050392,34.886186,0 -78.050527,34.886556,0 -78.050659,34.8869,0 -78.05143,34.88897,0 -78.051462,34.889056,0 -78.051495,34.889141,0 -78.051964,34.890385,0 -78.052409,34.891609,0 -78.052916,34.892972,0 -78.053378,34.894252,0 -78.053539,34.894682,0 -78.053836,34.895505,0 -78.053963,34.895844,0 -78.054236,34.896605,0 -78.0543947,34.897048,0 -78.05446499999999,34.897251,0 -78.05471199999999,34.897933,0 -78.05483,34.898259,0 -78.05506699999999,34.898935,0 -78.05529,34.899548,0 -78.05553999999999,34.900222,0 -78.055745,34.900808,0 -78.055921,34.901295,0 -78.056014,34.901554,0 -78.05628299999999,34.902164,0 -78.05641900000001,34.902457,0 -78.05654800000001,34.902734,0 -78.05661499999999,34.902865,0 -78.056651,34.902931,0 -78.056995,34.903563,0 -78.05712,34.903779,0 -78.05727400000001,34.90402,0 -78.058142,34.905451,0 -78.058376,34.905844,0 -78.058615,34.906227,0 -78.058851,34.906621,0 -78.058989,34.906843,0 -78.059288,34.907377,0 -78.059597,34.907989,0 -78.0598148,34.9084286,0 -78.059928,34.9086877,0 -78.06003320000001,34.9089654,0 -78.06101,34.9115953,0 -78.06107609999999,34.9117746,0 -78.06182800000001,34.913812,0 -78.061941,34.91411,0 -78.0646807,34.9214705,0 -78.065241,34.922997,0 -78.065363,34.923315,0 -78.06562959999999,34.924022,0 -78.065845,34.924619,0 -78.066057,34.925206,0 -78.06639,34.926138,0 -78.06664600000001,34.926767,0 -78.06689900000001,34.927433,0 -78.067123,34.928062,0 -78.067635,34.92945,0 -78.06782200000001,34.929943,0 -78.068415,34.93153,0 -78.068623,34.932087,0 -78.068749,34.932424,0 -78.06895299999999,34.932992,0 -78.06922,34.933696,0 -78.070071,34.935997,0 -78.07021400000001,34.93638,0 -78.070809,34.937965,0 -78.07111,34.938808,0 -78.071389,34.939544,0 -78.07184599999999,34.940758,0 -78.07201000000001,34.941221,0 -78.072193,34.941682,0 -78.07225099999999,34.941818,0 -78.072322,34.942023,0 -78.072406,34.942239,0 -78.072562,34.942669,0 -78.072701,34.943053,0 -78.073138,34.9443,0 -78.07319,34.944429,0 -78.073224,34.944513,0 -78.07359,34.945492,0 -78.073746,34.945924,0 -78.07438500000001,34.947627,0 -78.074416,34.947713,0 -78.07457599999999,34.948127,0 -78.07478500000001,34.948698,0 -78.074944,34.949118,0 -78.075115,34.949554,0 -78.075295,34.950029,0 -78.07541500000001,34.95033,0 -78.075738,34.951195,0 -78.075754,34.951237,0 -78.075841,34.951479,0 -78.07591600000001,34.951684,0 -78.076245,34.95256,0 -78.076353,34.952836,0 -78.076521,34.953302,0 -78.077,34.954585,0 -78.07716000000001,34.95503,0 -78.0773583,34.9556333,0 -78.07744599999999,34.955815,0 -78.078159,34.957709,0 -78.07835300000001,34.958244,0 -78.078526,34.958747,0 -78.078729,34.959258,0 -78.078934,34.959829,0 -78.079125,34.960318,0 -78.079572,34.96152,0 -78.079876,34.962357,0 -78.080038,34.962773,0 -78.080197,34.963197,0 -78.08031699999999,34.963547,0 -78.08034000000001,34.963614,0 -78.08041799999999,34.963824,0 -78.080477,34.96398,0 -78.08064299999999,34.964406,0 -78.08093,34.965184,0 -78.08124100000001,34.966002,0 -78.081389,34.966419,0 -78.081723,34.967301,0 -78.081868,34.967701,0 -78.082615,34.969698,0 -78.08280600000001,34.970224,0 -78.083235,34.971367,0 -78.083296,34.971528,0 -78.083623,34.972428,0 -78.083814,34.972917,0 -78.0840967,34.9736695,0 -78.084158,34.973837,0 -78.08432500000001,34.974302,0 -78.084504,34.974779,0 -78.08467,34.975237,0 -78.085014,34.976137,0 -78.085123,34.976451,0 -78.08517399999999,34.976598,0 -78.085353,34.977056,0 -78.085539,34.977571,0 -78.085667,34.977948,0 -78.08591,34.978847,0 -78.085998,34.979269,0 -78.08613200000001,34.979994,0 -78.086184,34.980374,0 -78.086195,34.980435,0 -78.086247,34.980729,0 -78.086257,34.980817,0 -78.08627,34.980926,0 -78.086342,34.981317,0 -78.086476,34.982169,0 -78.086516,34.982426,0 -78.086538,34.982544,0 -78.08659,34.982892,0 -78.08662099999999,34.983044,0 -78.086641,34.983196,0 -78.086693,34.983466,0 -78.086727,34.983738,0 -78.086793,34.984185,0 -78.086805,34.984253,0 -78.086849,34.984499,0 -78.086872,34.984628,0 -78.086967,34.98523,0 -78.087017,34.985552,0 -78.087046,34.985702,0 -78.08707200000001,34.985879,0 -78.087113,34.986166,0 -78.08716,34.986486,0 -78.087305,34.987455,0 -78.08738700000001,34.987875,0 -78.087473,34.988367,0 -78.0875509,34.9888104,0 -78.0876574,34.9892499,0 -78.087737,34.989529,0 -78.087915,34.9901232,0 -78.08802799999999,34.990442,0 -78.088129,34.990709,0 -78.088302,34.991168,0 -78.088393,34.99141,0 -78.0886,34.991932,0 -78.08886800000001,34.992617,0 -78.08889000000001,34.992671,0 -78.089196,34.993458,0 -78.08956999999999,34.994422,0 -78.089708,34.994772,0 -78.09003,34.99562,0 -78.09016200000001,34.995969,0 -78.09029719999999,34.9962905,0 -78.090397,34.996528,0 -78.0904567,34.996681,0 -78.0905214,34.996847,0 -78.090726,34.997405,0 -78.091003,34.998107,0 -78.0910552,34.9982404,0 -78.09113000000001,34.9984317,0 -78.0911674,34.9985273,0 -78.0911773,34.9985527,0 -78.0912503,34.9987394,0 -78.0913151,34.9989048,0 -78.09137629999999,34.9990613,0 -78.0914356,34.999215,0 -78.09144499999999,34.999237,0 -78.091504,34.9993732,0 -78.0916017,34.9996123,0 -78.09165,34.999742,0 -78.09175070000001,35.0000006,0 -78.09187900000001,35.00033,0 -78.092157,35.001037,0 -78.0922437,35.0012906,0 -78.092372,35.001629,0 -78.09273,35.00253,0 -78.093232,35.003826,0 -78.0934587,35.0044141,0 -78.09355669999999,35.0046615,0 -78.093728,35.005113,0 -78.0942278,35.0063798,0 -78.094613,35.007401,0 -78.094624,35.007429,0 -78.09492400000001,35.008202,0 -78.09502999999999,35.008469,0 -78.09544409999999,35.0095382,0 -78.09560399999999,35.009951,0 -78.095832,35.010554,0 -78.096082,35.011175,0 -78.096183,35.011438,0 -78.096191,35.011458,0 -78.096261,35.01164,0 -78.09644900000001,35.012101,0 -78.09658,35.01236,0 -78.09670800000001,35.012584,0 -78.09678599999999,35.012702,0 -78.09683699999999,35.012778,0 -78.096979,35.012967,0 -78.09706300000001,35.013069,0 -78.097211,35.013232,0 -78.09737,35.013388,0 -78.097481,35.013489,0 -78.097587,35.013578,0 -78.09792899999999,35.013839,0 -78.098421,35.014194,0 -78.09882500000001,35.014504,0 -78.098997,35.014659,0 -78.0990238,35.0146873,0 -78.09905000000001,35.014715,0 -78.099153,35.014825,0 -78.099203,35.014886,0 -78.099481,35.015253,0 -78.09957319999999,35.0153981,0 -78.09965699999999,35.01553,0 -78.09967,35.015572,0 -78.099819,35.015921,0 -78.100217,35.016994,0 -78.100651,35.018119,0 -78.100887,35.018775,0 -78.101411,35.020177,0 -78.10156499999999,35.020588,0 -78.101797,35.021167,0 -78.10201000000001,35.021764,0 -78.102478,35.022999,0 -78.10323200000001,35.025053,0 -78.103314,35.025257,0 -78.103466,35.025637,0 -78.103815,35.026576,0 -78.104218,35.027659,0 -78.1046656,35.0287887,0 -78.1048358,35.0292181,0 -78.1049209,35.0294531,0 -78.1052198,35.0302618,0 -78.10566900000001,35.0314611,0 -78.1060708,35.0325355,0 -78.10640100000001,35.033505,0 -78.106649,35.034163,0 -78.106876,35.034766,0 -78.107116,35.035381,0 -78.107339,35.036,0 -78.10753699999999,35.03652,0 -78.10771099999999,35.036987,0 -78.107889,35.037467,0 -78.10803,35.037847,0 -78.108137,35.038125,0 -78.108831,35.039991,0 -78.108902,35.040179,0 -78.109106,35.040719,0 -78.10918409999999,35.04088,0 -78.109387,35.0414318,0 -78.10962000000001,35.042118,0 -78.109876,35.04279,0 -78.110288,35.043906,0 -78.110603,35.044759,0 -78.11086,35.045413,0 -78.11094,35.04563,0 -78.1110049,35.045812,0 -78.1111169,35.046113,0 -78.111368,35.046756,0 -78.11161199999999,35.047429,0 -78.11218700000001,35.048964,0 -78.112253,35.049194,0 -78.112331,35.049553,0 -78.112352,35.049697,0 -78.11236700000001,35.049896,0 -78.112382,35.050344,0 -78.11241699999999,35.051036,0 -78.112461,35.051535,0 -78.112497,35.051761,0 -78.11254099999999,35.051953,0 -78.112595,35.052151,0 -78.11268800000001,35.052444,0 -78.11298600000001,35.053218,0 -78.11320000000001,35.053798,0 -78.11345799999999,35.054482,0 -78.113711,35.055169,0 -78.113945,35.055822,0 -78.114186,35.056458,0 -78.114445,35.05718,0 -78.11469099999999,35.057804,0 -78.114923,35.058437,0 -78.11537199999999,35.05962,0 -78.115583,35.060189,0 -78.115859,35.060942,0 -78.116272,35.062012,0 -78.116711,35.063195,0 -78.116913,35.063721,0 -78.11706599999999,35.06416,0 -78.11721799999999,35.064571,0 -78.117226,35.064591,0 -78.11735899999999,35.064931,0 -78.117454,35.06515,0 -78.11756200000001,35.065344,0 -78.11769,35.065548,0 -78.11776,35.06566,0 -78.11796099999999,35.065915,0 -78.11841699999999,35.066445,0 -78.118633,35.066713,0 -78.11872700000001,35.066841,0 -78.118853,35.067034,0 -78.11896400000001,35.067237,0 -78.119118,35.067536,0 -78.11966700000001,35.068995,0 -78.120493,35.07121,0 -78.120779,35.071961,0 -78.120902,35.072301,0 -78.12114099999999,35.072962,0 -78.121405,35.073654,0 -78.121667,35.074366,0 -78.121819,35.074762,0 -78.12191199999999,35.075002,0 -78.12212529999999,35.0755846,0 -78.122224,35.075841,0 -78.122643,35.076966,0 -78.1228843,35.0775719,0 -78.1230553,35.078036,0 -78.123666,35.07969,0 -78.124543,35.082022,0 -78.12478400000001,35.082696,0 -78.125073,35.083448,0 -78.125388,35.084299,0 -78.125739,35.085219,0 -78.126003,35.085946,0 -78.126114,35.086234,0 -78.126186,35.086422,0 -78.12648,35.087208,0 -78.12672600000001,35.0878385,0 -78.12744600000001,35.089797,0 -78.12756,35.090099,0 -78.127916,35.091045,0 -78.12802929999999,35.0913547,0 -78.12812700000001,35.091622,0 -78.128359,35.092207,0 -78.12862199999999,35.092904,0 -78.128827,35.09343,0 -78.1291561,35.0942932,0 -78.1291781,35.0943609,0 -78.129293,35.094715,0 -78.12954000000001,35.09535,0 -78.130397,35.097676,0 -78.130579,35.098164,0 -78.130878,35.0989696,0 -78.130949,35.099173,0 -78.13198300000001,35.101947,0 -78.13269699999999,35.103818,0 -78.13300599999999,35.104663,0 -78.1331,35.104914,0 -78.13372,35.10657,0 -78.133895,35.107002,0 -78.134274,35.108004,0 -78.134463,35.108516,0 -78.134623,35.108932,0 -78.134719,35.109185,0 -78.13490899999999,35.109689,0 -78.135062,35.110112,0 -78.135212,35.110511,0 -78.135336,35.110901,0 -78.135454,35.111318,0 -78.13556199999999,35.111733,0 -78.135659,35.112225,0 -78.135707,35.11251,0 -78.135784,35.113016,0 -78.135842,35.113565,0 -78.135865,35.113991,0 -78.13587800000001,35.114475,0 -78.1358666,35.1151034,0 -78.13586100000001,35.115271,0 -78.13584299999999,35.1156,0 -78.13581499999999,35.115978,0 -78.135763,35.116439,0 -78.135733,35.116666,0 -78.13566400000001,35.117078,0 -78.135637,35.117211,0 -78.13558999999999,35.117434,0 -78.135496,35.117799,0 -78.135372,35.11824,0 -78.135246,35.118652,0 -78.13512,35.119007,0 -78.134958,35.119445,0 -78.134609,35.120258,0 -78.134376,35.120745,0 -78.134012,35.121427,0 -78.133813,35.121755,0 -78.13375000000001,35.121866,0 -78.133555,35.122168,0 -78.13330999999999,35.122524,0 -78.13306300000001,35.122861,0 -78.132914,35.12306,0 -78.132648,35.123389,0 -78.13219599999999,35.123907,0 -78.1311589,35.1250355,0 -78.130437,35.125821,0 -78.1296968,35.1266432,0 -78.1291406,35.127252,0 -78.1283968,35.1280733,0 -78.12764300000001,35.12889,0 -78.1270069,35.1295985,0 -78.12610599999999,35.130566,0 -78.125619,35.131091,0 -78.125181,35.131582,0 -78.124726,35.132072,0 -78.124269,35.132581,0 -78.12332600000001,35.133601,0 -78.1226142,35.134389,0 -78.12226870000001,35.1347644,0 -78.12145099999999,35.135656,0 -78.12084249999999,35.1363225,0 -78.1208178,35.1363774,0 -78.1202715,35.1369745,0 -78.1200597,35.1372063,0 -78.119649,35.1376505,0 -78.1193753,35.137963,0 -78.119046,35.1382858,0 -78.11885100000001,35.1385028,0 -78.1184274,35.1389637,0 -78.1180751,35.1393021,0 -78.1177618,35.1395898,0 -78.11747990000001,35.1398359,0 -78.1171698,35.1401009,0 -78.1169666,35.1402648,0 -78.1167124,35.1404709,0 -78.1162025,35.1408483,0 -78.1158937,35.1410646,0 -78.1156426,35.141232,0 -78.1152079,35.1415151,0 -78.11467140000001,35.141852,0 -78.1135156,35.1425712,0 -78.1128051,35.1430148,0 -78.11251179999999,35.1432159,0 -78.1122352,35.1434191,0 -78.1119429,35.1436562,0 -78.1116707,35.143895,0 -78.111394,35.1441567,0 -78.1111435,35.1444221,0 -78.110837,35.1447725,0 -78.11069999999999,35.1449483,0 -78.11059710000001,35.1450793,0 -78.1105342,35.145166,0 -78.11034909999999,35.1454425,0 -78.1102236,35.1456389,0 -78.1101034,35.145842,0 -78.10996110000001,35.1461084,0 -78.1098508,35.1463328,0 -78.1097499,35.146563,0 -78.1096999,35.146682,0 -78.1095954,35.1469702,0 -78.1094952,35.1472706,0 -78.10941560000001,35.1475654,0 -78.1093541,35.1478494,0 -78.1093025,35.1481713,0 -78.1092618,35.1484833,0 -78.1092371,35.1489132,0 -78.1092237,35.1491319,0 -78.10917860000001,35.1497775,0 -78.1091321,35.1505193,0 -78.109106,35.150998,0 -78.109059,35.1516415,0 -78.1090347,35.1520824,0 -78.109005,35.15265,0 -78.1089656,35.153209,0 -78.1089534,35.1533932,0 -78.1089424,35.1536038,0 -78.108947,35.1538106,0 -78.10895619999999,35.1539959,0 -78.10897439999999,35.1541606,0 -78.1090116,35.1543655,0 -78.109059,35.154555,0 -78.1091278,35.1547706,0 -78.109194,35.1549284,0 -78.1092877,35.1551313,0 -78.10938760000001,35.155316,0 -78.109505,35.155514,0 -78.109619,35.1556752,0 -78.10983969999999,35.1559777,0 -78.11004440000001,35.1562535,0 -78.1107153,35.1571612,0 -78.11103129999999,35.1575951,0 -78.111113,35.157819,0 -78.11034100000001,35.158683,0 -78.109863,35.159256,0 -78.10920400000001,35.1601,0 -78.108885,35.16053,0 -78.108802,35.16065,0 -78.10863500000001,35.160892,0 -78.108341,35.1613,0 -78.108227,35.161465,0 -78.10820699999999,35.161493,0 -78.107694,35.162277,0 -78.10736300000001,35.162805,0 -78.10699700000001,35.163348,0 -78.10663599999999,35.163919,0 -78.106127,35.164708,0 -78.10474000000001,35.166855,0 -78.103989,35.167997,0 -78.103615,35.168592,0 -78.10325400000001,35.169148,0 -78.10250499999999,35.170318,0 -78.102304,35.170614,0 -78.102244,35.170703,0 -78.102098,35.170917,0 -78.101705,35.171543,0 -78.101298,35.172168,0 -78.100962,35.172696,0 -78.100606,35.173232,0 -78.09997,35.174249,0 -78.099856,35.174435,0 -78.09955100000001,35.174935,0 -78.09930199999999,35.17534,0 -78.099118,35.175584,0 -78.09891,35.175858,0 -78.09859400000001,35.176343,0 -78.09829999999999,35.176804,0 -78.097842,35.177507,0 -78.09742850000001,35.1781411,0 -78.0965901,35.1794643,0 -78.0958643,35.1806027,0 -78.0945913,35.1825956,0 -78.09435619999999,35.1829498,0 -78.0924514,35.1858806,0 -78.0889234,35.1913132,0 -78.0884061,35.1920891,0 -78.0878063,35.1929578,0 -78.08718380000001,35.1937601,0 -78.08658730000001,35.1944332,0 -78.08594479999999,35.1950939,0 -78.08574369999999,35.1952852,0 -78.0852702,35.1957382,0 -78.078563,35.2021688,0 -78.0780863,35.2026258,0 -78.0779378,35.2027681,0 -78.07500709999999,35.2055778,0 -78.0730646,35.2073793,0 -78.0728841,35.2075778,0 -78.0727851,35.2076773,0 -78.0726145,35.2078485,0 -78.0717726,35.2086657,0 -78.0704511,35.2099493,0 -78.0696026,35.2107426,0 -78.06867099999999,35.2116302,0 -78.0684342,35.2118558,0 -78.06750150000001,35.212757,0 -78.0673407,35.2129108,0 -78.06706149999999,35.213178,0 -78.0663447,35.2138634,0 -78.0652339,35.2149256,0 -78.0642069,35.2159065,0 -78.0625807,35.217455,0 -78.0620397,35.2179987,0 -78.0616534,35.2184575,0 -78.0614413,35.2187976,0 -78.0611723,35.219239,0 -78.06091859999999,35.2197143,0 -78.06076400000001,35.2200525,0 -78.0604491,35.2210074,0 -78.060337,35.2215802,0 -78.0602615,35.222347,0 -78.0595754,35.232486,0 -78.0595414,35.232988,0 -78.0594916,35.233541,0 -78.05943379999999,35.2340862,0 -78.05936370000001,35.2346354,0 -78.05927819999999,35.2351813,0 -78.0591854,35.235729,0 -78.0590796,35.2362739,0 -78.0589612,35.2368144,0 -78.0585442,35.238627,0 -78.0584733,35.238935,0 -78.0573941,35.243626,0 -78.0558934,35.2501483,0 -78.0557068,35.2509903,0 -78.05552489999999,35.2518453,0 -78.0553529,35.2526965,0 -78.0551869,35.2535547,0 -78.055027,35.2544132,0 -78.0548751,35.255275,0 -78.05472880000001,35.256142,0 -78.0535902,35.2629488,0 -78.05333450000001,35.2644774,0 -78.0524307,35.26988,0 -78.0523336,35.2704245,0 -78.0522266,35.2709673,0 -78.05210870000001,35.271511,0 -78.05197680000001,35.2720541,0 -78.0518347,35.2725938,0 -78.0516813,35.2731316,0 -78.05151840000001,35.273668,0 -78.05134200000001,35.2742029,0 -78.05115480000001,35.2747346,0 -78.0509509,35.2752722,0 -78.05057770000001,35.2761995,0 -78.0491731,35.2796143,0 -78.0483266,35.2818678,0 -78.04781319999999,35.2834858,0 -78.04754130000001,35.2845302,0 -78.04745579999999,35.2850795,0 -78.04722580000001,35.2862043,0 -78.0471043,35.2870469,0 -78.04698070000001,35.2882957,0 -78.04691680000001,35.2892655,0 -78.0469205,35.2914217,0 -78.0470377,35.2943536,0 -78.04722150000001,35.2994442,0 -78.0471993,35.3006127,0 -78.0471613,35.3011996,0 -78.0470706,35.3019101,0 -78.0470061,35.3022828,0 -78.0469013,35.3027958,0 -78.0466663,35.3036702,0 -78.04653709999999,35.3040817,0 -78.0463871,35.3044915,0 -78.0462454,35.3048469,0 -78.0460829,35.3052466,0 -78.0458974,35.3056496,0 -78.0456057,35.3062193,0 -78.0451223,35.3070695,0 -78.04422340000001,35.308444,0 -78.0432256,35.3100432,0 -78.0411668,35.313431,0 -78.040693,35.3141746,0 -78.0402813,35.3147989,0 -78.0386041,35.3174991,0 -78.03830379999999,35.3181294,0 -78.0382674,35.3182038,0 -78.0382377,35.3182863,0 -78.0380114,35.3188849,0 -78.03771070000001,35.3201546,0 -78.0374722,35.3210471,0 -78.0371457,35.3223154,0 -78.0368455,35.3234921,0 -78.0367672,35.3238013,0 -78.0366599,35.3242252,0 -78.036083,35.3265035,0 -78.0358018,35.3275309,0 -78.035726,35.3277897,0 -78.03562890000001,35.3281606,0 -78.0356136,35.3282225,0 -78.0354741,35.3287882,0 -78.03522049999999,35.3297218,0 -78.0347963,35.3313636,0 -78.0343345,35.3331549,0 -78.03407679999999,35.3341773,0 -78.0331758,35.3376787,0 -78.03292209999999,35.3386205,0 -78.03279809999999,35.3389862,0 -78.0326523,35.3393447,0 -78.03259559999999,35.3394683,0 -78.0324576,35.3397937,0 -78.03226290000001,35.3401438,0 -78.0321647,35.3403341,0 -78.03199429999999,35.3406292,0 -78.0318482,35.3408444,0 -78.0313702,35.3413997,0 -78.0309427,35.3418106,0 -78.0305927,35.3421663,0 -78.030272,35.3424277,0 -78.0301408,35.3425345,0 -78.0299187,35.34269,0 -78.0296314,35.3428912,0 -78.02932850000001,35.3430922,0 -78.0286273,35.3435489,0 -78.0284137,35.3436758,0 -78.0277241,35.344114,0 -78.02724689999999,35.3444335,0 -78.0267899,35.3447287,0 -78.0244407,35.346161,0 -78.0236762,35.346644,0 -78.0215534,35.347979,0 -78.0206328,35.3486392,0 -78.0200347,35.349075,0 -78.01895709999999,35.3499686,0 -78.01834359999999,35.3504833,0 -78.0182317,35.3505772,0 -78.0168127,35.351759,0 -78.01639040000001,35.352008,0 -78.0158332,35.3522819,0 -78.0151573,35.3525893,0 -78.01465779999999,35.3528131,0 -78.01411659999999,35.3531231,0 -78.0139487,35.3532771,0 -78.0137771,35.3534346,0 -78.01356250000001,35.3536884,0 -78.0127281,35.3548319,0 -78.01237980000001,35.3554245,0 -78.01218919999999,35.3557454,0 -78.0120938,35.3559778,0 -78.0119344,35.3563546,0 -78.0117815,35.3566722,0 -78.01166619999999,35.3570196,0 -78.0115589,35.3574483,0 -78.01118339999999,35.3590058,0 -78.0110052,35.359878,0 -78.01076500000001,35.3610532,0 -78.0107,35.3615624,0 -78.01067639999999,35.362097,0 -78.0107086,35.362482,0 -78.01072600000001,35.3627838,0 -78.0107412,35.3629065,0 -78.0107634,35.3631476,0 -78.01081859999999,35.3635206,0 -78.01084109999999,35.3636771,0 -78.0108816,35.363959,0 -78.0109284,35.364284,0 -78.01096920000001,35.3645677,0 -78.01099550000001,35.3647513,0 -78.01100099999999,35.3647892,0 -78.0110456,35.3650217,0 -78.0111173,35.3653951,0 -78.0111708,35.3656741,0 -78.01135240000001,35.3666204,0 -78.0113786,35.3668304,0 -78.011398,35.3669852,0 -78.0117922,35.3694463,0 -78.01190680000001,35.3702324,0 -78.0120738,35.3712522,0 -78.01224019999999,35.3723282,0 -78.01227969999999,35.3726508,0 -78.0123524,35.3731115,0 -78.01260859999999,35.3745523,0 -78.01266200000001,35.3749098,0 -78.0127616,35.3755127,0 -78.01279479999999,35.3757485,0 -78.012935,35.3766412,0 -78.0130977,35.3775863,0 -78.0131289,35.3778262,0 -78.01321419999999,35.3783707,0 -78.01335469999999,35.3792375,0 -78.0135484,35.380522,0 -78.0136622,35.3811991,0 -78.01374149999999,35.3816907,0 -78.0137847,35.3819865,0 -78.0138063,35.3821177,0 -78.0139734,35.3831967,0 -78.0140091,35.3835194,0 -78.0140336,35.3837735,0 -78.0140191,35.3838851,0 -78.01397830000001,35.3839978,0 -78.01392180000001,35.3840918,0 -78.0138546,35.3841807,0 -78.0137527,35.3842991,0 -78.0132768,35.3848213,0 -78.0125845,35.3855876,0 -78.01223469999999,35.3859739,0 -78.0117405,35.3865262,0 -78.0113418,35.3869267,0 -78.0108455,35.3874065,0 -78.00992890000001,35.3882759,0 -78.0097043,35.3884636,0 -78.0094605,35.3887015,0 -78.0091674,35.3889816,0 -78.008827,35.3893324,0 -78.0086953,35.3894817,0 -78.0084978,35.3897173,0 -78.0082845,35.3899938,0 -78.0081595,35.3901672,0 -78.0079406,35.3905064,0 -78.0074935,35.3912413,0 -78.0067978,35.3923964,0 -78.0065918,35.3927366,0 -78.0065376,35.3928261,0 -78.00633809999999,35.3931261,0 -78.0061291,35.393425,0 -78.0060208,35.3935622,0 -78.0059,35.3937152,0 -78.00573009999999,35.3939086,0 -78.005509,35.3941449,0 -78.0053108,35.3943493,0 -78.0050506,35.394591,0 -78.0047797,35.3948251,0 -78.0043847,35.3951273,0 -78.0035859,35.3957127,0 -78.0030082,35.3961351,0 -78.002686,35.3963681,0 -78.0021211,35.3967893,0 -78.00192,35.3969402,0 -78.0016538,35.3971291,0 -78.0010182,35.3975805,0 -78.0007772,35.3977321,0 -78.0004893,35.3979016,0 -78.0002248,35.3980397,0 -77.9997978,35.3982351,0 -77.9994878,35.3983552,0 -77.9991201,35.3984788,0 -77.9987928,35.3985714,0 -77.99846599999999,35.3986454,0 -77.9981671,35.3987038,0 -77.9978351,35.3987521,0 -77.99737639999999,35.3988015,0 -77.9966235,35.3988759,0 -77.9960176,35.3989349,0 -77.9953148,35.3989987,0 -77.9946142,35.3990753,0 -77.9945056,35.3990878,0 -77.9941432,35.3991217,0 -77.9932189,35.3992427,0 -77.99297079999999,35.3992828,0 -77.992498,35.3994363,0 -77.99222279999999,35.3995604,0 -77.99200039999999,35.3996488,0 -77.9918263,35.3997608,0 -77.9916356,35.3998891,0 -77.9914929,35.4000499,0 -77.9913092,35.4002802,0 -77.9911633,35.4005017,0 -77.9911113,35.4005892,0 -77.9907855,35.4011734,0 -77.9903387,35.4021407,0 -77.9903149,35.4021933,0 -77.9902889,35.4022465,0 -77.9896803,35.4036719,0 -77.98952869999999,35.40397,0 -77.9893313,35.4042973,0 -77.9893112,35.4043284,0 -77.98914259999999,35.404591,0 -77.9887664,35.4050837,0 -77.988586,35.4053011,0 -77.9882982,35.4056201,0 -77.9877577,35.406142,0 -77.98742900000001,35.40644,0 -77.9865441,35.4072922,0 -77.9845414,35.409221,0 -77.9844464,35.4093176,0 -77.98440890000001,35.4093557,0 -77.9843644,35.409401,0 -77.984292,35.4094831,0 -77.98425090000001,35.4095296,0 -77.9841249,35.4096935,0 -77.9839746,35.4098925,0 -77.9838432,35.4100718,0 -77.9835937,35.410474,0 -77.983424,35.4107391,0 -77.9832613,35.4110673,0 -77.98299489999999,35.4116048,0 -77.982966,35.4117869,0 -77.9829179,35.4120909,0 -77.9828728,35.4123754,0 -77.9828389,35.4125892,0 -77.9827815,35.4129518,0 -77.9827294,35.4132805,0 -77.9827003,35.413464,0 -77.9826606,35.4136977,0 -77.9824856,35.4147285,0 -77.9821987,35.4164178,0 -77.98205966336047,35.41735155439348,0 -77.98197062874138,35.4176221837626,0 -77.98183260071598,35.41792596055498,0 -77.98164546872297,35.41832303731619,0 -77.98141192578404,35.41884349491318,0 -77.98130699377819,35.41920614376203,0 
				
					-77.9812977,35.419213,0 -77.9809305,35.4199829,0 -77.98077189999999,35.4203235,0 -77.9807248,35.4204141,0 -77.98054879999999,35.4208464,0 -77.9803373,35.4215456,0 -77.98031279999999,35.4216267,0 -77.98019480000001,35.4221579,0 -77.9801561,35.4225493,0 -77.98008969999999,35.4231888,0 -77.9800747,35.4236176,0 -77.9800764,35.4237774,0 -77.9800788,35.423915,0 -77.98003490000001,35.424067,0 -77.98003490000001,35.4241709,0 -77.9800596,35.4245464,0 -77.9800912,35.4248907,0 -77.9801405,35.425217,0 -77.9802297,35.4256439,0 -77.98032569999999,35.4260027,0 -77.9804601,35.4264776,0 -77.9806274,35.4269906,0 -77.9806754,35.4271292,0 -77.98071210000001,35.4272289,0 -77.9808469,35.4275975,0 -77.98095549999999,35.4276965,0 -77.9810238,35.4279271,0 -77.98109340000001,35.4282032,0 -77.9811225,35.4283641,0 -77.98114579999999,35.4285552,0 -77.9811705,35.4287698,0 -77.9811861,35.4290033,0 -77.9811948,35.4291486,0 -77.9812191,35.4300045,0 -77.98124869999999,35.4310265,0 -77.9812508,35.4317315,0 -77.9812524,35.4322797,0 -77.9812628,35.4333007,0 -77.9812632,35.4333373,0 -77.98132940000001,35.4347746,0 -77.9810209,35.4368059,0 -77.9808273,35.4377882,0 -77.9804786,35.4391195,0 -77.9804405,35.4392587,0 -77.9802232,35.4402594,0 -77.9800793,35.440777,0 -77.97974259999999,35.4419879,0 -77.9796978,35.4420451,0 -77.9794974,35.4428038,0 -77.9786774,35.4456771,0 -77.978427,35.4466182,0 -77.9782463,35.447126,0 -77.97790120000001,35.4483171,0 -77.9775099,35.4498101,0 -77.9775423,35.4505766,0 -77.97755669999999,35.4509159,0 -77.97756219999999,35.4510465,0 -77.9775654,35.4511226,0 -77.97780899999999,35.4521246,0 -77.9779578,35.4527231,0 -77.9779905,35.4528631,0 -77.9780464,35.4531021,0 -77.9781416,35.4534657,0 -77.9782395,35.4538449,0 -77.97824730000001,35.4538751,0 -77.9786728,35.4555821,0 -77.9798775,35.4608254,0 -77.980018,35.4614371,0 -77.9801255,35.4624546,0 -77.9804207,35.4652479,0 -77.9806103,35.4670417,0 -77.9806548,35.4675715,0 -77.9809212,35.4701043,0 -77.9810456,35.47129,0 -77.98158309999999,35.4762917,0 -77.9815912,35.4765386,0 -77.9817561,35.4815576,0 -77.9817661,35.482203,0 -77.9817997,35.4843645,0 -77.98181390000001,35.4852772,0 -77.9818161,35.4854212,0 -77.9818217,35.4857813,0 -77.98182970000001,35.4862979,0 -77.98183349999999,35.4865393,0 -77.98184089999999,35.4870173,0 -77.9818492,35.4875448,0 -77.9818499,35.4875956,0 -77.98185839999999,35.4882166,0 -77.9818628,35.4885376,0 -77.98187679999999,35.4895553,0 -77.9818951,35.4908916,0 -77.9818813,35.4914016,0 -77.98187969999999,35.4914595,0 -77.9818714,35.492003,0 -77.9818278,35.4926875,0 -77.9818209,35.4928102,0 -77.9817652,35.493966,0 -77.98174950000001,35.4943205,0 -77.9817377,35.4945868,0 -77.9817326,35.4947017,0 -77.98171050000001,35.4952012,0 -77.9816797,35.4966166,0 -77.98167599999999,35.4967878,0 -77.9816725,35.4969617,0 -77.98166790000001,35.497158,0 -77.9816478,35.498237,0 -77.9816373,35.4987912,0 -77.981623,35.4993103,0 -77.98162120000001,35.4997029,0 -77.9816115,35.5004379,0 -77.9816115,35.5006023,0 -77.9815818,35.5016845,0 -77.9815674,35.5026298,0 -77.9815629,35.5030755,0 -77.9815574,35.5036259,0 -77.98154769999999,35.5046311,0 -77.9815182,35.5056297,0 -77.98150149999999,35.5067129,0 -77.98149530000001,35.5071173,0 -77.98149119999999,35.5073893,0 -77.98148519999999,35.50778,0 -77.9814791,35.5081851,0 -77.98147729999999,35.5084707,0 -77.9814449,35.5099558,0 -77.98143589999999,35.5103942,0 -77.98140309999999,35.5119912,0 -77.9813929,35.5122475,0 -77.98137370000001,35.5136256,0 -77.9813688,35.5137932,0 -77.9813484,35.5146375,0 -77.9813844,35.515568,0 -77.981489,35.5163132,0 -77.9821128,35.5175478,0 -77.9823529,35.5178851,0 -77.98264880000001,35.5182536,0 -77.983175,35.5188165,0 -77.9835985,35.5192492,0 -77.9841742,35.5199004,0 -77.9845794,35.5204976,0 -77.98476460000001,35.5209393,0 -77.9848835,35.5213777,0 -77.98492659999999,35.5217621,0 -77.98493929999999,35.5218879,0 -77.98491679999999,35.5225527,0 -77.9836284,35.5275247,0 -77.9831961,35.5292042,0 -77.9831456,35.5294002,0 -77.9828603,35.5300727,0 -77.98276180000001,35.530305,0 -77.98233879999999,35.5310168,0 -77.9818794,35.5318388,0 -77.9816036,35.5323094,0 -77.9811313,35.5331208,0 -77.98069649999999,35.5338683,0 -77.980346,35.5345055,0 -77.97986299999999,35.5354434,0 -77.9792526,35.536618,0 -77.9788612,35.5373995,0 -77.9785377,35.5380204,0 -77.9781703,35.5387254,0 -77.9778539,35.5393326,0 -77.9774321,35.5401935,0 -77.9772334,35.5405653,0 -77.9766145,35.5417828,0 -77.97596559999999,35.5430098,0 -77.9753367,35.5442247,0 -77.9747041,35.545423,0 -77.9740235,35.5468169,0 -77.973371,35.5480888,0 -77.973219,35.5484623,0 -77.9730802,35.5489621,0 -77.9730275,35.5493102,0 -77.9730192,35.5494747,0 -77.97301059999999,35.5496458,0 -77.973015,35.54974,0 -77.9730253,35.5499586,0 -77.9730797,35.550281,0 -77.97316960000001,35.5506148,0 -77.9732698,35.5508846,0 -77.9733999,35.5512178,0 -77.9738957,35.5522961,0 -77.97412540000001,35.5528023,0 -77.9742681,35.5531862,0 -77.9744149,35.5535865,0 -77.9745848,35.5540904,0 -77.974796,35.554733,0 -77.9749015,35.5550511,0 -77.97525520000001,35.5560753,0 -77.9755688,35.5570768,0 -77.9756295,35.5573842,0 -77.97566260000001,35.5576399,0 -77.9756543,35.5579988,0 -77.9755385,35.5597576,0 -77.9753455,35.5624629,0 -77.97522410000001,35.5637939,0 -77.9751318,35.5652514,0 -77.9750768,35.5662324,0 -77.9747809,35.5702009,0 -77.97455739999999,35.573383,0 -77.9744288,35.5752136,0 -77.9743359,35.5761628,0 -77.9742775,35.5767587,0 -77.97416560000001,35.5779138,0 -77.9739902,35.5794756,0 -77.9737197,35.582309,0 -77.9736008,35.5835546,0 -77.97340699999999,35.585636,0 -77.973184,35.587855,0 -77.97314,35.588297,0 -77.972998,35.589824,0 -77.972897,35.590807,0 -77.9728495,35.5913219,0 -77.97279899999999,35.591869,0 -77.97265299999999,35.593,0 -77.972487,35.593832,0 -77.972188,35.595018,0 -77.971839,35.596082,0 -77.97166199999999,35.596571,0 -77.971422,35.597127,0 -77.9712696,35.5974659,0 -77.971181,35.597663,0 -77.9711174,35.5977951,0 -77.9710862,35.59786,0 -77.97091399999999,35.598218,0 -77.970471,35.599057,0 -77.97041299999999,35.599166,0 -77.96987,35.600041,0 -77.96982029999999,35.6001115,0 -77.9692208,35.6009622,0 -77.96913499999999,35.601084,0 -77.96892800000001,35.601395,0 -77.968355,35.602201,0 -77.9680243,35.6026717,0 -77.967592,35.603287,0 -77.96744,35.603483,0 -77.96731800000001,35.603659,0 -77.967083,35.603999,0 -77.9669997,35.6041291,0 -77.966041,35.60549,0 -77.96544900000001,35.606318,0 -77.964786,35.607271,0 -77.96461600000001,35.607507,0 -77.96385429999999,35.6085934,0 -77.96357,35.608988,0 -77.962847,35.609902,0 -77.96261699999999,35.610194,0 -77.96239799999999,35.610458,0 -77.962264,35.610608,0 -77.961394,35.611657,0 -77.96065400000001,35.61253,0 -77.959948,35.613379,0 -77.959444,35.613956,0 -77.958876,35.614672,0 -77.958513,35.615113,0 -77.958079,35.615617,0 -77.957291,35.61657,0 -77.9572081,35.616676,0 -77.956926,35.617037,0 -77.9567943,35.6172149,0 -77.95657799999999,35.617507,0 -77.95633100000001,35.617843,0 -77.956176,35.618073,0 -77.955941,35.618437,0 -77.95586,35.618553,0 -77.95564299999999,35.618894,0 -77.95547500000001,35.619167,0 -77.95537299999999,35.61932,0 -77.95522800000001,35.619574,0 -77.955004,35.619982,0 -77.954926,35.620113,0 -77.954832,35.620296,0 -77.954596,35.620729,0 -77.954396,35.621131,0 -77.95434400000001,35.621249,0 -77.954289,35.621359,0 -77.95411900000001,35.621729,0 -77.95383699999999,35.622381,0 -77.95376899999999,35.622545,0 -77.953586,35.623014,0 -77.95351100000001,35.623226,0 -77.953451,35.623377,0 -77.953414,35.623486,0 -77.9533752,35.6236203,0 -77.9532406,35.6240167,0 -77.95315600000001,35.6242597,0 -77.95307990000001,35.6244845,0 -77.95281749999999,35.6252131,0 -77.9527508,35.6254303,0 -77.95257220000001,35.6259328,0 -77.95240769999999,35.6263811,0 -77.952353,35.626536,0 -77.95228,35.626713,0 -77.952065,35.627171,0 -77.95178799999999,35.627711,0 -77.951587,35.628126,0 -77.9515038,35.6282943,0 -77.9514784,35.6283457,0 -77.9514386,35.6284198,0 -77.951218,35.628831,0 -77.951063,35.629148,0 -77.95098400000001,35.629296,0 -77.950744,35.629789,0 -77.95028000000001,35.630814,0 -77.95011,35.631214,0 -77.95004640000001,35.6313742,0 -77.9499814,35.6315056,0 -77.94975700000001,35.631968,0 -77.9496547,35.6321691,0 -77.949547,35.632381,0 -77.949484,35.632504,0 -77.949309,35.632824,0 -77.94922099999999,35.632971,0 -77.948966,35.63337,0 -77.948753,35.633661,0 -77.94855200000001,35.633926,0 -77.947886,35.634725,0 -77.947574,35.635079,0 -77.947203,35.635499,0 -77.947059,35.635669,0 -77.946573,35.636215,0 -77.9462,35.636664,0 -77.946145,35.636744,0 -77.945931,35.637032,0 -77.94564,35.637465,0 -77.94543899999999,35.637818,0 -77.94520799999999,35.638269,0 -77.94510699999999,35.63853,0 -77.94501099999999,35.638752,0 -77.94497200000001,35.638878,0 -77.944912,35.639038,0 -77.944833,35.639307,0 -77.94476,35.639578,0 -77.944671,35.640036,0 -77.944602,35.64048,0 -77.944475,35.641412,0 -77.944288,35.642704,0 -77.9442811,35.6427825,0 -77.944272,35.642885,0 -77.944199,35.64407,0 -77.944186,35.644412,0 -77.944158,35.64468,0 -77.944146,35.644901,0 -77.944152,35.645186,0 -77.944165,35.645454,0 -77.944197,35.645762,0 -77.94420100000001,35.645802,0 -77.94424600000001,35.646145,0 -77.944394,35.647492,0 -77.944428,35.647832,0 -77.944458,35.64802,0 -77.944453,35.648533,0 -77.94443099999999,35.648875,0 -77.944334,35.64947,0 -77.94429599999999,35.649798,0 -77.94422,35.650236,0 -77.94417300000001,35.650548,0 -77.944148,35.650757,0 -77.944131,35.6509,0 -77.94407699999999,35.651198,0 -77.94398700000001,35.651851,0 -77.94392000000001,35.652269,0 -77.94387999999999,35.65249,0 -77.94383999999999,35.652775,0 -77.943803,35.653002,0 -77.9437087,35.6536421,0 -77.943597,35.654393,0 -77.943535,35.654742,0 -77.943523,35.6548264,0 -77.943445,35.655377,0 -77.943386,35.65598,0 -77.94337299999999,35.656191,0 -77.9433741,35.6562906,0 -77.94337659999999,35.6565114,0 -77.943378,35.656633,0 -77.94340200000001,35.657158,0 -77.943448,35.65784,0 -77.9434502,35.6578795,0 -77.94349,35.658594,0 -77.94350900000001,35.659005,0 -77.943586,35.660361,0 -77.943618,35.660771,0 -77.943669,35.661121,0 -77.943676,35.661146,0 -77.943741,35.661407,0 -77.944017,35.662298,0 -77.94416699999999,35.66275,0 -77.94426900000001,35.66312,0 -77.9443194,35.6632858,0 -77.94464600000001,35.664359,0 -77.94487100000001,35.665003,0 -77.94500600000001,35.665369,0 -77.9450415,35.6654607,0 -77.945396,35.666376,0 -77.945893,35.667575,0 -77.946105,35.668038,0 -77.946656,35.669294,0 -77.947254,35.6705846,0 -77.9473971,35.6709073,0 -77.947526,35.6712174,0 -77.947655,35.671505,0 -77.94777000000001,35.671792,0 -77.94791499999999,35.672108,0 -77.948105,35.672693,0 -77.9482012,35.6728994,0 -77.948419,35.673201,0 -77.94849000000001,35.673289,0 -77.94863599999999,35.673447,0 -77.94879349999999,35.673587,0 -77.94898999999999,35.673748,0 -77.949178,35.673873,0 -77.949288,35.673934,0 -77.949474,35.674023,0 -77.949681,35.674103,0 -77.949882,35.674165,0 -77.950076,35.674211,0 -77.9503,35.674249,0 -77.95052699999999,35.674271,0 -77.950756,35.674277,0 -77.951599,35.674247,0 -77.952961,35.674219,0 -77.953203,35.674236,0 -77.953429,35.674265,0 -77.953665,35.674309,0 -77.9551103,35.6747174,0 -77.95530290000001,35.6747737,0 
				</coordinates>
			</LineString>
		<atom:link rel="app" href="https://www.google.com/earth/about/versions/#earth-pro" title="Google Earth Pro 7.3.6.10201"></atom:link>
	</Placemark>
</Document>
</kml>
