<?xml version="1.0" encoding="UTF-8"?>
<kml xmlns="http://www.opengis.net/kml/2.2" xmlns:gx="http://www.google.com/kml/ext/2.2" xmlns:kml="http://www.opengis.net/kml/2.2" xmlns:atom="http://www.w3.org/2005/Atom">
<Document>
	<name>US.197.kml</name>
	<Placemark>
		<name>US.197</name>
		<LineString>
			<coordinates>
				-120.9449193,44.9188795,0 -120.9461107,44.9206552,0 -120.9466478,44.9214495,0 -120.9488418,44.924642,0 -120.9492629,44.9251327,0 -120.9498106,44.9255925,0 -120.9529558,44.9279815,0 -120.9651266,44.9371853,0 -120.966334,44.938111,0 -120.9677171,44.9391588,0 -120.9704556,44.9412184,0 -120.9710738,44.9417378,0 -120.9714759,44.9421445,0 -120.9717103,44.9424813,0 -120.9719737,44.9429248,0 -120.9722677,44.9435158,0 -120.975401,44.9500369,0 -120.9783732,44.9561262,0 -120.9824617,44.9645491,0 -120.9852496,44.9703025,0 -120.9870375,44.9739921,0 -120.9876829,44.9753127,0 -120.991197,44.9826867,0 -120.9947518,44.9899152,0 -120.9948426,44.9901412,0 -120.9949098,44.9903879,0 -120.9949635,44.9907889,0 -120.9949946,44.9913851,0 -120.9951462,44.9933773,0 -120.9955821,44.9997775,0 -120.9958156,45.0030857,0 -120.9958239,45.0037976,0 -120.9957695,45.0041685,0 -120.9956799,45.00452239999999,0 -120.9955114,45.0049205,0 -120.9951987,45.0054215,0 -120.9948647,45.00584609999999,0 -120.9943852,45.0062995,0 -120.9924822,45.007967,0 -120.991839,45.0086129,0 -120.9916378,45.0088208,0 -120.9913972,45.0091575,0 -120.9911964,45.0094881,0 -120.991038,45.009808,0 -120.9909195,45.0101798,0 -120.9908186,45.010604,0 -120.9899571,45.0158107,0 -120.9898595,45.0163029,0 -120.9897136,45.0167441,0 -120.9895832,45.017192,0 -120.9895733,45.01744949999999,0 -120.9896363,45.0177555,0 -120.9897669,45.0181137,0 -120.990485,45.0195883,0 -120.9910785,45.0207868,0 -120.9912572,45.021144,0 -120.9914425,45.02156430000001,0 -120.9917461,45.0224271,0 -120.991983,45.0231705,0 -120.9928797,45.0263002,0 -120.9931299,45.0271734,0 -120.9958175,45.0364324,0 -120.9976,45.042506,0 -120.9976585,45.0427078,0 -120.9978948,45.0435225,0 -120.9982518,45.04479119999999,0 -120.998494,45.0455477,0 -120.9987373,45.0463079,0 -120.9988747,45.0465675,0 -120.9990388,45.0468051,0 -120.9992636,45.0470125,0 -120.9994942,45.04718040000001,0 -120.9997153,45.0473185,0 -121.0000205,45.0474652,0 -121.0004011,45.04759270000001,0 -121.0009029,45.0477134,0 -121.0020756,45.0479511,0 -121.005361,45.0485965,0 -121.0067344,45.0488651,0 -121.0083705,45.0491851,0 -121.0099653,45.0495067,0 -121.0105106,45.0496668,0 -121.0109387,45.0498457,0 -121.0112166,45.0500196,0 -121.0115178,45.050247,0 -121.0117742,45.0505428,0 -121.0121586,45.05098529999999,0 -121.0124879,45.0513387,0 -121.0128353,45.05165359999999,0 -121.013254,45.0519643,0 -121.0139682,45.052419,0 -121.0143638,45.0526798,0 -121.0147791,45.0529558,0 -121.0155118,45.05344099999999,0 -121.0159547,45.0537232,0 -121.0182716,45.0549761,0 -121.0201545,45.055997,0 -121.0222667,45.05715120000001,0 -121.0240574,45.0581162,0 -121.0245517,45.058432,0 -121.0250106,45.0587987,0 -121.0254891,45.0592477,0 -121.0258891,45.0596677,0 -121.0260645,45.0598648,0 -121.0262002,45.06002089999999,0 -121.0263212,45.060213,0 -121.0264083,45.0604203,0 -121.0264389,45.0606677,0 -121.0264035,45.0609542,0 -121.0263247,45.0612399,0 -121.026017,45.0625145,0 -121.0257622,45.06351289999999,0 -121.0255876,45.06393390000001,0 -121.0253856,45.0642245,0 -121.0251555,45.0644632,0 -121.0247542,45.0648393,0 -121.0242484,45.06526650000001,0 -121.0239984,45.06551120000001,0 -121.0237833,45.065771,0 -121.0235971,45.0661023,0 -121.0234466,45.0665092,0 -121.0233174,45.0671311,0 -121.0231937,45.0677677,0 -121.0230642,45.06873,0 -121.0228976,45.06988570000001,0 -121.0228678,45.07035150000001,0 -121.0229132,45.0708082,0 -121.0231618,45.0725094,0 -121.0234936,45.0748614,0 -121.0236277,45.0755631,0 -121.0236867,45.07587170000001,0 -121.0239461,45.0768648,0 -121.024894,45.0799956,0 -121.0262452,45.0843467,0 -121.0270601,45.086964,0 -121.0280142,45.09007759999999,0 -121.0283559,45.0909867,0 -121.0290015,45.0924232,0 -121.029245,45.0928447,0 -121.029579,45.0932792,0 -121.0300433,45.09377079999999,0 -121.0319369,45.0955853,0 -121.0324404,45.0960174,0 -121.0332702,45.09659389999999,0 -121.0345797,45.0974872,0 -121.0348273,45.0976981,0 -121.0349882,45.0978737,0 -121.0351212,45.098084,0 -121.0352119,45.098298,0 -121.0359511,45.1004679,0 -121.0360372,45.1007029,0 -121.0366801,45.10254160000001,0 -121.037329,45.104393,0 -121.037748,45.105627,0 -121.0381827,45.1068333,0 -121.0383093,45.107144,0 -121.0384252,45.1073124,0 -121.0385507,45.1074323,0 -121.0387191,45.1075281,0 -121.0389675,45.10764180000001,0 -121.0392424,45.107759,0 -121.0402239,45.1081535,0 -121.0404543,45.108279,0 -121.0406836,45.1084522,0 -121.0408823,45.1086457,0 -121.0416081,45.1095945,0 -121.0417677,45.1098137,0 -121.0418917,45.1100666,0 -121.0419697,45.1103303,0 -121.0419888,45.110555,0 -121.0419405,45.1108143,0 -121.0417795,45.1112856,0 -121.0415671,45.1119171,0 -121.0414295,45.11227280000001,0 -121.0409414,45.1132819,0 -121.0406157,45.1139173,0 -121.0402628,45.1146406,0 -121.0401957,45.11485100000001,0 -121.0402327,45.1150547,0 -121.0403094,45.115204,0 -121.0404698,45.1153466,0 -121.0407182,45.1154696,0 -121.041095,45.11557100000001,0 -121.0422878,45.1158237,0 -121.0426676,45.115901,0 -121.0429281,45.115978,0 -121.0431582,45.116097,0 -121.0433889,45.1162589,0 -121.0435595,45.11644820000001,0 -121.043667,45.1166562,0 -121.0437287,45.1168842,0 -121.0439803,45.11771209999999,0 -121.0440884,45.1180013,0 -121.0441989,45.118202,0 -121.0443765,45.11840300000001,0 -121.0446302,45.118621,0 -121.0449263,45.1188067,0 -121.0462124,45.1195351,0 -121.046456,45.1197153,0 -121.0465853,45.11988070000001,0 -121.0466652,45.1200607,0 -121.0466928,45.1202538,0 -121.0467349,45.1211666,0 -121.046812,45.123024,0 -121.0468688,45.1246218,0 -121.046924,45.1261422,0 -121.0469433,45.1265774,0 -121.0469793,45.1268467,0 -121.0470756,45.1271421,0 -121.0472368,45.1274703,0 -121.0478939,45.1286398,0 -121.0492646,45.13105089999999,0 -121.049783,45.132049,0 -121.051809,45.13561840000001,0 -121.0520166,45.1359904,0 -121.0521386,45.1362814,0 -121.0521907,45.13653009999999,0 -121.0522057,45.13675689999999,0 -121.0521432,45.1369847,0 -121.0520346,45.1372574,0 -121.0516784,45.1380112,0 -121.0515421,45.13839130000001,0 -121.0514383,45.13881,0 -121.0513691,45.1392374,0 -121.0513262,45.1399911,0 -121.0512503,45.1418087,0 -121.0512591,45.1421672,0 -121.0512892,45.1423462,0 -121.0513651,45.14252860000001,0 -121.0514981,45.1426962,0 -121.0516749,45.1428277,0 -121.0519037,45.1429851,0 -121.052774,45.1435345,0 -121.052932,45.1436722,0 -121.0530216,45.14377890000001,0 -121.053123,45.143935,0 -121.0532069,45.1441136,0 -121.0532745,45.1443688,0 -121.0535594,45.1456233,0 -121.0536728,45.1458667,0 -121.0537697,45.1459814,0 -121.0538552,45.1460794,0 -121.0539872,45.1461609,0 -121.0541505,45.1462439,0 -121.0543547,45.1463109,0 -121.0546545,45.1463476,0 -121.0550931,45.14636540000001,0 -121.0563781,45.1463663,0 -121.0567239,45.14636540000001,0 -121.0570347,45.1464197,0 -121.0573067,45.146516,0 -121.0575454,45.14661949999999,0 -121.0577831,45.1467863,0 -121.0579984,45.1470154,0 -121.0583968,45.1475352,0 -121.0588375,45.1481078,0 -121.0592079,45.1485204,0 -121.0594817,45.1487834,0 -121.0598843,45.1490632,0 -121.0610466,45.1497215,0 -121.061714,45.1501304,0 -121.0619279,45.150294,0 -121.062123,45.150451,0 -121.0622892,45.15064270000001,0 -121.0624554,45.1508639,0 -121.062689,45.1512884,0 -121.0628045,45.1515071,0 -121.062962,45.15175859999999,0 -121.0630971,45.1519279,0 -121.0632978,45.1521438,0 -121.0638066,45.1526711,0 -121.0652407,45.15418869999999,0 -121.0667223,45.1557909,0 -121.0673534,45.1564688,0 -121.0702141,45.1592278,0 -121.070822,45.1598343,0 -121.0709965,45.1600519,0 -121.0711617,45.160276,0 -121.0714062,45.1606815,0 -121.0717749,45.1614419,0 -121.0721623,45.16226810000001,0 -121.0723904,45.16276340000001,0 -121.0725484,45.1631598,0 -121.0726068,45.16335489999999,0 -121.0726371,45.1635369,0 -121.0726414,45.1638834,0 -121.0725787,45.1641765,0 -121.0724738,45.1645493,0 -121.0720731,45.1656543,0 -121.0720189,45.16583019999999,0 -121.0720151,45.16592679999999,0 -121.0720353,45.1660125,0 -121.0720861,45.1661097,0 -121.0721559,45.1661972,0 -121.0722898,45.16630080000001,0 -121.0724674,45.16637990000001,0 -121.0726258,45.1664052,0 -121.0727463,45.16641099999999,0 -121.0728823,45.1664107,0 -121.0730588,45.1663913,0 -121.0732698,45.1663599,0 -121.0734898,45.1663155,0 -121.0736737,45.166276,0 -121.0738786,45.1662329,0 -121.0740766,45.1661897,0 -121.0742915,45.1661464,0 -121.0744258,45.1661308,0 -121.0745567,45.1661359,0 -121.0746661,45.1661601,0 -121.0747618,45.1662049,0 -121.0748387,45.16625789999999,0 -121.0748899,45.1663243,0 -121.0749405,45.1664109,0 -121.0749865,45.1666024,0 -121.074984,45.16680989999999,0 -121.0749859,45.1671032,0 -121.0750538,45.1673975,0 -121.0752327,45.1680126,0 -121.075421,45.16860070000001,0 -121.0755441,45.1688447,0 -121.0756694,45.1689859,0 -121.0758113,45.1690714,0 -121.0759665,45.16913280000001,0 -121.0762267,45.1691915,0 -121.0764791,45.1691864,0 -121.0767586,45.1691319,0 -121.0770625,45.169017,0 -121.0773986,45.1688125,0 -121.0785161,45.1681109,0 -121.0787454,45.16797699999999,0 -121.0790424,45.1678276,0 -121.0793978,45.1676733,0 -121.0800944,45.1673996,0 -121.0803831,45.1672898,0 -121.0806035,45.1671901,0 -121.08075,45.1671124,0 -121.0808671,45.1670405,0 -121.0810015,45.1669469,0 -121.0813742,45.16664939999999,0 -121.0814878,45.16656949999999,0 -121.0816193,45.16650849999999,0 -121.081783,45.1664606,0 -121.0819288,45.1664333,0 -121.0821107,45.166426,0 -121.0822596,45.166437,0 -121.0824532,45.16646209999999,0 -121.082724,45.1665093,0 -121.0829966,45.1665464,0 -121.0832491,45.1665804,0 -121.0835222,45.16659649999999,0 -121.0837259,45.1666,0 -121.0839263,45.16658819999999,0 -121.0841401,45.166559,0 -121.0844016,45.16651330000001,0 -121.0846542,45.1664472,0 -121.0849481,45.1663512,0 -121.0851816,45.1662505,0 -121.0855941,45.1659744,0 -121.08674,45.1650678,0 -121.0868964,45.1649846,0 -121.0870794,45.1649398,0 -121.0872432,45.1649482,0 -121.0873524,45.16498769999999,0 -121.0874262,45.1650439,0 -121.087472,45.1651084,0 -121.0874911,45.1651989,0 -121.0874705,45.165279,0 -121.0874368,45.1653524,0 -121.0861225,45.1666889,0 -121.0858922,45.166897,0 -121.0857098,45.16702369999999,0 -121.0855205,45.1671264,0 -121.085303,45.16722170000001,0 -121.0850946,45.16731060000001,0 -121.0847171,45.1674661,0 -121.0842538,45.16764950000001,0 -121.0837006,45.1678698,0 -121.0828717,45.1681876,0 -121.0826838,45.16825170000001,0 -121.0823801,45.1683238,0 -121.082106,45.1683719,0 -121.0818296,45.1684184,0 -121.08156,45.16846689999999,0 -121.0814075,45.16851389999999,0 -121.0812896,45.1685665,0 -121.0811497,45.1686544,0 -121.0810337,45.16874779999999,0 -121.0809129,45.1688704,0 -121.0807916,45.1690227,0 -121.0806566,45.1692242,0 -121.0798887,45.17036969999999,0 -121.0798685,45.1703885,0 -121.0796449,45.17055020000001,0 -121.0793499,45.1706837,0 -121.0779704,45.1710649,0 -121.077629,45.17116790000001,0 -121.0774161,45.1712653,0 -121.0773057,45.171352,0 -121.0770818,45.1715185,0 -121.0769061,45.1717457,0 -121.0768113,45.1719044,0 -121.0767415,45.1721464,0 -121.0764979,45.1734652,0 -121.076458,45.1736219,0 -121.0763797,45.1740438,0 -121.0762975,45.17453260000001,0 -121.0761489,45.1755198,0 -121.0759943,45.1765221,0 -121.075988,45.1765631,0 -121.075984,45.1768558,0 -121.076058,45.17703579999999,0 -121.0761946,45.1771725,0 -121.0762328,45.177201,0 -121.076338,45.1772795,0 -121.0766779,45.1774343,0 -121.0771494,45.1776066,0 -121.0775228,45.1777309,0 -121.0776531,45.17777430000001,0 -121.0777571,45.17779030000001,0 -121.0778557,45.177788,0 -121.0779455,45.1777731,0 -121.0780279,45.1777487,0 -121.0780898,45.1777166,0 -121.078128,45.17766990000001,0 -121.0781369,45.177649,0 -121.078148,45.1776228,0 -121.0781608,45.1775756,0 -121.0781579,45.17752490000001,0 -121.0781482,45.1774713,0 -121.078122,45.1774203,0 -121.0780356,45.1773385,0 -121.0776349,45.1770791,0 -121.0775494,45.1769465,0 -121.0775536,45.176844,0 -121.077576,45.176767,0 -121.0776271,45.1766964,0 -121.0777851,45.1765941,0 -121.0783672,45.1763403,0 -121.0795732,45.1758134,0 -121.080749,45.1753062,0 -121.0812482,45.1750931,0 -121.081954,45.1747919,0 -121.0834644,45.1741499,0 -121.0837141,45.1740326,0 -121.0838869,45.1738963,0 -121.0841608,45.1734946,0 -121.0842428,45.1734359,0 -121.0843506,45.1733986,0 -121.0844866,45.1733856,0 -121.0846534,45.17340810000001,0 -121.0847666,45.1734623,0 -121.084849,45.1735419,0 -121.0848567,45.1736531,0 -121.0848039,45.1737896,0 -121.0845955,45.1741198,0 -121.0844625,45.1743684,0 -121.0844026,45.1745972,0 -121.0843399,45.1749816,0 -121.0842814,45.17521359999999,0 -121.0841669,45.17540619999999,0 -121.0838144,45.1758983,0 -121.0837525,45.1760904,0 -121.0837632,45.1762449,0 -121.0838488,45.1763882,0 -121.0839931,45.17651409999999,0 -121.0841693,45.1766052,0 -121.0844244,45.1766663,0 -121.0847261,45.1766546,0 -121.0850362,45.1765602,0 -121.0853551,45.1764126,0 -121.085722,45.1761503,0 -121.0860517,45.1758529,0 -121.0861576,45.1757765,0 -121.0863183,45.1756984,0 -121.0865389,45.1756013,0 -121.0870367,45.17546250000001,0 -121.0875799,45.1753125,0 -121.0879829,45.1751739,0 -121.0880207,45.1751539,0 -121.0882398,45.1750408,0 -121.0884522,45.1748984,0 -121.0886317,45.1747801,0 -121.0888173,45.1746225,0 -121.0897974,45.173808,0 -121.0904688,45.1732736,0 -121.0910737,45.1727667,0 -121.0912903,45.17258519999999,0 -121.0918848,45.1721076,0 -121.0926121,45.17152340000001,0 -121.0930544,45.17118119999999,0 -121.0937794,45.1706162,0 -121.094496,45.170023,0 -121.0948268,45.16980050000001,0 -121.0951666,45.1696123,0 -121.0956734,45.1694047,0 -121.0962772,45.1692143,0 -121.0966987,45.1691336,0 -121.0972239,45.16906060000001,0 -121.0976882,45.16904130000001,0 -121.0981227,45.1690595,0 -121.0986033,45.1691134,0 -121.0990234,45.1691951,0 -121.0993603,45.1693233,0 -121.0997588,45.1695177,0 -121.1000418,45.1696026,0 -121.1003076,45.16961970000001,0 -121.1005034,45.1696103,0 -121.1007263,45.1695464,0 -121.1011498,45.1693483,0 -121.1019486,45.1689067,0 -121.1025446,45.168583,0 -121.1030443,45.1683615,0 -121.1034774,45.1682205,0 -121.1039645,45.16811849999999,0 -121.1044952,45.168092,0 -121.1047424,45.16809690000001,0 -121.1049961,45.16811609999999,0 -121.1053303,45.1681752,0 -121.1056504,45.1682538,0 -121.1063201,45.1684778,0 -121.1068334,45.1686149,0 -121.1072481,45.16866640000001,0 -121.1077953,45.168659,0 -121.1086131,45.1685591,0 -121.1097071,45.1683725,0 -121.1100615,45.1682585,0 -121.1104189,45.1680838,0 -121.1110592,45.1677395,0 -121.1114747,45.1675871,0 -121.1124012,45.167305,0 -121.1129408,45.16717109999999,0 -121.1136022,45.16708380000001,0 -121.1141795,45.1670671,0 -121.1148707,45.1670783,0 -121.1157046,45.16713610000001,0 -121.1163848,45.1672348,0 -121.1170194,45.16740089999999,0 -121.1176336,45.1676439,0 -121.1182422,45.16794969999999,0 -121.1187668,45.1683473,0 -121.119218,45.168762,0 -121.1211446,45.17092980000001,0 -121.1219386,45.1718267,0 -121.1222548,45.1722372,0 -121.1228138,45.1728637,0 -121.1231796,45.17332389999999,0 -121.1233687,45.1737342,0 -121.1234881,45.1741807,0 -121.1235004,45.1746954,0 -121.1234886,45.1771974,0 -121.1234846,45.18938300000001,0 -121.1234961,45.1910025,0 -121.1234999,45.1974277,0 -121.1235045,45.2008344,0 -121.123439,45.20948009999999,0 -121.1234269,45.2105813,0 -121.1233908,45.2152968,0 -121.1233553,45.2189724,0 -121.1233499,45.2208895,0 -121.1233484,45.2220527,0 -121.1233574,45.2224347,0 -121.1233878,45.22276029999999,0 -121.123431,45.22304179999999,0 -121.1235212,45.22342800000001,0 -121.1236268,45.2237209,0 -121.1237828,45.2240283,0 -121.1239859,45.2243515,0 -121.1241791,45.2246098,0 -121.1243973,45.2248667,0 -121.1247508,45.2252049,0 -121.1250615,45.2254618,0 -121.1252838,45.22562569999999,0 -121.1254799,45.2257622,0 -121.1257057,45.2258901,0 -121.1260647,45.22608530000001,0 -121.1265876,45.22634979999999,0 -121.1276589,45.2268782,0 -121.1289043,45.22746550000001,0 -121.1305415,45.2282191,0 -121.131175,45.2284807,0 -121.1316347,45.22864560000001,0 -121.1320084,45.2287545,0 -121.1323211,45.2288366,0 -121.1335785,45.22909799999999,0 -121.134337,45.2292703,0 -121.13474,45.2293985,0 -121.1351249,45.2295498,0 -121.1354658,45.2297178,0 -121.1358276,45.229959,0 -121.1361022,45.2301982,0 -121.1363372,45.2304519,0 -121.1365429,45.2307304,0 -121.1366862,45.2309967,0 -121.1367854,45.2312757,0 -121.1368482,45.2315565,0 -121.1368814,45.2318965,0 -121.1369115,45.2324266,0 -121.1369565,45.2329301,0 -121.1370262,45.2332601,0 -121.1371234,45.2335203,0 -121.1372481,45.23378289999999,0 -121.1374187,45.2340304,0 -121.137626,45.23426799999999,0 -121.1378738,45.2344897,0 -121.138152,45.2346862,0 -121.1384055,45.2348425,0 -121.1387109,45.2349926,0 -121.1391996,45.2351743,0 -121.1397145,45.2353167,0 -121.1400389,45.2353681,0 -121.1405507,45.2354425,0 -121.1414391,45.2355357,0 -121.1419734,45.23562390000001,0 -121.1423108,45.23569430000001,0 -121.1426812,45.235794,0 -121.1429518,45.23588509999999,0 -121.1432345,45.236004,0 -121.1434856,45.2361288,0 -121.1437283,45.2362592,0 -121.144122,45.2365331,0 -121.1450111,45.2372528,0 -121.1455825,45.237679,0 -121.1462163,45.2380945,0 -121.1467543,45.23838780000001,0 -121.1468347,45.2384274,0 -121.1470919,45.2385672,0 -121.1477956,45.2389265,0 -121.1490182,45.23955509999999,0 -121.1502424,45.2401793,0 -121.1517258,45.2409471,0 -121.1521932,45.2411662,0 -121.1537187,45.24192579999999,0 -121.1745604,45.2524854,0 -121.1760376,45.2532511,0 -121.1770614,45.2536652,0 -121.1775472,45.2538021,0 -121.1782869,45.2539399,0 -121.1796551,45.25412459999999,0 -121.1816083,45.2543009,0 -121.1836396,45.2545608,0 -121.1843522,45.2547092,0 -121.1851035,45.2549631,0 -121.1857636,45.25525689999999,0 -121.1862169,45.2555211,0 -121.1866021,45.2557939,0 -121.1870014,45.25614569999999,0 -121.1873305,45.256491,0 -121.1891024,45.2584735,0 -121.1895528,45.258956,0 -121.1901558,45.2596735,0 -121.190393,45.260035,0 -121.1906831,45.2606019,0 -121.1908017,45.26090849999999,0 -121.1909842,45.2615541,0 -121.1910285,45.2620453,0 -121.1909856,45.2626334,0 -121.1908815,45.2632685,0 -121.1906962,45.2641782,0 -121.1903543,45.26589990000001,0 -121.1901158,45.267101,0 -121.1898797,45.2681128,0 -121.189756,45.268744,0 -121.189593,45.2694825,0 -121.1894661,45.2703189,0 -121.1893324,45.2713524,0 -121.1892888,45.2721164,0 -121.189273,45.2731725,0 -121.189269,45.2742841,0 -121.1892912,45.2751588,0 -121.1892859,45.2766429,0 -121.1892698,45.27758530000001,0 -121.1892596,45.27829659999999,0 -121.1891078,45.278864,0 -121.1888983,45.27941770000001,0 -121.1885544,45.2799665,0 -121.1880585,45.28063820000001,0 -121.1867925,45.28239060000001,0 -121.1849941,45.2848541,0 -121.1838431,45.2864046,0 -121.1833118,45.2870549,0 -121.182778,45.2875881,0 -121.1823116,45.2879893,0 -121.1812443,45.2889028,0 -121.1806073,45.2894144,0 -121.1799574,45.2900264,0 -121.179491,45.29053199999999,0 -121.1779838,45.29240179999999,0 -121.1774383,45.29298300000001,0 -121.1768501,45.29346449999999,0 -121.1761836,45.2938734,0 -121.1754988,45.2942285,0 -121.1746998,45.2945708,0 -121.1735652,45.2950353,0 -121.172415,45.2955693,0 -121.1706456,45.2964967,0 -121.1700563,45.2967957,0 -121.1694324,45.2970083,0 -121.167464,45.297635,0 -121.1637319,45.29886,0 -121.1611927,45.2997037,0 -121.160414,45.2999652,0 -121.1598194,45.30011760000001,0 -121.1592323,45.30021540000001,0 -121.1581148,45.30038930000001,0 -121.1564336,45.300667,0 -121.1557969,45.30077130000001,0 -121.1551084,45.3009044,0 -121.1541945,45.3011404,0 -121.1534325,45.3014273,0 -121.1525007,45.3018724,0 -121.1511073,45.30254360000001,0 -121.1504866,45.3029002,0 -121.1500618,45.3031875,0 -121.1496181,45.3035497,0 -121.149208,45.3039691,0 -121.1487413,45.3045352,0 -121.148415,45.30498999999999,0 -121.1480273,45.30554529999999,0 -121.1478246,45.3058846,0 -121.1476325,45.3063115,0 -121.1474885,45.3068182,0 -121.1474439,45.30729079999999,0 -121.1475,45.3078126,0 -121.1476199,45.3086084,0 -121.1476788,45.3091969,0 -121.147702,45.3098689,0 -121.1476089,45.3104566,0 -121.1474262,45.3109424,0 -121.1469405,45.3122258,0 -121.1467501,45.3128294,0 -121.1466814,45.313409,0 -121.1467058,45.3139494,0 -121.1468565,45.3145456,0 -121.1470864,45.3152435,0 -121.1475284,45.3165347,0 -121.1479163,45.3174072,0 -121.1484554,45.3181036,0 -121.1496782,45.31949950000001,0 -121.1500747,45.32002450000001,0 -121.1503267,45.3204509,0 -121.1505456,45.3209538,0 -121.1507058,45.32146000000001,0 -121.1507946,45.3218478,0 -121.1508411,45.3222169,0 -121.1508645,45.3226182,0 -121.1508465,45.32302120000001,0 -121.1507673,45.3236132,0 -121.1505878,45.32419829999999,0 -121.1504218,45.3246075,0 -121.150235,45.3249823,0 -121.1501144,45.3251663,0 -121.1497461,45.32572859999999,0 -121.1471986,45.32958469999999,0 -121.1431366,45.3357079,0 -121.1427681,45.3363282,0 -121.1425607,45.3368604,0 -121.1423968,45.3374383,0 -121.1423113,45.3379161,0 -121.142252,45.3386598,0 -121.142163,45.343321,0 -121.1420984,45.34619500000001,0 -121.1421168,45.3565073,0 -121.1421112,45.3569291,0 -121.1420935,45.3808633,0 -121.1421001,45.3894658,0 -121.1420964,45.3928577,0 -121.1420227,45.393831,0 -121.1419304,45.39477,0 -121.1417952,45.3956158,0 -121.1416396,45.39648460000001,0 -121.1403184,45.4020322,0 -121.1400652,45.403145,0 -121.1398777,45.404218,0 -121.1397479,45.4054062,0 -121.1394539,45.41019849999999,0 -121.1392921,45.41272230000001,0 -121.1392487,45.4137339,0 -121.1393329,45.4144539,0 -121.139462,45.4150197,0 -121.1397636,45.4160973,0 -121.1399992,45.416795,0 -121.1400861,45.4172312,0 -121.1401553,45.4176571,0 -121.1401746,45.4180756,0 -121.1401465,45.41853590000001,0 -121.1400923,45.4190196,0 -121.1399719,45.4195321,0 -121.1397964,45.4200315,0 -121.1391919,45.42158790000001,0 -121.1371102,45.4268763,0 -121.1359416,45.4298478,0 -121.1348883,45.4325217,0 -121.133802,45.43527600000001,0 -121.1332878,45.43659290000001,0 -121.1331049,45.4370785,0 -121.132802,45.437746,0 -121.1325783,45.438343,0 -121.1322701,45.4390579,0 -121.1321162,45.4393496,0 -121.1319278,45.4396789,0 -121.131674,45.4400271,0 -121.1314627,45.4402823,0 -121.131246,45.440536,0 -121.1310876,45.4407023,0 -121.1307284,45.4410425,0 -121.1304934,45.4412433,0 -121.1300482,45.4415869,0 -121.1295409,45.4419302,0 -121.1291153,45.4421846,0 -121.1287373,45.4423867,0 -121.1282028,45.44264039999999,0 -121.1275167,45.4429313,0 -121.127237,45.443038,0 -121.1261825,45.443442,0 -121.1249155,45.4439147,0 -121.123003,45.4446533,0 -121.1219247,45.44507,0 -121.1214132,45.4453067,0 -121.1210566,45.4454935,0 -121.1207282,45.44569120000001,0 -121.1204448,45.4459032,0 -121.1202023,45.4460909,0 -121.1198891,45.4464109,0 -121.1196891,45.44669799999999,0 -121.1195382,45.4468959,0 -121.1193926,45.44719529999999,0 -121.1192649,45.4474527,0 -121.1191863,45.44768080000001,0 -121.1191241,45.4479881,0 -121.1190772,45.4482506,0 -121.1190451,45.4485763,0 -121.1190604,45.4488606,0 -121.119148,45.4493461,0 -121.1193382,45.44991199999999,0 -121.119675,45.4505786,0 -121.1199922,45.4511392,0 -121.120396,45.4518716,0 -121.1204961,45.4520525,0 -121.1207651,45.4525228,0 -121.1210526,45.4530769,0 -121.121319,45.4535951,0 -121.1218031,45.4545391,0 -121.1224484,45.45573400000001,0 -121.1234256,45.4576047,0 -121.1239017,45.4584816,0 -121.1241465,45.4591406,0 -121.1242867,45.4596545,0 -121.1243782,45.4601841,0 -121.1244017,45.46047999999999,0 -121.1244022,45.46111860000001,0 -121.124366,45.4614631,0 -121.1242884,45.4618249,0 -121.1241862,45.46221940000001,0 -121.1240245,45.4626184,0 -121.1238255,45.4630477,0 -121.1235903,45.4634907,0 -121.123078,45.4643446,0 -121.1227421,45.46496820000001,0 -121.12249,45.4656159,0 -121.1223473,45.4661452,0 -121.1221553,45.4669746,0 -121.1220059,45.4677884,0 -121.1217277,45.46914360000001,0 -121.121553,45.46967000000001,0 -121.1212007,45.4703922,0 -121.120834,45.4709629,0 -121.1204824,45.4714074,0 -121.1194669,45.472693,0 -121.1187652,45.4735482,0 -121.1184289,45.4740115,0 -121.1181322,45.47455729999999,0 -121.1179209,45.4750804,0 -121.117713,45.4759164,0 -121.1175743,45.476551,0 -121.1173233,45.4776939,0 -121.1166667,45.4808316,0 -121.1164717,45.48169129999999,0 -121.116355,45.48233050000001,0 -121.1162171,45.48280460000001,0 -121.1160189,45.4832218,0 -121.1157295,45.48362319999999,0 -121.1154728,45.4839374,0 -121.1151048,45.4842815,0 -121.114772,45.4845459,0 -121.1143364,45.4848329,0 -121.1139643,45.485017,0 -121.1135038,45.48523590000001,0 -121.1131447,45.485376,0 -121.1128786,45.4854638,0 -121.1089899,45.4870029,0 -121.0987527,45.490956,0 -121.0975981,45.49140049999999,0 -121.0968559,45.4916688,0 -121.0959008,45.4920481,0 -121.0951854,45.49236,0 -121.0944379,45.4927308,0 -121.093903,45.4930779,0 -121.0934213,45.493396,0 -121.0930887,45.49369370000001,0 -121.0927384,45.4940473,0 -121.0922878,45.4945927,0 -121.0919842,45.495037,0 -121.0917074,45.4954896,0 -121.0915478,45.4957607,0 -121.0914215,45.4960957,0 -121.0912082,45.49679789999999,0 -121.0909741,45.4977344,0 -121.0908225,45.4982339,0 -121.0906407,45.4988995,0 -121.0903392,45.5001452,0 -121.090208,45.5006605,0 -121.0900645,45.5010932,0 -121.0898845,45.5015482,0 -121.0897183,45.5019131,0 -121.0895039,45.5022618,0 -121.0892864,45.502594,0 -121.0881545,45.50399710000001,0 -121.0874099,45.5048774,0 -121.0870902,45.5052865,0 -121.0868612,45.5056589,0 -121.0866691,45.5060313,0 -121.0865527,45.5063576,0 -121.0864765,45.506735,0 -121.0864527,45.5071862,0 -121.0864659,45.507486,0 -121.0865187,45.50775780000001,0 -121.086602,45.5080569,0 -121.0867804,45.5084997,0 -121.0869966,45.5088432,0 -121.0872844,45.5091896,0 -121.0875352,45.5094715,0 -121.088669,45.51060440000001,0 -121.089014,45.51094799999999,0 -121.0893908,45.51140849999999,0 -121.0897148,45.5119122,0 -121.0899892,45.51249849999999,0 -121.0902255,45.51315009999999,0 -121.0903754,45.5137974,0 -121.0906578,45.514986,0 -121.0910484,45.5167151,0 -121.091264,45.51739360000001,0 -121.0914192,45.5176901,0 -121.0914955,45.5178358,0 -121.0917846,45.5182399,0 -121.0921033,45.5185753,0 -121.092552,45.5189741,0 -121.0931343,45.5193985,0 -121.0941136,45.5200563,0 -121.0948367,45.5205721,0 -121.0953115,45.5209369,0 -121.0956489,45.5213007,0 -121.0959911,45.5217211,0 -121.0961923,45.5220863,0 -121.0962868,45.5222729,0 -121.096357,45.5224468,0 -121.0964343,45.5226713,0 -121.096486,45.522881,0 -121.0965238,45.5231071,0 -121.0965402,45.5233704,0 -121.0965376,45.5235498,0 -121.0965192,45.52373250000001,0 -121.0964723,45.5240159,0 -121.0964075,45.5242855,0 -121.0963256,45.52451520000001,0 -121.0962278,45.52474219999999,0 -121.0961129,45.52496099999999,0 -121.0958578,45.52535279999999,0 -121.0953785,45.52602290000001,0 -121.0947743,45.5267957,0 -121.0938911,45.52790839999999,0 -121.092739,45.52934739999999,0 -121.0924708,45.5297048,0 -121.0899712,45.5328806,0 -121.0894471,45.53359210000001,0 -121.0890517,45.5342333,0 -121.0887382,45.5348482,0 -121.0883879,45.5357347,0 -121.0882087,45.536396,0 -121.0880896,45.53714699999999,0 -121.0880507,45.538116,0 -121.0881068,45.53910119999999,0 -121.0882382,45.53979739999999,0 -121.0885013,45.5406413,0 -121.0888524,45.5414542,0 -121.0892864,45.54218479999999,0 -121.0898194,45.5429073,0 -121.0902796,45.5434801,0 -121.0907372,45.5440201,0 -121.0913909,45.5446151,0 -121.0919678,45.54508,0 -121.0928205,45.54575470000001,0 -121.0936818,45.54642440000001,0 -121.0991736,45.5507809,0 -121.0995748,45.55113359999999,0 -121.0998358,45.55144070000001,0 -121.1001185,45.5517621,0 -121.100279,45.552001,0 -121.1004621,45.5523286,0 -121.1005879,45.55265499999999,0 -121.1006941,45.5530372,0 -121.1007427,45.5533858,0 -121.1007459,45.55382589999999,0 -121.1006947,45.55422839999999,0 -121.1005903,45.55460529999999,0 -121.1001209,45.55577149999999,0 -121.0999554,45.55613600000001,0 -121.0998396,45.5564254,0 -121.099761,45.55687,0 -121.09985,45.5576334,0 -121.0999428,45.5579243,0 -121.1000185,45.5581576,0 -121.1001566,45.558449,0 -121.1003183,45.5587202,0 -121.100494,45.5589516,0 -121.1007352,45.5592057,0 -121.1009886,45.5594359,0 -121.1012968,45.5596739,0 -121.1016409,45.5598938,0 -121.1024013,45.5603233,0 -121.1028487,45.5605723,0 -121.1030979,45.5607364,0 -121.1033623,45.56095899999999,0 -121.1035563,45.561183,0 -121.1037194,45.5614114,0 -121.1037822,45.5615156,0 -121.103894,45.5618076,0 -121.1039162,45.5621009,0 -121.1039038,45.56233149999999,0 -121.1038527,45.5625886,0 -121.1037438,45.5628213,0 -121.1035771,45.56311370000001,0 -121.1028796,45.5639288,0 -121.1025309,45.56436900000001,0 -121.1022798,45.56472070000001,0 -121.1021707,45.5650086,0 -121.1021481,45.565291,0 -121.1021728,45.56556479999999,0 -121.1022533,45.5658384,0 -121.1023933,45.56607890000001,0 -121.1025585,45.5663334,0 -121.1027943,45.5665944,0 -121.1038433,45.56761190000001,0 -121.104277,45.5681288,0 -121.1045613,45.5685219,0 -121.1048038,45.5689674,0 -121.1049374,45.5694111,0 -121.1050457,45.56986040000001,0 -121.1050677,45.5702089,0 -121.1050235,45.57065260000001,0 -121.1049688,45.5712879,0 -121.1048503,45.571903,0 -121.1047325,45.57238349999999,0 -121.1043838,45.5740345,0 -121.1042798,45.5746697,0 -121.1042711,45.5750495,0 -121.1042955,45.5754479,0 -121.1043626,45.5757862,0 -121.1045407,45.576276,0 -121.1047853,45.57674819999999,0 -121.1051632,45.5772483,0 -121.1054829,45.5775654,0 -121.1058557,45.5778551,0 -121.1064214,45.5782225,0 -121.1069965,45.5785079,0 -121.1076987,45.5788394,0 -121.1093975,45.5796488,0 -121.118386,45.5838123,0 -121.1189688,45.5841327,0 -121.1193561,45.5843869,0 -121.1198144,45.5847326,0 -121.1201262,45.5850283,0 -121.1204,45.58536060000001,0 -121.1206162,45.58569,0 -121.120782,45.58606919999999,0 -121.1209577,45.58650409999999,0 -121.1212031,45.5873069,0 -121.1213249,45.5877784,0 -121.1214769,45.5882133,0 -121.1216261,45.58856420000001,0 -121.1218436,45.5888957,0 -121.122089,45.5891973,0 -121.1223605,45.5894781,0 -121.1226469,45.58973450000001,0 -121.1230028,45.58997939999999,0 -121.1234044,45.5902264,0 -121.1238282,45.5904697,0 -121.1244252,45.59077730000001,0 -121.1246262,45.590881,0 -121.1249155,45.5910268,0 -121.1260981,45.5916321,0 -121.1281583,45.59268,0 -121.1292315,45.5932571,0 -121.1326792,45.5950576,0 -121.1335937,45.59553240000001,0 -121.1336668,45.5955703,0 -121.1341702,45.5958738,0 -121.1346675,45.59624790000001,0 -121.13565,45.5970728,0 -121.1360877,45.5973382,0 -121.1364697,45.5975253,0 -121.1368685,45.5976586,0 -121.1373207,45.5977736,0 -121.1380219,45.597951,0 -121.1382979,45.5980292,0 -121.1385224,45.5981294,0 -121.1387627,45.5982702,0 -121.1390738,45.5984846,0 -121.1393669,45.5986549,0 -121.1396943,45.5987965,0 -121.1394688,45.5992414,0 -121.139251,45.59982960000001,0 -121.1391049,45.600382,0 -121.1387077,45.6019015,0 -121.1386351,45.6021526,0 -121.1385427,45.60249610000001,0 -121.138402,45.6031043,0 -121.1383427,45.60333369999999,0 -121.1382439,45.60375369999999,0 -121.1382003,45.6039007,0 -121.137976,45.604737,0 -121.137597,45.60617500000001,0 -121.1374765,45.6066585,0 -121.1374081,45.6069721,0 -121.1373772,45.6071931,0 -121.1373581,45.60750669999999,0 -121.1373798,45.6078252,0 -121.1374377,45.6080681,0 -121.1375281,45.6083234,0 -121.1376488,45.6085856,0 -121.1378124,45.6088639,0 -121.1379575,45.6090529,0 -121.1382127,45.60933069999999,0 -121.1384646,45.6095574,0 -121.1387405,45.6097765,0 -121.1406324,45.61116990000001,0 -121.1427925,45.6127695,0 -121.1438156,45.6135271,0 -121.1443195,45.6139269,0 -121.144623,45.6141751,0 -121.1448142,45.61438510000001,0 -121.1449659,45.61459170000001,0 -121.145094,45.61480719999999,0 -121.1451999,45.6150102,0 -121.1452873,45.61529589999999,0 -121.1453316,45.6155423,0 -121.1453402,45.61582270000001,0 -121.145332,45.6162086,0 -121.145268,45.61672209999999,0 -121.1450773,45.6179915,0 -121.1450623,45.61846450000001,0 -121.1450647,45.618835,0 -121.1451557,45.6192836,0 -121.1453147,45.6197104,0 -121.1455314,45.6201396,0 -121.1458453,45.62072749999999,0 -121.1493759,45.6273834,0 -121.1505554,45.6296254,0 -121.15191,45.63220010000001,0 -121.1519521,45.6322802,0 -121.1528598,45.63399,0 -121.1530979,45.6346215,0 -121.1532916,45.6353471,0 -121.1535038,45.6364094,0 -121.1542931,45.6401423,0 -121.1551526,45.6443405,0 -121.1558292,45.6476454,0 -121.15591,45.6480201,0 -121.1561321,45.6490387,0 
			</coordinates>
		</LineString>
		<atom:link rel="app" href="https://www.google.com/earth/about/versions/#earth-pro" title="Google Earth Pro 7.3.6.10201"></atom:link>
	</Placemark>
</Document>
</kml>
