<?xml version="1.0" encoding="UTF-8"?>
<kml xmlns="http://www.opengis.net/kml/2.2" xmlns:gx="http://www.google.com/kml/ext/2.2" xmlns:kml="http://www.opengis.net/kml/2.2" xmlns:atom="http://www.w3.org/2005/Atom">
<Document>
	<name>US.130.kml</name>
	<Placemark>
		<name>US.130</name>
		<LineString>
			<coordinates>
				-75.4700532,39.7063734,0 -75.4700787,39.706453,0 -75.4700965,39.7065807,0 -75.4701282,39.7066434,0 -75.470147,39.707301,0 -75.470159,39.70748,0 -75.47021909999999,39.7080955,0 -75.4702563,39.7084766,0 -75.47029499999999,39.708873,0 -75.470332,39.709322,0 -75.470348,39.7094677,0 -75.4703686,39.7096541,0 -75.47038569999999,39.7098096,0 -75.470392,39.709867,0 -75.4704002,39.7099571,0 -75.470439,39.710385,0 -75.470479,39.710834,0 -75.470519,39.711275,0 -75.470583,39.711931,0 -75.47059059999999,39.7120108,0 -75.4706319,39.7124413,0 -75.4706644,39.7127805,0 -75.470697,39.71312,0 -75.4707293,39.7135319,0 -75.470849,39.71506,0 -75.470896,39.71583,0 -75.470922,39.71625,0 -75.47093750000001,39.7165962,0 -75.47095899999999,39.717077,0 -75.47097100000001,39.717341,0 -75.47098099999999,39.717627,0 -75.470979,39.717895,0 -75.470974,39.717958,0 -75.47095729999999,39.7180467,0 -75.4708986,39.7182116,0 -75.47083499999999,39.71831,0 -75.470759,39.71839,0 -75.47064899999999,39.718487,0 -75.47035700000001,39.718694,0 -75.47012530000001,39.7188575,0 -75.4699061,39.7190122,0 -75.46962600000001,39.71921,0 -75.46961349999999,39.7192191,0 -75.4694769,39.7193188,0 -75.4692467,39.7194868,0 -75.46916,39.71955,0 -75.468695,39.719881,0 -75.468267,39.720195,0 -75.468208,39.720247,0 -75.46811580000001,39.7203287,0 -75.46811099999999,39.720333,0 -75.467902,39.720534,0 -75.4678373,39.7206056,0 -75.46772300000001,39.720732,0 -75.467511,39.720999,0 -75.467428,39.721122,0 -75.46699599999999,39.721755,0 -75.466551,39.722409,0 -75.4657818,39.7235636,0 -75.4655228,39.7239455,0 -75.464978,39.724736,0 -75.46476440000001,39.7250508,0 -75.46464279999999,39.7252301,0 -75.4644943,39.7254488,0 -75.464161,39.72594,0 -75.4639762,39.726213,0 -75.4638147,39.7264515,0 -75.4637513,39.7265426,0 -75.46342319999999,39.7270297,0 -75.46319,39.727374,0 -75.4627577,39.7280106,0 -75.4625722,39.7282839,0 -75.462367,39.728586,0 -75.46227,39.728725,0 -75.461844,39.729355,0 -75.4617822,39.7294475,0 -75.461506,39.729861,0 -75.4614148,39.7299974,0 -75.46120999999999,39.730304,0 -75.46111689999999,39.7304582,0 -75.46094600000001,39.730741,0 -75.460762,39.731076,0 -75.460731,39.731134,0 -75.460562,39.731452,0 -75.46051199999999,39.731555,0 -75.4604143,39.731758,0 -75.4602484,39.7321025,0 -75.460097,39.732417,0 -75.459143,39.734432,0 -75.45883329999999,39.7350829,0 -75.45871,39.735342,0 -75.458653,39.735463,0 -75.4584894,39.7358052,0 -75.4584559,39.7358752,0 -75.458367,39.736061,0 -75.45829689999999,39.7362106,0 -75.45815589999999,39.7365116,0 -75.45804800000001,39.736742,0 -75.457724,39.737426,0 -75.4571474,39.7386424,0 -75.45693,39.739101,0 -75.4568556,39.7392569,0 -75.4568173,39.739347,0 -75.4566672,39.7396523,0 -75.45656200000001,39.739873,0 -75.4562001,39.7406376,0 -75.45596829999999,39.7411075,0 -75.4558031,39.7414695,0 -75.45559830000001,39.7418988,0 -75.45556999999999,39.741958,0 -75.4550922,39.7429648,0 -75.454412,39.744398,0 -75.4543565,39.7445064,0 -75.45432099999999,39.74457,0 -75.454262,39.744682,0 -75.454123,39.744897,0 -75.45401,39.745038,0 -75.45396,39.7450944,0 -75.453844,39.745225,0 -75.453715,39.745351,0 -75.4536804,39.7453814,0 -75.45355240000001,39.7454941,0 -75.453515,39.745527,0 -75.453446,39.745582,0 -75.453318,39.745684,0 -75.453217,39.745767,0 -75.4528,39.746113,0 -75.45241300000001,39.7464304,0 -75.45049299999999,39.748005,0 -75.4503587,39.7481162,0 -75.44974499999999,39.748624,0 -75.44881719999999,39.7493569,0 -75.448474,39.749662,0 -75.4471449,39.7507611,0 -75.4460455,39.7516701,0 -75.44515699999999,39.752388,0 -75.44461579999999,39.7528198,0 -75.44412800000001,39.753229,0 -75.443881,39.753437,0 -75.44333,39.753886,0 -75.44299700000001,39.754157,0 -75.44235399999999,39.754696,0 -75.44193300000001,39.75507,0 -75.441194,39.755707,0 -75.43920799999999,39.757387,0 -75.438968,39.757586,0 -75.438731,39.757784,0 -75.4376415,39.7587066,0 -75.43754,39.758792,0 -75.4369177,39.7593114,0 -75.436542,39.759625,0 -75.43616299999999,39.759955,0 -75.435222,39.760742,0 -75.435022,39.760918,0 -75.43444,39.761398,0 -75.43394499999999,39.761759,0 -75.433545,39.762008,0 -75.43339899999999,39.762094,0 -75.433205,39.762209,0 -75.43249900000001,39.76261,0 -75.43221699999999,39.762768,0 -75.43155400000001,39.763138,0 -75.4314578,39.7631939,0 -75.430848,39.763548,0 -75.430339,39.76389,0 -75.42997699999999,39.764165,0 -75.429625,39.764459,0 -75.429395,39.764672,0 -75.429293,39.764761,0 -75.429134,39.764899,0 -75.4288648,39.7651465,0 -75.428515,39.76545,0 -75.428426,39.7655296,0 -75.4272047,39.7666218,0 -75.4268349,39.7669525,0 -75.426518,39.767236,0 -75.425265,39.768357,0 -75.4248067,39.768767,0 -75.423661,39.769792,0 -75.4236059,39.7698416,0 -75.422921,39.770458,0 -75.42242299999999,39.770898,0 -75.42200560000001,39.7712781,0 -75.42059,39.772543,0 -75.419967,39.773092,0 -75.418888,39.774056,0 -75.417524,39.77524,0 -75.41486039999999,39.7776278,0 -75.414057,39.778348,0 -75.4135716,39.778782,0 -75.408517,39.783302,0 -75.407678,39.784056,0 -75.407394,39.784311,0 -75.40728129999999,39.7844134,0 -75.4070421,39.7846308,0 -75.40695270000001,39.7847067,0 -75.4067232,39.7849015,0 -75.40649620000001,39.7850941,0 -75.4061895,39.7853046,0 -75.40605170000001,39.7853945,0 -75.40590090000001,39.7854929,0 -75.40583549999999,39.7855355,0 -75.40533120000001,39.785824,0 -75.40493429999999,39.7860054,0 -75.40466600000001,39.7861414,0 -75.40434070000001,39.786296,0 -75.403696,39.786557,0 -75.403155,39.786739,0 -75.402535,39.786907,0 -75.401883,39.787045,0 -75.40107399999999,39.787169,0 -75.399962,39.787354,0 -75.39974599999999,39.78739,0 -75.39882369999999,39.7875662,0 -75.398736,39.787583,0 -75.3986556,39.7876008,0 -75.39865,39.787602,0 -75.39758999999999,39.787844,0 -75.396478,39.78814,0 -75.39608920000001,39.7882275,0 -75.3958088,39.7882947,0 -75.3952196,39.7884233,0 -75.39462899999999,39.788592,0 -75.39323,39.788949,0 -75.393125,39.788975,0 -75.39297139999999,39.7890141,0 -75.39193899999999,39.789277,0 -75.39063,39.789615,0 -75.387367,39.790433,0 -75.38730099999999,39.790449,0 -75.38715500000001,39.790485,0 -75.386956,39.790535,0 -75.38307399999999,39.791496,0 -75.38106879999999,39.7920015,0 -75.3804892,39.7921455,0 -75.3782271,39.7927075,0 -75.37481820000001,39.7935545,0 -75.3722053,39.7942038,0 -75.3686799,39.795078,0 -75.3681878,39.7952294,0 -75.3678797,39.7953365,0 -75.3673481,39.795538,0 -75.36689029999999,39.7957391,0 -75.3609429,39.7985246,0 -75.36023419999999,39.7988732,0 -75.35947470000001,39.7992665,0 -75.3586384,39.7996966,0 -75.357906,39.8000641,0 -75.3570965,39.8004554,0 -75.3562486,39.800838,0 -75.3546788,39.8015779,0 -75.35441849999999,39.8016847,0 -75.35411089999999,39.8017916,0 -75.3538535,39.8018775,0 -75.3536385,39.8019315,0 -75.3533676,39.8019892,0 -75.3530739,39.8020491,0 -75.3515567,39.8023616,0 -75.35090889999999,39.8025018,0 -75.3507534,39.8025337,0 -75.35035550000001,39.8026022,0 -75.3500234,39.8026461,0 -75.3496121,39.8027017,0 -75.3489606,39.8027691,0 -75.3484304,39.8028169,0 -75.3478922,39.8028463,0 -75.3473539,39.8028601,0 -75.345107,39.8028589,0 -75.344945,39.8028588,0 -75.344882,39.8028588,0 -75.34472770000001,39.8028587,0 -75.344224,39.8028586,0 -75.3417748,39.8028582,0 -75.3409144,39.802862,0 -75.3397568,39.8028654,0 -75.3390643,39.8028683,0 -75.33739799999999,39.8028737,0 -75.3366206,39.8028747,0 -75.33513259999999,39.8028861,0 -75.33319400000001,39.802877,0 -75.32952299999999,39.802856,0 -75.328687,39.802863,0 -75.327833,39.802862,0 -75.327287,39.802862,0 -75.32697210000001,39.8028631,0 -75.32671000000001,39.802864,0 -75.3251588,39.8028752,0 -75.324102,39.8029164,0 -75.3230453,39.8029411,0 -75.32119299999999,39.803104,0 -75.320307,39.803174,0 -75.318719,39.803304,0 -75.31772100000001,39.803389,0 -75.31743299999999,39.803417,0 -75.31733699999999,39.80343,0 -75.31724,39.80344,0 -75.31676,39.803486,0 -75.316568,39.803496,0 -75.31618,39.803497,0 -75.315986,39.803488,0 -75.315697,39.803462,0 -75.315602,39.803449,0 -75.31550799999999,39.803435,0 -75.315415,39.803418,0 -75.315231,39.803373,0 -75.3149396,39.8032749,0 -75.31459630000001,39.8031307,0 -75.3142101,39.8029617,0 -75.31388819999999,39.8028133,0 -75.31343219999999,39.8026773,0 -75.31309109999999,39.8026423,0 -75.3126383,39.8026361,0 -75.31232180000001,39.8026773,0 -75.312016,39.802774,0 -75.311778,39.80286,0 -75.31153999999999,39.802987,0 -75.311346,39.803113,0 -75.31099,39.803366,0 -75.310517,39.803737,0 -75.3101848,39.8039611,0 -75.3098157,39.8041589,0 -75.3093865,39.8043501,0 -75.3088778,39.8045609,0 -75.30862260000001,39.8046337,0 -75.307821,39.8048121,0 -75.30731489999999,39.8048947,0 -75.30721490000001,39.804911,0 -75.3049457,39.8052201,0 -75.30074,39.805863,0 -75.2973472,39.8063828,0 -75.294984,39.8067449,0 -75.29285179999999,39.8070959,0 -75.29228000000001,39.80719,0 -75.29099290000001,39.8074166,0 -75.2898355,39.8076515,0 -75.28826100000001,39.807971,0 -75.28654899999999,39.808353,0 -75.285532,39.808608,0 -75.2851004,39.8087076,0 -75.284644,39.808813,0 -75.28371300000001,39.809018,0 -75.281862,39.809487,0 -75.28116300000001,39.80965,0 -75.281103,39.809664,0 -75.2807145,39.8097608,0 -75.28058900000001,39.809792,0 -75.27982900000001,39.809969,0 -75.2785152,39.8102723,0 -75.27673799999999,39.810679,0 -75.2731723,39.8115292,0 -75.2724967,39.8116872,0 -75.2721641,39.811765,0 -75.269004,39.812504,0 -75.267909,39.81279,0 -75.26612900000001,39.813209,0 -75.26485700000001,39.813518,0 -75.26473799999999,39.813546,0 -75.2630874,39.8139325,0 -75.26303,39.813946,0 -75.2610494,39.8143902,0 -75.260172,39.814587,0 -75.259888,39.81466,0 -75.257397,39.815296,0 -75.257109,39.815369,0 -75.25661599999999,39.815487,0 -75.256517,39.81551,0 -75.255509,39.815751,0 -75.2551544,39.8158316,0 -75.253146,39.816288,0 -75.251366,39.816706,0 -75.250484,39.816906,0 -75.25000199999999,39.816997,0 -75.249905,39.817021,0 -75.2494562,39.8171321,0 -75.248604,39.817343,0 -75.247075,39.81777,0 -75.246747,39.81786,0 -75.244649,39.818469,0 -75.24455,39.818496,0 -75.24304909999999,39.8190109,0 -75.2421337,39.8193176,0 -75.2412231,39.8196386,0 -75.2404035,39.8199381,0 -75.2398338,39.8201443,0 -75.2392827,39.820356,0 -75.2389721,39.8204779,0 -75.2384328,39.8206913,0 -75.23781870000001,39.8209388,0 -75.2369454,39.8212993,0 -75.2360697,39.8216705,0 -75.23563540000001,39.8218642,0 -75.2344516,39.8223932,0 -75.2334149,39.8228882,0 -75.2328114,39.8231646,0 -75.2322271,39.8234503,0 -75.2309266,39.8241206,0 -75.23026059999999,39.8244737,0 -75.2294582,39.8249308,0 -75.2291482,39.8251002,0 -75.22790259999999,39.8257746,0 -75.22689750000001,39.8263045,0 -75.22606709999999,39.8267293,0 -75.2239204,39.8277723,0 -75.22248980000001,39.8284166,0 -75.22171160000001,39.8287546,0 -75.22116339999999,39.8289832,0 -75.2196892,39.8295888,0 -75.21863999999999,39.8300019,0 -75.2176776,39.8303624,0 -75.21730839999999,39.830508,0 -75.2160044,39.8310215,0 -75.2148238,39.8315033,0 -75.2143258,39.8317002,0 -75.2134926,39.8320298,0 -75.2126378,39.832364,0 -75.2102108,39.8333169,0 -75.2094007,39.8336366,0 -75.2092538,39.8336946,0 -75.2087531,39.8338931,0 -75.2084644,39.8340076,0 -75.20686929999999,39.8346326,0 -75.20660030000001,39.8347412,0 -75.20388989999999,39.8358014,0 -75.20238329999999,39.8363928,0 -75.20178559999999,39.8366294,0 -75.1974665,39.8383436,0 -75.19701000000001,39.8385268,0 -75.1961014,39.8389174,0 -75.1949802,39.839415,0 -75.192865,39.840389,0 -75.192179,39.8407271,0 -75.1916021,39.8410151,0 -75.19045,39.8415895,0 -75.18988520000001,39.8418721,0 -75.1882622,39.8427005,0 -75.1862667,39.8438005,0 -75.1842879,39.8449219,0 -75.1823711,39.846009,0 -75.18185680000001,39.8463043,0 -75.18116569999999,39.8467,0 -75.1793679,39.8476901,0 -75.17834449999999,39.8482136,0 -75.1767859,39.8490078,0 -75.17609299999999,39.8493609,0 -75.1731814,39.850861,0 -75.1720261,39.8514557,0 -75.17179899999999,39.8515734,0 -75.16983949999999,39.8526302,0 -75.1692534,39.8529428,0 -75.1679635,39.8536226,0 -75.1667078,39.8542842,0 -75.16536120000001,39.8549972,0 -75.1646008,39.8554028,0 -75.16358339999999,39.8559395,0 -75.16268580000001,39.8564244,0 -75.160848,39.8574232,0 -75.159813,39.8579849,0 -75.1591445,39.8583177,0 -75.1588186,39.8584807,0 -75.1581628,39.8587862,0 -75.1574926,39.8590825,0 -75.1569899,39.8592891,0 -75.15637890000001,39.8595234,0 -75.15556840000001,39.8598065,0 -75.1549114,39.8600156,0 -75.15425209999999,39.8602118,0 -75.15408309999999,39.8602056,0 -75.15340399999999,39.8603762,0 -75.15312059999999,39.8604191,0 -75.1528253,39.8604321,0 -75.1525132,39.8604156,0 -75.1522071,39.8603793,0 -75.1518914,39.8603264,0 -75.1513787,39.8602055,0 -75.15042630000001,39.8600121,0 -75.1498709,39.859914,0 -75.14932039999999,39.8598773,0 -75.14908250000001,39.8598974,0 -75.14876599999999,39.859918,0 -75.1484603,39.8599921,0 -75.1482079,39.8600834,0 -75.147881,39.860259,0 -75.1476037,39.8604891,0 -75.14730299999999,39.860841,0 -75.1471751,39.8610204,0 -75.14699760000001,39.8614665,0 -75.1469335,39.8616218,0 -75.1467038,39.8621748,0 -75.1465369,39.8624951,0 -75.146384,39.8627216,0 -75.14625049999999,39.8628801,0 -75.14605280000001,39.8630459,0 -75.1457195,39.863249,0 -75.145336,39.863464,0 -75.14423720000001,39.8639539,0 -75.1424389,39.864769,0 -75.14170059999999,39.8651035,0 -75.140956,39.865472,0 -75.1394832,39.8662797,0 -75.138784,39.866642,0 -75.1383335,39.8668582,0 -75.1380182,39.8670012,0 -75.1370457,39.8674328,0 -75.13693000000001,39.8674841,0 -75.1366433,39.8676114,0 -75.1360081,39.8678933,0 -75.13505000000001,39.8683185,0 -75.13394599999999,39.8687991,0 -75.1335065,39.8689939,0 -75.13341680000001,39.8690356,0 -75.1331323,39.8691696,0 -75.1329901,39.8692384,0 -75.13209500000001,39.869654,0 -75.131721,39.869833,0 -75.1314685,39.8699597,0 -75.131406,39.869991,0 -75.131146,39.870082,0 -75.13078,39.870199,0 -75.130555,39.870254,0 -75.13032200000001,39.870303,0 -75.130244,39.870317,0 -75.12973839999999,39.8704135,0 -75.1294219,39.8705,0 -75.12913229999999,39.8705823,0 -75.1288483,39.8707423,0 -75.1286807,39.8708578,0 -75.1284189,39.8710933,0 -75.128224,39.871324,0 -75.1281176,39.8714639,0 -75.1280067,39.8716061,0 -75.1278104,39.8718591,0 -75.127745,39.871946,0 -75.1276141,39.8721053,0 -75.127482,39.872266,0 -75.1273664,39.8724313,0 -75.127251,39.872591,0 -75.127129,39.872767,0 -75.127075,39.872902,0 -75.12706,39.872969,0 -75.1270437,39.8730434,0 -75.127008,39.873208,0 -75.12700100000001,39.873274,0 -75.1269676,39.8736092,0 -75.1269408,39.8736714,0 -75.126921,39.873756,0 -75.1268714,39.8739469,0 -75.1268116,39.8740667,0 -75.12670439999999,39.8742357,0 -75.1266,39.8743723,0 -75.12612729999999,39.8749441,0 -75.125631,39.8756101,0 -75.1253821,39.875931,0 -75.1252684,39.8760751,0 -75.12519020000001,39.8761591,0 -75.1250915,39.8762423,0 -75.124984,39.8763182,0 -75.124889,39.8763683,0 -75.1247944,39.8764083,0 -75.1247104,39.8764414,0 -75.12461519999999,39.8764723,0 -75.1245531,39.8765049,0 -75.1244937,39.8765071,0 -75.1244074,39.8765292,0 -75.12434159999999,39.876522,0 -75.12426240000001,39.8765178,0 -75.12415919999999,39.8765042,0 -75.12405800000001,39.8764761,0 -75.123693,39.876297,0 -75.1233235,39.876133,0 -75.12326,39.8760898,0 -75.1231985,39.8760383,0 -75.1231547,39.875993,0 -75.12313159999999,39.8759496,0 -75.1230824,39.8758715,0 -75.12307389999999,39.8757855,0 -75.12304090000001,39.8757057,0 -75.1230528,39.8756915,0 -75.12301069999999,39.8756366,0 -75.1229776,39.8756024,0 -75.1229328,39.875577,0 -75.1228606,39.8755391,0 -75.1227682,39.8755116,0 -75.1226257,39.8755066,0 -75.1225204,39.8755283,0 -75.1224411,39.8755621,0 -75.12237450000001,39.8756084,0 -75.1223292,39.8756556,0 -75.12229550000001,39.8756984,0 -75.12228,39.8757383,0 -75.1222642,39.8757878,0 -75.1222606,39.8758351,0 -75.1222635,39.8758679,0 -75.12227590000001,39.8759094,0 -75.12220840000001,39.8758742,0 -75.12214280000001,39.8758421,0 -75.12207720000001,39.8758231,0 -75.12200439999999,39.8758168,0 -75.12191989999999,39.8758186,0 -75.12186490000001,39.8758261,0 -75.1218188,39.8758323,0 -75.1217307,39.8758468,0 -75.1213597,39.8759076,0 -75.12118409999999,39.8759364,0 -75.1202626,39.8760775,0 -75.1198619,39.8761389,0 -75.11875790000001,39.8763119,0 -75.1183267,39.8763795,0 -75.1178723,39.8764803,0 -75.117662,39.876527,0 -75.1171313,39.8767272,0 -75.11637570000001,39.8771118,0 -75.11626200000001,39.877188,0 -75.11584499999999,39.877527,0 -75.11572700000001,39.87763,0 -75.1155631,39.8777791,0 -75.11546010000001,39.8778727,0 -75.1152465,39.8780669,0 -75.11518700000001,39.878121,0 -75.11506970000001,39.8782535,0 -75.11486170000001,39.8784613,0 -75.11466179999999,39.878661,0 -75.11451839999999,39.8788043,0 -75.1142157,39.8791066,0 -75.11387190000001,39.8794333,0 -75.1133382,39.8799404,0 -75.113231,39.8800422,0 -75.1124904,39.8807737,0 -75.1119607,39.8812809,0 -75.11129800000001,39.881934,0 -75.1108796,39.8823305,0 -75.1107762,39.8824292,0 -75.1102619,39.8829204,0 -75.11023299999999,39.882948,0 -75.1101304,39.8830467,0 -75.110074,39.883101,0 -75.110015,39.883158,0 -75.109825,39.8833401,0 -75.109797,39.883367,0 -75.1097159,39.883445,0 -75.10950099999999,39.883652,0 -75.10934140000001,39.8838027,0 -75.10932099999999,39.883822,0 -75.1092268,39.8839115,0 -75.1089106,39.8842121,0 -75.10874560000001,39.8843689,0 -75.107992,39.885085,0 -75.1078541,39.8852127,0 -75.1074271,39.8856381,0 -75.10708289999999,39.885943,0 -75.10672289999999,39.8863103,0 -75.10650200000001,39.8865284,0 -75.1063315,39.8867295,0 -75.10622909999999,39.8868503,0 -75.106025,39.887129,0 -75.105671,39.8876381,0 -75.1055114,39.8878865,0 -75.10511219999999,39.8886163,0 -75.104951,39.888911,0 -75.10472489999999,39.8893659,0 -75.1045148,39.8897916,0 -75.104372,39.890063,0 -75.104125,39.890581,0 -75.1040155,39.8907805,0 -75.10396919999999,39.890867,0 -75.1038515,39.891161,0 -75.10381099999999,39.891262,0 -75.10375740000001,39.8913661,0 -75.1036737,39.8915577,0 -75.10349600000001,39.891935,0 -75.10333919999999,39.8922427,0 -75.1030994,39.892735,0 -75.1030279,39.8928803,0 -75.1029712,39.8930024,0 -75.102751,39.893413,0 -75.10265440000001,39.8936022,0 -75.1025466,39.8938132,0 -75.1024767,39.8939499,0 -75.1024484,39.8940053,0 -75.1023643,39.8941765,0 -75.1022181,39.8944743,0 -75.1020877,39.8947397,0 -75.1020101,39.8948978,0 -75.101844,39.895271,0 -75.101777,39.895417,0 -75.101657,39.89564,0 -75.101642,39.895663,0 -75.1015988,39.8957539,0 -75.1014,39.896172,0 -75.1012599,39.896455,0 -75.100998,39.896984,0 -75.1009356,39.8971083,0 -75.100745,39.8974876,0 -75.100673,39.897631,0 -75.10065400000001,39.897654,0 -75.1005835,39.8977924,0 -75.1004745,39.8980067,0 -75.100427,39.8981,0 -75.100415,39.898132,0 -75.0999518,39.8990997,0 -75.0998091,39.8993635,0 -75.099405,39.900073,0 -75.09918829999999,39.9004632,0 -75.099036,39.900688,0 -75.098636,39.9012343,0 -75.09826200000001,39.901617,0 -75.097842,39.902054,0 -75.097382,39.902502,0 -75.096773,39.903129,0 -75.0966181,39.9032807,0 -75.09625459999999,39.9036365,0 -75.0960843,39.903801,0 -75.095938,39.9039848,0 -75.0958361,39.9041823,0 -75.0957342,39.9044273,0 -75.0956762,39.9046543,0 -75.0955786,39.9049518,0 -75.0954981,39.9052852,0 -75.095187,39.9062975,0 -75.0950819,39.9066204,0 -75.0948087,39.9073609,0 -75.0943769,39.9084331,0 -75.0942057,39.9089351,0 -75.09418700000001,39.90899,0 -75.09415199999999,39.909081,0 -75.09411799999999,39.909162,0 -75.0940315,39.9094019,0 -75.0938142,39.9100048,0 -75.0936281,39.91049,0 -75.0936176,39.9105141,0 -75.0934979,39.9107905,0 -75.0934687,39.9108472,0 -75.09343269999999,39.9108993,0 -75.09334560000001,39.911038,0 -75.09330509999999,39.9110995,0 -75.09309810000001,39.9114137,0 -75.092572,39.912036,0 -75.0919612,39.9125995,0 -75.09176429999999,39.9127786,0 -75.0916378,39.9129152,0 -75.0915954,39.9129594,0 -75.091168,39.913484,0 -75.0910719,39.9136064,0 -75.0908949,39.9138821,0 -75.0907715,39.9141248,0 -75.0907059,39.9142778,0 -75.090554,39.914766,0 -75.090428,39.915271,0 -75.0903137,39.9156265,0 -75.0902749,39.915805,0 -75.0902272,39.9159629,0 -75.090124,39.91629,0 -75.089952,39.91668,0 -75.08958920000001,39.917451,0 -75.089524,39.9175916,0 -75.08937160000001,39.9178786,0 -75.0891515,39.9182615,0 -75.0889935,39.9184948,0 -75.0888324,39.9186899,0 -75.08869,39.9188676,0 -75.08854049999999,39.9190539,0 -75.0883171,39.9193466,0 -75.0882573,39.9194261,0 -75.08813499999999,39.9196086,0 -75.0880758,39.9196964,0 -75.08794140000001,39.9199144,0 -75.0878714,39.9200398,0 -75.0877922,39.9201895,0 -75.087474,39.920798,0 -75.0874171,39.9209224,0 -75.0873498,39.9210403,0 -75.087228,39.921248,0 -75.086676,39.9222459,0 -75.08657359999999,39.9224115,0 -75.08648580000001,39.9225537,0 -75.0864266,39.9226495,0 -75.086384,39.9227184,0 -75.0862928,39.9228624,0 -75.0861256,39.9231328,0 -75.086074,39.9232161,0 -75.08600300000001,39.923331,0 -75.085825,39.923545,0 -75.085705,39.923694,0 -75.085663,39.923745,0 -75.08565400000001,39.923762,0 -75.085582,39.923849,0 -75.085398,39.924062,0 -75.08525299999999,39.924219,0 -75.085005,39.924593,0 -75.084698,39.925087,0 -75.084569,39.92533,0 -75.084478,39.925525,0 -75.084372,39.925728,0 -75.0841824,39.9264744,0 -75.0840453,39.9270761,0 -75.08393289999999,39.9276493,0 -75.083905,39.927795,0 -75.083839,39.928136,0 -75.08378620000001,39.9284146,0 -75.0837705,39.9284986,0 -75.08373109999999,39.928672,0 -75.0836699,39.9289408,0 -75.0835991,39.9293008,0 -75.08342260000001,39.9301391,0 -75.08337160000001,39.930594,0 -75.08331699999999,39.9309393,0 -75.08330789999999,39.9309999,0 -75.0832487,39.9314106,0 -75.0831792,39.931917,0 -75.0831256,39.9323301,0 -75.0831115,39.9324353,0 -75.083101,39.9325442,0 -75.0831022,39.9326547,0 -75.0831106,39.9327648,0 -75.0831218,39.9328661,0 -75.08314369999999,39.9329728,0 -75.0831732,39.9330903,0 -75.08324090000001,39.9333132,0 -75.08327250000001,39.933408,0 -75.0832911,39.9334595,0 -75.0832994,39.933524,0 -75.0833018,39.933581,0 -75.08329519999999,39.9336521,0 -75.0832808,39.9337175,0 -75.0832612,39.9337581,0 -75.0832399,39.9337937,0 -75.0831924,39.9338526,0 -75.0831438,39.9339017,0 -75.0830981,39.9339406,0 -75.0830385,39.9339781,0 -75.0829373,39.9340342,0 -75.08283419999999,39.9340885,0 -75.0827089,39.9341493,0 -75.0825985,39.9342022,0 -75.0824428,39.9342664,0 -75.0822811,39.934329,0 -75.0818167,39.934502,0 -75.0815609,39.9346035,0 -75.0813677,39.9346906,0 -75.08118330000001,39.9347695,0 -75.07983470000001,39.9353458,0 -75.0794693,39.9354995,0 -75.0793694,39.9355444,0 -75.0787301,39.9358168,0 -75.0784826,39.9359325,0 -75.0782499,39.9360467,0 -75.0781028,39.936121,0 -75.07797840000001,39.9361904,0 -75.0777666,39.9363052,0 -75.0776011,39.9363994,0 -75.0774875,39.9364684,0 -75.077389,39.9365287,0 -75.0772393,39.9366233,0 -75.077054,39.9367456,0 -75.0768899,39.9368644,0 -75.07669679999999,39.9370252,0 -75.07646800000001,39.937197,0 -75.0763979,39.937253,0 -75.0762742,39.937352,0 -75.07614719999999,39.9374535,0 -75.0759661,39.9376224,0 -75.0757663,39.9378088,0 -75.0757059,39.9378735,0 -75.07560549999999,39.9379893,0 -75.0754254,39.9381738,0 -75.07478759999999,39.9389001,0 -75.0741316,39.9396417,0 -75.07359870000001,39.9402463,0 -75.0730339,39.940887,0 -75.0725288,39.9414601,0 -75.0719884,39.9420694,0 -75.0718218,39.9422572,0 -75.07138569999999,39.9427489,0 -75.0712441,39.9429086,0 -75.07085170000001,39.943351,0 -75.07026879999999,39.9440082,0 -75.0697102,39.944638,0 -75.0691042,39.9453213,0 -75.06854629999999,39.9459465,0 -75.06816550000001,39.9463988,0 -75.067972,39.9466252,0 -75.0679476,39.9466581,0 -75.0678278,39.9468263,0 -75.06764459999999,39.9471954,0 -75.0673273,39.9479064,0 -75.06715440000001,39.9482956,0 -75.0670732,39.9484665,0 -75.0669946,39.9485973,0 -75.0668304,39.9488173,0 -75.0666963,39.9489972,0 -75.0662808,39.9495183,0 -75.0662038,39.9496102,0 -75.0660202,39.9498336,0 -75.06580460000001,39.9501118,0 -75.0655227,39.9504699,0 -75.06541900000001,39.9506092,0 -75.0652752,39.9507883,0 -75.0649638,39.9511399,0 -75.06486390000001,39.9512527,0 -75.06475690000001,39.9513765,0 -75.0645653,39.9515617,0 -75.064009,39.952088,0 -75.063847,39.952225,0 -75.063216,39.952677,0 -75.063135,39.952726,0 -75.06283500000001,39.952906,0 -75.062209,39.953222,0 -75.0620627,39.9532988,0 -75.06178610000001,39.9534438,0 -75.0615339,39.9535761,0 -75.061334,39.953681,0 -75.0611328,39.9537923,0 -75.06092,39.95391,0 -75.0607821,39.9539935,0 -75.06056820000001,39.9541229,0 -75.06002599999999,39.95448,0 -75.0594153,39.954932,0 -75.059364,39.95497,0 -75.059124,39.955175,0 -75.058756,39.955496,0 -75.058572,39.95565,0 -75.0583464,39.9558735,0 -75.058036,39.956181,0 -75.057311,39.956965,0 -75.0569497,39.9573588,0 -75.056532,39.957814,0 -75.05638399999999,39.957966,0 -75.056256,39.958098,0 -75.05579,39.958511,0 -75.055682,39.9586003,0 -75.055137,39.959051,0 -75.055105,39.959078,0 -75.054967,39.959196,0 -75.053692,39.960285,0 -75.052998,39.960881,0 -75.05223700000001,39.961523,0 -75.0518209,39.9618886,0 -75.05159500000001,39.962087,0 -75.05099,39.962637,0 -75.050849,39.962784,0 -75.0506286,39.9630149,0 -75.05041060000001,39.9632402,0 -75.0501908,39.9634789,0 -75.0500211,39.9636574,0 -75.04975899999999,39.963946,0 -75.04961299999999,39.964093,0 -75.048721,39.964993,0 -75.04755470000001,39.9662038,0 -75.04746299999999,39.966299,0 -75.04741780000001,39.9663462,0 -75.04666,39.967138,0 -75.0454445,39.968408,0 -75.04508389999999,39.9687847,0 -75.04490060000001,39.9689762,0 -75.044786,39.969096,0 -75.0445644,39.9693297,0 -75.04452190000001,39.9693745,0 -75.044017,39.969907,0 -75.043604,39.970328,0 -75.04352400000001,39.9704089,0 -75.043513,39.97042,0 -75.04348400000001,39.970449,0 -75.04334110000001,39.970591,0 -75.04333,39.970602,0 -75.04319030000001,39.9707394,0 -75.0429343,39.9710107,0 -75.04281,39.971115,0 -75.0425704,39.9713576,0 -75.04206000000001,39.971604,0 -75.0419297,39.9716752,0 -75.04168490000001,39.971809,0 -75.04166290000001,39.971821,0 -75.041533,39.971892,0 -75.04105939999999,39.9721269,0 -75.0409372,39.9721876,0 -75.0408826,39.9722178,0 -75.0407395,39.9722929,0 -75.0405209,39.9724026,0 -75.0402634,39.972532,0 -75.0400207,39.9726492,0 -75.03962060000001,39.9728593,0 -75.0392781,39.9730163,0 -75.0389414,39.9731733,0 -75.0387059,39.9732861,0 -75.0384605,39.9734078,0 -75.0377532,39.973768,0 -75.0369055,39.9742106,0 -75.0365121,39.9744268,0 -75.0355579,39.974916,0 -75.03402079999999,39.9757081,0 -75.03355120000001,39.9759508,0 -75.03286249999999,39.9763044,0 -75.0320363,39.9767298,0 -75.03194329999999,39.9767782,0 -75.0313945,39.9770593,0 -75.02968129999999,39.9779282,0 -75.0285176,39.9785125,0 -75.0282673,39.9786388,0 -75.0280976,39.9787244,0 -75.0272987,39.9791242,0 -75.02656039999999,39.9794937,0 -75.026353,39.9795982,0 -75.0260866,39.9797319,0 -75.02573719999999,39.9799087,0 -75.0253804,39.9800975,0 -75.0250406,39.9802781,0 -75.0246965,39.9804613,0 -75.02439339999999,39.9806214,0 -75.0237367,39.9809484,0 -75.0230821,39.9812744,0 -75.0227865,39.9814216,0 -75.0225362,39.9815463,0 -75.0214872,39.9820687,0 -75.0211276,39.9822478,0 -75.0184965,39.983574,0 -75.0180806,39.9837838,0 -75.0177353,39.9839541,0 -75.0154589,39.9850766,0 -75.015209,39.9851999,0 -75.0148078,39.9854064,0 -75.0144105,39.9856297,0 -75.0142779,39.985701,0 -75.0140021,39.9858495,0 -75.01383559999999,39.9859391,0 -75.0131451,39.9863195,0 -75.0127631,39.9865293,0 -75.012559,39.986642,0 -75.01243359999999,39.986715,0 -75.0122489,39.9868162,0 -75.0119751,39.9869643,0 -75.01148569999999,39.9872325,0 -75.0113676,39.9872975,0 -75.01115369999999,39.9874103,0 -75.0110466,39.9874675,0 -75.01055959999999,39.9877286,0 -75.010195,39.9879298,0 -75.0099706,39.9880459,0 -75.0094555,39.9883365,0 -75.00713229999999,39.9896048,0 -75.00677210000001,39.9898064,0 -75.0061027,39.9901325,0 -75.00452319999999,39.9909618,0 -75.0042921,39.9910831,0 -75.0038028,39.99134,0 -75.00297860000001,39.9917727,0 -75.00258340000001,39.9919802,0 -75.0022994,39.9921293,0 -75.0016888,39.9924498,0 -75.0013491,39.9926282,0 -75.0010817,39.9927686,0 -75.00000009999999,39.9933197,0 -74.99984790000001,39.9933961,0 -74.9993952,39.9936236,0 -74.9992822,39.9936804,0 -74.9987498,39.9939479,0 -74.9975511,39.994557,0 -74.997252,39.9947091,0 -74.997004,39.9948249,0 -74.9968478,39.9949034,0 -74.9963202,39.9951684,0 -74.99569200000001,39.995484,0 -74.9952358,39.9957134,0 -74.99478999999999,39.9959376,0 -74.9944747,39.9960961,0 -74.9943956,39.9961359,0 -74.99372289999999,39.9964742,0 -74.99344979999999,39.9966115,0 -74.9933207,39.9966738,0 -74.9929779,39.9968391,0 -74.99276589999999,39.9969429,0 -74.99250069999999,39.9970728,0 -74.9923021,39.99717,0 -74.9919001,39.9973646,0 -74.9911421,39.9977167,0 -74.99024799999999,39.998132,0 -74.9893225,39.9985871,0 -74.988522,39.998993,0 -74.9882489,39.9991539,0 -74.9878027,39.9994387,0 -74.9874228,39.9996903,0 -74.9871557,39.9998852,0 -74.9868079,40.0001208,0 -74.98661060000001,40.0002429,0 -74.98578550000001,40.0008104,0 -74.9854065,40.0010694,0 -74.9851409,40.0012926,0 -74.983509,40.002771,0 -74.983254,40.0029871,0 -74.983142,40.003082,0 -74.982944,40.003231,0 -74.98251999999999,40.003506,0 -74.981829,40.003866,0 -74.9815445,40.0039877,0 -74.98116570000001,40.0041474,0 -74.98083010000001,40.0042774,0 -74.9803981,40.0044448,0 -74.9786367,40.0051274,0 -74.97823200000001,40.0052839,0 -74.978116,40.005329,0 -74.9777512,40.005471,0 -74.97726710000001,40.0056595,0 -74.9764998,40.0059581,0 -74.975067,40.006518,0 -74.9747023,40.0066616,0 -74.9743888,40.0067851,0 -74.9743794,40.0067888,0 -74.974092,40.006902,0 -74.97330289999999,40.0072128,0 -74.97284569999999,40.0073929,0 -74.9726897,40.0074543,0 -74.9721531,40.0076657,0 -74.971155,40.008058,0 -74.970545,40.0082954,0 -74.970474,40.008323,0 -74.970212,40.008426,0 -74.9701506,40.0084512,0 -74.96936599999999,40.008774,0 -74.96874800000001,40.009008,0 -74.9682318,40.0092122,0 -74.968169,40.009237,0 -74.967427,40.009543,0 -74.966494,40.009971,0 -74.9660148,40.0101942,0 -74.965953,40.010223,0 -74.9654961,40.0104458,0 -74.96501550000001,40.0106822,0 -74.9647647,40.0108056,0 -74.964541,40.0109157,0 -74.964423,40.0109733,0 -74.96359099999999,40.011358,0 -74.963371,40.011462,0 -74.963037,40.011628,0 -74.962965,40.011664,0 -74.96281639999999,40.0117377,0 -74.962756,40.011763,0 -74.962551,40.011862,0 -74.9624433,40.0119156,0 -74.962352,40.011961,0 -74.962157,40.012051,0 -74.9621458,40.0120563,0 -74.961967,40.012141,0 -74.9618741,40.0121857,0 -74.96178,40.012231,0 -74.9616724,40.0122839,0 -74.961597,40.012321,0 -74.961417,40.012407,0 -74.9613221,40.0124571,0 -74.96107000000001,40.012582,0 -74.9610218,40.0126049,0 -74.9609796,40.0126249,0 -74.96094410000001,40.0126421,0 -74.96090100000001,40.012663,0 -74.96087799999999,40.012672,0 -74.96083040000001,40.0126956,0 -74.960733,40.012744,0 -74.9604994,40.0128573,0 -74.960399,40.012906,0 -74.9603146,40.0129455,0 -74.96022600000001,40.012987,0 -74.960047,40.013077,0 -74.95986499999999,40.013163,0 -74.95967899999999,40.013253,0 -74.959491,40.013347,0 -74.95937619999999,40.0134014,0 -74.959301,40.013437,0 -74.95918829999999,40.0134936,0 -74.959112,40.013532,0 -74.9589867,40.0135923,0 -74.95892499999999,40.013622,0 -74.9585984,40.0137809,0 -74.958555,40.013802,0 -74.958367,40.013892,0 -74.9580857,40.0140284,0 -74.957967,40.014086,0 -74.9577709,40.0141784,0 -74.957757,40.014185,0 -74.95754599999999,40.014288,0 -74.957336,40.014392,0 -74.95725,40.0144329,0 -74.957128,40.014491,0 -74.95699500000001,40.014558,0 -74.95692099999999,40.014594,0 -74.95687700000001,40.0146144,0 -74.956716,40.014689,0 -74.956514,40.014788,0 -74.956256,40.014911,0 -74.956165,40.014955,0 -74.95612,40.014977,0 -74.95595109999999,40.0150637,0 -74.955927,40.015076,0 -74.9557236,40.0151776,0 -74.9555697,40.0152544,0 -74.95535219999999,40.0154002,0 -74.9552156,40.0154644,0 -74.9550181,40.0155807,0 -74.9549372,40.0156145,0 -74.95462860000001,40.0157434,0 -74.9544884,40.015802,0 -74.9533332,40.0163792,0 -74.9521639,40.0170051,0 -74.95145220000001,40.0173598,0 -74.9513226,40.0174264,0 -74.9511687,40.0175036,0 -74.9509302,40.0176214,0 -74.9508197,40.0176787,0 -74.9501628,40.0180083,0 -74.9483879,40.0188677,0 -74.9478589,40.0191374,0 -74.94624520000001,40.0199235,0 -74.9459231,40.0200847,0 -74.945481,40.020306,0 -74.944991,40.020554,0 -74.9444391,40.0208345,0 -74.94424530000001,40.020933,0 -74.94361600000001,40.021238,0 -74.94287919999999,40.0216116,0 -74.9425548,40.0217761,0 -74.9423532,40.0218783,0 -74.942054,40.02203,0 -74.9420008,40.0220602,0 -74.941213,40.022507,0 -74.941119,40.0225637,0 -74.938829,40.023945,0 -74.938692,40.024028,0 -74.938069,40.024429,0 -74.93723900000001,40.025028,0 -74.93519980000001,40.0266024,0 -74.935106,40.026675,0 -74.9349157,40.0268281,0 -74.93438810000001,40.0272391,0 -74.93435460000001,40.0272609,0 -74.93344500000001,40.027967,0 -74.9331377,40.0282195,0 -74.9330618,40.0282738,0 -74.9315314,40.0294459,0 -74.93143499999999,40.029525,0 -74.93123,40.029678,0 -74.930817,40.029984,0 -74.930395,40.030281,0 -74.930181,40.03043,0 -74.929963,40.030578,0 -74.929513,40.030862,0 -74.929283,40.030997,0 -74.929051,40.031132,0 -74.928817,40.031267,0 -74.928579,40.031393,0 -74.928341,40.031523,0 -74.928104,40.031649,0 -74.927634,40.031901,0 -74.927403,40.032027,0 -74.927173,40.032149,0 -74.926945,40.032275,0 -74.926722,40.032396,0 -74.92628000000001,40.032648,0 -74.9261711,40.0327092,0 -74.926063,40.03277,0 -74.92584600000001,40.032896,0 -74.925518,40.033081,0 -74.92541799999999,40.033139,0 -74.925206,40.03326,0 -74.92450359999999,40.0336589,0 -74.92429730000001,40.0337761,0 -74.9239212,40.0339923,0 -74.92361529999999,40.0341713,0 -74.92332,40.034344,0 -74.9230056,40.0345268,0 -74.92290199999999,40.034587,0 -74.92269400000001,40.034709,0 -74.922482,40.03483,0 -74.92224,40.03497,0 -74.922055,40.035073,0 -74.92162,40.035325,0 -74.9215878,40.0353432,0 -74.921189,40.035568,0 -74.920767,40.035811,0 -74.92055999999999,40.035928,0 -74.920355,40.03605,0 -74.920152,40.036167,0 -74.919951,40.036284,0 -74.91993119999999,40.0362951,0 -74.9197838,40.0363781,0 -74.919752,40.036396,0 -74.91955299999999,40.036513,0 -74.919352,40.036626,0 -74.91918459999999,40.0367188,0 -74.91915,40.036738,0 -74.918746,40.036972,0 -74.918544,40.037085,0 -74.918344,40.037202,0 -74.918144,40.037314,0 -74.917945,40.037431,0 -74.91736899999999,40.037764,0 -74.917185,40.037868,0 -74.917005,40.037971,0 -74.91682900000001,40.03807,0 -74.9168177,40.0380765,0 -74.916658,40.038169,0 -74.91649099999999,40.038263,0 -74.91636800000001,40.0383356,0 -74.91633,40.038358,0 -74.916174,40.038448,0 -74.91615229999999,40.0384609,0 -74.916023,40.038538,0 -74.9159111,40.0386081,0 -74.915873,40.038632,0 -74.91565,40.038767,0 -74.9148048,40.0393256,0 -74.9135304,40.0401457,0 -74.9125884,40.0407584,0 -74.91242320000001,40.040867,0 -74.9121988,40.0410145,0 -74.91218069999999,40.0410264,0 -74.9104293,40.0421778,0 -74.909666,40.0426777,0 -74.9095083,40.0427812,0 -74.9086367,40.0433415,0 -74.9084689,40.0434509,0 -74.90824739999999,40.0435963,0 -74.90780220000001,40.0438864,0 -74.9075801,40.044016,0 -74.9068451,40.0444941,0 -74.9056092,40.045298,0 -74.9050781,40.0456434,0 -74.90457840000001,40.0459652,0 -74.90441850000001,40.0460744,0 -74.9042827,40.0461607,0 -74.90411090000001,40.0462744,0 -74.9040054,40.0463442,0 -74.9038829,40.0464231,0 -74.9034624,40.0466942,0 -74.90220650000001,40.0475079,0 -74.902078,40.0475917,0 -74.90201980000001,40.0476297,0 -74.9017384,40.0478133,0 -74.9008219,40.0484113,0 -74.9002735,40.0487692,0 -74.90005979999999,40.0489086,0 -74.8994229,40.0493242,0 -74.89894889999999,40.0496335,0 -74.8981618,40.050147,0 -74.8973493,40.0506772,0 -74.8968505,40.0510026,0 -74.89671509999999,40.0510909,0 -74.8963217,40.0513476,0 -74.8955287,40.051865,0 -74.8951406,40.0521182,0 -74.894901,40.0522745,0 -74.89471450000001,40.0523963,0 -74.8945871,40.0524786,0 -74.8936319,40.0530959,0 -74.8935512,40.0531481,0 -74.8934957,40.053184,0 -74.8933001,40.0533104,0 -74.89317749999999,40.0533897,0 -74.89291059999999,40.0535621,0 -74.89237660000001,40.0539073,0 -74.89145310000001,40.0545042,0 -74.8912818,40.0546149,0 -74.89111320000001,40.0547239,0 -74.89072950000001,40.0549719,0 -74.89053800000001,40.0550956,0 -74.8903328,40.0552283,0 -74.8901611,40.0553393,0 -74.8893277,40.0558779,0 -74.8889992,40.0560902,0 -74.88825629999999,40.0565704,0 -74.8874957,40.0570619,0 -74.8873727,40.0571419,0 -74.8861847,40.0579149,0 -74.885859,40.0581266,0 -74.88558860000001,40.0583023,0 -74.8851427,40.058592,0 -74.88489869999999,40.0587506,0 -74.884506,40.0590057,0 -74.8843018,40.0591384,0 -74.88396160000001,40.0593594,0 -74.8837297,40.0595101,0 -74.8834004,40.0597241,0 -74.8827012,40.0601784,0 -74.8819464,40.0606587,0 -74.88091590000001,40.0613247,0 -74.88043089999999,40.0616388,0 -74.8786083,40.062819,0 -74.8785278,40.0628711,0 -74.87764369999999,40.0634435,0 -74.87752070000001,40.0635232,0 -74.8772847,40.063676,0 -74.87676279999999,40.064014,0 -74.8759328,40.0645513,0 -74.8753009,40.0649605,0 -74.8751221,40.0650719,0 -74.8748703,40.0652231,0 -74.87467959999999,40.0653259,0 -74.8744481,40.0654474,0 -74.87425039999999,40.0655502,0 -74.8741558,40.065601,0 -74.8739303,40.0657316,0 -74.8736827,40.0658874,0 -74.873456,40.0660275,0 -74.8728153,40.066441,0 -74.8722935,40.0667778,0 -74.8720063,40.0669631,0 -74.87171720000001,40.0671497,0 -74.8715534,40.0672562,0 -74.87123750000001,40.0674616,0 -74.87071419999999,40.0678039,0 -74.8700005,40.0682671,0 -74.8687506,40.0690782,0 -74.8674907,40.0698958,0 -74.8665019,40.0705375,0 -74.8663311,40.0706484,0 -74.86618369999999,40.0707441,0 -74.866004,40.0708547,0 -74.8658633,40.0709406,0 -74.86569350000001,40.0710288,0 -74.8655157,40.0711011,0 -74.865387,40.0711475,0 -74.86527479999999,40.0711863,0 -74.8651799,40.071217,0 -74.8648572,40.0712918,0 -74.86470780000001,40.0713128,0 -74.86459840000001,40.0713251,0 -74.8644992,40.0713335,0 -74.8643383,40.0713271,0 -74.864287,40.071325,0 -74.86411,40.071325,0 -74.86398250000001,40.0713214,0 -74.863935,40.07132,0 -74.86376300000001,40.071311,0 -74.86366940000001,40.0713056,0 -74.863434,40.071292,0 -74.86327799999999,40.071288,0 -74.863073,40.0712873,0 -74.86263700000001,40.071287,0 -74.8625706,40.0712871,0 -74.86198469999999,40.0712882,0 -74.8615629,40.071289,0 -74.86115409999999,40.0712898,0 -74.860429,40.071289,0 -74.859782,40.071274,0 -74.8597022,40.071274,0 -74.859624,40.071274,0 -74.859458,40.071269,0 -74.85942300000001,40.071269,0 -74.8593616,40.071269,0 -74.85915610000001,40.071269,0 -74.858773,40.071269,0 -74.858598,40.071273,0 -74.858507,40.071277,0 -74.858428,40.071277,0 -74.85826299999999,40.071286,0 -74.858101,40.071299,0 -74.8580833,40.0713005,0 -74.857941,40.071313,0 -74.857781,40.071331,0 -74.8576324,40.0713511,0 -74.857456,40.071375,0 -74.8570915,40.0714295,0 -74.856951,40.071456,0 -74.85688380000001,40.071468,0 -74.85677800000001,40.071487,0 -74.85660300000001,40.071514,0 -74.8565009,40.0715318,0 -74.8564283,40.0715445,0 -74.85624799999999,40.071576,0 -74.856206,40.0715823,0 -74.85606799999999,40.071603,0 -74.855885,40.071634,0 -74.855513,40.071706,0 -74.855462,40.071715,0 -74.85532499999999,40.071746,0 -74.8552272,40.0717697,0 -74.85488700000001,40.071852,0 -74.85473039999999,40.071892,0 -74.85467199999999,40.0719069,0 -74.854597,40.071926,0 -74.854535,40.071944,0 -74.854426,40.071975,0 -74.853696,40.072172,0 -74.853599,40.072195,0 -74.853556,40.072206,0 -74.85343399999999,40.07224,0 -74.853266,40.072284,0 -74.85321089999999,40.0723002,0 -74.85309599999999,40.072334,0 -74.85292200000001,40.072379,0 -74.8528556,40.0724004,0 -74.852746,40.072428,0 -74.8526684,40.0724514,0 -74.85256699999999,40.072482,0 -74.8525157,40.0724985,0 -74.85238699999999,40.07254,0 -74.85222400000001,40.0725974,0 -74.852208,40.072603,0 -74.852025,40.07267,0 -74.85185,40.072738,0 -74.851671,40.072814,0 -74.85155520000001,40.0728658,0 -74.85149,40.072895,0 -74.851377,40.072949,0 -74.851308,40.07298,0 -74.8511,40.073089,0 -74.850945,40.073173,0 -74.850762,40.073277,0 -74.850579,40.073389,0 -74.850393,40.073506,0 -74.85020400000001,40.073632,0 -74.850009,40.073753,0 -74.8499613,40.0737844,0 -74.84981000000001,40.073884,0 -74.84960599999999,40.074014,0 -74.849401,40.074149,0 -74.84901290000001,40.0744112,0 -74.8485033,40.0747314,0 -74.848401,40.074792,0 -74.84814110000001,40.0749531,0 -74.848009,40.075035,0 -74.84781099999999,40.075151,0 -74.84760900000001,40.075259,0 -74.847533,40.075297,0 -74.847401,40.075363,0 -74.847188,40.075461,0 -74.84697,40.07556,0 -74.84678599999999,40.075641,0 -74.846284,40.075857,0 -74.845866,40.076032,0 -74.845816,40.07605,0 -74.84558,40.076153,0 -74.84534499999999,40.076252,0 -74.845114,40.076355,0 -74.844886,40.076463,0 -74.84466500000001,40.076575,0 -74.84444999999999,40.076688,0 -74.84424,40.076809,0 -74.8441498,40.0768622,0 -74.8441419,40.0768669,0 -74.84403500000001,40.07693,0 -74.84374099999999,40.077115,0 -74.84363999999999,40.077187,0 -74.843451,40.077312,0 -74.84326799999999,40.077447,0 -74.843092,40.077582,0 -74.842921,40.077717,0 -74.84280560000001,40.0778131,0 -74.842759,40.077852,0 -74.84260399999999,40.077992,0 -74.842455,40.078131,0 -74.84231200000001,40.07827,0 -74.8422075,40.078373,0 -74.842175,40.078405,0 -74.842045,40.078545,0 -74.84192,40.078684,0 -74.841651,40.079017,0 -74.84156900000001,40.079121,0 -74.84141940000001,40.0793176,0 -74.8399412,40.0812392,0 -74.8397064,40.0815357,0 -74.8396281,40.0816365,0 -74.83953080000001,40.0817599,0 -74.8394859,40.0818102,0 -74.8393998,40.0819098,0 -74.8393215,40.0819946,0 -74.8392175,40.0821013,0 -74.83912359999999,40.0821914,0 -74.8389962,40.0823148,0 -74.8388702,40.0824347,0 -74.8386885,40.082592,0 -74.8385248,40.0827232,0 -74.83834830000001,40.0828645,0 -74.8382223,40.0829522,0 -74.8380748,40.083061,0 -74.8379813,40.0831249,0 -74.8378835,40.0831864,0 -74.83771729999999,40.0832907,0 -74.8375219,40.0834099,0 -74.8373295,40.0835191,0 -74.8371861,40.083595,0 -74.8369601,40.083709,0 -74.8368241,40.0837724,0 -74.8365451,40.0839066,0 -74.836336,40.0839987,0 -74.8360911,40.084104,0 -74.83585739999999,40.0842062,0 -74.8315417,40.086045,0 -74.8314433,40.086088,0 -74.83121199999999,40.086179,0 -74.83097100000001,40.086278,0 -74.830485,40.086484,0 -74.830241,40.086592,0 -74.82975,40.086798,0 -74.829504,40.086906,0 -74.8293996,40.086958,0 -74.8293786,40.0869657,0 -74.82926,40.087009,0 -74.82907609999999,40.0870881,0 -74.82877740000001,40.0872165,0 -74.82853900000001,40.087319,0 -74.82783000000001,40.087615,0 -74.8277423,40.0876521,0 -74.82736199999999,40.087813,0 -74.827127,40.087903,0 -74.826663,40.088109,0 -74.826432,40.088208,0 -74.8262749,40.0882746,0 -74.826201,40.088302,0 -74.82597199999999,40.088401,0 -74.825519,40.088589,0 -74.82507200000001,40.088778,0 -74.824973,40.088823,0 -74.824848,40.088877,0 -74.824395,40.089065,0 -74.82416600000001,40.089164,0 -74.82397400000001,40.089245,0 -74.82393399999999,40.089258,0 -74.823702,40.089357,0 -74.823471,40.08946,0 -74.823007,40.089658,0 -74.82277499999999,40.089757,0 -74.82254399999999,40.089851,0 -74.822315,40.08995,0 -74.822085,40.090044,0 -74.8220689,40.0900522,0 -74.821865,40.090147,0 -74.821641,40.090241,0 -74.821412,40.090336,0 -74.82118800000001,40.09043,0 -74.821112,40.090466,0 -74.820964,40.090524,0 -74.82074,40.090623,0 -74.8205911,40.0906856,0 -74.8203815,40.0907738,0 -74.82029300000001,40.090811,0 -74.8202421,40.0908334,0 -74.820043,40.090921,0 -74.819841,40.091004,0 -74.819614,40.091099,0 -74.81938700000001,40.091197,0 -74.81931950000001,40.0912282,0 -74.81910139999999,40.0913289,0 -74.818932,40.09139,0 -74.818701,40.091485,0 -74.81824,40.091682,0 -74.81800699999999,40.091785,0 -74.81773630000001,40.0918997,0 -74.817306,40.092082,0 -74.8171011,40.0921726,0 -74.81707299999999,40.092185,0 -74.81684,40.092284,0 -74.81661,40.092387,0 -74.81637499999999,40.092477,0 -74.815699,40.092764,0 -74.815482,40.092858,0 -74.815268,40.092952,0 -74.815057,40.093042,0 -74.81485000000001,40.093127,0 -74.81464800000001,40.093217,0 -74.81444999999999,40.093302,0 -74.814256,40.093383,0 -74.81406699999999,40.093468,0 -74.813884,40.093545,0 -74.81370800000001,40.093626,0 -74.813536,40.093697,0 -74.8133259,40.0937914,0 -74.813208,40.093841,0 -74.813051,40.093908,0 -74.812899,40.093976,0 -74.812478,40.094155,0 -74.812344,40.094213,0 -74.812028,40.094348,0 -74.811863,40.09442,0 -74.811688,40.094492,0 -74.811504,40.094572,0 -74.811314,40.094653,0 -74.810821,40.094869,0 -74.810709,40.094918,0 -74.8106047,40.0949629,0 -74.81029100000001,40.095098,0 -74.81008,40.095187,0 -74.809867,40.095282,0 -74.80943499999999,40.09547,0 -74.80931699999999,40.0955206,0 -74.808994,40.095659,0 -74.80877099999999,40.095753,0 -74.80854600000001,40.095851,0 -74.808319,40.095946,0 -74.807855,40.096143,0 -74.8078313,40.0961534,0 -74.807619,40.096246,0 -74.807558,40.0962715,0 -74.807382,40.096345,0 -74.807193,40.0964275,0 -74.807146,40.096448,0 -74.80667800000001,40.096646,0 -74.806445,40.096749,0 -74.806211,40.096848,0 -74.806189,40.0968575,0 -74.805972,40.096951,0 -74.805729,40.097054,0 -74.80547799999999,40.097162,0 -74.80522000000001,40.097269,0 -74.80495500000001,40.097382,0 -74.8045257,40.0975676,0 -74.804416,40.097615,0 -74.80415000000001,40.097727,0 -74.80399319999999,40.097796,0 -74.803884,40.097844,0 -74.8034902,40.0980124,0 -74.80336,40.098068,0 -74.8031,40.098176,0 -74.802843,40.098284,0 -74.802588,40.098396,0 -74.802334,40.098503,0 -74.802082,40.098611,0 -74.80183100000001,40.098714,0 -74.80171300000001,40.0987649,0 -74.801457,40.0988752,0 -74.80132999999999,40.09893,0 -74.801079,40.099042,0 -74.800826,40.09915,0 -74.800572,40.099257,0 -74.800316,40.099369,0 -74.800061,40.099477,0 -74.79980399999999,40.099589,0 -74.799662,40.099649,0 -74.7995627,40.0996904,0 -74.799547,40.099697,0 -74.799286,40.0998108,0 -74.79903299999999,40.099921,0 -74.79852,40.100137,0 -74.7983004,40.1002254,0 -74.798264,40.10024,0 -74.7980733,40.1003183,0 -74.798013,40.100343,0 -74.797765,40.100446,0 -74.797523,40.100545,0 -74.797287,40.100648,0 -74.797057,40.100747,0 -74.7967366,40.1009252,0 -74.7964893,40.1010308,0 -74.7960401,40.101224,0 -74.795615,40.1014053,0 -74.7951989,40.1015844,0 -74.79475290000001,40.1017745,0 -74.7945691,40.1018544,0 -74.79351200000001,40.1023001,0 -74.79243700000001,40.1027586,0 -74.79209779999999,40.1028855,0 -74.78981899999999,40.103851,0 -74.789433,40.1040218,0 -74.7886721,40.1043404,0 -74.7883276,40.1044901,0 -74.78580100000001,40.105563,0 -74.78530189999999,40.1057793,0 -74.7849765,40.1059235,0 -74.7842783,40.1062274,0 -74.7838048,40.106433,0 -74.78304540000001,40.1067598,0 -74.782905,40.106812,0 -74.782781,40.106865,0 -74.78269,40.106901,0 -74.782607,40.106942,0 -74.782532,40.106973,0 -74.782461,40.107004,0 -74.7823985,40.1070306,0 -74.782301,40.107072,0 -74.78219300000001,40.107121,0 -74.78203000000001,40.107193,0 -74.78193400000001,40.107233,0 -74.78183,40.107283,0 -74.781717,40.107327,0 -74.781592,40.107381,0 -74.781454,40.107439,0 -74.78129300000001,40.107511,0 -74.781111,40.107587,0 -74.78091999999999,40.107664,0 -74.780725,40.107749,0 -74.780525,40.10783,0 -74.780322,40.107919,0 -74.78011100000001,40.108009,0 -74.779895,40.108103,0 -74.7798214,40.1081343,0 -74.77973780000001,40.1081699,0 -74.77945099999999,40.108292,0 -74.77941559999999,40.1083075,0 -74.778775,40.108588,0 -74.778316,40.108785,0 -74.778082,40.108884,0 -74.777843,40.108987,0 -74.777599,40.109094,0 -74.777216,40.10926,0 -74.776831,40.109426,0 -74.77676390000001,40.1094557,0 -74.776578,40.109538,0 -74.776314,40.109646,0 -74.776059,40.109758,0 -74.77580399999999,40.109866,0 -74.7756708,40.1099211,0 -74.775567,40.109964,0 -74.77529800000001,40.110077,0 -74.775043,40.110207,0 -74.774947,40.110248,0 -74.774523,40.110431,0 -74.774317,40.110513,0 -74.774254,40.110538,0 -74.773734,40.110763,0 -74.77348000000001,40.110875,0 -74.77323199999999,40.110987,0 -74.77298999999999,40.11109,0 -74.7728441,40.1111539,0 -74.77257899999999,40.1112701,0 -74.77252900000001,40.111292,0 -74.772307,40.111391,0 -74.772222,40.1114283,0 -74.772093,40.111485,0 -74.77188200000001,40.111574,0 -74.7718157,40.1116049,0 -74.77171749999999,40.1116495,0 -74.771675,40.111669,0 -74.771468,40.111758,0 -74.77104799999999,40.111947,0 -74.770844,40.112036,0 -74.770642,40.112126,0 -74.770442,40.112211,0 -74.7703277,40.1122603,0 -74.770245,40.112296,0 -74.770115,40.1123557,0 -74.770049,40.112386,0 -74.76986599999999,40.112467,0 -74.769659,40.112557,0 -74.769565,40.112599,0 -74.7694066,40.1126799,0 -74.76925,40.112736,0 -74.769036,40.112821,0 -74.76881899999999,40.112906,0 -74.76859899999999,40.112987,0 -74.76837399999999,40.113068,0 -74.768147,40.113144,0 -74.76791900000001,40.113215,0 -74.767689,40.113282,0 -74.767459,40.113345,0 -74.767233,40.113412,0 -74.767098,40.1134552,0 -74.767008,40.113484,0 -74.76692989999999,40.1135077,0 -74.76678699999999,40.113551,0 -74.76659429999999,40.1136176,0 -74.76637359999999,40.113699,0 -74.7659932,40.1138377,0 -74.7630394,40.1148788,0 -74.7577574,40.1168324,0 -74.75714290000001,40.1170464,0 -74.7565465,40.1172518,0 -74.75559459999999,40.1175752,0 -74.75510540000001,40.117758,0 -74.7548276,40.1178629,0 -74.75454480000001,40.1179754,0 -74.754012,40.1181967,0 -74.75355399999999,40.1183932,0 -74.7531001,40.1186012,0 -74.7524062,40.1189251,0 -74.7504507,40.1198452,0 -74.7503585,40.1198886,0 -74.7485846,40.1207233,0 -74.7482517,40.120879,0 -74.7479404,40.1210249,0 -74.74762339999999,40.1211682,0 -74.7472769,40.121322,0 -74.7469572,40.1214625,0 -74.7465936,40.1216175,0 -74.74593350000001,40.1218959,0 -74.7456794,40.122007,0 -74.74537530000001,40.122141,0 -74.7450655,40.1222845,0 -74.7448821,40.122373,0 -74.7447288,40.1224516,0 -74.74448700000001,40.1225738,0 -74.7441843,40.1227311,0 -74.7439298,40.1228715,0 -74.7436951,40.1230011,0 -74.74347950000001,40.1231264,0 -74.7432165,40.1232824,0 -74.74156259999999,40.1242833,0 -74.7412618,40.1244677,0 -74.7409461,40.1246639,0 -74.74070279999999,40.1248236,0 -74.74050080000001,40.1249617,0 -74.7402912,40.1251051,0 -74.73999190000001,40.1253171,0 -74.73954449999999,40.1256409,0 -74.7393106,40.1258138,0 -74.7391204,40.125942,0 -74.73893289999999,40.1260568,0 -74.7387667,40.1261571,0 -74.7385781,40.1262542,0 -74.7384211,40.1263361,0 -74.7377936,40.1266384,0 -74.73775019999999,40.1266609,0 -74.73762410000001,40.1267264,0 -74.737179,40.12693,0 -74.73694999999999,40.127028,0 -74.73671400000001,40.127122,0 -74.73647,40.127221,0 -74.736221,40.127315,0 -74.735966,40.127418,0 -74.73570599999999,40.127517,0 -74.7356039,40.1275568,0 -74.73544200000001,40.12762,0 -74.7353713,40.1276484,0 -74.735176,40.127727,0 -74.734914,40.127835,0 -74.734641,40.127938,0 -74.73437300000001,40.128041,0 -74.73410800000001,40.128144,0 -74.73384900000001,40.128251,0 -74.7337193,40.1283022,0 -74.73355309999999,40.1283654,0 -74.7329903,40.1285835,0 -74.732817,40.12865,0 -74.73257,40.128744,0 -74.73233,40.128842,0 -74.73209300000001,40.128932,0 -74.73186200000001,40.129026,0 -74.73163700000001,40.129111,0 -74.731419,40.129196,0 -74.73120900000001,40.129281,0 -74.73100700000001,40.129357,0 -74.73062899999999,40.129505,0 -74.73045399999999,40.129577,0 -74.73029,40.129639,0 -74.73000399999999,40.129751,0 -74.7281352,40.130492,0 -74.727835,40.130611,0 -74.727615,40.130696,0 -74.72658970000001,40.1311004,0 -74.72615999999999,40.131256,0 -74.725904,40.131354,0 -74.7257604,40.1314118,0 -74.72564800000001,40.131457,0 -74.725392,40.131556,0 -74.725138,40.131659,0 -74.72488800000001,40.131757,0 -74.724771,40.131807,0 -74.724645,40.131856,0 -74.724407,40.131946,0 -74.724175,40.132035,0 -74.723949,40.132125,0 -74.723727,40.13221,0 -74.723511,40.13229,0 -74.722892,40.132528,0 -74.722696,40.132608,0 -74.722505,40.13268,0 -74.722463,40.132698,0 -74.722319,40.132756,0 -74.72213499999999,40.132828,0 -74.721962,40.132899,0 -74.721358,40.133146,0 -74.720288,40.133573,0 -74.71913670000001,40.1340412,0 -74.71591429999999,40.1353191,0 -74.71564050000001,40.1354264,0 -74.7143684,40.1359256,0 -74.7135731,40.1362597,0 -74.7131783,40.1364404,0 -74.71240330000001,40.1368091,0 -74.71189409999999,40.1370806,0 -74.7092335,40.1384671,0 -74.709029,40.1385737,0 -74.7079304,40.1391462,0 -74.70739380000001,40.1394259,0 -74.7068041,40.1397332,0 -74.70633669999999,40.1399905,0 -74.706199,40.1400663,0 -74.7058692,40.1402478,0 -74.7054327,40.1404838,0 -74.70504149999999,40.1406953,0 -74.7048456,40.1408155,0 -74.70458309999999,40.1409701,0 -74.70434950000001,40.1411337,0 -74.7043027,40.1411676,0 -74.70417430000001,40.1412606,0 -74.703982,40.1414071,0 -74.7038076,40.1415509,0 -74.703654,40.141686,0 -74.7035855,40.141747,0 -74.70348799999999,40.1418544,0 -74.70337309999999,40.1419889,0 -74.70327159999999,40.1421189,0 -74.7032464,40.1421511,0 -74.7031415,40.1423109,0 -74.70303850000001,40.1424789,0 -74.7029649,40.1426158,0 -74.7029149,40.1427088,0 -74.702821,40.1429066,0 -74.7025465,40.1434528,0 -74.7024498,40.1436403,0 -74.7022929,40.1439253,0 -74.7021275,40.1444194,0 -74.7020795,40.1445687,0 -74.7019938,40.1448352,0 -74.7019571,40.1449611,0 -74.70190959999999,40.1451665,0 -74.701848,40.1453295,0 -74.70181839999999,40.1454242,0 -74.7017342,40.1456939,0 -74.70171910000001,40.1457423,0 -74.701599,40.1461269,0 -74.7015395,40.1463176,0 -74.70150839999999,40.1464171,0 -74.7014114,40.1467281,0 -74.70119099999999,40.147434,0 -74.7008666,40.1485032,0 -74.7007377,40.1489278,0 -74.7006997,40.1490529,0 -74.7005635,40.1495019,0 -74.7003919,40.1499611,0 -74.70032209999999,40.1502235,0 -74.7002792,40.1504818,0 -74.7002846,40.1510067,0 -74.7002631,40.151306,0 -74.7002148,40.1515479,0 -74.7001183,40.1518431,0 -74.6999788,40.1521219,0 -74.6998232,40.1523311,0 -74.6996408,40.1525484,0 -74.69931099999999,40.1528742,0 -74.69912960000001,40.1530365,0 -74.6984715,40.1535584,0 -74.69843,40.153594,0 -74.69824060000001,40.1537564,0 -74.6979267,40.154033,0 -74.69766920000001,40.1543178,0 -74.6974431,40.1546041,0 -74.6963863,40.1561095,0 -74.69620190000001,40.1563739,0 -74.6957194,40.1570224,0 -74.6954293,40.1574124,0 -74.69529729999999,40.1575938,0 -74.694362,40.1588784,0 -74.69419790000001,40.1590836,0 -74.69395780000001,40.1593839,0 -74.69391210000001,40.159441,0 -74.6930588,40.1605114,0 -74.6929001,40.16071,0 -74.6925028,40.1612287,0 -74.6923661,40.1613892,0 -74.69125649999999,40.1628004,0 -74.6907192,40.1634643,0 -74.6899899,40.1643655,0 -74.68982149999999,40.1645736,0 -74.68968340000001,40.1647443,0 -74.6896371,40.1648016,0 -74.6894053,40.1650879,0 -74.6892367,40.1652963,0 -74.6889183,40.1656897,0 -74.688754,40.1658926,0 -74.6885305,40.1661688,0 -74.688018,40.1668022,0 -74.68732799999999,40.1676547,0 -74.68702879999999,40.1680244,0 -74.6868429,40.1682834,0 -74.6867692,40.168373,0 -74.6866036,40.1685378,0 -74.6865138,40.1686311,0 -74.68633680000001,40.1688074,0 -74.685954,40.1691427,0 -74.6858167,40.1692396,0 -74.6854336,40.1695427,0 -74.6852566,40.1696828,0 -74.6843543,40.1703422,0 -74.6838085,40.1707193,0 -74.6835205,40.1709173,0 -74.6829917,40.1712809,0 -74.6818008,40.1721827,0 -74.6801066,40.1734217,0 -74.67977329999999,40.1736474,0 -74.6796176,40.173748,0 -74.67942499999999,40.1738639,0 -74.6793461,40.173915,0 -74.6786077,40.1743355,0 -74.678256,40.1745182,0 -74.67801110000001,40.1746342,0 -74.6777786,40.1747436,0 -74.67737839999999,40.1749167,0 -74.6768519,40.175129,0 -74.6764752,40.1752684,0 -74.6761549,40.1753783,0 -74.67591760000001,40.1754561,0 -74.6757544,40.1755077,0 -74.67556190000001,40.1755658,0 -74.6754318,40.1756024,0 -74.6750962,40.1756946,0 -74.6743918,40.1758933,0 -74.671988,40.176542,0 -74.67155,40.176668,0 -74.67111800000001,40.176805,0 -74.670692,40.176953,0 -74.67027299999999,40.177113,0 -74.66986199999999,40.177284,0 -74.669344,40.177521,0 -74.668966,40.17771,0 -74.66859599999999,40.17791,0 -74.668235,40.178119,0 -74.666808,40.179008,0 -74.66629589999999,40.1793213,0 -74.66559700000001,40.179749,0 -74.664142,40.18064,0 -74.663809,40.180843,0 -74.663605,40.180974,0 -74.663201,40.181248,0 -74.6630799,40.1813359,0 -74.662811,40.181531,0 -74.662434,40.181826,0 -74.662041,40.182155,0 -74.661765,40.182396,0 -74.661494,40.182641,0 -74.66122900000001,40.18289,0 -74.6605923,40.1835478,0 -74.6601531,40.1840014,0 -74.6597915,40.1843566,0 -74.6594916,40.1846253,0 -74.6590915,40.1849611,0 -74.6585348,40.1854118,0 -74.6581975,40.1856431,0 -74.6577666,40.185942,0 -74.6576668,40.1860065,0 -74.6573204,40.1862256,0 -74.65723149999999,40.1862824,0 -74.6566045,40.1866658,0 -74.65613860000001,40.1869495,0 -74.655232,40.1875152,0 -74.65501329999999,40.1876503,0 -74.6547504,40.1878142,0 -74.65455919999999,40.1879311,0 -74.65308709999999,40.1888318,0 -74.6526788,40.1890837,0 -74.6522836,40.189332,0 -74.6522291,40.1893663,0 -74.65186199999999,40.1895953,0 -74.6515551,40.1897841,0 -74.6509734,40.1901459,0 -74.6500491,40.1907228,0 -74.6492751,40.1912099,0 -74.6485519,40.1916759,0 -74.6475732,40.1922966,0 -74.6472392,40.1925095,0 -74.64667300000001,40.1928519,0 -74.646344,40.193053,0 -74.6461515,40.1931759,0 -74.645376,40.193671,0 -74.64457299999999,40.19417,0 -74.6444757,40.1942317,0 -74.6433315,40.1949788,0 -74.6431079,40.1951504,0 -74.64289359999999,40.1953118,0 -74.64237679999999,40.1957576,0 -74.6416783,40.1964033,0 -74.6414384,40.196639,0 -74.6412818,40.1967902,0 -74.6408089,40.1972571,0 -74.6399663,40.198098,0 -74.6399078,40.1981595,0 -74.6397891,40.1982747,0 -74.63963080000001,40.1984231,0 -74.6394767,40.1985697,0 -74.63837599999999,40.199617,0 -74.638209,40.199781,0 -74.63779,40.200158,0 -74.637044,40.200867,0 -74.6361936,40.2017389,0 -74.635541,40.202329,0 -74.635533,40.202339,0 -74.6354044,40.2024772,0 -74.6341966,40.2036326,0 -74.6335979,40.2042222,0 -74.6327465,40.2050338,0 -74.6324114,40.2053478,0 -74.6320345,40.2056929,0 -74.631541,40.2061555,0 -74.63011,40.207476,0 -74.6300633,40.207524,0 -74.6296595,40.2079388,0 -74.6295525,40.2080488,0 -74.6290999,40.2084658,0 -74.6288144,40.2087315,0 -74.62786,40.2095629,0 -74.62690499999999,40.210378,0 -74.6268214,40.2104491,0 -74.626784,40.210481,0 -74.626638,40.2106049,0 -74.62644,40.210773,0 -74.625485,40.2115825,0 -74.625196,40.2118275,0 -74.62420539999999,40.2126673,0 -74.62367500000001,40.213117,0 -74.62280199999999,40.213917,0 -74.622789,40.213928,0 -74.62247549999999,40.2142371,0 -74.62220259999999,40.2145063,0 -74.62193360000001,40.2147442,0 -74.6214234,40.2151583,0 -74.6211057,40.2154292,0 -74.621022,40.215496,0 -74.620831,40.215649,0 -74.6205698,40.215845,0 -74.62044760000001,40.2159658,0 -74.6202232,40.2161251,0 -74.62001840000001,40.2162621,0 -74.619703,40.216495,0 -74.6193857,40.2167352,0 -74.61920309999999,40.2168745,0 -74.6188417,40.2171674,0 -74.618459,40.217482,0 -74.6182688,40.2176431,0 -74.6181308,40.2177599,0 -74.61744710000001,40.2183388,0 -74.6173579,40.2184144,0 -74.616854,40.218841,0 -74.61644219999999,40.2191793,0 -74.6160383,40.2195111,0 -74.6155181,40.2199385,0 -74.61448900000001,40.220784,0 -74.614345,40.220903,0 -74.61414600000001,40.221053,0 -74.61393,40.221189,0 -74.613176,40.221595,0 -74.612458,40.221981,0 -74.6118553,40.2222979,0 -74.608999,40.2238,0 -74.6067086,40.2250148,0 -74.60411000000001,40.226393,0 -74.6026525,40.2271638,0 -74.597993,40.229628,0 -74.59748930000001,40.2298985,0 -74.596153,40.230616,0 -74.595708,40.230873,0 -74.594606,40.231527,0 -74.5942919,40.2317166,0 -74.59383560000001,40.231992,0 -74.59279309999999,40.2326213,0 -74.5920591,40.2330643,0 -74.591725,40.233266,0 -74.5915309,40.2333846,0 -74.59149480000001,40.2334067,0 -74.5913036,40.2335235,0 -74.5911687,40.233606,0 -74.590897,40.233772,0 -74.5890234,40.2349169,0 -74.5888219,40.2350401,0 -74.58841030000001,40.2352916,0 -74.5882764,40.2353735,0 -74.58745399999999,40.235876,0 -74.5871587,40.2360731,0 -74.586962,40.236202,0 -74.586628,40.236405,0 -74.58659489999999,40.2364247,0 -74.58628400000001,40.236598,0 -74.5859567,40.2367682,0 -74.58576600000001,40.236869,0 -74.5854472,40.2370375,0 -74.58506490000001,40.237237,0 -74.5847395,40.2374068,0 -74.5843387,40.2376168,0 -74.5841296,40.2377263,0 -74.58380889999999,40.2378944,0 -74.58301160000001,40.2383121,0 -74.5825317,40.2385635,0 -74.58228990000001,40.2386902,0 -74.582024,40.2388295,0 -74.58180539999999,40.238944,0 -74.58143699999999,40.239137,0 -74.58093580000001,40.2393982,0 -74.5807413,40.2394995,0 -74.5804335,40.2396599,0 -74.5802092,40.2397768,0 -74.5796947,40.2400448,0 -74.5792118,40.2403099,0 -74.5777772,40.2410476,0 -74.577077,40.241409,0 -74.5768903,40.2415103,0 -74.576797,40.241561,0 -74.576509,40.241723,0 -74.575946,40.242058,0 -74.575397,40.242409,0 -74.575129,40.242589,0 -74.57510569999999,40.2426053,0 -74.574866,40.242773,0 -74.574606,40.242961,0 -74.5744873,40.2430513,0 -74.5741,40.243346,0 -74.57397450000001,40.2434466,0 -74.573919,40.2434911,0 -74.573853,40.243544,0 -74.573611,40.243745,0 -74.573374,40.243949,0 -74.572913,40.244367,0 -74.5718562,40.2453784,0 -74.5717111,40.2455207,0 -74.57148460000001,40.2457317,0 -74.5708044,40.2463715,0 -74.5705552,40.2466002,0 -74.5703554,40.2467837,0 -74.57011559999999,40.2469914,0 -74.5698302,40.2472316,0 -74.5693407,40.2476184,0 -74.5690123,40.2478687,0 -74.56860020000001,40.2481635,0 -74.56814799999999,40.2484646,0 -74.56780329999999,40.2486802,0 -74.5675407,40.2488429,0 -74.5672402,40.2490207,0 -74.56691050000001,40.2492151,0 -74.56653249999999,40.249415,0 -74.56597979999999,40.2496929,0 -74.56475090000001,40.2502726,0 -74.56424699999999,40.250518,0 -74.56379269999999,40.2507393,0 -74.563631,40.250818,0 -74.5635783,40.2508432,0 -74.5630639,40.2510962,0 -74.56268,40.2512741,0 -74.562555,40.251332,0 -74.561674,40.251752,0 -74.560855,40.252119,0 -74.558027,40.253401,0 -74.5561209,40.2542792,0 -74.554613,40.254974,0 -74.5541047,40.2552353,0 -74.55322,40.25569,0 -74.55287800000001,40.255879,0 -74.552544,40.256078,0 -74.552162,40.2563304,0 -74.5516899,40.2566415,0 -74.551418,40.256848,0 -74.551124,40.257079,0 -74.55084100000001,40.257318,0 -74.550569,40.257564,0 -74.550309,40.257818,0 -74.55006,40.258078,0 -74.549823,40.258345,0 -74.549598,40.258618,0 -74.549386,40.258897,0 -74.549187,40.259181,0 -74.549001,40.259471,0 -74.54882569999999,40.2597691,0 -74.54876470000001,40.2598864,0 -74.5486875,40.2600329,0 -74.5486243,40.2601569,0 -74.548534,40.260329,0 -74.5484143,40.2606308,0 -74.548306,40.260918,0 -74.54818400000001,40.261211,0 -74.54805500000001,40.261503,0 -74.54802960000001,40.2615575,0 -74.54799610000001,40.2616295,0 -74.54796760000001,40.2616906,0 -74.5479593,40.2617084,0 -74.54792,40.261793,0 -74.5478718,40.2618919,0 -74.54777799999999,40.262081,0 -74.54776,40.262116,0 -74.547629,40.262367,0 -74.54747399999999,40.262651,0 -74.5473763,40.2628228,0 -74.54732989999999,40.2629043,0 -74.547313,40.262934,0 -74.5471895,40.2631426,0 -74.546969,40.263515,0 -74.5467302,40.2638492,0 -74.5467117,40.2638751,0 -74.5465421,40.2640995,0 -74.54645910000001,40.2642093,0 -74.5461639,40.2646063,0 -74.545934,40.264892,0 -74.54573600000001,40.265133,0 -74.545485,40.265426,0 -74.54529359999999,40.2656252,0 -74.54510380000001,40.2658226,0 -74.5446194,40.2663247,0 -74.54449870000001,40.2664495,0 -74.54428009999999,40.2666756,0 -74.5441958,40.2667628,0 -74.54383869999999,40.2671322,0 -74.543693,40.2672829,0 -74.54309910000001,40.2678989,0 -74.54290589999999,40.2681035,0 -74.54276059999999,40.2682544,0 -74.54255670000001,40.268466,0 -74.54237209999999,40.2686577,0 -74.542261,40.268773,0 -74.5421261,40.2689134,0 -74.5420281,40.2690176,0 -74.5418504,40.2692003,0 -74.5417626,40.2692918,0 -74.5415702,40.2694921,0 -74.54110470000001,40.2699767,0 -74.54009000000001,40.271033,0 -74.5399857,40.271139,0 -74.5396712,40.2714649,0 -74.5395156,40.2716261,0 -74.53860469999999,40.2725429,0 -74.538577,40.272571,0 -74.5383561,40.2728103,0 -74.5382419,40.272934,0 -74.5381758,40.2730067,0 -74.538088,40.2731002,0 -74.53793520000001,40.2732649,0 -74.5377448,40.2734702,0 -74.5375311,40.2737005,0 -74.536856,40.2744481,0 -74.5367258,40.2745835,0 -74.5364457,40.2748817,0 -74.5362319,40.2751086,0 -74.535785,40.2755829,0 -74.535758,40.275612,0 -74.5356271,40.2757496,0 -74.535549,40.2758317,0 -74.53447269999999,40.2769965,0 -74.53436050000001,40.277121,0 -74.5338766,40.2776396,0 -74.5337732,40.2777505,0 -74.5335596,40.2779793,0 -74.53346670000001,40.2780788,0 -74.5333787,40.2781731,0 -74.5330992,40.2784727,0 -74.5322613,40.2793705,0 -74.531727,40.279943,0 -74.5299328,40.2818817,0 -74.5292171,40.282655,0 -74.5269969,40.2850451,0 -74.5260206,40.2860961,0 -74.52561849999999,40.2865269,0 -74.52530419999999,40.2868639,0 -74.52521179999999,40.286963,0 -74.5248493,40.2873537,0 -74.5247265,40.2874854,0 -74.52372370000001,40.2885249,0 -74.523712,40.288537,0 -74.5220997,40.290223,0 -74.52198060000001,40.2903491,0 -74.5217572,40.2905967,0 -74.52157149999999,40.2908254,0 -74.52133240000001,40.2911605,0 -74.5210273,40.2916337,0 -74.5208567,40.2918728,0 -74.52070329999999,40.2920418,0 -74.52055559999999,40.2921813,0 -74.5204978,40.2922379,0 -74.52032269999999,40.2924007,0 -74.5201122,40.2925721,0 -74.51960029999999,40.292996,0 -74.5192279,40.2933818,0 -74.5191454,40.2934673,0 -74.51872659999999,40.293916,0 -74.51683319999999,40.2959446,0 -74.5142409,40.2987219,0 -74.51362399999999,40.2994583,0 -74.51280800000001,40.3006463,0 -74.51276439999999,40.3007097,0 -74.5127078,40.3008063,0 -74.51240009999999,40.3013358,0 -74.5123416,40.3014366,0 -74.5123033,40.3015025,0 -74.5118538,40.3023795,0 -74.51147829999999,40.3032836,0 -74.5111122,40.3044363,0 -74.5109525,40.3051327,0 -74.51076209999999,40.3061462,0 -74.5106148,40.3068834,0 -74.5105315,40.3071687,0 -74.5099306,40.3104165,0 -74.5098824,40.3106642,0 -74.5094965,40.3126917,0 -74.509468,40.3128439,0 -74.50944680000001,40.3129575,0 -74.50935389999999,40.3134724,0 -74.5092623,40.3139606,0 -74.5091589,40.3145114,0 -74.5090699,40.3149854,0 -74.5089935,40.315392,0 -74.5089478,40.3156354,0 -74.5088872,40.3159583,0 -74.5088485,40.3161775,0 -74.508764,40.3166556,0 -74.5086826,40.3171163,0 -74.5083454,40.3187542,0 -74.5081034,40.3199993,0 -74.5079255,40.3209145,0 -74.5078941,40.3210759,0 -74.50787870000001,40.3211551,0 -74.5070862,40.3253552,0 -74.50685780000001,40.3264576,0 -74.50672779999999,40.3270413,0 -74.50667369999999,40.3273052,0 -74.5065537,40.3278092,0 -74.50640199999999,40.3283263,0 -74.50636059999999,40.3284676,0 -74.5060512,40.3295522,0 -74.50599889999999,40.3297355,0 -74.5058526,40.3302481,0 -74.50578659999999,40.3304796,0 -74.5057379,40.3306217,0 -74.5055229,40.3312419,0 -74.5054013,40.3315926,0 -74.50533059999999,40.3317964,0 -74.5051127,40.33235,0 -74.5045494,40.3337704,0 -74.50439040000001,40.3341036,0 -74.50427380000001,40.3343481,0 -74.50370580000001,40.3354573,0 -74.50361289999999,40.3356403,0 -74.50240700000001,40.3379792,0 -74.5018178,40.3391522,0 -74.5016686,40.3394378,0 -74.5012073,40.3403676,0 -74.5011021,40.340577,0 -74.50094199999999,40.3408957,0 -74.5008648,40.3410495,0 -74.50082260000001,40.3411335,0 -74.5007517,40.3412746,0 -74.50050899999999,40.3417539,0 -74.5002901,40.3421863,0 -74.50021649999999,40.3423316,0 -74.4998643,40.3430412,0 -74.4996886,40.3433904,0 -74.4990581,40.3446433,0 -74.4989703,40.3448177,0 -74.4988599,40.3450371,0 -74.49865869999999,40.3454824,0 -74.49856219999999,40.3457277,0 -74.4982483,40.3464903,0 -74.49804589999999,40.3470523,0 -74.49794919999999,40.3473342,0 -74.4974503,40.3488918,0 -74.4969983,40.3503182,0 -74.4969689,40.350411,0 -74.4967772,40.3510166,0 -74.4962111,40.3527552,0 -74.49535280000001,40.3554818,0 -74.4952402,40.3561277,0 -74.4952133,40.3566919,0 -74.49523480000001,40.3572355,0 -74.4953582,40.3580449,0 -74.4955298,40.3586172,0 -74.49572999999999,40.359104,0 -74.4957793,40.359224,0 -74.49584350000001,40.35938,0 -74.4960865,40.3599709,0 -74.49616829999999,40.3601668,0 -74.496464,40.3608452,0 -74.4965961,40.3611426,0 -74.4975262,40.3635037,0 -74.4982842,40.3655071,0 -74.4984419,40.3659232,0 -74.4994244,40.3683453,0 -74.49976770000001,40.3692812,0 -74.4999528,40.3699351,0 -74.500051,40.3703643,0 -74.5001413,40.3707585,0 -74.5003914,40.3718509,0 -74.5005173,40.3726577,0 -74.5006206,40.3733196,0 -74.5006434,40.3734657,0 -74.50072609999999,40.3739957,0 -74.5008835,40.3749252,0 -74.50111149999999,40.3765651,0 -74.5011666,40.3769615,0 -74.50135969999999,40.3780976,0 -74.5016816,40.3795033,0 -74.50170300000001,40.37963,0 -74.5018948,40.3803472,0 -74.50201989999999,40.3807664,0 -74.5021012,40.3810387,0 -74.5022958,40.3815708,0 -74.5024035,40.3819162,0 -74.5024446,40.382048,0 -74.5026076,40.3825021,0 -74.50268939999999,40.3827297,0 -74.50300420000001,40.3836064,0 -74.50456010000001,40.3881421,0 -74.5046931,40.38853,0 -74.5048613,40.3890202,0 -74.5057863,40.3916663,0 -74.5070516,40.3952858,0 -74.507412,40.3962382,0 -74.5076534,40.396945,0 -74.507868,40.3977131,0 -74.5081031,40.398791,0 -74.50823250000001,40.3995223,0 -74.5083183,40.4002903,0 -74.5083892,40.4011473,0 -74.50840410000001,40.4013279,0 -74.50840650000001,40.4014773,0 -74.5084105,40.4017331,0 -74.5084056,40.4022959,0 -74.50840410000001,40.4024636,0 -74.5084075,40.4026347,0 -74.5083934,40.4032316,0 -74.50835050000001,40.4038607,0 -74.50827150000001,40.4044807,0 -74.508211,40.4049554,0 -74.5080961,40.4056841,0 -74.508065,40.4058248,0 -74.50797609999999,40.4062488,0 -74.5078001,40.406975,0 -74.5075834,40.4077307,0 -74.5074249,40.4082226,0 -74.5071799,40.408894,0 -74.5068679,40.4096611,0 -74.50660689999999,40.4102432,0 -74.5065537,40.4103724,0 -74.5063755,40.410723,0 -74.5061056,40.4112619,0 -74.5060316,40.4114126,0 -74.5059388,40.4115976,0 -74.50561310000001,40.4122092,0 -74.5053995,40.4125561,0 -74.5052664,40.4127544,0 -74.5049495,40.4131901,0 -74.50474010000001,40.4134441,0 -74.5045178,40.4136981,0 -74.50407,40.4142036,0 -74.50319210000001,40.4151755,0 -74.50277319999999,40.4156392,0 -74.5023379,40.4161209,0 -74.5021437,40.4163358,0 -74.50212809999999,40.416356,0 -74.500996,40.4176132,0 -74.50027110000001,40.418401,0 -74.5000893,40.4185977,0 -74.4991776,40.4196233,0 -74.498994,40.4198136,0 -74.49858020000001,40.4202879,0 -74.4980511,40.4209424,0 -74.49762200000001,40.4216163,0 -74.49726250000001,40.4223146,0 -74.496814,40.4233477,0 -74.4966295,40.4237726,0 -74.4962218,40.4246301,0 -74.4958946,40.4251284,0 -74.4957886,40.4252764,0 -74.4951774,40.4261294,0 -74.49502699999999,40.4263394,0 -74.494765,40.426705,0 -74.494736,40.4267501,0 -74.494646,40.42689,0 -74.4945785,40.4269989,0 -74.49443650000001,40.4272132,0 -74.49416189999999,40.4276275,0 -74.4940483,40.4277796,0 -74.4938508,40.428044,0 -74.4936684,40.428236,0 -74.4932714,40.4286851,0 -74.4919625,40.4299755,0 -74.4917195,40.4302203,0 -74.490993,40.4309523,0 -74.4904873,40.4314618,0 -74.4901571,40.431789,0 -74.4900402,40.4319048,0 -74.4895271,40.4324132,0 -74.489149,40.4327908,0 -74.4888483,40.433091,0 -74.4887083,40.4332308,0 -74.48846,40.4334787,0 -74.4883576,40.433581,0 -74.4875851,40.4342303,0 -74.48726499999999,40.4344478,0 -74.4871835,40.4344991,0 -74.4870701,40.4345855,0 -74.48678580000001,40.434806,0 -74.4856432,40.4355818,0 -74.4853834,40.4357461,0 -74.4846653,40.4362001,0 -74.484565,40.4362636,0 -74.48418270000001,40.4365002,0 -74.4827737,40.4373725,0 -74.4826188,40.4374684,0 -74.4824823,40.437553,0 -74.481639,40.438075,0 -74.48039679999999,40.438844,0 -74.4801082,40.4390154,0 -74.47823289999999,40.4401292,0 -74.4778067,40.440348,0 -74.4773598,40.4405769,0 -74.4770393,40.440741,0 -74.4768959,40.4408145,0 -74.4767966,40.4408653,0 -74.4764236,40.4410563,0 -74.4762072,40.4411672,0 -74.4758016,40.441378,0 -74.47552349999999,40.4415225,0 -74.4752336,40.4416731,0 -74.47504549999999,40.4417709,0 -74.474824,40.4418859,0 -74.47438990000001,40.4421115,0 -74.47413520000001,40.4422439,0 -74.47392139999999,40.4423544,0 -74.4738715,40.4423802,0 -74.47332059999999,40.4426649,0 -74.4731223,40.4427674,0 -74.472656,40.4430084,0 -74.4723609,40.4431421,0 -74.4722785,40.4431795,0 -74.4720161,40.4432984,0 -74.47172930000001,40.4434284,0 -74.4702581,40.4441189,0 -74.46898210000001,40.4447097,0 -74.46860049999999,40.4448864,0 -74.4678634,40.4452752,0 -74.4678286,40.4452936,0 -74.46746349999999,40.4455292,0 -74.4672056,40.4456926,0 -74.46710539999999,40.4457636,0 -74.46675930000001,40.4460091,0 -74.46654049999999,40.4461642,0 -74.46587529999999,40.4466949,0 -74.4655427,40.4469929,0 -74.46530389999999,40.4472094,0 -74.4649258,40.4475522,0 -74.46473930000001,40.4477466,0 -74.4646948,40.4477996,0 -74.46451450000001,40.4479928,0 -74.4643039,40.4481751,0 -74.464207,40.4482609,0 -74.4640617,40.4483894,0 -74.4639504,40.4484894,0 -74.46366159999999,40.4487159,0 -74.4630712,40.4492108,0 -74.4629561,40.4492922,0 -74.462592,40.4495315,0 -74.4619539,40.4500016,0 -74.4610045,40.4507139,0 -74.4605485,40.4510547,0 -74.4601193,40.451414,0 -74.4597974,40.4517487,0 -74.45948629999999,40.4521283,0 -74.4592274,40.4524513,0 -74.4589352,40.4528386,0 -74.4586613,40.4533088,0 -74.45814540000001,40.4540768,0 -74.45805249999999,40.454215,0 -74.4579641,40.4543709,0 -74.45715989999999,40.4556499,0 -74.4567629,40.4562459,0 -74.4563552,40.4568663,0 -74.4560807,40.4572931,0 -74.4559831,40.457467,0 -74.4558797,40.457666,0 -74.4558042,40.4578226,0 -74.455727,40.4579863,0 -74.4556905,40.4580707,0 -74.4556353,40.4583653,0 -74.45555880000001,40.4585735,0 -74.45549800000001,40.4587487,0 -74.4554511,40.4588996,0 -74.45540149999999,40.4590706,0 -74.45536180000001,40.4592174,0 -74.4553337,40.459342,0 -74.4553059,40.4594789,0 -74.45528419999999,40.4595777,0 -74.4552466,40.4597999,0 -74.4552217,40.4599834,0 -74.455209,40.4601148,0 -74.4551968,40.4602446,0 -74.4551869,40.4603927,0 -74.45517510000001,40.4605556,0 -74.45516790000001,40.4607489,0 -74.4551659,40.460886,0 -74.45516550000001,40.4609871,0 -74.4551701,40.4611083,0 -74.45517479999999,40.4612564,0 -74.4551785,40.4613226,0 -74.4551826,40.4614155,0 -74.4551903,40.4615357,0 -74.4552006,40.4616277,0 -74.4552109,40.4617377,0 -74.4552252,40.4618504,0 -74.4552501,40.4620114,0 -74.4552844,40.4621942,0 -74.4553179,40.4623584,0 -74.4553463,40.4624912,0 -74.4554078,40.462735,0 -74.4554689,40.4629637,0 -74.4555378,40.4631858,0 -74.4555943,40.4633504,0 -74.45569620000001,40.4636454,0 -74.4557179,40.4637083,0 -74.4557442,40.4637857,0 
			</coordinates>
		</LineString>
		<atom:link rel="app" href="https://www.google.com/earth/about/versions/#earth-pro" title="Google Earth Pro 7.3.6.10201"></atom:link>
	</Placemark>
</Document>
</kml>
