<?xml version="1.0" encoding="UTF-8"?>
<kml xmlns="http://www.opengis.net/kml/2.2" xmlns:gx="http://www.google.com/kml/ext/2.2" xmlns:kml="http://www.opengis.net/kml/2.2" xmlns:atom="http://www.w3.org/2005/Atom">
<Document>
	<name>US.129A.kml</name>
	<Style id="style">
		<LineStyle>
			<color>ff0000ff</color>
		</LineStyle>
		<PolyStyle>
			<fill>0</fill>
		</PolyStyle>
	</Style>
	<Style id="style0">
		<LineStyle>
			<color>ff0000ff</color>
		</LineStyle>
		<PolyStyle>
			<fill>0</fill>
		</PolyStyle>
	</Style>
	<StyleMap id="stylemap_id12">
		<Pair>
			<key>normal</key>
			<styleUrl>#style</styleUrl>
		</Pair>
		<Pair>
			<key>highlight</key>
			<styleUrl>#style0</styleUrl>
		</Pair>
	</StyleMap>
	<Placemark>
		<name>US.129A</name>
		<styleUrl>#stylemap_id12</styleUrl>
		<LineString>
			<tessellate>1</tessellate>
			<coordinates>
				-83.46689938035701,32.28197547578949,0 -83.46406871535167,32.28222877077777,0 -83.45728222206029,32.28152378722105,0 -83.45287870401789,32.28191628561378,0 -83.45164954153374,32.28205972310629,0 -83.45164004992584,32.2828665493202,0 -83.45119441667022,32.28392730432184,0 -83.45044798259215,32.28490763659888,0 -83.44910112973079,32.28577787846396,0 -83.44543850982595,32.28752623663812,0 -83.43878243221155,32.29088240605497,0 -83.4372717549509,32.29165974837657,0 -83.43577866650202,32.29247440342307,0 -83.43474940954816,32.29320439080296,0 -83.43368803951718,32.29415650334543,0 -83.43283721330208,32.29511718593123,0 -83.43187351289126,32.29637433989298,0 -83.42664892913515,32.30333199557793,0 -83.42410465316458,32.30637210886788,0 -83.42268414679982,32.30817850220719,0 -83.42197237512788,32.30917583163963,0 -83.42131894900773,32.31036391758451,0 -83.42078480476013,32.31155260311582,0 -83.42004784148881,32.31325866644669,0 -83.41809900619558,32.31820691846605,0 -83.41722040055255,32.32046674052359,0 -83.41577977464188,32.32414241044363,0 -83.41517463107469,32.32555791025496,0 -83.41434629139195,32.32688319142616,0 -83.41283186135013,32.32903469205797,0 -83.41027337503532,32.33243995258362,0 -83.40889425429494,32.33420574121916,0 -83.40791618657961,32.33505897542936,0 -83.40615967806303,32.33626949265096,0 -83.40268226168585,32.33866879139446,0 -83.40145238456378,32.33957887080793,0 -83.40081091387199,32.34018779423889,0 -83.4000209655082,32.34115046484035,0 -83.39936014997876,32.34226562013408,0 -83.39902611535081,32.34297122835358,0 -83.39725250220496,32.34661389205508,0 -83.39679834410846,32.34746185549877,0 -83.39617657822268,32.34838531984423,0 -83.39510830329199,32.34975303354526,0 -83.39314611096121,32.35225286510769,0 -83.39144662088012,32.35481115319362,0 -83.38921963442937,32.35820244038997,0 -83.388437000488,32.35913782916937,0 -83.38519030987038,32.36170694111536,0 -83.38359344412028,32.36292159808341,0 -83.37992298376538,32.36572962523922,0 -83.37670855260448,32.36805765962558,0 -83.37374607096892,32.37007191721133,0 -83.37105777914239,32.37219141564594,0 -83.36917509139091,32.37372277510358,0 -83.36756406228565,32.37502393308752,0 -83.36711941360163,32.37548366917935,0 -83.36654585816456,32.37612936106088,0 -83.365638292168,32.3771167556991,0 -83.36356665963589,32.37890876587928,0 -83.36114108507873,32.38098286262223,0 -83.35687359053024,32.38474163169693,0 -83.35589994740727,32.38559768623934,0 -83.35471728695765,32.38659341462607,0 -83.35669008767145,32.38827077235909,0 -83.35879805792446,32.39003318725993,0 -83.35926145472781,32.39044175705634,0 -83.35967253122888,32.39108032523873,0 -83.35991117343961,32.39189512265575,0 -83.36021782537649,32.39319641740907,0 -83.36048916135658,32.39530017013192,0 -83.36054520099212,32.3980855167846,0 -83.36035127259161,32.40174804752318,0 -83.35985147990567,32.40489389201045,0 -83.35897503343226,32.40805860897316,0 -83.35725285850489,32.41241830838388,0 -83.35606787522664,32.41501777186792,0 -83.35568992363676,32.41637123470478,0 -83.35575018350106,32.41757761933624,0 -83.35593990716711,32.41825392990314,0 -83.35583005729355,32.41852797687353,0 -83.35553685137268,32.4189144506617,0 -83.35893384603825,32.42170662903862,0 -83.36464205908541,32.42660271551539,0 -83.37131293825382,32.43230620558729,0 -83.37388481538126,32.43447700992288,0 -83.3752934939133,32.43575058813191,0 -83.37601588195753,32.43670151256306,0 -83.37670681666265,32.43801721230671,0 -83.37940353949593,32.44677407663275,0 -83.38242958743436,32.45653740423997,0 -83.38363950486232,32.45930340089,0 -83.38637594240419,32.46464396949118,0 -83.3949419575453,32.48089983905405,0 -83.40136010109705,32.49323488691631,0 -83.4023902890883,32.49541324613817,0 -83.40335949844186,32.49841492252114,0 -83.4041035700581,32.50034371370787,0 -83.40519761402015,32.5016229832039,0 -83.40672726480533,32.50294860922728,0 -83.40860233061812,32.50399516492656,0 -83.41100669876633,32.5052080942779,0 -83.41284874934431,32.50585676030618,0 -83.41439602569642,32.50624348662817,0 -83.41609919563031,32.50651846390095,0 -83.41731762337453,32.50695387459731,0 -83.41857944163463,32.50800875600905,0 -83.42142871411696,32.51044699329075,0 -83.42876288072567,32.51629199241462,0 -83.43461449986367,32.52079562043141,0 -83.4375639140751,32.52303853470309,0 -83.4383631971084,32.5237793424542,0 -83.43909787657701,32.52481036201875,0 -83.43963828239809,32.52612731966849,0 -83.43989610305591,32.52792948468089,0 -83.44019628009237,32.53121141186111,0 -83.44044463093884,32.53520953068941,0 -83.44066573697324,32.53679390449258,0 -83.44063426791602,32.53831494326624,0 -83.4404845105574,32.54002948429923,0 -83.44059549017874,32.54157968483899,0 -83.44146846561105,32.54760045721586,0 -83.44208663672696,32.5499345707174,0 -83.44288043324033,32.55182446289022,0 -83.4440328875025,32.55390241157998,0 -83.44500017013985,32.55552696742946,0 -83.44611497324297,32.55663854087552,0 -83.44787419428958,32.55812900226769,0 -83.44947609049993,32.5601300572056,0 -83.45105878766489,32.56235086467505,0 -83.45284702108135,32.56442755082014,0 -83.45500821750041,32.56667856225955,0 -83.4571605297343,32.56894860882636,0 -83.45855611051712,32.57048323890402,0 -83.45923042001303,32.57162625302693,0 -83.45983198953225,32.57311856329093,0 -83.46053030682347,32.57540467893216,0 -83.46327163197142,32.58436938645035,0 -83.46418842125961,32.5870137719969,0 -83.46507242058121,32.58846681456811,0 -83.46681198023765,32.59019064149941,0 -83.47435822345012,32.59757231677514,0 -83.47878121383073,32.60225718490863,0 -83.48821520709161,32.61325724619591,0 -83.49416531370541,32.62037351474422,0 -83.49527203533319,32.62183204284473,0 -83.49606638794153,32.62348175015403,0 -83.49652944028796,32.62594899577936,0 -83.49728437215941,32.63058912940712,0 -83.4980553704704,32.63378463018904,0 -83.49934916393515,32.63620253055983,0 -83.50127278394696,32.64009148926871,0 -83.50536546903361,32.64781040978199,0 -83.5060131489697,32.648745433797,0 -83.50701562429312,32.64996470454671,0 -83.50970190797621,32.6529209408716,0 -83.51181610708078,32.65510062716312,0 -83.51656416085352,32.66004778574002,0 -83.52006865380649,32.66373646241682,0 -83.52092001040536,32.66470121475825,0 -83.52166290782802,32.66579622896909,0 -83.52242457450357,32.66739183084128,0 -83.52282612973863,32.66890343129177,0 -83.5230142615176,32.67017467986521,0 -83.52384515239183,32.67626546854611,0 -83.52407788371433,32.67757527292051,0 -83.5245134718715,32.67868681242205,0 -83.52525459794421,32.67999139704335,0 -83.52624031723398,32.68104382823589,0 -83.52797316198136,32.68261331538409,0 -83.52914299733965,32.68355342783526,0 -83.5347316240494,32.68847664798218,0 -83.53580455788047,32.68949033997578,0 -83.5365003616128,32.69039306809729,0 -83.53733664507939,32.69171541111913,0 -83.53796049797329,32.69308884531835,0 -83.53833927438771,32.69444826551656,0 -83.53848566480963,32.69505999141066,0 -83.5393303958331,32.69889682946178,0 -83.53978427157671,32.70057536083233,0 -83.54084587098583,32.70320310866467,0 -83.54158497194975,32.70451810419848,0 -83.54247243037186,32.70590040572368,0 -83.5433592691295,32.70715632173179,0 -83.54821909027125,32.71404808292062,0 -83.54987990012866,32.71597939301095,0 -83.55133627248024,32.71746325532359,0 -83.55636840160849,32.72254445165465,0 -83.55808917999083,32.72447967874525,0 -83.55876006519428,32.72529832216811,0 -83.56054563474025,32.72762713192965,0 -83.56165431891628,32.72935632621399,0 -83.56247191833994,32.73114294170297,0 -83.56280189934984,32.7323846612687,0 -83.56309974768003,32.7347935736752,0 -83.56312352831388,32.73701227954137,0 -83.56257559213053,32.74025042259167,0 -83.56156556677956,32.74523439805579,0 -83.5612084861379,32.74758330870795,0 -83.56104008735021,32.74983791693958,0 -83.56108826998174,32.75280031654896,0 -83.56118611353163,32.75971993365838,0 -83.56135875567951,32.76107898725655,0 -83.56183444224661,32.76249355591122,0 -83.56251466980429,32.76362293249672,0 -83.56362715011205,32.76534878629759,0 -83.56416203222309,32.76643849542199,0 -83.56428251503273,32.7673196792712,0 -83.56415089641126,32.76839568801957,0 -83.56374124440994,32.76923165052379,0 -83.56323321154427,32.77010376684396,0 -83.56291298097553,32.77066646918909,0 -83.56265447602284,32.77147571732156,0 -83.5626137823882,32.77230831112481,0 -83.56281434403317,32.77319842549839,0 -83.56309700209337,32.77408539166032,0 -83.56460798169473,32.7783808626203,0 -83.56509686555177,32.77975362000628,0 -83.56586564165846,32.78132958629624,0 -83.56637355109653,32.78224709665871,0 -83.56718175146317,32.78346763714028,0 -83.56775216591572,32.78417498259054,0 -83.56846044809205,32.78515581220506,0 -83.56900861920437,32.78609858336445,0 -83.56928933876875,32.78722122742963,0 -83.56929013524581,32.78822952755571,0 -83.56906820842271,32.78959497704928,0 -83.56893699335346,32.79081162928178,0 -83.56911700222032,32.79207634600068,0 -83.56963298842174,32.7938709355827,0 -83.57040011172188,32.79599055364754,0 -83.57047688847616,32.79713059184171,0 -83.57027221326169,32.79820753778917,0 -83.56984183667548,32.79924496967295,0 -83.56910049110625,32.80033539975543,0 -83.56859645110293,32.80144954265379,0 -83.56842130246265,32.8024524056033,0 -83.56850526627947,32.80357259611457,0 -83.56902351716541,32.80843179326676,0 -83.56903914771813,32.80967758708348,0 -83.56882790241097,32.81300968474408,0 -83.56892055382501,32.81489805464241,0 -83.56911411544091,32.81649471872574,0 -83.56990956273782,32.81881256362693,0 -83.57077441246948,32.82128070118893,0 -83.57229125188132,32.82579816041591,0 -83.57378733531637,32.83033536316454,0 -83.57514758548336,32.83462091305996,0 -83.57549940149813,32.83576876148894,0 -83.57556794858439,32.83665422760664,0 -83.57550094263766,32.8376507883586,0 -83.5752435127928,32.83854816973193,0 -83.58237676004627,32.84058305676541,0 -83.58383314767714,32.84107504664805,0 -83.59314626428731,32.84524202924094,0 -83.59913567379483,32.84785922450177,0 -83.60041356288717,32.8484566416337,0 -83.60131516951003,32.84873240166925,0 -83.6021839664468,32.84879755483097,0 -83.60324297436995,32.84865734103492,0 -83.60402512684729,32.8484123954223,0 -83.60476366919498,32.84827072894803,0 -83.60550149503793,32.84822078314281,0 -83.61094912329838,32.84821892664431,0 -83.61354276325403,32.84821046456295,0 -83.61894151887923,32.84822132910941,0 -83.62082612029107,32.84822983419625,0 
			</coordinates>
		</LineString>
		<atom:link rel="app" href="https://www.google.com/earth/about/versions/#earth-pro" title="Google Earth Pro 7.3.6.10201"></atom:link>
	</Placemark>
</Document>
</kml>
