<?xml version="1.0" encoding="UTF-8"?>
<kml xmlns="http://www.opengis.net/kml/2.2" xmlns:gx="http://www.google.com/kml/ext/2.2" xmlns:kml="http://www.opengis.net/kml/2.2" xmlns:atom="http://www.w3.org/2005/Atom">
<Document>
	<name>US.19W.kml</name>
	<Placemark>
		<name>US.19W</name>
			<LineString>
				<coordinates>
					-82.39725199999999,35.9133539,0 -82.39723770000001,35.9134366,0 -82.39719940000001,35.9135143,0 -82.397068,35.9137065,0 -82.3968824,35.9139877,0 -82.3968551,35.9140334,0 -82.3966815,35.9143237,0 -82.3966028,35.9144219,0 -82.3964659,35.9145535,0 -82.3964246,35.9145798,0 -82.3960359,35.9147752,0 -82.3959196,35.9148487,0 -82.3954993,35.9152726,0 -82.3953772,35.9153661,0 -82.3953073,35.9154057,0 -82.3952637,35.9154304,0 -82.3951275,35.9154801,0 -82.39474629999999,35.915567,0 -82.3941875,35.915674,0 -82.39395450000001,35.9156931,0 -82.3937257,35.9156803,0 -82.39345779999999,35.9156373,0 -82.393237,35.9155848,0 -82.3930051,35.9155065,0 -82.3927475,35.9153523,0 -82.39162330000001,35.9145909,0 -82.3913897,35.916071,0 -82.3913774,35.9161964,0 -82.3913742,35.9162408,0 -82.3913714,35.9162803,0 -82.39133579999999,35.9164345,0 -82.3912969,35.9165742,0 -82.3912225,35.9167413,0 -82.39112609999999,35.9168919,0 -82.3910315,35.916996,0 -82.39082689999999,35.9171932,0 -82.3906087,35.9174232,0 -82.3901099,35.9179833,0 -82.3900153,35.9180846,0 -82.389929,35.9181613,0 -82.3898056,35.9182448,0 -82.3897008,35.918301,0 -82.3894962,35.9183653,0 -82.3891359,35.9184648,0 -82.3885392,35.9186296,0 -82.3883684,35.9186803,0 -82.3882297,35.918746,0 -82.3881232,35.9188062,0 -82.3878493,35.919024,0 -82.3875213,35.9192485,0 -82.3871932,35.9194361,0 -82.3869261,35.9195731,0 -82.3865186,35.9197237,0 -82.38622119999999,35.9198604,0 -82.38619300000001,35.9199134,0 -82.3861021,35.9200218,0 -82.3860495,35.9201496,0 -82.3860304,35.9202755,0 -82.3860136,35.920626,0 -82.3860232,35.9208409,0 -82.3860638,35.9210385,0 -82.3861715,35.9213851,0 -82.38644170000001,35.9222894,0 -82.386566,35.9225663,0 -82.3866951,35.9227406,0 -82.38682660000001,35.92288,0 -82.38712080000001,35.9230892,0 -82.3872834,35.9232073,0 -82.38763489999999,35.9235597,0 -82.3878357,35.9237648,0 -82.3879537,35.9238823,0 -82.388542,35.924476,0 -82.3888516,35.9251419,0 -82.38889140000001,35.9252716,0 -82.38891839999999,35.9254128,0 -82.38892,35.9255341,0 -82.38892130000001,35.9258021,0 -82.3889325,35.9259166,0 -82.38895909999999,35.9260751,0 -82.38900080000001,35.9263231,0 -82.3890869,35.9267864,0 -82.389141,35.9269988,0 -82.38918839999999,35.9271665,0 -82.3892608,35.9273636,0 -82.3893988,35.9277244,0 -82.38954940000001,35.9280838,0 -82.3897458,35.928521,0 -82.3898136,35.9286599,0 -82.3898722,35.9287802,0 -82.3899182,35.9288824,0 -82.3899517,35.9289627,0 -82.3899708,35.9290281,0 -82.3899953,35.9291212,0 -82.3900237,35.929289,0 -82.3901053,35.9299328,0 -82.3901298,35.9301204,0 -82.3901536,35.9303781,0 -82.3901487,35.9305688,0 -82.3901328,35.9307426,0 -82.3900915,35.9309924,0 -82.3900026,35.9315042,0 -82.3899351,35.9318732,0 -82.3898861,35.9321337,0 -82.3898509,35.9324018,0 -82.38985270000001,35.932551,0 -82.3898701,35.9326567,0 -82.389888,35.9327337,0 -82.3899627,35.9329655,0 -82.3899954,35.9330624,0 -82.3901352,35.9334272,0 -82.3902188,35.933628,0 -82.3902763,35.9337557,0 -82.39033019999999,35.9338533,0 -82.39038650000001,35.9339265,0 -82.3904658,35.933999,0 -82.39059109999999,35.9340676,0 -82.3907475,35.9341323,0 -82.3910284,35.9342362,0 -82.391305,35.9343157,0 -82.39152730000001,35.9343711,0 -82.3917689,35.9344121,0 -82.39251609999999,35.9345328,0 -82.3928092,35.9346067,0 -82.3930139,35.9346985,0 -82.39315209999999,35.9347701,0 -82.3933042,35.9348574,0 -82.3934508,35.9349739,0 -82.3935946,35.935097,0 -82.3937052,35.9352,0 -82.3938103,35.9353299,0 -82.393896,35.9354553,0 -82.3939845,35.9356097,0 -82.39407850000001,35.935809,0 -82.3941559,35.9359456,0 -82.39425,35.9360956,0 -82.394756,35.9368053,0 -82.39485000000001,35.9369665,0 -82.3949302,35.9371166,0 -82.3953975,35.9382181,0 -82.3954528,35.938339,0 -82.3954569,35.9383609,0 -82.39548050000001,35.9384868,0 -82.39548050000001,35.9386166,0 -82.39547349999999,35.9387405,0 -82.39546129999999,35.9388327,0 -82.395439,35.9389561,0 -82.3953963,35.9391158,0 -82.39535360000001,35.9392919,0 -82.3952601,35.9395519,0 -82.395191,35.9397165,0 -82.39511570000001,35.9398465,0 -82.3950344,35.9399535,0 -82.394943,35.9400539,0 -82.39483730000001,35.9401444,0 -82.394699,35.9402448,0 -82.3936867,35.9408784,0 -82.39347530000001,35.9409854,0 -82.3931382,35.9411491,0 -82.3928544,35.9412894,0 -82.3926591,35.9414132,0 -82.3922924,35.9417293,0 -82.3920478,35.9418899,0 -82.3916917,35.9420786,0 -82.3909379,35.9424853,0 -82.3907135,35.9426527,0 -82.39058249999999,35.9428645,0 -82.3905482,35.9429816,0 -82.390533,35.9430787,0 -82.39053680000001,35.9432113,0 -82.3905535,35.9433139,0 -82.3906187,35.9434565,0 -82.390693,35.9435675,0 -82.3908205,35.9436939,0 -82.39099349999999,35.943819,0 -82.391215,35.9439136,0 -82.391593,35.9440358,0 -82.3926467,35.9443661,0 -82.39326370000001,35.9445295,0 -82.3938102,35.9446235,0 -82.3943489,35.9446794,0 -82.39554149999999,35.9447289,0 -82.39593480000001,35.9447758,0 -82.3962619,35.9448462,0 -82.39659330000001,35.9449524,0 -82.3967815,35.9450369,0 -82.3969834,35.945201,0 -82.3970683,35.9453558,0 -82.3970881,35.945527,0 -82.3970968,35.9457242,0 -82.3971135,35.9459105,0 -82.3971334,35.9461333,0 -82.39713740000001,35.9464133,0 -82.39707300000001,35.9466783,0 -82.3969939,35.9472465,0 -82.3969462,35.9474591,0 -82.39687790000001,35.9476095,0 -82.39676540000001,35.947757,0 -82.3965659,35.9479623,0 -82.3963038,35.9482525,0 -82.39571720000001,35.9489656,0 -82.39533040000001,35.9494638,0 -82.3951526,35.9498024,0 -82.3951191,35.9499641,0 -82.3951656,35.9501365,0 -82.39525020000001,35.9503068,0 -82.3954004,35.9504593,0 -82.3956927,35.9506938,0 -82.3963495,35.9510828,0 -82.3968876,35.9513901,0 -82.3972871,35.9516805,0 -82.39745069999999,35.9518653,0 -82.3975634,35.9520755,0 -82.39760389999999,35.9522734,0 -82.3975674,35.9524842,0 -82.3974455,35.9526786,0 -82.39719049999999,35.9530084,0 -82.39691070000001,35.9532472,0 -82.3965666,35.953413,0 -82.3957467,35.9536979,0 -82.39538779999999,35.953736,0 -82.39500719999999,35.9537336,0 -82.394655,35.9536921,0 -82.3935051,35.9535655,0 -82.3925424,35.9535004,0 -82.39207949999999,35.9534152,0 -82.3917108,35.9533533,0 -82.3914049,35.9533312,0 -82.39109070000001,35.9533535,0 -82.3907032,35.9533835,0 -82.39058199999999,35.9533661,0 -82.3904637,35.9533491,0 -82.39014040000001,35.9532693,0 -82.3897448,35.9531761,0 -82.3893236,35.9531152,0 -82.3892745,35.953107,0 -82.388851,35.9530363,0 -82.3885482,35.9529377,0 -82.38772229999999,35.9525368,0 -82.38718540000001,35.9522159,0 -82.38685630000001,35.9520652,0 -82.38600169999999,35.95175,0 -82.38580349999999,35.9516551,0 -82.3856226,35.9515435,0 -82.38536070000001,35.9513538,0 -82.38485230000001,35.9508921,0 -82.383816,35.9498463,0 -82.3835433,35.9495711,0 -82.38340700000001,35.9494365,0 -82.3832864,35.9493251,0 -82.38315729999999,35.9492126,0 -82.3829867,35.9491071,0 -82.38285140000001,35.949044,0 -82.382609,35.9489384,0 -82.3823434,35.9488497,0 -82.3821228,35.9487895,0 -82.38164399999999,35.9486573,0 -82.3813857,35.9485942,0 -82.38122850000001,35.9485646,0 -82.3810067,35.948535,0 -82.3806644,35.9485094,0 -82.38036459999999,35.9484867,0 -82.38007589999999,35.9484778,0 -82.3796876,35.9485044,0 -82.3794425,35.9485432,0 -82.37931879999999,35.9485867,0 -82.37921369999999,35.9486411,0 -82.3791138,35.948715,0 -82.37903970000001,35.9488126,0 -82.37872779999999,35.949305,0 -82.3785228,35.9496621,0 -82.37839529999999,35.9498323,0 -82.3781937,35.9500485,0 -82.3780213,35.9502034,0 -82.37766809999999,35.9504517,0 -82.3772304,35.9507474,0 -82.3765291,35.9512579,0 -82.3764188,35.9513542,0 -82.3763,35.9514923,0 -82.3761811,35.9516959,0 -82.3761018,35.9518828,0 -82.37606220000001,35.9520181,0 -82.37608280000001,35.9522594,0 -82.3760966,35.9523459,0 -82.376125,35.952467,0 -82.3762121,35.95271,0 -82.37634300000001,35.9529917,0 -82.3764395,35.9531201,0 -82.3765705,35.9532749,0 -82.37669630000001,35.9533962,0 -82.376875,35.9535476,0 -82.3771423,35.9537172,0 -82.37756229999999,35.9539972,0 -82.3780082,35.9543483,0 -82.3786077,35.9549421,0 -82.3790618,35.9553957,0 -82.3791858,35.955568,0 -82.37934,35.9558124,0 -82.37948780000001,35.9561111,0 -82.37968499999999,35.9564998,0 -82.3797747,35.9566461,0 -82.3798707,35.9567882,0 -82.3799655,35.956914,0 -82.3801323,35.9571196,0 -82.38026240000001,35.9572884,0 -82.38033950000001,35.9574122,0 -82.3803901,35.9575165,0 -82.3804671,35.9577558,0 -82.38052020000001,35.9579103,0 -82.3805935,35.958078,0 -82.38071100000001,35.958255,0 -82.3808753,35.9584892,0 -82.38109009999999,35.9588267,0 -82.3812114,35.9590221,0 -82.3813317,35.959233,0 -82.3813955,35.9593834,0 -82.3814062,35.9594345,0 -82.3814302,35.9595757,0 -82.3814378,35.9597403,0 -82.3814277,35.9599919,0 -82.38142139999999,35.9603182,0 -82.3814263,35.960464,0 -82.3814264,35.9606885,0 -82.3814416,35.9609155,0 -82.38145799999999,35.9610955,0 -82.3814947,35.9612776,0 -82.3815389,35.961476,0 -82.38158439999999,35.9616059,0 -82.38162989999999,35.9617154,0 -82.3817221,35.9618759,0 -82.3818283,35.9620314,0 -82.38196600000001,35.9622257,0 -82.382177,35.9624763,0 -82.38233750000001,35.9626471,0 -82.38258519999999,35.9628772,0 -82.3828391,35.9630623,0 -82.3830502,35.9631933,0 -82.3832549,35.9633201,0 -82.3837123,35.9636228,0 -82.38397639999999,35.9638202,0 -82.3841053,35.9639358,0 -82.3841937,35.9640217,0 -82.3842696,35.9641219,0 -82.3844062,35.9643297,0 -82.3845199,35.9645619,0 -82.3846951,35.9648378,0 -82.38485850000001,35.9650661,0 -82.3849786,35.9652011,0 -82.3851542,35.9653862,0 -82.3853185,35.9655324,0 -82.3855106,35.9656818,0 -82.38574939999999,35.9658495,0 -82.38603999999999,35.9660264,0 -82.38624849999999,35.9661277,0 -82.386591,35.9662811,0 -82.3869827,35.966458,0 -82.3872215,35.9665889,0 -82.38748940000001,35.9667577,0 -82.38778259999999,35.9669499,0 -82.38818190000001,35.9672118,0 -82.3886279,35.9675012,0 -82.38877069999999,35.967585,0 -82.3889653,35.9676812,0 -82.38920160000001,35.9677906,0 -82.38942400000001,35.967897,0 -82.389611,35.9679952,0 -82.38981819999999,35.9681097,0 -82.3900027,35.9682212,0 -82.3901657,35.9683193,0 -82.3903287,35.9684073,0 -82.3904627,35.9684666,0 -82.3906295,35.968531,0 -82.3907483,35.9685617,0 -82.3909302,35.9686047,0 -82.39118550000001,35.9686466,0 -82.391447,35.9686947,0 -82.3916404,35.9687356,0 -82.3916572,35.9687392,0 -82.3918805,35.9687877,0 -82.3920801,35.9688348,0 -82.3922128,35.9688624,0 -82.3923783,35.9689207,0 -82.3925287,35.9689821,0 -82.3926424,35.9690373,0 -82.3927309,35.9690935,0 -82.392832,35.9691999,0 -82.39291160000001,35.9693062,0 -82.3930051,35.9694535,0 -82.3930847,35.9696366,0 -82.3932073,35.9700323,0 -82.3933593,35.970697,0 -82.3934442,35.9712297,0 -82.3936849,35.9720976,0 -82.39379460000001,35.9725416,0 -82.39383599999999,35.9728188,0 -82.39385559999999,35.9730033,0 -82.3938654,35.9734209,0 -82.3938751,35.9741683,0 -82.3938972,35.9745895,0 -82.3940424,35.9750077,0 -82.3942582,35.9757409,0 -82.39438920000001,35.9761877,0 -82.3945308,35.9765801,0 -82.3945485,35.9766631,0 -82.3946546,35.9769696,0 -82.39469,35.9778775,0 -82.3948316,35.978121,0 -82.3952068,35.9786594,0 -82.3952457,35.9788456,0 -82.39521740000001,35.979089,0 -82.3951112,35.9797248,0 -82.3950404,35.9803349,0 -82.3950581,35.9806442,0 -82.3951501,35.980922,0 -82.3953434,35.9812573,0 -82.39562050000001,35.9816433,0 -82.3957499,35.981884,0 -82.3957613,35.9821138,0 -82.39565229999999,35.9825218,0 -82.3955364,35.9828287,0 -82.39542969999999,35.9830731,0 -82.3953071,35.9831944,0 -82.3950504,35.9833469,0 -82.3940738,35.9836318,0 -82.3937014,35.9837972,0 -82.3934084,35.9840232,0 -82.3929382,35.9845599,0 -82.3924068,35.9852619,0 -82.39207519999999,35.985714,0 -82.39193210000001,35.9860025,0 -82.3918549,35.9864141,0 -82.39194380000001,35.9872679,0 -82.39195839999999,35.9876677,0 -82.3919293,35.9880629,0 -82.3918566,35.9890248,0 -82.39186530000001,35.9895047,0 -82.3918973,35.9899798,0 -82.392031,35.9910829,0 -82.39226069999999,35.9917884,0 -82.3923855,35.9920044,0 -82.3925251,35.9921951,0 -82.3929758,35.9926375,0 -82.3932432,35.9929385,0 -82.3934292,35.9932984,0 -82.3935281,35.9935853,0 -82.39357459999999,35.9937288,0 -82.3934685,35.9938662,0 -82.3931182,35.9942768,0 -82.39274500000001,35.9946953,0 -82.39243810000001,35.9950378,0 -82.39196010000001,35.9954782,0 -82.3912692,35.995839,0 -82.390278,35.9963653,0 -82.3898617,35.9965578,0 -82.3887161,35.997125,0 -82.38764879999999,35.997753,0 -82.3866472,35.9984013,0 -82.3857704,35.9989511,0 -82.3855312,35.9989988,0 -82.38512609999999,35.9994749,0 -82.38480680000001,35.9996116,0 -82.38447189999999,35.9996471,0 -82.383993,35.9996066,0 -82.383486,35.999485,0 -82.3830136,35.9993118,0 -82.3819116,35.9988165,0 -82.38108219999999,35.9985304,0 -82.3802934,35.9982417,0 -82.3793419,35.9978872,0 -82.37874410000001,35.9977581,0 -82.3781365,35.9976428,0 -82.3779059,35.9975675,0 -82.377769,35.9974516,0 -82.37769539999999,35.997305,0 -82.37761999999999,35.9958182,0 -82.37757740000001,35.9954781,0 -82.37751280000001,35.9951501,0 -82.3773752,35.9947977,0 -82.3772261,35.994512,0 -82.37709270000001,35.9942611,0 -82.3770064,35.9940948,0 -82.37692370000001,35.9939649,0 -82.3767316,35.9937758,0 -82.3764384,35.9936019,0 -82.3761324,35.9934456,0 -82.37579719999999,35.9933474,0 -82.37544490000001,35.9933315,0 -82.374854,35.993456,0 -82.3741393,35.9938063,0 -82.3738984,35.9939872,0 -82.373679,35.9941947,0 -82.37325749999999,35.9947457,0 -82.373164,35.9948745,0 -82.3730766,35.9950011,0 -82.3727997,35.9954035,0 -82.372388,35.996013,0 -82.37223969999999,35.9962978,0 -82.3721735,35.9964321,0 -82.3719091,35.9969593,0 -82.3716129,35.9979554,0 -82.37152500000001,35.998356,0 -82.3713396,35.9998225,0 -82.371342,36.00011,0 -82.3713794,36.000541,0 -82.3715077,36.0009537,0 -82.371976,36.001774,0 -82.372314,36.002049,0 -82.3727722,36.0023869,0 -82.37353899999999,36.0026755,0 -82.3741995,36.0029313,0 -82.374855,36.003228,0 -82.3754577,36.0035694,0 -82.3759835,36.0039365,0 -82.3766377,36.0045822,0 -82.3770633,36.0052937,0 -82.3775641,36.0061925,0 -82.378162,36.0070939,0 -82.3785626,36.0076712,0 -82.37898199999999,36.0081269,0 -82.3793639,36.0085118,0 -82.37980829999999,36.0092258,0 -82.38026840000001,36.010036,0 -82.38067839999999,36.0107905,0 -82.3808756,36.0112209,0 -82.3809413,36.0117652,0 -82.38088449999999,36.0128519,0 -82.3808449,36.012981,0 -82.3808172,36.0130458,0 -82.3807848,36.0131248,0 -82.3807432,36.0132053,0 -82.38068800000001,36.013275,0 -82.38061999999999,36.0133424,0 -82.3805376,36.0134033,0 -82.3804475,36.0134595,0 -82.3803435,36.0135071,0 -82.3802534,36.0135467,0 -82.38014320000001,36.0135754,0 -82.380087,36.0135816,0 -82.38001610000001,36.0135841,0 -82.3799607,36.0135741,0 -82.37988970000001,36.0135602,0 -82.3797727,36.0135193,0 -82.37965320000001,36.0134648,0 -82.3795509,36.0133997,0 -82.3795047,36.0133773,0 -82.3794492,36.0133374,0 -82.37901770000001,36.0131064,0 -82.3785501,36.012907,0 -82.37806310000001,36.0127586,0 -82.3775735,36.0126513,0 -82.3771595,36.0125429,0 -82.3767691,36.0124032,0 -82.3763361,36.0122093,0 -82.3759415,36.0120414,0 -82.3756987,36.0118209,0 -82.37552650000001,36.0115981,0 -82.3753857,36.0112513,0 -82.37493809999999,36.0102968,0 -82.3744811,36.009841,0 -82.3737957,36.0094157,0 -82.3727597,36.0089397,0 -82.3721556,36.008527,0 -82.3714232,36.0079168,0 -82.3705906,36.0073243,0 -82.3702839,36.00718,0 -82.36994900000001,36.0070737,0 -82.36900369999999,36.0069268,0 -82.3675452,36.0063698,0 -82.3669755,36.0060381,0 -82.3663871,36.0057545,0 -82.3656203,36.0054937,0 -82.3651414,36.0052051,0 -82.36467500000001,36.0047468,0 -82.36387379999999,36.0036377,0 -82.3629755,36.0025667,0 -82.3626187,36.0022653,0 -82.3622024,36.0020121,0 -82.3613354,36.0016298,0 -82.3590411,36.0006498,0 -82.3583995,36.0003637,0 -82.357833,36.0002067,0 -82.3574981,36.0000902,0 -82.357063,35.999918,0 -82.3565059,35.999761,0 -82.3561138,35.9997516,0 -82.35579,35.9998025,0 -82.355277,35.9999664,0 -82.354899,36.0002132,0 -82.354378,36.0004621,0 -82.35392179999999,36.0005845,0 -82.3534385,36.0006696,0 -82.35237480000001,36.0006871,0 -82.3514974,36.0006281,0 -82.3508495,36.000615,0 -82.3502259,36.000816,0 -82.34961300000001,36.0010846,0 -82.3492135,36.0012484,0 -82.3488517,36.0014253,0 -82.3486924,36.0016088,0 -82.34848719999999,36.0019954,0 -82.34844510000001,36.0020927,0 -82.34831990000001,36.0023819,0 -82.3480904,36.0027445,0 -82.3478933,36.0031464,0 -82.3477664,36.0034412,0 -82.3476611,36.0041554,0 -82.3475936,36.0047712,0 -82.34752880000001,36.0053587,0 -82.34739930000001,36.0059702,0 -82.34727239999999,36.0066451,0 -82.34719680000001,36.0070622,0 -82.3472103,36.0078506,0 -82.3472373,36.0086128,0 -82.347348,36.0091347,0 -82.34755850000001,36.0096414,0 -82.347719,36.010051,0 -82.3478906,36.0106809,0 -82.3480715,36.0113513,0 -82.3482362,36.012013,0 -82.3483658,36.0124192,0 -82.34858439999999,36.0126354,0 -82.3493593,36.0132468,0 -82.3498803,36.0136617,0 -82.350285,36.014125,0 -82.3505255,36.014557,0 -82.3506605,36.0150768,0 -82.3506902,36.0153978,0 -82.35075190000001,36.0154858,0 -82.3508271,36.0155571,0 -82.3509471,36.0156074,0 -82.3516095,36.0157491,0 -82.3517794,36.0157966,0 -82.3519848,36.0158671,0 -82.3521769,36.015967,0 -82.3522595,36.0160361,0 -82.3523129,36.0160994,0 -82.3523538,36.0161885,0 -82.35241430000001,36.0164302,0 -82.3524863,36.0166769,0 -82.3525752,36.0168804,0 -82.35272019999999,36.0171688,0 -82.35295929999999,36.017609,0 -82.3531096,36.0178708,0 -82.3532137,36.0180096,0 -82.3533408,36.0181182,0 -82.35345820000001,36.0181851,0 -82.3535613,36.0182175,0 -82.3536903,36.0182347,0 -82.3538059,36.0182462,0 -82.35399700000001,36.0182434,0 -82.3542087,36.0182268,0 -82.3544114,36.0181873,0 -82.35456790000001,36.018129,0 -82.3548479,36.0180019,0 -82.3550712,36.0178773,0 -82.3552579,36.0177946,0 -82.35538769999999,36.0177644,0 -82.3555113,36.01775,0 -82.3556981,36.017778,0 -82.3569341,36.0181995,0 -82.3573787,36.0183685,0 -82.3575565,36.0184526,0 -82.3577806,36.0185728,0 -82.358146,36.01879,0 -82.3583328,36.0188834,0 -82.358435,36.0189201,0 -82.3586778,36.0189964,0 -82.3593936,36.0192323,0 -82.35976170000001,36.0193826,0 -82.35995200000001,36.0194739,0 -82.3602781,36.0196847,0 -82.36036369999999,36.01974,0 -82.3608261,36.02005,0 -82.3610137,36.0201917,0 -82.3611657,36.0203369,0 -82.3613756,36.020639,0 -82.36142719999999,36.0207418,0 -82.3615401,36.0209957,0 -82.3617019,36.0214682,0 -82.3617757,36.0217207,0 -82.36184950000001,36.0219134,0 -82.36193129999999,36.0220831,0 -82.3620585,36.0222809,0 -82.3622586,36.0225491,0 -82.3625155,36.0228936,0 -82.362632,36.0230626,0 -82.3627058,36.0232172,0 -82.3627867,36.02342,0 -82.3628899,36.0237782,0 -82.3631664,36.024657,0 -82.36318780000001,36.0248159,0 -82.3631913,36.0249497,0 -82.3631824,36.0251129,0 -82.3631771,36.025264,0 -82.3631762,36.0255667,0 -82.3631762,36.0258716,0 -82.36315930000001,36.0260205,0 -82.3631077,36.0261715,0 -82.36296280000001,36.026416,0 -82.3628063,36.0266303,0 -82.36251470000001,36.027005,0 -82.36194999999999,36.0277112,0 -82.3618326,36.0278485,0 -82.3617019,36.0279665,0 -82.3614778,36.0281376,0 -82.36129560000001,36.0282735,0 -82.3611906,36.0283958,0 -82.36112660000001,36.0285101,0 -82.361075,36.0286496,0 -82.3610626,36.0287323,0 -82.3610626,36.0288157,0 -82.3610884,36.0289157,0 -82.36112660000001,36.0290286,0 -82.36118159999999,36.029148,0 -82.3612396,36.0292078,0 -82.3613817,36.0293356,0 -82.3615499,36.0294247,0 -82.3617442,36.0294916,0 -82.362301,36.0296499,0 -82.36266209999999,36.0297777,0 -82.3628796,36.0299137,0 -82.3630246,36.0300509,0 -82.3631609,36.0302878,0 -82.3632246,36.0306126,0 -82.3632652,36.0311121,0 -82.3633073,36.0314264,0 -82.36335800000001,36.0316222,0 -82.3633928,36.0317406,0 -82.363432,36.0318403,0 -82.363561,36.0320068,0 -82.36383069999999,36.0322495,0 -82.36509409999999,36.0334119,0 -82.36609660000001,36.0343955,0 -82.3663833,36.0347113,0 -82.366618,36.035,0 -82.366828,36.0352697,0 -82.3669479,36.0355015,0 -82.36706940000001,36.0357618,0 -82.367261,36.0363793,0 -82.3674,36.036882,0 -82.3674614,36.0370239,0 -82.3675594,36.0371103,0 -82.36771160000001,36.0371576,0 -82.3679207,36.0371541,0 -82.36825570000001,36.0371564,0 -82.3684942,36.0372144,0 -82.3688628,36.0373492,0 -82.36936729999999,36.037488,0 -82.3694914,36.0375323,0 -82.3695845,36.0375791,0 -82.36967869999999,36.0376477,0 -82.36986690000001,36.037856,0 -82.3699652,36.0379631,0 -82.370081,36.0380659,0 -82.37045550000001,36.038357,0 -82.3709085,36.0387368,0 -82.3711361,36.0388597,0 -82.3713223,36.0389157,0 -82.37152500000001,36.0389567,0 -82.3717712,36.0389818,0 -82.3720143,36.0389643,0 -82.3722657,36.0389174,0 -82.37276420000001,36.0387995,0 -82.3731221,36.0387418,0 -82.3734355,36.0387083,0 -82.373661,36.038669,0 -82.37393520000001,36.0385996,0 -82.37442129999999,36.0384214,0 -82.3748744,36.0382416,0 -82.37523539999999,36.0381052,0 -82.37533670000001,36.0380986,0 -82.3754443,36.0381236,0 -82.3755271,36.0381814,0 -82.3755778,36.0382466,0 -82.37560980000001,36.0383587,0 -82.3756109,36.0386247,0 -82.3756243,36.0387309,0 -82.3756905,36.0388564,0 -82.3757495,36.0389325,0 -82.3758395,36.0390128,0 -82.37598939999999,36.0391357,0 -82.3760556,36.0392235,0 -82.376097,36.0393005,0 -82.3761301,36.0394176,0 -82.37614050000001,36.0395539,0 -82.37614670000001,36.0398785,0 -82.3761746,36.0400282,0 -82.3762036,36.0401101,0 -82.3762511,36.0401971,0 -82.3763287,36.0402975,0 -82.3767404,36.0407224,0 -82.3772173,36.0412242,0 -82.3774645,36.0414609,0 -82.37757209999999,36.0415421,0 -82.37767650000001,36.0416081,0 -82.3778296,36.04167,0 -82.3781213,36.041747,0 -82.37873569999999,36.04189,0 -82.37942459999999,36.0420732,0 -82.37956629999999,36.0420949,0 -82.3796481,36.0420891,0 -82.37977119999999,36.0420682,0 -82.3798943,36.0420288,0 -82.37997799999999,36.0419803,0 -82.3800535,36.0419302,0 -82.3802977,36.0417286,0 -82.380427,36.0416483,0 -82.3804921,36.0416215,0 -82.3805976,36.0416031,0 -82.380698,36.0416065,0 -82.3808107,36.0416349,0 -82.3809783,36.0417001,0 -82.38112,36.0417403,0 -82.3811955,36.0417495,0 -82.38133929999999,36.0417311,0 -82.38142929999999,36.0416801,0 -82.38149439999999,36.041619,0 -82.3816496,36.0414166,0 -82.3817851,36.0412878,0 -82.3818979,36.0412401,0 -82.38203129999999,36.0412267,0 -82.3821554,36.041251,0 -82.382323,36.0412886,0 -82.38248230000001,36.0413079,0 -82.3825981,36.0413029,0 -82.3827429,36.0412619,0 -82.3829405,36.0411799,0 -82.3831122,36.0410971,0 -82.3833212,36.041026,0 -82.383437,36.0410193,0 -82.3835849,36.0410478,0 -82.38373489999999,36.041113,0 -82.38399870000001,36.0412134,0 -82.38413009999999,36.0412451,0 -82.38431110000001,36.0412527,0 -82.38451070000001,36.0412259,0 -82.3849689,36.0411113,0 -82.38524719999999,36.0410168,0 -82.38543129999999,36.0409072,0 -82.3855916,36.0407776,0 -82.3858213,36.0405568,0 -82.3859806,36.0403636,0 -82.38610060000001,36.0401804,0 -82.38615129999999,36.0400625,0 -82.3861823,36.0399596,0 -82.3861947,36.0398299,0 -82.3861812,36.0395121,0 -82.38621430000001,36.0394168,0 -82.3862661,36.0393557,0 -82.3863281,36.0393164,0 -82.3864109,36.0392871,0 -82.38653189999999,36.0392762,0 -82.38667359999999,36.0392779,0 -82.38723109999999,36.0393114,0 -82.3874287,36.0393055,0 -82.3876573,36.0392729,0 -82.3880028,36.0392001,0 -82.38822,36.039148,0 -82.3884755,36.0390755,0 -82.3886421,36.0390136,0 -82.38878269999999,36.0389467,0 -82.3889617,36.038838,0 -82.3892079,36.0386372,0 -82.38978090000001,36.038132,0 -82.3907232,36.0373065,0 -82.3910884,36.037038,0 -82.3913946,36.0368406,0 -82.3916387,36.0367017,0 -82.3920359,36.036511,0 -82.39234829999999,36.0363663,0 -82.3925417,36.0362659,0 -82.3927496,36.0361438,0 -82.3932068,36.0358393,0 -82.3944553,36.0349912,0 -82.3946105,36.034905,0 -82.394808,36.0348272,0 -82.3949673,36.0347829,0 -82.3951721,36.0347461,0 -82.3961869,36.0346055,0 -82.3963803,36.0345955,0 -82.3965323,36.034598,0 -82.3966978,36.0346248,0 -82.3968582,36.0346725,0 -82.3969823,36.0347252,0 -82.39757400000001,36.0350915,0 -82.3976753,36.0351426,0 -82.39786669999999,36.0352053,0 -82.3980798,36.0352429,0 -82.39832079999999,36.0352622,0 -82.3985266,36.0352505,0 -82.39873350000001,36.0352203,0 -82.39890320000001,36.035176,0 -82.39904799999999,36.0351175,0 -82.3991742,36.0350539,0 -82.3999417,36.0346097,0 -82.4000958,36.0345378,0 -82.4002127,36.0345027,0 -82.4003068,36.0344893,0 -82.400432,36.0344968,0 -82.4006244,36.0345403,0 -82.4007682,36.0345662,0 -82.40093779999999,36.0345612,0 -82.4011292,36.034537,0 -82.4015502,36.0344516,0 -82.4018718,36.0343914,0 -82.4020798,36.0343713,0 -82.4026145,36.0343471,0 -82.40291759999999,36.0343329,0 -82.40313070000001,36.0343061,0 -82.40380930000001,36.0341589,0 -82.40404820000001,36.0340811,0 -82.4041806,36.0340208,0 -82.4045685,36.0337406,0 -82.4046812,36.0336779,0 -82.4047805,36.0336469,0 -82.4049119,36.0336193,0 -82.4053112,36.0335708,0 -82.4054684,36.0335457,0 -82.40567009999999,36.0334855,0 -82.4058387,36.0334102,0 -82.40602389999999,36.0332948,0 -82.406779,36.0328155,0 -82.4070562,36.0326448,0 -82.4072807,36.0325712,0 -82.4074586,36.032552,0 -82.40758270000001,36.0325461,0 -82.40790440000001,36.0325545,0 -82.4081475,36.032567,0 -82.4083937,36.0325486,0 -82.4085788,36.0325127,0 -82.4088012,36.0324441,0 -82.4092119,36.0322726,0 -82.4095232,36.0321304,0 -82.40965129999999,36.0320636,0 -82.4101666,36.031795,0 -82.41046040000001,36.031626,0 -82.4106859,36.0315248,0 -82.4108224,36.0315047,0 -82.4109869,36.0315139,0 -82.41116169999999,36.0315641,0 -82.4114885,36.0316762,0 -82.4117471,36.0317381,0 -82.41216300000001,36.0317991,0 -82.4126905,36.0318376,0 -82.4129346,36.0318276,0 -82.413218,36.0317958,0 -82.4143321,36.0316703,0 -82.41461030000001,36.031667,0 -82.41547610000001,36.0317314,0 -82.4158133,36.0317531,0 -82.416076,36.0317933,0 -82.416556,36.0319313,0 -82.4167339,36.0319723,0 -82.4168808,36.0319899,0 -82.4169842,36.0319899,0 -82.4171197,36.0319715,0 -82.41731110000001,36.0319204,0 -82.41814170000001,36.031636,0 -82.4184903,36.0315323,0 -82.4187965,36.0314704,0 -82.4190571,36.031462,0 -82.4193188,36.0314955,0 -82.4195143,36.0315407,0 -82.4196467,36.0315942,0 -82.4199126,36.0317523,0 -82.4202439,36.031982,0 -82.42145170000001,36.0327837,0 -82.4218655,36.0329903,0 -82.4222358,36.03314,0 -82.4237315,36.0336992,0 -82.4240178,36.0337755,0 -82.4244612,36.033829,0 -82.4252157,36.0339387,0 -82.4254347,36.0339877,0 -82.42570379999999,36.0340752,0 -82.428352,36.0351115,0 -82.42867560000001,36.0352168,0 -82.42892430000001,36.0352812,0 -82.4291137,36.0353181,0 -82.429192,36.0353333,0 -82.4299747,36.0354338,0 -82.4303455,36.0354853,0 -82.4323883,36.0358112,0 -82.432607,36.035852,0 -82.43276280000001,36.0358881,0 -82.433239,36.0360348,0 -82.43342989999999,36.0360838,0 -82.43369389999999,36.0361199,0 -82.4340165,36.0361306,0 -82.43421979999999,36.036127,0 -82.4343427,36.0361205,0 -82.43452189999999,36.0360963,0 -82.43474569999999,36.0360549,0 -82.4349739,36.0360365,0 -82.43514209999999,36.0360413,0 -82.4353053,36.036059,0 -82.43549760000001,36.0360951,0 -82.4357134,36.0361377,0 -82.4364009,36.0362974,0 -82.4366928,36.0363506,0 -82.436869,36.0363547,0 -82.4370036,36.0363334,0 -82.43713820000001,36.036282,0 -82.43722820000001,36.0362223,0 -82.4373393,36.0361182,0 -82.4375273,36.0359425,0 -82.437735,36.0358076,0 -82.4379303,36.0357331,0 -82.4381863,36.0356941,0 -82.43841449999999,36.0357006,0 -82.4386186,36.0357384,0 -82.4389572,36.0358603,0 -82.43937409999999,36.0360312,0 -82.4409637,36.0367652,0 -82.44123860000001,36.0369213,0 -82.4413723,36.0370109,0 -82.4414341,36.0370774,0 -82.4416932,36.0375189,0 -82.4418271,36.0377089,0 -82.442003,36.0379071,0 -82.4422163,36.0381153,0 -82.44243760000001,36.0382877,0 -82.4427948,36.0384965,0 -82.44293380000001,36.0385643,0 -82.4431081,36.0386489,0 -82.44385509999999,36.0389991,0 -82.44432620000001,36.0392251,0 -82.4445723,36.0393699,0 -82.4446423,36.0394307,0 -82.44467710000001,36.0394841,0 -82.4447255,36.0395641,0 -82.44477379999999,36.0397008,0 -82.4448811,36.0401671,0 -82.4449267,36.0402983,0 -82.44497490000001,36.0404002,0 -82.4450393,36.0404664,0 -82.44514789999999,36.0405271,0 -82.4452284,36.0405564,0 -82.4453061,36.0405743,0 -82.44541479999999,36.0405824,0 -82.445617,36.040575,0 -82.44573,36.0405726,0 -82.44608940000001,36.0406214,0 -82.4462812,36.0406377,0 -82.4464045,36.0406345,0 -82.446516,36.040612,0 -82.4466266,36.040566,0 -82.4467154,36.0405119,0 -82.4468013,36.0404365,0 -82.44695129999999,36.0402788,0 -82.4470386,36.0402082,0 -82.44712749999999,36.0401611,0 -82.4472265,36.0401422,0 -82.4473327,36.0401469,0 -82.447458,36.0402011,0 -82.4475948,36.0403141,0 -82.44779800000001,36.0405575,0 -82.4478731,36.0406279,0 -82.4479482,36.0406735,0 -82.44802730000001,36.0406941,0 -82.4481073,36.0406967,0 -82.44817879999999,36.0406952,0 -82.4482606,36.0406757,0 -82.4483446,36.0406414,0 -82.4485572,36.0405555,0 -82.4486491,36.0405304,0 -82.4487602,36.0405116,0 -82.4488971,36.0405054,0 -82.4489391,36.0405074,0 -82.4490754,36.0405137,0 -82.4499209,36.0406214,0 -82.45014089999999,36.0406323,0 -82.45030180000001,36.0406095,0 -82.4504574,36.0405748,0 -82.4505972,36.0405137,0 -82.4507212,36.0404469,0 -82.4508246,36.04038,0 -82.45092529999999,36.0402944,0 -82.4510674,36.0401502,0 -82.4512431,36.0399664,0 -82.4512692,36.039937,0 -82.45138,36.0398118,0 -82.45158120000001,36.0396108,0 -82.45168049999999,36.0394926,0 -82.451796,36.0393835,0 -82.4519174,36.0393187,0 -82.4520337,36.0392832,0 -82.4521448,36.0392769,0 -82.45228950000001,36.0392978,0 -82.4525414,36.0393678,0 -82.45268230000001,36.0394112,0 -82.4528955,36.039472,0 -82.4532308,36.0395598,0 -82.45346410000001,36.0396238,0 -82.453609,36.0396682,0 -82.4538088,36.0397452,0 -82.4539898,36.0398233,0 -82.4541832,36.0399222,0 -82.4543719,36.0400284,0 -82.4545531,36.0401725,0 -82.4547177,36.0403654,0 -82.4548401,36.0405152,0 -82.4549789,36.0406889,0 -82.45514350000001,36.0408867,0 -82.4552703,36.0410136,0 -82.4554801,36.0411772,0 -82.4556779,36.0413054,0 -82.4562894,36.0416387,0 -82.4565053,36.0417449,0 -82.45663209999999,36.0417925,0 -82.4567756,36.0418291,0 -82.4569054,36.0418401,0 -82.45775570000001,36.0417861,0 -82.45792059999999,36.0417894,0 -82.45807619999999,36.0417883,0 -82.4586381,36.0418056,0 -82.4588808,36.0418045,0 -82.4591097,36.0417889,0 -82.45958229999999,36.0417437,0 -82.4597459,36.0417384,0 -82.4598974,36.0417449,0 -82.46003020000001,36.0417633,0 -82.4601756,36.0417876,0 -82.4604368,36.0418633,0 -82.4606422,36.0419512,0 -82.4610615,36.0421407,0 -82.46166359999999,36.0423934,0 -82.4619842,36.0425126,0 -82.4622667,36.0425982,0 -82.46252490000001,36.0426752,0 -82.46275439999999,36.0427277,0 -82.4629162,36.0427436,0 -82.46307849999999,36.0427404,0 -82.4632622,36.0427219,0 -82.463446,36.0426948,0 -82.4637433,36.0426361,0 -82.46474550000001,36.0424649,0 -82.46491450000001,36.0424216,0 -82.4652538,36.0423066,0 -82.4655394,36.0421938,0 -82.4662891,36.0419108,0 -82.4667176,36.0417376,0 -82.46721890000001,36.0415508,0 -82.4674287,36.0415056,0 -82.467628,36.0414775,0 -82.4678236,36.0414499,0 -82.46808299999999,36.0413768,0 -82.4683191,36.0412884,0 -82.4691469,36.0409282,0 -82.4693054,36.0408781,0 -82.4696179,36.0408,0 -82.4698776,36.0407463,0 -82.47009660000001,36.0407011,0 -82.4710115,36.040507,0 -82.4713467,36.0404484,0 -82.4715648,36.0404234,0 -82.471693,36.040414,0 -82.47183,36.0404163,0 -82.4719521,36.040435,0 -82.47204859999999,36.0404599,0 -82.47211419999999,36.0404953,0 -82.4721771,36.0405546,0 -82.4722601,36.0406449,0 -82.47266620000001,36.0410991,0 -82.47286250000001,36.0413433,0 -82.47296679999999,36.0414251,0 -82.4730703,36.0414935,0 -82.47318249999999,36.0415477,0 -82.4733093,36.0415913,0 -82.47345799999999,36.0416325,0 -82.4735891,36.0416549,0 -82.47371010000001,36.0416636,0 -82.47387620000001,36.0416455,0 -82.4740838,36.041592,0 -82.47422280000001,36.0415362,0 -82.4745525,36.0413685,0 -82.4746166,36.0413485,0 -82.4746851,36.0413379,0 -82.474739,36.0413391,0 -82.4747988,36.0413497,0 -82.4748527,36.0413768,0 -82.4749023,36.0414169,0 -82.4749358,36.0414605,0 -82.4750947,36.0418741,0 -82.4751121,36.0419401,0 -82.47511799999999,36.041999,0 -82.4751165,36.0420721,0 -82.4750947,36.0423302,0 -82.475099,36.0423797,0 -82.4751151,36.0424174,0 -82.47513979999999,36.0424492,0 -82.47519079999999,36.0424763,0 -82.4752419,36.0424834,0 -82.47530140000001,36.0424818,0 -82.4753497,36.0424716,0 -82.4755937,36.0423895,0 -82.4756572,36.0423785,0 -82.4757199,36.0423738,0 -82.47579709999999,36.0423761,0 -82.4764103,36.042427,0 -82.4769641,36.0424553,0 -82.4770754,36.042439,0 -82.4771856,36.0424066,0 -82.4773163,36.0423691,0 -82.4774481,36.0422934,0 -82.47759019999999,36.0421968,0 -82.4777168,36.0420811,0 -82.47780950000001,36.0419937,0 -82.4779011,36.0418796,0 -82.4780782,36.0416099,0 -82.4783355,36.0413211,0 -82.4785383,36.041083,0 -82.4787237,36.0408066,0 -82.4787865,36.0407392,0 -82.4789079,36.0406576,0 -82.4790819,36.0405252,0 -82.4792374,36.0403854,0 -82.4794227,36.0400707,0 -82.47946899999999,36.0399076,0 -82.4795112,36.0398268,0 -82.4795637,36.0397744,0 -82.4796245,36.0397427,0 -82.47968830000001,36.0397269,0 -82.4797789,36.0397178,0 -82.4799426,36.0397086,0 -82.4802741,36.0397161,0 -82.48042340000001,36.0397494,0 -82.48056130000001,36.0398201,0 -82.480688,36.0398942,0 -82.48077859999999,36.0399317,0 -82.4808774,36.039945,0 -82.48096390000001,36.0399375,0 -82.48109359999999,36.0398917,0 -82.48125520000001,36.0397993,0 -82.4813489,36.0397319,0 -82.48142300000001,36.0395812,0 -82.4814519,36.0394397,0 -82.4814745,36.0392949,0 -82.4815167,36.0391758,0 -82.48162689999999,36.0390176,0 -82.48181219999999,36.0388445,0 -82.481876,36.038802,0 -82.4819573,36.0387762,0 -82.482049,36.0387654,0 -82.4822631,36.0387704,0 -82.4825647,36.0387804,0 -82.4826595,36.0387729,0 -82.48272230000001,36.0387471,0 -82.48284990000001,36.0386539,0 -82.4829395,36.0385623,0 -82.4831001,36.0383875,0 -82.4832689,36.0382334,0 -82.4834635,36.0381227,0 -82.4837888,36.037997,0 -82.48410389999999,36.0379288,0 -82.4843561,36.0379046,0 -82.4845826,36.0378996,0 -82.4847473,36.0379346,0 -82.4848925,36.0380029,0 -82.4849816,36.0380572,0 -82.4851345,36.0381408,0 -82.48525530000001,36.0381938,0 -82.4853631,36.0382621,0 -82.4853966,36.0383104,0 -82.4854053,36.038368,0 -82.4853835,36.038454,0 -82.4853208,36.0385446,0 -82.4852582,36.0386306,0 -82.4852393,36.0387071,0 -82.4852684,36.0387954,0 -82.48530770000001,36.0388578,0 -82.48537469999999,36.0389331,0 -82.48542569999999,36.0390426,0 -82.48544750000001,36.0391568,0 -82.4854213,36.0392863,0 -82.4853864,36.0394323,0 -82.48537039999999,36.0395359,0 -82.4853849,36.0396066,0 -82.48542279999999,36.0396631,0 -82.4855189,36.0396996,0 -82.4856164,36.0397078,0 -82.48578089999999,36.039716,0 -82.48589010000001,36.039749,0 -82.4860022,36.039835,0 -82.48608230000001,36.0399409,0 -82.4861959,36.0400563,0 -82.48630799999999,36.040141,0 -82.4863881,36.0402164,0 -82.4864055,36.0402705,0 -82.4864099,36.0403282,0 -82.486372,36.0404048,0 -82.48613760000001,36.0406661,0 -82.4860838,36.0407426,0 -82.48606479999999,36.040825,0 -82.48607939999999,36.0408863,0 -82.48611579999999,36.0409416,0 -82.48618860000001,36.0409804,0 -82.4863313,36.0409828,0 -82.4866954,36.0409272,0 -82.48716880000001,36.0408546,0 -82.48737389999999,36.0408362,0 -82.48756710000001,36.0408307,0 -82.48789429999999,36.0408394,0 -82.4882953,36.0408915,0 -82.4884723,36.0408893,0 -82.4886748,36.0408633,0 -82.48881299999999,36.0408221,0 -82.48908249999999,36.0407299,0 -82.4892555,36.0407071,0 -82.4894795,36.0407114,0 -82.4896485,36.0407407,0 -82.4898055,36.0408085,0 -82.48989760000001,36.0408598,0 -82.4900667,36.040955,0 -82.4901347,36.0409636,0 -82.49020109999999,36.0409453,0 -82.4902611,36.0408992,0 -82.4902917,36.04085,0 -82.4903521,36.0407597,0 -82.49048190000001,36.0405448,0 -82.4905318,36.0403947,0 -82.49064799999999,36.0398087,0 -82.49072200000001,36.0397183,0 -82.49079450000001,36.0396756,0 -82.490882,36.0396475,0 -82.491062,36.0396758,0 -82.4911894,36.0397105,0 -82.4913061,36.039768,0 -82.4913818,36.0398123,0 -82.4914754,36.0399039,0 -82.49173810000001,36.0403849,0 -82.4918096,36.0405202,0 -82.49193219999999,36.040711,0 -82.4920146,36.0408185,0 -82.4921636,36.0409473,0 -82.4923297,36.0410557,0 -82.49253400000001,36.0411489,0 -82.4926511,36.0411827,0 -82.4927702,36.0412233,0 -82.49293710000001,36.0412954,0 -82.4930797,36.0413871,0 -82.49327169999999,36.0415515,0 -82.4934889,36.0417133,0 -82.493595,36.0417749,0 -82.4938375,36.0418635,0 -82.49399150000001,36.0419157,0 -82.4946791,36.0420865,0 -82.4948395,36.0421546,0 -82.49508419999999,36.0422987,0 -82.49528669999999,36.0424717,0 -82.495593,36.0427206,0 -82.49583440000001,36.0429001,0 -82.49605320000001,36.042997,0 -82.4962573,36.0430547,0 -82.4964599,36.0430992,0 -82.4968228,36.0431713,0 -82.4972259,36.0432719,0 -82.4972846,36.0432866,0 -82.49748390000001,36.0433744,0 -82.49828100000001,36.043924,0 -82.4986408,36.0441565,0 -82.4990724,36.0444591,0 -82.49917840000001,36.0445448,0 -82.4992561,36.0446228,0 -82.4993286,36.0447313,0 -82.49938349999999,36.0448636,0 -82.49947469999999,36.0452377,0 -82.49953240000001,36.0454372,0 -82.4995807,36.0455695,0 -82.49968130000001,36.0457603,0 -82.4997966,36.0459462,0 -82.49992,36.0461442,0 -82.500038,36.0463914,0 -82.50010399999999,36.0465986,0 -82.5002047,36.0471064,0 -82.50021099999999,36.0471384,0 -82.5003876,36.0481196,0 -82.5004735,36.0486607,0 -82.5004953,36.0489211,0 -82.5004953,36.0491337,0 -82.5004283,36.04973,0 -82.5003933,36.049943,0 -82.5003418,36.050317,0 -82.500165,36.051573,0 -82.5001546,36.0517427,0 -82.500152,36.0518769,0 -82.5002155,36.0520932,0 -82.5003193,36.0522409,0 -82.50055279999999,36.0523733,0 -82.50073759999999,36.0524414,0 -82.5009517,36.0525126,0 -82.501271,36.0526111,0 -82.5016275,36.0527407,0 -82.5018793,36.0528571,0 -82.5020653,36.0529877,0 -82.5021637,36.0531086,0 -82.50227820000001,36.0533372,0 -82.5023655,36.0535736,0 -82.50248430000001,36.0539892,0 -82.5026214,36.0544086,0 -82.502667,36.0545309,0 -82.5028502,36.055087,0 -82.5029412,36.0553575,0 -82.5031875,36.0558321,0 -82.50380199999999,36.0570497,0 -82.5039895,36.0575195,0 -82.5040867,36.057918,0 -82.5040884,36.0581136,0 -82.504058,36.0582195,0 -82.5040042,36.0584031,0 -82.5039077,36.0585866,0 -82.50364930000001,36.058893,0 -82.50340300000001,36.0590908,0 -82.5029443,36.0593958,0 -82.50282780000001,36.0595073,0 -82.50277269999999,36.0595925,0 -82.5027279,36.0598192,0 -82.50279949999999,36.0604266,0 -82.5028938,36.0607789,0 -82.502897,36.060791,0 -82.50306209999999,36.061328,0 -82.50311929999999,36.0616599,0 -82.50311019999999,36.0619891,0 -82.50308,36.0623446,0 -82.50309710000001,36.0625019,0 -82.50314109999999,36.0626417,0 -82.5032199,36.0628881,0 -82.5032702,36.0631194,0 -82.5032224,36.0632706,0 -82.50308389999999,36.0633899,0 -82.5029558,36.0634736,0 -82.5027468,36.063543,0 -82.50239190000001,36.0636098,0 -82.50215369999999,36.0636819,0 -82.50198519999999,36.0637984,0 -82.5018929,36.0638927,0 -82.5017646,36.0641122,0 -82.501681,36.064328,0 -82.5016454,36.064729,0 -82.5017039,36.0652301,0 -82.50175659999999,36.0654903,0 -82.5018288,36.0657246,0 -82.5021529,36.0662681,0 -82.5023702,36.0667125,0 -82.5025097,36.0670638,0 -82.50259819999999,36.067402,0 -82.5027339,36.0681243,0 -82.5028288,36.0688763,0 -82.5028932,36.0690801,0 -82.5029651,36.0692472,0 -82.5030531,36.0694968,0 -82.50309009999999,36.0696787,0 -82.50310639999999,36.0697641,0 -82.5031099,36.0698608,0 -82.5030936,36.0699819,0 -82.5030541,36.0700926,0 -82.5030077,36.0701771,0 -82.5029578,36.0702438,0 -82.5028741,36.0703339,0 -82.50278470000001,36.0704033,0 -82.50267909999999,36.0704784,0 -82.50253739999999,36.0705554,0 -82.50229589999999,36.0706736,0 -82.501468,36.0710528,0 -82.5011068,36.0712217,0 -82.500957,36.071295,0 -82.5008223,36.0713738,0 -82.5007213,36.0714479,0 -82.5006482,36.0715202,0 -82.50057270000001,36.0716206,0 -82.5005262,36.0717136,0 -82.5004902,36.0718496,0 -82.5004548,36.0720171,0 -82.5004252,36.0721326,0 -82.5003596,36.0722945,0 -82.5002873,36.0724259,0 -82.50025580000001,36.0724746,0 -82.5002298,36.0725149,0 -82.50019349999999,36.0726268,0 -82.49997190000001,36.072753,0 -82.49974039999999,36.0729003,0 -82.4996647,36.0729547,0 -82.4995187,36.0730596,0 -82.4993036,36.0732454,0 -82.4988733,36.0736635,0 -82.4984086,36.0741559,0 -82.498165,36.0744119,0 -82.498113,36.0744665,0 -82.4979459,36.0746384,0 -82.4974151,36.0751846,0 -82.49726560000001,36.0753571,0 -82.4971261,36.0755442,0 -82.4969766,36.0757951,0 -82.4969093,36.075953,0 -82.49684360000001,36.0761654,0 -82.49676479999999,36.0764508,0 -82.4966663,36.0769418,0 -82.4966203,36.0771184,0 -82.4965661,36.0772763,0 -82.4964971,36.0774143,0 -82.4963789,36.0776254,0 -82.4961752,36.0779187,0 -82.4956251,36.0786978,0 -82.4953788,36.0790229,0 -82.4952491,36.0791809,0 -82.4950438,36.0794105,0 -82.49482209999999,36.0796348,0 -82.4942605,36.0801988,0 -82.4941357,36.0803461,0 -82.49403220000001,36.0804789,0 -82.49393860000001,36.0806156,0 -82.49385820000001,36.0807523,0 -82.493758,36.0809712,0 -82.4936857,36.0811902,0 -82.49360849999999,36.0814583,0 -82.4935018,36.0819056,0 -82.49329,36.082962,0 -82.49319800000001,36.0833681,0 -82.4931405,36.0835512,0 -82.4930748,36.0837264,0 -82.4929944,36.0838777,0 -82.4929008,36.0840277,0 -82.49278750000001,36.0841723,0 -82.4926643,36.084309,0 -82.49251649999999,36.0844497,0 -82.49236380000001,36.0845718,0 -82.49219960000001,36.0846912,0 -82.4919877,36.0848133,0 -82.4917545,36.0849314,0 -82.49136369999999,36.0851026,0 -82.4906088,36.0854311,0 -82.4904216,36.0855106,0 -82.4901569,36.085623,0 -82.4903546,36.0859094,0 -82.49050250000001,36.0861458,0 -82.48997009999999,36.0863889,0 -82.4895933,36.0865908,0 -82.48933359999999,36.0867493,0 -82.4890486,36.0869432,0 -82.4887423,36.0871701,0 -82.4885137,36.0873469,0 -82.4881609,36.0876114,0 -82.487842,36.0878452,0 -82.4875341,36.0880876,0 -82.4873326,36.0882535,0 -82.4871265,36.0884416,0 -82.48670559999999,36.0889722,0 -82.4864784,36.0892471,0 -82.4862554,36.0895504,0 -82.4858462,36.0901559,0 -82.4849454,36.0915017,0 -82.484594,36.0919943,0 -82.48437389999999,36.0922759,0 -82.4842285,36.0924461,0 -82.4840665,36.0926194,0 -82.48391530000001,36.0927757,0 -82.48363019999999,36.0930619,0 -82.4832167,36.0934279,0 -82.4828357,36.0937301,0 -82.47939239999999,36.0963824,0 -82.4790467,36.0966379,0 -82.4788294,36.0967827,0 -82.4786304,36.0969047,0 -82.4783877,36.0970335,0 -82.47813650000001,36.0971476,0 -82.4778712,36.0972502,0 -82.47753109999999,36.0973642,0 -82.47723190000001,36.097444,0 -82.4764078,36.0976675,0 -82.47615380000001,36.0977439,0 -82.4758518,36.0978442,0 -82.4755992,36.0979457,0 -82.47537199999999,36.0980484,0 -82.4751462,36.0981704,0 -82.4749218,36.0983106,0 -82.474665,36.098501,0 -82.4744773,36.0986664,0 -82.47426280000001,36.0988978,0 -82.4741302,36.09907,0 -82.47399040000001,36.0992752,0 -82.4738705,36.0994885,0 -82.47372489999999,36.0997845,0 -82.473624,36.1000047,0 -82.4735285,36.1002392,0 -82.4733914,36.1006133,0 -82.4732545,36.1009155,0 -82.47313029999999,36.101156,0 -82.4729737,36.1014035,0 -82.47281700000001,36.1016121,0 -82.4726971,36.1017512,0 -82.47260970000001,36.1018444,0 -82.4723844,36.1020473,0 -82.4721826,36.1022035,0 -82.4719695,36.1023495,0 -82.471738,36.1024817,0 -82.4715207,36.1025946,0 -82.4712667,36.1027041,0 -82.4710042,36.1028101,0 -82.4705809,36.1029697,0 -82.4701307,36.1031328,0 -82.4695423,36.1033369,0 -82.4690792,36.1035064,0 -82.46069439999999,36.1064918,0 -82.4535367,36.1090354,0 -82.4531552,36.1091738,0 -82.45279360000001,36.109315,0 -82.4524337,36.1094784,0 -82.45209439999999,36.1096432,0 -82.4517807,36.1098204,0 -82.4515305,36.1099838,0 -82.45120489999999,36.1102136,0 -82.4509084,36.110449,0 -82.45063589999999,36.110694,0 -82.4504285,36.1109073,0 -82.45019720000001,36.1111828,0 -82.4500001,36.1114403,0 -82.4497776,36.111785,0 -82.4496487,36.1120274,0 -82.4495719,36.1121815,0 -82.4495459,36.1122337,0 -82.4494397,36.112458,0 -82.44936079999999,36.1126573,0 -82.4492717,36.1129453,0 -82.4491668,36.1133051,0 -82.4486698,36.1151831,0 -82.4481092,36.1173014,0 -82.4477648,36.1186014,0 -82.44767899999999,36.1189152,0 -82.4475128,36.1195234,0 -82.447374,36.1199831,0 -82.4471992,36.1205258,0 -82.44701240000001,36.1210781,0 -82.44675530000001,36.1217675,0 -82.44652910000001,36.1223337,0 -82.44627370000001,36.1229179,0 -82.4460921,36.1233208,0 -82.44587610000001,36.1237472,0 -82.4457373,36.1240005,0 -82.44557450000001,36.1242884,0 -82.44541,36.1245584,0 -82.4452352,36.1248297,0 -82.4450672,36.1250692,0 -82.44485299999999,36.1253627,0 -82.4445853,36.125705,0 -82.44446600000001,36.1258606,0 -82.444238,36.126118,0 -82.44352139999999,36.1268812,0 -82.4433207,36.1270648,0 -82.44272580000001,36.1275748,0 -82.44221279999999,36.1279834,0 -82.4416071,36.1284251,0 -82.4374268,36.1315187,0 -82.4352403,36.1330998,0 -82.4339915,36.1340192,0 -82.4334375,36.1344364,0 -82.43312760000001,36.1346939,0 -82.4328799,36.1349069,0 -82.43257180000001,36.1352004,0 -82.4322796,36.1355039,0 -82.43202839999999,36.1357845,0 -82.4317772,36.1360895,0 -82.4315421,36.1364146,0 -82.4312695,36.1368146,0 -82.4310504,36.1371786,0 -82.4308224,36.1376116,0 -82.4285689,36.1418858,0 -82.4281843,36.1426186,0 -82.4279619,36.143045,0 -82.4276514,36.1436217,0 -82.4273391,36.1441662,0 -82.4269693,36.1447433,0 -82.4264367,36.1454983,0 -82.42610329999999,36.1459129,0 -82.4257642,36.1463183,0 -82.4253983,36.1467221,0 -82.424881,36.1472512,0 -82.4243599,36.14774,0 -82.4239154,36.1481283,0 -82.42350159999999,36.1484671,0 -82.42291729999999,36.1489142,0 -82.42239619999999,36.149284,0 -82.42209219999999,36.149496,0 -82.4215173,36.1498949,0 -82.42111629999999,36.1501585,0 -82.420378,36.1506322,0 -82.41925740000001,36.1513374,0 -82.41877460000001,36.1516451,0 -82.4175528,36.1524266,0 -82.4165173,36.1530789,0 -82.4157744,36.1535309,0 -82.4150281,36.1539773,0 -82.4142442,36.1544679,0 -82.4132137,36.1551202,0 -82.4114969,36.1562079,0 -82.40916559999999,36.1576922,0 -82.4073478,36.1588461,0 -82.4066801,36.1592684,0 -82.4060173,36.1596909,0 -82.4049681,36.1603596,0 -82.403907,36.1610301,0 -82.4032651,36.161435,0 -82.4027413,36.1617474,0 -82.40231989999999,36.1619881,0 -82.40184790000001,36.162248,0 -82.4008228,36.1627728,0 -82.3996451,36.1633679,0 -82.3992188,36.1635893,0 -82.3987214,36.163859,0 -82.39832680000001,36.1640915,0 -82.39807620000001,36.1642528,0 -82.39783300000001,36.1644286,0 -82.3975631,36.1646446,0 -82.3973513,36.1648332,0 -82.3971104,36.1650687,0 -82.3968756,36.1653315,0 -82.39667470000001,36.1655856,0 -82.3964713,36.1658758,0 -82.3962051,36.1662891,0 -82.3950383,36.168172,0 -82.3947599,36.168597,0 -82.3945408,36.1689087,0 -82.39435450000001,36.1691559,0 -82.3941572,36.1693757,0 -82.39395260000001,36.1695858,0 -82.3937251,36.1698131,0 -82.39326990000001,36.1701664,0 -82.3928746,36.170418,0 -82.39250180000001,36.1706368,0 -82.39221379999999,36.1707844,0 -82.39187,36.170928,0 -82.391496,36.1710667,0 -82.3909962,36.171225,0 -82.3899758,36.1715113,0 -82.38949650000001,36.1716559,0 -82.3890403,36.1718025,0 -82.38874250000001,36.1719148,0 -82.38847869999999,36.1720321,0 -82.3881628,36.1721816,0 -82.3878844,36.172331,0 -82.3876532,36.1724727,0 -82.3873385,36.1726828,0 -82.38709040000001,36.1728694,0 -82.3868786,36.1730462,0 -82.386599,36.1733012,0 -82.386409,36.1734957,0 -82.3862323,36.1736989,0 -82.3859345,36.1740614,0 -82.3853173,36.1748781,0 -82.3840355,36.1765791,0 -82.38330449999999,36.1775434,0 -82.3828893,36.1781178,0 -82.38257950000001,36.1785645,0 -82.3823895,36.1788507,0 -82.3822019,36.1791467,0 -82.3819828,36.1795072,0 -82.3816959,36.1800152,0 -82.3814393,36.1805076,0 -82.38037420000001,36.1825474,0 -82.3793987,36.1844241,0 -82.3791942,36.1847963,0 -82.3790465,36.1850503,0 -82.3788504,36.1853511,0 -82.37858660000001,36.1857243,0 -82.3783445,36.1860232,0 -82.3781472,36.1862489,0 -82.3779064,36.1865029,0 -82.377651,36.18675,0 -82.3773581,36.187003,0 -82.3770603,36.1872433,0 -82.3767106,36.1875004,0 -82.3762254,36.1878256,0 -82.37427169999999,36.1890275,0 -82.3733886,36.1895718,0 -82.3729294,36.1898578,0 -82.3724864,36.190146,0 -82.3720289,36.1904771,0 -82.371713,36.1907311,0 -82.371408,36.1910016,0 -82.37107760000001,36.1913211,0 -82.3707557,36.1916737,0 -82.37053779999999,36.1919286,0 -82.37037909999999,36.1921196,0 -82.3698761,36.1927217,0 -82.3676761,36.1953485,0 -82.3673946,36.1956678,0 -82.36718070000001,36.1958975,0 -82.36692650000001,36.1961468,0 -82.3665367,36.19651,0 -82.36620859999999,36.1967865,0 -82.3659609,36.1969851,0 -82.3656794,36.1971902,0 -82.36534159999999,36.1974264,0 -82.364999,36.1976523,0 -82.3646033,36.1979106,0 -82.36243039999999,36.1993039,0 -82.3620659,36.1995349,0 -82.3617394,36.1997594,0 -82.3614467,36.1999632,0 -82.3611314,36.2001891,0 -82.3606827,36.2005278,0 -82.3602693,36.2008523,0 -82.3594329,36.2015104,0 -82.3585418,36.2022139,0 -82.35792739999999,36.2027097,0 -82.3575414,36.2030419,0 -82.3573226,36.2032431,0 -82.35707650000001,36.2034806,0 -82.3567532,36.2038207,0 -82.3564219,36.2041971,0 -82.3560535,36.2046396,0 -82.3558113,36.2049708,0 -82.355553,36.2053042,0 -82.3553191,36.2056009,0 -82.3550785,36.205915,0 -82.35484409999999,36.2062185,0 -82.3546017,36.2065176,0 -82.3543311,36.2068328,0 -82.3541049,36.2070894,0 -82.3539775,36.2072269,0 -82.353634,36.2075645,0 -82.3532386,36.2079368,0 -82.35294519999999,36.2081852,0 -82.35263190000001,36.2084266,0 -82.3523398,36.2086371,0 -82.3519857,36.2088721,0 -82.3519517,36.2089003,0 -82.35192910000001,36.2089163,0 -82.3517985,36.2090086,0 -82.3516448,36.2091218,0 -82.3510727,36.2095543,0 -82.3505574,36.2099482,0 -82.3492476,36.2108646,0 -82.3488796,36.21114,0 -82.3484395,36.2114751,0 -82.3481651,36.2116851,0 -82.3478995,36.2119099,0 -82.3475846,36.212173,0 -82.34732750000001,36.2124185,0 -82.3470252,36.212733,0 -82.3467416,36.2130523,0 -82.34649779999999,36.213366,0 -82.3462492,36.2137183,0 -82.3460444,36.2140492,0 -82.3458449,36.2144066,0 -82.34550729999999,36.2150726,0 -82.3451646,36.2158321,0 -82.344573,36.2172065,0 -82.3444846,36.2174074,0 -82.34418599999999,36.2180638,0 -82.3440025,36.2184458,0 -82.3437754,36.2189226,0 -82.3434815,36.2195316,0 -82.3432577,36.2200214,0 -82.3429869,36.2206839,0 -82.3427307,36.2212228,0 -82.3423669,36.2219176,0 -82.341949,36.2228809,0 -82.3412967,36.2242731,0 -82.3407433,36.2255266,0 -82.3401578,36.2268277,0 -82.3399691,36.2272675,0 -82.3394914,36.2283307,0 -82.3392917,36.2286818,0 -82.33916170000001,36.228907,0 -82.33901400000001,36.2291388,0 -82.3388882,36.2293389,0 -82.3387601,36.2295076,0 -82.3386273,36.2296549,0 -82.33842009999999,36.2298777,0 -82.33817740000001,36.2301063,0 -82.3378396,36.2303709,0 -82.3374444,36.2306512,0 -82.33714860000001,36.2308512,0 -82.336769,36.2310714,0 -82.3364749,36.2312497,0 -82.3361567,36.2314368,0 -82.33551009999999,36.2318423,0 -82.3347716,36.2322891,0 -82.3344845,36.232453,0 -82.3339886,36.2327572,0 -82.33363,36.2329906,0 -82.3331932,36.2332963,0 -82.33279520000001,36.2335976,0 -82.3323618,36.2339281,0 -82.3319729,36.2342233,0 -82.3316157,36.234507,0 -82.3313022,36.2347657,0 -82.3310151,36.2350421,0 -82.3304196,36.235651,0 -82.33021979999999,36.2358648,0 -82.3299765,36.236132,0 -82.329606,36.2365031,0 -82.3292727,36.2369032,0 -82.3289286,36.2373774,0 -82.3286427,36.2377957,0 -82.3284407,36.2380735,0 -82.3280597,36.2387024,0 -82.3277136,36.2393766,0 -82.3273756,36.2400894,0 -82.32718319999999,36.2406054,0 -82.3270102,36.2410875,0 -82.3269306,36.2413533,0 -82.3268601,36.2415815,0 -82.3267311,36.2420306,0 -82.3264236,36.2432509,0 -82.326246,36.2439486,0 -82.3259516,36.2450278,0 -82.3258048,36.2455665,0 -82.32566129999999,36.2461038,0 -82.3250044,36.2486713,0 -82.3247748,36.2495147,0 -82.3245707,36.2502235,0 -82.3243621,36.2508749,0 -82.3241707,36.2515075,0 -82.3239275,36.2521234,0 -82.3237652,36.2525384,0 -82.3235315,36.2531404,0 -82.3233323,36.2537015,0 -82.32317810000001,36.254163,0 -82.323047,36.2546203,0 -82.3229838,36.2548826,0 -82.3229036,36.2551988,0 -82.32284319999999,36.2554988,0 -82.3227734,36.2558596,0 -82.32271470000001,36.2562671,0 -82.3226502,36.256812,0 -82.3225485,36.2576802,0 -82.32247390000001,36.2583943,0 -82.32242599999999,36.2589364,0 -82.3223692,36.2594908,0 -82.3222719,36.2602768,0 -82.3221934,36.261064,0 -82.322123,36.2616701,0 -82.32203509999999,36.2624107,0 -82.3219478,36.2632104,0 -82.3218327,36.2643154,0 -82.3217653,36.2650653,0 -82.3217022,36.2657195,0 -82.3216661,36.2660602,0 -82.32163509999999,36.2663467,0 -82.32158680000001,36.2668506,0 -82.3215063,36.2674886,0 -82.3214565,36.2677838,0 -82.32141900000001,36.2680184,0 -82.32137609999999,36.268213,0 -82.32131440000001,36.2684812,0 -82.3212345,36.2687725,0 -82.3210998,36.2691548,0 -82.3209643,36.2694586,0 -82.3208533,36.2696953,0 -82.32069079999999,36.2700155,0 -82.3205486,36.2702728,0 -82.320275,36.2707237,0 -82.3199505,36.2712589,0 -82.31973050000001,36.2716568,0 -82.31956150000001,36.2719379,0 -82.3193845,36.2722796,0 -82.3192719,36.2725629,0 -82.3191217,36.2729348,0 -82.319001,36.2732873,0 -82.3188964,36.2737089,0 -82.318832,36.274003,0 -82.31860229999999,36.2751195,0 -82.3185064,36.2757819,0 -82.3184258,36.2763953,0 -82.31840510000001,36.2766973,0 -82.31839290000001,36.2769432,0 -82.3184014,36.2771734,0 -82.31841609999999,36.2773938,0 -82.31845269999999,36.2776171,0 -82.3185039,36.2779005,0 -82.31856620000001,36.2781375,0 -82.3186613,36.2784287,0 -82.3187626,36.2786875,0 -82.3188664,36.2789216,0 -82.31899079999999,36.2791597,0 -82.31911650000001,36.2793663,0 -82.31932399999999,36.2796693,0 -82.3194692,36.2798591,0 -82.31963759999999,36.2800598,0 -82.319856,36.280289,0 -82.3201086,36.280532,0 -82.32033680000001,36.2807238,0 -82.3206016,36.2809245,0 -82.3209521,36.2811713,0 -82.3212484,36.2813465,0 -82.32226129999999,36.2819515,0 -82.3226042,36.2821768,0 -82.32287150000001,36.2823706,0 -82.3231375,36.282587,0 -82.3233401,36.2827916,0 -82.3235646,36.2830493,0 -82.32376720000001,36.2833208,0 -82.3239344,36.283613,0 -82.3240515,36.2838737,0 -82.32416499999999,36.2841717,0 -82.3242407,36.2844718,0 -82.32429430000001,36.2847816,0 -82.3243188,36.2850217,0 -82.32432489999999,36.2852324,0 -82.3243138,36.2857563,0 -82.3242791,36.2862799,0 -82.3242594,36.2865962,0 -82.3242308,36.2874146,0 -82.3242252,36.2879942,0 -82.3242477,36.2885325,0 -82.3242908,36.2891655,0 -82.3243598,36.2897734,0 -82.32474809999999,36.292778,0 -82.3248983,36.2938824,0 -82.3249587,36.2942135,0 -82.3250432,36.2945487,0 -82.32514159999999,36.2948505,0 -82.3252555,36.2951426,0 -82.32544540000001,36.2955001,0 -82.32562830000001,36.2957766,0 -82.32588149999999,36.296113,0 -82.32611540000001,36.296369,0 -82.32641049999999,36.2966446,0 -82.3266395,36.2968317,0 -82.3269201,36.2970293,0 -82.3272346,36.2972308,0 -82.3275636,36.2974141,0 -82.3278636,36.2975479,0 -82.3282329,36.2976987,0 -82.3287807,36.2978937,0 -82.3295068,36.2981194,0 -82.3303305,36.2983811,0 -82.3308256,36.2985709,0 -82.33126590000001,36.2987801,0 -82.3315885,36.2989556,0 -82.3319417,36.2991792,0 -82.332261,36.299417,0 -82.33257709999999,36.2996796,0 -82.33282389999999,36.299907,0 -82.33303189999999,36.3001384,0 -82.33327540000001,36.3004256,0 -82.3335222,36.3007883,0 -82.33376730000001,36.3011977,0 -82.33488180000001,36.3030615,0 -82.33536669999999,36.3039286,0 -82.3367903,36.3063144,0 -82.3369459,36.3065176,0 -82.3375089,36.3072594,0 -82.33785229999999,36.3077494,0 -82.3381617,36.3082563,0 -82.33851850000001,36.308868,0 -82.3387673,36.3092658,0 -82.34010670000001,36.3115077,0 -82.3402938,36.3118081,0 -82.34043680000001,36.3120115,0 -82.34052010000001,36.3121493,0 -82.3406987,36.3123376,0 -82.3409589,36.3125748,0 -82.3411322,36.3127068,0 -82.3413606,36.3128664,0 -82.34162000000001,36.3130127,0 -82.341921,36.3131518,0 -82.34223849999999,36.3132751,0 -82.3427779,36.3134533,0 -82.3439498,36.3138368,0 -82.3443552,36.3139655,0 -82.3446223,36.3140726,0 -82.34492880000001,36.3141974,0 -82.3453279,36.3143932,0 -82.3454938,36.3144903,0 -82.3457964,36.3146871,0 -82.3459478,36.3147971,0 -82.3460839,36.3149133,0 -82.34630559999999,36.3151173,0 -82.34651820000001,36.3153408,0 -82.3467181,36.3155841,0 -82.3467921,36.315689,0 -82.3468859,36.3158348,0 -82.3470052,36.316048,0 -82.3470782,36.3161949,0 -82.3471802,36.3164252,0 -82.3472653,36.3166309,0 -82.34732870000001,36.3168666,0 -82.34737459999999,36.3171265,0 -82.3473913,36.317423,0 -82.3474137,36.3183531,0 -82.3474385,36.3194797,0 -82.3474731,36.3197503,0 -82.3475323,36.3200252,0 -82.34762739999999,36.3203366,0 -82.34770399999999,36.320542,0 -82.347797,36.3207425,0 -82.3480283,36.3211635,0 -82.34815330000001,36.3213414,0 -82.3482973,36.3215048,0 -82.3484177,36.3216366,0 -82.3485488,36.3217724,0 -82.34874139999999,36.3219449,0 -82.3490015,36.3221581,0 -82.34916560000001,36.3222868,0 -82.3493357,36.3224124,0 -82.3502214,36.3230419,0 -82.35069540000001,36.3233736,0 -82.35076410000001,36.3234253,0 -82.3510869,36.3236335,0 -82.35262590000001,36.3247177,0 -82.353011,36.324989,0 -82.3536242,36.3254234,0 -82.3539718,36.3256686,0 -82.35493700000001,36.3263445,0 -82.3561655,36.3272094,0 -82.3563578,36.3273701,0 -82.3565547,36.327509,0 -82.356914,36.3277553,0 -82.3578888,36.3284318,0 -82.35888679999999,36.3291255,0 -82.35965950000001,36.3296792,0 -82.3600251,36.329948,0 -82.3603097,36.3301793,0 -82.3606257,36.3304592,0 -82.36094799999999,36.3307686,0 -82.3612893,36.33112,0 -82.36157129999999,36.3314598,0 -82.3618231,36.3317823,0 -82.3620863,36.3321576,0 -82.3623267,36.33254,0 -82.36259870000001,36.3330552,0 -82.3627812,36.3334548,0 -82.3629348,36.3338534,0 -82.363067,36.334256,0 -82.3631829,36.3346911,0 -82.36328109999999,36.3350988,0 -82.36336919999999,36.3354071,0 -82.36347499999999,36.3357256,0 -82.36360209999999,36.3360339,0 -82.3637545,36.3363733,0 -82.3639069,36.3366714,0 -82.3640997,36.3370055,0 -82.36481000000001,36.3381579,0 -82.3650512,36.338552,0 -82.3653012,36.3389583,0 -82.3655454,36.3393386,0 -82.3658854,36.3398213,0 -82.3662391,36.3402848,0 -82.3665602,36.3406773,0 -82.3669391,36.3411134,0 -82.36728909999999,36.3414855,0 -82.367687,36.3418861,0 -82.3680244,36.3422035,0 -82.3683365,36.3424801,0 -82.3688578,36.3429202,0 -82.3691324,36.3431451,0 -82.36946450000001,36.3433989,0 -82.36986640000001,36.3436869,0 -82.37025130000001,36.343953,0 -82.3708065,36.3443152,0 -82.3712884,36.3446073,0 -82.37172440000001,36.3448529,0 -82.37222680000001,36.3451204,0 -82.3727513,36.345381,0 -82.3731906,36.3455826,0 -82.3737118,36.3458089,0 -82.37426290000001,36.3461006,0 -82.37491919999999,36.3463838,0 -82.3752985,36.3465545,0 -82.3755972,36.3467126,0 -82.375885,36.3468872,0 -82.3760728,36.3470191,0 -82.37633529999999,36.3472247,0 -82.3766231,36.3474992,0 -82.3770482,36.3479619,0 -82.3771867,36.3480947,0 -82.3772975,36.3481762,0 -82.3774035,36.3482344,0 -82.37751299999999,36.34828,0 -82.3776347,36.3483227,0 -82.3777755,36.3483547,0 -82.3787485,36.3485157,0 -82.3788617,36.3485409,0 -82.3789364,36.348569,0 -82.37900500000001,36.3486078,0 -82.37907130000001,36.3486573,0 -82.37918790000001,36.3487547,0 -82.37961180000001,36.3495527,0 -82.3796629,36.3496488,0 -82.37973100000001,36.3497771,0 -82.3801016,36.350367,0 -82.3802816,36.3506534,0 -82.3804349,36.350945,0 -82.3805021,36.3510728,0 -82.38055079999999,36.3511655,0 -82.38079070000001,36.3516216,0 -82.3808111,36.3516617,0 -82.3808823,36.3517967,0 -82.38099339999999,36.3520072,0 -82.3810604,36.3521346,0 -82.3813397,36.3526658,0 -82.3815634,36.3530912,0 -82.3816556,36.3532666,0 -82.38174600000001,36.3534385,0 -82.38187120000001,36.3536766,0 -82.3823448,36.3545525,0 -82.3824489,36.354737,0 -82.3825999,36.3550045,0 -82.3826902,36.3551645,0 -82.3827902,36.3553417,0 -82.38295359999999,36.3556313,0 -82.3829806,36.3556752,0 -82.38315,36.3559508,0 -82.38324590000001,36.3561068,0 -82.383223,36.356247,0 -82.3834179,36.356611,0 -82.3835692,36.3568935,0 -82.3835995,36.3569533,0 -82.3838559,36.3574595,0 -82.3839535,36.357688,0 -82.3840182,36.3578604,0 -82.3840416,36.3579403,0 -82.384119,36.3582054,0 -82.38413490000001,36.3582598,0 -82.3841901,36.3585035,0 -82.384193,36.3585164,0 -82.3842811,36.3588349,0 -82.3843306,36.3594734,0 -82.3842995,36.3598988,0 -82.38428159999999,36.3600662,0 -82.3842203,36.3603621,0 -82.3841901,36.3605097,0 -82.3841568,36.3606701,0 -82.38411309999999,36.3608378,0 -82.3840154,36.3611123,0 -82.38392519999999,36.3613359,0 -82.3836817,36.3618698,0 -82.3836603,36.3618978,0 -82.38355249999999,36.3620388,0 -82.38349669999999,36.3621118,0 -82.3834148,36.3622277,0 -82.38327750000001,36.362422,0 -82.3832039,36.3625121,0 -82.3831206,36.362614,0 -82.3830401,36.3627126,0 -82.3829412,36.362837,0 -82.3827476,36.3630803,0 -82.38245619999999,36.3633944,0 -82.38205480000001,36.3638243,0 -82.3817531,36.3641755,0 -82.38132419999999,36.3646509,0 -82.3811236,36.3648732,0 -82.3809924,36.3650198,0 -82.380618,36.3654477,0 -82.38058839999999,36.3654815,0 -82.380387,36.3657064,0 -82.3800875,36.3660411,0 -82.3789744,36.3672863,0 -82.3785185,36.3678012,0 -82.3777596,36.3686498,0 -82.3774749,36.3689686,0 -82.3769772,36.3695243,0 -82.3762566,36.370326,0 -82.3753576,36.3713309,0 -82.3751295,36.3715806,0 -82.37467770000001,36.3720692,0 -82.3744275,36.3723469,0 -82.37403140000001,36.3728027,0 -82.3738262,36.3730432,0 -82.3730844,36.3738812,0 -82.373053,36.3739162,0 -82.3728277,36.3741669,0 -82.37259450000001,36.3744264,0 -82.37239270000001,36.374651,0 -82.37233519999999,36.374715,0 -82.3718729,36.3752306,0 -82.3715713,36.3755662,0 -82.3712173,36.3759602,0 -82.3708654,36.3763552,0 -82.3705235,36.37674,0 -82.3702881,36.3770048,0 -82.3700041,36.3773309,0 -82.3698998,36.3774507,0 -82.36945110000001,36.3779428,0 -82.3693178,36.3781166,0 -82.36917800000001,36.3782736,0 -82.36890459999999,36.3786154,0 -82.3687319,36.378827,0 -82.3684866,36.3789719,0 -82.3675721,36.3800408,0 -82.36756339999999,36.3800505,0 -82.36732379999999,36.3803189,0 -82.3670334,36.3806407,0 -82.3669226,36.3807642,0 -82.3666917,36.3810214,0 -82.3665359,36.3811949,0 -82.36652530000001,36.3812068,0 -82.3660027,36.3817938,0 -82.36598859999999,36.3818096,0 -82.3640187,36.3840114,0 -82.3639056,36.3841369,0 -82.36367180000001,36.3843962,0 -82.3625236,36.3856828,0 -82.36206199999999,36.386204,0 -82.3617809,36.3865177,0 -82.36137600000001,36.3869694,0 -82.36089990000001,36.3875263,0 -82.3606444,36.3878301,0 -82.36024089999999,36.3883302,0 -82.3599287,36.3887301,0 -82.3598358,36.3888527,0 -82.35946800000001,36.3893584,0 -82.35928180000001,36.3896328,0 -82.3592721,36.3896471,0 -82.3590063,36.390061,0 -82.3587378,36.3904957,0 -82.35843439999999,36.3909911,0 -82.3580207,36.3916864,0 -82.3571362,36.3931506,0 -82.35622549999999,36.3946993,0 -82.3558104,36.3953893,0 -82.35547080000001,36.3959241,0 -82.3552608,36.3962112,0 -82.35508110000001,36.3964152,0 -82.354854,36.3966641,0 -82.35464930000001,36.3968562,0 -82.35441470000001,36.397065,0 -82.3541656,36.3972649,0 -82.35388829999999,36.397475,0 -82.3536495,36.3976507,0 -82.3531521,36.3979988,0 -82.351462,36.3991727,0 -82.3490556,36.4008586,0 -82.3484457,36.4012877,0 -82.34679439999999,36.4024459,0 -82.3463629,36.4027485,0 -82.34460060000001,36.4039762,0 -82.3417796,36.4059512,0 -82.3384008,36.4083165,0 -82.33633260000001,36.4097537,0 -82.3357625,36.4101492,0 -82.3340403,36.4113674,0 -82.3320895,36.4127323,0 -82.3309355,36.4135352,0 -82.32995529999999,36.4142399,0 -82.3295366,36.4145584,0 -82.3289185,36.415057,0 -82.32774089999999,36.4160653,0 -82.3272566,36.4164858,0 -82.3268271,36.41688,0 -82.3257304,36.4179549,0 -82.3250738,36.4186231,0 -82.32472970000001,36.41897,0 -82.3245178,36.4191802,0 -82.32425120000001,36.4194372,0 -82.32415570000001,36.4195956,0 -82.323739,36.419979,0 -82.3235213,36.4201776,0 -82.32333149999999,36.4203394,0 -82.3229233,36.420686,0 -82.3209531,36.4223783,0 -82.3202986,36.4229385,0 -82.31991189999999,36.4232703,0 -82.3189048,36.4241376,0 -82.3185064,36.4244739,0 -82.3179817,36.4249219,0 -82.31755029999999,36.4252934,0 -82.3169178,36.4258338,0 -82.3165205,36.4261704,0 -82.3159596,36.4266521,0 -82.31564969999999,36.4269199,0 -82.3155108,36.4270382,0 -82.3153341,36.4271898,0 -82.3147934,36.4276505,0 -82.3141557,36.4281986,0 -82.3135387,36.4287291,0 -82.3113396,36.4306091,0 -82.3112982,36.4306447,0 -82.3105886,36.431255,0 -82.3104539,36.4313708,0 -82.3102282,36.4315703,0 -82.3098219,36.4319293,0 -82.3093507,36.4323757,0 -82.30898759999999,36.4327225,0 -82.30868030000001,36.4330116,0 -82.3079819,36.4337085,0 -82.30765649999999,36.4340204,0 -82.30763589999999,36.4340437,0 
				
					-82.30763589999999,36.4340437,0 -82.3071109,36.4344225,0 -82.3066165,36.4348737,0 -82.30595630000001,36.4354363,0 -82.3057934,36.4355731,0 -82.3053448,36.4359649,0 -82.3043942,36.4367685,0 -82.303861,36.4372555,0 -82.30298089999999,36.4380098,0 -82.30265780000001,36.4382971,0 -82.30251699999999,36.4384224,0 -82.3013617,36.4393977,0 -82.3010982,36.4396324,0 -82.30002450000001,36.4405629,0 -82.2987311,36.4416737,0 -82.2986526,36.4417398,0 -82.2985339,36.4418396,0 -82.2972719,36.4429179,0 -82.29696970000001,36.4431664,0 -82.29636410000001,36.4436644,0 -82.29616009999999,36.4438321,0 -82.2957275,36.4441873,0 -82.29571319999999,36.4441988,0 -82.2948488,36.4448905,0 -82.2944835,36.4451772,0 -82.2934322,36.4459616,0 -82.29304,36.4462339,0 -82.2925714,36.4465763,0 -82.2919663,36.4470056,0 -82.29144700000001,36.447386,0 -82.29078749999999,36.4478713,0 -82.2903501,36.4481686,0 -82.28949160000001,36.4487726,0 -82.28890440000001,36.4492017,0 -82.2882005,36.4497192,0 -82.2877926,36.4500942,0 -82.2876452,36.450249,0 -82.28755049999999,36.4503484,0 -82.2872593,36.4506723,0 -82.2871021,36.4509206,0 -82.28683100000001,36.4513545,0 -82.28644989999999,36.4523011,0 -82.28635439999999,36.4527822,0 -82.2861726,36.4537002,0 -82.2860799,36.4543167,0 -82.2860694,36.454393,0 -82.28590560000001,36.4555801,0 -82.2858454,36.4559982,0 -82.285747,36.4566729,0 -82.2854506,36.4586848,0 
				</coordinates>
			</LineString>
		<atom:link rel="app" href="https://www.google.com/earth/about/versions/#earth-pro" title="Google Earth Pro 7.3.6.10201"></atom:link>
	</Placemark>
</Document>
</kml>
