<?xml version="1.0" encoding="UTF-8"?>
<kml xmlns="http://www.opengis.net/kml/2.2" xmlns:gx="http://www.google.com/kml/ext/2.2" xmlns:kml="http://www.opengis.net/kml/2.2" xmlns:atom="http://www.w3.org/2005/Atom">
<Document>
	<name>US.177.kml</name>
	<Placemark>
		<name>US.177</name>
		<LineString>
			<coordinates>
				-96.77586099999999,34.0997976,0 -96.7759348,34.1001687,0 -96.77594599999999,34.1002922,0 -96.7759731,34.1005903,0 -96.7759765,34.1009556,0 -96.77598,34.1013266,0 -96.77598290000002,34.1028912,0 -96.7759855,34.1042204,0 -96.77599119999999,34.1072363,0 -96.77597800000001,34.1100072,0 -96.77599170000001,34.1106763,0 -96.7759949,34.1134334,0 -96.77601079999999,34.113881,0 -96.776051,34.1143282,0 -96.7760806,34.1145177,0 -96.7761057,34.1146787,0 -96.77616590000001,34.1149431,0 -96.7762207,34.1151834,0 -96.7762882,34.1154206,0 -96.77637580000001,34.115691,0 -96.7764926,34.1159811,0 -96.77665500000001,34.1163498,0 -96.77684480000001,34.116729,0 -96.77706379999999,34.1171082,0 -96.77727729999999,34.117427,0 -96.7776934,34.1179755,0 -96.77790880000001,34.1182182,0 -96.7781853,34.1184538,0 -96.77835039999999,34.11861,0 -96.7786862,34.1189636,0 -96.781835,34.121841,0 -96.784634,34.124405,0 -96.785388,34.125096,0 -96.7896666,34.1290563,0 -96.79341489999999,34.1324928,0 -96.7936698,34.1327265,0 -96.8001185,34.1386399,0 -96.8003088,34.1388104,0 -96.80156999999998,34.139934,0 -96.80835,34.146192,0 -96.80914060000001,34.1469125,0 -96.81585200000001,34.153048,0 -96.82021899999999,34.157068,0 -96.821376,34.158212,0 -96.822203,34.158899,0 -96.83167469999999,34.1676052,0 -96.83187220000001,34.1678435,0 -96.83239450000001,34.1684069,0 -96.8325377,34.1685746,0 -96.8327385,34.1687929,0 -96.83318149999999,34.169239,0 -96.83350009999999,34.169513,0 -96.83399110000001,34.1699664,0 -96.83436059999998,34.1703069,0 -96.8345951,34.1705305,0 -96.8349199,34.1708195,0 -96.83530430000002,34.171136,0 -96.8358736,34.1715134,0 -96.8360797,34.1716318,0 -96.83649250000001,34.1718657,0 -96.83668780000002,34.1719937,0 -96.83712159999999,34.1722435,0 -96.8374639,34.1724266,0 -96.8376203,34.1725053,0 -96.83826569999999,34.1727804,0 -96.8387201,34.1729545,0 -96.83891920000001,34.1730173,0 -96.83943369999999,34.1731736,0 -96.8400439,34.1733164,0 -96.8404389,34.1733903,0 -96.8406731,34.1734273,0 -96.840934,34.1734653,0 -96.8412225,34.1734982,0 -96.84144199999999,34.1735207,0 -96.84185759999998,34.1735466,0 -96.84262400000001,34.1735577,0 -96.843041,34.1735527,0 -96.8432876,34.1735528,0 -96.8464235,34.1735069,0 -96.8501265,34.1734563,0 -96.85112030000001,34.1734436,0 -96.8521291,34.1734552,0 -96.85285999999999,34.1735031,0 -96.85356539999999,34.1736195,0 -96.854371,34.173793,0 -96.855069,34.174004,0 -96.85557149999998,34.1741707,0 -96.85614780000002,34.1744012,0 -96.85677680000002,34.1747198,0 -96.8574522,34.1751257,0 -96.8581836,34.1755924,0 -96.8606515,34.1772314,0 -96.86322140000001,34.178909,0 -96.865081,34.1801472,0 -96.865954,34.1807187,0 -96.86979330000001,34.183229,0 -96.87185400000001,34.184576,0 -96.8727691,34.1851093,0 -96.8732514,34.1853389,0 -96.87347870000001,34.1854356,0 -96.8738077,34.1855637,0 -96.87411730000001,34.185662,0 -96.87456520000001,34.1858084,0 -96.87518449999999,34.1859639,0 -96.87574220000002,34.1860818,0 -96.87625130000001,34.1861664,0 -96.8763103,34.1861709,0 -96.8764685,34.186185,0 -96.87675580000001,34.1862226,0 -96.8768032,34.1862241,0 -96.8771611,34.1862357,0 -96.8783397,34.1862482,0 -96.8795595,34.1862515,0 -96.880808,34.1862456,0 -96.88204710000001,34.1862506,0 -96.883233,34.1862636,0 -96.8844343,34.1862716,0 -96.8850731,34.1862775,0 -96.88674969999998,34.1862671,0 -96.8871851,34.186265,0 -96.88961900000001,34.186279,0 -96.8900077,34.186293,0 -96.8909949,34.1863512,0 -96.89188590000001,34.1864326,0 -96.8926323,34.1865355,0 -96.89473889999999,34.1869128,0 -96.89563139999998,34.187041,0 -96.89624360000001,34.1871071,0 -96.89685560000001,34.1871533,0 -96.89753220000001,34.1871957,0 -96.8982436,34.1872065,0 -96.91362289999998,34.1872225,0 -96.91575209999999,34.187225,0 -96.9179609,34.1872265,0 -96.9215738,34.1872402,0 -96.92232370000001,34.1872444,0 -96.92781069999998,34.1872578,0 -96.9315671,34.1872511,0 -96.93339530000002,34.1872612,0 -96.9343963,34.1872546,0 -96.9413093,34.1872466,0 -96.94444679999998,34.1872422,0 -96.948357,34.187253,0 -96.950962,34.187246,0 -96.954317,34.1872429,0 -96.95648180000001,34.187254,0 -96.96351100000001,34.187238,0 -96.963696,34.187239,0 -96.969131,34.1872473,0 -96.96957380000001,34.1872455,0 -96.9702284,34.187242,0 -96.9711925,34.1872469,0 -96.9733651,34.1872395,0 -96.9749231,34.18724,0 -96.976547,34.1872426,0 -96.97875109999998,34.1872449,0 -96.98006919999999,34.187239,0 -96.98041880000001,34.1872374,0 -96.9811091,34.1872368,0 -96.983125,34.187235,0 -96.98391640000001,34.1872343,0 -96.984283,34.187234,0 -96.98482670000001,34.1872312,0 -96.9854587,34.187228,0 -96.9858066,34.1872251,0 -96.98590689999999,34.1872246,0 -96.98590660000001,34.1873153,0 -96.9859111,34.187758,0 -96.9859316,34.1896628,0 -96.985922,34.1902251,0 -96.9859234,34.1912446,0 -96.985913,34.1914304,0 -96.9859019,34.1916284,0 -96.98588580000001,34.1917992,0 -96.98586169999999,34.1920067,0 -96.9858174,34.1922175,0 -96.98577450000001,34.1924648,0 -96.98571149999999,34.1926922,0 -96.98563230000002,34.1929696,0 -96.98550160000001,34.1933404,0 -96.98549550000001,34.1933578,0 -96.98526829999999,34.1938777,0 -96.9851082,34.1941923,0 -96.98483139999999,34.194679,0 -96.9846615,34.1949394,0 -96.98447280000001,34.1951968,0 -96.9841636,34.1955969,0 -96.9836327,34.1962208,0 -96.98250259999999,34.1975559,0 -96.98177260000001,34.1984382,0 -96.98049189999999,34.19997,0 -96.97997820000001,34.2005779,0 -96.97963940000001,34.2009739,0 -96.979012,34.2017382,0 -96.97874040000001,34.2020564,0 -96.97849770000001,34.2023836,0 -96.97834209999999,34.2026088,0 -96.97819079999999,34.2028355,0 -96.9780511,34.2030802,0 -96.9779344,34.2032942,0 -96.97781500000001,34.2035294,0 -96.97765730000002,34.2038658,0 -96.97755119999999,34.2041186,0 -96.9774798,34.204311,0 -96.97741449999998,34.2045503,0 -96.977341,34.2048243,0 -96.97726249999999,34.2051387,0 -96.97722369999998,34.2053912,0 -96.9771873,34.2056584,0 -96.9771514,34.2060198,0 -96.97713779999999,34.2064302,0 -96.9771362,34.2069261,0 -96.97713640000001,34.2086819,0 -96.97714879999998,34.2162824,0 -96.97714449999999,34.2219671,0 -96.97713640000001,34.2246506,0 -96.97712630000001,34.2253861,0 -96.9771014,34.2259582,0 -96.9770613,34.2264359,0 -96.9770035,34.2270503,0 -96.97692229999998,34.2276981,0 -96.97683600000001,34.2285737,0 -96.9767398,34.2294396,0 -96.97652689999998,34.2308236,0 -96.97634619999998,34.2323743,0 -96.9762276,34.2333458,0 -96.97603239999999,34.2353853,0 -96.97575239999999,34.2381179,0 -96.975731,34.2384239,0 -96.97568269999998,34.2387322,0 -96.97565590000001,34.2390182,0 -96.9755861,34.2393242,0 -96.97554049999999,34.2396147,0 -96.9754547,34.2399606,0 -96.97535280000001,34.2403153,0 -96.97525350000001,34.2406147,0 -96.9751516,34.2408896,0 -96.974996,34.2412511,0 -96.9748324,34.2416435,0 -96.97468219999999,34.2419473,0 -96.9744918,34.2422533,0 -96.9742557,34.242659,0 -96.9738109,34.2434343,0 -96.97343100000001,34.2440404,0 -96.9727216,34.2452367,0 -96.9718793,34.2466501,0 -96.9710237,34.2480713,0 -96.97050199999998,34.2489459,0 -96.97008219999998,34.2496576,0 -96.9698676,34.2500367,0 -96.9696611,34.2504236,0 -96.96944920000001,34.2508714,0 -96.96924869999998,34.2513385,0 -96.9689772,34.2520143,0 -96.96877440000002,34.2526525,0 -96.9686593,34.2529652,0 -96.96855079999999,34.2533773,0 -96.96844909999999,34.2538232,0 -96.968368,34.2542498,0 -96.96831330000001,34.2545051,0 -96.96828100000002,34.2548266,0 -96.9682243,34.2553501,0 -96.96819499999999,34.2558663,0 -96.9681872,34.2562994,0 -96.9681978,34.2599173,0 -96.9682098,34.2632203,0 -96.96823940000002,34.2670661,0 -96.9682463,34.2674168,0 -96.96826780000001,34.2704805,0 -96.9682717,34.2735304,0 -96.96826590000001,34.2826214,0 -96.9682717,34.2850636,0 -96.968262,34.2873135,0 -96.96825240000001,34.288711,0 -96.96825059999999,34.2889782,0 -96.9682585,34.2905636,0 -96.96823700000002,34.2909044,0 -96.96820370000002,34.291166,0 -96.96814599999999,34.291472,0 -96.96808059999999,34.2917765,0 -96.96795899999999,34.292196,0 -96.96786600000001,34.292478,0 -96.9677385,34.2929038,0 -96.96685100000001,34.2955798,0 -96.96663479999999,34.2962259,0 -96.966067,34.2979442,0 -96.96503119999998,34.3010631,0 -96.96397960000002,34.3042243,0 -96.9635262,34.3056173,0 -96.9633852,34.3061391,0 -96.96332990000001,34.3063732,0 -96.9632622,34.3068676,0 -96.9631765,34.3073974,0 -96.96315429999999,34.3075799,0 -96.96281999999999,34.3096258,0 -96.96262460000001,34.310769,0 -96.9622945,34.3127502,0 -96.96221429999999,34.3132685,0 -96.9621631,34.3135389,0 -96.9618949,34.314705,0 -96.9615548,34.3160564,0 -96.96104459999999,34.3181215,0 -96.96047769999998,34.3203834,0 -96.9603682,34.3207806,0 -96.9601356,34.3214134,0 -96.95998900000001,34.3217121,0 -96.9597759,34.3221093,0 -96.9595159,34.322529,0 -96.95930869999999,34.3228325,0 -96.9589021,34.323375,0 -96.95449979999999,34.3292158,0 -96.95268369999999,34.3316324,0 -96.95230839999999,34.3321361,0 -96.95211100000002,34.3323863,0 -96.9520113,34.3325542,0 -96.9517611,34.3329594,0 -96.95156749999998,34.3333274,0 -96.9513896,34.3336938,0 -96.9512235,34.3340909,0 -96.9511179,34.3344541,0 -96.9509791,34.3350353,0 -96.950897,34.3355583,0 -96.95085400000001,34.3360877,0 -96.9508544,34.337118,0 -96.95088560000001,34.3385029,0 -96.9509912,34.3405335,0 -96.95099510000001,34.3414616,0 -96.9509892,34.3423461,0 -96.9508759,34.3451626,0 -96.9508465,34.3471075,0 -96.95086480000001,34.3524553,0 -96.9508757,34.3587528,0 -96.9508639,34.3593999,0 -96.95085419999999,34.3616058,0 -96.9508221,34.367403,0 -96.9508493,34.3750243,0 -96.95084700000001,34.3759929,0 -96.95086910000002,34.3849733,0 -96.95087140000001,34.3854396,0 -96.950889,34.3859526,0 -96.95092020000001,34.386393,0 -96.95099260000001,34.3870237,0 -96.95104929999999,34.3875771,0 -96.95108639999999,34.3880465,0 -96.9511001,34.3886902,0 -96.9510947,34.3898151,0 -96.95109310000001,34.3901596,0 -96.9510708,34.3948233,0 -96.9510375,34.3976896,0 -96.95102489999999,34.3999885,0 -96.95103670000002,34.4018014,0 -96.95100930000001,34.4026337,0 -96.9509604,34.4031659,0 -96.9508163,34.4041786,0 -96.95073169999999,34.4048546,0 -96.9506672,34.4054304,0 -96.9506887,34.4060804,0 -96.95076489999998,34.4073094,0 -96.9507728,34.407469,0 -96.950851,34.4093592,0 -96.95082360000001,34.4132234,0 -96.95082549999998,34.4165165,0 -96.95082140000001,34.417641,0 -96.95080310000002,34.419102,0 -96.9508022,34.4202228,0 -96.95081009999998,34.4222231,0 -96.95081309999999,34.4222932,0 -96.9508165,34.4229361,0 -96.9508158,34.4252017,0 -96.95080600000001,34.4284572,0 -96.95080799999999,34.4288136,0 -96.95081189999999,34.4302679,0 -96.9508275,34.4338441,0 -96.9508431,34.4392355,0 -96.9508204,34.4437584,0 -96.95081970000001,34.4452053,0 -96.9508099,34.4480828,0 -96.950811,34.4495555,0 -96.95081189999999,34.4532267,0 -96.95080400000001,34.4568502,0 -96.9508021,34.460933,0 -96.95080400000001,34.4611908,0 -96.9507725,34.4636625,0 -96.9508021,34.4640066,0 -96.9508627,34.4645449,0 -96.95104449999999,34.4656844,0 -96.95114419999999,34.4661292,0 -96.9512809,34.4666681,0 -96.9516474,34.4677753,0 -96.9519691,34.468529,0 -96.95240700000001,34.4694025,0 -96.95273539999999,34.469973,0 -96.955134,34.4737924,0 -96.9573058,34.4771749,0 -96.95764579999999,34.4777359,0 -96.9594092,34.4804977,0 -96.96012469999999,34.4816273,0 -96.96139340000002,34.48359,0 -96.9619192,34.4844295,0 -96.962189,34.48485,0 -96.96310819999999,34.4863023,0 -96.9632683,34.4865327,0 -96.96607419999999,34.4909519,0 -96.9665109,34.4916534,0 -96.9665964,34.4917524,0 -96.9667628,34.4920236,0 -96.96784690000001,34.493739,0 -96.96820840000001,34.4943319,0 -96.9707854,34.4983612,0 -96.97093609999999,34.49859,0 -96.97125870000001,34.4990798,0 -96.9715928,34.499587,0 -96.9717004,34.4997948,0 -96.97174529999999,34.499972,0 -96.97175900000002,34.5001363,0 -96.97175120000001,34.5002749,0 -96.97170370000002,34.5004093,0 -96.9715369,34.5007115,0 -96.97124100000001,34.5010369,0 -96.9711295,34.5011787,0 -96.971022,34.501351,0 -96.97093169999999,34.5015779,0 -96.9708492,34.5018917,0 -96.97083360000001,34.5019538,0 -96.9708287,34.5019722,0 -96.9707289,34.5023501,0 -96.9706291,34.5029781,0 -96.9705802,34.5031376,0 -96.9705001,34.5033003,0 -96.97038670000001,34.5034647,0 -96.9702147,34.5036435,0 -96.96955,34.5041558,0 -96.96940930000001,34.5042846,0 -96.96929399999999,34.5044296,0 -96.96919819999998,34.504631,0 -96.9689085,34.5062708,0 -96.9688716,34.5064038,0 -96.96883769999999,34.5065257,0 -96.9687892,34.5068205,0 -96.9687492,34.5070478,0 -96.9686359,34.5075687,0 -96.96857180000002,34.5079868,0 -96.968424,34.5089413,0 -96.96842539999999,34.5098734,0 -96.96842940000001,34.5104212,0 -96.96842220000001,34.5109196,0 -96.96842289999998,34.5119505,0 -96.96842220000001,34.5125442,0 -96.96842169999998,34.5129386,0 -96.9684484,34.51349,0 -96.96849450000002,34.5142826,0 -96.9685605,34.5152464,0 -96.9685583,34.5154149,0 -96.9685818,34.5161085,0 -96.9686659,34.5173534,0 -96.9686779,34.5175788,0 -96.9688458,34.5207359,0 -96.9688914,34.5212869,0 -96.9689357,34.5216365,0 -96.9689936,34.5219556,0 -96.96917910000001,34.5227088,0 -96.969207,34.5228045,0 -96.96949910000001,34.523633,0 -96.96976970000001,34.5243697,0 -96.96986920000001,34.5246886,0 -96.969937,34.5249722,0 -96.969984,34.5253127,0 -96.97000749999999,34.5256088,0 -96.9700088,34.5259402,0 -96.969984,34.5263023,0 -96.9699535,34.5265176,0 -96.9698789,34.5268831,0 -96.9697573,34.5272544,0 -96.9696577,34.5275026,0 -96.96948910000002,34.5278557,0 -96.9691933,34.5283738,0 -96.9689279,34.5287302,0 -96.96851599999999,34.5292518,0 -96.96828790000001,34.5295479,0 -96.9681372,34.5297734,0 -96.9679768,34.5300323,0 -96.9678207,34.5303473,0 -96.9676742,34.5306832,0 -96.96758289999998,34.5309702,0 -96.9675111,34.5312253,0 -96.9674368,34.5316445,0 -96.9673949,34.5319552,0 -96.9673839,34.5321818,0 -96.9673858,34.5325905,0 -96.9673839,34.5334515,0 -96.9673853,34.5341723,0 -96.9673769,34.5352958,0 -96.967389,34.5433628,0 -96.9673894,34.5436965,0 -96.9674005,34.545072,0 -96.96739909999998,34.5453605,0 -96.96739410000001,34.5463815,0 -96.967377,34.5498432,0 -96.96739239999999,34.5528896,0 -96.96739919999999,34.5554514,0 -96.96740990000001,34.5643548,0 -96.96741729999999,34.5701477,0 -96.9674096,34.5710668,0 -96.96741780000002,34.5736727,0 -96.96744289999999,34.5788572,0 -96.96748409999998,34.5932954,0 -96.96748820000001,34.5969714,0 -96.96753409999998,34.6078173,0 -96.9675664,34.6105061,0 -96.9675618,34.6118976,0 -96.9675773,34.6134093,0 -96.96758709999999,34.6143681,0 -96.96756550000001,34.6150164,0 -96.96761990000002,34.6185912,0 -96.96761909999998,34.6191158,0 -96.9676212,34.6199628,0 -96.9676297,34.6223137,0 -96.96764690000001,34.6247004,0 -96.96767280000002,34.6285776,0 -96.9676791,34.6295165,0 -96.967708,34.6343406,0 -96.96767370000001,34.6368073,0 -96.9676527,34.6393604,0 -96.96764590000001,34.6439221,0 -96.9676546,34.6513267,0 -96.9676357,34.6592672,0 -96.96767180000001,34.663053,0 -96.96765379999999,34.6658571,0 -96.96767640000002,34.6710967,0 -96.9676681,34.6783585,0 -96.9676819,34.6804568,0 -96.96769289999999,34.6949553,0 -96.96771510000002,34.7017627,0 -96.96771510000002,34.709474,0 -96.96777590000001,34.7221246,0 -96.9677705,34.7239651,0 -96.96774499999999,34.7385637,0 -96.96772540000001,34.7475559,0 -96.96771959999998,34.7515023,0 -96.96771959999998,34.7522765,0 -96.9677137,34.7555626,0 -96.96767850000001,34.7603529,0 -96.9676824,34.7675955,0 -96.9676824,34.7710737,0 -96.9676942,34.7725735,0 -96.9676707,34.7763983,0 -96.96765610000001,34.7820798,0 -96.9676705,34.7855496,0 -96.9676702,34.7857753,0 -96.9676685,34.7868931,0 -96.96766260000001,34.7875795,0 -96.96765899999998,34.791233,0 -96.96764279999999,34.7937762,0 -96.96764659999999,34.7942127,0 -96.9676509,34.7948206,0 -96.967664,34.7956579,0 -96.96766319999999,34.7963838,0 -96.96766260000001,34.7964663,0 -96.96766140000001,34.796604,0 -96.96766100000002,34.7966574,0 -96.96766100000002,34.7967428,0 -96.9676609,34.7968683,0 -96.9676609,34.7969509,0 -96.96766069999998,34.797677,0 -96.9676604,34.7986568,0 -96.9676572,34.7991806,0 -96.9676539,34.7997207,0 -96.96766199999999,34.8008358,0 -96.96766199999999,34.80221,0 -96.96766270000002,34.803645,0 -96.9676539,34.8055894,0 -96.96764760000001,34.8111291,0 -96.96766270000002,34.8186172,0 -96.96766390000002,34.825645,0 -96.96766969999999,34.8306011,0 -96.96766920000002,34.8318001,0 -96.967679,34.8327436,0 -96.9676801,34.8401603,0 -96.967673,34.8418742,0 -96.96767690000001,34.8438133,0 -96.9676889,34.8466682,0 -96.96769639999998,34.8492953,0 -96.96769360000002,34.8499639,0 -96.96766870000002,34.8503235,0 -96.9676355,34.8506151,0 -96.96758179999999,34.8509323,0 -96.96753780000002,34.851131,0 -96.96749730000001,34.8513138,0 -96.9673901,34.8517031,0 -96.96722990000002,34.8521413,0 -96.9671172,34.8524289,0 -96.96685859999999,34.8529967,0 -96.96666979999999,34.8534093,0 -96.9665629,34.853671,0 -96.96643019999999,34.8540362,0 -96.96634450000001,34.8542994,0 -96.96623809999998,34.8547202,0 -96.96617580000002,34.8550294,0 -96.9661308,34.8553462,0 -96.9661005,34.8556566,0 -96.9660849,34.8560095,0 -96.96606730000001,34.861825,0 -96.96606510000001,34.8641249,0 -96.9660634,34.8659184,0 -96.96606730000001,34.8692609,0 -96.966065,34.8696385,0 -96.96606160000002,34.8702118,0 -96.9660559,34.8711404,0 -96.96605429999998,34.8714084,0 -96.9660533,34.8715768,0 -96.96605219999999,34.8721172,0 -96.9660501,34.8730731,0 -96.9660458,34.8751038,0 -96.96604720000001,34.8769558,0 -96.9660459,34.8831535,0 -96.9660458,34.8838094,0 -96.96604070000001,34.8867027,0 -96.9660339,34.8891475,0 -96.96604259999999,34.8945387,0 -96.9660137,34.8982527,0 -96.96599899999998,34.9010012,0 -96.96599369999998,34.9019811,0 -96.96592390000001,34.9087734,0 -96.96589979999999,34.9093125,0 -96.96587200000002,34.9096475,0 -96.96581670000002,34.9099605,0 -96.96574940000001,34.9102226,0 -96.96564959999999,34.9104941,0 -96.96553729999999,34.9107843,0 -96.965397,34.9110701,0 -96.9652652,34.9113292,0 -96.9651123,34.9115704,0 -96.96490559999999,34.9118537,0 -96.96465669999999,34.9121372,0 -96.96410419999999,34.9127079,0 -96.9615957,34.9152226,0 -96.9601183,34.9167537,0 -96.9591688,34.9177088,0 -96.95846240000002,34.9184569,0 -96.95777769999999,34.9192295,0 -96.9568689,34.920293,0 -96.95586160000001,34.9214438,0 -96.9533603,34.9243487,0 -96.95093909999999,34.9271317,0 -96.9509189,34.9271552,0 -96.94841000000001,34.93001,0 -96.9482278,34.9302215,0 -96.9472129,34.9313995,0 -96.94444009999999,34.9346358,0 -96.9439733,34.9351806,0 -96.9439158,34.9352467,0 -96.93961290000001,34.9401994,0 -96.93824059999999,34.9417894,0 -96.9371433,34.9430742,0 -96.93649240000001,34.9438102,0 -96.93609680000002,34.944226,0 -96.9357741,34.9445484,0 -96.93541780000001,34.9448668,0 -96.93511689999998,34.9451021,0 -96.9348652,34.945293,0 -96.9344763,34.9455458,0 -96.93410679999998,34.9457716,0 -96.93360510000001,34.9460495,0 -96.9324163,34.9466182,0 -96.9322176,34.9466839,0 -96.93200969999999,34.9467742,0 -96.93183290000002,34.9468567,0 -96.93164320000001,34.9469223,0 -96.9315228,34.9469494,0 -96.9314088,34.9469699,0 -96.9312786,34.9469858,0 -96.93113510000001,34.9469963,0 -96.93096889999998,34.9470057,0 -96.93073059999999,34.947003,0 -96.9307311,34.9470774,0 -96.9307416,34.9485898,0 -96.93075519999999,34.9493181,0 -96.9307376,34.9501613,0 -96.9306564,34.9520001,0 -96.9303949,34.9562062,0 -96.93021399999999,34.9591454,0 -96.93016990000001,34.9598508,0 -96.93000169999999,34.9625378,0 -96.9297748,34.966396,0 -96.9295571,34.9699481,0 -96.9292595,34.9748203,0 -96.9292064,34.975701,0 -96.92917229999999,34.9767802,0 -96.9291715,34.9775036,0 -96.9291903,34.9783284,0 -96.92924379999999,34.9793216,0 -96.9292761,34.9798554,0 -96.9293098,34.9802452,0 -96.9293644,34.9807527,0 -96.9294254,34.981259,0 -96.9294905,34.9817878,0 -96.92956060000002,34.9822628,0 -96.92976920000001,34.9835779,0 -96.9298004,34.9841926,0 -96.929867,34.9847676,0 -96.92990020000001,34.9850472,0 -96.9299626,34.9855365,0 -96.930003,34.98583,0 -96.93001120000001,34.9859018,0 -96.93002749999999,34.9859938,0 -96.93006029999999,34.9862415,0 -96.9302136,34.9872562,0 -96.93034129999999,34.9878294,0 -96.9304913,34.9884062,0 -96.93075860000002,34.9893488,0 -96.93094309999999,34.9906913,0 -96.93123650000001,34.9932154,0 -96.9313873,34.99646,0 -96.9313823,35.0004611,0 -96.9314072,35.0046734,0 -96.9314068,35.0065201,0 -96.9314116,35.00964,0 -96.9314147,35.0131837,0 -96.9314129,35.0148922,0 -96.93142760000001,35.0220692,0 -96.9314425,35.0293665,0 -96.93145440000001,35.0330178,0 -96.93146609999999,35.0366273,0 -96.9314682,35.0372764,0 -96.9314722,35.0438831,0 -96.9314794,35.0475949,0 -96.93148620000001,35.0511083,0 -96.93148969999999,35.0528909,0 -96.9314923,35.0542252,0 -96.9314926,35.0543726,0 -96.9315007,35.0584896,0 -96.9314342,35.0629251,0 -96.9313475,35.0655905,0 -96.93122510000001,35.0710893,0 -96.931226,35.0719981,0 -96.93122320000001,35.0728474,0 -96.9312285,35.0732106,0 -96.93122769999999,35.0733602,0 -96.93121570000001,35.0743425,0 -96.9312183,35.075024,0 -96.9313855,35.0817851,0 -96.93141060000001,35.082484,0 -96.9315251,35.0872507,0 -96.93158969999999,35.0898732,0 -96.9315955,35.0901101,0 -96.93161550000001,35.0909205,0 -96.9316833,35.0936606,0 -96.93170559999999,35.0946598,0 -96.93174089999999,35.0962412,0 -96.93175790000001,35.0970011,0 -96.93182179999999,35.0998665,0 -96.93187829999999,35.1017023,0 -96.9320084,35.1070304,0 -96.93215530000001,35.1130445,0 -96.93220890000001,35.1161791,0 -96.9321695,35.1250253,0 -96.93210149999999,35.1349879,0 -96.9320816,35.1379067,0 -96.9320499,35.1425445,0 -96.93203219999999,35.1451298,0 -96.93202850000002,35.1523366,0 -96.93201910000001,35.1554412,0 -96.93198700000001,35.1660566,0 -96.9320074,35.1693903,0 -96.9320793,35.1719508,0 -96.9320823,35.1731377,0 -96.93206309999999,35.1749685,0 -96.9320446,35.1804756,0 -96.9320341,35.1835943,0 -96.9320414,35.1872357,0 -96.9320178,35.1885559,0 -96.9318779,35.191195,0 -96.9318737,35.1921673,0 -96.93186230000001,35.1957831,0 -96.93184999999998,35.1976584,0 -96.93180649999999,35.200179,0 -96.93163699999999,35.2018855,0 -96.9314589,35.2030609,0 -96.93112830000001,35.2047097,0 -96.93062529999999,35.2065385,0 -96.93011830000002,35.2080034,0 -96.92820709999999,35.2135253,0 -96.9244023,35.2245087,0 -96.9243713,35.2245981,0 -96.9234079,35.2274141,0 -96.92306290000001,35.228642,0 -96.9229076,35.2292542,0 -96.92277099999998,35.2298726,0 -96.92258079999999,35.2308303,0 -96.92243860000001,35.2318186,0 -96.9223142,35.2328551,0 -96.92225199999999,35.2336578,0 -96.92221820000002,35.2344663,0 -96.92220329999999,35.2351216,0 -96.92222510000001,35.2389789,0 -96.9222697,35.2462544,0 -96.92228799999999,35.2507296,0 -96.9221965,35.2517852,0 -96.92215390000001,35.2521355,0 -96.9220949,35.2527707,0 -96.9220894,35.2535253,0 -96.9221131,35.2577714,0 -96.92212240000001,35.2585013,0 -96.92212479999999,35.2594314,0 -96.92212689999999,35.2598223,0 -96.9221428,35.2605507,0 -96.92214740000001,35.261119,0 -96.9221379,35.2625973,0 -96.92217220000001,35.2629737,0 -96.9221898,35.2631118,0 -96.92231769999999,35.2634911,0 -96.9224006,35.2637377,0 -96.92250629999999,35.2639859,0 -96.92262270000001,35.2642364,0 -96.92277609999999,35.2644831,0 -96.92292680000001,35.2647027,0 -96.9230907,35.2649121,0 -96.92333289999999,35.2652047,0 -96.92355339999999,35.2654087,0 -96.9237808,35.2655922,0 -96.9243158,35.2660146,0 -96.92466450000001,35.2662467,0 -96.9256805,35.2669496,0 -96.92613359999999,35.2673434,0 -96.9265518,35.2677315,0 -96.9282762,35.2695978,0 -96.93039899999999,35.2718835,0 -96.93097309999999,35.2725005,0 -96.93307830000001,35.2747676,0 -96.9338154,35.275588,0 -96.9348866,35.2768079,0 -96.9356148,35.2776823,0 -96.93650959999999,35.2788486,0 -96.93760229999999,35.2804564,0 -96.93795919999999,35.2810039,0 -96.93866130000001,35.2821478,0 -96.9391923,35.2830968,0 -96.93990460000001,35.2844691,0 -96.94029070000002,35.2852707,0 -96.9406584,35.286081,0 -96.94104079999998,35.2870048,0 -96.94138719999999,35.2879152,0 -96.9419978,35.289737,0 -96.94236100000001,35.2910387,0 -96.9425863,35.2919747,0 -96.94281680000002,35.2930518,0 -96.94296120000001,35.2938919,0 -96.94308580000001,35.2947244,0 -96.9432312,35.2958609,0 -96.943342,35.2969747,0 -96.94340229999999,35.2979343,0 -96.94342469999999,35.2988574,0 -96.9434215,35.3004641,0 -96.94342159999999,35.3006152,0 -96.94337440000001,35.3042299,0 -96.9432934,35.3131727,0 -96.9432575,35.3155257,0 -96.9432207,35.3178243,0 -96.94318469999999,35.3209585,0 -96.9431786,35.3213232,0 -96.94317119999999,35.3217652,0 -96.9431664,35.32205,0 -96.94314350000001,35.3237037,0 -96.94316919999999,35.3257501,0 -96.9431876,35.32607,0 -96.9432297,35.326906,0 -96.9435953,35.3330456,0 -96.94363559999999,35.3336522,0 -96.94383330000001,35.3369019,0 -96.9439141,35.33821,0 -96.94399369999999,35.3392889,0 -96.94407229999999,35.3404988,0 -96.94416150000001,35.3411607,0 -96.94431610000001,35.3417826,0 -96.9444907,35.3422897,0 -96.944761,35.3428912,0 -96.9449389,35.3432332,0 -96.9451542,35.343585,0 -96.94540830000001,35.3439369,0 -96.94569369999999,35.3443176,0 -96.94594739999998,35.3446026,0 -96.94629289999999,35.3449606,0 -96.94659590000001,35.3452504,0 -96.946877,35.3454921,0 -96.94730009999999,35.3458331,0 -96.94787390000002,35.3462486,0 -96.94865110000001,35.3467789,0 -96.95081039999999,35.3482493,0 -96.95194770000001,35.3490333,0 -96.9522183,35.3492194,0 -96.9626392,35.3563265,0 -96.96388980000002,35.3571899,0 -96.9652779,35.3581481,0 -96.9675714,35.3596997,0 -96.96926209999999,35.3608547,0 -96.97031819999999,35.3615811,0 -96.97094499999999,35.362027,0 -96.9713289,35.3622609,0 -96.9719786,35.3626377,0 -96.972472,35.3628961,0 -96.97496169999999,35.3642041,0 -96.97733220000001,35.3654527,0 -96.97859440000001,35.3661153,0 -96.9796214,35.3667521,0 -96.98033910000001,35.3672419,0 -96.98113459999999,35.3678583,0 -96.9817058,35.3683474,0 -96.98218100000001,35.368784,0 -96.98378259999998,35.3703566,0 -96.984498,35.3709667,0 -96.9852813,35.3715804,0 -96.9861995,35.3722176,0 -96.9870552,35.3727294,0 -96.98939669999999,35.3739957,0 -96.99465660000001,35.3767514,0 -96.99604719999999,35.3774847,0 -96.9968131,35.3778842,0 -96.99774379999998,35.3783785,0 -96.9980188,35.3785326,0 -96.9981555,35.3786175,0 -96.9984304,35.3788049,0 -96.99868789999998,35.3790039,0 -96.9989695,35.3792489,0 -96.99924209999999,35.3795233,0 -96.9994756,35.3797837,0 -96.99962679999999,35.379976,0 -96.99973139999999,35.3801192,0 -96.9999047,35.3803824,0 -97.00006190000001,35.3806742,0 -97.00016720000001,35.3809054,0 -97.00026339999998,35.3811303,0 -97.00035339999999,35.3813922,0 -97.00041799999998,35.381638,0 -97.0004812,35.381916,0 -97.0005128,35.3821397,0 -97.00053830000002,35.3823988,0 -97.0005481,35.3827117,0 -97.0005517,35.3832165,0 -97.00055469999998,35.3838568,0 -97.00054780000002,35.3845205,0 -97.00054699999998,35.3847482,0 -97.00053820000001,35.3878839,0 -97.00053800000001,35.3893963,0 -97.00052650000001,35.3902843,0 -97.00052570000001,35.3909495,0 -97.00052719999999,35.3915375,0 -97.0005389,35.3921439,0 -97.00055930000001,35.3926388,0 -97.0006343,35.3935141,0 -97.000635,35.3945864,0 -97.00063280000002,35.397907,0 -97.000632,35.3982287,0 -97.0006307,35.3988364,0 -97.00063029999998,35.3990086,0 -97.00062990000002,35.399182,0 -97.000629,35.3995698,0 -97.00062860000001,35.3997345,0 -97.0006284,35.400545,0 -97.00062549999998,35.4031141,0 -97.00062149999999,35.4055316,0 -97.0006242,35.4068469,0 -97.0006264,35.4079457,0 -97.00062699999999,35.4082517,0 -97.00062210000002,35.4091119,0 -97.0006166,35.4100676,0 -97.00061700000001,35.4102586,0 -97.00061840000001,35.4110046,0 -97.00062,35.4118751,0 -97.00061960000001,35.4126414,0 -97.0006183,35.4150461,0 -97.000618,35.4156086,0 -97.0006171,35.4157872,0 -97.00061410000001,35.416362,0 -97.0006085,35.4174604,0 -97.00060829999998,35.4193351,0 -97.00059829999999,35.4199278,0 -97.00060300000001,35.42177,0 -97.000613,35.4234932,0 -97.0006094,35.4253574,0 -97.0006058,35.4272632,0 -97.0006121,35.42913,0 -97.0005999,35.4310111,0 -97.0005992,35.4321211,0 -97.00060860000001,35.4344849,0 -97.00060359999999,35.4355728,0 -97.0006005,35.4362412,0 -97.00062029999999,35.4371461,0 -97.0006276,35.4373299,0 -97.0006077,35.4385262,0 -97.0006082,35.4403646,0 -97.00060430000002,35.4422347,0 -97.00062490000001,35.4448473,0 -97.0006248,35.4451575,0 -97.0006247,35.4452805,0 -97.0006231,35.4490174,0 -97.0006235,35.449549,0 -97.0006253,35.4523219,0 -97.0006183,35.4538981,0 -97.00061700000001,35.4541995,0 -97.000614,35.4548594,0 -97.00061890000001,35.4566892,0 -97.0006063,35.4585803,0 -97.0006008,35.4596138,0 -97.00059659999999,35.4604099,0 -97.00058540000001,35.4625401,0 -97.0005853,35.4628442,0 -97.00058490000001,35.4635622,0 -97.000601,35.465641,0 -97.00056199999999,35.467505,0 -97.00055010000001,35.4723268,0 -97.00054529999998,35.4742931,0 -97.00052339999999,35.4779917,0 -97.00051199999999,35.4789573,0 -97.00051199999999,35.4795787,0 -97.0004983,35.4815504,0 -97.0004979,35.4816107,0 -97.0004866,35.4838521,0 -97.0004866,35.4855572,0 -97.00047530000002,35.4866732,0 -97.00046679999998,35.4876305,0 -97.00047810000001,35.4892734,0 -97.00047699999999,35.4904673,0 -97.00047640000001,35.4911612,0 -97.00047530000002,35.4924649,0 -97.00045830000001,35.493544,0 -97.00046679999998,35.4960726,0 -97.00046689999999,35.4962678,0 -97.00046589999999,35.4995078,0 -97.00046799999998,35.499743,0 -97.0004696,35.5022938,0 -97.00046,35.502764,0 -97.00046100000002,35.503036,0 -97.000472,35.506952,0 -97.00045139999999,35.5103009,0 -97.00045900000001,35.512885,0 -97.0004507,35.5151457,0 -97.0004471,35.5156921,0 -97.00043580000001,35.5174273,0 -97.00043000000001,35.518319,0 -97.000434,35.521427,0 -97.0004196,35.5228144,0 -97.0004271,35.5237548,0 -97.00042910000001,35.5242427,0 -97.000423,35.5262433,0 -97.00042500000001,35.5267621,0 -97.000421,35.5271036,0 -97.00042000000002,35.5278129,0 -97.00041750000001,35.5296947,0 -97.00041710000001,35.5297423,0 -97.0004096,35.530633,0 -97.0004067,35.5319562,0 -97.0004016,35.5342383,0 -97.0004036,35.5358416,0 -97.00038599999999,35.538518,0 -97.00038959999999,35.5403621,0 -97.00038959999999,35.5409702,0 -97.0003856,35.5413523,0 -97.0003876,35.5422385,0 -97.000378,35.543033,0 -97.0003756,35.5443718,0 -97.000344,35.545478,0 -97.00029960000001,35.5460107,0 -97.0002437,35.5466952,0 -97.0001585,35.5474627,0 -97.00015180000001,35.5475228,0 -97.00003390000001,35.5484219,0 -96.999932,35.5489844,0 -96.9996902,35.5504005,0 -96.99962500000001,35.550859,0 -96.999503,35.551789,0 -96.999472,35.55203,0 -96.99938300000001,35.553085,0 -96.99934200000001,35.5537,0 -96.99933849999999,35.5541106,0 -96.99931649999999,35.5546308,0 -96.9993145,35.5553217,0 -96.99929400000002,35.557835,0 -96.99929299999999,35.558708,0 -96.99929299999999,35.55901,0 -96.99929179999999,35.5598202,0 -96.999291,35.56031,0 -96.99927049999999,35.5627444,0 -96.9992565,35.5648625,0 -96.99924540000001,35.5665787,0 -96.9992426,35.5670115,0 -96.9992426,35.5678112,0 -96.9992426,35.5681932,0 -96.9992426,35.5686662,0 -96.99923459999999,35.5690937,0 -96.99923459999999,35.5696967,0 -96.99923259999998,35.5698154,0 -96.999228,35.571067,0 -96.99921999999998,35.572277,0 -96.99920589999999,35.5728989,0 -96.999201,35.573114,0 -96.999196,35.574631,0 -96.9991926,35.5758243,0 -96.99918460000002,35.576676,0 -96.99918099999999,35.577036,0 -96.99918099999999,35.579383,0 -96.9991586,35.5822717,0 -96.999145,35.58584,0 -96.9991425,35.5862932,0 -96.9991406,35.5866254,0 -96.9991247,35.588764,0 -96.99911610000001,35.5897974,0 -96.99911400000001,35.590053,0 -96.99910070000001,35.5930003,0 -96.99910070000001,35.5938924,0 -96.9991746,35.5964728,0 -96.99923099999999,35.598555,0 -96.9993185,35.6011393,0 -96.99936839999999,35.6027365,0 -96.99950430000001,35.6071265,0 -96.99953399999998,35.608539,0 -96.9995523,35.6109557,0 -96.9995503,35.6118427,0 -96.9995583,35.6133455,0 -96.99956200000001,35.6159137,0 -96.99956369999998,35.6171261,0 -96.999566,35.618782,0 -96.99956229999999,35.6209025,0 -96.99956229999999,35.6230548,0 -96.99957100000002,35.627926,0 -96.9995783,35.6303396,0 -96.9995783,35.6312674,0 -96.9995783,35.6330439,0 -96.9995823,35.6342571,0 -96.999585,35.6360294,0 -96.9995863,35.6368832,0 -96.99959229999999,35.6373559,0 -96.9996242,35.6378853,0 -96.99969220000001,35.6385788,0 -96.99978610000001,35.6391585,0 -96.999906,35.6397757,0 -97.0001997,35.6408783,0 -97.00033759999999,35.6412714,0 -97.00059539999999,35.6419567,0 -97.00082720000002,35.6425007,0 -97.00120290000001,35.6432233,0 -97.00160049999998,35.6439233,0 -97.00222600000001,35.6448684,0 -97.0026876,35.6454838,0 -97.0032971,35.6462,0 -97.0036788,35.6466141,0 -97.0040784,35.6470119,0 -97.0047678,35.6476549,0 -97.0058769,35.6487023,0 -97.006821,35.649567,0 -97.0074635,35.6501605,0 -97.00934700000001,35.651912,0 -97.0112883,35.6537133,0 -97.0124113,35.6547606,0 -97.01287890000002,35.6552038,0 -97.0132966,35.655652,0 -97.01354430000001,35.655928,0 -97.0138221,35.656243,0 -97.0140195,35.6564892,0 -97.0142517,35.6567788,0 -97.014566,35.657209,0 -97.01495509999999,35.6577774,0 -97.01531079999999,35.6583538,0 -97.01566049999998,35.6589983,0 -97.01584910000001,35.6593879,0 -97.0159403,35.6595763,0 -97.0162261,35.6602388,0 -97.01645789999999,35.6608638,0 -97.0166217,35.661359,0 -97.01681550000001,35.6620799,0 -97.0169255,35.6625962,0 -97.01703139999999,35.6631871,0 -97.01710129999999,35.6636791,0 -97.0171453,35.6643204,0 -97.01716720000002,35.664809,0 -97.0171792,35.66659,0 -97.0171912,35.6705982,0 -97.0171952,35.6719894,0 -97.0172192,35.6786303,0 -97.0172223,35.6807564,0 -97.0172255,35.6810223,0 -97.01723189999998,35.6812825,0 -97.01724440000001,35.6833941,0 -97.017247,35.6844382,0 -97.0172489,35.6848436,0 -97.01725629999999,35.6878895,0 -97.01725620000001,35.6885648,0 -97.01725929999999,35.6895551,0 -97.0172637,35.689767,0 -97.01726960000001,35.6901202,0 -97.0172697,35.6905701,0 -97.01729779999998,35.695505,0 -97.01735790000001,35.7011658,0 -97.0174134,35.7059915,0 -97.01758359999999,35.7100069,0 -97.01758629999999,35.7111599,0 -97.01759880000002,35.7126846,0 -97.0175938,35.7144899,0 -97.017599,35.7173477,0 -97.0176034,35.7176313,0 -97.01760589999999,35.7191361,0 -97.017605,35.7205505,0 -97.01760409999999,35.7224931,0 -97.01761089999999,35.7245241,0 -97.0175909,35.7263323,0 -97.01748640000001,35.7288446,0 -97.01751490000001,35.7322767,0 -97.01753690000001,35.7340286,0 -97.01754270000001,35.734665,0 -97.0175569,35.7362248,0 -97.01757489999999,35.7375419,0 -97.0177297,35.7389631,0 -97.01779999999999,35.7396432,0 -97.0178385,35.7421612,0 -97.01784610000001,35.7426564,0 -97.0178801,35.746005,0 -97.01788759999998,35.7467427,0 -97.0179236,35.7500907,0 -97.0179582,35.7541399,0 -97.0178267,35.7603102,0 -97.0178367,35.7610155,0 -97.01785860000001,35.763657,0 -97.0179006,35.7680754,0 -97.01791179999999,35.7700232,0 -97.0179146,35.7705815,0 -97.0179296,35.7732859,0 -97.017932,35.7738115,0 -97.01794890000001,35.7776016,0 -97.01796880000001,35.7806364,0 -97.01798479999999,35.7825039,0 -97.0179868,35.7857303,0 -97.01798770000002,35.7861244,0 -97.01799680000001,35.7899108,0 -97.01799680000001,35.7925918,0 -97.017999,35.7950779,0 -97.01800119999999,35.797053,0 -97.0180063,35.7977812,0 -97.01800599999999,35.797825,0 -97.01799999999999,35.798723,0 -97.0180015,35.799528,0 -97.0180015,35.8000472,0 -97.0180156,35.802479,0 -97.01802979999999,35.8033305,0 -97.01803080000001,35.803689,0 -97.01803150000001,35.8039666,0 -97.0180326,35.8043665,0 -97.0180439,35.8055526,0 -97.0180594,35.8074056,0 -97.01806730000001,35.8094086,0 -97.01807079999999,35.8097872,0 -97.01807359999999,35.8101048,0 -97.01808,35.810814,0 -97.0180908,35.8115726,0 -97.01812020000001,35.8133481,0 -97.0181358,35.814439,0 -97.0181343,35.8147335,0 -97.01814,35.8152479,0 -97.0181527,35.8160603,0 -97.0181554,35.8168474,0 -97.01816820000001,35.8179749,0 -97.01817310000001,35.818643,0 -97.01817960000001,35.8195274,0 -97.01819510000001,35.8210398,0 -97.01823260000002,35.8244813,0 -97.01823589999999,35.8247856,0 -97.01824879999999,35.8259698,0 -97.0182519,35.8267456,0 -97.01826320000001,35.8276026,0 -97.01826460000001,35.8276701,0 -97.01831180000001,35.8329559,0 -97.01831279999999,35.8331414,0 -97.0183189,35.8338699,0 -97.01833300000001,35.8355576,0 -97.01833430000002,35.8357368,0 -97.01836919999998,35.8405001,0 -97.0183986,35.8445035,0 -97.0184187,35.8476526,0 -97.0184314,35.8482516,0 -97.0184471,35.8499828,0 -97.0184611,35.852407,0 -97.0184826,35.8549767,0 -97.0184967,35.8560463,0 -97.0185175,35.8586683,0 -97.01853439999998,35.8609003,0 -97.01855239999999,35.8622507,0 -97.01855639999998,35.8625469,0 -97.01856239999998,35.8640044,0 -97.0185644,35.8644757,0 -97.01857889999999,35.8658625,0 -97.0185875,35.8663607,0 -97.0185889,35.8664935,0 -97.0185944,35.8676249,0 -97.018602,35.8691725,0 -97.0185953,35.869477,0 -97.01862500000001,35.8730807,0 -97.01870459999999,35.8801358,0 -97.0187233,35.8819968,0 -97.0187531,35.883967,0 -97.01873999999999,35.8876465,0 -97.01874290000001,35.8912707,0 -97.0187316,35.8956022,0 -97.01873500000002,35.896643,0 -97.01869679999999,35.8970756,0 -97.018653,35.8973664,0 -97.01859509999998,35.8976571,0 -97.01851739999999,35.8979112,0 -97.0184368,35.8981459,0 -97.0182701,35.8985064,0 -97.0181613,35.8987193,0 -97.01791540000001,35.8990959,0 -97.0173571,35.8998406,0 -97.01699979999999,35.9003086,0 -97.01686690000001,35.9005052,0 -97.01675299999999,35.9006865,0 -97.01654590000001,35.9010958,0 -97.0164568,35.9013167,0 -97.01640740000002,35.9014392,0 -97.0163014,35.901778,0 -97.01621949999999,35.902126,0 -97.01617570000001,35.902459,0 -97.0161545,35.9027475,0 -97.0161502,35.9031355,0 -97.0161545,35.9035555,0 -97.01617140000002,35.9053742,0 -97.016172,35.906222,0 -97.016172,35.906579,0 -97.01621660000002,35.9103481,0 -97.0162416,35.9130542,0 -97.0162454,35.9152772,0 -97.0162464,35.9158745,0 -97.01623499999999,35.926701,0 -97.01623499999999,35.9268159,0 -97.01624099999999,35.9270133,0 -97.016243,35.9273774,0 -97.01624799999999,35.9275651,0 -97.01628700000001,35.9306573,0 -97.01630040000002,35.932191,0 -97.0163436,35.9358859,0 -97.01639230000001,35.9387327,0 -97.0164006,35.9392176,0 -97.0165715,35.9420778,0 -97.0167794,35.9424153,0 -97.01697100000001,35.9427954,0 -97.0171859,35.943203,0 -97.0174446,35.9435464,0 -97.0175777,35.9437437,0 -97.0179771,35.9442478,0 -97.01852169999999,35.9446524,0 -97.0189767,35.9450256,0 -97.0197793,35.9455212,0 -97.02032440000001,35.9457682,0 -97.02111789999999,35.9460775,0 -97.0222697,35.9463241,0 -97.02364540000001,35.9465232,0 -97.024461,35.9467072,0 -97.0253909,35.9468684,0 -97.0257732,35.9469967,0 -97.02615470000002,35.9471145,0 -97.0267219,35.9473423,0 -97.0272909,35.9476242,0 -97.02766339999998,35.9478683,0 -97.0280516,35.9481521,0 -97.0283352,35.948569,0 -97.02858510000002,35.9488686,0 -97.02879,35.9491476,0 -97.02900179999999,35.9493773,0 -97.02918959999998,35.9496378,0 -97.02937350000002,35.9498739,0 -97.02958529999999,35.9501894,0 -97.0297791,35.9505291,0 -97.02992500000001,35.950809,0 -97.03010089999999,35.951249,0 -97.0302767,35.9517828,0 -97.03065640000001,35.9530963,0 -97.0308003,35.9535525,0 -97.03165750000001,35.956435,0 -97.0320152,35.9576303,0 -97.032653,35.9597826,0 -97.032684,35.9598872,0 -97.03341519999999,35.9616476,0 -97.03358560000001,35.9625086,0 -97.03365530000002,35.9628353,0 -97.0337031,35.9632726,0 -97.03369530000001,35.9637291,0 -97.03371919999998,35.9642742,0 -97.03371350000002,35.9654052,0 -97.0337133,35.9674976,0 -97.0337133,35.968117,0 -97.0337133,35.9700351,0 -97.03370930000001,35.9709262,0 -97.03370930000001,35.9719645,0 -97.03371,35.9724506,0 -97.0337102,35.972596,0 -97.03371079999999,35.9730192,0 -97.03371230000002,35.9740653,0 -97.0337165,35.9750831,0 -97.0337193,35.9754044,0 -97.0337109,35.9761419,0 -97.0337222,35.9772019,0 -97.03372360000002,35.9781853,0 -97.0337232,35.978636,0 -97.03372299999999,35.978812,0 -97.03372539999999,35.979988,0 -97.0337262,35.9803599,0 -97.0337263,35.9804052,0 -97.0337267,35.9805086,0 -97.0337293,35.9813114,0 -97.03373000000001,35.9815009,0 -97.03373069999999,35.9817224,0 -97.03372880000001,35.9818225,0 -97.0337256,35.9841061,0 -97.0337244,35.9849614,0 -97.03372299999999,35.9854868,0 -97.03447370000001,35.9854812,0 -97.03518099999999,35.9854615,0 -97.0354074,35.9854615,0 -97.03783410000001,35.9854617,0 -97.03848100000002,35.985461,0 -97.045317,35.9854534,0 -97.04717639999998,35.9854606,0 -97.04931070000001,35.9854689,0 -97.04973179999999,35.985465,0 -97.05013030000001,35.9854715,0 -97.05023389999999,35.9854732,0 -97.0505593,35.9854785,0 -97.0505914,35.9854788,0 -97.05077970000001,35.9854808,0 -97.0507771,35.9857275,0 -97.0507748,35.9859486,0 -97.0507741,35.9860191,0 -97.05076459999999,35.9869201,0 -97.05077060000001,35.9875135,0 -97.05077460000001,35.9886582,0 -97.05077369999999,35.9887671,0 -97.0507726,35.9889089,0 -97.0507786,35.9908475,0 -97.05077629999998,35.991169,0 -97.05077460000001,35.9913988,0 -97.05078260000001,35.9920342,0 -97.05078459999999,35.9934344,0 -97.05078260000001,35.9939033,0 -97.05078699999999,35.9962962,0 -97.050798,35.9968147,0 -97.05080080000002,35.9969485,0 -97.05080719999998,35.9972522,0 -97.05086490000001,35.9999843,0 -97.05088019999999,36.0007024,0 -97.0509035,36.0012132,0 -97.05092489999998,36.0026728,0 -97.05093220000002,36.0030982,0 -97.0509342,36.0033989,0 -97.05094819999999,36.0043592,0 -97.05095419999999,36.0052143,0 -97.0509562,36.0059757,0 -97.05096020000002,36.0071412,0 -97.05096420000001,36.0076957,0 -97.0509662,36.0080255,0 -97.05096420000001,36.0082,0 -97.05096599999999,36.010372,0 -97.0509662,36.0106344,0 -97.0509622,36.0112309,0 -97.0509721,36.0118969,0 -97.05097609999999,36.0136571,0 -97.05097809999999,36.0144734,0 -97.0509741,36.0151312,0 -97.0509921,36.0155321,0 -97.05101209999999,36.0169076,0 -97.0510341,36.0176996,0 -97.0510441,36.0181198,0 -97.05104609999999,36.0187808,0 -97.05105410000002,36.0191995,0 -97.0510621,36.0200545,0 -97.05108010000001,36.0206217,0 -97.05108609999999,36.0211179,0 -97.05109199999998,36.0212553,0 -97.051104,36.0217693,0 -97.05112000000001,36.022705,0 -97.05113,36.0231915,0 -97.05114200000001,36.0238315,0 -97.051174,36.0257305,0 -97.05117589999999,36.0259072,0 -97.0511784,36.0261508,0 -97.0511865,36.0269167,0 -97.0511898,36.0272301,0 -97.05120789999998,36.0289481,0 -97.0512123,36.0295444,0 -97.0512191,36.0301139,0 -97.0512244,36.0306713,0 -97.05122759999999,36.0310045,0 -97.05121920000001,36.0314067,0 -97.051222,36.0330339,0 -97.05122629999998,36.0344668,0 -97.0512305,36.0358997,0 -97.0512315,36.0366721,0 -97.0512325,36.0373371,0 -97.0512327,36.0375039,0 -97.05123330000001,36.0379266,0 -97.05122469999999,36.0383446,0 -97.0512236,36.0384517,0 -97.05121440000001,36.0393884,0 -97.0512118,36.0396484,0 -97.05120270000002,36.0405697,0 -97.0511813,36.041584,0 -97.05116599999999,36.0423086,0 -97.05115799999999,36.042922,0 -97.05114909999999,36.0434329,0 -97.0511346,36.0442607,0 -97.0511293,36.0458139,0 -97.05112770000001,36.0462008,0 -97.0511264,36.0465062,0 -97.05112990000001,36.0473293,0 -97.05114899999998,36.0490673,0 -97.0511554,36.0496439,0 -97.0511632,36.0500661,0 -97.0511695,36.0504025,0 -97.051174,36.05068,0 -97.051174,36.050868,0 -97.051174,36.051221,0 -97.05119209999999,36.0519287,0 -97.0512006,36.0523012,0 -97.05120620000001,36.0524611,0 -97.05120909999998,36.0529912,0 -97.0512114,36.0532354,0 -97.05121750000001,36.0538822,0 -97.05121370000001,36.0540671,0 -97.051226,36.0544442,0 -97.0512293,36.0545333,0 -97.0512386,36.054811,0 -97.0512458,36.0549789,0 -97.05124859999999,36.0554906,0 -97.0512571,36.0558216,0 -97.0512658,36.0561354,0 -97.0512769,36.0565873,0 -97.0512794,36.0574368,0 -97.0512769,36.0579352,0 -97.05127269999998,36.0586576,0 -97.0512684,36.0609623,0 -97.05126560000001,36.0616019,0 -97.05124299999999,36.0634135,0 -97.05126280000002,36.0644187,0 -97.0512571,36.0651611,0 -97.05125990000001,36.0657893,0 -97.05126920000001,36.0668027,0 -97.0512781,36.0677644,0 -97.05128279999998,36.0682732,0 -97.05129059999999,36.0691238,0 -97.05129709999999,36.0701967,0 -97.05130140000001,36.0709188,0 -97.05130199999999,36.071017,0 -97.05130800000002,36.071523,0 -97.05131179999999,36.0718327,0 -97.05131900000001,36.072411,0 -97.05136760000001,36.0775673,0 -97.0513706,36.0778843,0 -97.0513746,36.0782235,0 -97.05137790000001,36.0786153,0 -97.0513807,36.0789377,0 -97.05138449999998,36.0793845,0 -97.05138699999999,36.079712,0 -97.05138699999999,36.0798352,0 -97.05140769999998,36.0806181,0 -97.0514044,36.0811038,0 -97.05129580000001,36.082162,0 -97.05124789999999,36.0826465,0 -97.05122989999998,36.0831471,0 -97.0512159,36.0834734,0 -97.0512099,36.0842049,0 -97.05122590000002,36.0849462,0 -97.051233,36.0853339,0 -97.05124859999999,36.0862672,0 -97.0512351,36.0870169,0 -97.05122799999999,36.087802,0 -97.05126060000001,36.0882342,0 -97.05140470000001,36.0894011,0 -97.05143289999999,36.0897277,0 -97.05143810000001,36.090193,0 -97.05143209999999,36.090952,0 -97.0514058,36.0959604,0 -97.051408,36.09821,0 -97.05140600000001,36.098414,0 -97.051396,36.098882,0 -97.05138599999999,36.0998645,0 -97.0513957,36.1015258,0 -97.05139639999999,36.1020861,0 -97.0513972,36.1026988,0 -97.05139759999999,36.1029834,0 -97.05139800000001,36.1032886,0 -97.05140119999999,36.104123,0 -97.05140529999998,36.1049213,0 -97.051405,36.1050644,0 -97.0514172,36.1059507,0 -97.0514192,36.1060189,0 -97.0514216,36.106269,0 -97.0514252,36.1066347,0 -97.0514264,36.1068075,0 -97.05142859999999,36.1069859,0 -97.05143160000002,36.1076,0 -97.05141279999999,36.1080223,0 -97.05141610000001,36.10809,0 -97.0514158,36.1084584,0 -97.0514182,36.1086641,0 -97.05141850000001,36.1086962,0 -97.0514194,36.1087682,0 -97.05142069999998,36.1088815,0 -97.05142150000002,36.1089513,0 -97.05142360000001,36.1091369,0 -97.05142410000001,36.109187,0 -97.0514209,36.1094341,0 -97.0514697,36.1112526,0 -97.05146670000002,36.1118706,0 -97.05145890000001,36.1120265,0 -97.05146479999999,36.1125783,0 -97.05146860000001,36.112655,0 -97.0514795,36.1128737,0 -97.05148389999999,36.1131048,0 -97.05149059999999,36.11346,0 -97.051492,36.1137076,0 -97.05149220000001,36.1137445,0 -97.0514938,36.1140193,0 -97.0514848,36.1142147,0 -97.05141789999999,36.1151013,0 -97.05141399999999,36.1153247,0 -97.0514081,36.1156313,0 -97.0514052,36.1158214,0 -97.0514046,36.1158616,0 -97.051401,36.1160192,0 -97.05139509999998,36.116223,0 -97.0513948,36.1162547,0 -97.05138869999999,36.1169039,0 -97.05139060000002,36.1170968,0 -97.0513921,36.1172424,0 -97.05139370000001,36.1174013,0 -97.0513978,36.1178218,0 -97.0514055,36.1184723,0 -97.0514086,36.1188867,0 -97.05140830000001,36.1189177,0 -97.05140899999999,36.1189792,0 -97.05141179999998,36.1190704,0 -97.05141309999999,36.1191131,0 -97.0514216,36.1193866,0 -97.0514189,36.1198102,0 -97.05142480000001,36.1199584,0 -97.05144340000001,36.1211125,0 -97.05145120000002,36.1215968,0 -97.05145829999999,36.1220365,0 -97.0514596,36.1221157,0 -97.0514615,36.1222356,0 -97.05146419999998,36.1224067,0 -97.05146980000001,36.1227644,0 -97.05147100000001,36.1228272,0 -97.05147289999999,36.1229479,0 -97.05147729999999,36.1232186,0 -97.0514786,36.1232976,0 -97.05147800000002,36.123419,0 -97.05147359999998,36.1243178,0 -97.051475,36.1247515,0 -97.05147599999998,36.1250658,0 -97.05147770000001,36.12558,0 -97.05147910000001,36.1256634,0 -97.0514872,36.1261474,0 -97.05148730000001,36.1263759,0 -97.05148739999998,36.1267694,0 -97.05148869999999,36.1269307,0 -97.0514897,36.1270639,0 -97.05149659999999,36.1274738,0 -97.05149630000001,36.1277543,0 -97.05149609999999,36.1279187,0 -97.0514932,36.1281857,0 -97.0514896,36.1285142,0 -97.05149,36.1289333,0 -97.0514924,36.1295166,0 -97.05149269999998,36.1296417,0 -97.0514943,36.1299757,0 -97.05148149999999,36.1303914,0 -97.05148090000002,36.1304221,0 -97.0514788,36.1305346,0 -97.0514759,36.1306925,0 -97.0514764,36.1307247,0 -97.05148210000002,36.131092,0 -97.0514913,36.1314817,0 -97.0514948,36.1318674,0 -97.0514926,36.1320151,0 -97.05149630000001,36.1323776,0 -97.05149509999998,36.1327508,0 -97.05149340000001,36.133314,0 -97.0514944,36.1335278,0 -97.0515039,36.1341034,0 -97.05150579999999,36.1342141,0 -97.0515072,36.134333,0 -97.05151469999998,36.134964,0 -97.05151829999998,36.1350452,0 -97.0515164,36.1353536,0 -97.0515262,36.135832,0 -97.05152960000001,36.135999,0 -97.0515316,36.1361321,0 -97.05153799999999,36.1365431,0 -97.0515535,36.1377687,0 -97.0515566,36.1379408,0 -97.05155520000001,36.138761,0 -97.05155619999999,36.1395927,0 -97.05155650000002,36.1398206,0 -97.05155520000001,36.1401096,0 -97.05156150000001,36.140578,0 -97.05156170000001,36.1405905,0 -97.0515628,36.1406795,0 -97.05156239999999,36.1407983,0 -97.05156229999999,36.1408239,0 -97.05156109999999,36.1411824,0 -97.0515496,36.1421733,0 -97.05155120000001,36.142563,0 -97.05155600000001,36.1427169,0 -97.05156030000001,36.142854,0 -97.0515609,36.143004,0 -97.05156239999999,36.1434145,0 -97.0515762,36.1440352,0 -97.0515798,36.1441543,0 -97.0515853,36.1443351,0 -97.05158740000002,36.1444725,0 -97.05159500000001,36.144962,0 -97.0515955,36.1449883,0 -97.051597,36.1450849,0 -97.0515979,36.1452283,0 -97.05159800000001,36.1452447,0 -97.05159949999999,36.1454801,0 -97.05162989999999,36.1457449,0 -97.0516324,36.145833,0 -97.0516353,36.1463333,0 -97.0516399,36.1467576,0 -97.05164000000001,36.1468206,0 -97.05165860000001,36.1479931,0 -97.0516607,36.148119,0 -97.05166630000001,36.1485446,0 -97.0516904,36.1508071,0 -97.0516946,36.1511722,0 -97.0517036,36.1521388,0 -97.05170870000002,36.1526828,0 -97.0517172,36.1532898,0 -97.0517165,36.153622,0 -97.05172450000001,36.1545081,0 -97.0517267,36.1549241,0 -97.05172810000001,36.155178,0 -97.05173019999999,36.1555746,0 -97.0517315,36.1558126,0 -97.05173649999999,36.1567334,0 -97.0517363,36.157147,0 -97.05174030000001,36.1576355,0 -97.05174340000001,36.1592107,0 -97.05174659999999,36.1594707,0 -97.05174960000001,36.1597453,0 -97.0517586,36.1613713,0 -97.0517646,36.1631395,0 -97.05176089999999,36.1634777,0 -97.05176040000002,36.1638705,0 -97.05175839999998,36.1643989,0 -97.0517541,36.164738,0 -97.0517631,36.1662783,0 -97.0517675,36.168536,0 -97.0517675,36.1687528,0 -97.05177430000001,36.1694958,0 -97.05177140000001,36.1707064,0 -97.0517737,36.1714199,0 -97.05177620000001,36.1720736,0 -97.0517838,36.1730188,0 -97.0517851,36.1732883,0 -97.0517863,36.1735201,0 -97.0517873,36.1737304,0 -97.05178309999999,36.173965,0 -97.05216580000001,36.1739734,0 -97.054174,36.17397,0 -97.0549802,36.1739674,0 -97.05770139999998,36.173952,0 -97.05795209999999,36.173951,0 -97.058572,36.173949,0 -97.0586855,36.173949,0 -97.05876050000001,36.1739491,0 -97.0593004,36.1739494,0 -97.0600015,36.1739477,0 -97.06129850000001,36.1739465,0 -97.061801,36.173944,0 -97.0618394,36.1739443,0 -97.06253,36.173941,0 -97.06832499999999,36.1739055,0 -97.0697615,36.1739028,0 -97.06975960000001,36.174627,0 -97.0697962,36.1759784,0 -97.0698204,36.1768711,0 -97.0698254,36.1770545,0 -97.0698265,36.1776861,0 -97.06982790000001,36.1785455,0 -97.0698443,36.1812447,0 -97.069849,36.1823671,0 -97.06986059999998,36.183375,0 -97.0698629,36.1839192,0 -97.0698653,36.1847432,0 -97.06986980000001,36.1855454,0 -97.0698699,36.1855646,0 -97.0698769,36.1868076,0 -97.0698799,36.1873127,0 -97.0698823,36.1877271,0 -97.06988619999998,36.1883953,0 -97.0698867,36.1884923,0 -97.06989,36.1891606,0 -97.0698921,36.1910936,0 -97.0698563,36.1913158,0 -97.069838,36.1937357,0 -97.06983869999999,36.1943415,0 -97.0698672,36.1950671,0 -97.06986879999999,36.1963943,0 -97.069873,36.1969408,0 -97.0698764,36.197377,0 -97.0698788,36.1976871,0 -97.0698895,36.1987185,0 -97.06991379999999,36.2010505,0 -97.0699163,36.2014655,0 -97.0699176,36.2021388,0 -97.06996109999999,36.2024401,0 -97.0699706,36.202821,0 -97.0699948,36.2049512,0 -97.0699994,36.2063359,0 -97.0699991,36.2069442,0 -97.07000410000002,36.2072272,0 -97.0699996,36.2083248,0 -97.0699925,36.2100452,0 -97.06994520000002,36.2119164,0 -97.06994220000001,36.212236,0 -97.06995219999999,36.2124486,0 -97.06992970000002,36.2150745,0 -97.06992249999999,36.2162875,0 -97.06992790000001,36.2167988,0 -97.0699343,36.2173683,0 -97.0699692,36.2233857,0 -97.06995989999999,36.2303392,0 -97.06995520000001,36.2318679,0 -97.06994589999999,36.2348258,0 -97.0699413,36.235334,0 -97.06994340000001,36.2383085,0 -97.0699352,36.2417227,0 -97.0699336,36.2422399,0 -97.0699336,36.2432119,0 -97.0699319,36.2437423,0 -97.0699056,36.2440712,0 -97.069881,36.244294,0 -97.0698349,36.2445101,0 -97.0697856,36.2447409,0 -97.06971,36.2449835,0 -97.0696228,36.2452289,0 -97.06951429999999,36.2454875,0 -97.0694008,36.2457155,0 -97.069169,36.246112,0 -97.06889769999999,36.2465072,0 -97.068656,36.2468559,0 -97.068462,36.2471782,0 -97.0683337,36.2474248,0 -97.0682137,36.247694,0 -97.0681266,36.247934,0 -97.06805420000001,36.2481753,0 -97.06799499999998,36.2484153,0 -97.0679408,36.2486859,0 -97.06791939999999,36.2489046,0 -97.06789310000001,36.2494695,0 -97.0679013,36.2520777,0 -97.06790460000001,36.2532008,0 -97.06791240000001,36.254948,0 -97.06791440000001,36.2553859,0 -97.0679128,36.2567317,0 -97.0679062,36.2573615,0 -97.06790789999999,36.2593383,0 -97.06790950000001,36.2600092,0 -97.0679013,36.2610168,0 -97.06790290000001,36.2635729,0 -97.0678996,36.265592,0 -97.0678947,36.2674175,0 -97.0678947,36.2685841,0 -97.06789139999999,36.2705487,0 -97.0678865,36.2742843,0 -97.06788809999999,36.2754839,0 -97.0678782,36.279001,0 -97.06787789999998,36.2791382,0 -97.0678736,36.2812092,0 -97.06786659999999,36.2826544,0 -97.06786200000002,36.283168,0 -97.06786099999999,36.2835862,0 -97.06785499999999,36.2860152,0 -97.0678503,36.2863189,0 -97.0678503,36.2873835,0 -97.0678382,36.2891697,0 -97.06783559999998,36.2895494,0 -97.06783439999998,36.2898315,0 -97.0678341,36.2899085,0 -97.06783249999999,36.2899903,0 -97.06782699999999,36.2902712,0 -97.0678271,36.2908615,0 -97.0678396,36.2923578,0 -97.06784400000001,36.2952655,0 -97.0678573,36.2994758,0 -97.0678597,36.3019514,0 -97.06786659999999,36.3043875,0 -97.0678657,36.3052528,0 -97.0678716,36.3081565,0 -97.0678733,36.3083195,0 -97.0678782,36.3091967,0 -97.06788150000001,36.3114875,0 -97.06789139999999,36.3148117,0 -97.0678831,36.3154516,0 -97.06780259999999,36.3169885,0 -97.0677565,36.3177238,0 -97.06772859999998,36.318883,0 -97.0677302,36.3191201,0 -97.06772859999998,36.3196474,0 -97.06772690000001,36.320172,0 -97.0677366,36.3218029,0 -97.067735,36.3220079,0 -97.0677367,36.322608,0 -97.067735,36.3235036,0 -97.06774160000001,36.3251449,0 -97.06773830000002,36.3258165,0 -97.0677646,36.3270233,0 -97.06788899999999,36.329003,0 -97.0679126,36.3298726,0 -97.0679176,36.3304992,0 -97.06790769999999,36.3333471,0 -97.0678715,36.3369657,0 -97.06786659999999,36.3383352,0 -97.06784520000001,36.3406345,0 -97.0678353,36.3420013,0 -97.06782219999999,36.3437893,0 -97.0678008,36.3469029,0 -97.0677926,36.3478153,0 -97.0677843,36.3486844,0 -97.06776050000001,36.3531863,0 -97.06776050000001,36.3589186,0 -97.06776050000001,36.3609878,0 -97.0677652,36.3623192,0 -97.06776979999999,36.3643639,0 -97.0677666,36.3655551,0 -97.06776150000002,36.3674411,0 -97.06776050000001,36.3678186,0 -97.0677647,36.3716976,0 -97.06776619999999,36.3728204,0 -97.06776920000001,36.3749859,0 -97.06776960000001,36.376741,0 -97.06775519999999,36.3788499,0 -97.06774949999999,36.37968,0 -97.06774949999999,36.3818468,0 -97.067752,36.3820616,0 -97.06775039999999,36.3821674,0 -97.0677488,36.3822725,0 -97.0677397,36.3832554,0 -97.0677405,36.3839546,0 -97.0677475,36.3848925,0 -97.06774919999999,36.3851181,0 -97.06774289999998,36.3853614,0 -97.06774249999999,36.3876093,0 -97.06774240000001,36.3880736,0 -97.0677467,36.3888549,0 -97.0677522,36.3892887,0 -97.06777270000001,36.3911635,0 -97.06776319999999,36.391772,0 -97.06776560000002,36.3984802,0 -97.06776319999999,36.3994828,0 -97.06774419999999,36.3999458,0 -97.06770380000002,36.4004776,0 -97.0676515,36.4009406,0 -97.06750169999999,36.4018264,0 -97.0672783,36.4032135,0 -97.06724730000002,36.4035193,0 -97.0672022,36.4039634,0 -97.0670858,36.4047421,0 -97.0669954,36.405404,0 -97.0669431,36.4059091,0 -97.06689799999999,36.4065461,0 -97.0668671,36.4070932,0 -97.0668623,36.4076748,0 -97.0668766,36.4082985,0 -97.0669099,36.4088226,0 -97.0669931,36.4098537,0 -97.0670471,36.4105442,0 -97.0670776,36.4113304,0 -97.0671279,36.4127154,0 -97.0671303,36.4151122,0 -97.0671636,36.4159826,0 -97.0671897,36.4163671,0 -97.0672278,36.4167554,0 -97.06731569999999,36.4174363,0 -97.06759150000002,36.4192841,0 -97.06771510000002,36.4202596,0 -97.06775309999999,36.4207454,0 -97.06778159999999,36.4212427,0 -97.06779110000001,36.4220709,0 -97.06779110000001,36.4236469,0 -97.06780059999998,36.4254486,0 -97.06780209999999,36.426623,0 -97.06780299999998,36.4273268,0 -97.06780780000001,36.4313908,0 -97.06781489999999,36.4347108,0 -97.06782200000001,36.4368583,0 -97.06783870000001,36.4424765,0 -97.06784579999999,36.444687,0 -97.06786239999998,36.4491689,0 -97.06786720000001,36.4504575,0 -97.0678719,36.452077,0 -97.06787669999999,36.4529048,0 -97.06789099999999,36.4544114,0 -97.0679147,36.456958,0 -97.06791240000001,36.4579541,0 -97.06793140000001,36.4603075,0 -97.067964,36.4633891,0 -97.06796709999999,36.463682,0 -97.0679765,36.4647923,0 -97.06798129999999,36.4654919,0 -97.0679932,36.4698828,0 -97.06797950000001,36.4768026,0 -97.0679854,36.4777107,0 -97.06800029999998,36.4781783,0 -97.06803080000002,36.4785149,0 -97.0680644,36.4789217,0 -97.0681333,36.4793744,0 -97.0682224,36.4799645,0 -97.06824960000002,36.4801061,0 -97.06830050000001,36.4803864,0 -97.06840800000001,36.4808229,0 -97.0685845,36.4814005,0 -97.0687526,36.4819135,0 -97.0690056,36.4824652,0 -97.0692897,36.4831084,0 -97.06961579999999,36.4837409,0 -97.0699334,36.4842923,0 -97.0701469,36.4846571,0 -97.07065450000002,36.4853882,0 -97.07199739999999,36.4871409,0 -97.0722832,36.487518,0 -97.0725151,36.4878639,0 -97.07271179999999,36.4881693,0 -97.07291530000001,36.488544,0 -97.0730614,36.4888666,0 -97.0732362,36.4893152,0 -97.0733723,36.4897233,0 -97.07348659999998,36.4901719,0 -97.0735706,36.4906584,0 -97.0736093,36.4910692,0 -97.0736261,36.4916016,0 -97.07364680000001,36.4920664,0 -97.0736981,36.4939998,0 -97.0737445,36.4954107,0 -97.07380259999999,36.4965213,0 -97.0738295,36.4973307,0 -97.073885,36.498998,0 -97.0739051,36.4998627,0 -97.07394210000001,36.5004788,0 -97.07396059999999,36.5012706,0 -97.07396829999999,36.5019961,0 -97.07400270000001,36.5023938,0 -97.0740615,36.5029248,0 -97.07410849999998,36.5032828,0 -97.07423799999999,36.5039137,0 -97.07441110000001,36.504592,0 -97.07460439999998,36.5051999,0 -97.0748296,36.5057755,0 -97.07519599999999,36.5065672,0 -97.07548679999999,36.5071454,0 -97.07583810000001,36.5078411,0 -97.0760784,36.5083802,0 -97.07625830000001,36.5088408,0 -97.07640790000001,36.5092623,0 -97.076581,36.5098041,0 -97.07669190000001,36.5102188,0 -97.07679949999999,36.5106673,0 -97.07689360000001,36.5111361,0 -97.07695409999999,36.5115238,0 -97.0770163,36.5119791,0 -97.07705660000001,36.5124397,0 -97.07710200000001,36.5131016,0 -97.07709869999999,36.5140297,0 -97.07709699999999,36.5144174,0 -97.07709359999998,36.5156967,0 -97.0770953,36.5175824,0 -97.0770852,36.5216023,0 -97.0770835,36.5219143,0 -97.07707350000001,36.5246914,0 -97.0770768,36.5256787,0 -97.0770718,36.5259583,0 -97.07706,36.5301911,0 -97.07706340000001,36.5319037,0 -97.07705660000001,36.5335149,0 -97.07705160000002,36.5360741,0 -97.0770382,36.5433906,0 -97.07702470000001,36.5468286,0 -97.07702980000001,36.5486784,0 -97.07702140000001,36.5505148,0 -97.07701969999999,36.5518515,0 -97.0770079,36.5542008,0 -97.0770079,36.5576761,0 -97.0770083,36.5607671,0 -97.0770177,36.5649398,0 -97.0770327,36.5703927,0 -97.0770543,36.5711689,0 -97.0770947,36.5718694,0 -97.07725600000001,36.5735379,0 -97.07730309999999,36.5740008,0 -97.0773367,36.574372,0 -97.07736359999998,36.5749619,0 -97.0773787,36.5757677,0 -97.07738380000001,36.5762051,0 -97.0773871,36.5774145,0 -97.07739549999999,36.5811235,0 -97.0773964,36.5820134,0 -97.0773964,36.5825937,0 -97.07740219999998,36.5838139,0 -97.07740060000002,36.5847262,0 -97.0774174,36.5893749,0 -97.07740320000001,36.589894,0 -97.0773628,36.5905028,0 -97.07729860000001,36.5910658,0 -97.0772106,36.5916269,0 -97.07708940000001,36.5921938,0 -97.07698240000001,36.5926423,0 -97.07687780000001,36.5929858,0 -97.07662110000001,36.5938713,0 -97.0764264,36.5946909,0 -97.07629729999999,36.595547,0 -97.07625140000002,36.5959399,0 -97.0762083,36.5965183,0 -97.0762064,36.5967147,0 -97.07619370000002,36.5974133,0 -97.07618220000001,36.5990194,0 -97.0760559,36.6010563,0 -97.0759651,36.6013384,0 -97.0758068,36.6033875,0 -97.0757752,36.6046017,0 -97.0757694,36.6071984,0 -97.0757723,36.6083735,0 -97.0757752,36.6126496,0 -97.07577910000001,36.6170944,0 -97.07578089999998,36.6191255,0 -97.07579530000001,36.6228481,0 -97.0757699,36.6269137,0 -97.0757838,36.6301432,0 -97.0757784,36.6356156,0 -97.0757895,36.637327,0 -97.0757838,36.6446022,0 -97.075801,36.6467301,0 -97.0758269,36.6476075,0 -97.07585570000001,36.6479913,0 -97.0758644,36.6481081,0 -97.07587849999999,36.648296,0 -97.07593019999999,36.6488763,0 -97.0760421,36.6497375,0 -97.076289,36.651863,0 -97.07633490000001,36.6529636,0 -97.0763693,36.6535623,0 -97.07637250000001,36.6570638,0 -97.0763762,36.6611629,0 -97.07637790000001,36.6630486,0 -97.07637790000001,36.6644518,0 -97.07635209999999,36.6663117,0 -97.07635500000001,36.6667922,0 -97.07633199999998,36.6672688,0 -97.0763177,36.6676256,0 -97.0762574,36.6681781,0 -97.0761655,36.6687514,0 -97.0760507,36.6692556,0 -97.0759331,36.6696999,0 -97.07572929999999,36.6703192,0 -97.0755312,36.6708279,0 -97.0752901,36.6713827,0 -97.07489979999998,36.6721263,0 -97.07446059999999,36.6728285,0 -97.0738435,36.673671,0 -97.07190129999999,36.6762063,0 -97.07144690000001,36.6767994,0 -97.0709533,36.6774739,0 -97.0707409,36.677856,0 -97.0704959,36.6782678,0 -97.07039989999998,36.6785075,0 -97.070348,36.6786666,0 -97.0703077,36.6788914,0 -97.0703092,36.679225,0 -97.0702831,36.6794996,0 -97.0702588,36.6799544,0 -97.07025830000001,36.6800999,0 -97.07025719999999,36.6804573,0 -97.0702569,36.6805665,0 -97.0704009,36.6806434,0 -97.07090639999998,36.6806763,0 -97.07169239999999,36.680724,0 -97.0722878,36.6807412,0 -97.0733848,36.6807617,0 -97.0763668,36.6807676,0 -97.07676170000001,36.6807687,0 -97.07747860000001,36.6807707,0 -97.0805424,36.6807928,0 -97.08181209999999,36.6807885,0 -97.08294149999999,36.6807894,0 -97.08326479999998,36.6807897,0 -97.08355319999998,36.6807521,0 -97.08480470000001,36.680754,0 -97.08507099999999,36.6807553,0 -97.08537190000001,36.6807568,0 -97.0864365,36.6807622,0 -97.08748849999999,36.6807674,0 -97.09102819999998,36.6807695,0 -97.09209119999998,36.6807724,0 -97.09419099999998,36.6807782,0 -97.096171,36.6807836,0 -97.1012972,36.6807977,0 -97.1014502,36.6808333,0 -97.1017033,36.6808329,0 -97.10192619999999,36.6808326,0 -97.10238,36.6808339,0 -97.10255790000001,36.680834,0 -97.10337269999999,36.6808342,0 -97.1041671,36.6808297,0 -97.10509639999998,36.6808558,0 -97.1064003,36.6809073,0 -97.10814759999998,36.6809141,0 -97.10881229999998,36.6809243,0 -97.10982869999999,36.6809214,0 -97.11141650000002,36.6809392,0 -97.11239209999999,36.6809628,0 -97.1130581,36.6809786,0 -97.1143582,36.6809897,0 -97.1145688,36.6809929,0 -97.1150516,36.681009,0 -97.11553960000001,36.6810611,0 -97.11591519999999,36.6811227,0 -97.11641659999999,36.6812467,0 -97.1168814,36.6814042,0 -97.11754889999999,36.6816995,0 -97.1182288,36.682061,0 -97.1194208,36.6830185,0 -97.11993870000001,36.6834599,0 -97.12198950000001,36.6851051,0 -97.1224624,36.6854705,0 -97.1253707,36.6878847,0 -97.1256729,36.6880821,0 -97.126006,36.6882816,0 -97.12637889999999,36.6884609,0 -97.12681279999998,36.6886396,0 -97.12820720000001,36.6888824,0 -97.12911889999998,36.6888848,0 -97.1327484,36.688558,0 -97.13467,36.6885328,0 -97.13860750000001,36.6885057,0 -97.139606,36.6884985,0 -97.14084010000001,36.688485,0 -97.14476019999999,36.688416,0 -97.146017,36.6883895,0 -97.14769939999999,36.6883612,0 -97.1562356,36.6882178,0 -97.1566845,36.6882161,0 -97.16519680000002,36.6881898,0 -97.16565390000001,36.6881884,0 -97.1741742,36.6881835,0 -97.1746507,36.6881832,0 -97.18322400000001,36.6881822,0 -97.18368120000001,36.6881833,0 -97.19211009999999,36.6881754,0 -97.19257529999999,36.6881749,0 -97.20117999999999,36.6881732,0 -97.20156100000001,36.6881731,0 -97.21016810000002,36.6881734,0 -97.2104975,36.6881734,0 -97.2154338,36.6882006,0 -97.2163913,36.6882064,0 -97.21923,36.6882272,0 -97.21957380000001,36.6882298,0 -97.2222421,36.6882458,0 -97.2232477,36.6882534,0 -97.22811610000001,36.6882813,0 -97.228554,36.6882838,0 -97.2300517,36.6882959,0 -97.2311608,36.6883019,0 -97.23479469999999,36.6883298,0 -97.23518129999999,36.6883325,0 -97.2378477,36.6883492,0 -97.2392961,36.6883577,0 -97.24419399999999,36.6883839,0 -97.2453393,36.6883889,0 -97.2465335,36.688401,0 -97.2469112,36.6884037,0 -97.24819979999998,36.688409,0 -97.24917050000001,36.6884152,0 -97.2508043,36.6884249,0 -97.25300900000001,36.6884416,0 -97.25529090000002,36.6884552,0 -97.25567730000002,36.6884574,0 -97.2642228,36.688511,0 -97.26462770000001,36.6885136,0 -97.2733046,36.6885655,0 -97.273743,36.6885681,0 -97.27763620000002,36.6886001,0 -97.2789563,36.6885978,0 -97.27963459999999,36.6887181,0 -97.27992159999999,36.6887514,0 -97.28021929999998,36.6887987,0 -97.28043390000001,36.6888428,0 -97.28072090000001,36.6889095,0 -97.28165159999999,36.6892181,0 -97.28194670000001,36.6893181,0 -97.282172,36.6893805,0 -97.28230739999999,36.6894138,0 -97.2825596,36.689445,0 -97.2826434,36.6894805,0 -97.28273590000001,36.6895596,0 -97.282814,36.6896451,0 -97.282832,36.695398,0 -97.28282809999999,36.7022161,0 -97.2828277,36.7029576,0 -97.2828265,36.7051295,0 -97.282826,36.7060539,0 -97.2828238,36.7098688,0 -97.28290009999999,36.7190883,0 -97.2829081,36.7238028,0 -97.2829119,36.7244402,0 -97.28291129999998,36.7247968,0 -97.28296490000001,36.7302072,0 -97.2830108,36.7386063,0 -97.283012,36.738823,0 -97.28303799999999,36.742829,0 -97.282995,36.750033,0 -97.283115,36.7527158,0 -97.2831398,36.7532695,0 -97.28314920000001,36.7537019,0 -97.2831518,36.7538189,0 -97.2831515,36.7538969,0 -97.2831103,36.7631413,0 -97.2831084,36.7635475,0 -97.28302030000002,36.7680068,0 -97.28303440000001,36.7698308,0 -97.28301620000001,36.7719625,0 -97.283029,36.7725811,0 -97.2830441,36.7733095,0 -97.2830378,36.773457,0 -97.28303259999998,36.7736515,0 -97.2830316,36.7736889,0 -97.2830247,36.773933,0 -97.2830348,36.7743685,0 -97.28308500000001,36.776605,0 -97.28304340000001,36.7776315,0 -97.2830325,36.7776787,0 -97.28304449999999,36.7778793,0 -97.2830397,36.779636,0 -97.283103,36.781486,0 -97.2830709,36.7825071,0 -97.28305880000001,36.7859243,0 -97.2830575,36.7862764,0 -97.2830573,36.7863365,0 -97.28305520000001,36.7869355,0 -97.28305410000002,36.7872388,0 -97.2830531,36.7875236,0 -97.28304990000001,36.7884266,0 -97.2830496,36.7885166,0 -97.2830455,36.7896682,0 -97.28304540000001,36.7897015,0 -97.28304520000002,36.7897595,0 -97.283045,36.7898277,0 -97.2830447,36.7898937,0 -97.28304460000001,36.7899335,0 -97.28303889999999,36.7915483,0 -97.2830385,36.7916513,0 -97.2830383,36.7917088,0 -97.28303509999999,36.7926139,0 -97.28303200000001,36.7934765,0 -97.2830317,36.7935532,0 -97.2830294,36.7942234,0 -97.2830283,36.7945375,0 -97.2830257,36.7952495,0 -97.2830222,36.7962391,0 -97.2830213,36.7964868,0 -97.28302069999998,36.7966765,0 -97.28301930000001,36.797056,0 -97.28301829999998,36.7973339,0 -97.28301479999999,36.79832,0 -97.2830105,36.799542,0 -97.28300779999999,36.8002948,0 -97.2830046,36.8011968,0 -97.2830045,36.8012231,0 -97.2830043,36.8012948,0 -97.28300400000001,36.8013654,0 -97.28300400000001,36.8013848,0 -97.28300120000002,36.802174,0 -97.28300110000001,36.8022051,0 -97.2830008,36.8022794,0 -97.28300049999999,36.8023544,0 -97.28300049999999,36.8023759,0 -97.28299759999999,36.8031684,0 -97.28299759999999,36.803192,0 -97.28299730000001,36.8032698,0 -97.28299700000001,36.8033456,0 -97.2829969,36.8033756,0 -97.2829941,36.8041551,0 -97.2829941,36.804182,0 -97.28299370000001,36.804294,0 -97.2829933,36.8043852,0 -97.28299320000001,36.804411,0 -97.28299050000001,36.8051828,0 -97.28299039999999,36.8052183,0 -97.28299010000001,36.8053014,0 -97.28298979999998,36.8053815,0 -97.2829897,36.8054019,0 -97.28298690000001,36.8061954,0 -97.2829868,36.806219,0 -97.28298650000001,36.8063008,0 -97.28298629999999,36.8063586,0 -97.28298629999999,36.8063801,0 -97.2829831,36.8072835,0 -97.2829806,36.8079801,0 -97.28297979999999,36.8082019,0 -97.2829795,36.808287,0 -97.28297609999998,36.8092565,0 -97.2829728,36.8101683,0 -97.28297260000001,36.8102448,0 -97.2829685,36.8113885,0 -97.28296839999999,36.8114078,0 -97.282968,36.8115414,0 -97.2829722,36.8116327,0 -97.2829742,36.8116746,0 -97.2829772,36.8125414,0 -97.28297329999999,36.8134546,0 -97.28299050000001,36.8144919,0 -97.28297569999999,36.8151777,0 -97.2829706,36.8167871,0 -97.2829766,36.8180726,0 -97.28298209999998,36.8195549,0 -97.28296250000001,36.8206234,0 -97.28294580000001,36.8254946,0 -97.28294099999998,36.8259944,0 -97.2830156,36.8283206,0 -97.28310089999998,36.8286741,0 -97.2832611,36.8290213,0 -97.28357029999999,36.829507,0 -97.2848683,36.8310267,0 -97.28942090000001,36.8363151,0 -97.2896377,36.8366162,0 -97.2898285,36.8369591,0 -97.28983599999999,36.836977,0 -97.29004629999999,36.8374765,0 -97.290122,36.8377282,0 -97.29039949999999,36.839061,0 -97.2906368,36.8404551,0 -97.2907417,36.8411328,0 -97.291146,36.843265,0 -97.2912156,36.8436272,0 -97.2912965,36.8443262,0 -97.29137299999999,36.845394,0 -97.29131679999999,36.8467262,0 -97.29128890000001,36.8482977,0 -97.2912077,36.8497863,0 -97.2909853,36.8535351,0 -97.2910004,36.8542238,0 -97.29099459999999,36.8548995,0 -97.2909748,36.8559625,0 -97.29105590000002,36.8591309,0 -97.2910662,36.8593835,0 -97.2913722,36.8669093,0 -97.2913927,36.8692046,0 -97.2912864,36.8747001,0 -97.29125329999999,36.8761883,0 -97.2912506,36.8771017,0 -97.29130019999999,36.8778478,0 -97.291434,36.8793724,0 -97.2914931,36.8796121,0 -97.2916496,36.8800089,0 -97.2918659,36.8803998,0 -97.2922296,36.8808813,0 -97.29435220000001,36.8830797,0 -97.29511470000001,36.8837667,0 -97.29637940000001,36.8848194,0 -97.29673320000001,36.8851464,0 -97.29705269999998,36.8854838,0 -97.29764230000001,36.8861104,0 -97.29892100000001,36.8874696,0 -97.2999341,36.888535,0 -97.30063779999999,36.8892842,0 -97.3024561,36.8912144,0 -97.3047,36.8936052,0 -97.3056867,36.894635,0 -97.30898809999999,36.8981314,0 -97.3126757,36.9020522,0 -97.3140495,36.9035169,0 -97.3147464,36.9042615,0 -97.31582379999999,36.9053903,0 -97.31614069999999,36.9057274,0 -97.31750940000002,36.9071877,0 -97.31803659999999,36.9077285,0 -97.31887129999998,36.9084753,0 -97.3211488,36.9104475,0 -97.3236005,36.9126295,0 -97.32664239999998,36.9153231,0 -97.3271084,36.9157375,0 -97.32735649999999,36.9160197,0 -97.327557,36.9162807,0 -97.32772270000001,36.9165576,0 -97.32786419999999,36.9168637,0 -97.32796049999999,36.9172062,0 -97.328368,36.9187018,0 -97.3286226,36.9195968,0 -97.3288888,36.9205765,0 -97.32901649999999,36.9210265,0 -97.3291624,36.9213454,0 -97.3293417,36.9215698,0 -97.3295397,36.9217805,0 -97.3297439,36.9219548,0 -97.33007000000002,36.9221475,0 -97.33040929999999,36.9222748,0 -97.3307485,36.9223729,0 -97.3309656,36.922405,0 -97.3311538,36.9224269,0 -97.3322534,36.9224398,0 -97.3333717,36.9224422,0 -97.33453830000001,36.922445,0 -97.3345303,36.9236012,0 -97.33452229999999,36.9247521,0 -97.3345143,36.9258869,0 -97.33450630000002,36.9270366,0 -97.3345147,36.9293109,0 -97.33450809999999,36.9296255,0 -97.33453190000002,36.9299401,0 -97.3345738,36.9302232,0 -97.33463399999998,36.930516,0 -97.334705,36.930814,0 -97.3348124,36.931129,0 -97.3350332,36.9315367,0 -97.33671599999998,36.934316,0 -97.33832910000001,36.9369499,0 -97.3386744,36.9374048,0 -97.33910779999998,36.9378559,0 -97.33961980000001,36.938288,0 -97.3408842,36.9391433,0 -97.341487,36.9395403,0 -97.341877,36.93978,0 -97.34259300000001,36.94022,0 -97.34382530000001,36.9406995,0 -97.34438669999999,36.9408337,0 -97.3452194,36.9409407,0 -97.34768010000001,36.9412587,0 -97.34897470000001,36.9414205,0 -97.35222690000001,36.941827,0 -97.353638,36.9420638,0 -97.3547222,36.9423676,0 -97.3551628,36.9425008,0 -97.35605560000002,36.9428159,0 -97.35704680000001,36.9432283,0 -97.35802989999999,36.9437452,0 -97.3588883,36.9442627,0 -97.35972839999998,36.9448449,0 -97.36070229999999,36.9456519,0 -97.3614977,36.9463808,0 -97.36239789999999,36.9471402,0 -97.36364330000001,36.9482688,0 -97.36426760000001,36.9488126,0 -97.366354,36.95065,0 -97.370863,36.954563,0 -97.37223489999998,36.9557697,0 -97.3723452,36.955872,0 -97.37262429999998,36.9561153,0 -97.3743585,36.9576485,0 -97.3888712,36.9704411,0 -97.3906092,36.9719631,0 -97.39115340000001,36.9724424,0 -97.3929591,36.9740545,0 -97.39407069999999,36.9751907,0 -97.3949149,36.9761848,0 -97.395718,36.9772236,0 -97.3965097,36.9784,0 -97.39690490000001,36.9790725,0 -97.39727259999999,36.9797386,0 -97.39758609999998,36.9803555,0 -97.39784359999999,36.980916,0 -97.39813560000002,36.9815966,0 -97.39843740000001,36.9823967,0 -97.3986282,36.9829606,0 -97.3988571,36.9837576,0 -97.39909780000001,36.9848394,0 -97.3993162,36.9860379,0 -97.3994021,36.9866712,0 -97.39945359999999,36.9872977,0 -97.3994836,36.9884529,0 -97.3994793,36.9896561,0 -97.3995005,36.9966203,0 -97.39951949999998,36.9968803,0 -97.39958590000001,36.9972573,0 -97.3997231,36.9976623,0 -97.39986020000001,36.9979745,0 -97.4003495,36.9987777,0 -97.40067950000001,36.9992941,0 -97.40077529999999,36.9995216,0 -97.4008529,36.9997635,0 -97.40087339999999,36.9999027,0 -97.40088249999999,37.0000589,0 -97.40088700000001,37.003583,0 -97.40092249999999,37.004628,0 -97.40092150000001,37.004971,0 -97.40092920000001,37.0060713,0 -97.4009075,37.0114164,0 -97.4009075,37.0116224,0 -97.40091289999999,37.0133699,0 -97.400902,37.015053,0 -97.40089600000002,37.016501,0 -97.4010382,37.0255436,0 -97.40105219999998,37.0277401,0 -97.40102499999999,37.030495,0 -97.40103919999999,37.0324405,0 -97.40103990000001,37.0331332,0 -97.40103550000001,37.0335191,0 -97.40103500000001,37.0341166,0 -97.4010617,37.0392305,0 -97.4010675,37.0403433,0 -97.4011086,37.0423344,0 -97.4011038,37.0433801,0 -97.40113479999998,37.0448365,0 -97.4011441,37.0460308,0 -97.40116020000001,37.0471357,0 -97.4011625,37.0472885,0 -97.4011644,37.0473743,0 -97.4011679,37.048585,0 -97.4011866,37.0496137,0 
			</coordinates>
		</LineString>
		<atom:link rel="app" href="https://www.google.com/earth/about/versions/#earth-pro" title="Google Earth Pro 7.3.6.10201"></atom:link>
	</Placemark>
</Document>
</kml>
