<?xml version="1.0" encoding="UTF-8"?>
<kml xmlns="http://www.opengis.net/kml/2.2" xmlns:gx="http://www.google.com/kml/ext/2.2" xmlns:kml="http://www.opengis.net/kml/2.2" xmlns:atom="http://www.w3.org/2005/Atom">
<Document>
	<name>US.1A.ME.N.kml</name>
	<Placemark>
		<name>US.1A.ME.N</name>
		<LineString>
			<coordinates>
				-67.8668298,46.5158789,0 -67.86679100000001,46.5164152,0 -67.86679700000001,46.517458,0 -67.866793,46.51754900000001,0 -67.866761,46.5176409,0 -67.8667117,46.5177277000001,0 -67.86662,46.5178118,0 -67.86655,46.51787300000001,0 -67.8663978,46.51795559999999,0 -67.866303,46.517996,0 -67.866102,46.51807900000001,0 -67.86607100000001,46.518091,0 -67.865359,46.518361,0 -67.865093,46.51847099999999,0 -67.865019,46.518509,0 -67.864931,46.518564,0 -67.864814,46.518775,0 -67.864771,46.51893900000001,0 -67.864746,46.519139,0 -67.864726,46.519457,0 -67.864735,46.519619,0 -67.864755,46.51981499999999,0 -67.86479799999999,46.51999900000001,0 -67.86484299999999,46.520133,0 -67.864957,46.520398,0 -67.8653067,46.5211279,0 -67.865799,46.522193,0 -67.86650400000001,46.5237750000001,0 -67.866634,46.524038,0 -67.86678499999999,46.524288,0 -67.866958,46.524541,0 -67.86707199999999,46.524708,0 -67.867552,46.5252700000001,0 -67.867696,46.525429,0 -67.869298,46.527285,0 -67.870499,46.528664,0 -67.870616,46.52878,0 -67.870803,46.528976,0 -67.871275,46.529525,0 -67.87138179999999,46.52965259999999,0 -67.871506,46.52980100000001,0 -67.8717257,46.5300823,0 -67.8722033,46.5306695,0 -67.8724598,46.53094209999999,0 -67.872731,46.5311958,0 -67.8730024,46.5314384,0 -67.873231,46.53162200000001,0 -67.87351099999999,46.531848,0 -67.87379799999999,46.53206500000001,0 -67.874095,46.53226999999999,0 -67.87439999999999,46.532465,0 -67.87532400000001,46.533033,0 -67.875626,46.533228,0 -67.875927,46.533431,0 -67.876214,46.533652,0 -67.876487,46.533892,0 -67.87674,46.53415199999999,0 -67.876975,46.534431,0 -67.877183,46.534727,0 -67.877195,46.53474799999999,0 -67.87731700000001,46.534958,0 -67.87736599999999,46.535043,0 -67.87750800000001,46.535376,0 -67.877619,46.5357220000001,0 -67.87768010000001,46.5360192,0 -67.877692,46.536077,0 -67.87772200000001,46.5363600000001,0 -67.87773900000001,46.536645,0 -67.877781,46.53801500000001,0 -67.87778400000001,46.538316,0 -67.87777800000001,46.538594,0 -67.877757,46.538901,0 -67.877709,46.539207,0 -67.877638,46.53951399999999,0 -67.877555,46.539818,0 -67.877438,46.540161,0 -67.87729299999999,46.540493,0 -67.877122,46.540813,0 -67.876929,46.54111899999999,0 -67.876724,46.541417,0 -67.87649999999999,46.541703,0 -67.87578999999999,46.542528,0 -67.87555999999999,46.542806,0 -67.875336,46.54308900000001,0 -67.875129,46.543385,0 -67.874954,46.543699,0 -67.87482199999999,46.544035,0 -67.874734,46.54436100000001,0 -67.87468699999999,46.544686,0 -67.87468,46.54498500000011,0 -67.874711,46.545282,0 -67.87472200000001,46.545359,0 -67.874809,46.545939,0 -67.87485599999999,46.5463,0 -67.874876,46.54659,0 -67.874848,46.54701200000001,0 -67.874785,46.54738500000001,0 -67.874768,46.547482,0 -67.874681,46.547725,0 -67.874595,46.547966,0 -67.874343,46.548407,0 -67.874173,46.54863300000001,0 -67.874036,46.548816,0 -67.87342,46.549601,0 -67.8733099,46.54974,0 -67.87058399999999,46.55318,0 -67.869981,46.553991,0 -67.86982,46.554282,0 -67.869496,46.55486799999999,0 -67.868961,46.555893,0 -67.868785,46.556231,0 -67.86834500000001,46.557145,0 -67.86801199999999,46.55809599999999,0 -67.867807,46.559085,0 -67.867654,46.56001700000001,0 -67.867576,46.560492,0 -67.867501,46.56091500000001,0 -67.867446,46.561287,0 -67.86729200000001,46.562205,0 -67.86689699999999,46.56461999999999,0 -67.86666,46.566012,0 -67.866449,46.56729900000001,0 -67.866384,46.56772999999999,0 -67.86632400000001,46.56812600000001,0 -67.866249,46.56896099999999,0 -67.866214,46.569688,0 -67.86618799999999,46.570224,0 -67.86612700000001,46.571053,0 -67.86591900000001,46.57202,0 -67.86565,46.572955,0 -67.865431,46.57388100000009,0 -67.865375,46.57470000000001,0 -67.86538400000001,46.575907,0 -67.865403,46.57722699999999,0 -67.86539,46.578353,0 -67.865371,46.57920499999999,0 -67.865263,46.580075,0 -67.865031,46.58136699999999,0 -67.86478200000001,46.5826360000001,0 -67.86452,46.583909,0 -67.86427399999999,46.5848280000001,0 -67.863743,46.586258,0 -67.863229,46.58766599999999,0 -67.862897,46.588613,0 -67.862829,46.588893,0 -67.862667,46.589552,0 -67.862624,46.589937,0 -67.862593,46.590398,0 -67.86263599999999,46.591016,0 -67.862731,46.591909,0 -67.86275999999999,46.592132,0 -67.862904,46.593244,0 -67.863135,46.594188,0 -67.863518,46.59512699999999,0 -67.864231,46.596467,0 -67.864907,46.597826,0 -67.86507899999999,46.598316,0 -67.865409,46.59925599999999,0 -67.86564300000001,46.600241,0 -67.865765,46.6010439999999,0 -67.86582199999999,46.601852,0 -67.865836,46.602666,0 -67.865861,46.60358600000001,0 -67.865921,46.604906,0 -67.865984,46.6057370000001,0 -67.866005,46.606238,0 -67.866164,46.608879,0 -67.866254,46.61014599999999,0 -67.866371,46.611494,0 -67.86645900000001,46.612747,0 -67.866569,46.614076,0 -67.866618,46.61477499999999,0 -67.86663299999999,46.615096,0 -67.866911,46.618667,0 -67.867328,46.624021,0 -67.867356,46.624287,0 -67.86741499999999,46.62525000000001,0 -67.867441,46.625764,0 -67.867552,46.627079,0 -67.867643,46.628271,0 -67.86784900000001,46.63070900000001,0 -67.867884,46.63147500000001,0 -67.86789400000001,46.632001,0 -67.86788,46.63229100000001,0 -67.86782700000001,46.633112,0 -67.867825,46.63315,0 -67.867683,46.634769,0 -67.86758399999999,46.635786,0 -67.86754999999999,46.63619200000001,0 -67.867538,46.636337,0 -67.867473,46.63712600000001,0 -67.867451,46.637334,0 -67.867349,46.63831500000001,0 -67.867244,46.63947699999999,0 -67.86709999999999,46.640811,0 -67.86685300000001,46.643263,0 -67.866821,46.643802,0 -67.86678499999999,46.64420800000001,0 -67.86673,46.645148,0 -67.866733,46.645923,0 -67.866749,46.647089,0 -67.86673399999999,46.647899,0 -67.866709,46.64816400000001,0 -67.86667799999999,46.64839,0 -67.866585,46.648892,0 -67.866529,46.64913,0 -67.866452,46.649407,0 -67.86639,46.649602,0 -67.86578299999999,46.65119599999999,0 -67.865527,46.651868,0 -67.864976,46.65328,0 -67.864885,46.653552,0 -67.864876,46.653577,0 -67.864705,46.654034,0 -67.864552,46.654552,0 -67.864458,46.654997,0 -67.86439,46.655424,0 -67.86435299999999,46.65583,0 -67.86435400000001,46.656221,0 -67.864372,46.65669100000001,0 -67.864394,46.656983,0 -67.864451,46.657412,0 -67.864496,46.65764100000001,0 -67.864532,46.65782000000001,0 -67.864796,46.658737,0 -67.86519,46.65966299999999,0 -67.86569299999999,46.6605339999999,0 -67.86627900000001,46.661362,0 -67.86674600000001,46.661959,0 -67.867143,46.662477,0 -67.867603,46.663102,0 -67.868036,46.663691,0 -67.86830399999999,46.66409700000001,0 -67.86842300000001,46.664261,0 -67.868712,46.6647459999999,0 -67.868976,46.665175,0 -67.869713,46.66649,0 -67.86994300000001,46.666957,0 -67.87037599999999,46.667835,0 -67.870503,46.668147,0 -67.870564,46.668296,0 -67.870828,46.668944,0 -67.87094999999999,46.669242,0 -67.8711641,46.6697149,0 -67.87137300000001,46.670306,0 -67.871707,46.671248,0 -67.87179,46.671499,0 -67.87191,46.67192599999999,0 -67.872029,46.67239299999999,0 -67.87213300000001,46.673008,0 -67.872167,46.673215,0 -67.872243,46.67400600000001,0 -67.872365,46.676263,0 -67.872392,46.6766669999999,0 -67.87243700000001,46.677337,0 -67.87244699999999,46.67755199999999,0 -67.872456,46.67774,0 -67.872489,46.678386,0 -67.87249799999999,46.6785040000001,0 -67.87254900000001,46.67919499999999,0 -67.872643,46.68003299999999,0 -67.872837,46.680977,0 -67.873127,46.6819519999999,0 -67.873509,46.68288999999999,0 -67.8740284,46.68399640000001,0 -67.87413859999999,46.6842312,0 -67.874314,46.6846048,0 -67.8744884,46.6849763,0 -67.87479999999999,46.68564000000001,0 -67.875456,46.68701899999991,0 -67.87564,46.687491,0 -67.87573999999999,46.687862,0 -67.875788,46.688139,0 -67.875816,46.688462,0 -67.875817,46.688753,0 -67.87578499999999,46.689111,0 -67.875716,46.689469,0 -67.875612,46.689842,0 -67.875483,46.690167,0 -67.87533000000001,46.6904840000001,0 -67.875145,46.690789,0 -67.87493499999999,46.691083,0 -67.87470500000001,46.69136200000001,0 -67.874455,46.691622,0 -67.87418599999999,46.691867,0 -67.873057,46.6928,0 -67.87248700000001,46.69325800000001,0 -67.871644,46.693954,0 -67.871365,46.69419200000001,0 -67.8712452,46.6942926,0 -67.871093,46.69444,0 -67.870833,46.694699,0 -67.870586,46.694968,0 -67.87026299999999,46.695355,0 -67.870104,46.6955639999999,0 -67.86993,46.695833,0 -67.86974499999999,46.696144,0 -67.86957200000001,46.696466,0 -67.869421,46.69679600000001,0 -67.869255,46.697217,0 -67.869179,46.69742999999999,0 -67.869106,46.69769200000001,0 -67.869032,46.698049,0 -67.868983,46.69837900000001,0 -67.868959,46.698682,0 -67.868951,46.69898799999999,0 -67.868955,46.69928800000001,0 -67.86902600000001,46.70106499999999,0 -67.869052,46.70149900000001,0 -67.869056,46.7018929999999,0 -67.86908,46.702464,0 -67.869193,46.70497700000001,0 -67.869294,46.707371,0 -67.869317,46.707827,0 -67.86953200000001,46.712176,0 -67.869564,46.712867,0 -67.869697,46.715768,0 -67.86976300000001,46.717001,0 -67.869849,46.7188990000001,0 -67.869865,46.719187,0 -67.869877,46.71951,0 -67.8699137,46.7201599,0 -67.869928,46.72041299999999,0 -67.869991,46.721729,0 -67.870149,46.72453,0 -67.870306,46.727141,0 -67.870362,46.728249,0 -67.870402,46.728677,0 -67.87047200000001,46.730642,0 -67.87062,46.73427000000001,0 -67.87067500000001,46.73546999999999,0 -67.870693,46.736063,0 -67.87071,46.736472,0 -67.870757,46.737588,0 -67.870802,46.738799,0 -67.87083699999999,46.739304,0 -67.870857,46.740153,0 -67.87096699999999,46.742642,0 -67.87098349999999,46.7431167,0 -67.87101199999999,46.743935,0 -67.871127,46.7466,0 -67.871151,46.7474500000001,0 -67.87112399999999,46.74830200000009,0 -67.871088,46.748562,0 -67.871002,46.7491900000001,0 -67.870758,46.7501439999999,0 -67.87038699999999,46.751093,0 -67.869922,46.752008,0 -67.869651,46.75245499999999,0 -67.86953699999999,46.75260899999999,0 -67.869444,46.7527410000001,0 -67.869254,46.752998,0 -67.86861399999999,46.75377399999999,0 -67.86791599999999,46.754502,0 -67.86715700000001,46.755171,0 -67.86633500000001,46.75580099999999,0 -67.865877,46.75610400000001,0 -67.864614,46.756869,0 -67.859267,46.759808,0 -67.85883200000001,46.760058,0 -67.858262,46.76037600000001,0 -67.85524100000001,46.7620230000001,0 -67.8533918,46.76304029999999,0 -67.8528799,46.7633219,0 -67.851533,46.76405599999999,0 -67.851287,46.764201,0 -67.84995000000001,46.76492999999999,0 -67.84796179999999,46.7660294,0 -67.847268,46.766413,0 -67.8462899,46.7668993,0 -67.8452827,46.7674621,0 -67.84495,46.7676480000001,0 -67.84481390000001,46.7677204,0 -67.844572,46.767849,0 -67.8444173,46.7679305000001,0 -67.843902,46.768202,0 -67.84374819999999,46.768286,0 -67.843172,46.768593,0 -67.84148500000001,46.769496,0 -67.8412156,46.7696376,0 -67.84115199999999,46.769671,0 -67.8408099,46.7698529,0 -67.84060100000001,46.769964,0 -67.840493,46.7700249999999,0 -67.84032310000001,46.7701135000001,0 -67.84027399999999,46.77013900000001,0 -67.839702,46.77044899999989,0 -67.839555,46.770536,0 -67.83917599999999,46.77075200000001,0 -67.83787,46.771501,0 -67.837677,46.771616,0 -67.837441,46.77174600000001,0 -67.837295,46.771823,0 -67.836409,46.772343,0 -67.836237,46.77244099999999,0 -67.835841,46.77263600000001,0 -67.835785,46.772663,0 -67.835671,46.772712,0 -67.8355145,46.7727904,0 -67.8353606,46.77284590000001,0 -67.8353493,46.77285059999999,0 -67.8351014,46.7729525,0 -67.8348347,46.77307390000001,0 -67.83215180000001,46.7742124,0 -67.831943,46.77431500000001,0 -67.831642,46.774436,0 -67.831208,46.774604,0 -67.830845,46.774727,0 -67.830489,46.774827,0 -67.830129,46.77491299999999,0 -67.829928,46.774956,0 -67.82955,46.77503099999999,0 -67.82904499999999,46.77509999999999,0 -67.828744,46.7751369999999,0 -67.8285394,46.7751619,0 -67.828283,46.775193,0 -67.827905,46.775244,0 -67.827535,46.775303,0 -67.827175,46.775373,0 -67.82682,46.77545200000001,0 -67.826469,46.77553700000001,0 -67.8263433,46.7755733,0 -67.826123,46.7756370000001,0 -67.82602300000001,46.775672,0 -67.82577999999999,46.775758,0 -67.82572500000001,46.77578,0 -67.82544900000001,46.7758919999999,0 -67.82511599999999,46.776038,0 -67.82478500000001,46.776192,0 -67.82446400000001,46.77636400000001,0 -67.824292,46.77646799999999,0 -67.824153,46.776551,0 -67.82384999999999,46.776752,0 -67.823562,46.776967,0 -67.823227,46.777252,0 -67.82302300000001,46.77745,0 -67.822782,46.777715,0 -67.82235300000001,46.77824,0 -67.822146,46.778503,0 -67.822098,46.778558,0 -67.82193909999999,46.77875869999999,0 -67.8217186,46.7790371,0 -67.821648,46.77912620000001,0 -67.8214541,46.77937110000001,0 -67.821263,46.77961250000001,0 -67.82104150000001,46.77989220000001,0 -67.820972,46.77998,0 -67.820312,46.780797,0 -67.820069,46.781097,0 -67.8200585,46.78111179999989,0 -67.8199666,46.7812416,0 -67.819858,46.781395,0 -67.819669,46.78170099999999,0 -67.81949899999999,46.78202300000009,0 -67.81941809999999,46.7821988,0 -67.819344,46.782357,0 -67.8193072,46.782447,0 -67.819208,46.782689,0 -67.819183,46.78275989999999,0 -67.81908799999999,46.783029,0 -67.81899,46.783379,0 -67.81891,46.783736,0 -67.818865,46.784096,0 -67.81884100000001,46.784456,0 -67.818842,46.784819,0 -67.818861,46.78518,0 -67.81890300000001,46.785537,0 -67.819002,46.78625,0 -67.819273,46.788024,0 -67.81932,46.7883799999999,0 -67.819394,46.7891669,0 -67.819424,46.78945099999999,0 -67.819462,46.790159,0 -67.819484,46.790463,0 -67.819473,46.790853,0 -67.819484,46.79119300000001,0 -67.819469,46.7916408,0 -67.81943200000001,46.7927440000001,0 -67.819411,46.793294,0 -67.8193689,46.79480240000001,0 -67.8193425,46.7957476,0 -67.81932999999999,46.79619600000001,0 -67.8193045,46.79692,0 -67.81927899999999,46.797644,0 -67.819266,46.79837,0 -67.819245,46.7990939999999,0 -67.819242,46.79926,0 -67.819233,46.799821,0 -67.819211,46.80054899999999,0 -67.819171,46.801277,0 -67.819131,46.801637,0 -67.819031,46.802354,0 -67.818967,46.8027119999999,0 -67.818928,46.802893,0 -67.81889,46.803065,0 -67.818792,46.80341199999999,0 -67.818684,46.803755,0 -67.818524,46.8042370000001,0 -67.818313,46.80477500000001,0 -67.818163,46.805111,0 -67.81800699999999,46.805439,0 -67.81767499999999,46.806085,0 -67.81750099999999,46.806402,0 -67.817143,46.8070290000001,0 -67.816248,46.80861000000001,0 -67.815544,46.809883,0 -67.814836,46.811147,0 -67.813417,46.81365899999999,0 -67.813068,46.814295,0 -67.81236,46.815556,0 -67.811998,46.81618100000001,0 -67.81180999999999,46.81648799999999,0 -67.811423,46.817087,0 -67.811026,46.817674,0 -67.810779,46.818012,0 -67.810562,46.818318,0 -67.81013400000001,46.818919,0 -67.805368,46.82482599999999,0 -67.802763,46.828055,0 -67.80198900000001,46.829007,0 -67.801852,46.82918600000001,0 -67.801309,46.829859,0 -67.801041,46.830201,0 -67.800532,46.830907,0 -67.800291,46.831263,0 -67.79982800000001,46.831996,0 -67.799406,46.83276000000001,0 -67.799212,46.833149,0 -67.799027,46.833543,0 -67.798851,46.833938,0 -67.79868399999999,46.834337,0 -67.79865100000001,46.834422,0 -67.798526,46.834741,0 -67.79837999999999,46.83515,0 -67.798131,46.835984,0 -67.79792500000001,46.836822,0 -67.797842,46.837249,0 -67.797771,46.837678,0 -67.797712,46.83810600000001,0 -67.797656,46.838695,0 -67.79763680000001,46.8390228,0 -67.797618,46.83934399999999,0 -67.797608,46.840201,0 -67.79762599999999,46.8406350000001,0 -67.79763,46.8406894,0 -67.797658,46.841067,0 -67.797704,46.841502,0 -67.79776099999999,46.84193499999999,0 -67.79786900000001,46.842602,0 -67.79796899999999,46.843077,0 -67.79803939999999,46.843373,0 -67.798068,46.84349300000001,0 -67.79831799999999,46.84432199999999,0 -67.7986729,46.8454203,0 -67.79872,46.845566,0 -67.79881399999999,46.845865,0 -67.798913,46.846184,0 -67.7990253,46.8465568,0 -67.79909499999999,46.846788,0 -67.799166,46.846999,0 -67.799982,46.849478,0 -67.800411,46.850819,0 -67.80062599999999,46.85141300000001,0 -67.8008528,46.8521077,0 -67.80130800000001,46.853502,0 -67.8014167,46.8537972,0 -67.801456,46.85390399999999,0 -67.801497,46.85401399999999,0 -67.801535,46.85413199999999,0 -67.80157269999999,46.85425029999999,0 -67.80162799999999,46.85442400000001,0 -67.801917,46.85523700000001,0 -67.80197099999999,46.85535800000001,0 -67.802093,46.855629,0 -67.80212899999999,46.855697,0 -67.80228099999999,46.8559869999999,0 -67.802294,46.856011,0 -67.80252,46.856381,0 -67.80277100000001,46.856733,0 -67.803043,46.857073,0 -67.80336800000001,46.85744,0 -67.803642,46.857741,0 -67.803804,46.85789100000001,0 -67.804134,46.858178,0 -67.80447599999999,46.858448,0 -67.80483099999999,46.858705,0 -67.805196,46.858941,0 -67.8058382,46.8593067,0 -67.8062934,46.8595504,0 -67.808229,46.86067400000011,0 -67.808599,46.8609,0 -67.80896199999999,46.861136,0 -67.80932199999999,46.86138200000001,0 -67.809669,46.86163999999999,0 -67.81000400000001,46.86190899999999,0 -67.810334,46.86219,0 -67.810654,46.862482,0 -67.810962,46.862785,0 -67.811262,46.86309700000011,0 -67.81305,46.864988,0 -67.813631,46.86562,0 -67.813909,46.8659490000001,0 -67.814471,46.866628,0 -67.8146697,46.8668797,0 -67.814741,46.86697000000001,0 -67.815522,46.868015,0 -67.817058,46.870127,0 -67.817594,46.870879,0 -67.817694,46.871019,0 -67.817815,46.871188,0 -67.818298,46.871909,0 -67.819003,46.873004,0 -67.81969700000001,46.87410899999999,0 -67.820821,46.87586999999999,0 -67.820994,46.876141,0 -67.821577,46.877054,0 -67.822171,46.877984,0 -67.82242100000001,46.878377,0 -67.82362500000001,46.880269,0 -67.823854,46.88064,0 -67.82407000000001,46.88101900000001,0 -67.82420399999999,46.88127899999999,0 -67.824512,46.88200500000001,0 -67.824673,46.88250500000001,0 -67.824718,46.8826989999999,0 -67.824867,46.883407,0 -67.8248974,46.8836274,0 -67.824926,46.883835,0 -67.82493100000001,46.883925,0 -67.824951,46.88426900000001,0 -67.824973,46.88513,0 -67.824979,46.885644,0 -67.824988,46.886431,0 -67.82501499999999,46.88773499999999,0 -67.82503199999999,46.889036,0 -67.82507,46.89034000000011,0 -67.8250762,46.89048079999999,0 -67.825108,46.891201,0 -67.8251325,46.89169520000001,0 -67.825146,46.89189700000009,0 -67.8251832,46.892574,0 -67.825227,46.89337,0 -67.825239,46.893855,0 -67.82527399999999,46.895203,0 -67.825288,46.89564099999999,0 -67.82528600000001,46.895857,0 -67.825307,46.897445,0 -67.82531,46.898319,0 -67.8253102,46.89836039999999,0 -67.825311,46.89859500000001,0 -67.82532399999999,46.899621,0 -67.82532999999999,46.90004500000001,0 -67.8253339,46.9002134,0 -67.825335,46.900261,0 -67.8253486,46.9008475,0 -67.8253563,46.90118079999999,0 -67.8253684,46.90170200000001,0 -67.825372,46.901858,0 -67.8253812,46.9020993,0 -67.82538599999999,46.90222419999999,0 -67.8253891,46.9023073,0 -67.8253921,46.9023857,0 -67.82540640000001,46.9027608,0 -67.8254161,46.9029661,0 -67.8254172,46.90299,0 -67.825428,46.903219,0 -67.8254283,46.9032335,0 -67.8254307,46.9033529,0 -67.82543200000001,46.903417,0 -67.825436,46.903579,0 -67.8254419,46.9037413,0 -67.8254529,46.9040397,0 -67.8254701,46.9045106,0 -67.82547700000001,46.90469900000001,0 -67.825496,46.9051230000001,0 -67.825503,46.905294,0 -67.82551599999999,46.905663,0 -67.825532,46.906052,0 -67.8255348,46.9061812,0 -67.825548,46.906782,0 -67.82555960000001,46.9072735,0 -67.8255643,46.9074715,0 -67.82558400000001,46.907765,0 -67.825585,46.9080180000001,0 -67.825569,46.908802,0 -67.8255625,46.9090279,0 -67.82556099999999,46.909079,0 -67.82556099999999,46.909537,0 -67.8255614,46.9097617,0 -67.82556169999999,46.9099853999999,0 -67.8255619,46.91009219999999,0 -67.82556200000001,46.910162,0 -67.82556289999999,46.910487,0 -67.8255632,46.9105953999999,0 -67.8255636,46.9107195,0 -67.825564,46.910846,0 -67.825569,46.911106,0 -67.825571,46.91142,0 -67.825565,46.911543,0 -67.825577,46.912035,0 -67.825587,46.91246999999999,0 -67.82559000000001,46.91282000000001,0 -67.82558450000001,46.913377,0 -67.8255851,46.9134098,0 -67.825592,46.913989,0 -67.82562299999999,46.914278,0 -67.825678,46.914564,0 -67.825745,46.914839,0 -67.82582499999999,46.915094,0 -67.82593,46.91534,0 -67.82605599999999,46.91560800000011,0 -67.82609600000001,46.91567,0 -67.82616299999999,46.9158,0 -67.826235,46.9159250000001,0 -67.826312,46.916046,0 -67.826442,46.91623,0 -67.826577,46.91640700000001,0 -67.826814,46.9166860000001,0 -67.82702,46.916894,0 -67.82736,46.91725799999999,0 -67.828599,46.9185840000001,0 -67.828738,46.918744,0 -67.828819,46.918834,0 -67.828948,46.9189770000001,0 -67.829391,46.919452,0 -67.829748,46.919822,0 -67.830038,46.920145,0 -67.830223,46.920368,0 -67.83046899999999,46.920722,0 -67.830545,46.920845,0 -67.830612,46.920966,0 -67.83071,46.92116800000001,0 -67.830882,46.92154099999999,0 -67.830933,46.921675,0 -67.83103699999999,46.922026,0 -67.831114,46.9223779999999,0 -67.831142,46.922589,0 -67.831159,46.922806,0 -67.831174,46.923169,0 -67.8311861,46.9240017,0 -67.831187,46.924063,0 -67.831191,46.924303,0 -67.831193,46.924462,0 -67.83120099999999,46.924842,0 -67.831215,46.925487,0 -67.83126799999999,46.929005,0 -67.831282,46.929355,0 -67.83129599999999,46.9299410000001,0 -67.831366,46.935006,0 -67.831382,46.9365290000001,0 -67.831382,46.936673,0 -67.831385,46.938036,0 -67.83140299999999,46.939548,0 -67.83141000000001,46.940794,0 -67.831418,46.9418592,0 -67.831435,46.9447234,0 -67.831445,46.94611,0 -67.831434,46.946958,0 -67.8314355,46.9473886,0 -67.831446,46.950395,0 -67.831469,46.95191700000001,0 -67.831464,46.952931,0 -67.83139799999999,46.954669,0 -67.831394,46.955245,0 -67.83139799999999,46.95533,0 -67.831416,46.955749,0 -67.831467,46.956252,0 -67.831684,46.957751,0 -67.83172500000001,46.958252,0 -67.831732,46.958761,0 -67.831729,46.95894,0 -67.83168379999999,46.963135,0 -67.831631,46.966246,0 -67.831619,46.966752,0 -67.831609,46.96696799999999,0 -67.83159000000001,46.967183,0 -67.831543,46.96754199999999,0 -67.83146499999999,46.96797,0 -67.831282,46.968595,0 -67.8311396,46.9690195,0 -67.83107,46.969227,0 -67.83103,46.969332,0 -67.83090799999999,46.969604,0 -67.830781,46.969867,0 -67.830549,46.970298,0 -67.83045799999999,46.9704359999999,0 -67.830304,46.97068699999999,0 -67.830096,46.970989,0 -67.829835,46.9713380000001,0 -67.82956,46.971676,0 -67.82927100000001,46.971999,0 -67.82902,46.972258,0 -67.828281,46.97295,0 -67.82778500000001,46.973389,0 -67.827496,46.973639,0 -67.82622000000001,46.9747440000001,0 -67.825952,46.974982,0 -67.825649,46.975232,0 -67.825181,46.975646,0 -67.824028,46.976647,0 -67.822883,46.97764900000001,0 -67.821746,46.978653,0 -67.82054239999999,46.9796989,0 -67.818304,46.981644,0 -67.81715,46.982626,0 -67.81598700000001,46.983608,0 -67.813672,46.98558800000001,0 -67.812898,46.986259,0 -67.812524,46.986613,0 -67.812236,46.98692389999999,0 -67.81198500000001,46.9872390000001,0 -67.81171000000001,46.98766,0 -67.81168700000001,46.987706,0 -67.811485,46.9881010000001,0 -67.81126399999999,46.988561,0 -67.810641,46.989957,0 -67.8101487,46.9910410000001,0 -67.80939600000001,46.992715,0 -67.808761,46.99410700000001,0 -67.8079444,46.99586860000001,0 -67.807703,46.9964099999999,0 -67.80733499999999,46.9973369999999,0 -67.807254,46.9975768,0 -67.80700899999999,46.99830200000001,0 -67.8067775,46.9992231,0 -67.806544,47.000268,0 -67.80640200000001,47.001273,0 -67.806326,47.0022810000001,0 -67.80630499999999,47.003299,0 -67.80630600000001,47.004816,0 -67.80629999999999,47.0063300000001,0 -67.80631,47.007841,0 -67.806307,47.009193,0 -67.80628299999999,47.011401,0 -67.806258,47.013483,0 -67.806217,47.01556500000001,0 -67.8061818,47.0183216,0 -67.806175,47.019203,0 -67.806163,47.02223500000001,0 -67.80617770000001,47.0233368,0 -67.8061924,47.02589520000001,0 -67.80619830000001,47.02693289999999,0 -67.8061907,47.028667,0 -67.806192,47.029593,0 -67.8062,47.030368,0 -67.806195,47.03097100000001,0 -67.8062042,47.0323564,0 -67.806218,47.0344260000001,0 -67.80622200000001,47.0349990000001,0 -67.80622,47.035515,0 -67.806226,47.035807,0 -67.806241,47.0372000000001,0 -67.80624659999999,47.0386467,0 -67.806265,47.041788,0 -67.806256,47.04599999999999,0 -67.8062604,47.0464835,0 -67.80626100000001,47.047834,0 -67.806268,47.0496717,0 -67.8062359,47.050145,0 -67.806201,47.0504758,0 -67.806105,47.050856,0 -67.805981,47.0512616,0 -67.8057665,47.0517569,0 -67.8055385,47.0521607999999,0 -67.80525419999999,47.0525719,0 -67.8034814,47.0546874,0 -67.803223,47.054996,0 -67.80159500000001,47.056919,0 -67.80096,47.057717,0 -67.800847,47.057896,0 -67.80042299999999,47.058566,0 -67.79997400000001,47.059477,0 -67.79965199999999,47.0604220000001,0 -67.799441,47.061409,0 -67.79937,47.062419,0 -67.799386,47.062594,0 -67.79944399999999,47.0632510000001,0 -67.7995116,47.0637019,0 -67.7996591,47.0642481,0 -67.79986289999999,47.0648949,0 -67.80003189999999,47.0653243,0 -67.8002492,47.06577370000009,0 -67.8004342,47.0661282,0 -67.8005496,47.0663127,0 -67.801044,47.067083,0 -67.80107479999999,47.0671208,0 -67.80167899999999,47.067862,0 -67.802392,47.068575,0 -67.80316999999999,47.069236,0 -67.803613,47.069552,0 -67.803887,47.069742,0 -67.804304,47.070022,0 -67.80473000000001,47.070284,0 -67.805364,47.07063599999999,0 -67.805531,47.07072099999999,0 -67.80580999999999,47.070847,0 -67.80681300000001,47.0713140000001,0 -67.80731659999999,47.0715396,0 -67.808206,47.071938,0 -67.809904,47.072711,0 -67.81058400000001,47.073025,0 -67.811485,47.0734780000001,0 -67.812366,47.073987,0 -67.813211,47.07455400000001,0 -67.81397490000001,47.07509950000001,0 -67.814446,47.07543600000001,0 -67.816546,47.07691400000001,0 -67.816948,47.077196,0 -67.817227,47.07737980000001,0 -67.81728200000001,47.07741599999999,0 -67.8178923,47.0778348,0 -67.819884,47.07925400000001,0 -67.8209334,47.0799798,0 -67.821152,47.08013100000001,0 -67.821573,47.080376,0 -67.822451,47.080822,0 -67.823401,47.081179,0 -67.824375,47.08144900000001,0 -67.82458699999999,47.081498,0 -67.82536899999999,47.081647,0 -67.82619200000001,47.081742,0 -67.826367,47.081762,0 -67.827381,47.081805,0 -67.82790900000001,47.081793,0 -67.828328,47.081772,0 -67.828907,47.081719,0 -67.829908,47.08156699999999,0 -67.83059900000001,47.081444,0 -67.831822,47.081248,0 -67.83235500000001,47.08118300000001,0 -67.832775,47.081148,0 -67.833409,47.08112,0 -67.83390900000001,47.081123,0 -67.834417,47.08114,0 -67.83569079999999,47.0812765,0 -67.83644200000001,47.081412,0 -67.837912,47.0817,0 -67.838911,47.08190800000001,0 -67.83990300000001,47.08217,0 -67.84084,47.082559,0 -67.841723,47.083077,0 -67.84365200000001,47.084368,0 -67.84404000000001,47.084631,0 -67.844469,47.084903,0 -67.844894,47.085161,0 -67.845467,47.085466,0 -67.84603,47.085787,0 -67.846919,47.08628400000001,0 -67.847797,47.086795,0 -67.848663,47.08732,0 -67.84993,47.088164,0 -67.850768,47.088742,0 -67.851615,47.08930299999999,0 -67.852474,47.089817,0 -67.85338,47.090284,0 -67.8544019,47.09080780000001,0 -67.856886,47.092025,0 -67.8573495,47.09223039999999,0 -67.857917,47.092532,0 -67.85861439999999,47.0928757,0 -67.85882599999999,47.09298,0 -67.860174,47.093653,0 -67.86116440000001,47.09413739999999,0 -67.86154999999999,47.0943259999999,0 -67.8625344,47.0948121,0 -67.8640937,47.095582,0 -67.865645,47.096348,0 -67.866559,47.096772,0 -67.867031,47.096967,0 -67.8677386,47.0972544,0 -67.86837,47.097445,0 -67.8693171,47.0977078,0 -67.8703459,47.0979708,0 -67.8713036,47.0981862,0 -67.8718655,47.0983086,0 -67.8718684,47.0983092,0 -67.873216,47.098612,0 -67.874701,47.098941,0 -67.87645550000001,47.0993557,0 -67.87719439999999,47.0995362,0 -67.87755300000001,47.09963199999999,0 -67.878203,47.09982500000001,0 -67.878688,47.09998099999999,0 -67.879169,47.100153,0 -67.87983800000001,47.10043699999999,0 -67.880304,47.10064100000001,0 -67.88121099999999,47.101102,0 -67.88166099999999,47.10135200000001,0 -67.882434,47.101828,0 -67.883532,47.10253010000001,0 -67.88426699999999,47.103,0 -67.88493769999999,47.103438,0 -67.885536,47.103829,0 -67.885949,47.104137,0 -67.886628,47.104732,0 -67.88705899999999,47.105192,0 -67.88736900000001,47.10554699999999,0 -67.88771800000001,47.105947,0 -67.88869800000001,47.107098,0 -67.890012,47.108653,0 -67.890298,47.1089990000001,0 -67.89070700000001,47.10952999999999,0 -67.892601,47.112537,0 -67.892843,47.112987,0 -67.893022,47.113463,0 -67.893131,47.11395799999999,0 -67.893157,47.114268,0 -67.89314299999999,47.114553,0 -67.893129,47.114696,0 -67.893046,47.115183,0 -67.892979,47.115511,0 -67.89274399999999,47.116657,0 -67.892685,47.117158,0 -67.89266000000001,47.11766500000001,0 -67.892687,47.118095,0 -67.89276599999999,47.118654,0 -67.892878,47.119141,0 -67.893004,47.119627,0 -67.893145,47.120107,0 -67.893332,47.12057,0 -67.89358300000001,47.121003,0 -67.893882,47.12141,0 -67.89421900000001,47.1217840000001,0 -67.894586,47.12212799999999,0 -67.89588550000001,47.1232468,0 -67.896512,47.123789,0 -67.89689300000001,47.12412799999999,0 -67.897188,47.124438,0 -67.89724200000001,47.124495,0 -67.89756199999999,47.124892,0 -67.89783199999999,47.12531800000001,0 -67.899314,47.127973,0 -67.899558,47.12842800000001,0 -67.89980300000001,47.128854,0 -67.90007300000001,47.129274,0 -67.90037,47.129682,0 -67.900685,47.130076,0 -67.90135100000001,47.130838,0 -67.901616,47.131132,0 -67.901904,47.1314518,0 -67.902033,47.131595,0 -67.902429,47.132017,0 -67.90271799999999,47.132325,0 -67.90285,47.13244700000011,0 -67.903452,47.133005,0 -67.904201,47.1335933000001,0 -67.905078,47.134203,0 -67.905914,47.134775,0 -67.90652300000001,47.13520199999999,0 -67.907127,47.135627,0 -67.90759199999999,47.135952,0 -67.90801399999999,47.136258,0 -67.9083717,47.13649960000001,0 -67.908919,47.136886,0 -67.909741,47.137448,0 -67.91054800000001,47.138053,0 -67.911001,47.13847,0 -67.91123,47.138701,0 -67.911535,47.139098,0 -67.91258999999999,47.14080400000001,0 -67.91316500000001,47.141627,0 -67.91381,47.14239,0 -67.914513,47.143103,0 -67.91525799999999,47.14378,0 -67.915643,47.14411700000001,0 -67.91604100000001,47.144414,0 -67.916217,47.144521,0 -67.916326,47.144579,0 -67.916476,47.14465800000001,0 -67.916943,47.1448490000001,0 -67.91725599999999,47.144951,0 -67.918249,47.145275,0 -67.918392,47.145324,0 -67.91887199999999,47.1455060000001,0 -67.919348,47.145709,0 -67.920242,47.146187,0 -67.920677,47.1464500000001,0 -67.921054,47.146698,0 -67.92169800000001,47.147098,0 -67.92225430000001,47.14748440000001,0 -67.922533,47.147678,0 -67.923751,47.148574,0 -67.924543,47.149183,0 -67.925056,47.149566,0 -67.925557,47.149961,0 -67.925917,47.150254,0 -67.926411,47.150659,0 -67.9274363,47.15151639999999,0 -67.927558,47.15162230000001,0 -67.9277309,47.151772,0 -67.9279744,47.1519765,0 -67.92848239999999,47.1523413,0 -67.9292969,47.15289929999999,0 -67.9302848,47.1536116,0 -67.93032359999999,47.1536356,0 
			</coordinates>
		</LineString>
		<atom:link rel="app" href="https://www.google.com/earth/about/versions/#earth-pro" title="Google Earth Pro 7.3.6.10201"></atom:link>
	</Placemark>
</Document>
</kml>
