<?xml version="1.0" encoding="UTF-8"?>
<kml xmlns="http://www.opengis.net/kml/2.2" xmlns:gx="http://www.google.com/kml/ext/2.2" xmlns:kml="http://www.opengis.net/kml/2.2" xmlns:atom="http://www.w3.org/2005/Atom">
<Document>
	<name>US.1A.ME.S.kml</name>
	<Placemark>
		<name>US.1A.ME.S</name>
		<LineString>
			<coordinates>
				-68.85583200000001,44.4922355,0 -68.8554493,44.4924522,0 -68.8553113,44.4925446,0 -68.8552147,44.4926234,0 -68.8551203,44.4927108,0 -68.854989,44.4928514,0 -68.8547315,44.493155,0 -68.85456550000001,44.4934075,0 -68.85450470000001,44.4935427,0 -68.8544448,44.4936925000001,0 -68.854404,44.4938205,0 -68.85437210000001,44.4939701,0 -68.8543548,44.4941263,0 -68.8543468,44.4942758,0 -68.8543579,44.4946074,0 -68.8543583,44.494866,0 -68.8543634,44.4958343000001,0 -68.85434619999999,44.497719,0 -68.8542861,44.5001893,0 -68.8544019,44.5020195000001,0 -68.8547635,44.5037936,0 -68.8549984,44.5044092000001,0 -68.85517710000001,44.5048706,0 -68.8557473,44.5060026,0 -68.8563127,44.5067682,0 -68.8567429,44.5074205,0 -68.8575068,44.5084431,0 -68.8580073,44.5092667,0 -68.85831899999999,44.5100069,0 -68.8584046,44.5103327,0 -68.85849,44.5107008,0 -68.8585818,44.5112351,0 -68.85863430000001,44.5117496,0 -68.8586028,44.512303,0 -68.8586138,44.513074,0 -68.8585923,44.5151872,0 -68.85865699999999,44.516076,0 -68.85883320000001,44.5170715,0 -68.85904619999999,44.5176665,0 -68.8592532,44.518189,0 -68.8594911,44.5186904,0 -68.8597594,44.5192423,0 -68.8600775,44.5198968,0 -68.86038670000001,44.5205220000001,0 -68.8608658,44.5216621,0 -68.86108950000001,44.5223613,0 -68.861373,44.5234766,0 -68.86154569999999,44.5250129,0 -68.86152749999999,44.5265006,0 -68.8613848,44.5295398,0 -68.8612909,44.5317552,0 -68.8612725,44.5321566000001,0 -68.86117369999999,44.534317,0 -68.8611428,44.5348981,0 -68.8610932,44.5366469,0 -68.8610482,44.5376671,0 -68.8611391,44.5383898,0 -68.8613022,44.5390352,0 -68.8616428,44.5398653000001,0 -68.86201749999999,44.5407948,0 -68.86276479999999,44.5424605,0 -68.8633087,44.5437522,0 -68.8635541,44.5445048,0 -68.8637717,44.5453281,0 -68.8640048,44.5464651,0 -68.8641863,44.5475408,0 -68.86432259999999,44.5484522,0 -68.86434970000001,44.5493964,0 -68.8643323,44.550071,0 -68.8643237,44.5513113,0 -68.8643457,44.5528746,0 -68.8643447,44.5530898,0 -68.86436380000001,44.5546926,0 -68.864389,44.5553925,0 -68.8644365,44.5556812,0 -68.8645465,44.5559617,0 -68.86475179999999,44.5563704,0 -68.86528060000001,44.5570957,0 -68.8655684,44.5574854,0 -68.86575860000001,44.5578057,0 -68.8659464,44.5581813,0 -68.8659976,44.5582942,0 -68.86605609999999,44.5584814,0 -68.8661484,44.5588778,0 -68.8662107,44.5593141,0 -68.8663506,44.5627566,0 -68.8665115,44.5633833,0 -68.86695280000001,44.5645641,0 -68.86703730000001,44.5647658,0 -68.8673436,44.5654966,0 -68.8676432,44.5663026,0 -68.8676998,44.5667607,0 -68.8676598,44.5670711999999,0 -68.8675889,44.5673601,0 -68.8675145,44.5675482,0 -68.8673811,44.567803,0 -68.86723050000001,44.5679922,0 -68.8668984,44.5683742,0 -68.866095,44.5692251999999,0 -68.8650677,44.5703057,0 -68.86286320000001,44.5726454000001,0 -68.8617361,44.5738339999999,0 -68.8612433,44.5743748,0 -68.86099969999999,44.574766,0 -68.8608656,44.57507,0 -68.8607325,44.575543,0 -68.8607169,44.5759466,0 -68.8607889,44.5764225000001,0 -68.8608533,44.5766277000001,0 -68.8613314,44.5775898,0 -68.8618917,44.5786582,0 -68.86231549999999,44.579503,0 -68.86268459999999,44.5802878,0 -68.8628772,44.5815151,0 -68.8631105,44.5827991,0 -68.863298,44.5834962,0 -68.8633162,44.5836794000001,0 -68.8634295,44.5848191,0 -68.8635678,44.5854353,0 -68.8639063,44.5861689,0 -68.8641743,44.586673,0 -68.8645169,44.5874109,0 -68.864738,44.587831,0 -68.865129,44.5885608,0 -68.8656701,44.5898395,0 -68.86577130000001,44.5900966,0 -68.86582249999999,44.5903816,0 -68.86581630000001,44.590951,0 -68.86570519999999,44.5916738,0 -68.8654768,44.5931601,0 -68.8654999,44.594023,0 -68.8655043,44.5941103,0 -68.86552020000001,44.5950082,0 -68.86554169999999,44.5960476,0 -68.865539,44.5970175,0 -68.865686,44.5973187999999,0 -68.8659451,44.5976164,0 -68.8668217,44.5984005999999,0 -68.8674493,44.5993482,0 -68.8678082,44.6003918,0 -68.86792560000001,44.6012124999999,0 -68.8679609,44.6014991,0 -68.8680413,44.601826,0 -68.86818100000001,44.6021056,0 -68.86832699999999,44.6023045000001,0 -68.8685728,44.6025435,0 -68.86905109999999,44.6029306,0 -68.871493,44.6051385,0 -68.8720211,44.6056026,0 -68.87218230000001,44.6057207,0 -68.87227679999999,44.6057909,0 -68.87246349999999,44.6059207,0 -68.8729878,44.60624,0 -68.8732488,44.6064306,0 -68.87343730000001,44.6066599,0 -68.8739049,44.6074543,0 -68.87420179999999,44.6079663,0 -68.8745143,44.6085169999999,0 -68.8745445,44.6086251,0 -68.87454099999999,44.6087273,0 -68.8744507,44.6088348,0 -68.8743206,44.6089065000001,0 -68.8740138,44.6090293,0 -68.8737211,44.6091754,0 -68.87309,44.6095569,0 -68.87296929999999,44.6096594,0 -68.87258970000001,44.6101237,0 -68.8724119,44.6103847,0 -68.87227489999999,44.6105881,0 -68.8720927,44.6107662000001,0 -68.8719129,44.6109083,0 -68.8715756,44.6111721,0 -68.8709506,44.6115697999999,0 -68.87008230000001,44.6121485,0 -68.8698334,44.6124044,0 -68.8696896,44.6126013,0 -68.86955140000001,44.6127981,0 -68.86939099999999,44.6131997,0 -68.8693191,44.6134989,0 -68.8693136,44.6137902000001,0 -68.8694076,44.6143926,0 -68.86954729999999,44.6151699,0 -68.8695602,44.6152419,0 -68.8695768,44.6153653,0 -68.8696235,44.6157133,0 -68.8697157,44.6163991999999,0 -68.86977229999999,44.618291,0 -68.86982879999999,44.6187439,0 -68.8699843,44.6192571,0 -68.8702388,44.6197501,0 -68.8703739,44.6202027,0 -68.8704791,44.6205551,0 -68.87049330000001,44.6209979000001,0 -68.87048059999999,44.6211059,0 -68.8704367,44.6214809,0 -68.8704137,44.6215552,0 -68.8703077,44.6218976,0 -68.8702529,44.6220745,0 -68.8699702,44.6225374,0 -68.8689385,44.624112,0 -68.86885270000001,44.6245358,0 -68.8689182,44.6251444,0 -68.8689663,44.6258709,0 -68.8689622,44.626133,0 -68.868915,44.6263802,0 -68.8688093,44.6267671,0 -68.8685967,44.6271377,0 -68.8682932,44.6275027,0 -68.8681144,44.6276626,0 -68.8679032,44.6278514,0 -68.867474,44.6280989,0 -68.86700999999999,44.6283213,0 -68.8663904,44.628558,0 -68.8654492,44.6288943,0 -68.8644176,44.6292795,0 -68.86361119999999,44.6295578,0 -68.86320790000001,44.6297023,0 -68.8630398,44.6297594,0 -68.8628023,44.62984,0 -68.86277750000001,44.6298484,0 -68.86264,44.6298891,0 -68.86222359999999,44.6299963,0 -68.86207899999999,44.6300279,0 -68.8616389,44.6301242,0 -68.8612459,44.6301881,0 -68.8607767,44.6302414000001,0 -68.8598695,44.6302977,0 -68.8594331,44.6303316,0 -68.85888989999999,44.6303571,0 -68.8571309,44.6304727,0 -68.85659920000001,44.6305795,0 -68.8558184,44.6307715000001,0 -68.8548864,44.6310209,0 -68.8539486,44.6312658,0 -68.8534045,44.6314307000001,0 -68.8526897,44.6317023,0 -68.8518637,44.632034,0 -68.85119400000001,44.632302,0 -68.8506876,44.6324992000001,0 -68.8503633,44.63263,0 -68.85002830000001,44.6327547,0 -68.8493422,44.6330354,0 -68.849113,44.6331291,0 -68.8487337,44.6333277,0 -68.84853889999999,44.6334767,0 -68.84844510000001,44.633546,0 -68.84833949999999,44.6336389,0 -68.84817049999999,44.6338112,0 -68.8476715,44.6343545,0 -68.84762859999999,44.6343996,0 -68.84726209999999,44.6347808,0 -68.8469185,44.6351491,0 -68.8461156,44.6360241,0 -68.8459228,44.6363297,0 -68.8457585,44.6366576,0 -68.8457324,44.6367252,0 -68.8455307,44.637248,0 -68.8453978,44.6375531,0 -68.8452157,44.6379475,0 -68.8452046,44.6379749,0 -68.8450673,44.6383137,0 -68.8450211,44.6384237999999,0 -68.8449925,44.638486,0 -68.8446058,44.6393276,0 -68.8444734,44.6396437,0 -68.8442573,44.640072,0 -68.8442017,44.6401392,0 -68.8440712,44.640297,0 -68.84397540000001,44.6404127,0 -68.84388920000001,44.6404912,0 -68.8435391,44.64081,0 -68.84307370000001,44.6412324,0 -68.8426614,44.6415966,0 -68.8425345,44.6417163,0 -68.8424273,44.6418174,0 -68.8421475,44.6420814,0 -68.8418685,44.6423587,0 -68.841472,44.6427663,0 -68.8411613,44.6431456,0 -68.84060340000001,44.6438746,0 -68.8402645,44.6443535,0 -68.83984700000001,44.6449433,0 -68.8395788,44.6453059,0 -68.8394431,44.6455067,0 -68.8393536,44.6457677,0 -68.83926270000001,44.6462582,0 -68.83920329999999,44.6472256,0 -68.8391053,44.6483798,0 -68.83909679999999,44.6487566,0 -68.8390721,44.6490398,0 -68.839037,44.6497368,0 -68.8389512,44.6508626,0 -68.83879020000001,44.6521105,0 -68.8387098,44.6524465,0 -68.8385382,44.6528548,0 -68.83817980000001,44.6534415,0 -68.83814649999999,44.653496,0 -68.8374975,44.6542821,0 -68.8369556,44.6549232,0 -68.8363081,44.6557411,0 -68.83607050000001,44.6560411999999,0 -68.8355605,44.6566979,0 -68.83532270000001,44.6570041,0 -68.8344987,44.6580255,0 -68.83327250000001,44.6595309,0 -68.8330504,44.6598036,0 -68.83259270000001,44.6603858,0 -68.832543,44.660449,0 -68.8324442,44.6605746,0 -68.83234659999999,44.6607123,0 -68.83224509999999,44.6608554,0 -68.8321169,44.6610361,0 -68.8319266,44.6613531,0 -68.8316877,44.6618316,0 -68.8314452,44.6624697,0 -68.8313747,44.6627436999999,0 -68.83128600000001,44.6631403,0 -68.8312157,44.6637489,0 -68.8312372,44.6643746,0 -68.83131229999999,44.6648591,0 -68.83149469999999,44.6655001,0 -68.83192940000001,44.6664741,0 -68.8322189,44.6669308000001,0 -68.8330021,44.6678884,0 -68.8333615,44.6683386,0 -68.83426350000001,44.6694191,0 -68.83427880000001,44.6694374,0 -68.8343781,44.6695538000001,0 -68.8347407,44.6699786,0 -68.8348421,44.6700974,0 -68.8353249,44.6706772,0 -68.8354142,44.6707828,0 -68.8358023,44.6712419000001,0 -68.8370415,44.6725961,0 -68.8376277,44.6732112,0 -68.83824009999999,44.6738539000001,0 -68.8383611,44.6739809,0 -68.8389231,44.6746217999999,0 -68.8394716,44.6752512,0 -68.8403879,44.676414,0 -68.84060820000001,44.6766934999999,0 -68.8415583,44.6779405,0 -68.842331,44.6789452,0 -68.8426314,44.6793602,0 -68.8428698,44.6796603,0 -68.8432035,44.680076,0 -68.84359139999999,44.6805915000001,0 -68.8438597,44.6810034,0 -68.8441547,44.6815717,0 -68.8442405,44.6817472,0 -68.8444873,44.6824185,0 -68.8445905,44.6828262,0 -68.8446682,44.683133,0 -68.8447915,44.6835967,0 -68.8450076,44.6843331999999,0 -68.8451632,44.6848670999999,0 -68.84585420000001,44.6868435,0 -68.8458874,44.6869305,0 -68.8459625,44.6870945,0 -68.846119,44.6874082,0 -68.8461823,44.6874995,0 -68.846338,44.6877238,0 -68.8467457,44.6881433,0 -68.8471588,44.68859,0 -68.8472525,44.6887183,0 -68.847499,44.6890558,0 -68.8475246,44.6891224,0 -68.84767840000001,44.6895228,0 -68.84775089999999,44.6899226,0 -68.8477393,44.6914984,0 -68.84778679999999,44.6929004,0 -68.84780600000001,44.6930937000001,0 -68.8478396,44.693459,0 -68.8478819,44.6939727,0 -68.84784879999999,44.6943758,0 -68.84782939999999,44.6946056,0 -68.8477566,44.6948499,0 -68.84769470000001,44.6950577,0 -68.8476761,44.6950986,0 -68.8475242,44.6954323,0 -68.8471914,44.6959336,0 -68.84693780000001,44.6962463999999,0 -68.8464381,44.696837,0 -68.84625920000001,44.6970289,0 -68.84583720000001,44.6974675,0 -68.8455173,44.6977525,0 -68.8452121,44.6980636,0 -68.844826,44.6984899,0 -68.844607,44.6988175,0 -68.844454,44.699078,0 -68.8443379,44.6993951000001,0 -68.84424490000001,44.6997124,0 -68.844233,44.6998313,0 -68.844213,44.6999518,0 -68.8442082,44.7005261,0 -68.8442055,44.7010018,0 -68.8442423,44.7013977,0 -68.8442907,44.7019185,0 -68.8442976,44.7019925,0 -68.84433660000001,44.7023701,0 -68.8444214,44.7028244,0 -68.844562,44.7032919999999,0 -68.84472220000001,44.7037919,0 -68.8448041,44.7039536,0 -68.8448929,44.704129,0 -68.84529759999999,44.7048438,0 -68.8460379,44.7059349,0 -68.8463615,44.7064573,0 -68.8464913,44.7066669,0 -68.846637,44.706902,0 -68.84682239999999,44.7073620000001,0 -68.846874,44.7075463999999,0 -68.8469237,44.7077239,0 -68.84697509999999,44.7079894,0 -68.8470021,44.7081292,0 -68.84701,44.7081982,0 -68.8470624,44.7086538,0 -68.8470985,44.7089248,0 -68.847132,44.7091764,0 -68.8471823,44.7095535,0 -68.84725570000001,44.7102432000001,0 -68.84727150000001,44.7103602999999,0 -68.8473449,44.7111974,0 -68.84735019999999,44.7112583,0 -68.8473388,44.7117567,0 -68.84733319999999,44.7117875999999,0 -68.8473034,44.7119512,0 -68.84728800000001,44.7120361,0 -68.8471691,44.7123756,0 -68.8466844,44.7134074,0 -68.84655859999999,44.7137649,0 -68.8464129,44.7143410000001,0 -68.84632070000001,44.7146419,0 -68.84626129999999,44.7148358,0 -68.8460954,44.715383,0 -68.84583859999999,44.7160768,0 -68.845438,44.7171537,0 -68.8452082,44.7177897,0 -68.8451247,44.7180209,0 -68.84507189999999,44.7182323,0 -68.8450527,44.7183092,0 -68.84503220000001,44.7184658,0 -68.8450223,44.7185410000001,0 -68.8450272,44.7187548,0 -68.8450361,44.7191432,0 -68.84504269999999,44.7194315,0 -68.84505470000001,44.7199595,0 -68.8450636,44.7200211,0 -68.8451099,44.720341,0 -68.84511620000001,44.7203844,0 -68.8451323,44.7204537,0 -68.8452367,44.7209026,0 -68.8452692,44.7210393,0 -68.845355,44.7213999,0 -68.8453925,44.7215774,0 -68.84542759999999,44.7217436999999,0 -68.8454473,44.7218374,0 -68.8454545,44.7218714,0 -68.845462,44.721907,0 -68.8455573,44.7224913,0 -68.84555469999999,44.7226883,0 -68.8455055,44.7229545,0 -68.8453719,44.7233104,0 -68.8451202,44.7237340000001,0 -68.84491420000001,44.7240807,0 -68.8448705,44.7241542,0 -68.844818,44.7242426,0 -68.8446168,44.7245812,0 -68.8436483,44.7260511,0 -68.8435102,44.7262606,0 -68.843194,44.7267405,0 -68.84313040000001,44.726837,0 -68.8429421,44.7271056,0 -68.8425639,44.7276448999999,0 -68.8424732,44.7277743,0 -68.8423787,44.7279687,0 -68.8422673,44.7281978,0 -68.84217289999999,44.7288844,0 -68.84212410000001,44.7292392,0 -68.8420332,44.7300013,0 -68.8420149,44.7301546,0 -68.8418087,44.7315947,0 -68.8417757,44.7318793,0 -68.8417613,44.7320029,0 -68.8417429,44.7321617,0 -68.8417261,44.7323001,0 -68.84169970000001,44.7325336,0 -68.8416909,44.732662,0 -68.8416399,44.7334039,0 -68.8415413,44.7340269,0 -68.8414473,44.7343778,0 -68.8412826,44.7349246,0 -68.841144,44.735434,0 -68.8408687,44.7360847,0 -68.84077569999999,44.7362837,0 -68.84058020000001,44.7366016,0 -68.84029,44.737051,0 -68.839862,44.737723,0 -68.83977040000001,44.7378705,0 -68.83969089999999,44.7379985,0 -68.839298,44.738631,0 -68.839219,44.738756,0 -68.8391263,44.7389036,0 -68.838962,44.739165,0 -68.83842,44.7401505,0 -68.8383261,44.7404858,0 -68.8382514,44.7409674,0 -68.8382484,44.7409869,0 -68.83822499999999,44.7412137,0 -68.83819750000001,44.74148,0 -68.83818479999999,44.7416028,0 -68.8381723,44.7417491,0 -68.8380794,44.7423586,0 -68.83801130000001,44.7429371,0 -68.83787150000001,44.7438283,0 -68.8378184,44.7441067,0 -68.8377917,44.7442464,0 -68.83776159999999,44.7443838,0 -68.8376758,44.7447784,0 -68.8371473,44.7456362,0 -68.836888,44.746062,0 -68.8365144,44.7465312,0 -68.8363212,44.7467923,0 -68.83617099999999,44.746962,0 -68.83605439999999,44.7470915,0 -68.83592160000001,44.7472133,0 -68.83528920000001,44.7476255,0 -68.834553,44.748061,0 -68.83420460000001,44.7482305,0 -68.8338777,44.7483694,0 -68.833286,44.748579,0 -68.8329731,44.7486838,0 -68.8326302,44.7488019,0 -68.8323056,44.748904,0 -68.83222429999999,44.7489298,0 -68.8319532,44.7490322,0 -68.8318326,44.7490870000001,0 -68.83145759999999,44.7492792,0 -68.83104299999999,44.749564,0 -68.8304974,44.7499663,0 -68.83009250000001,44.75026,0 -68.829707,44.7504948,0 -68.82948500000001,44.750623,0 -68.82864600000001,44.7510772,0 -68.8275987,44.7515867,0 -68.82733500000001,44.751715,0 -68.82612,44.7523467,0 -68.8259252,44.7524423000001,0 -68.8251073,44.7528737,0 -68.82349720000001,44.753676,0 -68.8233953,44.7537286,0 -68.8228692,44.7540000000001,0 -68.8215613,44.754656,0 -68.8212825,44.7547958,0 -68.8209959,44.7549623,0 -68.8205463,44.7552387,0 -68.820261,44.7554141,0 -68.8202337,44.7554308,0 -68.819661,44.7557809,0 -68.81914500000001,44.7561159,0 -68.8183477,44.7565932,0 -68.81758309999999,44.7570803,0 -68.8167397,44.7575941,0 -68.816041,44.7580205,0 -68.815647,44.758223,0 -68.815258,44.758422,0 -68.814179,44.758974,0 -68.813715,44.759212,0 -68.810524,44.760845,0 -68.8091685,44.7615346,0 -68.8083316,44.7619840999999,0 -68.806507,44.7628539999999,0 -68.804294,44.764036,0 -68.80293500000001,44.7647569000001,0 -68.802539,44.764952,0 -68.80163899999999,44.765471,0 -68.800388,44.766333,0 -68.7997036,44.7668897,0 -68.7991258,44.7673609,0 -68.7990313,44.7674318,0 -68.7979497,44.7682436999999,0 -68.79704599999999,44.76895,0 -68.796558,44.769339,0 -68.7948033,44.7706941,0 -68.7932471,44.7718985,0 -68.7931064,44.7720049,0 -68.7926896,44.7723201,0 -68.79168060000001,44.7730832,0 -68.79124280000001,44.7734089,0 -68.7907058,44.7738083,0 -68.7899699,44.7743557,0 -68.7883523,44.7754895,0 -68.7876804,44.7760101,0 -68.7869177,44.7766579,0 -68.7860714,44.7773137,0 -68.78545769999999,44.7778804,0 -68.7849513,44.7785178,0 -68.78453330000001,44.7789782,0 -68.7840908,44.7793230000001,0 -68.7838895,44.7794686,0 -68.78254219999999,44.7804143999999,0 -68.782267,44.7805919,0 -68.7820643,44.7807926,0 -68.7820347,44.7808995,0 -68.7819842,44.7811495,0 -68.78194310000001,44.781255,0 -68.7817343,44.7815871,0 -68.78143420000001,44.7820291,0 -68.7813541,44.7821577,0 -68.7812788,44.7822839,0 -68.78116559999999,44.7824875,0 -68.78082000000001,44.7831491,0 -68.7807456,44.7832914,0 -68.7804867,44.783787,0 -68.7800834,44.784559,0 -68.7798117,44.785079,0 -68.77954889999999,44.7855821,0 -68.77913839999999,44.7863678,0 -68.7790741,44.786491,0 -68.77890840000001,44.7868081,0 -68.7788614,44.7868982,0 -68.7788101,44.7869963,0 -68.7787699,44.7870733,0 -68.77878080000001,44.7871028,0 -68.7787842,44.7871271,0 -68.77878200000001,44.7871514,0 -68.7787744,44.7871771,0 -68.778673,44.787371,0 -68.77864940000001,44.7874018,0 -68.7786251,44.7874297,0 -68.7785928,44.7874547,0 -68.7785477,44.7874835,0 -68.77838629999999,44.7877919,0 -68.7783039,44.7879494,0 -68.77822949999999,44.7880916,0 -68.77759949999999,44.7892953,0 -68.7775872,44.7893187,0 -68.777546,44.7893975,0 -68.7775307,44.7894688,0 -68.7775256,44.7894871,0 -68.7775153,44.7895238,0 -68.7774972,44.7895779,0 -68.7774654,44.7896603,0 -68.7774295,44.7897404,0 -68.7772507,44.7900822,0 -68.77707719999999,44.7904139999999,0 -68.77693429999999,44.7906872,0 -68.7769023,44.7907485,0 -68.77685769999999,44.7908336,0 -68.7768349,44.7908771,0 -68.7767479,44.7910435,0 -68.77657499999999,44.7913742,0 -68.776465,44.7915845,0 -68.7763571,44.7917908,0 -68.7760171,44.7924409,0 -68.7757775,44.7928989,0 -68.7756545,44.7931340999999,0 -68.7756061,44.7932266,0 -68.7755873,44.7932626,0 -68.77506889999999,44.7942537,0 -68.7749567,44.7944684,0 -68.77484750000001,44.7946771,0 -68.7746313,44.7950902,0 -68.774573,44.7952018,0 -68.7745074,44.7953273,0 -68.774452,44.795436,0 -68.7744378,44.7954638,0 -68.7743004,44.7957331,0 -68.7739471,44.7964258,0 -68.77393120000001,44.7964446000001,0 -68.77390509999999,44.7964609,0 -68.7738779,44.7964717000001,0 -68.7738406,44.7964809,0 -68.7737384,44.7966741,0 -68.7736848,44.7967754,0 -68.77366739999999,44.7968083,0 -68.77358820000001,44.7969578,0 -68.7734202,44.7969116,0 -68.77339670000001,44.7969052,0 -68.7728559,44.7967584,0 -68.77279660000001,44.7967446,0 -68.7727392,44.7967336,0 -68.7726849,44.7967269000001,0 -68.7726296,44.7967256,0 -68.7725751,44.7967299,0 -68.7725226,44.7967392,0 -68.77248109999999,44.7967503,0 -68.7724352,44.7967659,0 -68.77239520000001,44.7967829,0 -68.7723592,44.796801,0 -68.77232549999999,44.7968205,0 -68.772296,44.7968412,0 -68.7722742,44.7968585,0 -68.7722516,44.7968775,0 -68.77222860000001,44.7968982,0 -68.7720305,44.7971091,0 -68.7719948,44.7971475,0 -68.7718713,44.7972853,0 -68.7718272,44.7973359,0 -68.7717864,44.7973867,0 -68.7717486,44.7974382,0 -68.77170769999999,44.7974935,0 -68.77160139999999,44.7976465,0 -68.7715773,44.7976777000001,0 -68.7715479,44.7977115,0 -68.771197,44.7980781,0 -68.7709488,44.7983368,0 -68.77076750000001,44.7985257,0 -68.77084069999999,44.798565,0 -68.7709208,44.7986068,0 -68.7709936,44.7986432,0 -68.7712484,44.7987622,0 -68.7712741,44.798774,0 -68.771306,44.7987857000001,0 -68.7713414,44.7987938,0 -68.7713703,44.7987975,0 -68.77140679999999,44.7987986,0 -68.7714374,44.7987973,0 -68.7714689,44.7987913,0 -68.77149590000001,44.7987827,0 -68.7715213,44.7987704,0 -68.77154539999999,44.7987538,0 -68.7715674,44.7987329,0 -68.7716932,44.7985993000001,0 -68.7717463,44.7985429,0 -68.771806,44.7984795,0 -68.7718706,44.7984109,0 -68.77172109999999,44.7983375,0 -68.771697,44.7983257,0 -68.77151809999999,44.798238,0 -68.7713388,44.79815,0 -68.7707913,44.7978852999999,0 -68.770348,44.7976727,0 -68.7702573,44.797628,0 -68.770168,44.7975831,0 -68.7700803,44.7975369,0 -68.76997609999999,44.797481,0 -68.76988299999999,44.7974292,0 -68.7697932,44.7973761000001,0 -68.769712,44.7973263,0 -68.76962090000001,44.7972669,0 -68.7695171,44.7971964,0 -68.7694324,44.7971356,0 -68.7693543,44.7970785,0 -68.76810089999999,44.7961465,0 -68.7671995,44.7954763,0 -68.7662969,44.7948141,0 -68.76624870000001,44.7947837,0 -68.7661798,44.7947451,0 -68.7661372,44.7947219,0 -68.76597,44.7946392,0 -68.7639416,44.7936914,0 -68.76368189999999,44.7935397,0 -68.7634364,44.7933299,0 -68.7632838,44.7931995,0 -68.76323360000001,44.7931564,0 -68.7621931,44.7922908,0 -68.7619495,44.7920677,0 -68.76148550000001,44.7916912000001,0 -68.76107260000001,44.7913647,0 -68.7607653,44.7911217,0 -68.7588026,44.789535,0 -68.7571982,44.7881924,0 -68.7560472,44.7872553999999,0 -68.7555649,44.7868677,0 -68.7553202,44.7866654,0 -68.75503639999999,44.7864311,0 -68.7549017,44.7863198,0 -68.75477220000001,44.7862128,0 -68.75475040000001,44.7861948,0 -68.7545508,44.7860341,0 -68.7543585,44.7858796,0 -68.75381590000001,44.7854431,0 -68.7532738,44.7850438,0 -68.7530115,44.7848857,0 -68.7529523,44.7848519,0 -68.75277699999999,44.7847628,0 -68.7523353,44.7846166,0 -68.75161749999999,44.784288,0 -68.7514785,44.7842243,0 -68.7513115,44.7841410000001,0 -68.7506176,44.7838302,0 -68.75049970000001,44.7837416,0 -68.7504053,44.7836616,0 -68.7502964,44.7836153,0 -68.7501152,44.7835373999999,0 -68.74982439999999,44.7834124,0 -68.7497563,44.7833817,0 -68.74947760000001,44.7832561,0 -68.74926480000001,44.7831663,0 -68.74894159999999,44.7830298,0 -68.74851049999999,44.7828513,0 -68.748082,44.7826634,0 -68.7480322,44.782642,0 -68.7476151,44.7824627000001,0 -68.7475436,44.782432,0 -68.74710779999999,44.7822506,0 -68.7468044,44.7821243,0 -68.7463219,44.7819235,0 -68.7460485,44.7818084,0 -68.745716,44.7816743,0 -68.7440675,44.7809851,0 -68.74347179999999,44.7807613,0 -68.7433522,44.7807107,0 -68.7430646,44.7805889,0 -68.7429231,44.780529,0 -68.742705,44.7804354,0 -68.74223360000001,44.780233,0 -68.74200329999999,44.7801342,0 -68.74181110000001,44.7800517,0 -68.7416575,44.7799857,0 -68.7411346,44.7797613,0 -68.7410847,44.7797385,0 -68.74102240000001,44.7797131,0 -68.7398778,44.7792216999999,0 -68.737126,44.7780404,0 -68.7369666,44.7779734,0 -68.7352392,44.777222,0 -68.7347877,44.7770256,0 -68.7343934,44.776858,0 -68.7336344,44.7765354,0 -68.73351409999999,44.7764864,0 -68.7334019,44.7764357,0 -68.7331552,44.7763281,0 -68.7327248,44.7761405,0 -68.732004,44.7758262,0 -68.7314708,44.7755946,0 -68.73100340000001,44.7753918,0 -68.7309509,44.7753674,0 -68.7307421,44.7752781,0 -68.73059790000001,44.7752165,0 -68.7302622,44.7750615,0 -68.7301506,44.7750124,0 -68.72786960000001,44.7740077,0 -68.7276416,44.7739073,0 -68.7274951,44.7738473,0 -68.7251385,44.7728148,0 -68.724869,44.7726916,0 -68.7246057,44.7725684,0 -68.7243316,44.772431,0 -68.7240444,44.772285,0 -68.723792,44.772157,0 -68.7229918,44.7717348,0 -68.7228243,44.7716482,0 -68.7226766,44.7715756,0 -68.7225236,44.7715093,0 -68.7220386,44.7713115,0 -68.7209703,44.7708959,0 -68.7207185,44.7708045,0 -68.7205745,44.7707549,0 -68.7204438,44.7707111,0 -68.72016739999999,44.7706206,0 -68.7198767,44.7705267,0 -68.7195993,44.7704309,0 -68.71928870000001,44.7703185,0 -68.7189827,44.7702045,0 -68.7186744,44.7700841,0 -68.71838579999999,44.7699645,0 -68.7180848,44.7698409,0 -68.7177927,44.7697123,0 -68.7175512,44.7696084,0 -68.7171822,44.7694495,0 -68.7143263,44.7682772,0 -68.7140522,44.7681613,0 -68.71377339999999,44.7680435,0 -68.71344550000001,44.767905,0 -68.7131728,44.7677897,0 -68.71309239999999,44.7677557,0 -68.7129857,44.7677107,0 -68.7117033,44.7671698,0 -68.7114792,44.7670754,0 -68.7111831,44.7669543,0 -68.710992,44.7668761,0 -68.7106168,44.766717,0 -68.7105258,44.7666784,0 -68.7101047,44.7664999,0 -68.70983889999999,44.7663872,0 -68.7096796,44.7663196,0 -68.7094599,44.7662253,0 -68.7093424,44.7661749,0 -68.70929409999999,44.7661548,0 -68.7092327,44.7661292,0 -68.7090597,44.7660572,0 -68.7086414,44.765883,0 -68.7086268,44.7658769,0 -68.708209,44.765703,0 -68.70816929999999,44.7656862,0 -68.70727410000001,44.7653009,0 -68.70690310000001,44.7651412,0 -68.7068641,44.7651244,0 -68.7065638,44.7649951,0 -68.7065556,44.7649916,0 -68.70649779999999,44.764967,0 -68.7061631,44.7648243,0 -68.7056365,44.7645999,0 -68.70552290000001,44.7645514,0 -68.7054874,44.7645363,0 -68.7049198,44.7642965,0 -68.7046126,44.7641668,0 -68.7042433,44.7640108,0 -68.70406509999999,44.7639355,0 -68.7038041,44.7638252,0 -68.7024287,44.7632157000001,0 -68.69633399999999,44.7606278,0 -68.6957814,44.7603932,0 -68.6953194,44.7601969,0 -68.69489369999999,44.7600162,0 -68.6941606,44.7597049,0 -68.69364210000001,44.7594847,0 -68.69334000000001,44.7593564,0 -68.6925641,44.759027,0 -68.6890495,44.7575345,0 -68.6883861,44.7572523000001,0 -68.68757909999999,44.756908,0 -68.6869432,44.7566448,0 -68.686018,44.756256,0 -68.6851367,44.7558871,0 -68.6848731,44.7557764,0 -68.6845553,44.7556596,0 -68.68431769999999,44.755575,0 -68.68405300000001,44.7554843,0 -68.683779,44.7553953000001,0 -68.683542,44.7553176,0 -68.6833142,44.7552468,0 -68.6831169,44.7551945,0 -68.6829173,44.7551410999999,0 -68.6825932,44.7550594,0 -68.6824526,44.7550236,0 -68.6822122,44.7549617,0 -68.6817491,44.7548654,0 -68.6812439,44.7547787,0 -68.6808413,44.7547137,0 -68.68046339999999,44.7546564,0 -68.6801394,44.7546207,0 -68.6798385,44.7545898,0 -68.67957029999999,44.7545653,0 -68.67930610000001,44.7545425,0 -68.6791063,44.7545304,0 -68.6787143,44.7545101,0 -68.6782774,44.7544937,0 -68.67793829999999,44.7544871,0 -68.67761179999999,44.7544892,0 -68.6772172,44.7544949,0 -68.67684060000001,44.7545064,0 -68.67652,44.7545268,0 -68.67620909999999,44.7545483,0 -68.6757688,44.7545901,0 -68.6754164,44.7546274,0 -68.67504289999999,44.7546701,0 -68.67442200000001,44.7547461,0 -68.6736011,44.7548436,0 -68.6723659,44.7549951,0 -68.67114789999999,44.7551382,0 -68.670785,44.7551784,0 -68.6699411,44.7552917,0 -68.6679822,44.7555165,0 -68.66762629999999,44.7555638,0 -68.667145,44.7556147,0 -68.6667667,44.755651,0 -68.6663732,44.7556738,0 -68.666073,44.7556787,0 -68.6657773,44.7556774000001,0 -68.66556799999999,44.7556718,0 -68.665359,44.7556644,0 -68.6651349,44.7556538,0 -68.66489230000001,44.7556374,0 -68.664619,44.7556166,0 -68.6643862,44.75559,0 -68.6641527,44.7555592,0 -68.6638856,44.7555194,0 -68.66359199999999,44.7554715,0 -68.66339000000001,44.755439,0 -68.6631474,44.7553813,0 -68.662978,44.75534,0 -68.66270299999999,44.755271,0 -68.662474,44.75521,0 -68.6621665,44.7551289,0 -68.6618648,44.7550308,0 -68.661604,44.754943,0 -68.66133960000001,44.7548355,0 -68.6610878,44.7547291,0 -68.6608669,44.7546353,0 -68.6606546,44.7545458,0 -68.6603307,44.7544181,0 -68.6603064,44.7544075,0 -68.66016999999999,44.754348,0 -68.66005730000001,44.7543027,0 -68.659972,44.7542684,0 -68.65974300000001,44.754173,0 -68.6594343,44.7540421,0 -68.659178,44.7539324000001,0 -68.65897289999999,44.7538429,0 -68.6587229,44.7537379,0 -68.658539,44.7536561,0 -68.6582257,44.7535242,0 -68.65799680000001,44.7534218,0 -68.6504477,44.7502018,0 -68.65008400000001,44.750045,0 -68.6490618,44.7495807,0 -68.6482704,44.7491783,0 -68.64256159999999,44.7459516,0 -68.63938880000001,44.7443324,0 -68.63793219999999,44.7435334,0 -68.6338427,44.7412564,0 -68.6335832,44.7411116,0 -68.6326566,44.7406034,0 -68.6321502,44.7403147,0 -68.6318492,44.7401271000001,0 -68.6315888,44.7399511,0 -68.6312245,44.7396349,0 -68.6309131,44.7393151,0 -68.63036080000001,44.7386423,0 -68.62996699999999,44.7381517,0 -68.62982770000001,44.7379763,0 -68.6298061,44.7379491,0 -68.6295042,44.7376148,0 -68.62926659999999,44.7373692000001,0 -68.62898970000001,44.7371161,0 -68.6283268,44.7365975,0 -68.6280477,44.7363815,0 -68.6278942,44.7362688999999,0 -68.6278569,44.7362397,0 -68.62755970000001,44.7360072,0 -68.6274119,44.7358916,0 -68.6271454,44.7356892000001,0 -68.62672139999999,44.7353635,0 -68.6264528,44.7351584,0 -68.62624580000001,44.7350072,0 -68.62587449999999,44.7347077,0 -68.625544,44.7344064,0 -68.6252641,44.7340793,0 -68.6250378,44.7337386,0 -68.6248379,44.7333474,0 -68.62471960000001,44.7330452,0 -68.624374,44.731546,0 -68.6243417,44.7313016,0 -68.6242484,44.7309434,0 -68.6240293,44.7302072,0 -68.6239101,44.729844,0 -68.6236823,44.729297,0 -68.6231624,44.728306,0 -68.6231277,44.728248,0 -68.62273089999999,44.7275842,0 -68.6223703,44.7271165,0 -68.6221116,44.726794,0 -68.621898,44.72655,0 -68.6214358,44.7260973,0 -68.6210277,44.7257004,0 -68.62011529999999,44.7249479,0 -68.61775609999999,44.7229708,0 -68.61725970000001,44.7225704,0 -68.6161235,44.7215945,0 -68.61524559999999,44.7208976,0 -68.6148097,44.7205552,0 -68.6143591,44.7202787,0 -68.61403249999999,44.7200793,0 -68.6136825,44.7198817,0 -68.6133324,44.7197074,0 -68.61223819999999,44.7192051,0 -68.61167810000001,44.7189565999999,0 -68.611154,44.7187296999999,0 -68.6085939,44.7176249,0 -68.6078456,44.7172652,0 -68.6075021,44.7170783,0 -68.6071338,44.7168512,0 -68.6066995,44.7165454,0 -68.6063271,44.7162522,0 -68.6060043,44.7159653,0 -68.6055339,44.71549,0 -68.6052735,44.7151498,0 -68.6050722,44.7148703,0 -68.6048622,44.7145308,0 -68.6046024,44.7140934,0 -68.6038047,44.7125622,0 -68.60352880000001,44.7120541,0 -68.60315420000001,44.7112975,0 -68.6029831,44.7109491000001,0 -68.602256,44.7095728,0 -68.601907,44.708944,0 -68.6017298,44.7085683000001,0 -68.6013839,44.7079299,0 -68.6008424,44.7069081,0 -68.6007693,44.7067699,0 -68.6005988,44.7064482,0 -68.6004196,44.7061101,0 -68.6003788,44.7060362,0 -68.6001416,44.7055848,0 -68.60001459999999,44.7053589,0 -68.5990718,44.7035615,0 -68.5988912,44.7032305999999,0 -68.59886590000001,44.7031841,0 -68.5982922,44.7021521,0 -68.5981211,44.7018185,0 -68.59799270000001,44.7015537,0 -68.5979066,44.7013773,0 -68.5976572,44.7008205,0 -68.59730759999999,44.7000398,0 -68.5971761,44.6997306,0 -68.596991,44.6994089,0 -68.5967941,44.6991019,0 -68.59644969999999,44.6985971,0 -68.5957119,44.6978229,0 -68.5953031,44.6974109,0 -68.5947644,44.6969691,0 -68.59384059999999,44.6962342,0 -68.5934137,44.6958946,0 -68.5925695,44.6952561000001,0 -68.59244649999999,44.6951699,0 -68.5915871,44.6945732,0 -68.5901179,44.6934411,0 -68.5885059,44.692209,0 -68.58703010000001,44.6909447000001,0 -68.5858602,44.6898309,0 -68.5818471,44.6858194,0 -68.579151,44.683062,0 -68.5789992,44.6828941,0 -68.5786701,44.6823946,0 -68.5782687,44.6816597,0 -68.57815789999999,44.6813499,0 -68.5780939,44.6810624,0 -68.5780608,44.6805968,0 -68.57806770000001,44.6800922,0 -68.57814500000001,44.679521,0 -68.57825200000001,44.67874,0 -68.5785114,44.6772369,0 -68.57867229999999,44.6763977,0 -68.57875369999999,44.6756201,0 -68.5787296,44.6750646,0 -68.5785595,44.6740185,0 -68.5783553,44.6734798,0 -68.5782146,44.6731185000001,0 -68.5778751,44.67241,0 -68.5772614,44.6715475,0 -68.57634899999999,44.6704064,0 -68.57585349999999,44.6699466,0 -68.57516270000001,44.6694679999999,0 -68.5744117,44.6690793,0 -68.57346699999999,44.6687098,0 -68.572052,44.66819,0 -68.5708968,44.6677907,0 -68.5703769,44.6676117,0 -68.5696971,44.6673367,0 -68.568834,44.6669445,0 -68.5682439,44.6665476,0 -68.56761,44.666005,0 -68.5672642,44.6656087,0 -68.56700290000001,44.6652065,0 -68.56687549999999,44.6649875,0 -68.5666623,44.6644516,0 -68.56651549999999,44.6639935,0 -68.5664678,44.6633191,0 -68.5664664,44.663204,0 -68.5664649,44.6630797,0 -68.5664629,44.6629078,0 -68.56645330000001,44.6612404,0 -68.566463,44.6602842,0 -68.56645640000001,44.6599811,0 -68.5664007,44.6589432,0 -68.5663363,44.6580884999999,0 -68.5663155,44.6579681,0 -68.56625630000001,44.657468,0 -68.56589,44.6554439,0 -68.56567769999999,44.6546812,0 -68.5653251,44.6535586,0 -68.5644135,44.6512833,0 -68.5641993,44.650762,0 -68.56389919999999,44.6500805,0 -68.56320239999999,44.6485568,0 -68.5630859,44.6483022,0 -68.5628565,44.6479034,0 -68.5626173,44.6475461,0 -68.5622956,44.6472102,0 -68.562003,44.6469227000001,0 -68.5614365,44.6464698,0 -68.5607826,44.6460653,0 -68.5602401,44.645786,0 -68.55974620000001,44.6455827,0 -68.55868340000001,44.6452264,0 -68.5575283,44.6449253,0 -68.5565343,44.6446303,0 -68.5561871,44.6445184,0 -68.5556574,44.6442454,0 -68.5552208,44.6439758,0 -68.5547832,44.6436131,0 -68.55449040000001,44.6433184,0 -68.5537621,44.6426056,0 -68.5524649,44.6413098,0 -68.550804,44.6396509,0 -68.55040270000001,44.6392428,0 -68.5482899,44.6371132,0 -68.5479924,44.6368169,0 -68.5452623,44.6340984,0 -68.54437540000001,44.6332332,0 -68.54171239999999,44.6312598,0 -68.54039779999999,44.6301636,0 -68.53960170000001,44.6295543,0 -68.5380404,44.6283624,0 -68.5367052,44.6273319,0 -68.5351624,44.6260009,0 -68.5342385,44.6251608,0 -68.53391190000001,44.6248459,0 -68.53307239999999,44.6240277,0 -68.5327044,44.6236444,0 -68.5320656,44.6229358,0 -68.531729,44.622553,0 -68.53093440000001,44.6216496,0 -68.5302768,44.6208468,0 -68.52926220000001,44.6197084,0 -68.5260004,44.6165252,0 -68.5253386,44.6158174,0 -68.5253101,44.6157869,0 -68.524663,44.6151361,0 -68.5245492,44.6150278,0 -68.5241968,44.6146926,0 -68.52364540000001,44.6141681,0 -68.5225155,44.6129987,0 -68.521506,44.611747,0 -68.5207135,44.6106439,0 -68.5199088,44.6095237,0 -68.5188687,44.6079843,0 -68.51858989999999,44.6074454,0 -68.5181803,44.6066708,0 -68.51754939999999,44.605475,0 -68.51684849999999,44.6041851,0 -68.51568829999999,44.6023246,0 -68.5147027,44.6009686,0 -68.51396509999999,44.5998163,0 -68.5131872,44.5984648,0 -68.511948,44.5962620000001,0 -68.51100099999999,44.5944409,0 -68.5104848,44.5936026,0 -68.5099993,44.5930665,0 -68.5096854,44.5927555,0 -68.5087376,44.5920812,0 -68.5044486,44.5901007,0 -68.5037146,44.5897618,0 -68.5031403,44.589518,0 -68.5028542,44.5893965,0 -68.5018434,44.5889674,0 -68.5013357,44.5887519,0 -68.5007798,44.5885055000001,0 -68.50006430000001,44.5881884,0 -68.4990239,44.5876926,0 -68.49806479999999,44.5872733,0 -68.4957574,44.5862725,0 -68.49501239999999,44.5859235,0 -68.4947035,44.5857788,0 -68.4936495,44.5852784,0 -68.49193990000001,44.5845111,0 -68.4912854,44.5842475,0 -68.48994690000001,44.5837964,0 -68.48855039999999,44.5833577,0 -68.48738830000001,44.5830457000001,0 -68.48702609999999,44.5829485,0 -68.4854543,44.5825511,0 -68.483852,44.5822402,0 -68.48234050000001,44.581836,0 -68.4808402,44.5813018,0 -68.47918799999999,44.5805443,0 -68.4782663,44.580002,0 -68.47765920000001,44.5796448,0 -68.4765129,44.578906,0 -68.47586459999999,44.5784882000001,0 -68.4745757,44.5776222,0 -68.47398010000001,44.5772249,0 -68.47296059999999,44.5765992,0 -68.4717816,44.5760398,0 -68.4706896,44.5756475,0 -68.46947419999999,44.5753025,0 -68.4679739,44.5748832,0 -68.4667197,44.5743366,0 -68.4652392,44.5736860000001,0 -68.4620338,44.5723314,0 -68.4577664,44.5706285,0 -68.4560563,44.5699581999999,0 -68.45588619999999,44.5698839,0 -68.4538826,44.5690079,0 -68.4514679,44.5678837,0 -68.4507504,44.5675521,0 -68.44930859999999,44.5668857000001,0 -68.4489031,44.5667244,0 -68.44678740000001,44.5659004,0 -68.445948,44.565578,0 -68.445519,44.5653921,0 -68.44533730000001,44.5652972,0 -68.4451181,44.5651748,0 -68.44472829999999,44.5649265,0 -68.4443691,44.5646974,0 -68.4437769,44.5643215,0 -68.4434905,44.5641509,0 -68.4431488,44.5639618,0 -68.4428046,44.5637914,0 -68.44245220000001,44.5636233,0 -68.44200360000001,44.5634374,0 -68.4414656,44.5632226,0 -68.4408577,44.563,0 -68.4399902,44.5626553,0 -68.4393546,44.5624105,0 -68.439055,44.5622951,0 -68.43877329999999,44.5621608,0 -68.43854210000001,44.5620334,0 -68.438355,44.5618958,0 -68.4381939,44.5617664,0 -68.4380611,44.5616563,0 -68.4379186,44.5615241,0 -68.4376824,44.5612945999999,0 -68.43752120000001,44.5611345,0 -68.43736,44.5609582,0 -68.4360313,44.5594731,0 -68.4353005,44.5587345,0 -68.4349072,44.558337,0 -68.43298780000001,44.5563968,0 -68.4326296,44.5560347,0 -68.4320075,44.5553725,0 -68.4316044,44.5549605,0 -68.43096970000001,44.5543315,0 -68.4307787,44.5541414,0 -68.4302304,44.5535585,0 -68.4298259,44.5531085,0 -68.42973259999999,44.5530047,0 -68.429312,44.5525797,0 -68.4280036,44.5512575,0 -68.4279368,44.5511901,0 -68.4276914,44.5509421,0 -68.4275114,44.5507703,0 -68.4271865,44.550469,0 -68.4266897,44.5501333,0 -68.4261353,44.5498244,0 -68.42594130000001,44.5497165,0 -68.4257696,44.549612,0 -68.42561360000001,44.5495055,0 -68.4254708,44.5493923,0 -68.4253422,44.5492772,0 -68.42510780000001,44.5490407,0 -68.4246299,44.5484778,0 -68.4245875,44.5484298,0 -68.4239874,44.5477496,0 -68.4238952,44.5476451,0 -68.4237638,44.547496,0 -68.423247,44.5469095,0 -68.4230578,44.5467027000001,0 -68.42264470000001,44.5462428,0 -68.42245269999999,44.5460102000001,0 -68.4221557,44.545605,0 -68.42174780000001,44.5450772,0 -68.4214115,44.5446252,0 -68.4210448,44.5441537,0 -68.42064619999999,44.5436462,0 -68.4202298,44.5431342,0 -68.4201053,44.5429811,0 
			</coordinates>
		</LineString>
		<atom:link rel="app" href="https://www.google.com/earth/about/versions/#earth-pro" title="Google Earth Pro 7.3.6.10201"></atom:link>
	</Placemark>
</Document>
</kml>
