<?xml version="1.0" encoding="UTF-8"?>
<kml xmlns="http://www.opengis.net/kml/2.2" xmlns:gx="http://www.google.com/kml/ext/2.2" xmlns:kml="http://www.opengis.net/kml/2.2" xmlns:atom="http://www.w3.org/2005/Atom">
<Document>
	<name>US.195.kml</name>
	<Placemark>
		<name>US.195</name>
			<LineString>
				<coordinates>
					-117.0298341,46.469114,0 -117.0312796,46.4700633,0 -117.0317187,46.4703743,0 -117.032362,46.470895,0 -117.032873,46.471373,0 -117.033126,46.471626,0 -117.033378,46.471888,0 -117.033637,46.472139,0 -117.034045,46.472503,0 -117.034338,46.472747,0 -117.034668,46.472969,0 -117.035027,46.473186,0 -117.035415,46.47339099999999,0 -117.035788,46.4735359,0 -117.0362219,46.4737104,0 -117.0367198,46.47386550000001,0 -117.0372224,46.47399950000001,0 -117.03783,46.4740968,0 -117.0382741,46.47415590000001,0 -117.0387371,46.4741845,0 -117.0392914,46.47420350000001,0 -117.0397581,46.474211,0 -117.0397702,46.47421120000001,0 -117.0409361,46.4742305,0 -117.041617,46.474216,0 -117.0422593,46.4742275,0 -117.0444125,46.4742649,0 -117.0455808,46.4742824,0 -117.0462673,46.47430299999999,0 -117.04677,46.4743398,0 -117.047188,46.4743946,0 -117.0475444,46.47445759999999,0 -117.0480764,46.47458280000001,0 -117.0486533,46.4747625,0 -117.0491779,46.47498699999999,0 -117.0496175,46.4752099,0 -117.0501267,46.4755264,0 -117.0504539,46.47577979999999,0 -117.0509546,46.47626819999999,0 -117.052082,46.4773715,0 -117.0532578,46.4785106,0 -117.0542855,46.4795019,0 -117.054749,46.4798802,0 -117.0552877,46.4802288,0 -117.0559143,46.4805663,0 -117.0565747,46.4808603,0 -117.0595251,46.4820381,0 -117.0625541,46.4832622,0 -117.0635905,46.4836408,0 -117.0646958,46.4840076,0 -117.0666083,46.48461859999999,0 -117.0673791,46.4848672,0 -117.0678936,46.4850552,0 -117.0684249,46.485288,0 -117.0688981,46.48553569999999,0 -117.0692973,46.4857902,0 -117.0697703,46.48614629999999,0 -117.0701579,46.4864765,0 -117.0705004,46.48683900000001,0 -117.0709103,46.4873646,0 -117.0712088,46.4878242,0 -117.0722353,46.4894574,0 -117.0726636,46.490125,0 -117.0735179,46.49149830000001,0 -117.0742944,46.4927199,0 -117.0746745,46.4933342,0 -117.075211,46.49422799999999,0 -117.075459,46.494596,0 -117.075575,46.4948,0 -117.0761933,46.4957733,0 -117.0775424,46.4979419,0 -117.077789,46.4984467,0 -117.0779429,46.49886919999999,0 -117.0780406,46.4992828,0 -117.0781028,46.4997316,0 -117.0783893,46.50207399999999,0 -117.0787457,46.5051213,0 -117.0788683,46.5062395,0 -117.0789834,46.5071675,0 -117.0792079,46.5081592,0 -117.0796115,46.5098546,0 -117.0803789,46.51310100000001,0 -117.081024,46.5158267,0 -117.081341,46.5171409,0 -117.0828661,46.5223591,0 -117.0834382,46.5243611,0 -117.0838526,46.5256906,0 -117.0844869,46.52801650000001,0 -117.0850341,46.5300281,0 -117.0854504,46.5316007,0 -117.0857429,46.53284,0 -117.0858859,46.5333973,0 -117.0860627,46.5340966,0 -117.0864101,46.5354028,0 -117.0866538,46.5364526,0 -117.0870259,46.5378093,0 -117.0874355,46.5392285,0 -117.0877887,46.5405081,0 -117.0881583,46.5417955,0 -117.0882821,46.5420633,0 -117.0884199,46.5422928,0 -117.0885711,46.542513,0 -117.0887769,46.5427449,0 -117.0890754,46.5430165,0 -117.0896858,46.5435105,0 -117.0913121,46.5447941,0 -117.0919987,46.54533709999999,0 -117.0927877,46.5459614,0 -117.0931714,46.5462699,0 -117.0938203,46.5467723,0 -117.0943882,46.5471693,0 -117.0953661,46.5477983,0 -117.0963651,46.5484627,0 -117.0999914,46.550808,0 -117.1004532,46.5511053,0 -117.1009009,46.55144270000001,0 -117.1013368,46.5517945,0 -117.1017257,46.5521719,0 -117.1020854,46.5525367,0 -117.1023813,46.5529038,0 -117.102705,46.55334719999999,0 -117.1030161,46.55385650000001,0 -117.1032129,46.5542422,0 -117.1033906,46.55465460000001,0 -117.1035531,46.5551301,0 -117.1037409,46.5557743,0 -117.1039977,46.5565712,0 -117.1044784,46.5579339,0 -117.1046792,46.5583203,0 -117.1049055,46.5586577,0 -117.1051071,46.55891320000001,0 -117.1051898,46.5589931,0 -117.1054987,46.5592719,0 -117.1058498,46.5595441,0 -117.1062149,46.5598031,0 -117.1074917,46.5606303,0 -117.1098386,46.5621501,0 -117.1128974,46.56414199999999,0 -117.1149388,46.5654478,0 -117.1159612,46.5660839,0 -117.1163611,46.5663131,0 -117.1167329,46.5665007,0 -117.1171921,46.5667067,0 -117.1177342,46.5669302,0 -117.1181918,46.5671039,0 -117.118667,46.5672581,0 -117.1190924,46.5673805,0 -117.1196251,46.5675196,0 -117.1202066,46.5676466,0 -117.120396,46.56768509999999,0 -117.1208837,46.5677681,0 -117.1213621,46.567828,0 -117.1218921,46.5678957,0 -117.1224554,46.5679451,0 -117.1230962,46.5679728,0 -117.124177,46.5679831,0 -117.1256709,46.56798509999999,0 -117.1270532,46.5679878,0 -117.1285379,46.567993,0 -117.1290664,46.5679917,0 -117.1300015,46.5679941,0 -117.1319363,46.5680027,0 -117.132366,46.5680147,0 -117.1327377,46.568031,0 -117.1330599,46.5680517,0 -117.1334177,46.5680844,0 -117.1338343,46.56813249999999,0 -117.133989,46.5681585,0 -117.1344344,46.5682317,0 -117.1349578,46.5683295,0 -117.135435,46.56843719999999,0 -117.1358312,46.5685372,0 -117.1362402,46.56865689999999,0 -117.1369832,46.5689008,0 -117.1378855,46.56921250000001,0 -117.1395175,46.5697689,0 -117.1424912,46.5707944,0 -117.1430095,46.57097819999999,0 -117.1435093,46.5711698,0 -117.1440104,46.5713949,0 -117.1444945,46.5716365,0 -117.144893,46.5718494,0 -117.1452763,46.5720863,0 -117.145739,46.57239259999999,0 -117.1464086,46.57291219999999,0 -117.1470247,46.5734742,0 -117.1496275,46.5761926,0 -117.1500453,46.5766331,0 -117.1531287,46.5798567,0 -117.1538939,46.5806787,0 -117.1552973,46.5821391,0 -117.155761,46.5826058,0 -117.15646,46.5832106,0 -117.1570238,46.5836388,0 -117.1575158,46.583955,0 -117.1583351,46.5843692,0 -117.1596394,46.5849857,0 -117.1660261,46.5880256,0 -117.1680165,46.58895590000001,0 -117.1691567,46.5895,0 -117.1710759,46.5904099,0 -117.1716311,46.5906897,0 -117.1721147,46.5910078,0 -117.1724344,46.5913265,0 -117.1727273,46.59166329999999,0 -117.1729537,46.5920105,0 -117.1731449,46.5924348,0 -117.1732392,46.592848,0 -117.1734177,46.5950626,0 -117.1733957,46.5954775,0 -117.1733096,46.5958613,0 -117.1731538,46.5962479,0 -117.1729612,46.59658449999999,0 -117.1713752,46.5989905,0 -117.1710879,46.5993832,0 -117.1707553,46.5997227,0 -117.1704126,46.600008,0 -117.1682563,46.6013941,0 -117.1678089,46.6016978,0 -117.1673202,46.6020664,0 -117.1669114,46.602418,0 -117.1667435,46.6025855,0 -117.1665321,46.6027963,0 -117.1661856,46.6031491,0 -117.1657599,46.6036048,0 -117.1652707,46.6042544,0 -117.1649633,46.60472130000001,0 -117.1646111,46.6053587,0 -117.1642533,46.6061082,0 -117.1623358,46.6101678,0 -117.1609537,46.6131178,0 -117.1608014,46.6135552,0 -117.1606681,46.6140025,0 -117.1605871,46.6144578,0 -117.1605562,46.6149455,0 -117.160553,46.6154599,0 -117.160608,46.6159719,0 -117.1607188,46.6164461,0 -117.1608864,46.6169761,0 -117.1610962,46.6174446,0 -117.1613609,46.6179113,0 -117.1616986,46.6183936,0 -117.1621353,46.6189159,0 -117.1625955,46.61941860000001,0 -117.1630555,46.6198228,0 -117.1661891,46.6220898,0 -117.1677033,46.6231493,0 -117.1681241,46.6235044,0 -117.1685422,46.6239069,0 -117.1716818,46.6271681,0 -117.1729997,46.6285058,0 -117.1732921,46.6288469,0 -117.173538,46.6292341,0 -117.1737153,46.6295935,0 -117.1738423,46.62998269999999,0 -117.173917,46.6303895,0 -117.1739975,46.63151420000001,0 -117.1741536,46.63230729999999,0 -117.1744052,46.63311650000001,0 -117.1747765,46.6338898,0 -117.1756004,46.6351443,0 -117.1765372,46.63659169999999,0 -117.1768612,46.6370473,0 -117.1772644,46.6375101,0 -117.1777254,46.63797129999999,0 -117.1781989,46.6383838,0 -117.178734,46.63877790000001,0 -117.1793356,46.6391722,0 -117.1800029,46.6395501,0 -117.1837687,46.6416159,0 -117.1844363,46.64204480000001,0 -117.1851061,46.64253500000001,0 -117.1856892,46.6430419,0 -117.1861586,46.64355050000001,0 -117.1865572,46.64404919999999,0 -117.1868251,46.6444792,0 -117.1871057,46.64501210000001,0 -117.1873077,46.6454908,0 -117.1874412,46.6458734,0 -117.1875348,46.6463247,0 -117.1875981,46.6469515,0 -117.1875812,46.6476273,0 -117.1874708,46.6487324,0 -117.1872875,46.6503886,0 -117.1873071,46.6509215,0 -117.1874216,46.6513891,0 -117.1876099,46.6518321,0 -117.1878717,46.6522629,0 -117.1882223,46.6526695,0 -117.1885699,46.65299419999999,0 -117.1898477,46.6541235,0 -117.1902063,46.65452269999999,0 -117.1904675,46.6549029,0 -117.1906558,46.6553145,0 -117.1907878,46.65572100000001,0 -117.1908492,46.6562253,0 -117.1910973,46.6586211,0 -117.1912027,46.6591478,0 -117.1913516,46.6595763,0 -117.1915555,46.66000340000001,0 -117.1917813,46.6603893,0 -117.1921198,46.66080660000001,0 -117.1924958,46.6612119,0 -117.1929521,46.6616066,0 -117.1958505,46.66375370000001,0 -117.1976379,46.665076,0 -117.1979802,46.66537050000001,0 -117.1982849,46.66570309999999,0 -117.1985322,46.6660448,0 -117.1987211,46.6663939,0 -117.1988651,46.6667716,0 -117.1989705,46.6672013,0 -117.1990013,46.6675811,0 -117.1989855,46.667973,0 -117.1988984,46.6683527,0 -117.1987642,46.6687157,0 -117.1985601,46.6691123,0 -117.1959069,46.6734973,0 -117.195534,46.6741196,0 -117.195107,46.6747992,0 -117.1947454,46.6755781,0 -117.1945566,46.676284,0 -117.1944831,46.677054,0 -117.194514,46.67770900000001,0 -117.1946714,46.6785439,0 -117.194923,46.6792005,0 -117.1953264,46.6798335,0 -117.1958135,46.6804467,0 -117.1977039,46.6827317,0 -117.2034249,46.6895363,0 -117.2036073,46.6897911,0 -117.2037619,46.6900452,0 -117.203942,46.6903918,0 -117.2040877,46.6907658,0 -117.204189,46.6910938,0 -117.2042624,46.69146820000001,0 -117.2042868,46.691773,0 -117.2042869,46.6920953,0 -117.2042652,46.6924887,0 -117.2041566,46.69440070000001,0 -117.2039604,46.6974487,0 -117.2038763,46.6994882,0 -117.2038795,46.6998455,0 -117.2039049,46.70018329999999,0 -117.2043552,46.704561,0 -117.2043695,46.7047326,0 -117.2043828,46.70491580000001,0 -117.2043855,46.70507059999999,0 -117.2043867,46.7052364,0 -117.2043817,46.7053908,0 -117.2043732,46.7055488,0 -117.204342,46.7058193,0 -117.2043016,46.7060282,0 -117.2042572,46.706248,0 -117.2041889,46.7065117,0 -117.2041104,46.7067613,0 -117.2039376,46.7072444,0 -117.2037729,46.70756969999999,0 -117.203548,46.7079859,0 -117.203773,46.708003,0 -117.2039459,46.7080131,0 -117.2040756,46.708014,0 -117.2042268,46.70801180000001,0 -117.2043784,46.70799900000001,0 -117.2045693,46.7079682,0 -117.2047874,46.707929,0 -117.2053832,46.7078223,0 -117.2059723,46.7077149,0 -117.2063612,46.70765300000001,0 -117.2065947,46.7076287,0 -117.2067785,46.7076161,0 -117.2069621,46.707613,0 -117.2071699,46.7076172,0 -117.2073428,46.7076272,0 -117.207529,46.70764350000001,0 -117.207933,46.70769370000001,0 -117.208372,46.70775759999999,0 -117.2088236,46.70783850000001,0 -117.2092372,46.7079179,0 -117.2095213,46.70797880000001,0 -117.209808,46.7080428,0 -117.210099,46.70811550000001,0 -117.2103908,46.7081925,0 -117.2106261,46.7082613,0 -117.2108838,46.7083357,0 -117.2111291,46.7084162,0 -117.2113996,46.7085059,0 -117.211646,46.70858839999999,0 -117.2119247,46.7086956,0 -117.2121859,46.7087961,0 -117.2124906,46.7089234,0 -117.212724,46.7090261,0 -117.2129528,46.70913149999999,0 -117.2133785,46.70933400000001,0 -117.2139056,46.70962830000001,0 -117.2144354,46.7099458,0 -117.2148667,46.7102356,0 -117.215247,46.7105334,0 -117.2156179,46.7108332,0 -117.2159953,46.7111944,0 -117.2163008,46.71150080000001,0 -117.2165272,46.7117586,0 -117.2166823,46.7119355,0 -117.216845,46.71213,0 -117.2169359,46.712242,0 -117.2170159,46.712344,0 -117.2170975,46.7124521,0 -117.2171423,46.71251139999999,0 -117.2171919,46.7125841,0 -117.2172463,46.71266070000001,0 -117.2173039,46.712745,0 -117.2173959,46.7128846,0 -117.2175223,46.7130857,0 -117.2176439,46.7132928,0 -117.2177627,46.7135083,0 -117.2178481,46.7136825,0 -117.2179255,46.7138478,0 -117.2180067,46.7140262,0 -117.218128,46.7142972,0 -117.2182174,46.7145015,0 -117.2182708,46.7146269,0 -117.2183587,46.714833,0 -117.2184567,46.7150597,0 -117.218574,46.7153293,0 -117.2186316,46.71546409999999,0 -117.2187419,46.7157186,0 -117.218833,46.7159279,0 -117.2188904,46.7160597,0 -117.2189682,46.7162392,0 -117.219026,46.7163707,0 -117.21919,46.7167481,0 -117.2192588,46.7169049,0 -117.2193977,46.71722299999999,0 -117.219498,46.7174529,0 -117.2195605,46.7176008,0 -117.2196186,46.7177413,0 -117.2196858,46.71789760000001,0 -117.2197694,46.7180905,0 -117.2198516,46.71828610000001,0 -117.2199388,46.718486,0 -117.220007,46.7186451,0 -117.2200803,46.7188185,0 -117.2201775,46.71904290000001,0 -117.2203037,46.7193292,0 -117.2203916,46.7195363,0 -117.2205225,46.7198249,0 -117.2206069,46.72001879999999,0 -117.2206819,46.72018800000001,0 -117.2207656,46.7203805,0 -117.2208441,46.720563,0 -117.2209223,46.7207426,0 -117.221022,46.72096860000001,0 -117.2211668,46.7213102,0 -117.2212983,46.7216218,0 -117.2214251,46.7219268,0 -117.2215571,46.722257,0 -117.2217456,46.722762,0 -117.2218742,46.7231354,0 -117.2219847,46.7234667,0 -117.2220904,46.7237787,0 -117.2221987,46.7241513,0 -117.2223684,46.7247795,0 -117.2224054,46.72490999999999,0 -117.2225393,46.7254798,0 -117.222632,46.72584639999999,0 -117.2230786,46.7277878,0 -117.223223,46.7283978,0 -117.223375,46.7290403,0 -117.2239817,46.731743,0 -117.2241365,46.7323647,0 -117.2244311,46.7336417,0 -117.2245981,46.73418459999999,0 -117.2248496,46.73480210000001,0 -117.2250538,46.73521170000001,0 -117.2252123,46.73551779999999,0 -117.2254013,46.735826,0 -117.2257188,46.7363613,0 -117.2260415,46.7367888,0 -117.2264591,46.7373055,0 -117.2268777,46.7377306,0 -117.2272956,46.7381431,0 -117.2276751,46.7384904,0 -117.2279481,46.73872690000001,0 -117.2281698,46.7389438,0 -117.2294584,46.73982279999999,0 -117.2309909,46.74085459999999,0 -117.2315403,46.7412429,0 -117.2318354,46.7414665,0 -117.2321537,46.74173870000001,0 -117.2323888,46.7419662,0 -117.2326923,46.7422897,0 -117.2329536,46.742591,0 -117.2332811,46.7430456,0 -117.2334399,46.7432964,0 -117.2335745,46.7435314,0 -117.2337707,46.74394019999999,0 -117.23388,46.7442299,0 -117.2339514,46.744438,0 -117.2340101,46.7446481,0 -117.2340684,46.7448818,0 -117.2341161,46.7451216,0 -117.2341566,46.7453846,0 -117.2342216,46.74579839999999,0 -117.2342835,46.7461703,0 -117.2343978,46.7467431,0 -117.2344894,46.7470741,0 -117.2345784,46.7473459,0 -117.2347898,46.7478473,0 -117.2349195,46.74810489999999,0 -117.2350502,46.74833710000001,0 -117.2354164,46.7489656,0 -117.2355904,46.7492647,0 -117.2357881,46.7496018,0 -117.2359674,46.7499172,0 -117.2370101,46.7516963,0 -117.2370369,46.7517497,0 -117.2372245,46.7520601,0 -117.2374642,46.75247,0 -117.2378272,46.75309420000001,0 -117.2378955,46.75321460000001,0 -117.2381776,46.75368959999999,0 -117.2384237,46.7541052,0 -117.2387161,46.7546017,0 -117.239073,46.7551327,0 -117.2394959,46.7556761,0 -117.2402904,46.7566545,0 -117.2410639,46.757605,0 -117.2412834,46.7578606,0 -117.2414977,46.75808099999999,0 -117.2417374,46.75829479999999,0 -117.2420114,46.75850079999999,0 -117.2422952,46.7586819,0 -117.2425055,46.7588047,0 -117.2427229,46.7589219,0 -117.2429922,46.7590474,0 -117.2432752,46.75916309999999,0 -117.2435419,46.7592625,0 -117.2437081,46.759333,0 -117.2442156,46.7594777,0 -117.2447949,46.7595939,0 -117.2453155,46.7596683,0 -117.2458823,46.75970319999999,0 -117.246404,46.7596966,0 -117.246938,46.7596591,0 -117.2476644,46.75956590000001,0 -117.254316,46.7586207,0 -117.2550099,46.7585235,0 -117.2556831,46.7584669,0 -117.2563818,46.75846310000001,0 -117.2570561,46.7585074,0 -117.2577116,46.7586092,0 -117.2582964,46.758753,0 -117.260201,46.759294,0 -117.2609748,46.7595182,0 -117.2617191,46.7597822,0 -117.2623449,46.7600703,0 -117.2629379,46.7603862,0 -117.2634433,46.76072910000001,0 -117.2638834,46.761085,0 -117.2643329,46.7615011,0 -117.2646969,46.76196779999999,0 -117.2649828,46.76239609999999,0 -117.2663701,46.76459559999999,0 -117.2666903,46.7650265,0 -117.2670345,46.7654231,0 -117.267384,46.7658047,0 -117.2678091,46.7661817,0 -117.2682731,46.7665448,0 -117.2730708,46.76983069999999,0 -117.2752698,46.771272,0 -117.2772205,46.77247430000001,0 -117.2777263,46.7727805,0 -117.2817939,46.7752214,0 -117.2821819,46.7754366,0 -117.2825424,46.7756153,0 -117.2829714,46.77581500000001,0 -117.2834172,46.7760113,0 -117.2863365,46.7771441,0 -117.2917116,46.7791983,0 -117.2933175,46.7798107,0 -117.2955274,46.7806596,0 -117.2977134,46.78152360000001,0 -117.298554,46.78190639999999,0 -117.2992905,46.7822708,0 -117.2999238,46.7826137,0 -117.3011769,46.7833884,0 -117.3049084,46.7858692,0 -117.3074448,46.7875718,0 -117.3077254,46.78777180000001,0 -117.3079383,46.7879541,0 -117.3081603,46.7881669,0 -117.3083455,46.7883762,0 -117.3084976,46.7885783,0 -117.3092715,46.7897295,0 -117.3104818,46.7915101,0 -117.3108999,46.79205499999999,0 -117.3120272,46.7934148,0 -117.3129314,46.7944446,0 -117.313227,46.7947773,0 -117.3134697,46.7950948,0 -117.3136848,46.7954185,0 -117.3139083,46.7957601,0 -117.3141009,46.7961024,0 -117.3142706,46.7964496,0 -117.3144262,46.79680619999999,0 -117.3150994,46.7985878,0 -117.3158992,46.8007856,0 -117.3173932,46.8048839,0 -117.3184312,46.8077064,0 -117.3192142,46.8097804,0 -117.3194484,46.8103045,0 -117.3196648,46.8107351,0 -117.3211494,46.8135232,0 -117.3213942,46.81396809999999,0 -117.3216533,46.8145794,0 -117.3219015,46.81525909999999,0 -117.3227015,46.8177306,0 -117.3246947,46.82395500000001,0 -117.3248492,46.8243951,0 -117.3250361,46.82483189999999,0 -117.3252547,46.82529029999999,0 -117.326285,46.8270455,0 -117.3278653,46.82978,0 -117.3280466,46.83010299999999,0 -117.3282427,46.8303972,0 -117.3284747,46.8306801,0 -117.3287878,46.83098139999999,0 -117.3293875,46.8315613,0 -117.3307413,46.8329106,0 -117.3310195,46.83316749999999,0 -117.3313412,46.8334221,0 -117.3317239,46.83366250000001,0 -117.3320553,46.8338538,0 -117.3326407,46.8341525,0 -117.3359086,46.8358399,0 -117.3363579,46.8360668,0 -117.3366757,46.8362508,0 -117.3370171,46.83647719999999,0 -117.3373606,46.8367368,0 -117.3376255,46.8369997,0 -117.3378744,46.8372578,0 -117.3380851,46.837537,0 -117.3382315,46.8377784,0 -117.3383636,46.8379999,0 -117.3384677,46.8382294,0 -117.338573,46.8385332,0 -117.3386373,46.8388101,0 -117.3388044,46.8396792,0 -117.3388546,46.8399412,0 -117.3390429,46.8409417,0 -117.3391629,46.8415383,0 -117.339596,46.8434268,0 -117.3397695,46.8442591,0 -117.3398564,46.8446405,0 -117.3398966,46.8449245,0 -117.339909,46.8452713,0 -117.3398651,46.84563529999999,0 -117.3397908,46.8459704,0 -117.3395871,46.84667869999999,0 -117.3391215,46.8481204,0 -117.338958,46.8487167,0 -117.3388893,46.84906400000001,0 -117.3388832,46.8493849,0 -117.3389119,46.8496839,0 -117.3389726,46.8499564,0 -117.3390607,46.85022029999999,0 -117.3391644,46.85046440000001,0 -117.3393213,46.8507217,0 -117.3395007,46.8509657,0 -117.3397368,46.85122119999999,0 -117.3399996,46.8514593,0 -117.340303,46.85167929999999,0 -117.3406176,46.8518732,0 -117.341517,46.85236329999999,0 -117.3423619,46.8528477,0 -117.343011,46.8532007,0 -117.3440297,46.8537773,0 -117.3456167,46.8546681,0 -117.3476544,46.855821,0 -117.3480578,46.8560683,0 -117.3483831,46.8563032,0 -117.3486712,46.856562,0 -117.348944,46.856852,0 -117.3491693,46.8571464,0 -117.3493619,46.85745839999999,0 -117.3495239,46.857774,0 -117.3496532,46.8581141,0 -117.3497331,46.85846699999999,0 -117.3497607,46.85880830000001,0 -117.349824,46.8598351,0 -117.3499091,46.8612962,0 -117.3499887,46.8616366,0 -117.3501,46.86193850000001,0 -117.3502738,46.8622319,0 -117.3504908,46.8625134,0 -117.3507877,46.8627876,0 -117.3511056,46.8630001,0 -117.3514473,46.8631991,0 -117.3517622,46.8633446,0 -117.3521254,46.8634794,0 -117.3524792,46.86357880000001,0 -117.3529625,46.8636552,0 -117.353441,46.86369259999999,0 -117.3540732,46.8637167,0 -117.3544527,46.86372120000001,0 -117.3548548,46.8637634,0 -117.3552595,46.8638483,0 -117.3555492,46.8639265,0 -117.355841,46.86404219999999,0 -117.3561235,46.8641871,0 -117.3563662,46.8643393,0 -117.3566443,46.86456449999999,0 -117.3568466,46.8647968,0 -117.3570005,46.86502920000001,0 -117.3571242,46.8652819,0 -117.3571762,46.86553180000001,0 -117.3571671,46.86579099999999,0 -117.3571368,46.8660424,0 -117.3570526,46.8663021,0 -117.3569107,46.8665546,0 -117.3567109,46.8667948,0 -117.3557673,46.86779719999999,0 -117.3555205,46.8680884,0 -117.3553633,46.8683607,0 -117.3552335,46.8686401,0 -117.3551632,46.8689053,0 -117.3550296,46.86951689999999,0 -117.3549329,46.8699371,0 -117.3549009,46.87017889999999,0 -117.3549011,46.8704257,0 -117.3549233,46.8706781,0 -117.3549835,46.8709193,0 -117.355068,46.8711386,0 -117.3551703,46.87133939999999,0 -117.3553019,46.87154509999999,0 -117.3554519,46.87172440000001,0 -117.3556361,46.8719098,0 -117.3558376,46.872091,0 -117.3559248,46.8721627,0 -117.3560862,46.8722729,0 -117.3563275,46.87241820000001,0 -117.3565224,46.87252279999999,0 -117.3568685,46.87266819999999,0 -117.3572445,46.8728036,0 -117.3574223,46.87285080000001,0 -117.3576572,46.8729124,0 -117.3579481,46.8729719,0 -117.3582485,46.8730116,0 -117.3585865,46.8730377,0 -117.3590475,46.8730611,0 -117.360715,46.8731098,0 -117.3614244,46.87313009999999,0 -117.3622616,46.87316,0 -117.3625067,46.87318539999999,0 -117.3626304,46.87320739999999,0 -117.3627461,46.8732373,0 -117.362969,46.8732998,0 -117.3631586,46.8733758,0 -117.3633481,46.87348010000001,0 -117.3640059,46.8739009,0 -117.3641919,46.8739985,0 -117.3648141,46.8743738,0 -117.364903,46.8744468,0 -117.3649861,46.87454569999999,0 -117.365025,46.8746638,0 -117.3650045,46.8751055,0 -117.3650034,46.875157,0 -117.3649785,46.8754716,0 -117.3649694,46.8756912,0 -117.3649676,46.875736,0 -117.3649566,46.8760187,0 -117.3649357,46.8763441,0 -117.3649251,46.87657779999999,0 -117.3649125,46.8768555,0 -117.3649053,46.8770138,0 -117.3648832,46.8774278,0 -117.3648798,46.8775944,0 -117.3648697,46.8777358,0 -117.364859,46.8779807,0 -117.364851,46.8781293,0 -117.364843,46.8783543,0 -117.3648414,46.8783988,0 -117.3648103,46.8789474,0 -117.3647911,46.8793379,0 -117.3647837,46.879488,0 -117.3647781,46.87960039999999,0 -117.364763,46.8799073,0 -117.3647175,46.88088310000001,0 -117.3647061,46.8811083,0 -117.3647038,46.8811541,0 -117.3646693,46.8818348,0 -117.3646248,46.88279359999999,0 -117.3645761,46.8837641,0 -117.3645291,46.88473090000001,0 -117.3644813,46.8856765,0 -117.3644359,46.8865601,0 -117.364416,46.8868775,0 -117.3643937,46.8873098,0 -117.3643892,46.88739650000001,0 -117.3643814,46.8875566,0 -117.36437,46.887767,0 -117.364367,46.88782630000001,0 -117.3643635,46.88797069999999,0 -117.3643595,46.8881339,0 -117.364356,46.8882331,0 -117.3643429,46.88847080000001,0 -117.3643374,46.888564,0 -117.3643242,46.88888250000001,0 -117.3643096,46.8891549,0 -117.364295,46.8893559,0 -117.364273,46.889501,0 -117.3642616,46.8895557,0 -117.3642128,46.8897192,0 -117.3641969,46.88981729999999,0 -117.3641366,46.89004000000001,0 -117.364086,46.8901724,0 -117.3640259,46.89030039999999,0 -117.3639304,46.890473,0 -117.3638238,46.8906555,0 -117.3637304,46.89080760000001,0 -117.3636284,46.8909539,0 -117.3632799,46.89139380000001,0 -117.3632147,46.8914692,0 -117.3630087,46.8917518,0 -117.3627699,46.89211989999999,0 -117.3625267,46.8925638,0 -117.3623846,46.8928522,0 -117.3622542,46.8931294,0 -117.3621494,46.8933943,0 -117.3620084,46.8938388,0 -117.3617566,46.894788,0 -117.3616818,46.8950141,0 -117.3616008,46.89522790000001,0 -117.3615229,46.895396,0 -117.3614233,46.8955889,0 -117.3613026,46.895786,0 -117.3610479,46.8962004,0 -117.360731,46.8966939,0 -117.3603405,46.8972964,0 -117.3601069,46.8976765,0 -117.3597811,46.8981816,0 -117.3593494,46.8988526,0 -117.3591108,46.89922370000001,0 -117.3588699,46.8995404,0 -117.3586074,46.89980660000001,0 -117.3583116,46.9000633,0 -117.3580225,46.9002624,0 -117.3576466,46.9004884,0 -117.3572534,46.900688,0 -117.3558196,46.9013266,0 -117.3548598,46.9017461,0 -117.3543534,46.9019501,0 -117.3538185,46.90213810000001,0 -117.3532702,46.902306,0 -117.3527465,46.9024372,0 -117.352306,46.90252780000001,0 -117.3517827,46.9026067,0 -117.3512966,46.9026679,0 -117.3503248,46.9027553,0 -117.3499575,46.9028032,0 -117.3496753,46.9028566,0 -117.3494166,46.9029352,0 -117.3491579,46.903036,0 -117.3488936,46.903164,0 -117.3486432,46.9033026,0 -117.3484529,46.903446,0 -117.3482876,46.9036063,0 -117.3481569,46.9037469,0 -117.3480325,46.9039201,0 -117.3479212,46.90409080000001,0 -117.34783,46.90427630000001,0 -117.3477842,46.9044377,0 -117.3477551,46.9046253,0 -117.3477428,46.90481880000001,0 -117.3477581,46.9050166,0 -117.3478116,46.9052318,0 -117.3478815,46.9054033,0 -117.3479712,46.90557800000001,0 -117.3482013,46.9059512,0 -117.3492546,46.9075429,0 -117.3497921,46.90833870000001,0 -117.3504277,46.9093076,0 -117.3506846,46.9097424,0 -117.350834,46.9100559,0 -117.3509421,46.91037399999999,0 -117.3510607,46.9107595,0 -117.3511213,46.9110635,0 -117.3511409,46.91130980000001,0 -117.3511752,46.9116013,0 -117.3511892,46.91191180000001,0 -117.351168,46.912227,0 -117.3511224,46.9125205,0 -117.3510725,46.9128224,0 -117.3507887,46.9141171,0 -117.3505639,46.91508619999999,0 -117.350414,46.91562940000001,0 -117.3497567,46.917794,0 -117.3495443,46.9184909,0 -117.349357,46.91910579999999,0 -117.3489544,46.92044150000001,0 -117.3487527,46.92096729999999,0 -117.3485551,46.9214221,0 -117.3481782,46.9220966,0 -117.3477579,46.9227986,0 -117.3473336,46.9233744,0 -117.3469117,46.9238723,0 -117.3463036,46.9245328,0 -117.3458176,46.92501610000001,0 -117.345216,46.9255323,0 -117.3446125,46.9260031,0 -117.3439902,46.92644090000001,0 -117.343343,46.9268468,0 -117.3423632,46.9274366,0 -117.3413654,46.928049,0 -117.3403298,46.928671,0 -117.3398575,46.9289847,0 -117.3395402,46.929193,0 -117.3389651,46.9296143,0 -117.3381412,46.9302864,0 -117.3374239,46.93100619999999,0 -117.3368615,46.93164649999999,0 -117.3360244,46.9328059,0 -117.3354949,46.9336116,0 -117.3349673,46.9344195,0 -117.3342943,46.9354068,0 -117.333958,46.9359341,0 -117.3337469,46.9364167,0 -117.3335758,46.9369279,0 -117.3334677,46.937496,0 -117.3334612,46.9379007,0 -117.3334859,46.9383375,0 -117.3335852,46.9388541,0 -117.3337482,46.9393054,0 -117.333988,46.9398267,0 -117.33433,46.94050319999999,0 -117.3345781,46.9410257,0 -117.3347938,46.9415557,0 -117.3349796,46.94212480000001,0 -117.3351532,46.94276630000001,0 -117.3352661,46.9434973,0 -117.33532,46.94422320000001,0 -117.3353278,46.94494159999999,0 -117.3352865,46.9454861,0 -117.3351701,46.9461648,0 -117.3350534,46.9466978,0 -117.3342316,46.9502685,0 -117.3340942,46.9509084,0 -117.3339556,46.9514747,0 -117.3337579,46.9523537,0 -117.3335795,46.9532109,0 -117.3333837,46.95407949999999,0 -117.3331775,46.9550059,0 -117.3329624,46.9559897,0 -117.3327376,46.9568718,0 -117.332596,46.9573601,0 -117.3323972,46.957906,0 -117.3321966,46.958384,0 -117.3320099,46.9587671,0 -117.3317154,46.9592184,0 -117.3313474,46.95970609999999,0 -117.330963,46.96014050000001,0 -117.3303831,46.9607138,0 -117.3296836,46.9613174,0 -117.3284149,46.96238900000001,0 -117.3282096,46.9625583,0 -117.3275024,46.96312410000001,0 -117.3264819,46.96399090000001,0 -117.3254358,46.96486899999999,0 -117.3244599,46.9656819,0 -117.3240557,46.9660507,0 -117.3237078,46.96640639999999,0 -117.3234272,46.96676110000001,0 -117.3232373,46.9670434,0 -117.3230834,46.96731129999999,0 -117.3228291,46.96780630000001,0 -117.3226585,46.9682179,0 -117.3225421,46.9686215,0 -117.3224659,46.9689881,0 -117.3224324,46.9693427,0 -117.3224254,46.9697049,0 -117.3224402,46.9700982,0 -117.3224927,46.9704687,0 -117.3225882,46.9708276,0 -117.3227167,46.9712015,0 -117.3228559,46.9715368,0 -117.3230461,46.9719186,0 -117.323251,46.9722698,0 -117.3234956,46.97261570000001,0 -117.3237915,46.9729697,0 -117.3241186,46.97329320000001,0 -117.3244372,46.97357819999999,0 -117.3250133,46.9740304,0 -117.3256461,46.9744372,0 -117.3264931,46.9748732,0 -117.3283921,46.97569120000001,0 -117.3306015,46.9766348,0 -117.3328242,46.9775903,0 -117.3348571,46.97845839999999,0 -117.3369814,46.97935770000001,0 -117.3417645,46.9814337,0 -117.3428637,46.9819944,0 -117.3440822,46.9826698,0 -117.3450229,46.9832514,0 -117.3460829,46.9839807,0 -117.3469812,46.9846501,0 -117.3478488,46.9853703,0 -117.3486585,46.9861159,0 -117.349266,46.9867201,0 -117.3498875,46.9873795,0 -117.35037,46.9879564,0 -117.3508107,46.9885112,0 -117.35119,46.9890352,0 -117.3515398,46.98954880000001,0 -117.351853,46.99005999999999,0 -117.3521776,46.99061620000001,0 -117.3524249,46.9910944,0 -117.3526891,46.9916157,0 -117.3529283,46.9921656,0 -117.3531421,46.9927161,0 -117.3533325,46.9932893,0 -117.3535013,46.99385039999999,0 -117.3536464,46.9944035,0 -117.3537644,46.99495739999999,0 -117.3538532,46.9954728,0 -117.3539176,46.99601569999999,0 -117.3539698,46.9964702,0 -117.3540016,46.9969537,0 -117.3540129,46.9977141,0 -117.3540263,46.9996639,0 -117.3540464,47.0010688,0 -117.3540667,47.0041255,0 -117.3540777,47.0058921,0 -117.3540842,47.0080079,0 -117.3541002,47.00919929999999,0 -117.3541238,47.0107396,0 -117.3541753,47.0112117,0 -117.3543243,47.01197519999999,0 -117.3544587,47.0125405,0 -117.3546026,47.0130645,0 -117.3547016,47.0133943,0 -117.3550629,47.0143894,0 -117.3558655,47.0162373,0 -117.3562369,47.0170655,0 -117.3566428,47.0179822,0 -117.3570529,47.0189382,0 -117.3574289,47.0197798,0 -117.3577894,47.020484,0 -117.3580914,47.0211563,0 -117.3584514,47.02201860000001,0 -117.3589151,47.0229658,0 -117.3593896,47.0240949,0 -117.3599668,47.0255157,0 -117.3603391,47.0263317,0 -117.3608128,47.0273966,0 -117.3612293,47.0282544,0 -117.3619777,47.0295165,0 -117.3627362,47.0306585,0 -117.3632963,47.0314238,0 -117.3641763,47.0324773,0 -117.3652162,47.0335517,0 -117.3664747,47.03469919999999,0 -117.3682136,47.03630739999999,0 -117.369324,47.03732699999999,0 -117.3698197,47.03780379999999,0 -117.3709561,47.03883600000001,0 -117.3717402,47.0395419,0 -117.3726693,47.0403956,0 -117.3739551,47.04156119999999,0 -117.374885,47.0424066,0 -117.375845,47.0432912,0 -117.3763941,47.0438116,0 -117.3770743,47.0445383,0 -117.3776316,47.0452012,0 -117.3781437,47.04586739999999,0 -117.378369,47.046216,0 -117.3788349,47.0469536,0 -117.3793512,47.04790009999999,0 -117.3797417,47.0488419,0 -117.3800453,47.0498134,0 -117.3802248,47.0505554,0 -117.3803533,47.0514396,0 -117.3804887,47.0524003,0 -117.380611,47.0533683,0 -117.3807247,47.0545724,0 -117.3811198,47.0580602,0 -117.3811662,47.05850000000001,0 -117.381251,47.0592558,0 -117.3818286,47.06413959999999,0 -117.3818628,47.0645161,0 -117.382061,47.066205,0 -117.3821672,47.06719069999999,0 -117.3822551,47.067905,0 -117.3824725,47.0696727,0 -117.3826256,47.0710591,0 -117.382686,47.071606,0 -117.382985,47.074029,0 -117.3830867,47.075036,0 -117.3831251,47.0758534,0 -117.3831296,47.0766652,0 -117.3831039,47.077417,0 -117.3830229,47.0783144,0 -117.3828648,47.0792747,0 -117.3827844,47.07966389999999,0 -117.3826744,47.0801537,0 -117.3824727,47.08092489999999,0 -117.3822092,47.081836,0 -117.3820195,47.0825871,0 -117.3816901,47.0839305,0 -117.3812223,47.0857736,0 -117.3809133,47.0870513,0 -117.380508,47.08860799999999,0 -117.3801623,47.0896694,0 -117.3800094,47.09026050000001,0 -117.3798726,47.0909254,0 -117.3797069,47.091648,0 -117.3791223,47.0936805,0 -117.3789973,47.0943501,0 -117.3789187,47.0949799,0 -117.3788095,47.0963813,0 -117.378807,47.09707800000001,0 -117.3789176,47.0991337,0 -117.3788916,47.1007211,0 -117.3789353,47.1028598,0 -117.3789538,47.1040131,0 -117.3789666,47.1052208,0 -117.3789843,47.107176,0 -117.379024,47.1092342,0 -117.3790631,47.11114799999999,0 -117.3790505,47.1128385,0 -117.3790352,47.1137637,0 -117.3790494,47.11413110000001,0 -117.3790916,47.1146821,0 -117.3791127,47.1161684,0 -117.3791145,47.1180022,0 -117.3791822,47.119413,0 -117.3791673,47.1206032,0 -117.3791826,47.1213678,0 -117.3792254,47.12281300000001,0 -117.3792659,47.1241732,0 -117.3792681,47.1255107,0 -117.3792842,47.1273517,0 -117.3793149,47.1281311,0 -117.3793075,47.13017290000001,0 -117.3793679,47.1315543,0 -117.3793675,47.1324449,0 -117.3793499,47.1334433,0 -117.3794383,47.13736489999999,0 -117.3794496,47.13820909999999,0 -117.379459,47.1390362,0 -117.3794617,47.14242200000001,0 -117.37947,47.14385649999999,0 -117.3793871,47.1454243,0 -117.3793064,47.1461992,0 -117.3792436,47.1471079,0 -117.3792131,47.1480305,0 -117.3791672,47.1491152,0 -117.3790867,47.1503505,0 -117.3790237,47.1510303,0 -117.378903,47.1530217,0 -117.3788781,47.1540042,0 -117.3788367,47.1549294,0 -117.3787745,47.15558780000001,0 -117.378708,47.1563104,0 -117.3786281,47.1578507,0 -117.3785599,47.1592809,0 -117.3784642,47.1604447,0 -117.3783861,47.1613671,0 -117.3783739,47.1617769,0 -117.3783993,47.162453,0 -117.3784637,47.16329519999999,0 -117.3786031,47.1642627,0 -117.3787141,47.1648301,0 -117.3788824,47.165479,0 -117.3791052,47.16622540000001,0 -117.3793658,47.1670682,0 -117.3796953,47.1680864,0 -117.3799015,47.16893700000001,0 -117.379995,47.1695589,0 -117.380065,47.1701895,0 -117.3801161,47.1706475,0 -117.3801602,47.1711325,0 -117.3801849,47.17157009999999,0 -117.3802012,47.1720542,0 -117.3802101,47.1724045,0 -117.380158,47.17309010000001,0 -117.3800379,47.1741463,0 -117.3799282,47.1747092,0 -117.3797986,47.1752607,0 -117.3796414,47.1758487,0 -117.3794089,47.1765305,0 -117.3791374,47.1772283,0 -117.3789192,47.1777179,0 -117.3786348,47.17824929999999,0 -117.3782974,47.178877,0 -117.3768562,47.18170060000001,0 -117.3759464,47.1835269,0 -117.3743749,47.18661759999999,0 -117.3717899,47.1916886,0 -117.3713254,47.19259000000001,0 -117.3672088,47.20057799999999,0 -117.3659636,47.2029881,0 -117.3639848,47.20677300000001,0 -117.3636075,47.2074842,0 -117.3632035,47.2082417,0 -117.3628449,47.2088654,0 -117.362409,47.2095091,0 -117.3619651,47.21008220000001,0 -117.3612106,47.2110449,0 -117.3606846,47.2117147,0 -117.3600702,47.2124638,0 -117.3593619,47.2133964,0 -117.3592039,47.2136229,0 -117.358916,47.2140066,0 -117.3585495,47.2144482,0 -117.3578809,47.2152454,0 -117.3571948,47.2161261,0 -117.3550709,47.21874529999999,0 -117.3546759,47.2192942,0 -117.3543864,47.2197238,0 -117.3540865,47.2202164,0 -117.3538852,47.22063229999999,0 -117.3537175,47.2210374,0 -117.3535678,47.22155390000001,0 -117.3534602,47.2220154,0 -117.3533975,47.2223668,0 -117.3533613,47.2227701,0 -117.3533434,47.22325179999999,0 -117.3533564,47.2236345,0 -117.3534161,47.2240722,0 -117.3534867,47.2244124,0 -117.3535677,47.22477150000001,0 -117.3536754,47.22513680000001,0 -117.3538248,47.2255244,0 -117.3540415,47.22597150000001,0 -117.3542869,47.2264295,0 -117.3545967,47.2269119,0 -117.3562444,47.22931179999999,0 -117.3588812,47.23314330000001,0 -117.3606727,47.2357593,0 -117.3611236,47.2364758,0 -117.3614559,47.2370649,0 -117.3617525,47.2376404,0 -117.3620213,47.2382608,0 -117.3622705,47.2389445,0 -117.3624628,47.23953139999999,0 -117.3626197,47.24009010000001,0 -117.3627246,47.2406235,0 -117.3628418,47.2412996,0 -117.3628885,47.24188820000001,0 -117.3629091,47.2425833,0 -117.3628995,47.2432409,0 -117.3628606,47.243785,0 -117.3628006,47.2443099,0 -117.3625388,47.24579130000001,0 -117.3616337,47.2505425,0 -117.3613697,47.2521095,0 -117.3610882,47.25333129999999,0 -117.3609883,47.2538535,0 -117.3608791,47.2545541,0 -117.360849,47.2551832,0 -117.3608874,47.2556746,0 -117.3610033,47.25619760000001,0 -117.3611631,47.25675759999999,0 -117.3613426,47.2572355,0 -117.3615114,47.2576391,0 -117.3617772,47.2581511,0 -117.3621418,47.25867639999999,0 -117.3625876,47.259239,0 -117.3629999,47.2596905,0 -117.3634285,47.2600888,0 -117.3637712,47.26037060000001,0 -117.3645082,47.2608865,0 -117.3665408,47.2621918,0 -117.3671572,47.26260389999999,0 -117.3676582,47.26297670000001,0 -117.3681638,47.2634043,0 -117.3685591,47.2637954,0 -117.3690331,47.2642996,0 -117.3693947,47.2647933,0 -117.3696876,47.265259,0 -117.3699472,47.2657185,0 -117.3701769,47.26621829999999,0 -117.3703491,47.2667283,0 -117.370473,47.2672672,0 -117.3705663,47.26782859999999,0 -117.3705682,47.2683001,0 -117.3705238,47.2711662,0 -117.3705194,47.2716259,0 -117.3703719,47.2733031,0 -117.3701525,47.27452829999999,0 -117.3697303,47.2757206,0 -117.369133,47.2768248,0 -117.3686239,47.2775467,0 -117.3682298,47.27805360000001,0 -117.3677976,47.2785151,0 -117.3659806,47.28049739999999,0 -117.3652784,47.28126339999999,0 -117.3644501,47.2821518,0 -117.362616,47.28406809999999,0 -117.3615035,47.28549019999999,0 -117.3609745,47.2866285,0 -117.3607648,47.2874152,0 -117.3606586,47.2881316,0 -117.36066,47.28887400000001,0 -117.3608077,47.2897338,0 -117.3610818,47.2906052,0 -117.3615619,47.2915003,0 -117.3621327,47.2922698,0 -117.3627743,47.29291019999999,0 -117.3635666,47.2935713,0 -117.3645757,47.29425089999999,0 -117.3656716,47.2948283,0 -117.369704,47.29684209999999,0 -117.376025,47.29995,0 -117.3841654,47.3036152,0 -117.3856018,47.304366,0 -117.3864303,47.3049496,0 -117.3871325,47.3055178,0 -117.3876708,47.3059952,0 -117.388057,47.306388,0 -117.3885136,47.3069326,0 -117.3888663,47.3073919,0 -117.3892552,47.308024,0 -117.389601,47.308697,0 -117.389826,47.3092846,0 -117.3899789,47.30982719999999,0 -117.3901175,47.3103801,0 -117.3902074,47.3111415,0 -117.3902358,47.3116296,0 -117.3902299,47.312246,0 -117.3901347,47.3129361,0 -117.390058,47.31334620000001,0 -117.3898604,47.31453380000001,0 -117.3893734,47.31649779999999,0 -117.3893156,47.316773,0 -117.3891785,47.3174833,0 -117.3890987,47.3179587,0 -117.3889814,47.3184106,0 -117.3887901,47.31897429999999,0 -117.3885981,47.3194253,0 -117.388347,47.3199429,0 -117.3880222,47.3204988,0 -117.3875831,47.3211373,0 -117.3869517,47.3218314,0 -117.3864099,47.32239939999999,0 -117.3830169,47.3257756,0 -117.3822638,47.3266127,0 -117.3818287,47.3272046,0 -117.3813615,47.3280326,0 -117.3810358,47.3287783,0 -117.3807472,47.3296302,0 -117.3805761,47.3303214,0 -117.3805477,47.33132920000001,0 -117.3805863,47.3388235,0 -117.3805831,47.3404848,0 -117.3805875,47.34800389999999,0 -117.3805961,47.3484993,0 -117.3806466,47.3547108,0 -117.3806701,47.36105019999999,0 -117.3808338,47.3631654,0 -117.3810221,47.3646711,0 -117.3813836,47.366567,0 -117.3818407,47.36842510000001,0 -117.3825268,47.3704945,0 -117.3830933,47.3719401,0 -117.3837558,47.37343870000001,0 -117.3844786,47.3749378,0 -117.3846656,47.3753011,0 -117.3860751,47.3776272,0 -117.386773,47.3786954,0 -117.3879518,47.3804891,0 -117.3885915,47.3814317,0 -117.3892028,47.3823463,0 -117.3898076,47.38327870000001,0 -117.3901885,47.3839285,0 -117.3905069,47.3846569,0 -117.3907684,47.3852847,0 -117.3909999,47.38602089999999,0 -117.391156,47.3867401,0 -117.3912633,47.38751860000001,0 -117.3913397,47.38910240000001,0 -117.3913479,47.3906369,0 -117.3913448,47.3910992,0 -117.3913845,47.3931955,0 -117.3914382,47.39581700000001,0 -117.3914789,47.3985352,0 -117.3915092,47.4003665,0 -117.3915846,47.4039838,0 -117.3916377,47.40776640000001,0 -117.3916798,47.4104456,0 -117.3917313,47.41349140000001,0 -117.391716,47.4143987,0 -117.3916723,47.41534720000001,0 -117.391602,47.4163927,0 -117.391451,47.41754220000001,0 -117.3912821,47.4186802,0 -117.3909087,47.4205369,0 -117.3904503,47.4222055,0 -117.3900201,47.423484,0 -117.3899418,47.4237467,0 -117.3896179,47.4248325,0 -117.3893046,47.4258328,0 -117.3891546,47.4263316,0 -117.3886833,47.427819,0 -117.3878052,47.4305899,0 -117.3870987,47.43278699999999,0 -117.3866073,47.4343042,0 -117.3865776,47.43439620000001,0 -117.3862661,47.4354035,0 -117.385482,47.4379038,0 -117.3853252,47.4385844,0 -117.3851971,47.439338,0 -117.385163,47.4398307,0 -117.3851611,47.44004029999999,0 
				
					-117.3851611,47.44004029999999,0 -117.385129,47.4405462,0 -117.3851121,47.4416409,0 -117.3851101,47.44187079999999,0 -117.3851081,47.44210799999999,0 -117.3850491,47.4432512,0 -117.3849857,47.4439665,0 -117.3849392,47.4443326,0 -117.3848689,47.4447357,0 -117.3847628,47.4454283,0 -117.3847124,47.4457945,0 -117.3846835,47.4461172,0 -117.3846698,47.44686489999999,0 -117.3846249,47.4489839,0 -117.3846203,47.4515451,0 -117.3846914,47.4521251,0 -117.3848639,47.45282769999999,0 -117.3851015,47.45347160000001,0 -117.3855414,47.454336,0 -117.3862304,47.4552801,0 -117.3867847,47.4558829,0 -117.3923388197475,47.46110961366265,0 -117.3973731,47.46599319999999,0 -117.3978138,47.4664991,0 -117.3981792,47.4669735,0 -117.3986791,47.4676727,0 -117.3990388,47.46832609999999,0 -117.3992786,47.46885349999999,0 -117.3994859,47.469359,0 -117.3996624,47.4699004,0 -117.3998298,47.4706137,0 -117.399899,47.4711623,0 -117.3999577,47.4716999,0 -117.3999349,47.4724982,0 -117.3999022,47.4728035,0 -117.3998486,47.4732856,0 -117.3997158,47.4739094,0 -117.3996144,47.4742846,0 -117.3994913,47.474655,0 -117.3991421,47.4754994,0 -117.398824,47.47630879999999,0 -117.3986518,47.47689619999999,0 -117.3985719,47.47752669999999,0 -117.3985936,47.47806119999999,0 -117.3988387,47.47999339999999,0 -117.3991047,47.48197529999999,0 -117.399185,47.4827143,0 -117.399554,47.4856832,0 -117.3997087,47.4869394,0 -117.3997763,47.48750789999999,0 -117.4000729,47.48996850000001,0 -117.4003277,47.4919088,0 -117.4003761,47.4924455,0 -117.4003931,47.4930178,0 -117.4004011,47.4946799,0 -117.4003979,47.4996606,0 -117.400355,47.5035859,0 -117.4002814,47.50718060000001,0 -117.4002531,47.50979770000001,0 -117.4002104,47.5124293,0 -117.4001575,47.5129553,0 -117.40008,47.51333839999999,0 -117.3999752,47.5137861,0 -117.3997725,47.5144123,0 -117.3990334,47.5158902,0 -117.398596,47.51671420000001,0 -117.3980332,47.51744949999999,0 -117.3976837,47.5178071,0 -117.3971213,47.5183038,0 -117.3966139,47.5186498,0 -117.3953551,47.5194559,0 -117.3948615,47.51980979999999,0 -117.3945531,47.5200995,0 -117.3943645,47.5203558,0 -117.3941601,47.5206499,0 -117.3939504,47.5210899,0 -117.3938455,47.5215639,0 -117.3938412,47.5219286,0 -117.3939,47.5223234,0 -117.3940102,47.5226938,0 -117.3941593,47.5230284,0 -117.3952051,47.5247473,0 -117.3961739,47.526373,0 -117.3968187,47.5274892,0 -117.3976353,47.5287639,0 -117.3978645,47.5291275,0 -117.3986772,47.5303203,0 -117.3989228,47.5307633,0 -117.3993888,47.5316271,0 -117.3997195,47.5324301,0 -117.4000449,47.5333453,0 -117.400058,47.5334018,0 -117.4002016,47.53397949999999,0 -117.4004076,47.5353239,0 -117.4004432,47.5363277,0 -117.4004424,47.5366438,0 -117.4003952,47.53741229999999,0 -117.4002488,47.5383637,0 -117.3999468,47.53957719999999,0 -117.3994909,47.5407765,0 -117.3983656,47.5437772,0 -117.3972405,47.5467499,0 -117.3968845,47.5477677,0 -117.3964114,47.5489859,0 -117.3960938,47.5496156,0 -117.3957693,47.5500774,0 -117.3954031,47.55051209999999,0 -117.3951339,47.5508075,0 -117.3945848,47.5514331,0 -117.3943791,47.5517563,0 -117.394113,47.5522914,0 -117.3939872,47.5528372,0 -117.3939609,47.55344849999999,0 -117.3940545,47.5540292,0 -117.3942831,47.5546052,0 -117.3951717,47.556154,0 -117.3954096,47.5567774,0 -117.3955327,47.55737529999999,0 -117.3955753,47.5578137,0 -117.3958784,47.56049539999999,0 -117.3959978,47.56144399999999,0 -117.3962008,47.5625743,0 -117.3966697,47.5641797,0 -117.3984496,47.5683791,0 -117.3993742,47.5705603,0 -117.4011409,47.5746478,0 -117.4024936,47.57785390000001,0 -117.4027929,47.5786759,0 -117.4029533,47.5793114,0 -117.4031598,47.58022269999999,0 -117.4032813,47.5810103,0 -117.4033409,47.58159,0 -117.4033431,47.5816873,0 -117.4033677,47.5824261,0 -117.4033811,47.582956,0 -117.4031018,47.5873531,0 -117.4030255,47.5889325,0 -117.4031322,47.5897656,0 -117.4032845,47.5904714,0 -117.4035048,47.5911418,0 -117.4037564,47.59171669999999,0 -117.4040726,47.59235939999999,0 -117.4045939,47.5932945,0 -117.4049824,47.5940091,0 -117.4061154,47.5960002,0 -117.406795,47.59704,0 -117.4072786,47.5976937,0 -117.4078406,47.5983559,0 -117.4088922,47.59942330000001,0 -117.4117287,47.60199050000001,0 -117.4125612,47.6028007,0 -117.4130224,47.6033039,0 -117.4135521,47.6039548,0 -117.4138436,47.60435110000001,0 -117.4154881,47.60676479999999,0 -117.4162005,47.6078585,0 -117.4169605,47.60910820000001,0 -117.4172784,47.60950589999999,0 -117.4177883,47.61002850000001,0 -117.4185351,47.6105956,0 -117.4191895,47.6109941,0 -117.4216507,47.6123778,0 -117.4232472,47.61341929999999,0 -117.4238788,47.6138187,0 -117.4247258,47.61435430000001,0 -117.4249123,47.6144723,0 -117.4270409,47.6158957,0 -117.4293926,47.6174404,0 -117.4296718,47.6176214,0 -117.4338644,47.620339,0 -117.4353482,47.6212988,0 -117.4363519,47.6219984,0 -117.4365637,47.6221526,0 -117.4374178,47.62277449999999,0 -117.4380531,47.6232314,0 -117.4386283,47.6236944,0 -117.4391437,47.6242015,0 -117.4395385,47.6246069,0 -117.4402127,47.6254043,0 -117.4407757,47.6262001,0 -117.4417606,47.627821,0 -117.4419116,47.62808010000001,0 -117.4420119,47.6282499,0 -117.4423996,47.6288787,0 -117.4424955,47.6290738,0 -117.4427973,47.62956879999999,0 -117.4432102,47.6302007,0 -117.4441431,47.6317092,0 -117.4443819,47.632112,0 -117.445071,47.633237,0 -117.4454411,47.6339413,0 -117.445647,47.6343433,0 -117.4458021,47.6346278,0 -117.445934,47.6349058,0 -117.4462776,47.6356709,0 -117.4463595,47.6359385,0 -117.4467514,47.6369406,0 -117.447404,47.6385532,0 -117.4480636,47.6401938,0 -117.4484041,47.6410406,0 -117.4495114,47.6438222,0 -117.4495886,47.6440477,0 
				</coordinates>
			</LineString>
		<atom:link rel="app" href="https://www.google.com/earth/about/versions/#earth-pro" title="Google Earth Pro 7.3.6.10201"></atom:link>
	</Placemark>
</Document>
</kml>
