<?xml version="1.0" encoding="UTF-8"?>
<kml xmlns="http://www.opengis.net/kml/2.2" xmlns:gx="http://www.google.com/kml/ext/2.2" xmlns:kml="http://www.opengis.net/kml/2.2" xmlns:atom="http://www.w3.org/2005/Atom">
<Document>
	<name>US.113.kml</name>
	<Placemark>
		<name>US.113</name>
			<LineString>
				<coordinates>
					-75.548243,38.0646641,0 -75.5480613,38.0649466,0 -75.54798599999999,38.0650592,0 -75.5475144,38.0659691,0 -75.547192,38.0664294,0 -75.54698500000001,38.066805,0 -75.546813,38.067038,0 -75.546586,38.067311,0 -75.5462921,38.0675854,0 -75.545896,38.067914,0 -75.545748,38.068044,0 -75.545055,38.068634,0 -75.544853,38.068816,0 -75.544701,38.068955,0 -75.544488,38.069163,0 -75.544239,38.069425,0 -75.54402,38.069685,0 -75.543792,38.069965,0 -75.5436969,38.0700911,0 -75.54343,38.070446,0 -75.543233,38.070769,0 -75.54298900000001,38.071162,0 -75.542745,38.07157,0 -75.542492,38.071999,0 -75.542242,38.072466,0 -75.54207700000001,38.072797,0 -75.54191,38.073216,0 -75.541873,38.07333,0 -75.541731,38.073781,0 -75.541662,38.074052,0 -75.541586,38.074437,0 -75.541534,38.074794,0 -75.541467,38.075392,0 -75.541365,38.076181,0 -75.54121600000001,38.077428,0 -75.541158,38.077904,0 -75.541132,38.078193,0 -75.540916,38.079915,0 -75.54088400000001,38.080152,0 -75.54079900000001,38.080623,0 -75.54074,38.080858,0 -75.54060699999999,38.081242,0 -75.540458,38.081621,0 -75.54042889999999,38.0816759,0 -75.540226,38.082086,0 -75.54002800000001,38.082435,0 -75.539821,38.082763,0 -75.53968,38.082952,0 -75.539406,38.083286,0 -75.53926800000001,38.083466,0 -75.53895199999999,38.083813,0 -75.538602,38.084161,0 -75.538291,38.08443,0 -75.537982,38.084673,0 -75.537734,38.084869,0 -75.53763499999999,38.084926,0 -75.536728,38.085452,0 -75.535993,38.085833,0 -75.535664,38.086013,0 -75.53475400000001,38.08651,0 -75.534206,38.086795,0 -75.533929,38.086919,0 -75.533694,38.087014,0 -75.533513,38.087068,0 -75.533328,38.087121,0 -75.532918,38.087227,0 -75.531706,38.087516,0 -75.53121899999999,38.087637,0 -75.530366,38.08789,0 -75.529831,38.088059,0 -75.52918,38.08827,0 -75.528975,38.088332,0 -75.527456,38.088813,0 -75.52701,38.088952,0 -75.526557,38.089092,0 -75.526313,38.089169,0 -75.52618,38.089209,0 -75.52582099999999,38.089299,0 -75.525718,38.089316,0 -75.525476,38.08936,0 -75.525069,38.089407,0 -75.524421,38.089477,0 -75.52431,38.089483,0 -75.523611,38.089547,0 -75.52350300000001,38.089555,0 -75.522375,38.08966,0 -75.52217400000001,38.089679,0 -75.521931,38.089704,0 -75.521556,38.089743,0 -75.521114,38.089803,0 -75.520888,38.089839,0 -75.520208,38.089958,0 -75.51934,38.090145,0 -75.51876300000001,38.09029,0 -75.51812,38.090467,0 -75.516853,38.090799,0 -75.516728,38.090838,0 -75.516379,38.090927,0 -75.515998,38.091023,0 -75.515692,38.091099,0 -75.515416,38.091145,0 -75.514966,38.091243,0 -75.514745,38.091283,0 -75.514608,38.091312,0 -75.51448499999999,38.091338,0 -75.514129,38.09139,0 -75.51386599999999,38.091426,0 -75.51361799999999,38.091463,0 -75.51335,38.091487,0 -75.512771,38.091539,0 -75.512356,38.091572,0 -75.512266,38.091578,0 -75.511646,38.091628,0 -75.51112999999999,38.091669,0 -75.510976,38.091681,0 -75.510458,38.091723,0 -75.509652,38.091793,0 -75.508702,38.091886,0 -75.508289,38.091929,0 -75.507706,38.091994,0 -75.506906,38.092088,0 -75.50558100000001,38.09226,0 -75.50381299999999,38.092484,0 -75.502754,38.092616,0 -75.50207,38.092705,0 -75.50069499999999,38.092884,0 -75.50014299999999,38.09297,0 -75.49924900000001,38.093117,0 -75.49829099999999,38.093325,0 -75.497991,38.093411,0 -75.497229,38.093625,0 -75.496742,38.093764,0 -75.495773,38.094043,0 -75.49533,38.094183,0 -75.494891,38.094322,0 -75.493869,38.094611,0 -75.493357,38.094761,0 -75.491741,38.095247,0 -75.49126699999999,38.095409,0 -75.49084999999999,38.095579,0 -75.49037300000001,38.095809,0 -75.489976,38.09602,0 -75.489637,38.096203,0 -75.489242,38.096458,0 -75.48900399999999,38.096631,0 -75.488844,38.096748,0 -75.488507,38.097009,0 -75.48795200000001,38.097536,0 -75.487644,38.097905,0 -75.487464,38.098111,0 -75.486681,38.098998,0 -75.485871,38.09993,0 -75.48553200000001,38.100323,0 -75.485079,38.100838,0 -75.485023,38.100907,0 -75.484703,38.101282,0 -75.48402900000001,38.102066,0 -75.48378099999999,38.102341,0 -75.482997,38.103252,0 -75.482128,38.104232,0 -75.48084299999999,38.105719,0 -75.480186,38.106387,0 -75.479238,38.107265,0 -75.478852,38.107584,0 -75.478173,38.108127,0 -75.477715,38.108507,0 -75.476767,38.109256,0 -75.476302,38.109614,0 -75.475174,38.110511,0 -75.47448199999999,38.111047,0 -75.474009,38.11133,0 -75.473468,38.111616,0 -75.473266,38.111704,0 -75.47259,38.111944,0 -75.471867,38.112157,0 -75.470935,38.112423,0 -75.469657,38.112753,0 -75.46953600000001,38.112787,0 -75.468647,38.113042,0 -75.466638,38.113591,0 -75.46531299999999,38.113983,0 -75.465153,38.11403,0 -75.464855,38.114144,0 -75.464744,38.114195,0 -75.464147,38.114465,0 -75.46378799999999,38.114648,0 -75.463426,38.114869,0 -75.4630726,38.1150835,0 -75.462431,38.115565,0 -75.4622741,38.1156793,0 -75.46196,38.115924,0 -75.461499,38.116262,0 -75.461107,38.116558,0 -75.46103100000001,38.116613,0 -75.46055200000001,38.116961,0 -75.460178,38.117247,0 -75.459954,38.117417,0 -75.45715,38.119491,0 -75.45575580000001,38.1205452,0 -75.455719,38.120573,0 -75.45452299999999,38.121437,0 -75.453192,38.122394,0 -75.45272,38.12273,0 -75.4524,38.122935,0 -75.45218300000001,38.123056,0 -75.452102,38.123091,0 -75.45166999999999,38.123312,0 -75.451317,38.123477,0 -75.449602,38.124149,0 -75.448819,38.1244543,0 -75.447458,38.124985,0 -75.44521899999999,38.125855,0 -75.443471,38.12653,0 -75.44293399999999,38.126743,0 -75.442482,38.126915,0 -75.4417866,38.1272001,0 -75.4416174,38.1272787,0 -75.441024,38.127582,0 -75.440505,38.127886,0 -75.439995,38.128239,0 -75.43955699999999,38.128581,0 -75.43924699999999,38.128839,0 -75.438936,38.129133,0 -75.437842,38.13031,0 -75.4367309,38.1315038,0 -75.43661350000001,38.1316296,0 -75.4360095,38.1322764,0 -75.4356192,38.1326931,0 -75.4352772,38.1330032,0 -75.4349567,38.1332744,0 -75.4347126,38.1334642,0 -75.4345276,38.1336014,0 -75.43428350000001,38.1337701,0 -75.4338168,38.1340708,0 -75.4319969,38.1351763,0 -75.42556500000001,38.1390865,0 -75.4243311,38.1398365,0 -75.42398249999999,38.1400485,0 -75.422493,38.140965,0 -75.42246,38.140985,0 -75.421663,38.141449,0 -75.421486,38.141545,0 -75.420796,38.141898,0 -75.420495,38.142052,0 -75.420018,38.142265,0 -75.419393,38.142525,0 -75.41875400000001,38.142774,0 -75.418126,38.142996,0 -75.417464,38.143217,0 -75.416175,38.143582,0 -75.415291,38.143765,0 -75.414627,38.143894,0 -75.414069,38.144014,0 -75.41355299999999,38.144123,0 -75.4128515,38.1442376,0 -75.4122776,38.1442963,0 -75.41171370000001,38.1443454,0 -75.4110199,38.1443721,0 -75.410437,38.1443894,0 -75.40987749999999,38.1443985,0 -75.4088232,38.1444201,0 -75.4080759,38.1444365,0 -75.4074768,38.1444531,0 -75.4068358,38.1444727,0 -75.40633750000001,38.1445119,0 -75.4058308,38.1445399,0 -75.40521529999999,38.1446163,0 -75.404247,38.1447398,0 -75.4036186,38.1448593,0 -75.40311560000001,38.1449602,0 -75.4024934,38.14509,0 -75.4020304,38.1451961,0 -75.4015802,38.1453324,0 -75.40101420000001,38.1454898,0 -75.4006268,38.1456049,0 -75.4002938,38.1457168,0 -75.39989129999999,38.1458591,0 -75.399528,38.1459953,0 -75.3992405,38.1461103,0 -75.3986924,38.1463346,0 -75.3981146,38.1465862,0 -75.39746839999999,38.1469031,0 -75.39675389999999,38.1472697,0 -75.3961864,38.1476022,0 -75.3956826,38.1479019,0 -75.3951692,38.1482431,0 -75.3946371,38.148581,0 -75.3938484,38.1490883,0 -75.39312510000001,38.1495661,0 -75.3925131,38.1499523,0 -75.3918389,38.1504105,0 -75.3912425,38.1508171,0 -75.3906849,38.15119,0 -75.3897912,38.1517908,0 -75.3889361,38.1523459,0 -75.3879639,38.1529975,0 -75.3873207,38.1534234,0 -75.38652810000001,38.1539294,0 -75.3856399,38.154485,0 -75.3848438,38.1549804,0 -75.38377509999999,38.1556421,0 -75.3830147,38.15613,0 -75.3823036,38.156571,0 -75.3818758,38.1568364,0 -75.38111000000001,38.157298,0 -75.3807202,38.1575633,0 -75.38037079999999,38.1577981,0 -75.38009940000001,38.1579805,0 -75.3794911,38.1584014,0 -75.3788292,38.158826,0 -75.3783471,38.1591398,0 -75.37784980000001,38.1595224,0 -75.3775462,38.1597721,0 -75.3770945,38.1601557,0 -75.3767175,38.160513,0 -75.376313,38.1609529,0 -75.3759321,38.1614045,0 -75.3756573,38.1617657,0 -75.3753627,38.1622095,0 -75.3750442,38.1627293,0 -75.37479829999999,38.1631969,0 -75.37450010000001,38.16387,0 -75.3743671,38.1642449,0 -75.37423,38.1646842,0 -75.3741131,38.1651477,0 -75.37407279999999,38.1653492,0 -75.3740038,38.1657768,0 -75.37391270000001,38.1663726,0 -75.3738093,38.1671172,0 -75.37375919999999,38.1675025,0 -75.3736645,38.1681225,0 -75.3735611,38.168772,0 -75.3734908,38.1692105,0 -75.37344109999999,38.1696035,0 -75.3733522,38.1702206,0 -75.37325920000001,38.1707386,0 -75.37298850000001,38.1724824,0 -75.3729347,38.1730305,0 -75.37284320000001,38.1737249,0 -75.3727714,38.174272,0 -75.37271250000001,38.1748769,0 -75.3726917,38.1754182,0 -75.3726863,38.175843,0 -75.3726964,38.1762607,0 -75.37271629999999,38.1767217,0 -75.37273399999999,38.1770762,0 -75.3727698,38.177374,0 -75.37280130000001,38.1775975,0 -75.3728876,38.1780722,0 -75.3730073,38.178577,0 -75.3731138,38.1789627,0 -75.3732194,38.1793359,0 -75.3732474,38.1794254,0 -75.3735442,38.18029,0 -75.3736538,38.1805694,0 -75.37465690000001,38.1829723,0 -75.37473970000001,38.1831718,0 -75.37479399999999,38.1833003,0 -75.3748959,38.1835554,0 -75.37500319999999,38.183898,0 -75.375077,38.1841731,0 -75.3751427,38.1844841,0 -75.37519500000001,38.1849532,0 -75.3752209,38.1851912,0 -75.37522989999999,38.1854528,0 -75.37520979999999,38.1860136,0 -75.37518780000001,38.186277,0 -75.37512529999999,38.1866556,0 -75.3750247,38.1870856,0 -75.3748933,38.1874514,0 -75.3747001,38.1879321,0 -75.37454719999999,38.1882715,0 -75.3742227,38.1889229,0 -75.37389279999999,38.1895512,0 -75.37366230000001,38.1899202,0 -75.3735092,38.1901709,0 -75.3733252,38.1904293,0 -75.37316800000001,38.190649,0 -75.37230599999999,38.191698,0 -75.3715256,38.192585,0 -75.3712925,38.1928432,0 -75.3705913,38.193669,0 -75.3702799,38.1940609,0 -75.3702145,38.1941502,0 -75.3700783,38.1942982,0 -75.3699881,38.1943943,0 -75.3697236,38.1947006,0 -75.36921940000001,38.1952833,0 -75.36876789999999,38.1958199,0 -75.3681278,38.1966682,0 -75.3673302,38.1977266,0 -75.366606,38.198683,0 -75.366378,38.199007,0 -75.36587780000001,38.1996533,0 -75.365539,38.200091,0 -75.36516399999999,38.200594,0 -75.36505320000001,38.2007241,0 -75.364982,38.200816,0 -75.36475299999999,38.201109,0 -75.36460700000001,38.201292,0 -75.364158,38.201827,0 -75.3638776,38.2021428,0 -75.36342139999999,38.202612,0 -75.3626865,38.2033371,0 -75.36202129999999,38.2038998,0 -75.3618025,38.2040571,0 -75.3616445,38.2041759,0 -75.3609525,38.2046765,0 -75.36031560000001,38.2050832,0 -75.35990099999999,38.2053478,0 -75.3596623,38.2054974,0 -75.3593431,38.2056671,0 -75.3586257,38.2060402,0 -75.3577915,38.2064248,0 -75.3561929,38.2071246,0 -75.3547257,38.2077927,0 -75.3538965,38.2081605,0 -75.35335240000001,38.2084228,0 -75.3527328,38.2087769,0 -75.3518826,38.2093165,0 -75.3510886,38.2099002,0 -75.3509004,38.2100763,0 -75.35057449999999,38.2103602,0 -75.35012260000001,38.2108189,0 -75.3497648,38.2112322,0 -75.34939110000001,38.2116611,0 -75.349051,38.2120942,0 -75.34854970000001,38.212727,0 -75.34832280000001,38.2130112,0 -75.34758600000001,38.2139,0 -75.34680899999999,38.214896,0 -75.34629700000001,38.215537,0 -75.346244,38.215605,0 -75.346176,38.215685,0 -75.34601499999999,38.215895,0 -75.345595,38.216429,0 -75.345359,38.216723,0 -75.34511500000001,38.217047,0 -75.34497,38.21723,0 -75.344764,38.217528,0 -75.344543,38.217879,0 -75.344336,38.218253,0 -75.344261,38.218394,0 -75.3442129,38.2185145,0 -75.344084,38.218825,0 -75.34399999999999,38.219046,0 -75.343887,38.219382,0 -75.343666,38.220122,0 -75.3435576,38.2205198,0 -75.343508,38.2207018,0 -75.3434445,38.2209656,0 -75.34333820000001,38.2214068,0 -75.3431274,38.2222649,0 -75.34290110000001,38.2230501,0 -75.3426395,38.224066,0 -75.3425646,38.2243787,0 -75.3424388,38.2247551,0 -75.34232,38.2250623,0 -75.34215500000001,38.2253645,0 -75.34195010000001,38.2257454,0 -75.34140600000001,38.226489,0 -75.341177,38.226775,0 -75.340964,38.227011,0 -75.3405879,38.2273764,0 -75.34009399999999,38.22777,0 -75.33975100000001,38.228011,0 -75.339224,38.228369,0 -75.33897,38.2285474,0 -75.338279,38.229033,0 -75.337868,38.229319,0 -75.336952,38.22996,0 -75.33641919999999,38.230331,0 -75.33497610000001,38.2313096,0 -75.3345913,38.2315734,0 -75.3342308,38.2317717,0 -75.33375940000001,38.2320258,0 -75.3332609,38.2322421,0 -75.33278610000001,38.2324399,0 -75.33276480000001,38.2324475,0 -75.33241940000001,38.2325713,0 -75.3319193,38.2327173,0 -75.3312687,38.2328659,0 -75.3305151,38.2329934,0 -75.32874320000001,38.2333113,0 -75.32790900000001,38.2334735,0 -75.3257479,38.2340698,0 -75.3235375,38.2346996,0 -75.3227677,38.234883,0 -75.3222811,38.2349704,0 -75.3216997,38.2350389,0 -75.32120620000001,38.2350768,0 -75.3205892,38.2351063,0 -75.320026,38.2351106,0 -75.31891229999999,38.2350759,0 -75.3177518,38.2350307,0 -75.31663639999999,38.2349954,0 -75.31593290000001,38.2350034,0 -75.315026,38.2350726,0 -75.3145402,38.2351503,0 -75.31370339999999,38.2353283,0 -75.3130774,38.2355088,0 -75.31262169999999,38.235672,0 -75.31235529999999,38.2358014,0 -75.31160300000001,38.2361818,0 -75.3108689,38.2366106,0 -75.3087826,38.2382508,0 -75.30747700000001,38.2392735,0 -75.30697170000001,38.2396948,0 -75.3058565,38.2406839,0 -75.3047414,38.2417109,0 -75.30444079999999,38.242014,0 -75.3041125,38.2423427,0 -75.3037128,38.2427811,0 -75.3034562,38.2430061,0 -75.30315349999999,38.2432397,0 -75.3028996,38.2433904,0 -75.3026828,38.2434984,0 -75.3024656,38.2435982,0 -75.3020901,38.2437424,0 -75.3016308,38.2438617,0 -75.3011173,38.2440114,0 -75.30055040000001,38.2441682,0 -75.2987287,38.2446538,0 -75.29401540000001,38.2459581,0 -75.29354480000001,38.2460895,0 -75.28896760000001,38.2473471,0 -75.2863232,38.2480536,0 -75.2849808,38.2484114,0 -75.28254769999999,38.2490433,0 -75.2807674,38.2495555,0 -75.2798454,38.2498289,0 -75.27876000000001,38.2501246,0 -75.2762523,38.2508662,0 -75.2746637,38.2513226,0 -75.2722066,38.251975,0 -75.2696253,38.2526896,0 -75.26740150000001,38.253309,0 -75.26601340000001,38.2537878,0 -75.264993,38.2542093,0 -75.2638192,38.2547634,0 -75.26374130000001,38.2548044,0 -75.2627703,38.2553157,0 -75.2626614,38.2553775,0 -75.2619287,38.2558265,0 -75.26178609999999,38.2559223,0 -75.26088729999999,38.2565265,0 -75.26033409999999,38.2570044,0 -75.26009860000001,38.2571905,0 -75.2587324,38.2584278,0 -75.2581266,38.2589745,0 -75.25726880000001,38.2597606,0 -75.2556416,38.2612849,0 -75.25521860000001,38.2616805,0 -75.25476399999999,38.2620614,0 -75.2537646,38.2629932,0 -75.2530441,38.2636288,0 -75.2524542,38.2640506,0 -75.25190790000001,38.2643808,0 -75.25133099999999,38.264712,0 -75.2506432,38.2650217,0 -75.2491476,38.2656022,0 -75.2477973,38.2661081,0 -75.2470458,38.2664096,0 -75.246092,38.2668136,0 -75.2456846,38.2670108,0 -75.2452861,38.2672219,0 -75.24485730000001,38.2674829,0 -75.2445318,38.267698,0 -75.2443627,38.2678203,0 -75.24393190000001,38.2681648,0 -75.2434305,38.2685905,0 -75.24273100000001,38.2693636,0 -75.2422387,38.2700588,0 -75.2415007,38.2710037,0 -75.24082129999999,38.2718782,0 -75.2396626,38.2733185,0 -75.2388005,38.2743392,0 -75.2373142,38.2761123,0 -75.2363338,38.2772662,0 -75.2352617,38.2785452,0 -75.2330595,38.2812057,0 -75.2329847,38.281288,0 -75.2324692,38.2820498,0 -75.2317719,38.2831611,0 -75.23132680000001,38.2841615,0 -75.23112020000001,38.284669,0 -75.2286277,38.2908578,0 -75.2276674,38.2932495,0 -75.2269132,38.2947709,0 -75.2261207,38.2959119,0 -75.22494570000001,38.2972443,0 -75.2245247,38.2977331,0 -75.2242234,38.298124,0 -75.22394850000001,38.2985021,0 -75.22358970000001,38.2990826,0 -75.22341110000001,38.2994171,0 -75.22321220000001,38.2998284,0 -75.2230015,38.3003143,0 -75.221621,38.30375,0 -75.22146669999999,38.304206,0 -75.2213576,38.304553,0 -75.2212241,38.3050221,0 -75.22107800000001,38.3055618,0 -75.2209898,38.3059485,0 -75.22084599999999,38.3066594,0 -75.2207762,38.3070332,0 
				
					-75.22076988694258,38.30704768093582,0 -75.22036861586194,38.3093341761194,0 -75.21995699999999,38.311613,0 -75.2198322,38.3120794,0 -75.219798,38.312208,0 -75.21973,38.312401,0 -75.219594,38.3127627,0 -75.2195009,38.3129783,0 -75.21940960000001,38.3131744,0 -75.219224,38.3135268,0 -75.2191328,38.3136773,0 -75.2190702,38.3137824,0 -75.2190152,38.3138749,0 -75.21888939999999,38.3140597,0 -75.2187521,38.3142427,0 -75.21862849999999,38.314404,0 -75.2184614,38.3146141,0 -75.2182943,38.3148049,0 -75.21808540000001,38.3150277,0 -75.21786179999999,38.3152514,0 -75.2175642,38.3155273,0 -75.2172666,38.3157921,0 -75.2164563,38.3165057,0 -75.2160524,38.3168573,0 -75.215323,38.3174977,0 -75.2146631,38.3180754,0 -75.21428349999999,38.3184062,0 -75.2140184,38.3186399,0 -75.21355800000001,38.319089,0 -75.213379,38.319282,0 -75.21323,38.31947,0 -75.2129687,38.3198857,0 -75.2128007,38.3201555,0 -75.2126296,38.3204993,0 -75.21249760000001,38.3208263,0 -75.21225800000001,38.321464,0 -75.2121638,38.321782,0 -75.212068,38.322105,0 -75.211871,38.32274,0 -75.21171200000001,38.323392,0 -75.2115184,38.3240366,0 -75.21098499999999,38.325757,0 -75.21079400000001,38.326412,0 -75.2107213,38.3267002,0 -75.2104961,38.3274228,0 -75.2100624,38.3289825,0 -75.20993470000001,38.3294262,0 -75.20986569999999,38.3296617,0 -75.2097497,38.3302167,0 -75.2096897,38.3307897,0 -75.20970269999999,38.3313647,0 -75.2097467,38.3319127,0 -75.2098357,38.3324537,0 -75.2099747,38.3330027,0 -75.2101737,38.3335357,0 -75.210729,38.3347564,0 -75.2108739,38.335075,0 -75.21095699999999,38.3352577,0 -75.21108769999999,38.3355368,0 -75.21148220000001,38.3363796,0 -75.2118148,38.3370804,0 -75.2120527,38.3376648,0 -75.2124171,38.3387055,0 -75.2125547,38.3391717,0 -75.2127436,38.3398768,0 -75.2128731,38.340455,0 -75.21317620000001,38.3416909,0 -75.2133384,38.3423441,0 -75.2134908,38.3429986,0 -75.21354574240769,38.34323729861264,0 -75.21422013193852,38.34594837835628,0 -75.21447145671627,38.34721934942724,0 -75.21459356165686,38.34809653785283,0 -75.2146032132421,38.34874852708169,0 -75.21460158457586,38.34967402282501,0 -75.21452788399091,38.35043790654048,0 -75.21417709449435,38.35321240427847,0 -75.21367781635418,38.35775616280671,0 -75.21360880722736,38.35869137753514,0 
				
					-75.21360369999999,38.3587032,0 -75.21325969999999,38.3607769,0 -75.2131864,38.3612089,0 -75.2130866,38.3616993,0 -75.2129729,38.3621531,0 -75.2128402,38.3626168,0 -75.2126937,38.3630586,0 -75.2125509,38.363452,0 -75.2124637,38.363664,0 -75.21232980000001,38.3639969,0 -75.2121592,38.3643605,0 -75.2119835,38.364726,0 -75.2117599,38.3651491,0 -75.2115312,38.3655533,0 -75.2112987,38.3659298,0 -75.2110119,38.3663637,0 -75.2107566,38.3667233,0 -75.2092466,38.3687819,0 -75.2085795,38.3696914,0 -75.20813920000001,38.3702967,0 -75.2078549,38.3707246,0 -75.2076173,38.371112,0 -75.2073836,38.371532,0 -75.2071827,38.3719312,0 -75.2068953,38.3725895,0 -75.20670749999999,38.3730947,0 -75.2065716,38.3735224,0 -75.2064826,38.3738584,0 -75.2063991,38.3742047,0 -75.2063125,38.3746564,0 -75.206245,38.3751031,0 -75.20619979999999,38.3755519,0 -75.2061815,38.3758852,0 -75.2061758,38.3759878,0 -75.2061696,38.3764214,0 -75.2061892,38.3769757,0 -75.2062145,38.37727,0 -75.2062636,38.3778192,0 -75.20632259999999,38.3785257,0 -75.2064604,38.380174,0 -75.2064888,38.3806227,0 -75.2064822,38.3809584,0 -75.20646259999999,38.3812579,0 -75.206433,38.3815249,0 -75.206384,38.3817766,0 -75.2063412,38.3819842,0 -75.2062621,38.3822833,0 -75.2061638,38.3825759,0 -75.2060367,38.3829118,0 -75.2058794,38.3832575,0 -75.20571769999999,38.3835517,0 -75.205494,38.3839271,0 -75.20467429999999,38.3852469,0 -75.20371489999999,38.3867914,0 -75.2035229,38.3871648,0 -75.2033725,38.3875114,0 -75.2032739,38.3878085,0 -75.2031906,38.3881374,0 -75.2031274,38.3885008,0 -75.2030996,38.3888594,0 -75.20309829999999,38.3891842,0 -75.2031211,38.389519,0 -75.2031552,38.3897992,0 -75.2033194,38.3906014,0 -75.20338099999999,38.3909326,0 -75.2037974,38.3929995,0 -75.2038795,38.3933006,0 -75.2039705,38.393564,0 -75.2041124,38.3939127,0 -75.2042428,38.3941198,0 -75.20439880000001,38.3943454,0 -75.20464269999999,38.3946831,0 -75.2054224,38.3957712,0 -75.2090135,38.4007709,0 -75.20939730000001,38.4013183,0 -75.2112922,38.4040081,0 -75.2115689,38.4043982,0 -75.21173829999999,38.4046656,0 -75.2118633,38.4048745,0 -75.2119984,38.4051419,0 -75.2120578,38.4052521,0 -75.21213830000001,38.4054165,0 -75.212227,38.405622,0 -75.2123473,38.4059221,0 -75.2124572,38.4062439,0 -75.2125406,38.4065498,0 -75.2125937,38.4067974,0 -75.2126543,38.4071231,0 -75.21269220000001,38.4074311,0 -75.2127188,38.407737,0 -75.2127251,38.4081162,0 -75.21262059999999,38.4104087,0 -75.2125583,38.4117746,0 -75.2124383,38.4144081,0 -75.2124452,38.4147379,0 -75.2124675,38.4150697,0 -75.21252610000001,38.4154656,0 -75.2126032,38.4158626,0 -75.2126967,38.416212,0 -75.2128464,38.4166724,0 -75.21303469999999,38.4171219,0 -75.21324439999999,38.4175426,0 -75.2147932,38.4203652,0 -75.21616299999999,38.4228652,0 -75.21696799999999,38.4243019,0 -75.21714609999999,38.4246086,0 -75.2176607,38.4254629,0 -75.21808299999999,38.426158,0 -75.2184304,38.4267493,0 -75.2189796,38.4277385,0 -75.2195237,38.428742,0 -75.22121679999999,38.4319263,0 -75.221509,38.4324682,0 -75.221992,38.433326,0 -75.2222106,38.4337051,0 -75.2233554,38.4356303,0 -75.22639340000001,38.4408756,0 -75.22763190000001,38.4431036,0 -75.22806180000001,38.4438522,0 -75.2284945,38.4445813,0 -75.2289511,38.4453105,0 -75.22935680000001,38.4459415,0 -75.2298333,38.4466444,0 -75.230295,38.4473085,0 -75.2304894,38.4475803,0 -75.2308768,38.4481023,0 -75.2312579,38.4486029,0 -75.2320101,38.4495618,0 -75.23221100000001,38.4498477,0 -75.23236009999999,38.450106,0 -75.2324663,38.4503227,0 -75.2325269,38.450482,0 -75.2326231,38.4508356,0 -75.2326647,38.4510154,0 -75.23268330000001,38.451244,0 
				
					-75.23268330000001,38.451244,0 -75.2326881,38.4513113,0 -75.2327032,38.4514855,0 -75.2327258,38.4517456,0 -75.23281540000001,38.4526909,0 -75.2328658,38.4532738,0 -75.23300709999999,38.454893,0 -75.2330242,38.4550901,0 -75.2330323,38.4551836,0 -75.2331116,38.4560995,0 -75.2331485,38.4564981,0 -75.233187,38.456914,0 -75.2332195,38.4572556,0 -75.2332524,38.4576679,0 -75.233287,38.4580237,0 -75.23332499999999,38.458374,0 -75.2333831,38.4590996,0 -75.23354430000001,38.4608372,0 -75.2335681,38.4611308,0 -75.2336763,38.4622636,0 -75.23373220000001,38.4629786,0 -75.2337423,38.4630814,0 -75.233778,38.4634082,0 -75.2338096,38.4637468,0 -75.233867,38.464362,0 -75.23403039999999,38.466289,0 -75.23427599999999,38.468976,0 -75.2343006,38.469248,0 -75.2345461,38.4719572,0 -75.2347843,38.4746144,0 -75.23509180000001,38.477991,0 -75.23521049999999,38.4792991,0 -75.23527369999999,38.4799954,0 -75.2356188,38.4838483,0 -75.23572900000001,38.485037,0 -75.2358617,38.4865693,0 -75.236013,38.488316,0 -75.2361094,38.4893116,0 -75.236198,38.490392,0 -75.23634560000001,38.4920562,0 -75.2365935,38.4947909,0 -75.23683200000001,38.497459,0 -75.2371249,38.5007298,0 -75.23712980000001,38.5008317,0 -75.2371653,38.5011889,0 -75.23718959999999,38.5014772,0 -75.237241,38.502055,0 -75.2372939,38.5026249,0 -75.2376112,38.5061922,0 -75.2377379,38.5076184,0 -75.237905,38.5094987,0 -75.2380778,38.511443,0 -75.238105,38.5117497,0 -75.2381467,38.5122068,0 -75.238193,38.512727,0 -75.23821390000001,38.5129738,0 -75.23827300000001,38.513645,0 -75.238298,38.513869,0 -75.2383315,38.5141452,0 -75.2383741,38.514398,0 -75.2384734,38.5148217,0 -75.23851449999999,38.5149713,0 -75.2385735,38.5151711,0 -75.2386001,38.5152537,0 -75.23870340000001,38.5155368,0 -75.2387659,38.5156934,0 -75.2388418,38.5158647,0 -75.2389314,38.516056,0 -75.2390331,38.5162567,0 -75.2391327,38.5164431,0 -75.23924030000001,38.5166255,0 -75.2394003,38.5168788,0 -75.23946359999999,38.5169755,0 -75.23952079999999,38.5170567,0 -75.23963569999999,38.5172173,0 -75.2398839,38.5175646,0 -75.2400765,38.517834,0 -75.24088450000001,38.5189612,0 -75.2419002,38.5203782,0 -75.2421731,38.5207589,0 -75.2424027,38.5210961,0 -75.24330500000001,38.52235,0 -75.2444991,38.5240326,0 -75.244955,38.524675,0 -75.24549450000001,38.5254246,0 -75.24610319999999,38.5262752,0 -75.24633900000001,38.526582,0 -75.2474734,38.528188,0 -75.2490511,38.5304048,0 -75.24917809999999,38.5305805,0 -75.249242,38.5306748,0 -75.2494442,38.5309497,0 -75.249797,38.53146,0 -75.2508807,38.5329746,0 -75.2525746,38.5353426,0 -75.2532523,38.5362892,0 -75.2541633,38.5375618,0 -75.25502899999999,38.538777,0 -75.255512,38.539453,0 -75.25594649999999,38.5400535,0 -75.256204,38.540421,0 -75.25670409999999,38.5411201,0 -75.25698300000001,38.54151,0 -75.2570332,38.5415766,0 -75.2572038,38.5418187,0 -75.25764959999999,38.5424063,0 -75.257757,38.542544,0 -75.25795960000001,38.5427878,0 -75.2586694,38.5436088,0 -75.2591979,38.5442186,0 -75.2602203,38.5454024,0 -75.2608903,38.5461871,0 -75.2620043,38.5474825,0 -75.2629361,38.5485522,0 -75.26386050000001,38.5496253,0 -75.26573740000001,38.5517916,0 -75.2672719,38.553566,0 -75.26823090000001,38.5546758,0 -75.2689476,38.5555065,0 -75.271108,38.558005,0 -75.27181760000001,38.5588254,0 -75.2728905,38.5600654,0 -75.27381629999999,38.5611409,0 -75.274169,38.561545,0 -75.27450899999999,38.561936,0 -75.2746719,38.5621213,0 -75.27527929999999,38.5628284,0 -75.27537649999999,38.5629415,0 -75.2759367,38.5635894,0 -75.2761812,38.5638709,0 -75.2779676,38.5659357,0 -75.27821900000001,38.5662251,0 -75.2784185,38.5664548,0 -75.2785643,38.5666227,0 -75.2787769,38.5668701,0 -75.28006499999999,38.568369,0 -75.2812077,38.5696843,0 -75.281891,38.570467,0 -75.28214319999999,38.57076,0 -75.2823058,38.5709391,0 -75.28318489999999,38.5719679,0 -75.28331420000001,38.5721301,0 -75.2850779,38.5741614,0 -75.285156,38.5742605,0 -75.2857118,38.5748981,0 -75.2857901,38.574984,0 -75.28587640000001,38.5750794,0 -75.28605279999999,38.5752953,0 -75.2864118,38.5757115,0 -75.2875346,38.5770128,0 -75.28771329999999,38.57722,0 -75.2883839,38.5780001,0 -75.2892966,38.5790557,0 -75.2895261,38.5793179,0 -75.2901257,38.5800111,0 -75.2908736,38.5808815,0 -75.29139600000001,38.581485,0 -75.29148739999999,38.5815903,0 -75.29178109999999,38.5819317,0 -75.2921073,38.5823101,0 -75.2921812,38.5823959,0 -75.2923524,38.5825908,0 -75.292552,38.582818,0 -75.2926226,38.582902,0 -75.292877,38.583196,0 -75.293205,38.5835771,0 -75.2934025,38.5838066,0 -75.2935355,38.5839611,0 -75.29366659999999,38.5841119,0 -75.29380430000001,38.5842716,0 -75.2938317,38.5842993,0 -75.2941575,38.5846836,0 -75.2943356,38.5848872,0 -75.29441319999999,38.5849758,0 -75.2947538,38.5853474,0 -75.29480700000001,38.5854041,0 -75.2949182,38.5855092,0 -75.29502859999999,38.5856082,0 -75.29531179999999,38.5858634,0 -75.29545880000001,38.5859866,0 -75.2956434,38.5861341,0 -75.295815,38.5862642,0 -75.29624699999999,38.5865664,0 -75.2963503,38.586632,0 -75.296674,38.5868375,0 -75.2970782,38.5870618,0 -75.2979369,38.5875246,0 -75.2981072,38.5876151,0 -75.2988433,38.5880061,0 -75.2998982,38.58857,0 -75.2999248,38.5885842,0 -75.3003324,38.5888006,0 -75.3022325,38.5898092,0 -75.30266450000001,38.5900494,0 -75.3031253,38.590296,0 -75.30350610000001,38.5904964,0 -75.3037968,38.5906495,0 -75.3039263,38.5907176,0 -75.3046732,38.5911198,0 -75.30487220000001,38.5912263,0 -75.3052053,38.5914055,0 -75.30547420000001,38.5915482,0 -75.30573149999999,38.5916848,0 -75.3077562,38.592776,0 -75.3086187,38.5932346,0 -75.31036709999999,38.5941657,0 -75.3105242,38.5942506,0 -75.3115803,38.5948091,0 -75.31218389999999,38.5951373,0 -75.31231099999999,38.595207,0 -75.3126774,38.5954037,0 -75.3129864,38.59557,0 -75.31339149999999,38.5957876,0 -75.3137445,38.5959877,0 -75.3140298,38.5961595,0 -75.3143792,38.5963953,0 -75.3146665,38.5966001,0 -75.3149658,38.5968362,0 -75.31523730000001,38.5970667,0 -75.3154492,38.5972605,0 -75.3157574,38.5975712,0 -75.3162569,38.5980983,0 -75.3167646,38.5986342,0 -75.31688389999999,38.5987654,0 -75.31694210000001,38.5988274,0 -75.3172497,38.5991377,0 -75.317499,38.5994237,0 -75.3186243,38.6006219,0 -75.3186808,38.600682,0 -75.31888379999999,38.6008983,0 -75.3190766,38.6011017,0 -75.320925,38.603052,0 -75.320977,38.603108,0 -75.3228154,38.605094,0 -75.3285501,38.611196,0 -75.331429,38.6142583,0 -75.333556,38.61652,0 -75.3347534,38.6177966,0 -75.33526759999999,38.6183448,0 -75.3354689,38.6185585,0 -75.33745279999999,38.6206648,0 -75.33943050000001,38.6227674,0 -75.3422162,38.6257258,0 -75.344572,38.6282369,0 -75.3450378,38.6287186,0 -75.34647150000001,38.630242,0 -75.3476557,38.6315088,0 -75.34863199999999,38.6325448,0 -75.3493922,38.6333565,0 -75.34988540000001,38.6338781,0 -75.3504738,38.6345021,0 -75.3510947,38.6351629,0 -75.351359,38.6354414,0 -75.3525442,38.6367042,0 -75.3532799,38.6374855,0 -75.3550908,38.6394122,0 -75.3572502,38.6417024,0 -75.35796620000001,38.6424645,0 -75.3593652,38.6439474,0 -75.35944499999999,38.6440333,0 -75.3607509,38.6454222,0 -75.3622384,38.6470042,0 -75.3628464,38.647645,0 -75.36490209999999,38.6498315,0 -75.3661706,38.651181,0 -75.36656809999999,38.651624,0 -75.3667509,38.6518111,0 -75.3670604,38.6521257,0 -75.36779869999999,38.6529152,0 -75.3693212,38.6545119,0 -75.36989,38.65515,0 -75.37067999999999,38.655929,0 -75.3713173,38.6565937,0 -75.3740449,38.6594016,0 -75.37420299999999,38.6595654,0 -75.3754789,38.660887,0 -75.37663430000001,38.6620782,0 -75.37687080000001,38.6623221,0 -75.3779308,38.663415,0 -75.37839099999999,38.6638855,0 -75.37845919999999,38.663957,0 -75.37866959999999,38.6641779,0 -75.3789999,38.6645142,0 -75.37963999999999,38.66518,0 -75.380118,38.665674,0 -75.380438,38.666005,0 -75.38153130000001,38.6671337,0 -75.38257299999999,38.668209,0 -75.382863,38.668509,0 -75.38419639999999,38.6698852,0 -75.3844512,38.6701481,0 -75.3850072,38.670722,0 -75.3854609,38.6711902,0 -75.3856261,38.6713659,0 -75.38572600000001,38.6714689,0 -75.3906696,38.6765676,0 -75.3924574,38.6784188,0 -75.3930642,38.679037,0 -75.39378689999999,38.6797857,0 -75.39391809999999,38.6799268,0 -75.394139,38.6801475,0 -75.3944583,38.6804804,0 -75.394627,38.6806562,0 -75.3947864,38.6808199,0 -75.3950205,38.6810641,0 -75.3951119,38.6811669,0 -75.3951971,38.6812686,0 -75.3952973,38.6813945,0 -75.3954653,38.6816173,0 -75.3955888,38.6818044,0 -75.3956795,38.6819562,0 -75.3956948,38.6819818,0 -75.39575309999999,38.6820855,0 -75.3959459,38.6824895,0 -75.39603529999999,38.6827224,0 -75.39620619999999,38.6833094,0 -75.3963018,38.683629,0 -75.39648510000001,38.6842688,0 -75.3966085,38.6846995,0 -75.39670820000001,38.6850474,0 -75.3969946,38.6860547,0 -75.39715440000001,38.6866158,0 -75.3972019,38.6868017,0 -75.3973534,38.6873108,0 -75.3975583,38.6880162,0 -75.39773649999999,38.6886372,0 -75.39782169999999,38.6889356,0 -75.3981084,38.68994,0 -75.3982398,38.690375,0 -75.398312,38.6906356,0 -75.39848379999999,38.691232,0 -75.3985686,38.6915202,0 -75.39866000000001,38.6918192,0 -75.39869710000001,38.6919697,0 -75.3987765,38.6922451,0 -75.3988633,38.692546,0 -75.39896,38.692881,0 -75.3990165,38.6930881,0 -75.3991146,38.6934475,0 -75.3992793,38.6939962,0 -75.39937930000001,38.6943292,0 -75.3994608,38.6946008,0 -75.39949679999999,38.6947361,0 -75.39957510000001,38.6950212,0 -75.399719,38.695545,0 -75.3997548,38.6956517,0 -75.39976350000001,38.6956778,0 -75.3998639,38.6960181,0 -75.3999367,38.6962912,0 -75.4000302,38.6966154,0 -75.4001897,38.6971688,0 -75.4002081,38.6972351,0 -75.4002303,38.6973143,0 -75.4002885,38.6975213,0 -75.4003259,38.6976543,0 -75.40043439999999,38.6980405,0 -75.4005429,38.6984148,0 -75.40055510000001,38.6984579,0 -75.4005848,38.6985307,0 -75.4006577,38.6988197,0 -75.4007943,38.699297,0 -75.40088160000001,38.699596,0 -75.4009756,38.6999251,0 -75.4010129,38.7000532,0 -75.4013243,38.7011258,0 -75.4014394,38.7015574,0 -75.40152310000001,38.701844,0 -75.4016316,38.7022152,0 -75.4019859,38.7034437,0 -75.4020878,38.7038015,0 -75.4022001,38.7042003,0 -75.40234030000001,38.7046849,0 -75.4024551,38.7050694,0 -75.4025893,38.7054484,0 -75.4027809,38.705919,0 -75.4028577,38.7060874,0 -75.40312590000001,38.7067118,0 -75.4032584,38.7070076,0 -75.40361780000001,38.7078338,0 -75.4040363,38.708792,0 -75.4044169,38.7096588,0 -75.4048277,38.7106044,0 -75.4050634,38.7111368,0 -75.405085,38.7111855,0 -75.4053004,38.7116795,0 -75.40547460000001,38.7120789,0 -75.40558710000001,38.712337,0 -75.40625230000001,38.7138694,0 -75.40677599999999,38.7150753,0 -75.4069763,38.7155196,0 -75.4073142,38.7162829,0 -75.4074754,38.716614,0 -75.407639,38.716919,0 -75.4111166,38.7226796,0 -75.41183100000001,38.723863,0 -75.4124099,38.7248035,0 -75.4125552,38.7250324,0 -75.4127793,38.7253855,0 -75.41321569999999,38.7259577,0 -75.4141063,38.7270776,0 -75.4148356,38.7279738,0 -75.4157699,38.7291419,0 -75.41666240000001,38.730256,0 -75.4172974,38.7310409,0 -75.4181325,38.7320786,0 -75.4187945,38.7329121,0 -75.4195916,38.7339024,0 -75.4199168,38.734296,0 -75.42034870000001,38.7348439,0 -75.42079750000001,38.7354016,0 -75.421093,38.7357688,0 -75.4213293,38.7360632,0 -75.4217202,38.73655,0 -75.4233365,38.7385631,0 -75.4235206,38.7387924,0 -75.4239875,38.7393739,0 -75.4241852,38.7396184,0 -75.4243414,38.7398116,0 -75.42615120000001,38.7420617,0 -75.4267387,38.7427997,0 -75.42721210000001,38.7433756,0 -75.4288885,38.7454671,0 -75.42945810000001,38.7461759,0 -75.42979699999999,38.7465946,0 -75.4300375,38.7468917,0 -75.4302313,38.7471312,0 -75.4305523,38.7475277,0 -75.43061299999999,38.7476049,0 -75.4311589,38.7482983,0 -75.4322308,38.7496135,0 -75.4325151,38.7499693,0 -75.43288149999999,38.7504161,0 -75.4330738,38.7506718,0 -75.43361710000001,38.7513279,0 -75.43406299999999,38.751875,0 -75.43476819999999,38.7527581,0 -75.43517,38.7532747,0 -75.4354999,38.753646,0 -75.4360473,38.7543209,0 -75.4370813,38.7556402,0 -75.4373393,38.7559897,0 -75.4377102,38.7566628,0 -75.4380144,38.7575204,0 -75.43809899999999,38.757987,0 -75.4381413,38.7586051,0 -75.43814759999999,38.759324,0 -75.438153,38.760925,0 -75.43817079999999,38.7617065,0 -75.4381686,38.7620481,0 -75.438163,38.762913,0 -75.43819360000001,38.7641577,0 -75.4382198,38.7673535,0 -75.43822900000001,38.768167,0 -75.43823930000001,38.7692973,0 -75.4382513,38.7706169,0 -75.438247,38.77257,0 -75.4382636,38.7738261,0 -75.4383055,38.7769949,0 -75.4383445,38.7790689,0 -75.43833720000001,38.7801599,0 -75.43834560000001,38.7821637,0 -75.43836159999999,38.7844295,0 -75.438382,38.785631,0 -75.4384074,38.7875744,0 -75.438412,38.7882622,0 -75.4384154,38.7886343,0 -75.4384187,38.7888809,0 -75.4384889,38.7958415,0 -75.43848300000001,38.796872,0 -75.43848800000001,38.797225,0 -75.438518,38.799637,0 -75.4385474,38.8012909,0 -75.4385525,38.802141,0 -75.43855379999999,38.8023521,0 -75.4385556,38.8027007,0 -75.4385624,38.8040077,0 -75.4385734,38.8050318,0 -75.438576,38.805272,0 -75.4385814,38.8056932,0 -75.43858640000001,38.8060552,0 -75.4385855,38.8067086,0 -75.4385867,38.8067718,0 -75.4385978,38.8070771,0 -75.4386465,38.8122418,0 -75.43865599999999,38.8136867,0 -75.4386717,38.8150072,0 -75.4386906,38.8172093,0 -75.438717,38.8194492,0 -75.438728,38.8205647,0 -75.43874479999999,38.8218837,0 -75.4387687,38.823928,0 -75.4387832,38.8258948,0 -75.43879,38.826912,0 -75.4387957,38.8272555,0 -75.4388007,38.8281248,0 -75.438821,38.830646,0 -75.4388288,38.830951,0 -75.4388452,38.8323318,0 -75.43886500000001,38.834438,0 -75.438866,38.834524,0 -75.4388678,38.8348532,0 -75.4388745,38.8360833,0 -75.4388847,38.8370092,0 -75.43889969999999,38.8389748,0 -75.43891189999999,38.8400166,0 -75.4389279,38.8417332,0 -75.4389472,38.8425945,0 -75.4389568,38.8441064,0 -75.43897870000001,38.8461095,0 -75.43899500000001,38.8476902,0 -75.4390056,38.848955,0 -75.43901289999999,38.8507076,0 -75.4390353,38.8522483,0 -75.4390521,38.8545612,0 -75.43907129999999,38.8561881,0 -75.4390741,38.8564936,0 -75.4390995,38.8592797,0 -75.4391215,38.8616936,0 -75.4391514,38.8649868,0 -75.4391747,38.8673243,0 -75.439193,38.8689772,0 -75.4391912,38.8690764,0 -75.4391923,38.869276,0 -75.43919459999999,38.8695428,0 -75.4392182,38.87147,0 -75.4392368,38.8731006,0 -75.4392496,38.8746086,0 -75.43927549999999,38.8768225,0 -75.4392807,38.8774474,0 -75.43930810000001,38.8799239,0 -75.43931069999999,38.8802039,0 -75.4393187,38.8812311,0 -75.4393338,38.883205,0 -75.439329,38.884177,0 -75.43933629999999,38.8846124,0 -75.43933869999999,38.8847568,0 -75.439345,38.88513,0 -75.439348,38.885335,0 -75.43936770000001,38.8859811,0 -75.4393778,38.8872913,0 -75.43938420000001,38.88813,0 -75.4394003,38.8896631,0 -75.4394068,38.8906466,0 -75.43943059999999,38.892863,0 -75.4394437,38.8942006,0 -75.4394446,38.8946704,0 -75.43944689999999,38.8948668,0 -75.4394582,38.8958538,0 -75.4394717,38.8973029,0 -75.4394705,38.8974989,0 -75.43947799999999,38.899175,0 -75.4394889,38.8994892,0 -75.43950100000001,38.8998361,0 -75.4395023,38.900225,0 -75.4395078,38.9009138,0 -75.4395201,38.9013611,0 -75.43952280000001,38.9014591,0 -75.4395322,38.9016392,0 -75.4395533,38.9018593,0 -75.439581,38.9020232,0 -75.4396191,38.9022384,0 -75.4396835,38.9025525,0 -75.4397409,38.9027667,0 -75.4398104,38.9030083,0 -75.4399045,38.9032853,0 -75.4399497,38.9034098,0 -75.44004959999999,38.9036482,0 -75.4401235,38.9038263,0 -75.4402032,38.9040026,0 -75.44047860000001,38.9046152,0 -75.4407258,38.9051773,0 -75.44122640000001,38.9062948,0 -75.44159999999999,38.9071365,0 -75.4425241,38.9092088,0 -75.44290030000001,38.9100532,0 -75.4431385,38.9105885,0 -75.44335340000001,38.9110712,0 -75.44342690000001,38.9112553,0 -75.4434957,38.9114382,0 -75.44357189999999,38.9116976,0 -75.4436245,38.911935,0 -75.44366599999999,38.9121463,0 -75.44369810000001,38.9123649,0 -75.4437078,38.9125752,0 -75.4437059,38.9127746,0 -75.44370259999999,38.9130223,0 -75.4436785,38.9132906,0 -75.44362649999999,38.9136583,0 -75.4435735,38.9138789,0 -75.4435278,38.9140269,0 -75.4434854,38.9141375,0 -75.4433705,38.9144475,0 -75.44318579999999,38.914807,0 -75.44305420000001,38.9150316,0 -75.44296850000001,38.9151573,0 -75.44289209999999,38.9152678,0 -75.4427013,38.9155184,0 -75.4424915,38.9157935,0 -75.4423628,38.9159476,0 -75.44227600000001,38.9160516,0 -75.44056740000001,38.918098,0 -75.440066,38.9186986,0 -75.439874,38.9189217,0 -75.439216,38.9196864,0 -75.4391736,38.9197368,0 -75.4385283,38.9205093,0 -75.43813489999999,38.9209755,0 -75.4372941,38.9219731,0 -75.43693140000001,38.9224093,0 -75.4364404,38.9229992,0 -75.4355114,38.924101,0 -75.43545090000001,38.9241762,0 -75.434355,38.9255399,0 -75.4336375,38.9264776,0 -75.4333314,38.926887,0 -75.43314669999999,38.927134,0 -75.4330865,38.9272186,0 -75.43274409999999,38.9276998,0 -75.43257010000001,38.9279433,0 -75.43222729999999,38.9284262,0 -75.4320566,38.9286802,0 -75.4315235,38.9295264,0 -75.43144409999999,38.9296424,0 -75.4311519,38.9301719,0 -75.4310649,38.9303295,0 -75.430976,38.9304905,0 -75.4309003,38.9306505,0 -75.4307396,38.9309902,0 -75.4306721,38.9311502,0 -75.43050479999999,38.9315471,0 -75.4304435,38.9316925,0 -75.4303651,38.9319194,0 -75.4302821,38.9321595,0 -75.4301449,38.9326175,0 -75.42994880000001,38.9332715,0 -75.42940299999999,38.9350974,0 -75.4293914,38.9351346,0 -75.42929820000001,38.9354342,0 -75.4292586,38.9355725,0 -75.4292123,38.935705,0 -75.4291418,38.9358592,0 -75.4290163,38.936104,0 -75.4289082,38.9362837,0 -75.42880940000001,38.936423,0 -75.4286852,38.9365792,0 -75.4285048,38.9367649,0 -75.4283002,38.9369722,0 -75.4280157,38.9372527,0 -75.4278541,38.9374063,0 -75.4277147,38.9375497,0 -75.4275724,38.9377131,0 -75.4274413,38.9378852,0 -75.4273613,38.9380172,0 -75.42728870000001,38.9381623,0 -75.4272326,38.938311,0 -75.4271991,38.9384205,0 -75.4271731,38.9385416,0 -75.4271514,38.9386902,0 -75.4271445,38.9388418,0 -75.4271555,38.9390112,0 -75.4271856,38.9391839,0 -75.4272521,38.939473,0 -75.42745379999999,38.9403155,0 -75.4274923,38.9405138,0 -75.4275116,38.9406706,0 -75.4275104,38.940865,0 -75.4274944,38.9410246,0 -75.427312,38.94205,0 
				</coordinates>
			</LineString>
		<atom:link rel="app" href="https://www.google.com/earth/about/versions/#earth-pro" title="Google Earth Pro 7.3.6.10201"></atom:link>
	</Placemark>
</Document>
</kml>
