<?xml version="1.0" encoding="UTF-8"?>
<kml xmlns="http://www.opengis.net/kml/2.2" xmlns:gx="http://www.google.com/kml/ext/2.2" xmlns:kml="http://www.opengis.net/kml/2.2" xmlns:atom="http://www.w3.org/2005/Atom">
<Document>
	<name>US.19A.kml</name>
	<Placemark>
		<name>US.19A</name>
		
		<LineString>
			<coordinates>
				-82.63852848449258,27.77754937300855,0 -82.64162302916009,27.77757148402191,0 -82.64214087879067,27.77759258939587,0 -82.64241418135123,27.77760095805426,0 -82.64338580655601,27.77757074435702,0 -82.64395515335919,27.77756924246052,0 -82.64623568994995,27.77756413099528,0 -82.64905468139608,27.77756224640541,0 -82.65486266605774,27.77751405606455,0 -82.65753987268765,27.77748062386357,0 -82.66311007402832,27.77747675909598,0 -82.66448629229828,27.77748525157847,0 -82.66586326703566,27.77745852035465,0 -82.66724913460588,27.77746692910795,0 -82.66858042924048,27.77744705822631,0 -82.67263767076105,27.77739575955385,0 -82.6753135328896,27.77737851576991,0 -82.67685800930231,27.77736711230324,0 -82.68137672912351,27.77735302978838,0 -82.68380695319028,27.77733704504848,0 -82.68866824807394,27.77732822210962,0 -82.69150898487329,27.77733043827084,0 -82.69707180271796,27.77729403652186,0 -82.70123122267746,27.77728304550966,0 -82.70804667835598,27.77722804605437,0 -82.71419576036421,27.77726241184632,0 -82.7142026450705,27.77854215544634,0 -82.7142379997444,27.78086454912943,0 -82.71705881463224,27.78315159594797,0 -82.71801044933288,27.78394829924293,0 -82.7250727787964,27.78965970919088,0 -82.72788695728339,27.79204323795618,0 -82.73502098618965,27.79772126134345,0 -82.73580984519501,27.79826717498618,0 -82.73971648278491,27.80059556667233,0 -82.74583409290207,27.8042437027523,0 -82.75164607067688,27.80768935451004,0 -82.75259905221748,27.80828846919077,0 -82.75277952948174,27.80842688007619,0 -82.75292386911167,27.80855464884529,0 -82.75302004899348,27.8087144587787,0 -82.75311309175572,27.80885669316676,0 -82.75326345327738,27.80905762710919,0 -82.75345683401875,27.80924970547303,0 -82.75365377512401,27.8094387874382,0 -82.75405754488773,27.80968490394313,0 -82.75490530537742,27.81020014410515,0 -82.75699694649616,27.81140830351822,0 -82.757365607214,27.81161463083205,0 -82.75778707779499,27.81181174309754,0 -82.7582956877319,27.81200889249122,0 -82.75878544285163,27.81218079903765,0 -82.75976447100814,27.81243763658389,0 -82.76074268787386,27.81262166011273,0 -82.76240259318028,27.8128626799757,0 -82.76378963048609,27.813074332388,0 -82.7685149928511,27.81373883159335,0 -82.7696714782919,27.81392657231093,0 -82.77019290388574,27.81394697671449,0 -82.77133294426403,27.81396088888141,0 -82.77422323971294,27.81400880599101,0 -82.77678030617217,27.81401158943065,0 -82.77878031779939,27.81401180242457,0 -82.78035051381185,27.81401169989389,0 -82.78133707961489,27.81403291286269,0 -82.78209957843303,27.81409672150279,0 -82.78277219072001,27.81420341277436,0 -82.78342883318285,27.81431711678381,0 -82.78429477305052,27.81457585192873,0 -82.78498648805231,27.81491823523398,0 -82.78556096404752,27.81528134163988,0 -82.78600708731086,27.81561442810852,0 -82.78635951431315,27.8160311616522,0 -82.7865822094969,27.81641523432445,0 -82.78682799103842,27.81694371221311,0 -82.78690975817929,27.81733679267935,0 -82.78695633329274,27.81792602088078,0 -82.78693246563427,27.8197844611327,0 -82.78694363032487,27.82179291376598,0 -82.78695308283679,27.8268748570182,0 -82.78695390391752,27.83070294737352,0 -82.78696940246682,27.8341615082,0 -82.78698445679734,27.83616179147918,0 -82.78698097580221,27.83959423854611,0 -82.78696916787355,27.84059805428168,0 -82.78700235877072,27.84330074586309,0 -82.78703301935342,27.84580118189858,0 -82.78705830938783,27.85117366780651,0 -82.78705249122899,27.85297377690965,0 -82.78695315743983,27.86171493352955,0 -82.78692918937065,27.86401714293123,0 -82.78702340562563,27.87895180082863,0 -82.78702395678552,27.8806388145545,0 -82.78705514495606,27.89408709958253,0 -82.78705435923443,27.89866351434056,0 -82.78710793879888,27.90634539841891,0 -82.78708337668952,27.90714902574097,0 -82.78719465687992,27.90780954331234,0 -82.78735914068531,27.90847925281123,0 -82.78755033480577,27.90913289991133,0 -82.78768444269301,27.90972116185139,0 -82.78772518174878,27.91036391948931,0 -82.7877222807809,27.91110278211752,0 -82.7877301068057,27.91202703681589,0 -82.78769862726753,27.91644377192197,0 -82.78763488796913,27.9175741551629,0 -82.78761218564803,27.92040417175708,0 -82.78764976019886,27.9224894635717,0 -82.78745903114613,27.93344884810793,0 -82.78733173414972,27.94045873714319,0 -82.78742245808525,27.94706015800291,0 -82.7874376355994,27.95000337968373,0 -82.78752225451804,27.95694512306757,0 -82.78758148276772,27.96087769493837,0 -82.79178713316836,27.96093216318597,0 -82.79236550126416,27.96095061443105,0 -82.79278651620596,27.96104525359173,0 -82.79309389563873,27.96122535239715,0 -82.79340687693151,27.96153769724499,0 -82.79361299081863,27.96176598985896,0 -82.79391350591432,27.96194481638515,0 -82.79432743521048,27.96199921317757,0 -82.79493909608289,27.96199933834143,0 -82.79545274922776,27.96200803241337,0 -82.79583272351593,27.9620077487495,0 -82.79586155392433,27.96299321364866,0 -82.79586546510204,27.96328766316984,0 -82.79589664680448,27.96767783740977,0 -82.79589586102047,27.96989070588337,0 -82.79592123552233,27.9756369894973,0 -82.79595612365732,27.97877346003799,0 -82.79597003145733,27.98448227327141,0 -82.79594225764836,27.98702318728575,0 -82.79579338126329,27.98834022072614,0 -82.79564346250815,27.98970758986744,0 -82.79554814732018,27.99061004809386,0 -82.7954710854525,27.99147343796068,0 -82.79535554910102,27.99211671747146,0 -82.79509447935453,27.99298438127661,0 -82.79481746272975,27.99390430701838,0 -82.79470205601612,27.99425249631639,0 -82.79458319768457,27.99492086046151,0 -82.79454079306221,27.99553480373893,0 -82.79449239836146,27.99641303050747,0 -82.79443501449765,27.99709398918415,0 -82.79434197422727,27.99751031612924,0 -82.79424364787329,27.99779859648346,0 -82.79338692926247,28.00052084801413,0 -82.79321654134131,28.00111340112947,0 -82.79307385772101,28.00166496167351,0 -82.79283473194785,28.00262907681356,0 -82.79274278857787,28.00305920283241,0 -82.79219525649943,28.00524072267792,0 -82.79197885903524,28.00623255941861,0 -82.79202563579851,28.00689611804241,0 -82.7921370688787,28.00810907189971,0 -82.79217691806367,28.00855596347939,0 -82.792171540377,28.00867819641615,0 -82.79215019597787,28.00877456691716,0 -82.79213149685997,28.00889418040503,0 -82.79204624145164,28.00912655023509,0 -82.79179274763847,28.0101242385335,0 -82.79143906763437,28.0115151408039,0 -82.79129135091765,28.01203393585636,0 -82.79119204869684,28.01219567950017,0 -82.7910953066832,28.01226085144807,0 -82.7909860449211,28.01229432014752,0 -82.79084376651467,28.01228962721846,0 -82.79061256880708,28.01226022847023,0 -82.79028735734259,28.0121882199974,0 -82.78986389064983,28.01210834122254,0 -82.78978546266127,28.01211376482987,0 -82.78974818792292,28.01216850440384,0 -82.78975025510623,28.01262028583952,0 -82.78976048954891,28.01276619870614,0 -82.78973833269677,28.01587711980696,0 -82.78977896619868,28.0174151870142,0 -82.78981533094446,28.01845504787484,0 -82.78978176540083,28.01888013289916,0 -82.78975640322105,28.01938998935879,0 -82.78965240485464,28.02005318641425,0 -82.78956594834125,28.02058668209682,0 -82.78954855515975,28.02091441583115,0 -82.78950538023237,28.02126505665962,0 -82.78951395354524,28.02154711616147,0 -82.7895566034646,28.02224804323337,0 -82.78971898496552,28.02377747803742,0 -82.78982731025393,28.02511272427961,0 -82.78987305107371,28.02574453201336,0 -82.78986894581489,28.02605536274046,0 -82.78983989156478,28.02638103647559,0 -82.78974441731586,28.02678728990994,0 -82.78957410666141,28.02744203113041,0 -82.78942884701205,28.02800531562182,0 -82.78928210447309,28.02872939858436,0 -82.78918005649481,28.02954434717424,0 -82.7890208188019,28.03080978134948,0 -82.78891301137904,28.03139028393389,0 -82.78883352676486,28.03179540231865,0 -82.78866446610461,28.03218721868057,0 -82.78844909537661,28.03256156161823,0 -82.78818650073082,28.03294075413979,0 -82.78786398872275,28.03330432351686,0 -82.78752949780574,28.03359939715801,0 -82.78705744772472,28.03397372054366,0 -82.78651330354332,28.03442218619233,0 -82.78601041566026,28.03486062843851,0 -82.78577091869451,28.03511412594302,0 -82.78556437587143,28.03540114967842,0 -82.78522845178934,28.03601141502802,0 -82.78497313969721,28.03657421830134,0 -82.78446923828693,28.03785965261584,0 -82.78430117491227,28.03829237471275,0 -82.78360975064622,28.0402678622131,0 -82.78288189880726,28.04225455252363,0 -82.78228064664434,28.04407838765119,0 -82.78192518439614,28.04507046081446,0 -82.7810725690821,28.04732381539142,0 -82.78074671244866,28.04821841989106,0 -82.78005411747303,28.0500428415132,0 -82.77907067699803,28.05238145734828,0 -82.77867488261494,28.05329209911641,0 -82.77840248789104,28.0537184294427,0 -82.77816787504038,28.05402269226233,0 -82.77782838507653,28.05439822775937,0 -82.77742409379131,28.05482554427185,0 -82.77682250961189,28.05533970136379,0 -82.77636841172209,28.05573192513711,0 -82.77575089343486,28.05628187967569,0 -82.77529040881494,28.05678156722488,0 -82.77485832402473,28.05728747717958,0 -82.77451459765358,28.05774359441451,0 -82.77375020574684,28.05899141640381,0 -82.77296766213313,28.06056606172941,0 -82.77135509128082,28.06374167178502,0 -82.77018133940217,28.06612260162639,0 -82.76914291405136,28.06815913786198,0 -82.76856030609902,28.06950865732808,0 -82.7681194389869,28.07065157332208,0 -82.76759082201066,28.07189328289461,0 -82.76732995877821,28.07257519246753,0 -82.76723149799885,28.07297476914278,0 -82.7671843113806,28.07333663180948,0 -82.76717125426406,28.07374768304242,0 -82.76719857799688,28.07512029452044,0 -82.76721133158981,28.07679484810917,0 -82.7672959337343,28.08220352738586,0 -82.76728524076884,28.08372579119878,0 -82.76729847113774,28.08419980194303,0 -82.76730221473269,28.08477366981889,0 -82.76737589325739,28.08519288090788,0 -82.76756575621306,28.08569157327912,0 -82.7678296258581,28.08616706619003,0 -82.76812568161978,28.08648952698733,0 -82.76856497791135,28.08685459376326,0 -82.76901090665068,28.08707622620178,0 -82.77036232197186,28.08771851164168,0 -82.77135281841696,28.08814071670319,0 -82.77168183192289,28.08832653533636,0 -82.77190132709518,28.08853774864286,0 -82.77209662233264,28.08876132678088,0 -82.77218598796144,28.08890109380593,0 -82.77228026995246,28.08908854422777,0 -82.77236247906258,28.08945820977663,0 -82.77238577364699,28.08997775269528,0 -82.77247488316945,28.09245410223233,0 -82.77254825566635,28.09419859048756,0 -82.77255625806261,28.09518708472078,0 -82.77266653493271,28.09729267561791,0 -82.77268752210999,28.0980499360982,0 -82.77269341830622,28.09872653437747,0 -82.77266124176528,28.09929097889934,0 -82.77256913529723,28.09976272854504,0 -82.77242728162537,28.10041405305754,0 -82.77224276630687,28.10095783248202,0 -82.77215095947403,28.10123832370394,0 -82.77201353621236,28.10155802932038,0 -82.7718507004362,28.10186856199077,0 -82.77161775459523,28.10225228058274,0 -82.77067671548681,28.10367695343486,0 -82.76964216441,28.10523402850477,0 -82.7689733098816,28.10623571445355,0 -82.76864542681184,28.10677334617893,0 -82.76844087230035,28.10724356351026,0 -82.76830717778323,28.1077227260486,0 -82.7682840814649,28.10790686039203,0 -82.76833323553198,28.10831697118392,0 -82.76852167035597,28.10936975783719,0 -82.76869103098444,28.11043346268879,0 -82.76881789925585,28.11138470593369,0 -82.76884266558359,28.11200003784076,0 -82.76876435875026,28.11268170378838,0 -82.76859816835025,28.113176763751,0 -82.76832172740991,28.1137973315471,0 -82.76802481730633,28.11427550122702,0 -82.76756151568055,28.11481062075906,0 -82.76657601487859,28.1158512651497,0 -82.76610516339055,28.11636763182457,0 -82.76354770908853,28.11898319352614,0 -82.76272099059453,28.11988439921883,0 -82.76198143446621,28.12066653385143,0 -82.76182100868691,28.12087191010763,0 -82.76166067954406,28.12112416710293,0 -82.76151183750845,28.12138975464747,0 -82.76138964233654,28.12170913667551,0 -82.76095188958492,28.12265150859462,0 -82.75966102107901,28.12565865530746,0 -82.75939925999192,28.12625173162071,0 -82.75924769391696,28.12671813737036,0 -82.75916825440012,28.12718175636909,0 -82.75910183882075,28.12773173958891,0 -82.75896196995369,28.12911710972,0 -82.75877011187868,28.13113709454673,0 -82.75864708102802,28.13219079647663,0 -82.75852530956655,28.13343586655095,0 -82.75842432668694,28.13405781169653,0 -82.75826628328527,28.13451753200466,0 -82.75801303188467,28.13502199156322,0 -82.75768938611188,28.13564221278094,0 -82.75724197262451,28.13637291921276,0 -82.75688994174038,28.13704926704382,0 -82.75671879806322,28.13744813127515,0 -82.7566460698813,28.1376658213876,0 -82.75659306251536,28.13795742026342,0 -82.7565764330281,28.13826391178488,0 -82.75657292002511,28.13879283806303,0 -82.75657607124843,28.13918774164866,0 -82.75658519719755,28.14136264830537,0 -82.75657742969409,28.14259988448974,0 -82.75658071839359,28.14545549673332,0 -82.75659941453431,28.14613777900574,0 -82.75664658836699,28.14704640416751,0 -82.75672970353837,28.14760304389109,0 -82.75674332511949,28.14892187533043,0 -82.75673795114372,28.14983248093252,0 -82.75675705682508,28.15135575957848,0 -82.75674575112373,28.15210139486906,0 -82.75676678397089,28.15492715138322,0 -82.75677345021288,28.15709619133486,0 -82.75679182959433,28.15883073377067,0 -82.7568332444077,28.16093508349921,0 -82.75687092612233,28.16267450970056,0 -82.75684250018273,28.16378864904679,0 -82.75682567846933,28.16409162675391,0 -82.75681835839282,28.16431300262005,0 -82.7567623104173,28.16460517232484,0 -82.75669130142278,28.16504500776285,0 -82.75659058760314,28.16543208061361,0 -82.75643398856327,28.16590769919906,0 -82.75632948273828,28.16614102625745,0 -82.75618580913954,28.16645233722512,0 -82.75596510622044,28.16691043726489,0 -82.75573138272827,28.16729298104585,0 -82.75540524107922,28.16775416520644,0 -82.75506615256336,28.16818026010782,0 -82.75444093169789,28.16880564422746,0 -82.75369624761689,28.16951628431449,0 -82.75225224719128,28.17085567065005,0 -82.75184322558641,28.17119298122125,0 -82.7499203964416,28.17299986211123,0 -82.74634852785279,28.17634656041401,0 -82.74544925200941,28.17726949203998,0 -82.74482769372995,28.1779022466018,0 -82.7430291552805,28.17981530268268,0 -82.74192491159361,28.18096403521972,0 -82.7406473493205,28.18229152334822,0 -82.74048336171202,28.18234638016157,0 
			</coordinates>
		</LineString>
		<atom:link rel="app" href="https://www.google.com/earth/about/versions/#earth-pro" title="Google Earth Pro 7.3.6.10201"></atom:link>
	</Placemark>
</Document>
</kml>
