<?xml version="1.0" encoding="UTF-8"?>
<kml xmlns="http://www.opengis.net/kml/2.2" xmlns:gx="http://www.google.com/kml/ext/2.2" xmlns:kml="http://www.opengis.net/kml/2.2" xmlns:atom="http://www.w3.org/2005/Atom">
<Document>
	<name>US.17A.kml</name>
	<Placemark>
		<name>US.17A</name>
		<LineString>
			<coordinates>
				-80.85285,32.64089,0 -80.85279,32.64158,0 -80.85272999999999,32.64197,0 -80.85249,32.64268,0 -80.84822,32.65334,0 -80.84645,32.65769,0 -80.84626,32.65825,0 -80.84618,32.65885,0 -80.84614999999999,32.65927,0 -80.84617,32.6597,0 -80.84622,32.66011,0 -80.84641999999999,32.66084,0 -80.84667,32.66141,0 -80.84677000000001,32.6616,0 -80.84702,32.66198,0 -80.84735000000001,32.66241,0 -80.8486,32.6637,0 -80.8588,32.67405,0 -80.85962000000001,32.6749,0 -80.85975999999999,32.67507,0 -80.85996,32.67535,0 -80.86018,32.67572,0 -80.86042,32.67621,0 -80.86064,32.67687,0 -80.86074000000001,32.67741,0 -80.86078000000001,32.6779,0 -80.86072,32.67864,0 -80.86067,32.67892,0 -80.86058,32.67922,0 -80.86042999999999,32.67967,0 -80.86024999999999,32.68005,0 -80.85993000000001,32.68058,0 -80.85966999999999,32.68093,0 -80.85939999999999,32.68124,0 -80.85863999999999,32.68197,0 -80.85113,32.68893,0 -80.8505,32.68959,0 -80.85008000000001,32.69014,0 -80.84971,32.69074,0 -80.84949,32.69115,0 -80.84935,32.69146,0 -80.84907,32.69226,0 -80.84795,32.69579,0 -80.84781,32.6961,0 -80.84756,32.69649,0 -80.84711,32.69701,0 -80.84679,32.6973,0 -80.84632999999999,32.69761,0 -80.84602,32.69779,0 -80.82424,32.70815,0 -80.82328,32.70864,0 -80.803,32.72041,0 -80.75458,32.74765,0 -80.74616,32.75244,0 -80.74405,32.75356,0 -80.74139,32.75503,0 -80.73289,32.75985,0 -80.73014000000001,32.76136,0 -80.71603,32.76924,0 -80.71576,32.76941,0 -80.7153,32.76975,0 -80.71496999999999,32.77006,0 -80.71463,32.77047,0 -80.71442,32.7708,0 -80.71427,32.7711,0 -80.7141,32.77157,0 -80.714,32.77195,0 -80.71396,32.77257,0 -80.71401,32.7731,0 -80.71413,32.77358,0 -80.71431,32.77401,0 -80.71442999999999,32.77423,0 -80.71531,32.77559,0 -80.71769999999999,32.77922,0 -80.72461,32.78983,0 -80.72478,32.79019,0 -80.72485,32.79038,0 -80.72494,32.79092,0 -80.72502,32.79401,0 -80.72503,32.79526,0 -80.72499999999999,32.79575,0 -80.72492,32.79623,0 -80.72483,32.79658,0 -80.72469,32.79699,0 -80.72445,32.79752,0 -80.72375,32.79882,0 -80.72323,32.79963,0 -80.72268,32.8003,0 -80.72247,32.80052,0 -80.72187,32.80107,0 -80.72152,32.80135,0 -80.72109,32.80165,0 -80.72028,32.80213,0 -80.70928000000001,32.808,0 -80.70847999999999,32.80857,0 -80.70807000000001,32.80896,0 -80.70762999999999,32.80947,0 -80.70744000000001,32.80974,0 -80.70706,32.81045,0 -80.6999,32.82937,0 -80.69945,32.83063,0 -80.6972,32.8382,0 -80.69289999999999,32.85227,0 -80.69233,32.85417,0 -80.69216,32.85485,0 -80.69208,32.8554,0 -80.6913,32.869,0 -80.69092000000001,32.87615,0 -80.69094,32.8772,0 -80.69101999999999,32.87802,0 -80.69179,32.88308,0 -80.69197,32.8843,0 -80.69202,32.88478,0 -80.69202,32.88507,0 -80.69198,32.88549,0 -80.69181,32.88607,0 -80.69158,32.88663,0 -80.69150999999999,32.88675,0 -80.69095,32.8875,0 -80.69041,32.88802,0 -80.68974,32.8883,0 -80.68828999999999,32.88895,0 -80.67740999999999,32.8939,0 -80.67641999999999,32.89447,0 -80.67077999999999,32.89786,0 -80.6687,32.89917,0 -80.6682,32.89958,0 -80.66759999999999,32.90013,0 -80.66744,32.90038,0 -80.66735,32.90069,0 -80.66731,32.90099,0 -80.66707,32.9038,0 -80.66701,32.90421,0 -80.6669,32.90453,0 -80.66466,32.90431,0 -80.66432,32.90432,0 -80.66332,32.90447,0 -80.66125,32.90434,0 -80.65912,32.90434,0 -80.65831,32.90431,0 -80.6566,32.90443,0 -80.65367999999999,32.90451,0 -80.65346,32.90454,0 -80.65183,32.90488,0 -80.65161000000001,32.905,0 -80.65147,32.90517,0 -80.65042,32.90707,0 -80.65002,32.90777,0 -80.64987000000001,32.90799,0 -80.64969000000001,32.90818,0 -80.64941,32.90836,0 -80.64919,32.90849,0 -80.64876,32.90867,0 -80.64827,32.90878,0 -80.6476,32.9088,0 -80.64265,32.90854,0 -80.64194000000001,32.90858,0 -80.6414,32.90869,0 -80.64059,32.90893,0 -80.64004,32.90917,0 -80.63947,32.90954,0 -80.63896,32.90999,0 -80.63095,32.91775,0 -80.63048000000001,32.9181,0 -80.62993,32.91843,0 -80.62934,32.91871,0 -80.62876,32.91893,0 -80.62773,32.91921,0 -80.62688,32.91936,0 -80.62629,32.91942,0 -80.62542000000001,32.91946,0 -80.61868,32.91932,0 -80.61801,32.91936,0 -80.61769,32.9194,0 -80.6172,32.9195,0 -80.61624,32.91978,0 -80.61575000000001,32.91999,0 -80.61512999999999,32.92033,0 -80.60845,32.92423,0 -80.60759,32.92462,0 -80.60681,32.92486,0 -80.60625,32.92497,0 -80.60552,32.92505,0 -80.5886,32.92605,0 -80.58776,32.92615,0 -80.58718,32.92626,0 -80.58649,32.92644,0 -80.58575,32.92669,0 -80.58,32.92906,0 -80.57934,32.92928,0 -80.5788,32.92941,0 -80.57843,32.92947,0 -80.57482,32.92997,0 -80.57386,32.93016,0 -80.57248,32.93054,0 -80.57127,32.93098,0 -80.57078,32.93118,0 -80.57034,32.93139,0 -80.56973000000001,32.9317,0 -80.56596999999999,32.93381,0 -80.56498000000001,32.93429,0 -80.5646,32.93445,0 -80.56404000000001,32.93466,0 -80.56331,32.9349,0 -80.56176000000001,32.93537,0 -80.55504999999999,32.93735,0 -80.55446999999999,32.9375,0 -80.55379000000001,32.93765,0 -80.55285000000001,32.93781,0 -80.55189,32.9379,0 -80.55139,32.93792,0 -80.55054,32.93792,0 -80.54392,32.9378,0 -80.54277,32.9378,0 -80.54186,32.93783,0 -80.54089999999999,32.93791,0 -80.53997,32.93803,0 -80.53881,32.93823,0 -80.53823,32.93836,0 -80.53685,32.93873,0 -80.53572,32.93912,0 -80.52979000000001,32.94142,0 -80.52914,32.94162,0 -80.52836000000001,32.94183,0 -80.52719999999999,32.94204,0 -80.50946,32.94466,0 -80.50864,32.94476,0 -80.50785,32.9448,0 -80.50708,32.94478,0 -80.48916,32.94317,0 -80.48878999999999,32.94312,0 -80.48837,32.94302,0 -80.48806999999999,32.94292,0 -80.48757000000001,32.94269,0 -80.48714,32.9424,0 -80.47953,32.93573,0 -80.47891,32.93534,0 -80.47826999999999,32.93501,0 -80.47742,32.9347,0 -80.46005,32.92972,0 -80.44271999999999,32.92463,0 -80.4422,32.92449,0 -80.44165,32.92438,0 -80.44116,32.92431,0 -80.44016999999999,32.92424,0 -80.43911,32.92425,0 -80.41052999999999,32.92613,0 -80.40335,32.92656,0 -80.37621,32.92838,0 -80.37531,32.92848,0 -80.37447,32.92865,0 -80.37345000000001,32.92895,0 -80.36595,32.93132,0 -80.31589,32.94703,0 -80.31511,32.94732,0 -80.31437,32.94768,0 -80.28675,32.96299,0 -80.28658,32.96306,0 -80.28514,32.96381,0 -80.28451,32.96408,0 -80.28404,32.96423,0 -80.28339,32.96439,0 -80.28259,32.96456,0 -80.28214,32.9646,0 -80.27896,32.96469,0 -80.27880999999999,32.96467,0 -80.27718,32.96468,0 -80.27612999999999,32.96471,0 -80.27444,32.96478,0 -80.2743,32.9648,0 -80.26989,32.96492,0 -80.26916,32.96496,0 -80.2679,32.96509,0 -80.26777,32.96508,0 -80.26571,32.96531,0 -80.2629,32.96569,0 -80.26276,32.96573,0 -80.25794999999999,32.96634,0 -80.25748,32.96642,0 -80.2567,32.96662,0 -80.25597,32.96686,0 -80.25525,32.96715,0 -80.25478,32.96738,0 -80.25432000000001,32.96764,0 -80.25388,32.96792,0 -80.25317,32.96845,0 -80.25268,32.96888,0 -80.25199000000001,32.96964,0 -80.25138,32.97051,0 -80.25094,32.97122,0 -80.24908000000001,32.97409,0 -80.24747000000001,32.97651,0 -80.24665,32.97782,0 -80.24661999999999,32.97791,0 -80.24624,32.97849,0 -80.24597,32.97884,0 -80.24575,32.97907,0 -80.24536999999999,32.97938,0 -80.24494,32.97965,0 -80.24454,32.97983,0 -80.24392,32.98001,0 -80.24142000000001,32.98038,0 -80.24056,32.98046,0 -80.23652,32.98047,0 -80.23644,32.98045,0 -80.23533999999999,32.98043,0 -80.23408999999999,32.98046,0 -80.23376,32.9805,0 -80.23144000000001,32.981,0 -80.23059000000001,32.98122,0 -80.23005000000001,32.98143,0 -80.22975,32.98158,0 -80.22929999999999,32.98186,0 -80.22883,32.98223,0 -80.22848,32.9826,0 -80.22817999999999,32.98299,0 -80.22514,32.98721,0 -80.22235000000001,32.99102,0 -80.22201,32.99153,0 -80.21884,32.9959,0 -80.21841999999999,32.99638,0 -80.21803,32.99671,0 -80.21751,32.99705,0 -80.21675999999999,32.9974,0 -80.21348,32.99879,0 -80.20887999999999,33.00068,0 -80.20815,33.00091,0 -80.20757,33.00106,0 -80.20128,33.00234,0 -80.20076,33.00247,0 -80.20014999999999,33.00265,0 -80.19982,33.00276,0 -80.19931,33.00297,0 -80.19844999999999,33.00338,0 -80.19604,33.00467,0 -80.19565,33.00483,0 -80.19525,33.00495,0 -80.19476,33.00504,0 -80.19432999999999,33.00506,0 -80.19379000000001,33.00504,0 -80.18907,33.00449,0 -80.18892,33.00454,0 -80.18883,33.00462,0 -80.18854,33.0052,0 -80.18783000000001,33.00649,0 -80.18765999999999,33.00673,0 -80.18738,33.00704,0 -80.18353,33.01016,0 -80.18186,33.01155,0 -80.18116000000001,33.01221,0 -80.17959999999999,33.01401,0 -80.17909,33.01463,0 -80.17816999999999,33.01584,0 -80.17728,33.01711,0 -80.17683,33.01771,0 -80.17610999999999,33.01851,0 -80.17582,33.01889,0 -80.17489,33.02019,0 -80.17428,33.0212,0 -80.17281,33.02313,0 -80.17094,33.02549,0 -80.17027,33.02641,0 -80.16791000000001,33.02952,0 -80.16733000000001,33.03032,0 -80.16679000000001,33.03087,0 -80.16636,33.03117,0 -80.16284,33.03307,0 -80.16172,33.03365,0 -80.15719,33.03605,0 -80.15640999999999,33.03638,0 -80.15563,33.03664,0 -80.1546,33.03691,0 -80.14854,33.0382,0 -80.1443,33.03907,0 -80.14268,33.03938,0 -80.13746,33.04048,0 -80.13437,33.0411,0 -80.13284,33.04144,0 -80.1142,33.04535,0 -80.11024,33.04621,0 -80.10956,33.04637,0 -80.10899999999999,33.04657,0 -80.10838,33.04682,0 -80.10747000000001,33.04726,0 -80.10677,33.04773,0 -80.10608999999999,33.04824,0 -80.10556,33.04874,0 -80.10442,33.05009,0 -80.08826999999999,33.06987,0 -80.08772,33.07057,0 -80.08723999999999,33.07124,0 -80.08674999999999,33.07212,0 -80.08647000000001,33.07278,0 -80.08414,33.07915,0 -80.08202,33.08519,0 -80.07642,33.10063,0 -80.07581,33.10223,0 -80.06883999999999,33.1215,0 -80.06864,33.12217,0 -80.06835,33.12351,0 -80.06749000000001,33.12774,0 -80.06708999999999,33.12939,0 -80.05880999999999,33.15611,0 -80.05856,33.15682,0 -80.05835,33.15725,0 -80.05797,33.15789,0 -80.05746000000001,33.1586,0 -80.05704,33.15907,0 -80.05659,33.1595,0 -80.05592,33.16004,0 -80.02892,33.1802,0 -80.01893,33.18768,0 -80.01860000000001,33.18795,0 -80.01817,33.18835,0 -80.01788999999999,33.18865,0 -80.01754,33.18906,0 -80.01732,33.18936,0 -80.0155,33.19218,0 -80.01509,33.19285,0 -80.01402,33.19451,0 -80.01312,33.19597,0 -80.01282,33.19638,0 -80.01251000000001,33.19669,0 -80.01215999999999,33.19693,0 -80.01170999999999,33.19718,0 -80.01112000000001,33.19736,0 -80.00998,33.19763,0 -80.00582,33.19856,0 -79.99502,33.20103,0 -79.99231,33.20162,0 -79.99088,33.20197,0 -79.99045,33.20212,0 -79.99012,33.20227,0 -79.98989,33.20231,0 -79.98963999999999,33.2023,0 -79.98905999999999,33.20291,0 -79.98546,33.20621,0 -79.98041000000001,33.21089,0 -79.97935,33.21175,0 -79.96769,33.22026,0 -79.96687,33.22102,0 -79.96648,33.22151,0 -79.96628,33.22181,0 -79.96583,33.22179,0 -79.96544,33.22189,0 -79.96513,33.22208,0 -79.94513999999999,33.23669,0 -79.94235,33.23875,0 -79.94173000000001,33.23932,0 -79.94123999999999,33.23987,0 -79.94099,33.24019,0 -79.94076,33.24052,0 -79.94036,33.24119,0 -79.94006,33.24186,0 -79.93994000000001,33.24219,0 -79.93968,33.24308,0 -79.93680000000001,33.25333,0 -79.93662999999999,33.25384,0 -79.93649000000001,33.25419,0 -79.93631999999999,33.25453,0 -79.93589,33.25526,0 -79.93549,33.25581,0 -79.93509,33.25627,0 -79.93447,33.25687,0 -79.93393,33.25731,0 -79.93326999999999,33.25775,0 -79.92334,33.26365,0 -79.92209,33.26429,0 -79.92117,33.2647,0 -79.92028999999999,33.26504,0 -79.91492,33.26703,0 -79.91392999999999,33.26738,0 -79.91265,33.26787,0 -79.91135,33.26825,0 -79.90997,33.26855,0 -79.9087,33.26873,0 -79.90655,33.26887,0 -79.90304999999999,33.26903,0 -79.90245,33.26908,0 -79.9019,33.26916,0 -79.90106,33.26938,0 -79.90048,33.26959,0 -79.9002,33.26972,0 -79.8995,33.27011,0 -79.89693,33.27178,0 -79.89230999999999,33.27472,0 -79.88656,33.27844,0 -79.88385,33.28016,0 -79.88319,33.28056,0 -79.8823,33.28098,0 -79.88177,33.28118,0 -79.88099,33.28142,0 -79.86488,33.28549,0 -79.86444,33.28559,0 -79.86335,33.28579,0 -79.86223,33.28594,0 -79.86084,33.28605,0 -79.8536,33.28651,0 -79.8516,33.28662,0 -79.79808,33.28996,0 -79.79648,33.29004,0 -79.77724000000001,33.29065,0 -79.77649,33.29065,0 -79.77566,33.29061,0 -79.77421,33.29048,0 -79.77319,33.29034,0 -79.77261,33.29023,0 -79.75252,33.2856,0 -79.7508,33.28524,0 -79.73296000000001,33.28177,0 -79.73206999999999,33.28162,0 -79.73162000000001,33.28157,0 -79.73081999999999,33.28151,0 -79.72987999999999,33.2815,0 -79.72856,33.28158,0 -79.72798,33.28165,0 -79.72725,33.28178,0 -79.69882,33.2871,0 -79.69801,33.28717,0 -79.69747,33.28717,0 -79.6969,33.28711,0 -79.69635,33.287,0 -79.69413,33.28633,0 -79.68268999999999,33.29966,0 -79.68187,33.30058,0 -79.68062,33.30188,0 -79.6794,33.30324,0 -79.67341999999999,33.31019,0 -79.67261000000001,33.3112,0 -79.67147,33.31268,0 -79.67102,33.31322,0 -79.66499,33.32026,0 -79.66445,33.32098,0 -79.66419999999999,33.32139,0 -79.66388000000001,33.322,0 -79.66370000000001,33.32244,0 -79.66346,33.32322,0 -79.66332,33.32393,0 -79.66240000000001,33.33755,0 -79.66222999999999,33.3404,0 -79.66163570481577,33.34757995715438,0 -79.66149029056881,33.34835858193428,0 -79.66132570291005,33.34899249331973,0 -79.66115415092561,33.34943750088219,0 -79.66074510507178,33.35041333126776,0 -79.65949234382369,33.35236747464435,0 -79.65889297740858,33.35330366347029,0 -79.65802894733065,33.35466525780345,0 -79.65562272367004,33.35840560308334,0 -79.65511299426488,33.35905394693937,0 -79.65448666611206,33.35968588466647,0 -79.65374547822466,33.3603324832226,0 -79.65347356353909,33.36054179078154,0 -79.65261,33.35989,0 -79.65206000000001,33.35953,0 -79.63754,33.35192,0 -79.63630000000001,33.35129,0 -79.62746,33.34719,0 -79.62398,33.3455,0 -79.62297,33.34497,0 -79.62228,33.34458,0 -79.62072000000001,33.34362,0 -79.6199,33.34309,0 -79.61263,33.33824,0 -79.60335000000001,33.33145,0 -79.60272999999999,33.33105,0 -79.60241000000001,33.33088,0 -79.60177,33.33063,0 -79.60102999999999,33.33045,0 -79.58701000000001,33.32826,0 -79.57696,33.32663,0 -79.57657,33.32659,0 -79.57601,33.32658,0 -79.57535,33.32665,0 -79.57470000000001,33.32679,0 -79.57407000000001,33.32701,0 -79.57347,33.32732,0 -79.56426999999999,33.33299,0 -79.56108999999999,33.33481,0 -79.55219,33.34001,0 -79.54325,33.34526,0 -79.54071999999999,33.34677,0 -79.54006,33.34714,0 -79.53975,33.34728,0 -79.53918,33.34744,0 -79.53882,33.3475,0 -79.53230000000001,33.34827,0 -79.52930000000001,33.3486,0 -79.52800000000001,33.34865,0 -79.52072,33.34881,0 -79.51888,33.34888,0 -79.51784000000001,33.34895,0 -79.51385000000001,33.34937,0 -79.51268,33.34952,0 -79.51235,33.34959,0 -79.51161,33.34981,0 -79.51103999999999,33.35004,0 -79.5108,33.35016,0 -79.51027999999999,33.35046,0 -79.50422,33.35459,0 -79.50354,33.35497,0 -79.50302000000001,33.35518,0 -79.50245,33.35534,0 -79.49316,33.35759,0 -79.49283,33.35765,0 -79.49209,33.35771,0 -79.49165000000001,33.3577,0 -79.49021,33.35754,0 -79.48968000000001,33.35751,0 -79.48826,33.35756,0 -79.48661,33.35765,0 -79.48524999999999,33.35776,0 -79.48465,33.35785,0 -79.48335,33.35812,0 -79.47753,33.35949,0 -79.47699,33.35963,0 -79.47539,33.3601,0 -79.47423000000001,33.36039,0 -79.46865,33.36127,0 -79.46451999999999,33.36207,0 -79.46213,33.36256,0 -79.46168,33.36268,0 -79.46127,33.36282,0 -79.46092,33.36297,0 -79.46023,33.36332,0 -79.45347,33.36696,0 -79.45305999999999,33.36721,0 -79.45267,33.36748,0 -79.45214,33.3679,0 -79.45153999999999,33.36843,0 -79.45108999999999,33.36891,0 -79.44804999999999,33.37243,0 -79.44540000000001,33.37525,0 -79.44508,33.37563,0 -79.44490999999999,33.37593,0 -79.44396999999999,33.37576,0 -79.44287,33.37571,0 -79.44172,33.37584,0 -79.44061000000001,33.37614,0 -79.40143,33.38882,0 -79.40009000000001,33.38918,0 -79.38348000000001,33.39305,0 -79.38248,33.3932,0 -79.38153,33.3932,0 -79.34553,33.39161,0 -79.34008,33.39146,0 -79.33553000000001,33.39124,0 -79.33262000000001,33.39107,0 -79.3279,33.39083,0 -79.32738000000001,33.3908,0 -79.32706,33.39076,0 -79.32182,33.39049,0 -79.32095,33.39037,0 -79.32017999999999,33.39017,0 -79.31967,33.38999,0 -79.31913,33.38975,0 -79.31872,33.38954,0 -79.31144999999999,33.38573,0 -79.30889999999999,33.38437,0 -79.30754,33.38368,0 -79.30512,33.3824,0 -79.30289,33.38125,0 -79.29433,33.37674,0 -79.29062,33.37473,0 -79.2878,33.37508,0 
			</coordinates>
		</LineString>
		<atom:link rel="app" href="https://www.google.com/earth/about/versions/#earth-pro" title="Google Earth Pro 7.3.6.10201"></atom:link>
	</Placemark>
</Document>
</kml>
