<?xml version="1.0" encoding="UTF-8"?>
<kml xmlns="http://www.opengis.net/kml/2.2" xmlns:gx="http://www.google.com/kml/ext/2.2" xmlns:kml="http://www.opengis.net/kml/2.2" xmlns:atom="http://www.w3.org/2005/Atom">
<Document>
	<name>US.11E.kml</name>
	<Style id="line-1267FF-5000-nodesc-highlight1010">
		<LineStyle>
			<color>ff0000ff</color>
			<width>3</width>
		</LineStyle>
	</Style>
	<Style id="line-1267FF-5000-nodesc-normal1010">
		<LineStyle>
			<color>ff0000ff</color>
			<width>3</width>
		</LineStyle>
	</Style>
	<StyleMap id="line-1267FF-5000-nodesc94">
		<Pair>
			<key>normal</key>
			<styleUrl>#line-1267FF-5000-nodesc-normal1010</styleUrl>
		</Pair>
		<Pair>
			<key>highlight</key>
			<styleUrl>#line-1267FF-5000-nodesc-highlight1010</styleUrl>
		</Pair>
	</StyleMap>
	<Placemark>
		<name>US.11E</name>
		<visibility>0</visibility>
		<styleUrl>#line-1267FF-5000-nodesc94</styleUrl>
		<LineString>
			<coordinates>
				-83.8763221,36.0004671,0 -83.87581350000001,36.0010215,0 -83.8754809,36.0013556,0 -83.8752181,36.0015683,0 -83.8749177,36.0017245,0 -83.8746548,36.0017939,0 -83.87428300000001,36.0018462,0 -83.87421399999999,36.0018559,0 -83.8738106,36.0018906,0 -83.8734587,36.0019253,0 -83.873296,36.0019441,0 -83.8730675,36.001975,0 -83.87293339999999,36.0020046,0 -83.8727545,36.0020605,0 -83.8717864,36.0024346,0 -83.87028789999999,36.0030441,0 -83.8692018,36.0034636,0 -83.8687022,36.0036623,0 -83.8683844,36.0037909,0 -83.8679369,36.0039746,0 -83.8675942,36.0040958,0 -83.86741929999999,36.004159,0 -83.867001,36.0042969,0 -83.86676610000001,36.0043684,0 -83.86643050000001,36.0044524,0 -83.8662054,36.004503,0 -83.8658849,36.0045678,0 -83.86543399999999,36.0046328,0 -83.8649298,36.0047024,0 -83.86430129999999,36.0047622,0 -83.8636752,36.0047711,0 -83.8634713,36.004774,0 -83.8608586,36.0047172,0 -83.8591351,36.0046797,0 -83.85834250000001,36.0046625,0 -83.8580123,36.0046587,0 -83.857449,36.0046974,0 -83.8573686,36.004701,0 -83.8571101,36.0047272,0 -83.8570115,36.0047423,0 -83.85674419999999,36.0047816,0 -83.8565949,36.0048035,0 -83.8564693,36.004822,0 -83.85633559999999,36.0048437,0 -83.85610250000001,36.0048814,0 -83.8560071,36.0048968,0 -83.8557421,36.0049566,0 -83.8551259,36.0051361,0 -83.854433,36.0053716,0 -83.8534219,36.0057799,0 -83.8519261,36.0063839,0 -83.85154989999999,36.0065361,0 -83.850454,36.0069838,0 -83.850317,36.0070398,0 -83.85006009999999,36.0071347,0 -83.85002009999999,36.0071495,0 -83.8496961,36.0072693,0 -83.8494158,36.0073856,0 -83.8492627,36.0074491,0 -83.84871889999999,36.0076821,0 -83.848113,36.0079199,0 -83.8469513,36.0083895,0 -83.8466943,36.0084945,0 -83.8464245,36.0086048,0 -83.8461221,36.0087253,0 -83.8453837,36.0090265,0 -83.84476600000001,36.0092734,0 -83.84435740000001,36.0094368,0 -83.8439802,36.0095876,0 -83.8433855,36.0098254,0 -83.8431693,36.0099119,0 -83.8431308,36.0099272,0 -83.8429797,36.0099876,0 -83.8424375,36.0102044,0 -83.8421073,36.0103402,0 -83.84166089999999,36.0105147,0 -83.84103570000001,36.0107804,0 -83.8408475,36.010855,0 -83.84070490000001,36.0109123,0 -83.84007149999999,36.0111512,0 -83.83941160000001,36.0114303,0 -83.83894189999999,36.0116157,0 -83.8386836,36.0117176,0 -83.83839469999999,36.0118281,0 -83.83780609999999,36.012068,0 -83.83728290000001,36.0122814,0 -83.8363909,36.0126355,0 -83.83147169999999,36.0146162,0 -83.8287164,36.0157234,0 -83.82849210000001,36.0158099,0 -83.8283955,36.0158493,0 -83.82818399999999,36.015937,0 -83.8281267,36.0159607,0 -83.82760399999999,36.0161687,0 -83.82715140000001,36.0163458,0 -83.8267434,36.0164978,0 -83.82646080000001,36.0165869,0 -83.82600309999999,36.0167135,0 -83.8256556,36.0167955,0 -83.82535590000001,36.0168616,0 -83.8252281,36.0168834,0 -83.8251283,36.0169005,0 -83.82489440000001,36.0169378,0 -83.8248791,36.0169403,0 -83.8244574,36.0169934,0 -83.8239294,36.0170551,0 -83.820213,36.0174094,0 -83.8180588,36.0176261,0 -83.8162275,36.0178062,0 -83.81534310000001,36.017893,0 -83.81368449999999,36.0180366,0 -83.8119933,36.0182017,0 -83.81034099999999,36.0183576,0 -83.80711049999999,36.0186845,0 -83.804393,36.0189434,0 -83.8017737,36.0191914,0 -83.798467,36.0195044,0 -83.7978245,36.0195677,0 -83.7973343,36.0196132,0 -83.7962819,36.0197029,0 -83.79487899999999,36.0198518,0 -83.79394550000001,36.01995,0 -83.7926215,36.0200748,0 -83.7913045,36.020203,0 -83.7908736,36.0202445,0 -83.78995,36.0203292,0 -83.78896,36.0204298,0 -83.78817100000001,36.020508,0 -83.78653629999999,36.0206574,0 -83.7842206,36.0208803,0 -83.7817527,36.0211179,0 -83.7810219,36.0211883,0 -83.7801197,36.0212824,0 -83.77961759999999,36.021333,0 -83.7790309,36.0213972,0 -83.77812539999999,36.0214727,0 -83.7776657,36.0215178,0 -83.7773048,36.0215532,0 -83.7767996,36.0216028,0 -83.7766057,36.0216198,0 -83.7763534,36.0216453,0 -83.7757709,36.0217029,0 -83.7752577,36.021752,0 -83.7698827,36.0222664,0 -83.76953690000001,36.0222995,0 -83.7693314,36.0223187,0 -83.7682618,36.0224185,0 -83.76645569999999,36.0225869,0 -83.7636208,36.022858,0 -83.7621604,36.0229993,0 -83.7603283,36.0231765,0 -83.7592396,36.0232818,0 -83.75781019999999,36.0234201,0 -83.756485,36.0235491,0 -83.7561188,36.0235846,0 -83.7546093,36.0237307,0 -83.7525619,36.0239314,0 -83.7509149,36.0240928,0 -83.7505927,36.0241244,0 -83.7497844,36.0241998,0 -83.74814379999999,36.0243546,0 -83.7478208,36.0243891,0 -83.7472691,36.024441,0 -83.7452052,36.0246357,0 -83.7437056,36.0247949,0 -83.74330740000001,36.0248372,0 -83.74308910000001,36.0248604,0 -83.7424644,36.0249179,0 -83.7424118,36.0249243,0 -83.74220870000001,36.0249488,0 -83.7419948,36.0249747,0 -83.7419002,36.0249861,0 -83.740661,36.0251359,0 -83.74026929999999,36.0251848,0 -83.739926,36.0252278,0 -83.738507,36.0254054,0 -83.7384605,36.0254112,0 -83.7371801,36.0255768,0 -83.7370318,36.0255967,0 -83.73679919999999,36.0256252,0 -83.7365629,36.025662,0 -83.7364089,36.0256804,0 -83.7362888,36.0257091,0 -83.7361555,36.0257505,0 -83.7359762,36.0258206,0 -83.73580509999999,36.0258983,0 -83.7355436,36.0260363,0 -83.7345246,36.0268794,0 -83.73402660000001,36.0273208,0 -83.7335533,36.0277394,0 -83.7325075,36.0286028,0 -83.73177269999999,36.0292123,0 -83.73112519999999,36.0297514,0 -83.7305712,36.0302234,0 -83.7303828,36.030389,0 -83.7297787,36.0308984,0 -83.7297203,36.0309477,0 -83.729164,36.0314168,0 -83.7283906,36.032069,0 -83.728301,36.0321446,0 -83.7281179,36.0323037,0 -83.7262454,36.0338778,0 -83.7250691,36.0348703,0 -83.7235822,36.0361248,0 -83.7233275,36.0363397,0 -83.7232911,36.0363698,0 -83.7215664,36.0377989,0 -83.7201041,36.0390532,0 -83.7198448,36.0392714,0 -83.71966639999999,36.0394151,0 -83.71684019999999,36.0418274,0 -83.7151065,36.0432719,0 -83.7139207,36.0442941,0 -83.7130587,36.0450371,0 -83.7115931,36.046554,0 -83.71127079999999,36.0468979,0 -83.7111548,36.047052,0 -83.7111115,36.0471094,0 -83.7105536,36.0478305,0 -83.71030949999999,36.0481596,0 -83.70982309999999,36.0488665,0 -83.70925269999999,36.049726,0 -83.7091648,36.04986,0 -83.70887879999999,36.0502959,0 -83.7083463,36.0511074,0 -83.70816720000001,36.0513761,0 -83.707747,36.0520054,0 -83.7072905,36.0526017,0 -83.7070937,36.0527969,0 -83.7068348,36.0530539,0 -83.7063089,36.0534896,0 -83.70588499999999,36.0537764,0 -83.7054093,36.054053,0 -83.70480449999999,36.054347,0 -83.70458429999999,36.0544351,0 -83.7043663,36.0545223,0 -83.7036026,36.0547315,0 -83.70293289999999,36.0548611,0 -83.7028229,36.0548824,0 -83.7022989,36.0549818,0 -83.70190119999999,36.0550517,0 -83.70025339999999,36.0553442,0 -83.69907000000001,36.0555711,0 -83.6983948,36.0557114,0 -83.6975413,36.0559753,0 -83.69593930000001,36.0565911,0 -83.6954858,36.0567639,0 -83.6950734,36.0569231,0 -83.69469770000001,36.0570717,0 -83.69404780000001,36.05733,0 -83.6928851,36.0577826,0 -83.6887296,36.059437,0 -83.6862203,36.0606012,0 -83.68557560000001,36.0609098,0 -83.6851971,36.061091,0 -83.68514930000001,36.0611139,0 -83.6839394,36.0617035,0 -83.682903,36.0621842,0 -83.6814663,36.062855,0 -83.679824,36.0636073,0 -83.6786962,36.0641284,0 -83.6774128,36.0647192,0 -83.6759747,36.0652969,0 -83.67585889999999,36.0653436,0 -83.67537,36.0655197,0 -83.67415370000001,36.0659504,0 -83.6729756,36.0663194,0 -83.6721594,36.0665539,0 -83.6712891,36.0667888,0 -83.67011050000001,36.0670765,0 -83.6693531,36.067251,0 -83.6686366,36.0673932,0 -83.66802079999999,36.0675075,0 -83.6664335,36.0677741,0 -83.6650265,36.0679635,0 -83.6632333,36.0681417,0 -83.66025980000001,36.0684543,0 -83.6576524,36.0687092,0 -83.65667550000001,36.0688132,0 -83.6566373,36.068817,0 -83.6549143,36.0689897,0 -83.6538304,36.0691042,0 -83.6521628,36.0692719,0 -83.6491765,36.0695722,0 -83.64775969999999,36.0697193,0 -83.6467828,36.0698349,0 -83.6458483,36.0699767,0 -83.6447955,36.0701534,0 -83.6434872,36.0704256,0 -83.6426465,36.0706111,0 -83.64156819999999,36.0708678,0 -83.6405448,36.0711471,0 -83.63933489999999,36.0715142,0 -83.6378591,36.0719958,0 -83.6362744,36.0725737,0 -83.6353407,36.0729726,0 -83.6347485,36.0732324,0 -83.63299600000001,36.0739675,0 -83.6310908,36.0747833,0 -83.6276651,36.0762308,0 -83.62559419999999,36.0771133,0 -83.62483020000001,36.0774403,0 -83.6237572,36.0779029,0 -83.62252839999999,36.0784125,0 -83.6204736,36.0792734,0 -83.6184818,36.0801263,0 -83.6178216,36.080409,0 -83.6176949,36.0804632,0 -83.61665549999999,36.0809019,0 -83.6162173,36.0810869,0 -83.6147169,36.0817222,0 -83.6114967,36.0830871,0 -83.6098174,36.083755,0 -83.6085092,36.0842145,0 -83.60425739999999,36.0855324,0 -83.6024434,36.0860802,0 -83.60040549999999,36.0866895,0 -83.59749789999999,36.0875718,0 -83.5953689,36.0882158,0 -83.5908404,36.0895855,0 -83.58691640000001,36.0907701,0 -83.5826098,36.0920778,0 -83.5820167,36.0922579,0 -83.5796735,36.0929612,0 -83.57831729999999,36.0933954,0 -83.5769102,36.093837,0 -83.5761803,36.0940624,0 -83.5739104,36.0947913,0 -83.5709153,36.0957397,0 -83.5693081,36.0962383,0 -83.56821119999999,36.0966002,0 -83.56711989999999,36.0969438,0 -83.5645555,36.0977617,0 -83.56005759999999,36.099195,0 -83.55913700000001,36.0994883,0 -83.55697809999999,36.1001762,0 -83.5560567,36.1004697,0 -83.5552302,36.1007234,0 -83.5544021,36.1009756,0 -83.5532201,36.1013357,0 -83.5525177,36.1015099,0 -83.55047089999999,36.102036,0 -83.5494542,36.1022636,0 -83.5482172,36.1025388,0 -83.5481089,36.102563,0 -83.5446093,36.1033438,0 -83.5415782,36.1040045,0 -83.541354,36.1040563,0 -83.5389531,36.1045937,0 -83.53658969999999,36.1051102,0 -83.5354967,36.1053458,0 -83.5351842,36.1054131,0 -83.53514819999999,36.1054213,0 -83.5327479,36.1059661,0 -83.52956399999999,36.1066727,0 -83.5276149,36.1070958,0 -83.5262154,36.1074017,0 -83.5238403,36.1079247,0 -83.52270300000001,36.1081802,0 -83.5209662,36.1085502,0 -83.52041730000001,36.1086702,0 -83.51963120000001,36.1088485,0 -83.51870769999999,36.109061,0 -83.51777199999999,36.1092795,0 -83.5175268,36.109337,0 -83.515984,36.1097121,0 -83.51454750000001,36.1100589,0 -83.51397919999999,36.1101974,0 -83.5114332,36.1108016,0 -83.5078975,36.1116501,0 -83.5066578,36.1119549,0 -83.50456370000001,36.1124509,0 -83.5019624,36.1130672,0 -83.50054489999999,36.1134202,0 -83.49995,36.1135684,0 -83.4984826,36.1139043,0 -83.4982357,36.1139555,0 -83.4971579,36.1142121,0 -83.49649549999999,36.1143682,0 -83.4960298,36.114472,0 -83.4946508,36.1148082,0 -83.4934942,36.1150948,0 -83.49305339999999,36.1151976,0 -83.4905177,36.1157925,0 -83.48975369999999,36.115971,0 -83.48779519999999,36.1164478,0 -83.4869563,36.1166749,0 -83.4862612,36.1168807,0 -83.4856688,36.1170633,0 -83.4842917,36.11752,0 -83.4835162,36.117792,0 -83.48262010000001,36.1181362,0 -83.48234600000001,36.1182478,0 -83.4812749,36.1186838,0 -83.47976730000001,36.119393,0 -83.4792044,36.1196746,0 -83.47861899999999,36.1199674,0 -83.4785771,36.1199883,0 -83.4774398,36.1206123,0 -83.47668349999999,36.1210558,0 -83.47567410000001,36.1216701,0 -83.4750301,36.1220928,0 -83.474706,36.1223173,0 -83.47423860000001,36.1226411,0 -83.4739095,36.1228659,0 -83.4717828,36.1243193,0 -83.47001040000001,36.1255382,0 -83.46972510000001,36.1257345,0 -83.4696125,36.1258119,0 -83.4693096,36.1260202,0 -83.4689759,36.1262497,0 -83.46882189999999,36.1263565,0 -83.4672771,36.1274281,0 -83.46576450000001,36.1284671,0 -83.4647951,36.1291488,0 -83.464446,36.129382,0 -83.4641324,36.1295915,0 -83.4637421,36.1298482,0 -83.4627315,36.1305658,0 -83.4615562,36.1313587,0 -83.459542,36.1327285,0 -83.4576885,36.1340323,0 -83.4561021,36.1351201,0 -83.4552004,36.1357504,0 -83.4547556,36.1360714,0 -83.45464269999999,36.1361374,0 -83.45346960000001,36.1369405,0 -83.45287999999999,36.1373442,0 -83.4526146,36.1375259,0 -83.4525962,36.1375385,0 -83.4509396,36.1386888,0 -83.4487496,36.1401687,0 -83.44763639999999,36.1409287,0 -83.44638329999999,36.1417772,0 -83.4458108,36.1421624,0 -83.4450239,36.1426918,0 -83.4423256,36.1444896,0 -83.440617,36.1456289,0 -83.4397685,36.1461977,0 -83.43920129999999,36.1465779,0 -83.437496,36.1477096,0 -83.4363255,36.1484856,0 -83.4353357,36.1491398,0 -83.4339008,36.1500928,0 -83.4330269,36.1506738,0 -83.43269429999999,36.1508948,0 -83.4323405,36.1511096,0 -83.4303283,36.152466,0 -83.42961459999999,36.1529429,0 -83.4285288,36.1536709,0 -83.4281099,36.1539218,0 -83.4278073,36.1540909,0 -83.4262457,36.1548639,0 -83.4249746,36.1554761,0 -83.4249011,36.1555115,0 -83.4248832,36.1555201,0 -83.4248144,36.1555544,0 -83.42406560000001,36.1559276,0 -83.4233146,36.1563131,0 -83.4229311,36.1565448,0 -83.4225529,36.1567852,0 -83.42201110000001,36.1571642,0 -83.4216109,36.1574649,0 -83.4211138,36.1578392,0 -83.42051240000001,36.1583133,0 -83.41958579999999,36.1590782,0 -83.4187651,36.159743,0 -83.4184679,36.1600054,0 -83.41821040000001,36.1602371,0 -83.417829,36.1606049,0 -83.4166841,36.1618073,0 -83.4160426,36.1624434,0 -83.4155545,36.1629133,0 -83.41514410000001,36.1632815,0 -83.4147954,36.1635803,0 -83.4142049,36.1640503,0 -83.4139232,36.1642643,0 -83.41334430000001,36.1647042,0 -83.4125241,36.1652763,0 -83.4122847,36.1654252,0 -83.411507,36.1658973,0 -83.4108875,36.1662529,0 -83.4103408,36.1665667,0 -83.40962589999999,36.1669677,0 -83.4093561,36.167119,0 -83.4079234,36.1679417,0 -83.4066206,36.1686931,0 -83.40622569999999,36.1689612,0 -83.4057724,36.169273,0 -83.4051765,36.1697162,0 -83.4045323,36.1703043,0 -83.40394879999999,36.1708442,0 -83.4027576,36.1719536,0 -83.4021279,36.1725126,0 -83.4016263,36.1729391,0 -83.4005396,36.1738247,0 -83.4002263,36.1740684,0 -83.3995985,36.1745567,0 -83.3984184,36.175416,0 -83.3972275,36.1762453,0 -83.3969515,36.1764238,0 -83.39595749999999,36.1770598,0 -83.39516860000001,36.1775768,0 -83.39492079999999,36.177737,0 -83.3943811,36.1780636,0 -83.3940405,36.1782368,0 -83.3936006,36.1784273,0 -83.39315860000001,36.1785787,0 -83.39297120000001,36.178631,0 -83.39275069999999,36.1786926,0 -83.39231820000001,36.1788156,0 -83.3920428,36.1788872,0 -83.39193109999999,36.1789178,0 -83.39121539999999,36.179114,0 -83.39091209999999,36.1791946,0 -83.3904823,36.1793089,0 -83.3899167,36.1794622,0 -83.38838920000001,36.1798631,0 -83.3873432,36.1801423,0 -83.384784,36.180822,0 -83.3836874,36.1811239,0 -83.3831536,36.1812812,0 -83.3827462,36.1814257,0 -83.38172640000001,36.1817943,0 -83.38113389999999,36.1820381,0 -83.3805622,36.1822989,0 -83.3797095,36.1827223,0 -83.3788778,36.1831446,0 -83.37816410000001,36.1835278,0 -83.3759122,36.1847113,0 -83.37462290000001,36.1853746,0 -83.3742347,36.1855746,0 -83.3738213,36.1857861,0 -83.37289560000001,36.1862583,0 -83.3718168,36.1868427,0 -83.3705169,36.1875853,0 -83.36912270000001,36.1884119,0 -83.3681813,36.1889703,0 -83.3675054,36.1893383,0 -83.3671138,36.1895375,0 -83.365746,36.1901849,0 -83.3640166,36.1909796,0 -83.36371370000001,36.191113,0 -83.3634603,36.1912245,0 -83.3633796,36.1912594,0 -83.3631874,36.1913424,0 -83.3626177,36.191592,0 -83.36239999999999,36.1916854,0 -83.3619278,36.191888,0 -83.3618441,36.1919222,0 -83.3616518,36.1920008,0 -83.3611124,36.1922213,0 -83.3606082,36.1924168,0 -83.3603779,36.1925061,0 -83.3601108,36.1926097,0 -83.35940650000001,36.1929,0 -83.3590435,36.1930496,0 -83.3588335,36.193133,0 -83.3583369,36.1933302,0 -83.3573952,36.1936761,0 -83.35691060000001,36.1938655,0 -83.3565809,36.1939884,0 -83.35652090000001,36.1940116,0 -83.3561181,36.1941674,0 -83.3556219,36.1943167,0 -83.3551123,36.1944531,0 -83.3543823,36.1946236,0 -83.3531648,36.1949034,0 -83.3527438,36.1950152,0 -83.3526081,36.1950504,0 -83.35237530000001,36.1951206,0 -83.35209519999999,36.195205,0 -83.3517227,36.1953196,0 -83.3516623,36.1953403,0 -83.35007589999999,36.1958842,0 -83.3493861,36.1961224,0 -83.34927690000001,36.1961601,0 -83.3486267,36.1963644,0 -83.3481981,36.1964883,0 -83.34734090000001,36.1967004,0 -83.3470949,36.1967529,0 -83.3467508,36.1968263,0 -83.3464822,36.1968825,0 -83.34608559999999,36.1969582,0 -83.345895,36.1969944,0 -83.34551380000001,36.1970658,0 -83.34532249999999,36.1971038,0 -83.3449605,36.1971849,0 -83.3447654,36.1972339,0 -83.344553,36.1972949,0 -83.3443961,36.1973412,0 -83.34420729999999,36.1973413,0 -83.3436749,36.197585,0 -83.34332860000001,36.1977608,0 -83.342761,36.1981,0 -83.34248479999999,36.1983211,0 -83.3422638,36.198498,0 -83.34066199999999,36.1996405,0 -83.3401526,36.1999008,0 -83.3395943,36.2001071,0 -83.3391659,36.2002302,0 -83.3387513,36.2003097,0 -83.3379867,36.2004043,0 -83.3376705,36.200445,0 -83.3367209,36.2005663,0 -83.336499,36.2006034,0 -83.33637419999999,36.2006243,0 -83.3358424,36.2007131,0 -83.335652,36.2007675,0 -83.33510649999999,36.2009232,0 -83.3343299,36.2012032,0 -83.333331,36.2015634,0 -83.3332541,36.2015896,0 -83.3325138,36.201853,0 -83.33061429999999,36.2025247,0 -83.329199,36.2030599,0 -83.32907520000001,36.2031104,0 -83.3285181,36.2033508,0 -83.32802100000001,36.2035914,0 -83.32745610000001,36.2038675,0 -83.3274292,36.2038807,0 -83.32723369999999,36.2039762,0 -83.32713,36.2040294,0 -83.3270595,36.2040656,0 -83.3269128,36.204141,0 -83.3268202,36.2041853,0 -83.3266533,36.2042651,0 -83.3263042,36.2044321,0 -83.3252325,36.2049448,0 -83.3249758,36.2050724,0 -83.3247918,36.2051638,0 -83.32468799999999,36.2052154,0 -83.32412979999999,36.2054927,0 -83.32399820000001,36.2055577,0 -83.3232125,36.2059136,0 -83.32282170000001,36.2060907,0 -83.32261219999999,36.2061856,0 -83.3222373,36.2063229,0 -83.32163869999999,36.2064852,0 -83.32105660000001,36.2065981,0 -83.3204899,36.2066479,0 -83.3202788,36.2066669,0 -83.31974580000001,36.2067147,0 -83.3197222,36.2063009,0 -83.31969460000001,36.2060728,0 -83.3196415,36.2059117,0 -83.3195473,36.2056258,0 -83.3195221,36.2055493,0 -83.31939869999999,36.2053548,0 -83.31922520000001,36.2050814,0 -83.31910139999999,36.2049378,0 -83.3185106,36.2042486,0 -83.3180038,36.2036627,0 -83.3177931,36.2034281,0 -83.3172423,36.2028505,0 -83.3166873,36.2025082,0 -83.3165814,36.2024587,0 -83.3163819,36.2023811,0 -83.3161917,36.2023216,0 -83.31601620000001,36.2022679,0 -83.315836,36.2022283,0 -83.3156281,36.2021946,0 -83.3154356,36.2021752,0 -83.31526270000001,36.2021678,0 -83.31513440000001,36.2021636,0 -83.31492729999999,36.2021682,0 -83.31468719999999,36.2021939,0 -83.3143331,36.2022492,0 -83.3138186,36.2023323,0 -83.3125904,36.2025281,0 -83.3120114,36.2026205,0 -83.3107325,36.2028244,0 -83.3092432,36.2030937,0 -83.3087441,36.2032192,0 -83.3083336,36.2033858,0 -83.3079704,36.2035932,0 -83.3076674,36.2038743,0 -83.3072689,36.2043702,0 -83.30697809999999,36.2047402,0 -83.3068088,36.2048924,0 -83.3064938,36.2050954,0 -83.3062123,36.2052513,0 -83.3044764,36.2061891,0 -83.3041443,36.2063238,0 -83.30400760000001,36.2063793,0 -83.3035271,36.206511,0 -83.3029092,36.206608,0 -83.30242939999999,36.2066341,0 -83.302108,36.2066574,0 -83.3019154,36.2066772,0 -83.30169619999999,36.2067058,0 -83.30150949999999,36.2067405,0 -83.3013866,36.2067666,0 -83.30113590000001,36.2068404,0 -83.3009534,36.2069021,0 -83.3007686,36.2069718,0 -83.3004313,36.207112,0 -83.3001548,36.2072305,0 -83.2999983,36.2072949,0 -83.2994635,36.2075184,0 -83.2989283,36.2077421,0 -83.2977898,36.2082179,0 -83.29553900000001,36.2091687,0 -83.29501639999999,36.2093944,0 -83.29495369999999,36.2094348,0 -83.2947195,36.2095858,0 -83.2945989,36.2096636,0 -83.2944749,36.2097659,0 -83.294265,36.209939,0 -83.2940868,36.2101302,0 -83.2939349,36.2102932,0 -83.2937069,36.2104937,0 -83.2936294,36.2105569,0 -83.29353519999999,36.210627,0 -83.2934628,36.2106741,0 -83.2933699,36.2107307,0 -83.2929675,36.2109611,0 -83.2924585,36.2112377,0 -83.2921348,36.2114215,0 -83.2916063,36.2117216,0 -83.2911168,36.2119995,0 -83.2910174,36.2120534,0 -83.290599,36.2122803,0 -83.2903453,36.2124179,0 -83.2900348,36.2125863,0 -83.2890663,36.2131291,0 -83.28797179999999,36.2137369,0 -83.2874223,36.2140365,0 -83.2864005,36.2146006,0 -83.2854554,36.2151224,0 -83.2850936,36.215272,0 -83.2847345,36.2153712,0 -83.2842204,36.2154247,0 -83.2836046,36.2155037,0 -83.2829744,36.2156194,0 -83.28181960000001,36.2160578,0 -83.28129610000001,36.2162685,0 -83.2807562,36.2164337,0 -83.28022730000001,36.2165441,0 -83.279882,36.2166058,0 -83.2794274,36.2166871,0 -83.27808640000001,36.2169238,0 -83.277563,36.2170111,0 -83.27707270000001,36.2171167,0 -83.2765565,36.2172823,0 -83.275595,36.2176605,0 -83.27468880000001,36.218048,0 -83.27416909999999,36.218269,0 -83.2729678,36.2187703,0 -83.27269320000001,36.2188806,0 -83.2720915,36.2191177,0 -83.2714759,36.2193255,0 -83.2699932,36.2197495,0 -83.2690183,36.2200245,0 -83.26730670000001,36.2205734,0 -83.26696750000001,36.2206923,0 -83.2658636,36.2210471,0 -83.2650549,36.2213234,0 -83.2648903,36.2213782,0 -83.2645603,36.2214881,0 -83.26316319999999,36.2219558,0 -83.2629877,36.2220145,0 -83.262788,36.2220851,0 -83.2626454,36.2221355,0 -83.26249300000001,36.2221894,0 -83.2620352,36.2223513,0 -83.26147760000001,36.2225029,0 -83.26105219999999,36.2226416,0 -83.26093179999999,36.2226807,0 -83.2605822,36.2227859,0 -83.2598136,36.2230475,0 -83.2596095,36.2231139,0 -83.2591448,36.2232669,0 -83.2590391,36.2233026,0 -83.25901506468108,36.22328545079032,0 -83.25647912186287,36.22413883464767,0 -83.25662584059144,36.22434649662497,0 -83.2568618,36.22447,0 -83.2571494,36.2245918,0 -83.2574489,36.2247368,0 -83.2576358,36.2248856,0 -83.25782030000001,36.2250944,0 -83.25805579999999,36.2255555,0 -83.2582585,36.2261617,0 -83.2587789,36.2276933,0 -83.2588109,36.2277841,0 -83.2587913,36.2278424,0 -83.2588537,36.2280483,0 -83.2589038,36.2282626,0 -83.2589038,36.2284215,0 -83.25887179999999,36.2285603,0 -83.2588133,36.228662,0 -83.2586854,36.2287994,0 -83.2584811,36.2289117,0 -83.25825,36.2289593,0 -83.25803689999999,36.2289448,0 -83.25782940000001,36.2288876,0 -83.25764270000001,36.2288107,0 -83.2574608,36.2287038,0 -83.2573206,36.2285939,0 -83.2571519,36.2283975,0 -83.257096,36.2283104,0 -83.25700089999999,36.2281421,0 -83.25695290853362,36.22801892067926,0 -83.2555153,36.2285698,0 -83.25377450000001,36.2292018,0 -83.2529292,36.2295439,0 -83.25242,36.2297365,0 -83.2511604,36.2302136,0 -83.2498988,36.2307302,0 -83.2490205,36.2310666,0 -83.24860529999999,36.2312274,0 -83.24781849999999,36.2315321,0 -83.2477805,36.2315468,0 -83.24770700000001,36.2315754,0 -83.2467024,36.2319661,0 -83.2464195,36.2320761,0 -83.246167,36.2321762,0 -83.24504810000001,36.2326197,0 -83.2449182,36.2326712,0 -83.2448321,36.2327085,0 -83.24437500000001,36.2329067,0 -83.24381150000001,36.2331811,0 -83.24339190000001,36.2334062,0 -83.2429398,36.2336972,0 -83.24256699999999,36.233945,0 -83.24124329999999,36.234759,0 -83.24041099999999,36.2352845,0 -83.2403353,36.2353339,0 -83.23836369999999,36.2366212,0 -83.23793430000001,36.2369016,0 -83.23770810000001,36.2370493,0 -83.23766019999999,36.2370779,0 -83.237258,36.2373169,0 -83.2372144,36.2373438,0 -83.2368283,36.2376333,0 -83.23641189999999,36.2380134,0 -83.2363375,36.2380845,0 -83.2361868,36.2382283,0 -83.23600020000001,36.2384275,0 -83.2355575,36.2389159,0 -83.235304,36.239204,0 -83.2350644,36.2394555,0 -83.2348947,36.2396531,0 -83.2347628,36.239792,0 -83.2344849,36.2400985,0 -83.23411230000001,36.2404974,0 -83.2339472,36.2406577,0 -83.2337658,36.2408177,0 -83.233261,36.2411753,0 -83.23272369999999,36.2414562,0 -83.2323037,36.2416338,0 -83.2315775,36.2418386,0 -83.230452,36.242088,0 -83.2288101,36.2424598,0 -83.2278986,36.2426643,0 -83.2270255,36.242861,0 -83.22668179999999,36.2429418,0 -83.226254,36.2430501,0 -83.22594460000001,36.2431732,0 -83.2254037,36.2433991,0 -83.224859,36.2436329,0 -83.2237229,36.2441279,0 -83.2217299,36.2449915,0 -83.2215633,36.2450694,0 -83.22097719999999,36.2453437,0 -83.2203593,36.2456796,0 -83.2201957,36.2457686,0 -83.21971480000001,36.2460201,0 -83.2186985,36.2465883,0 -83.21855429999999,36.246683,0 -83.2181289,36.2469408,0 -83.2180261,36.2469971,0 -83.2169646,36.2476071,0 -83.21675639999999,36.2477255,0 -83.21666879999999,36.2477714,0 -83.2156813,36.2483622,0 -83.215005,36.2487295,0 -83.2146517,36.2489214,0 -83.2143813,36.2490785,0 -83.2143659,36.2490876,0 -83.21403479999999,36.2492819,0 -83.2126531,36.2500935,0 -83.2122471,36.2503154,0 -83.2113628,36.2507254,0 -83.2080378,36.2519371,0 -83.2075801,36.252105,0 -83.20681519999999,36.2523856,0 -83.2063069,36.2525721,0 -83.20567,36.252794,0 -83.20491,36.2530696,0 -83.2044818,36.2532249,0 -83.20438230000001,36.2532645,0 -83.204267,36.2533079,0 -83.2010027,36.2545354,0 -83.2007914,36.2546109,0 -83.1997319,36.2549981,0 -83.198915,36.2552967,0 -83.1980719,36.2556203,0 -83.197845,36.2557385,0 -83.19733789999999,36.2560026,0 -83.1967775,36.2563388,0 -83.196243,36.2566595,0 -83.1958999,36.2568692,0 -83.194067,36.2580545,0 -83.1933877,36.2584834,0 -83.1931694,36.2586315,0 -83.1928913,36.2588037,0 -83.1925062,36.2589971,0 -83.19188699999999,36.259238,0 -83.188997,36.259809,0 -83.18889299999999,36.2598289,0 -83.18822,36.2599578,0 -83.1875769,36.2600809,0 -83.1867427,36.260238,0 -83.18492740000001,36.2606121,0 -83.1825564,36.261105,0 -83.179993,36.261586,0 -83.179929,36.261596,0 -83.17929549999999,36.2616955,0 -83.17879600000001,36.261774,0 -83.17871580000001,36.2617789,0 -83.1782204,36.2618133,0 -83.17773080000001,36.2618104,0 -83.17737649999999,36.2617759,0 -83.1769666,36.2617359,0 -83.17638169999999,36.2616256,0 -83.1761851,36.2615885,0 -83.1757053,36.2614692,0 -83.17462190000001,36.2612362,0 -83.174314,36.2611691,0 -83.1740282,36.2611248,0 -83.17398300000001,36.2611178,0 -83.17372469999999,36.2610921,0 -83.17346809999999,36.2610792,0 -83.1731743,36.2610807,0 -83.1731298,36.2610839,0 -83.1729,36.2611006,0 -83.17262049999999,36.2611349,0 -83.17228849999999,36.2611986,0 -83.1719887,36.261279,0 -83.1716744,36.2613877,0 -83.1712278,36.2616029,0 -83.1670579,36.2636927,0 -83.1659021,36.2642048,0 -83.16026189999999,36.2665197,0 -83.15798239999999,36.2675462,0 -83.1548063,36.2690394,0 -83.1544152,36.269161,0 -83.154083,36.2692172,0 -83.15385000000001,36.2692332,0 -83.1534588,36.2692031,0 -83.1517906,36.2688948,0 -83.15146919999999,36.2688585,0 -83.1511392,36.2688257,0 -83.1507944,36.2688542,0 -83.15056749999999,36.2688978,0 -83.1488932,36.2694473,0 -83.14561140000001,36.2706097,0 -83.14463929999999,36.2709388,0 -83.1441209,36.271099,0 -83.1436456,36.2712073,0 -83.14172019999999,36.2715196,0 -83.14074239999999,36.2716756,0 -83.14039030000001,36.271737,0 -83.1400795,36.2718044,0 -83.1396653,36.2719255,0 -83.13934999999999,36.2720356,0 -83.1385777,36.2723385,0 -83.13757150000001,36.2727642,0 -83.1370494,36.2729752,0 -83.136155,36.2732935,0 -83.136008,36.2733552,0 -83.1342575,36.2740092,0 -83.13365949999999,36.2741977,0 -83.1329052,36.2743209,0 -83.131304,36.27442,0 -83.1312578,36.2744228,0 -83.13065949999999,36.2744596,0 -83.1302783,36.2744831,0 -83.13016709999999,36.2744899,0 -83.1295949,36.2745251,0 -83.12939110000001,36.2745376,0 -83.1289884,36.2745624,0 -83.128925,36.274566,0 -83.12742230000001,36.274652,0 -83.1271122,36.2746644,0 -83.1268807,36.2746532,0 -83.1266323,36.2746214,0 -83.1264695,36.274592,0 -83.12578190000001,36.2744008,0 -83.1249332,36.2741332,0 -83.1241514,36.2738952,0 -83.1223591,36.2733361,0 -83.1211663,36.2729704,0 -83.1201882,36.2726705,0 -83.1196082,36.2725094,0 -83.1194935,36.2724776,0 -83.1188844,36.2723441,0 -83.11847950000001,36.2722801,0 -83.11804100000001,36.2722273,0 -83.1166419,36.2721121,0 -83.1161458,36.2720497,0 -83.1157628,36.2719761,0 -83.1152786,36.2718481,0 -83.11482220000001,36.2716737,0 -83.1146286,36.2715876,0 -83.1143277,36.2714336,0 -83.1124301,36.2704577,0 -83.1101489,36.2692012,0 -83.107902,36.2678389,0 -83.10668010000001,36.2671721,0 -83.1057429,36.2667041,0 -83.1046741,36.2663291,0 -83.1038691,36.2661471,0 -83.1021909,36.265926,0 -83.10155039999999,36.265801,0 -83.1010228,36.2656298,0 -83.099867,36.2650993,0 -83.0988043,36.2644536,0 -83.0972014,36.2633131,0 -83.0923689,36.2598327,0 -83.09155459999999,36.2592255,0 -83.0915201,36.2592015,0 -83.0903967,36.2584207,0 -83.0895891,36.2578335,0 -83.08928400000001,36.2576255,0 -83.089141,36.257559,0 -83.0890473,36.2575154,0 -83.0889763,36.2574824,0 -83.0879175,36.2571076,0 -83.0869364,36.2568087,0 -83.0866561,36.2567032,0 -83.0862733,36.2565221,0 -83.08594669999999,36.2563266,0 -83.08472159999999,36.255472,0 -83.0840796,36.2550192,0 -83.0829962,36.2542536,0 -83.0825013,36.2538933,0 -83.0823273,36.2537521,0 -83.08217139999999,36.2535947,0 -83.08211129999999,36.2535269,0 -83.0819149,36.2532539,0 -83.08179029999999,36.2529684,0 -83.0817356,36.2527569,0 -83.0817055,36.2526132,0 -83.081699,36.2524919,0 -83.0816901,36.2522933,0 -83.0817205,36.2520982,0 -83.08175420000001,36.2519092,0 -83.0818247,36.2515981,0 -83.0819071,36.2512608,0 -83.0819552,36.2510554,0 -83.0820018,36.2508358,0 -83.08203520000001,36.2506274,0 -83.08204050000001,36.2505886,0 -83.0820523,36.2505024,0 -83.0820592,36.2502603,0 -83.0820367,36.2500578,0 -83.0819731,36.2497731,0 -83.0819178,36.249602,0 -83.0818551,36.2494476,0 -83.0817589,36.2492576,0 -83.0816628,36.2491035,0 -83.0814149,36.2486765,0 -83.08113109999999,36.248207,0 -83.08085010000001,36.2477448,0 -83.0806577,36.247443,0 -83.08019590000001,36.2466754,0 -83.0797125,36.2458518,0 -83.0792546,36.2450821,0 -83.0790038,36.2445965,0 -83.0787194,36.2438516,0 -83.0786653,36.2437367,0 -83.07825630000001,36.242835,0 -83.07799439999999,36.2423333,0 -83.07776869999999,36.2419483,0 -83.0775174,36.2415115,0 -83.0772704,36.2411142,0 -83.0765256,36.2400067,0 -83.07612659999999,36.239545,0 -83.0756995,36.2391702,0 -83.0753311,36.2389432,0 -83.0751538,36.2388327,0 -83.0743037,36.2383031,0 -83.073768,36.2380292,0 -83.07327770000001,36.2378113,0 -83.0729213,36.2376963,0 -83.0727442,36.2376515,0 -83.0725226,36.2375954,0 -83.0692713,36.2369168,0 -83.06861929999999,36.236747,0 -83.0680388,36.2365129,0 -83.0675406,36.2362398,0 -83.067419,36.2361732,0 -83.0653684,36.2348563,0 -83.0647347,36.2344494,0 -83.0633993,36.2335918,0 -83.06240270000001,36.2329518,0 -83.05895630000001,36.2307384,0 -83.0588918,36.2306979,0 -83.0583912,36.2303676,0 -83.05482979999999,36.2280837,0 -83.0509352,36.2255943,0 -83.0500916,36.2252075,0 -83.0497171,36.2250804,0 -83.0494726,36.2250122,0 -83.0491932,36.2249529,0 -83.0487998,36.2248886,0 -83.0486083,36.2248687,0 -83.04835509999999,36.2248565,0 -83.04809419999999,36.2248535,0 -83.04778349999999,36.224858,0 -83.0473775,36.2248723,0 -83.04696439999999,36.2248945,0 -83.04619839999999,36.2249389,0 -83.0457822,36.224948,0 -83.0456231,36.2249635,0 -83.0454124,36.2249385,0 -83.0450835,36.2249512,0 -83.044667,36.2249543,0 -83.0441763,36.2249187,0 -83.04379590000001,36.2248802,0 -83.0434935,36.2248466,0 -83.0431609,36.2247978,0 -83.042878,36.2247497,0 -83.0427304,36.2247215,0 -83.04211309999999,36.2246056,0 -83.03864660000001,36.2238935,0 -83.03841799999999,36.2238466,0 -83.03792,36.2237428,0 -83.03770590000001,36.2236943,0 -83.03647100000001,36.2234465,0 -83.03614640000001,36.223377,0 -83.0354834,36.2232419,0 -83.03480690000001,36.2230985,0 -83.0341967,36.2229547,0 -83.0335884,36.2227975,0 -83.0329727,36.2226315,0 -83.03231100000001,36.2224298,0 -83.03127069999999,36.2220814,0 -83.030697,36.2218621,0 -83.0300115,36.2215945,0 -83.0292415,36.2212663,0 -83.02858329999999,36.2209674,0 -83.0278861,36.2206306,0 -83.02729239999999,36.2203252,0 -83.02653340000001,36.2198982,0 -83.0258809,36.2195126,0 -83.02541410000001,36.2192205,0 -83.025267,36.2191227,0 -83.0248149,36.2188202,0 -83.02430579999999,36.2184613,0 -83.02373230000001,36.2180328,0 -83.023067,36.2175064,0 -83.0226035,36.2171124,0 -83.02164999999999,36.2162579,0 -83.0209047,36.2155867,0 -83.018061,36.2130343,0 -83.0156302,36.2108525,0 -83.0152808,36.2105378,0 -83.01499269999999,36.2102784,0 -83.0143015,36.209659,0 -83.01411589999999,36.2094928,0 -83.01350410000001,36.208947,0 -83.0131502,36.2086344,0 -83.0128436,36.2083871,0 -83.0125391,36.2081575,0 -83.0123147,36.2079958,0 -83.0120582,36.2078196,0 -83.0118318,36.207666,0 -83.0116342,36.2075405,0 -83.01148120000001,36.2074446,0 -83.0111466,36.2072441,0 -83.01081000000001,36.2070663,0 -83.0104954,36.2069094,0 -83.01013279999999,36.2067332,0 -83.0097821,36.2065813,0 -83.0093954,36.2064261,0 -83.00896470000001,36.2062612,0 -83.0059713,36.2051343,0 -83.0059171,36.2051136,0 -83.00482150000001,36.2046956,0 -83.00448160000001,36.2045568,0 -83.00411750000001,36.204391,0 -83.0037959,36.2042275,0 -83.00347859999999,36.2040572,0 -83.0032278,36.2039097,0 -83.0030855,36.203819,0 -83.0029643,36.2037417,0 -83.0026838,36.2035485,0 -83.0024694,36.2033952,0 -83.0022814,36.2032501,0 -83.00195410000001,36.2029746,0 -83.0016552,36.2026979,0 -83.0013733,36.2024132,0 -83.0010035,36.2020017,0 -83.00066630000001,36.2016153,0 -83.0002094,36.2010891,0 -82.9971123,36.1975111,0 -82.9961717,36.1964285,0 -82.99556269999999,36.1957187,0 -82.995131,36.1952395,0 -82.9948273,36.1949209,0 -82.99460089999999,36.1947058,0 -82.9943966,36.1945296,0 -82.9941802,36.1943646,0 -82.9939767,36.1942186,0 -82.99374570000001,36.1940676,0 -82.9935049,36.1939201,0 -82.99314080000001,36.1937326,0 -82.99285930000001,36.1936015,0 -82.9925221,36.1934597,0 -82.99209140000001,36.1932928,0 -82.9889939,36.1921096,0 -82.9870396,36.1913644,0 -82.9859069,36.1909321,0 -82.98447299999999,36.1903825,0 -82.9837745,36.1901218,0 -82.9827063,36.189709,0 -82.9814695,36.1892402,0 -82.9799046,36.1886497,0 -82.9794789,36.1884984,0 -82.9790256,36.1883464,0 -82.97844190000001,36.1881611,0 -82.9779063,36.1880033,0 -82.9774204,36.1878696,0 -82.97708040000001,36.1877758,0 -82.9764357,36.1876226,0 -82.9759141,36.187508,0 -82.9752228,36.1873672,0 -82.9746178,36.1872588,0 -82.97401670000001,36.1871586,0 -82.9733695,36.1870696,0 -82.9727123,36.186992,0 -82.97209719999999,36.1869322,0 -82.9713726,36.1868775,0 -82.9706331,36.1868363,0 -82.9705707,36.1868341,0 -82.97007910000001,36.1868169,0 -82.9695478,36.1868112,0 -82.9690279,36.1868112,0 -82.9685927,36.1868153,0 -82.9680997,36.1868302,0 -82.9675769,36.1868553,0 -82.9670272,36.1868897,0 -82.9665523,36.1869264,0 -82.96568670000001,36.187011,0 -82.964787,36.1871253,0 -82.9641807,36.1872065,0 -82.96289710000001,36.1873883,0 -82.96117700000001,36.1876197,0 -82.96104990000001,36.187639,0 -82.9606062,36.1877085,0 -82.9602829,36.1877552,0 -82.96013430000001,36.1877824,0 -82.95937410000001,36.1878851,0 -82.9588368,36.1879613,0 -82.9582515,36.1880362,0 -82.9580809,36.1880555,0 -82.9576438,36.1880966,0 -82.9570143,36.1881303,0 -82.9568639,36.1881425,0 -82.95653160000001,36.1881485,0 -82.9561559,36.1881497,0 -82.9556649,36.1881328,0 -82.95517100000001,36.188105,0 -82.9548267,36.1880748,0 -82.95440309999999,36.1880253,0 -82.9539795,36.1879745,0 -82.9516265,36.1876761,0 -82.9502351,36.1875024,0 -82.94692860000001,36.187088,0 -82.9463193,36.1870119,0 -82.94399319999999,36.1867181,0 -82.9435649,36.1866653,0 -82.9405637,36.1862896,0 -82.9375807,36.1859145,0 -82.9360674,36.1857206,0 -82.9356812,36.185665,0 -82.93538340000001,36.1856118,0 -82.93500469999999,36.1855321,0 -82.93458699999999,36.1854282,0 -82.9342937,36.1853436,0 -82.9340078,36.185253,0 -82.93363650000001,36.1851213,0 -82.9332953,36.1849896,0 -82.9331112,36.1849123,0 -82.9327983,36.1847722,0 -82.93241209999999,36.1845813,0 -82.9321412,36.1844351,0 -82.9319077,36.1842974,0 -82.93164419999999,36.1841307,0 -82.93091440000001,36.1836484,0 -82.9283118,36.1819128,0 -82.92482459999999,36.1795832,0 -82.9235678,36.178747,0 -82.9230391,36.178388,0 -82.9202678,36.1765403,0 -82.9193738,36.1759444,0 -82.9176899,36.1748242,0 -82.91736760000001,36.1746196,0 -82.91702479999999,36.1744178,0 -82.91674039999999,36.1742595,0 -82.91640959999999,36.1741014,0 -82.9161117,36.1739636,0 -82.9157989,36.1738368,0 -82.91547559999999,36.1737111,0 -82.9150909,36.173583,0 -82.9148738,36.173518,0 -82.91464329999999,36.1734489,0 -82.91435439999999,36.1733728,0 -82.914224,36.1733415,0 -82.9141075,36.1733136,0 -82.9138585,36.1732611,0 -82.9135579,36.1732048,0 -82.9132584,36.1731569,0 -82.91291750000001,36.1731099,0 -82.9126229,36.1730772,0 -82.91226519999999,36.1730482,0 -82.91178619999999,36.1730204,0 -82.9091682,36.172937,0 -82.90688369999999,36.1728612,0 -82.9028828,36.1727309,0 -82.90187229999999,36.1726963,0 -82.90088540000001,36.1726648,0 -82.89902429999999,36.1726168,0 -82.8985917,36.172608,0 -82.89506350000001,36.1724754,0 -82.89254990000001,36.1723936,0 -82.8905433,36.1723269,0 -82.886613,36.1721994,0 -82.8841015,36.1721163,0 -82.8835749,36.1720985,0 -82.8829789,36.1720595,0 -82.882434,36.1720184,0 -82.8818727,36.171964,0 -82.881122,36.1718773,0 -82.8803374,36.1717649,0 -82.8792672,36.1715815,0 -82.87870599999999,36.1714684,0 -82.8780639,36.1713246,0 -82.8774816,36.1711856,0 -82.87703999999999,36.1710696,0 -82.87652660000001,36.1709246,0 -82.8757767,36.1707011,0 -82.87521839999999,36.1705162,0 -82.8746211,36.1703072,0 -82.8740044,36.1700746,0 -82.8734372,36.169862,0 -82.872533,36.1695205,0 -82.8721364,36.1693719,0 -82.87133559999999,36.1690674,0 -82.8686203,36.168039,0 -82.8682436,36.1678996,0 -82.8679547,36.1677937,0 -82.8676784,36.167698,0 -82.86749639999999,36.1676382,0 -82.8673027,36.1675809,0 -82.8670391,36.1675134,0 -82.86676919999999,36.1674579,0 -82.8665427,36.1674169,0 -82.8662485,36.1673818,0 -82.8659775,36.167363,0 -82.8656886,36.1673562,0 -82.8654303,36.1673596,0 -82.8652154,36.1673724,0 -82.8649815,36.1673955,0 -82.86469049999999,36.1674365,0 -82.8644163,36.1674869,0 -82.8641739,36.1675373,0 -82.8639538,36.1675972,0 -82.8636881,36.1676835,0 -82.86343410000001,36.1677809,0 -82.8631018,36.1679261,0 -82.8629291,36.1680164,0 -82.8628975,36.1680329,0 -82.8626953,36.1681423,0 -82.86242009999999,36.1683166,0 -82.8618286,36.1687301,0 -82.8589401,36.1708244,0 -82.8582622,36.1712863,0 -82.85800949999999,36.1714376,0 -82.85768090000001,36.1716115,0 -82.8573476,36.1717651,0 -82.8570033,36.1719059,0 -82.8567015,36.1720062,0 -82.85643109999999,36.1720887,0 -82.856189,36.1721547,0 -82.8558745,36.1722245,0 -82.85567330000001,36.1722625,0 -82.8554312,36.1723032,0 -82.85520339999999,36.1723314,0 -82.85487670000001,36.1723626,0 -82.8544651,36.1723858,0 -82.8539426,36.1723995,0 -82.8528833,36.1724078,0 -82.85124740000001,36.1724206,0 -82.850798,36.1724248,0 -82.8501552,36.1724322,0 -82.849131,36.1724428,0 -82.848572,36.1724443,0 -82.84702489999999,36.1724631,0 -82.8457586,36.1724769,0 -82.84494340000001,36.1724839,0 -82.8441809,36.1724946,0 -82.8436877,36.1725161,0 -82.8432148,36.1725369,0 -82.8428317,36.1725654,0 -82.84260690000001,36.1725865,0 -82.842274,36.1726197,0 -82.84198929999999,36.1726505,0 -82.84160869999999,36.1726958,0 -82.8412208,36.1727454,0 -82.8409387,36.1727842,0 -82.84051409999999,36.1728569,0 -82.84019809999999,36.1729171,0 -82.8398799,36.17298,0 -82.83974600000001,36.1730101,0 -82.8394236,36.1730812,0 -82.8393203,36.1731057,0 -82.8388585,36.1732167,0 -82.8384733,36.173315,0 -82.8381814,36.1733972,0 -82.8378384,36.1734974,0 -82.8375183,36.1735937,0 -82.8370707,36.1737352,0 -82.836401,36.1739516,0 -82.8357493,36.1741633,0 -82.83494810000001,36.1744207,0 -82.833415,36.1749143,0 -82.83112319999999,36.1756469,0 -82.8303349,36.175905,0 -82.8297855,36.1760853,0 -82.82897749999999,36.1763415,0 -82.8284639,36.1765081,0 -82.8272132,36.1769101,0 -82.8259486,36.1773157,0 -82.82448530000001,36.1777829,0 -82.8231258,36.1782247,0 -82.8225662,36.1784027,0 -82.8222019,36.1785196,0 -82.82171270000001,36.1786759,0 -82.82092590000001,36.178931,0 -82.8204679,36.1790768,0 -82.8200118,36.1792246,0 -82.8190938,36.1795164,0 -82.8186304,36.1796582,0 -82.818313,36.179744,0 -82.8179677,36.1798262,0 -82.81766210000001,36.1798893,0 -82.8174467,36.179931,0 -82.8171485,36.1799775,0 -82.8167648,36.1800299,0 -82.8164194,36.1800609,0 -82.81614190000001,36.1800823,0 -82.8158615,36.1800978,0 -82.8154777,36.1801038,0 -82.81517959999999,36.1801014,0 -82.8148638,36.1800918,0 -82.81455819999999,36.1800704,0 -82.81428219999999,36.1800454,0 -82.8139856,36.180012,0 -82.81374940000001,36.1799787,0 -82.813348,36.1799155,0 -82.8130306,36.1798512,0 -82.8126986,36.1797773,0 -82.81227939999999,36.1796773,0 -82.8119281,36.1795855,0 -82.81167430000001,36.17952,0 -82.8113589,36.1794407,0 -82.8109776,36.1793449,0 -82.8099946,36.1790923,0 -82.80976,36.1790316,0 -82.8095646,36.1789849,0 -82.8082752,36.1786563,0 -82.8078132,36.1785348,0 -82.807283,36.1784025,0 -82.80584399999999,36.1780368,0 -82.80512520000001,36.1778497,0 -82.8043474,36.1776508,0 -82.8038131,36.177515,0 -82.8028212,36.1772746,0 -82.80240499999999,36.1771877,0 -82.80201529999999,36.177115,0 -82.801698,36.1770602,0 -82.80123639999999,36.1769886,0 -82.8008229,36.1769316,0 -82.8005804,36.1769002,0 -82.80021619999999,36.1768624,0 -82.7998221,36.1768255,0 -82.79947230000001,36.1767981,0 -82.79910719999999,36.1767723,0 -82.79884060000001,36.1767576,0 -82.7986729,36.1767489,0 -82.79827969999999,36.1767385,0 -82.7977085,36.1767337,0 -82.7972773,36.1767338,0 -82.79709560000001,36.1767372,0 -82.7967177,36.1767552,0 -82.7962596,36.1767806,0 -82.79584,36.1768084,0 -82.7954822,36.1768387,0 -82.79540679999999,36.1768465,0 -82.7952542,36.1768624,0 -82.79510000000001,36.1768776,0 -82.7946264,36.1769312,0 -82.79433450000001,36.1769639,0 -82.794258,36.1769722,0 -82.7940857,36.176991,0 -82.7939209,36.1770089,0 -82.79330880000001,36.1770809,0 -82.7930068,36.177116,0 -82.7925852,36.1771655,0 -82.79244319999999,36.1771815,0 -82.7923847,36.1771885,0 -82.7920235,36.1772318,0 -82.7918726,36.1772499,0 -82.79093709999999,36.1773541,0 -82.79062999999999,36.1773803,0 -82.79043129999999,36.1773918,0 -82.7902327,36.1773902,0 -82.7900511,36.1773855,0 -82.7897127,36.1773648,0 -82.7894826,36.1773533,0 -82.7893325,36.1773467,0 -82.78905229999999,36.1773508,0 -82.7888712,36.1773501,0 -82.7885955,36.1773885,0 -82.7882915,36.17744,0 -82.78800870000001,36.1775071,0 -82.78773200000001,36.1775807,0 -82.78754549999999,36.1776257,0 -82.7872569,36.1776888,0 -82.78693029999999,36.1777624,0 -82.7865654,36.1778344,0 -82.7863804,36.1778665,0 -82.7862696,36.1779497,0 -82.7862279,36.1779556,0 -82.7860088,36.1779865,0 -82.7859569,36.1779932,0 -82.7855445,36.1780465,0 -82.7847646,36.1781329,0 -82.783818,36.1782423,0 -82.7835702,36.1782718,0 -82.7831485,36.178322,0 -82.7829613,36.1783419,0 -82.78208739999999,36.1784447,0 -82.7815185,36.1785117,0 -82.7789848,36.178807,0 -82.7785272,36.178859,0 -82.77840550000001,36.1788728,0 -82.7781763,36.1788989,0 -82.7779377,36.178926,0 -82.7772664,36.1790023,0 -82.7772664,36.1790023,0 -82.7770404,36.1789995,0 -82.77681579999999,36.1790293,0 -82.77657720000001,36.1790687,0 -82.7763293,36.1791329,0 -82.7759193,36.1792599,0 -82.7757549,36.1793325,0 -82.7756033,36.179417,0 -82.7753903,36.1795529,0 -82.77529850000001,36.1796143,0 -82.7750446,36.1797946,0 -82.77434150000001,36.1803081,0 -82.7731507,36.1811713,0 -82.7727027,36.181503,0 -82.77148219999999,36.1824022,0 -82.7712643,36.1825601,0 -82.77105899999999,36.1827086,0 -82.77093910000001,36.1827961,0 -82.7704894,36.1831256,0 -82.7700389,36.1834513,0 -82.7697222,36.1836817,0 -82.7695258,36.1838246,0 -82.7690812,36.1841524,0 -82.76873809999999,36.1843897,0 -82.76869000000001,36.1844193,0 -82.7684752,36.1845517,0 -82.7682497,36.1846907,0 -82.7679941,36.1848249,0 -82.7677128,36.1849605,0 -82.7673202,36.1851442,0 -82.766993,36.1852613,0 -82.7664959,36.1854252,0 -82.76606870000001,36.1855382,0 -82.7658026,36.185599,0 -82.7654053,36.1856696,0 -82.7649151,36.1857392,0 -82.764376,36.1857798,0 -82.7638771,36.1857939,0 -82.7637967,36.1857925,0 -82.76356199999999,36.1857883,0 -82.7631909,36.1857699,0 -82.7627585,36.1857233,0 -82.7624679,36.1856823,0 -82.7620443,36.1856103,0 -82.7618363,36.1855677,0 -82.7615,36.1854782,0 -82.7610473,36.1853511,0 -82.76057640000001,36.1852039,0 -82.76048369999999,36.1851749,0 -82.7592205,36.1847821,0 -82.7586228,36.1846001,0 -82.7567853,36.1840326,0 -82.7564113,36.1839127,0 -82.75595509999999,36.1837726,0 -82.7555686,36.1836542,0 -82.7516215,36.1824382,0 -82.75108470000001,36.1822779,0 -82.75080199999999,36.1821999,0 -82.7505175,36.1821349,0 -82.75017579999999,36.1820757,0 -82.74980720000001,36.1820252,0 -82.7494994,36.1819977,0 -82.7490754,36.1819761,0 -82.74858330000001,36.1819775,0 -82.7482559,36.1819934,0 -82.7479589,36.1820252,0 -82.74764759999999,36.1820685,0 -82.7474155,36.1821028,0 -82.7472298,36.1821417,0 -82.74697810000001,36.1822004,0 -82.74644000000001,36.182364,0 -82.7460177,36.1825217,0 -82.7454989,36.1827457,0 -82.74513210000001,36.1829366,0 -82.7446712,36.1831879,0 -82.743199,36.1839676,0 -82.7416674,36.1847875,0 -82.74125669999999,36.1850148,0 -82.7406486,36.18534,0 -82.7399319,36.1857198,0 -82.73923809999999,36.1860537,0 -82.7383763,36.1864713,0 -82.7370315,36.1871595,0 -82.73634730000001,36.1875352,0 -82.7360651,36.1876884,0 -82.7356853,36.1878942,0 -82.73392080000001,36.1888305,0 -82.7330946,36.1892724,0 -82.7305301,36.1906419,0 -82.72908270000001,36.1914113,0 -82.72846060000001,36.1917622,0 -82.7282548,36.1918803,0 -82.72793609999999,36.1920717,0 -82.7277514,36.192195,0 -82.72725560000001,36.1925424,0 -82.72681470000001,36.1928797,0 -82.7264448,36.1931842,0 -82.726124,36.1934692,0 -82.7258188,36.19375,0 -82.7255545,36.1940174,0 -82.7253831,36.1942063,0 -82.7250602,36.1945992,0 -82.72471849999999,36.1950394,0 -82.7238132,36.1962082,0 -82.72278319999999,36.197545,0 -82.72200290000001,36.1985623,0 -82.72173359999999,36.1989147,0 -82.7216349,36.199044,0 -82.72154140000001,36.1991639,0 -82.7201527,36.2009437,0 -82.7196088,36.2016416,0 -82.71931480000001,36.2020188,0 -82.71919490000001,36.2021756,0 -82.718909,36.202544,0 -82.71824599999999,36.2033855,0 -82.7166718,36.205438,0 -82.7164727,36.2056901,0 -82.71639639999999,36.2057868,0 -82.71631600000001,36.2058905,0 -82.7155851,36.2068333,0 -82.7155735,36.2068484,0 -82.7148715,36.207757,0 -82.71461499999999,36.208089,0 -82.7136807,36.2092985,0 -82.71269820000001,36.2105626,0 -82.7111645,36.2125359,0 -82.71065520000001,36.2131905,0 -82.7100452,36.2139191,0 -82.7095427,36.2144884,0 -82.70901670000001,36.2150505,0 -82.70842210000001,36.2156383,0 -82.7078522,36.216189,0 -82.7071107,36.2168743,0 -82.7064208,36.2174787,0 -82.70590319999999,36.2179105,0 -82.7054279,36.2182956,0 -82.70494429999999,36.2186723,0 -82.70441460000001,36.2190641,0 -82.7040425,36.2193304,0 -82.7033558,36.2198151,0 -82.70220430000001,36.2205786,0 -82.70186940000001,36.2207998,0 -82.69823340000001,36.2232065,0 -82.6963858,36.2244295,0 -82.6960163,36.2246577,0 -82.6954971,36.2249685,0 -82.6950825,36.2252016,0 -82.6947433,36.2253857,0 -82.6943697,36.2255838,0 -82.6938438,36.2258501,0 -82.6933873,36.2260663,0 -82.6929372,36.2262723,0 -82.6923468,36.226529,0 -82.6917675,36.2267046,0 -82.6914142,36.2268125,0 -82.6910261,36.2269498,0 -82.69077129999999,36.2270363,0 -82.69051519999999,36.2271323,0 -82.6901199,36.2272848,0 -82.6897111,36.2274433,0 -82.68948039999999,36.2275242,0 -82.68910200000001,36.2276641,0 -82.6885388,36.2278195,0 -82.6880007,36.2279563,0 -82.6875443,36.2280644,0 -82.6869811,36.2281877,0 -82.6865152,36.2282816,0 -82.686065,36.2283643,0 -82.68442570000001,36.2286312,0 -82.6839117,36.2287142,0 -82.6826172,36.2289218,0 -82.6813228,36.2291294,0 -82.6787837,36.2295399,0 -82.67788760000001,36.2296857,0 -82.6774751,36.2297432,0 -82.6770605,36.2297955,0 -82.6767256,36.2298293,0 -82.6763571,36.2298496,0 -82.6759488,36.229858,0 -82.6755343,36.2298597,0 -82.6750988,36.2298394,0 -82.6746277,36.2297989,0 -82.67406630000001,36.2297362,0 -82.6696639,36.2291824,0 -82.66901850000001,36.2291012,0 -82.6669151,36.2288361,0 -82.6643275,36.2285158,0 -82.66383039999999,36.2284654,0 -82.6637434,36.2284566,0 -82.66368629999999,36.2284519,0 -82.66330790000001,36.2284211,0 -82.6629394,36.2284127,0 -82.66261489999999,36.2284177,0 -82.66222759999999,36.2284397,0 -82.6617942,36.2284853,0 -82.6613608,36.2285596,0 -82.66101329999999,36.2286339,0 -82.6607013,36.228715,0 -82.6604124,36.2288011,0 -82.66013390000001,36.2288991,0 -82.6594242,36.2291789,0 -82.6570401,36.2301204,0 -82.6563838,36.2303681,0 -82.6559597,36.2305145,0 -82.65564759999999,36.2306145,0 -82.6552499,36.2307317,0 -82.65487349999999,36.2308304,0 -82.6545033,36.230923,0 -82.6540092,36.2310291,0 -82.6534156,36.2311426,0 -82.6529161,36.2312264,0 -82.6524051,36.2312886,0 -82.6519136,36.231339,0 -82.65147349999999,36.2313737,0 -82.65083060000001,36.2314043,0 -82.6502931,36.2314162,0 -82.64978929999999,36.2314128,0 -82.64932349999999,36.2314009,0 -82.64900470000001,36.2313865,0 -82.64770679999999,36.2313278,0 -82.64412350000001,36.2311747,0 -82.6434204,36.2311484,0 -82.6429079,36.2311462,0 -82.6426956,36.231153,0 -82.6421565,36.2311786,0 -82.64161420000001,36.2312348,0 -82.6412265,36.2312875,0 -82.6408758,36.2313473,0 -82.64042929999999,36.2314439,0 -82.63984120000001,36.231595,0 -82.6393468,36.2317496,0 -82.63891769999999,36.2319095,0 -82.6384102,36.2321098,0 -82.63786349999999,36.2323645,0 -82.6371034,36.2327387,0 -82.6334899,36.2345044,0 -82.6297033,36.2363512,0 -82.62752089999999,36.2374129,0 -82.627082,36.237629,0 -82.6257571,36.2382749,0 -82.6249691,36.2386577,0 -82.62345310000001,36.239399,0 -82.6201882,36.2409924,0 -82.6157425,36.2431546,0 -82.6148539,36.243592,0 -82.6130809,36.2444545,0 -82.6126787,36.2446561,0 -82.61214579999999,36.244912,0 -82.61008510000001,36.2459206,0 -82.6074821,36.2471842,0 -82.6056232,36.2480934,0 -82.6035717,36.2490958,0 -82.60309119999999,36.2493293,0 -82.599344,36.2511538,0 -82.5988979,36.2513752,0 -82.5988835,36.2513823,0 -82.5979396,36.2518379,0 -82.59791559999999,36.2518495,0 -82.5961027,36.252735,0 -82.5955665,36.2529972,0 -82.59521599999999,36.2531596,0 -82.5951712,36.2531804,0 -82.593886,36.253709,0 -82.592185,36.254274,0 -82.592162,36.254282,0 -82.5915621,36.2543878,0 -82.589714,36.254761,0 -82.586629,36.255365,0 -82.5855,36.255586,0 -82.582069,36.256258,0 -82.5783078,36.2569793,0 -82.5766302,36.2572882,0 -82.5731421,36.2579305,0 -82.5689192,36.2587107,0 -82.5639834,36.2596009,0 -82.5583702,36.2606728,0 -82.55237409999999,36.2617846,0 -82.5513747,36.262045,0 -82.5503554,36.262364,0 -82.5494558,36.2626756,0 -82.54840040000001,36.2631011,0 -82.5483615,36.2631168,0 -82.54743379999999,36.263606,0 -82.5464241,36.264156,0 -82.54586279999999,36.2644999,0 -82.5357899,36.2710945,0 -82.53379169999999,36.2723899,0 -82.53234329999999,36.2731165,0 -82.5307021,36.2738432,0 -82.52910319999999,36.2743447,0 -82.5277857,36.2746928,0 -82.5261209,36.2750323,0 -82.5249943,36.2752961,0 -82.5239,36.2756681,0 -82.5227842,36.276187,0 -82.5222677,36.2764633,0 -82.5217864,36.2768184,0 -82.5209351,36.277477,0 -82.520155,36.2782135,0 -82.5194309,36.2789688,0 -82.51791110000001,36.2804177,0 -82.51749940000001,36.2808051,0 -82.51665130000001,36.2816032,0 -82.5149818,36.2832028,0 -82.51442729999999,36.2837341,0 -82.5139568,36.2841849,0 -82.5129211,36.2851783,0 -82.5121748,36.2858942,0 -82.51059770000001,36.2874069,0 -82.50934549999999,36.2886257,0 -82.5080834,36.2897718,0 -82.5080421,36.2898093,0 -82.5074133,36.2902623,0 -82.506715,36.2906976,0 -82.50565570000001,36.2912005,0 -82.50447920000001,36.2915898,0 -82.503956,36.2917222,0 -82.5034328,36.2918546,0 -82.5033754,36.2918657,0 -82.5032104,36.2918977,0 -82.5018731,36.2921568,0 -82.5006578,36.292398,0 -82.4997204,36.2925841,0 -82.4995378,36.2926203,0 -82.49712049999999,36.2931001,0 -82.4953593,36.2934543,0 -82.49353720000001,36.2938142,0 -82.4934063,36.293841,0 -82.4923781,36.2940575,0 -82.491726,36.2941848,0 -82.4884241,36.2948377,0 -82.4880129,36.2948834,0 -82.487531,36.2949481,0 -82.4870414,36.2949729,0 -82.4860808,36.2949846,0 -82.4852471,36.2948944,0 -82.48417449999999,36.2947072,0 -82.4836689,36.2946107,0 -82.4832305,36.294535,0 -82.4829003,36.2944951,0 -82.4825747,36.2944842,0 -82.4821736,36.2944722,0 -82.4820823,36.2944695,0 -82.4815246,36.2944821,0 -82.4810935,36.2945067,0 -82.4809217,36.2945293,0 -82.4805183,36.2945823,0 -82.4801018,36.2946608,0 -82.47969759999999,36.2947491,0 -82.4790386,36.2949329,0 -82.4785171,36.2951156,0 -82.47827770000001,36.2952064,0 -82.4782057,36.2952337,0 -82.4777054,36.2954852,0 -82.4771599,36.2957885,0 -82.4762911,36.29633,0 -82.4756179,36.2967338,0 -82.4751971,36.2969863,0 -82.47473100000001,36.2972613,0 -82.4736343,36.2979121,0 -82.4732905,36.2980934,0 -82.4729312,36.2982707,0 -82.47275,36.2983477,0 -82.4723357,36.2985122,0 -82.4719365,36.2986595,0 -82.47157180000001,36.2987808,0 -82.4709246,36.2989479,0 -82.4701908,36.2990969,0 -82.4696592,36.2992026,0 -82.46883339999999,36.2993674,0 -82.4681595,36.2995041,0 -82.46407290000001,36.3003327,0 -82.463342,36.3004809,0 -82.4619156,36.3008327,0 -82.4612441,36.3010153,0 -82.46105319999999,36.3010708,0 -82.4608286,36.3011361,0 -82.46020179999999,36.3013338,0 -82.4594639,36.3015939,0 -82.45807189999999,36.3020919,0 -82.45803739999999,36.3021042,0 -82.4567776,36.3025672,0 -82.456754,36.3025758,0 -82.4560189,36.3028453,0 -82.45590300000001,36.3028878,0 -82.45570480000001,36.3029608,0 -82.4554401,36.3030584,0 -82.454944,36.3032412,0 -82.454071,36.303563,0 -82.45365820000001,36.3037114,0 -82.4526686,36.3040671,0 -82.45108190000001,36.304646,0 -82.4507619,36.304758,0 -82.4483707,36.3056328,0 -82.4479793,36.3057753,0 -82.4473914,36.3059881,0 -82.4467885,36.3062063,0 -82.4466762,36.306247,0 -82.446657,36.3062538,0 -82.44588229999999,36.3065299,0 -82.44455960000001,36.3070186,0 -82.4442057,36.3071471,0 -82.4432431,36.3074965,0 -82.4416152,36.3080939,0 -82.44129119999999,36.3082068,0 -82.4392386,36.3089485,0 -82.4367421,36.3098925,0 -82.4361287,36.3101101,0 -82.435301,36.3104212,0 -82.43417890000001,36.3108316,0 -82.4328769,36.3113223,0 -82.4320807,36.3116174,0 -82.4313571,36.3118857,0 -82.43027240000001,36.3122831,0 -82.42979029999999,36.3124645,0 -82.4292623,36.3126344,0 -82.42893220000001,36.3127373,0 -82.4285155,36.3128466,0 -82.4282381,36.3129185,0 -82.4282102,36.3129247,0 -82.4279167,36.3129894,0 -82.42738,36.3131088,0 -82.42677930000001,36.3132183,0 -82.4263261,36.3132805,0 -82.4258205,36.3133464,0 -82.4254464,36.3133822,0 -82.425146,36.3134095,0 -82.4247147,36.313432,0 -82.42441549999999,36.3134433,0 -82.42394640000001,36.3134497,0 -82.4236978,36.3134594,0 -82.4233461,36.3134496,0 -82.422777,36.3134351,0 -82.42210710000001,36.3133817,0 -82.4216947,36.3133439,0 -82.42131070000001,36.3133035,0 -82.4208134,36.3132327,0 -82.4201826,36.3131194,0 -82.4194882,36.3129831,0 -82.41791019999999,36.3126982,0 -82.4170817,36.3125395,0 -82.4162231,36.312383,0 -82.41563669999999,36.3122712,0 -82.4152673,36.3122008,0 -82.4139081,36.311946,0 -82.4138189,36.3119293,0 -82.4127477,36.3117311,0 -82.411517,36.3115033,0 -82.41010850000001,36.3112426,0 -82.4089388,36.3110215,0 -82.4081518,36.3108814,0 -82.4073075,36.3107246,0 -82.4065469,36.3105837,0 -82.4064861,36.3105693,0 -82.40636689999999,36.3105415,0 -82.40624200000001,36.3105186,0 -82.4060908,36.3104922,0 -82.4047039,36.3102344,0 -82.4044395,36.3102037,0 -82.40427440000001,36.3101709,0 -82.40392250481892,36.31010782605587,0 -82.4031264,36.3099942,0 -82.4025465,36.3098873,0 -82.4022817,36.3098388,0 -82.4016202,36.3097161,0 -82.40126619999999,36.3096505,0 -82.4006394,36.3095462,0 -82.40036550000001,36.309509,0 -82.4001492,36.3094862,0 -82.39988839999999,36.3094588,0 -82.3996932,36.309443,0 -82.3994517,36.3094258,0 -82.3991729,36.3094084,0 -82.39888809999999,36.3093965,0 -82.398765,36.3093936,0 -82.3984409,36.3093864,0 -82.3982647,36.309385,0 -82.397932,36.3093913,0 -82.3975767,36.309407,0 -82.39720680000001,36.309429,0 -82.3968552,36.3094563,0 -82.3962647,36.3095287,0 -82.3959358,36.3095762,0 -82.3956165,36.3096306,0 -82.3949784,36.3097527,0 -82.3949417,36.3097597,0 -82.3945037,36.3098601,0 -82.3944157,36.3098817,0 -82.3941739,36.309941,0 -82.393883,36.3099557,0 -82.3934397,36.3100657,0 -82.39322369999999,36.3101212,0 -82.3927429,36.3102469,0 -82.39240700000001,36.3103398,0 -82.3919289,36.3104751,0 -82.3912002,36.3106623,0 -82.3910162,36.3106933,0 -82.3906585,36.3107807,0 -82.3904108,36.3108458,0 -82.3900084,36.310963,0 -82.3896768,36.3110485,0 -82.3895534,36.3110805,0 -82.389366,36.3111251,0 -82.3892755,36.3111321,0 -82.3891895,36.311151,0 -82.3886468,36.3112825,0 -82.3881543,36.3114039,0 -82.3879874,36.3114482,0 -82.3877822,36.3115175,0 -82.3871874,36.3116676,0 -82.38714179999999,36.3116784,0 -82.3869596,36.3117165,0 -82.3867765,36.3117558,0 -82.3866007,36.3117936,0 -82.3864525,36.3118254,0 -82.38607949999999,36.3119202,0 -82.38570780000001,36.3120164,0 -82.38539729999999,36.3120954,0 -82.38511870000001,36.3121726,0 -82.3849798,36.3122742,0 -82.3845551,36.3123901,0 -82.3844326,36.3124239,0 -82.38419639999999,36.3124857,0 -82.3840611,36.31252,0 -82.3839736,36.3125409,0 -82.3838422,36.3125754,0 -82.38344309999999,36.3126751,0 -82.3832352,36.312729,0 -82.38230660000001,36.3129621,0 -82.3821681,36.312997,0 -82.3816913,36.3131184,0 -82.3802228,36.3134934,0 -82.3798594,36.3135834,0 -82.3797563,36.3136106,0 -82.37956699999999,36.3136575,0 -82.3793696,36.3137104,0 -82.3791181,36.3137739,0 -82.3790415,36.3137933,0 -82.3789005,36.3138278,0 -82.3787069,36.3138781,0 -82.3786218,36.3138992,0 -82.3781364,36.3140243,0 -82.37672209999999,36.3143818,0 -82.37559090000001,36.3146713,0 -82.37536,36.3147275,0 -82.3751621,36.3147676,0 -82.37496609999999,36.3147959,0 -82.37477060000001,36.3148265,0 -82.3747102,36.3148359,0 -82.3745978,36.3148574,0 -82.3743436,36.3149144,0 -82.3742987,36.3149225,0 -82.3742171,36.3150007,0 -82.37410629999999,36.3150301,0 -82.37406470000001,36.3150392,0 -82.3734498,36.3151974,0 -82.37211670000001,36.3155352,0 -82.37115110000001,36.3157816,0 -82.37047099999999,36.3159697,0 -82.37008830000001,36.3160777,0 -82.37000449999999,36.3160928,0 -82.3699103,36.3161089,0 -82.3698122,36.3161256,0 -82.3696784,36.3161484,0 -82.3695412,36.3161717,0 -82.36862669999999,36.3163688,0 -82.36852330000001,36.3163911,0 -82.3683195,36.3164398,0 -82.36814769999999,36.3164832,0 -82.3679996,36.316517,0 -82.3679104,36.316537,0 -82.3677497,36.3166038,0 -82.3676147,36.3166569,0 -82.3674752,36.3167274,0 -82.3673639,36.3167817,0 -82.3672136,36.3168621,0 -82.3671178,36.3169337,0 -82.3670333,36.3170038,0 -82.36696209999999,36.317065,0 -82.3668328,36.3172114,0 -82.3667564,36.3173145,0 -82.36668659999999,36.3174171,0 -82.3666363,36.3175084,0 -82.3665893,36.3176047,0 -82.36652890000001,36.3178626,0 -82.3665069,36.3180017,0 -82.36649749999999,36.3181315,0 -82.3665056,36.3182638,0 -82.3665197,36.3183809,0 -82.3665594,36.3185451,0 -82.3666564,36.3187849,0 -82.3667899,36.3189991,0 -82.36695899999999,36.3192082,0 -82.3671737,36.3194722,0 -82.36854080000001,36.3211065,0 -82.3687948,36.3214411,0 -82.3689598,36.3216912,0 -82.36909799999999,36.3219466,0 -82.3691965,36.3221311,0 -82.3692796,36.3223152,0 -82.3693822,36.3225816,0 -82.3694816,36.3229047,0 -82.369578,36.323346,0 -82.3696183,36.3236805,0 -82.3696289,36.3240224,0 -82.3696156,36.3245941,0 -82.36959349999999,36.3251771,0 -82.36957940000001,36.3256686,0 -82.36959280000001,36.3258024,0 -82.3695941,36.3264125,0 -82.3695834,36.3267653,0 -82.3696109,36.3275157,0 -82.3696364,36.3279457,0 -82.3696676,36.3281048,0 -82.3696994,36.3284967,0 -82.3697007,36.3287366,0 -82.3697092,36.3288102,0 -82.36975769999999,36.329253,0 -82.36977690000001,36.3293517,0 -82.3697968,36.3294668,0 -82.3698121,36.3295501,0 -82.3698328,36.3296531,0 -82.3698644,36.3297657,0 -82.3698792,36.3298087,0 -82.3699151,36.3298692,0 -82.3700431,36.3301804,0 -82.3701468,36.3304038,0 -82.3701944,36.3305062,0 -82.37030300000001,36.3307478,0 -82.3705283,36.3312492,0 -82.37064030000001,36.3316457,0 -82.3714548,36.3332981,0 -82.3718319,36.3340634,0 -82.3726368,36.3356876,0 -82.373459,36.3373627,0 -82.3740378,36.3385235,0 -82.3741206,36.3386926,0 -82.3742649,36.3389871,0 -82.3743813,36.3392246,0 -82.37454459999999,36.3395671,0 -82.3746139,36.3397126,0 -82.3747137,36.3399203,0 -82.3747666,36.3400306,0 -82.3747729,36.3400546,0 -82.3748932,36.34028,0 -82.3749487,36.3403895,0 -82.3749797,36.3404532,0 -82.3750259,36.3405483,0 -82.3750802,36.3406599,0 -82.3751855,36.3408766,0 -82.3752506,36.3410106,0 -82.3753255,36.3411599,0 -82.37538499999999,36.3412786,0 -82.3756616,36.3418298,0 -82.3757109,36.3419282,0 -82.37575200000001,36.3420101,0 -82.37579270000001,36.3420911,0 -82.3760376,36.3425793,0 -82.3761588,36.3428209,0 -82.37633510000001,36.3431654,0 -82.3764924,36.343481,0 -82.3765614,36.3436175,0 -82.3765897,36.3436722,0 -82.3767367,36.343956,0 -82.3768082,36.344102,0 -82.3768424,36.3441717,0 -82.37701149999999,36.3444916,0 -82.37705630000001,36.3445763,0 -82.3771212,36.3446969,0 -82.37715540000001,36.3447605,0 -82.3772987,36.3450268,0 -82.37897473914174,36.34827338847678,0 -82.38048863762772,36.35104110626191,0 -82.38128452671239,36.3527892658964,0 -82.3821553360922,36.35442618343865,0 -82.38315146754802,36.35611025036356,0 -82.3831571891351,36.3561185898998,0 -82.3832477726887,36.3562652429036,0 -82.3834422319073,36.356695620326,0 -82.3837590199079,36.3571869808489,0 -82.3839818641647,36.3578010574363,0 -82.38413490000001,36.3582598,0 -82.3841901,36.3585035,0 -82.384193,36.3585164,0 -82.3842811,36.3588349,0 -82.3843306,36.3594734,0 -82.3842995,36.3598988,0 -82.38428159999999,36.3600662,0 -82.3842203,36.3603621,0 -82.3841901,36.3605097,0 -82.3841568,36.3606701,0 -82.38411309999999,36.3608378,0 -82.3840154,36.3611123,0 -82.38392519999999,36.3613359,0 -82.3836817,36.3618698,0 -82.3836603,36.3618978,0 -82.38355249999999,36.3620388,0 -82.38349669999999,36.3621118,0 -82.3834148,36.3622277,0 -82.38327750000001,36.362422,0 -82.3832039,36.3625121,0 -82.3831206,36.362614,0 -82.3830401,36.3627126,0 -82.3829412,36.362837,0 -82.3827476,36.3630803,0 -82.38245619999999,36.3633944,0 -82.38205480000001,36.3638243,0 -82.3817531,36.3641755,0 -82.38132419999999,36.3646509,0 -82.3811236,36.3648732,0 -82.3809924,36.3650198,0 -82.380618,36.3654477,0 -82.38058839999999,36.3654815,0 -82.380387,36.3657064,0 -82.3800875,36.3660411,0 -82.3789744,36.3672863,0 -82.3785185,36.3678012,0 -82.3777596,36.3686498,0 -82.3774749,36.3689686,0 -82.3769772,36.3695243,0 -82.3762566,36.370326,0 -82.3753576,36.3713309,0 -82.3751295,36.3715806,0 -82.37467770000001,36.3720692,0 -82.3744275,36.3723469,0 -82.37403140000001,36.3728027,0 -82.3738262,36.3730432,0 -82.3730844,36.3738812,0 -82.373053,36.3739162,0 -82.3728277,36.3741669,0 -82.37259450000001,36.3744264,0 -82.37239270000001,36.374651,0 -82.37233519999999,36.374715,0 -82.3718729,36.3752306,0 -82.3715713,36.3755662,0 -82.3712173,36.3759602,0 -82.3708654,36.3763552,0 -82.3705235,36.37674,0 -82.3702881,36.3770048,0 -82.3700041,36.3773309,0 -82.3698998,36.3774507,0 -82.36945110000001,36.3779428,0 -82.3693178,36.3781166,0 -82.36917800000001,36.3782736,0 -82.36890459999999,36.3786154,0 -82.3687319,36.378827,0 -82.3684866,36.3789719,0 -82.3675721,36.3800408,0 -82.36756339999999,36.3800505,0 -82.36732379999999,36.3803189,0 -82.3670334,36.3806407,0 -82.3669226,36.3807642,0 -82.3666917,36.3810214,0 -82.3665359,36.3811949,0 -82.36652530000001,36.3812068,0 -82.3660027,36.3817938,0 -82.36598859999999,36.3818096,0 -82.3640187,36.3840114,0 -82.3639056,36.3841369,0 -82.36367180000001,36.3843962,0 -82.3625236,36.3856828,0 -82.36206199999999,36.386204,0 -82.3617809,36.3865177,0 -82.36137600000001,36.3869694,0 -82.36089990000001,36.3875263,0 -82.3606444,36.3878301,0 -82.36024089999999,36.3883302,0 -82.3599287,36.3887301,0 -82.3598358,36.3888527,0 -82.35946800000001,36.3893584,0 -82.35928180000001,36.3896328,0 -82.3592721,36.3896471,0 -82.3590063,36.390061,0 -82.3587378,36.3904957,0 -82.35843439999999,36.3909911,0 -82.3580207,36.3916864,0 -82.3571362,36.3931506,0 -82.35622549999999,36.3946993,0 -82.3558104,36.3953893,0 -82.35547080000001,36.3959241,0 -82.3552608,36.3962112,0 -82.35508110000001,36.3964152,0 -82.354854,36.3966641,0 -82.35464930000001,36.3968562,0 -82.35441470000001,36.397065,0 -82.3541656,36.3972649,0 -82.35388829999999,36.397475,0 -82.3536495,36.3976507,0 -82.3531521,36.3979988,0 -82.351462,36.3991727,0 -82.3490556,36.4008586,0 -82.3484457,36.4012877,0 -82.34679439999999,36.4024459,0 -82.3463629,36.4027485,0 -82.34460060000001,36.4039762,0 -82.3417796,36.4059512,0 -82.3384008,36.4083165,0 -82.33633260000001,36.4097537,0 -82.3357625,36.4101492,0 -82.3340403,36.4113674,0 -82.3320895,36.4127323,0 -82.3309355,36.4135352,0 -82.32995529999999,36.4142399,0 -82.3295366,36.4145584,0 -82.3289185,36.415057,0 -82.32774089999999,36.4160653,0 -82.3272566,36.4164858,0 -82.3268271,36.41688,0 -82.3257304,36.4179549,0 -82.3250738,36.4186231,0 -82.32472970000001,36.41897,0 -82.3245178,36.4191802,0 -82.32425120000001,36.4194372,0 -82.32415570000001,36.4195956,0 -82.323739,36.419979,0 -82.3235213,36.4201776,0 -82.32333149999999,36.4203394,0 -82.3229233,36.420686,0 -82.3209531,36.4223783,0 -82.3202986,36.4229385,0 -82.31991189999999,36.4232703,0 -82.3189048,36.4241376,0 -82.3185064,36.4244739,0 -82.3179817,36.4249219,0 -82.31755029999999,36.4252934,0 -82.3169178,36.4258338,0 -82.3165205,36.4261704,0 -82.3159596,36.4266521,0 -82.31564969999999,36.4269199,0 -82.3155108,36.4270382,0 -82.3153341,36.4271898,0 -82.3147934,36.4276505,0 -82.3141557,36.4281986,0 -82.3135387,36.4287291,0 -82.3113396,36.4306091,0 -82.3112982,36.4306447,0 -82.3105886,36.431255,0 -82.3104539,36.4313708,0 -82.3102282,36.4315703,0 -82.3098219,36.4319293,0 -82.3093507,36.4323757,0 -82.30898759999999,36.4327225,0 -82.30868030000001,36.4330116,0 -82.3079819,36.4337085,0 -82.30765649999999,36.4340204,0 -82.30763589999999,36.4340437,0 -82.3071109,36.4344225,0 -82.30762162045114,36.43404450160858,0 -82.3066165,36.4348737,0 -82.30595630000001,36.4354363,0 -82.3057934,36.4355731,0 -82.3053448,36.4359649,0 -82.3043942,36.4367685,0 -82.303861,36.4372555,0 -82.30298089999999,36.4380098,0 -82.30265780000001,36.4382971,0 -82.30251699999999,36.4384224,0 -82.3013617,36.4393977,0 -82.3010982,36.4396324,0 -82.30002450000001,36.4405629,0 -82.2987311,36.4416737,0 -82.2986526,36.4417398,0 -82.2985339,36.4418396,0 -82.2972719,36.4429179,0 -82.29696970000001,36.4431664,0 -82.29636410000001,36.4436644,0 -82.29616009999999,36.4438321,0 -82.2957275,36.4441873,0 -82.29571319999999,36.4441988,0 -82.2948488,36.4448905,0 -82.2944835,36.4451772,0 -82.2934322,36.4459616,0 -82.29304,36.4462339,0 -82.2925714,36.4465763,0 -82.2919663,36.4470056,0 -82.29144700000001,36.447386,0 -82.29078749999999,36.4478713,0 -82.2903501,36.4481686,0 -82.28949160000001,36.4487726,0 -82.28890440000001,36.4492017,0 -82.2882005,36.4497192,0 -82.2877926,36.4500942,0 -82.2876452,36.450249,0 -82.28755049999999,36.4503484,0 -82.2872593,36.4506723,0 -82.2871021,36.4509206,0 -82.28683100000001,36.4513545,0 -82.28644989999999,36.4523011,0 -82.28635439999999,36.4527822,0 -82.2861726,36.4537002,0 -82.2860799,36.4543167,0 -82.2860694,36.454393,0 -82.28590560000001,36.4555801,0 -82.2858454,36.4559982,0 -82.285747,36.4566729,0 -82.2854506,36.4586848,0 -82.28536819999999,36.4593055,0 -82.28514180000001,36.4608222,0 -82.28494120000001,36.4622449,0 -82.28453620000001,36.4650269,0 -82.28440089999999,36.4659922,0 -82.28429730000001,36.4666742,0 -82.2839944,36.4687598,0 -82.2838771,36.4696085,0 -82.2838038,36.470117,0 -82.283277,36.4737576,0 -82.28321870000001,36.4741747,0 -82.2829943,36.4757078,0 -82.282595,36.4784935,0 -82.2824967,36.479122,0 -82.2824186,36.4795796,0 -82.2823405,36.479909,0 -82.2823336,36.4799333,0 -82.2822448,36.480246,0 -82.2821412,36.4805408,0 -82.28213239999999,36.4805634,0 -82.2820328,36.4808202,0 -82.2819968,36.4808993,0 -82.2818625,36.4811948,0 -82.2816641,36.4815755,0 -82.2814387,36.481947,0 -82.2811817,36.4823041,0 -82.2808886,36.4826757,0 -82.28063160000001,36.4829639,0 -82.280334,36.4832693,0 -82.2800455,36.4835372,0 -82.2797793,36.4837717,0 -82.2794143,36.4840729,0 -82.27825420000001,36.4849978,0 -82.277344,36.4857348,0 -82.2734188,36.4889069,0 -82.2706424,36.4911564,0 -82.2704367,36.4913243,0 -82.27020880000001,36.4915101,0 -82.2698341,36.4918151,0 -82.2696189,36.4920125,0 -82.2693001,36.49232,0 -82.2690642,36.4925751,0 -82.2688299,36.4928365,0 -82.2686657,36.4930441,0 -82.26855089999999,36.493203,0 -82.2683277,36.4935157,0 -82.2681492,36.493795,0 -82.2679485,36.4941471,0 -82.2677862,36.494486,0 -82.26767340000001,36.4947488,0 -82.2675283,36.4951217,0 -82.2674136,36.4954934,0 -82.2673164,36.4958919,0 -82.2672422,36.4962803,0 -82.26718579999999,36.4966609,0 -82.2667678,36.5000257,0 -82.2666566,36.5009127,0 -82.2663123,36.503729,0 -82.26624049999999,36.5041029,0 -82.2661384,36.5046384,0 -82.2660549,36.5050404,0 -82.26594,36.5054662,0 -82.2657768,36.5059987,0 -82.2656253,36.5064382,0 -82.2654436,36.506902,0 -82.26528740000001,36.5072531,0 -82.265136,36.50759,0 -82.26476460000001,36.5083139,0 -82.26454459999999,36.5087134,0 -82.26378010000001,36.5101364,0 -82.2634,36.5108622,0 -82.2632765,36.5110959,0 -82.2632105,36.5112145,0 -82.2631775,36.5112738,0 -82.2629309,36.5117108,0 -82.26279769999999,36.5119727,0 -82.2623566,36.5128033,0 -82.26212510000001,36.5132536,0 -82.262064,36.5133593,0 -82.2618873,36.5136808,0 -82.26174330000001,36.5139775,0 -82.2616944,36.5140843,0 -82.261644,36.5141942,0 -82.26153720000001,36.5144645,0 -82.261416,36.5147988,0 -82.26129830000001,36.5151797,0 -82.2608948,36.5165898,0 -82.2608646,36.5166947,0 -82.2607194,36.5171992,0 -82.2606408,36.5175077,0 -82.26059360000001,36.5176735,0 -82.26057849999999,36.5177219,0 -82.2605312,36.5178596,0 -82.26038509999999,36.5183428,0 -82.26029990000001,36.51864,0 -82.2599867,36.5197139,0 -82.25993010000001,36.5198758,0 -82.25988630000001,36.5200009,0 -82.2597619,36.5203058,0 -82.2596264,36.5206325,0 -82.2595826,36.5207324,0 -82.2595427,36.5208183,0 -82.2594806,36.5209566,0 -82.2593339,36.5212551,0 -82.2591331,36.5216138,0 -82.2588939,36.5220211,0 -82.25880960000001,36.5221348,0 -82.2587951,36.5221544,0 -82.2585895,36.5224259,0 -82.2584588,36.5225925,0 -82.2583882,36.5226803,0 -82.2581196,36.5230044,0 -82.2579095,36.5232241,0 -82.2578929,36.5232414,0 -82.2578048,36.5233318,0 -82.257554,36.5235892,0 -82.2571873,36.5239298,0 -82.2568022,36.5242579,0 -82.25644149999999,36.5245458,0 -82.2561161,36.5247877,0 -82.25580050000001,36.525011,0 -82.25522650000001,36.5254086,0 -82.2544295,36.5259668,0 -82.25403710000001,36.5262381,0 -82.25386159999999,36.5263634,0 -82.2528954,36.5270407,0 -82.25154569999999,36.527984,0 -82.25036609999999,36.5288142,0 -82.25002050000001,36.5290572,0 -82.24993929999999,36.5291133,0 -82.2496276,36.5293287,0 -82.24912519999999,36.5296804,0 -82.24871330000001,36.5299692,0 -82.2481403,36.5303722,0 -82.24727849999999,36.5309773,0 -82.2463095,36.5316582,0 -82.2453096,36.5323541,0 -82.244871,36.5326629,0 -82.244834,36.5326881,0 -82.2447281,36.5327601,0 -82.2443391,36.5330348,0 -82.2441149,36.5331931,0 -82.24397140000001,36.5332944,0 -82.2435145,36.5336189,0 -82.2434927,36.5336344,0 -82.2423325,36.5345001,0 -82.24221900000001,36.534585,0 -82.2420295,36.5347078,0 -82.2419469,36.5347613,0 -82.2418928,36.5347964,0 -82.241452,36.5350411,0 -82.2410625,36.5352382,0 -82.2406024,36.5354852,0 -82.2401799,36.5357146,0 -82.2398053,36.5359232,0 -82.2391133,36.5362601,0 -82.23868830000001,36.5365219,0 -82.23844680000001,36.5366738,0 -82.2381357,36.5368654,0 -82.23785479999999,36.5370507,0 -82.2376677,36.5371743,0 -82.23746490000001,36.5373262,0 -82.237252,36.5375016,0 -82.2369202,36.53777,0 -82.2367682,36.5379165,0 -82.2366731,36.5380081,0 -82.2364628,36.5381981,0 -82.23619770000001,36.5384578,0 -82.23591089999999,36.538763,0 -82.2356207,36.5390918,0 -82.2346294,36.5403463,0 -82.23423029999999,36.5408581,0 -82.2339527,36.5412492,0 -82.2337332,36.5415471,0 -82.23360169999999,36.5417039,0 -82.2333866,36.5420243,0 -82.2332961,36.5421379,0 -82.2330891,36.542383,0 -82.23308179999999,36.5423922,0 -82.2325257,36.5430851,0 -82.2323288,36.5433396,0 -82.23214609999999,36.5435854,0 -82.23198739999999,36.543747,0 -82.2317867,36.5439416,0 -82.23162360000001,36.5441091,0 -82.2314236,36.5442758,0 -82.231217,36.5444557,0 -82.23081380000001,36.5447681,0 -82.229585,36.5455704,0 -82.2292317,36.5458298,0 -82.2281165,36.5466371,0 -82.2276633,36.5469659,0 -82.22695659999999,36.547481,0 -82.2262178,36.5480209,0 -82.224599,36.5492174,0 -82.2241947,36.5495104,0 -82.2239611,36.5496797,0 -82.2239324,36.5497021,0 -82.2237591,36.5498373,0 -82.22374619999999,36.5498465,0 -82.2233172,36.5501528,0 -82.222533,36.5506953,0 -82.2221929,36.550944,0 -82.22180419999999,36.5512279,0 -82.2214577,36.5515085,0 -82.2209888,36.5518612,0 -82.22064159999999,36.5521409,0 -82.21964079999999,36.5529048,0 -82.2192715,36.5531785,0 -82.21873359999999,36.5535302,0 -82.21846290000001,36.5537188,0 -82.21829700000001,36.5538304,0 -82.2180279,36.5540115,0 -82.21756619999999,36.5543052,0 -82.21722130000001,36.5544961,0 -82.21669,36.5547545,0 -82.2165243,36.5548485,0 -82.2163573,36.5549591,0 -82.2162086,36.5550688,0 -82.2160307,36.5552186,0 -82.2158991,36.5553585,0 -82.2157431,36.5555347,0 -82.21554810000001,36.5557501,0 -82.21515669999999,36.5561843,0 -82.2149319,36.5564316,0 -82.21471649999999,36.5566389,0 -82.2145161,36.5568064,0 -82.2142621,36.5569917,0 -82.2139712,36.5571879,0 -82.2136514,36.557393,0 -82.2134482,36.557522,0 -82.2133195,36.5576059,0 -82.2131614,36.5577315,0 -82.21291840000001,36.557931,0 -82.2127153,36.5581239,0 -82.2126777,36.5581617,0 -82.2126165,36.5582232,0 -82.2123065,36.5585561,0 -82.21213059999999,36.5587535,0 -82.21204779999999,36.5588458,0 -82.21192619999999,36.5589797,0 -82.21177710000001,36.5591439,0 -82.21170100000001,36.559232,0 -82.2116157,36.5593335,0 -82.2111946,36.5597915,0 -82.2107951,36.5602308,0 -82.21077529999999,36.560253,0 -82.21039159999999,36.5606828,0 -82.2098768,36.5612495,0 -82.2091631,36.5620421,0 -82.2089806,36.5622285,0 -82.20874310000001,36.5624655,0 -82.2085249,36.5626606,0 -82.2083767,36.5627885,0 -82.2082037,36.5629263,0 -82.2080294,36.563052,0 -82.20779880000001,36.5631975,0 -82.2076012,36.563318,0 -82.2072818,36.5634938,0 -82.20656169999999,36.5638531,0 -82.205794,36.5642315,0 -82.2056209,36.5643161,0 -82.2049815,36.5646273,0 -82.2044854,36.5648708,0 -82.20337069999999,36.5654202,0 -82.2032743,36.5654733,0 -82.2029874,36.5656221,0 -82.2025788,36.565845,0 -82.2023523,36.5659816,0 -82.20214919999999,36.5661238,0 -82.201887,36.5663189,0 -82.20169490000001,36.5664744,0 -82.2014753,36.5666717,0 -82.2012639,36.5668701,0 -82.20101,36.5671479,0 -82.2004706,36.5677498,0 -82.2001576,36.5680827,0 -82.19996,36.5682823,0 -82.1997212,36.5685093,0 -82.19942330000001,36.5687563,0 -82.19932059999999,36.5688399,0 -82.19906779999999,36.5689926,0 -82.1986201,36.5692708,0 -82.1977314,36.5697704,0 -82.1969643,36.5702043,0 -82.1969361,36.5702203,0 -82.1966432,36.5703863,0 -82.1963478,36.5705537,0 -82.19621050000001,36.5706303,0 -82.1949499,36.5713424,0 -82.19439610000001,36.5716565,0 -82.19416219999999,36.571797,0 -82.19394749999999,36.5719414,0 -82.1937248,36.5720985,0 -82.1935371,36.5722659,0 -82.1933446,36.5724486,0 -82.193327,36.5724667,0 -82.1929679,36.5728357,0 -82.1922847,36.5735475,0 -82.191881,36.5739172,0 -82.1916315,36.5741349,0 -82.1914774,36.5742578,0 -82.1912761,36.5744114,0 -82.1910353,36.574583,0 -82.1907946,36.5747456,0 -82.1905108,36.5749329,0 -82.1902068,36.5751449,0 -82.189936,36.5753403,0 -82.1896941,36.5755571,0 -82.1895378,36.5757152,0 -82.1893702,36.5759103,0 -82.1893228,36.5759699,0 -82.1892206,36.5760982,0 -82.1891036,36.5762716,0 -82.1889956,36.5764496,0 -82.18889660000001,36.5766303,0 -82.1888077,36.57682,0 -82.1887256,36.5770016,0 -82.18861990000001,36.5772798,0 -82.1884838,36.5776393,0 -82.1884409,36.5777607,0 -82.1881982,36.578332,0 -82.18782830000001,36.5792538,0 -82.1876946,36.5795977,0 -82.1875172,36.5800288,0 -82.18666210000001,36.582147,0 -82.1865524,36.5824229,0 -82.18633920000001,36.5829429,0 -82.186143,36.583438,0 -82.1861234,36.5834858,0 -82.1860204,36.583737,0 -82.1860069,36.5837749,0 -82.1859637,36.5838783,0 -82.1856976,36.5845391,0 -82.1855446,36.5849459,0 -82.1854349,36.5852985,0 -82.18538890000001,36.5854942,0 -82.1853574,36.5856513,0 -82.18532620000001,36.5858861,0 -82.1853101,36.5860867,0 -82.185309,36.5862773,0 -82.18532140000001,36.5864904,0 -82.18534029999999,36.586663,0 -82.1853735,36.5868856,0 -82.18541620000001,36.5870599,0 -82.1854792,36.587265,0 -82.1855422,36.5874402,0 -82.1856063,36.587582,0 -82.1856693,36.5877202,0 -82.18575370000001,36.5878801,0 -82.18585830000001,36.5880679,0 -82.18604499999999,36.5883416,0 -82.1861845,36.5885521,0 -82.186288,36.588711,0 -82.1863814,36.5888601,0 -82.18648260000001,36.5890461,0 -82.1865316,36.5891401,0 -82.1866076,36.5892929,0 -82.1866904,36.5894921,0 -82.18677630000001,36.589738,0 -82.186921,36.5901978,0 -82.1869743,36.5903652,0 -82.18700800000001,36.5904757,0 -82.1870493,36.5905995,0 -82.1871289,36.5908014,0 -82.18723540000001,36.5910262,0 -82.1873476,36.5912107,0 -82.1874303,36.5913244,0 -82.1875258,36.5914502,0 -82.1876752,36.5916085,0 -82.1879421,36.5918532,0 -82.188272,36.5921641,0 -82.18840419999999,36.5922955,0 -82.18851119999999,36.5924485,0 -82.1885607,36.5925319,0 -82.18861510000001,36.5926278,0 -82.18868190000001,36.5928056,0 -82.18870939999999,36.5929333,0 -82.1887332,36.593071,0 -82.1887366,36.5934077,0 -82.1887196,36.5940298,0 -82.18870339999999,36.5946613,0 -82.18868879999999,36.5951307,0 -82.1886872,36.5953327,0 -82.1886853,36.5956035,0 -82.1886811,36.5961207,0 -82.188722,36.596679,0 -82.188733,36.596834,0 -82.1887529,36.5978001,0 -82.1887086,36.5983919,0 -82.188665,36.598662,0 -82.188671,36.598835,0 -82.188677,36.598897,0 -82.18874099999999,36.599141,0 -82.18879800000001,36.599301,0 -82.188964,36.599683,0 -82.18905599999999,36.599862,0 -82.189165,36.600035,0 -82.1893043,36.6002158,0 -82.189386,36.600307,0 -82.18951800000001,36.60043,0 -82.18966399999999,36.600544,0 -82.18977630000001,36.6006136,0 -82.19004169999999,36.6007758,0 -82.1900969,36.6008095,0 -82.190157,36.6008415,0 -82.1902609,36.6008968,0 -82.19050900000001,36.601054,0 -82.190798,36.60127,0 -82.19095,36.601378,0 -82.191112,36.6015,0 -82.1913083,36.601664,0 -82.191455,36.601819,0 -82.191631,36.602016,0 -82.191686,36.602087,0 -82.1917576,36.6021882,0 -82.19181399999999,36.602274,0 -82.1918582,36.602349,0 -82.191907,36.602432,0 -82.192003,36.60264,0 
			</coordinates>
		</LineString>
		<atom:link rel="app" href="https://www.google.com/earth/about/versions/#earth-pro" title="Google Earth Pro 7.3.6.10201"></atom:link>
	</Placemark>
</Document>
</kml>
