<?xml version="1.0" encoding="UTF-8"?>
<kml xmlns="http://www.opengis.net/kml/2.2" xmlns:gx="http://www.google.com/kml/ext/2.2" xmlns:kml="http://www.opengis.net/kml/2.2" xmlns:atom="http://www.w3.org/2005/Atom">
<Document>
	<name>US.181.kml</name>
	<Placemark>
		<name>US.181</name>
			<LineString>
				<coordinates>
					-97.39679239999998,27.8024121,0 -97.39690719999999,27.8029786,0 -97.39706900000002,27.803804,0 -97.3972113,27.8044245,0 -97.39730619999999,27.8048781,0 -97.39733349999999,27.8050323,0 -97.3974225,27.8054838,0 -97.39746849999999,27.8058975,0 -97.3975015,27.8063352,0 -97.39750290000001,27.8067551,0 -97.39745309999999,27.8075192,0 -97.39734350000001,27.8081196,0 -97.3972579,27.8085142,0 -97.39714100000002,27.8089095,0 -97.39701249999999,27.8093104,0 -97.3967899,27.809883,0 -97.3964986,27.8104323,0 -97.39567940000001,27.8117668,0 -97.39091089999999,27.8195789,0 -97.3908028,27.8197504,0 -97.3906479,27.8200146,0 -97.39041039999999,27.8204602,0 -97.39024729999998,27.8209606,0 -97.3902161,27.8210889,0 -97.3901836,27.8212389,0 -97.39015699999999,27.8213941,0 -97.39014469999999,27.82149280000001,0 -97.3901388,27.8216093,0 -97.39013679999999,27.8217484,0 -97.39013679999999,27.8219832,0 -97.39013679999999,27.8227553,0 -97.3901329,27.8235691,0 -97.390125,27.8237412,0 -97.3901054,27.8239029,0 -97.39007199999999,27.8240751,0 -97.3900287,27.8242542,0 -97.3899795,27.8244055,0 -97.38992039999999,27.8245514,0 -97.38985510000002,27.8247008,0 -97.3897559,27.8249013,0 -97.3896462,27.8250861,0 -97.38838730000001,27.8268852,0 -97.3882693,27.82706689999999,0 -97.3881737,27.8272193,0 -97.3880867,27.8273839,0 -97.3879894,27.8275831,0 -97.3876702,27.8283168,0 -97.3875421,27.8285945,0 -97.38743460000001,27.8287998,0 -97.3873629,27.8289206,0 -97.38728500000001,27.8290519,0 -97.38718210000002,27.8292079,0 -97.3869761,27.8294932,0 -97.38544529999999,27.8316194,0 -97.384849,27.8324538,0 -97.3841851,27.8333576,0 -97.3840537,27.8335135,0 -97.38387059999999,27.8337288,0 -97.3833362,27.8342915,0 -97.383017,27.8346052,0 -97.38268840000001,27.8348934,0 -97.3823874,27.8351329,0 -97.3814915,27.8357888,0 -97.38123730000001,27.8359663,0 -97.381095,27.8360657,0 -97.37963870000002,27.8371496,0 -97.3786623,27.8378706,0 -97.3759372,27.8398629,0 -97.36475900000001,27.847923,0 -97.3580022,27.8528334,0 -97.35752089999998,27.853168,0 -97.34334869999999,27.8634597,0 -97.33926150000001,27.8664437,0 -97.3320968,27.8716236,0 -97.32829049999999,27.874229,0 -97.32635279999998,27.8756496,0 -97.32600789999999,27.8759024,0 -97.3256631,27.8761552,0 -97.32292600000001,27.8780795,0 -97.320165,27.8801017,0 -97.31892000000001,27.8810138,0 -97.31812909999999,27.8816536,0 -97.31779899999999,27.8819435,0 -97.31673549999999,27.8830014,0 -97.3155661,27.8845661,0 -97.31525739999999,27.8850485,0 -97.31247620000002,27.8893645,0 -97.3119183,27.8903507,0 -97.31125309999999,27.8916877,0 -97.3105772,27.8927877,0 -97.3097393,27.8940488,0 -97.30777070000001,27.8970687,0 -97.30735970000001,27.8976869,0 -97.3073236,27.8977325,0 -97.30621050000001,27.8993019,0 -97.3049123,27.9012741,0 -97.3046464,27.9016546,0 -97.30401109999998,27.9025636,0 -97.30245960000002,27.9044116,0 -97.3018289,27.9052658,0 -97.3011358,27.9062044,0 -97.2996229,27.9086673,0 -97.29820189999998,27.9111983,0 -97.29803849999999,27.911505,0 -97.2978588,27.911801,0 -97.29769140000002,27.9121042,0 -97.2975198,27.9124182,0 -97.29736459999999,27.9127286,0 -97.29723799999999,27.9130173,0 -97.29682010000001,27.9143313,0 -97.296738,27.9146761,0 -97.29669,27.9150118,0 -97.296649,27.9153445,0 -97.29662329999999,27.9155985,0 -97.2966011,27.9159312,0 -97.2965942,27.9162775,0 -97.2966011,27.9166147,0 -97.29662159999999,27.9169625,0 -97.29666099999999,27.9173058,0 -97.2967089,27.917643,0 -97.2967688,27.9179818,0 -97.29685429999999,27.918319,0 -97.29694329999998,27.9186547,0 -97.29704089999998,27.918945,0 -97.29712300000001,27.919196,0 -97.2972291,27.9194698,0 -97.29735410000001,27.9197949,0 -97.2974756,27.9201185,0 -97.29759540000001,27.9204466,0 -97.29773120000002,27.9207766,0 
				
					-97.29753820000001,27.9208071,0 -97.29932959999999,27.9243452,0 -97.30014850000001,27.9259626,0 -97.30065190000001,27.9271381,0 -97.30102580000001,27.9280979,0 -97.3014278,27.9290995,0 -97.3018387,27.9299299,0 -97.3022713,27.930549,0 -97.30279969999999,27.9311976,0 -97.30332280000002,27.93172,0 -97.30406939999999,27.9322738,0 -97.3042997,27.9324321,0 -97.304619,27.9326232,0 -97.304975,27.9328208,0 -97.30523170000001,27.9329456,0 -97.3055007,27.9330705,0 -97.30601299999999,27.9332647,0 -97.30655750000001,27.9334377,0 -97.30735679999999,27.9336202,0 -97.308537,27.9339046,0 -97.30993170000001,27.9342269,0 -97.31108570000001,27.9345426,0 -97.3122333,27.9348637,0 -97.31375190000001,27.9353527,0 -97.31527040000002,27.935937,0 -97.3162371,27.9363498,0 -97.31764149999999,27.9370056,0 -97.31925029999999,27.937813,0 -97.32242009999999,27.9394969,0 -97.3247676,27.9407381,0 -97.32691440000001,27.9418732,0 -97.3302867,27.9436563,0 -97.33052139999999,27.9437803,0 -97.33102460000001,27.9440464,0 -97.3331238,27.9451009,0 -97.3343076,27.9456956,0 -97.3399263,27.9487396,0 -97.34162700000002,27.949661,0 -97.34497210000001,27.9513252,0 -97.3457501,27.951723,0 -97.3496392,27.953704,0 -97.35064829999999,27.9542234,0 -97.35104389999999,27.9544349,0 -97.35404870000001,27.9560353,0 -97.3540933,27.9560585,0 -97.3567007,27.9574057,0 -97.3569796,27.9575498,0 -97.3572585,27.9576939,0 -97.35791500000001,27.9580325,0 -97.3643094,27.9613588,0 -97.3663693,27.9624391,0 -97.3683863,27.9635217,0 -97.36968449999999,27.9641827,0 -97.37526999999999,27.96706,0 -97.379555,27.96932809999999,0 -97.3804885,27.9698493,0 -97.38411479999999,27.9717349,0 -97.38531580000001,27.9722529,0 -97.38650720000001,27.972773,0 -97.38665709999999,27.9727784,0 -97.38717239999998,27.9730652,0 -97.3881866,27.9735926,0 -97.3898137,27.974393,0 -97.39171520000001,27.9754038,0 -97.39208720000001,27.9755841,0 -97.3925079,27.9757375,0 -97.39276100000001,27.9758215,0 -97.3928765,27.9758791,0 -97.3937833,27.9763461,0 -97.39408040000002,27.9764973,0 -97.394738,27.9768513,0 -97.3957867,27.9774015,0 -97.3971363,27.9781171,0 -97.3986269,27.9788892,0 -97.3993316,27.9792461,0 -97.40156119999999,27.9804242,0 -97.40204300000001,27.9806729,0 -97.4028361,27.9811814,0 -97.40301299999999,27.9812034,0 -97.404049,27.9817879,0 -97.40610119999999,27.9829158,0 -97.40869499999999,27.9842732,0 -97.41271820000001,27.986377,0 -97.41483150000001,27.987482,0 -97.41791809999999,27.9890766,0 -97.42170860000002,27.9910348,0 -97.42232160000002,27.9913554,0 -97.4285751,27.9946253,0 -97.4303517,27.9955516,0 -97.43280550000001,27.9968424,0 -97.43629989999999,27.998623,0 -97.43743620000001,27.9992144,0 -97.4411204,28.0011317,0 -97.44379929999998,28.0025258,0 -97.4477764,28.0045851,0 -97.45348599999998,28.0075517,0 -97.45595510000001,28.0088345,0 -97.4590834,28.0105109,0 -97.4628215,28.0124339,0 -97.46404670000001,28.0130733,0 -97.4654553,28.0138878,0 -97.4663406,28.014475,0 -97.4673277,28.0151713,0 -97.4679928,28.0157301,0 -97.46830180000002,28.0159803,0 -97.4689778,28.0165993,0 -97.4694272,28.0170187,0 -97.4702633,28.0179192,0 -97.47069640000001,28.0184228,0 -97.471211,28.0190761,0 -97.47168840000001,28.0197298,0 -97.4736242,28.0224082,0 -97.47457919999998,28.0237153,0 -97.47682589999998,28.0267578,0 -97.477935,28.0282521,0 -97.4785423,28.0290607,0 -97.4789979,28.0296672,0 -97.48000279999999,28.0310313,0 -97.48174399999999,28.0333289,0 -97.48271009999999,28.034901,0 -97.4831162,28.0356543,0 -97.48336049999999,28.0359394,0 -97.4834839,28.0361134,0 -97.4836823,28.0362779,0 -97.4838956,28.0363738,0 -97.4840672,28.0364153,0 -97.48452589999999,28.0365017,0 -97.48860960000002,28.0365328,0 -97.48874840000001,28.0365339,0 -97.4895147,28.0365397,0 -97.4905449,28.0365476,0 -97.4914524,28.0365545,0 -97.49372119999998,28.0365718,0 -97.4941127,28.0365747,0 -97.49523910000001,28.0365833,0 -97.4978077,28.0366029,0 -97.49929469999999,28.0366142,0 -97.50080199999998,28.0366257,0 -97.5009683,28.036627,0 -97.50192850000001,28.0366343,0 -97.50214320000001,28.0366359,0 -97.503275,28.0366446,0 -97.50440949999999,28.0366532,0 -97.5056352,28.0366625,0 -97.50667310000001,28.0366705,0 -97.5068368,28.0366717,0 -97.5080329,28.0366808,0 -97.5092645,28.0366902,0 -97.50984840000001,28.036698,0 -97.5104635,28.0366898,0 -97.511678,28.0366966,0 -97.51286929999999,28.0367069,0 -97.51409289999999,28.0367205,0 -97.51529550000001,28.0367213,0 -97.5165219,28.0367304,0 -97.51649310000001,28.0373948,0 -97.5164484,28.0378193,0 -97.51605769999999,28.0389471,0 -97.51595140000002,28.0393025,0 -97.51591790000001,28.0395949,0 -97.51588229999999,28.0400827,0 -97.51588,28.0405687,0 -97.5158812,28.0409845,0 -97.5158687,28.0425762,0 -97.5158886,28.0434082,0 -97.51595140000002,28.0438178,0 -97.5161009,28.04434,0 -97.5163584,28.0448135,0 -97.51665880000002,28.0452869,0 -97.51680899999999,28.0454763,0 -97.5174099,28.0463853,0 -97.51890500000002,28.0485453,0 -97.5191185,28.0488424,0 -97.51990970000001,28.0499772,0 -97.5202096,28.0504314,0 -97.52184889999998,28.0528713,0 -97.52354680000001,28.0553426,0 -97.52438359999999,28.0566113,0 -97.52485959999998,28.057257,0 -97.5252296,28.0578369,0 -97.52526269999998,28.0580799,0 -97.5252218,28.0583312,0 -97.525187,28.0583989,0 -97.52517480000002,28.0585451,0 -97.5251734,28.058622,0 -97.5252002,28.0587238,0 -97.52524990000001,28.0588232,0 -97.52534779999999,28.0589449,0 -97.52565420000001,28.0591396,0 -97.52605560000001,28.0594441,0 -97.5263837,28.0597311,0 -97.52652499999999,28.059864,0 -97.5266376,28.0599699,0 -97.5269194,28.0602471,0 -97.52716350000001,28.0605308,0 -97.52754799999998,28.061011,0 -97.52780389999999,28.0613675,0 -97.5284448,28.0624805,0 -97.5287804,28.0629658,0 -97.53031319999998,28.0652233,0 -97.53040300000001,28.0653538,0 -97.5319956,28.0676687,0 -97.5337284,28.07022540000001,0 -97.53410989999999,28.0707828,0 -97.5387099,28.077435,0 -97.5413145,28.0812715,0 -97.5419112,28.0821504,0 -97.54366330000001,28.0847371,0 -97.5437113,28.0848073,0 -97.54873809999999,28.0921673,0 -97.55066580000002,28.094998,0 -97.5539462,28.0997837,0 -97.5541025,28.1000229,0 -97.5556796,28.1022375,0 -97.5562801,28.1031457,0 -97.55684909999999,28.1039883,0 -97.55723530000002,28.1044709,0 -97.557879,28.1055025,0 -97.56341070000002,28.1135247,0 -97.56388570000001,28.1142203,0 -97.56391839999999,28.1142671,0 -97.56800859999998,28.1202697,0 -97.57182200000001,28.1257628,0 -97.57185339999998,28.1258092,0 -97.57394630000002,28.1289041,0 -97.57399069999998,28.1289685,0 -97.5755278,28.1311876,0 -97.5782122,28.1351017,0 -97.5825426,28.1413998,0 -97.5861414,28.1466416,0 -97.5871427,28.1480906,0 -97.5876241,28.1490282,0 -97.58775699999998,28.149287,0 -97.58800100000002,28.149888,0 -97.58939580000001,28.1540881,0 -97.5902371,28.1562006,0 -97.59117860000001,28.1587853,0 -97.59186990000001,28.1606627,0 -97.59227540000001,28.1617057,0 -97.592479,28.1622654,0 -97.5927093,28.1628741,0 -97.593108,28.1638214,0 -97.59365510000001,28.1646443,0 -97.59471730000001,28.1656847,0 -97.5955512,28.1664861,0 -97.59605980000002,28.1669748,0 -97.59726670000002,28.1681698,0 -97.59925180000002,28.1701456,0 -97.5995868,28.1704812,0 -97.60180100000001,28.1726771,0 -97.60551100000002,28.1763622,0 -97.6058712,28.1767228,0 -97.6061144,28.1769663,0 -97.6069459,28.1777914,0 -97.60843949999999,28.1793228,0 -97.6085966,28.1794788,0 -97.6145068,28.1853457,0 -97.6196904,28.1904919,0 -97.62521940000001,28.1959851,0 -97.6254184,28.1961806,0 -97.6279785,28.198696,0 -97.6309057,28.2016205,0 -97.63635270000002,28.2070457,0 -97.64180619999999,28.2124314,0 -97.64276280000001,28.2133817,0 -97.64800959999999,28.2185834,0 -97.65126820000002,28.2218162,0 -97.6533226,28.2238542,0 -97.66917759999998,28.2395607,0 -97.6691995,28.2395824,0 -97.67025550000001,28.2404168,0 -97.6713271,28.240947,0 -97.67173150000001,28.2410861,0 -97.67230859999999,28.2412401,0 -97.67290370000001,28.2413467,0 -97.6737057,28.2414229,0 -97.6742296,28.2414049,0 -97.6748966,28.2413768,0 -97.675668,28.2413144,0 -97.67626989999999,28.2412842,0 -97.67698740000002,28.2413255,0 -97.6777172,28.2414392,0 -97.67827320000001,28.241565,0 -97.6789953,28.2417941,0 -97.67979029999999,28.2422019,0 -97.68039810000001,28.2426029,0 -97.6808753,28.242997,0 -97.68126680000002,28.2434233,0 -97.68183519999999,28.2440944,0 -97.68220960000001,28.2447831,0 -97.6825674,28.2455615,0 -97.6825529,28.2456886,0 -97.68299030000001,28.2466272,0 -97.68344750000001,28.2475793,0 -97.68391990000001,28.2485887,0 -97.68409020000001,28.2489693,0 -97.68442130000001,28.249722,0 -97.68459010000001,28.2501277,0 -97.68466379999998,28.2503431,0 -97.68477619999999,28.2507418,0 -97.6848954,28.2511875,0 -97.68512820000001,28.2521483,0 -97.68537440000001,28.253127,0 -97.6856212,28.2541122,0 -97.68578239999999,28.2547635,0 -97.68586879999999,28.2551129,0 -97.68592430000001,28.255331,0 -97.68611039999999,28.2560621,0 -97.68625040000001,28.2565792,0 -97.6864277,28.2570259,0 -97.68689120000001,28.257947,0 -97.68706040000001,28.2580816,0 -97.68742520000001,28.2586675,0 -97.6876505,28.2590739,0 -97.687978,28.2598556,0 -97.6882128,28.2606717,0 -97.689302,28.265251,0 -97.69100640000002,28.2714831,0 -97.6916504,28.2739723,0 -97.69173139999999,28.2742698,0 -97.6918026,28.2745571,0 -97.6918776,28.2748544,0 -97.6920016,28.2754273,0 -97.6920815,28.2760733,0 -97.69219949999999,28.2768009,0 -97.6923068,28.2782843,0 -97.6923068,28.2807125,0 -97.69219949999999,28.2827438,0 -97.69218880000001,28.2847657,0 -97.6922639,28.2856727,0 -97.6924382,28.2863104,0 -97.6925736,28.2867568,0 -97.6928218,28.2874205,0 -97.6931007,28.2879685,0 -97.69340110000002,28.288507,0 -97.6942487,28.2899808,0 -97.694626,28.2905696,0 -97.69575070000002,28.2924182,0 -97.6964244,28.2934309,0 -97.69656980000001,28.2936552,0 -97.6972313,28.294676,0 -97.69774409999999,28.2953144,0 -97.69846510000001,28.2964048,0 -97.7006221,28.3001027,0 -97.7020271,28.3025073,0 -97.702805,28.3039077,0 -97.70315359999998,28.3047177,0 -97.70338969999999,28.3053883,0 -97.7035291,28.3061062,0 -97.70361499999999,28.3068808,0 -97.70361499999999,28.3076459,0 -97.7035291,28.3085622,0 -97.70298200000002,28.3112353,0 -97.7028318,28.3122554,0 -97.70272450000002,28.3136344,0 -97.7027674,28.3150606,0 -97.70280889999999,28.3156443,0 -97.7028318,28.3159674,0 -97.7030034,28.3172236,0 -97.70320730000002,28.3181775,0 -97.7034219,28.319122,0 -97.70366330000002,28.3198728,0 -97.70396230000001,28.3207075,0 -97.70425470000001,28.3214218,0 -97.7044719,28.3219447,0 -97.70477769999999,28.3226271,0 -97.7052927,28.3234913,0 -97.70597530000001,28.3246659,0 -97.7072628,28.3265453,0 -97.70810229999999,28.3277058,0 -97.71072090000001,28.3314829,0 -97.7121659,28.3335526,0 -97.7126835,28.33429629999999,0 -97.7131511,28.3350186,0 -97.71341039999999,28.3354071,0 -97.7150001,28.3382172,0 -97.71506990000002,28.3383376,0 -97.71747000000002,28.3425826,0 -97.71927369999999,28.3458561,0 -97.72109590000001,28.3490536,0 -97.7226265,28.3517393,0 -97.7237465,28.3536987,0 -97.7253315,28.3564283,0 -97.7256225,28.3568921,0 -97.7260919,28.357527,0 -97.72644599999998,28.3579283,0 -97.72748660000002,28.3589904,0 -97.729079,28.3601681,0 -97.7300803,28.36089640000001,0 -97.7303612,28.3611137,0 -97.73067899999998,28.361386,0 -97.7309558,28.3616427,0 -97.7312313,28.3619361,0 -97.73144429999999,28.3621746,0 -97.73161620000002,28.3623871,0 -97.7318417,28.36268340000001,0 -97.7320361,28.362963,0 -97.73220000000002,28.3632217,0 -97.73234969999999,28.3634787,0 -97.73253,28.3638345,0 -97.73266249999999,28.3641197,0 -97.73279100000002,28.3644335,0 -97.73290379999999,28.3647407,0 -97.7330022,28.3650759,0 -97.7330841,28.3654066,0 -97.73316680000001,28.3657997,0 -97.73322589999999,28.3662057,0 -97.73325580000001,28.3665894,0 -97.73326480000001,28.3669893,0 -97.7332497,28.3674211,0 -97.7332167,28.3678663,0 -97.733148,28.3682938,0 -97.73305010000001,28.3687265,0 -97.7329129,28.3692068,0 -97.73280339999999,28.3695351,0 -97.73268319999998,28.3698422,0 -97.73254319999999,28.3701546,0 -97.7323493,28.3705245,0 -97.7321822,28.3708009,0 -97.73008419999999,28.374124,0 -97.72859,28.3764928,0 -97.72827009999999,28.3770236,0 -97.727991,28.3775163,0 -97.7277294,28.3780113,0 -97.72745999999999,28.378575,0 -97.7271923,28.3791781,0 -97.72693650000001,28.3797952,0 -97.72676360000001,28.3802617,0 -97.7265951,28.3807442,0 -97.7264172,28.381308,0 -97.72629340000002,28.3817515,0 -97.72618540000001,28.3821739,0 -97.72606020000001,28.382715,0 -97.72596520000002,28.3831985,0 -97.72588900000001,28.3836491,0 -97.7256326,28.385291,0 -97.72553480000002,28.385917,0 -97.72478409999999,28.3907243,0 -97.72449,28.3926148,0 -97.72434619999999,28.3935397,0 -97.7241552,28.3947677,0 -97.72408629999998,28.3953166,0 -97.72404239999999,28.3958535,0 -97.7240219,28.3965143,0 -97.7240214,28.3969476,0 -97.72403530000001,28.3973783,0 -97.724075,28.3978961,0 -97.72411560000002,28.3983094,0 -97.72417379999999,28.3987231,0 -97.72424569999998,28.3991702,0 -97.72433700000001,28.3996399,0 -97.7244654,28.4001706,0 -97.72459379999999,28.4006176,0 -97.7247283,28.4010516,0 -97.7248574,28.4014248,0 -97.7250016,28.4018007,0 -97.7251728,28.4022318,0 -97.725419,28.4027696,0 -97.7257108,28.4033399,0 -97.7258592,28.4036174,0 -97.72906330000002,28.409254,0 -97.7293841,28.4098182,0 -97.732759,28.4157518,0 -97.7346216,28.4190315,0 -97.7352587,28.4201523,0 -97.7360426,28.4215313,0 -97.74215340000001,28.4322772,0 -97.7424934,28.4328325,0 -97.7428053,28.4333264,0 -97.7432869,28.434051,0 -97.74375509999999,28.4347158,0 -97.7442092,28.4353253,0 -97.7446408,28.4358745,0 -97.74498199999999,28.4362961,0 -97.7453364,28.4367219,0 -97.74585559999998,28.4373089,0 -97.74893640000001,28.4406054,0 -97.75788949999999,28.450179,0 -97.75994819999998,28.4523428,0 -97.7609782,28.4535596,0 -97.76166480000002,28.4546067,0 -97.76244800000001,28.4559555,0 -97.764667,28.4607663,0 -97.76555810000001,28.4627002,0 -97.76579239999998,28.4632068,0 -97.76724200000001,28.466345,0 -97.7677367,28.4674171,0 -97.7681443,28.4683046,0 -97.7687596,28.469555,0 -97.7701835,28.4720086,0 -97.77070399999999,28.4728153,0 -97.7724044,28.475451,0 -97.7756394,28.4804537,0 -97.77602280000001,28.4811366,0 -97.776653,28.48232580000001,0 -97.7771894,28.4835801,0 -97.77771510000001,28.4852209,0 -97.77795119999999,28.4863431,0 -97.778003,28.4865979,0 -97.7782409,28.487767,0 -97.7783189,28.4885396,0 -97.7787344,28.4942733,0 -97.77917100000001,28.500272,0 -97.7795069,28.5050975,0 -97.77954449999999,28.5054393,0 -97.77957120000001,28.505682,0 -97.7796785,28.5063891,0 -97.77983949999999,28.5070491,0 -97.7800859,28.5079236,0 -97.78023840000002,28.5086287,0 -97.780804,28.51127,0 -97.78099820000001,28.5119893,0 -97.781193,28.51276,0 -97.781295,28.513518,0 -97.7813366,28.5142327,0 -97.78135670000002,28.514571,0 -97.7813908,28.5162999,0 -97.7815346,28.52218,0 -97.7815453,28.5225005,0 -97.78163730000001,28.525382,0 -97.7816668,28.52624,0 -97.78168480000001,28.5265345,0 -97.78169319999999,28.5266692,0 -97.78182630000001,28.5277707,0 -97.7819423,28.5285523,0 -97.7820925,28.5291461,0 -97.7823284,28.5297576,0 -97.78267349999999,28.5307104,0 -97.78318969999999,28.5319391,0 -97.78483369999999,28.5356434,0 -97.78516160000001,28.5364946,0 -97.7862231,28.5390148,0 -97.78871219999999,28.5447734,0 -97.79080429999999,28.5496647,0 -97.7918722,28.5521304,0 -97.79298230000001,28.5547348,0 -97.7933134,28.5555076,0 -97.7959542,28.5616705,0 -97.79644220000002,28.5628021,0 -97.79814419999998,28.5666935,0 -97.7982444,28.5669181,0 -97.79956710000002,28.5699947,0 -97.79990590000001,28.5707345,0 -97.8002333,28.5714944,0 -97.8005122,28.5721486,0 -97.8065221,28.5861491,0 -97.80733749999999,28.58802379999999,0 -97.80827410000001,28.5901012,0 -97.80870160000001,28.591138,0 -97.8087859,28.5913305,0 -97.8091184,28.5922443,0 -97.80921500000001,28.5929508,0 -97.8092493,28.5935313,0 -97.80916750000002,28.5943267,0 -97.8090749,28.5947388,0 -97.8089633,28.5951398,0 -97.80875210000001,28.5955947,0 -97.80849620000001,28.5959935,0 -97.8080885,28.5965964,0 -97.8062753,28.5990267,0 -97.8027992,28.6037271,0 -97.8023486,28.6043959,0 -97.80204759999999,28.6051212,0 -97.80179650000001,28.6059369,0 -97.8014678,28.6079848,0 -97.8011204,28.61000629999999,0 -97.80100509999998,28.6107363,0 -97.80094339999999,28.6110718,0 -97.8009045,28.6114238,0 -97.80089510000001,28.6117264,0 -97.80089510000001,28.6120254,0 -97.80090850000001,28.6122444,0 -97.8009675,28.6128154,0 -97.8010359,28.6131569,0 -97.8011298,28.6135383,0 -97.8012693,28.6139574,0 -97.8014866,28.6145331,0 -97.80280689999999,28.6180055,0 -97.8031991,28.6190303,0 -97.80412580000001,28.6214578,0 -97.80429479999999,28.6219169,0 -97.80436719999999,28.6221571,0 -97.80444640000002,28.6224632,0 -97.8045443,28.6228269,0 -97.8046274,28.6231,0 -97.80520140000002,28.624621,0 -97.8059176,28.6265186,0 -97.8074384,28.6305138,0 -97.8077462,28.6312764,0 -97.8078313,28.6314873,0 -97.80814249999999,28.6321324,0 -97.808345,28.6325078,0 -97.8086011,28.6329528,0 -97.80885859999999,28.63337539999999,0 -97.80923950000002,28.6339545,0 -97.80999450000002,28.6349762,0 -97.81265930000001,28.6385709,0 -97.8146186,28.6412263,0 -97.8156197,28.6425714,0 -97.8161824,28.64332599999999,0 -97.8167636,28.6441037,0 -97.81722310000001,28.6447184,0 -97.81772870000002,28.6454387,0 -97.81796199999999,28.6458424,0 -97.81806659999999,28.6460684,0 -97.8181927,28.6463603,0 -97.818308,28.6466663,0 -97.818422,28.6470723,0 -97.8184918,28.6474089,0 -97.8185387,28.6477396,0 -97.81856149999999,28.6481021,0 -97.81854670000001,28.649099,0 -97.81843809999999,28.6566086,0 -97.818355,28.6631245,0 -97.81834290000002,28.6642201,0 -97.81837780000001,28.6645202,0 -97.81842069999999,28.6647884,0 -97.8185454,28.6652639,0 -97.8187653,28.6658287,0 -97.8190014,28.6662758,0 -97.8191838,28.666563,0 -97.81944930000002,28.6669124,0 -97.81975240000001,28.6672513,0 -97.82032770000001,28.6678409,0 -97.82286479999999,28.6704474,0 -97.82323989999999,28.6708274,0 -97.82343910000002,28.6710356,0 -97.8237247,28.6713403,0 -97.82404800000002,28.6717192,0 -97.8242223,28.6719451,0 -97.82438859999999,28.67217580000001,0 -97.8245321,28.6724005,0 -97.8246729,28.6726547,0 -97.82475469999999,28.6728194,0 -97.82481769999998,28.6729535,0 -97.8249009,28.67317,0 -97.8249988,28.6734713,0 -97.8253555,28.6745149,0 -97.82544540000001,28.6747691,0 -97.8255929,28.6751338,0 -97.82570289999998,28.6753715,0 -97.82578739999998,28.6755362,0 -97.8258987,28.6757374,0 -97.82616560000001,28.6761963,0 -97.8263681,28.6764822,0 -97.82653300000001,28.676707,0 -97.8267355,28.6769552,0 -97.8269447,28.67718350000001,0 -97.8273162,28.6775694,0 -97.82755760000001,28.6777965,0 -97.82797739999999,28.67816120000001,0 -97.82820539999999,28.6783283,0 -97.8284548,28.6785025,0 -97.8289618,28.6788284,0 -97.82921659999998,28.6789637,0 -97.8295076,28.6791166,0 -97.8330819,28.6808636,0 -97.8345904,28.6816039,0 -97.83667980000001,28.682611,0 -97.83893419999998,28.6837134,0 -97.8391743,28.6838428,0 -97.8394425,28.6839981,0 -97.8397094,28.6841923,0 -97.8401332,28.6845252,0 -97.84038129999999,28.6847499,0 -97.84057970000001,28.6849594,0 -97.8407675,28.6851747,0 -97.84092579999998,28.6853923,0 -97.84109469999999,28.6856406,0 -97.8412342,28.6858806,0 -97.84133749999999,28.68608529999999,0 -97.8414662,28.6863559,0 -97.84156950000001,28.6866312,0 -97.84167410000001,28.6869441,0 -97.8417425,28.6871994,0 -97.84179210000001,28.6875065,0 -97.84186050000001,28.6879771,0 -97.84191680000001,28.6886065,0 -97.84197450000001,28.6891547,0 -97.84200799999999,28.6894383,0 -97.8420509,28.6896841,0 -97.84209389999999,28.6899677,0 -97.8421877,28.6904182,0 -97.8422655,28.6907312,0 -97.8423554,28.6910147,0 -97.84257930000001,28.6916653,0 -97.8430943,28.6931288,0 -97.84341619999999,28.6940593,0 -97.84352880000002,28.6944452,0 -97.8436093,28.6947275,0 -97.8437139,28.6951839,0 -97.84377689999999,28.6955392,0 -97.843844,28.6960768,0 -97.8438775,28.696365,0 -97.84434930000002,28.700955,0 -97.84440990000002,28.7016504,0 -97.84471709999998,28.7045641,0 -97.84495579999999,28.7069484,0 -97.8450134,28.7074225,0 -97.84508049999999,28.7078412,0 -97.8452092,28.7083905,0 -97.84536879999999,28.7089222,0 -97.8456961,28.709675,0 -97.8461587,28.7106148,0 -97.84663700000002,28.711695,0 -97.84681600000002,28.712059,0 -97.84732200000001,28.713085,0 -97.84750800000002,28.713463,0 -97.84884839999999,28.7161568,0 -97.849101,28.716753,0 -97.849215,28.716991,0 -97.84983910000001,28.7182465,0 -97.84994,28.7184795,0 -97.8500502,28.718737,0 -97.8501347,28.718981,0 -97.85021829999998,28.7192389,0 -97.85029249999999,28.7195596,0 -97.8504095,28.7200965,0 -97.850469,28.7205945,0 -97.85047999999999,28.720789,0 -97.8504891,28.7210546,0 -97.850514,28.72205599999999,0 -97.850551,28.723073,0 -97.850635,28.725357,0 -97.85066399999999,28.725537,0 -97.85069300000001,28.726308,0 -97.850675,28.726409,0 -97.85085499999998,28.731085,0 -97.850899,28.732461,0 -97.85095500000001,28.733836,0 -97.85109900000002,28.737966,0 -97.851118,28.738513,0 -97.85111899999998,28.738527,0 -97.85124879999999,28.7419511,0 -97.851327,28.744015,0 -97.85140200000001,28.745926,0 -97.85146799999998,28.747591,0 -97.85150400000001,28.748033,0 -97.851493,28.74833,0 -97.85154900000002,28.749705,0 -97.85156600000001,28.750202,0 -97.851636,28.752242,0 -97.851664,28.753013,0 -97.85173,28.754572,0 -97.851878,28.758615,0 -97.85190900000001,28.759465,0 -97.85195299999999,28.760654,0 -97.85205299999998,28.763391,0 -97.852234,28.768065,0 -97.8522591,28.7700454,0 -97.8523416,28.7713358,0 -97.85232349999998,28.7722366,0 -97.85236640000001,28.7728855,0 -97.85238779999999,28.7732616,0 -97.85240930000002,28.7735061,0 -97.85246290000001,28.7738729,0 -97.85263500000001,28.775014,0 -97.853044,28.778044,0 -97.853448,28.780993,0 -97.8536002,28.7826466,0 -97.85377190000001,28.7837468,0 -97.85381479999999,28.7841229,0 -97.854072,28.7857312,0 -97.85423539999999,28.7869387,0 -97.854536,28.789151,0 -97.854658,28.789993,0 -97.85494599999998,28.792061,0 -97.855028,28.792689,0 -97.85530399999999,28.794804,0 -97.85547,28.796078,0 -97.85554399999998,28.796638,0 -97.85565900000002,28.79749899999999,0 -97.85625,28.801796,0 -97.85663,28.804253,0 -97.85678299999998,28.805258,0 -97.85696369999999,28.8064485,0 -97.85704130000002,28.8069594,0 -97.857192,28.807952,0 -97.85728039999999,28.8085088,0 -97.85741799999998,28.809376,0 -97.857617,28.810654,0 -97.85767800000002,28.811049,0 -97.85773440000001,28.8114193,0 -97.85779149999999,28.8117947,0 -97.85787360000002,28.8123341,0 -97.8578807,28.8123806,0 -97.8579558,28.8128732,0 -97.85803109999999,28.8133672,0 -97.85805829999998,28.813546,0 -97.8580838,28.8137134,0 -97.85808849999999,28.8137442,0 -97.858104,28.813846,0 -97.85812540000001,28.8139621,0 -97.85818209999999,28.81426950000001,0 -97.85826049999999,28.8147725,0 -97.8582876,28.8149483,0 -97.8583221,28.8151717,0 -97.8583502,28.8153535,0 -97.8583538,28.8153771,0 -97.8583867,28.8155851,0 -97.8583976,28.8156539,0 -97.85843900000002,28.815917,0 -97.8584994,28.8163417,0 -97.85860000000001,28.81706,0 -97.858664,28.817512,0 -97.85874499999998,28.818006,0 -97.8588536,28.8186641,0 -97.85891339999999,28.8190665,0 -97.85896769999999,28.8194355,0 -97.85910000000001,28.8202723,0 -97.859195,28.820899,0 -97.859376,28.82203700000001,0 -97.85943600000002,28.822522,0 -97.8594774,28.8229114,0 -97.859481,28.822945,0 -97.8595088,28.823313,0 -97.859511,28.823342,0 -97.85957000000001,28.82411,0 -97.8595778,28.8242099,0 -97.85961349999999,28.8246638,0 -97.85962729999999,28.8248397,0 -97.85963700000002,28.825133,0 -97.8596895,28.8256076,0 -97.859737,28.825922,0 -97.85980499999998,28.826196,0 -97.8599305,28.8265889,0 -97.85993399999998,28.826685,0 -97.859981,28.826825,0 -97.860068,28.82705,0 -97.860162,28.82722,0 -97.86018800000001,28.827263,0 -97.86025400000001,28.82736999999999,0 -97.8604315,28.8276377,0 -97.860478,28.8277,0 -97.86068800000001,28.827956,0 -97.86093099999999,28.828203,0 -97.861366,28.828584,0 -97.86256299999998,28.82962,0 -97.863696,28.830617,0 -97.864186,28.831048,0 -97.86449500000001,28.831321,0 -97.864656,28.831462,0 -97.864932,28.831705,0 -97.86560600000001,28.832298,0 -97.8657704,28.8324417,0 -97.86703489999999,28.83354720000001,0 -97.867284,28.833765,0 -97.86780809999999,28.8342437,0 -97.86795499999999,28.8343779,0 -97.868388,28.834773,0 -97.868674,28.835073,0 -97.869,28.835453,0 -97.86946199999998,28.8361,0 -97.86962800000002,28.8364,0 -97.86993,28.836981,0 -97.870153,28.83744099999999,0 -97.870664,28.838498,0 -97.870755,28.83869,0 -97.87115589999999,28.8395407,0 -97.87143399999998,28.840131,0 -97.87193720000002,28.8411782,0 -97.87216300000001,28.841648,0 -97.87281100000001,28.843011,0 -97.8729111,28.8431896,0 -97.873052,28.843441,0 -97.873299,28.843822,0 -97.87356800000001,28.844171,0 -97.873848,28.844504,0 -97.873986,28.8446699,0 -97.874123,28.8448,0 -97.87439900000001,28.845076,0 -97.875344,28.845919,0 -97.8775713,28.8478801,0 -97.8786283,28.8488012,0 -97.8795951,28.849644,0 -97.88026739999999,28.8502388,0 -97.8807584,28.8506689,0 -97.88108200000001,28.8509472,0 -97.88263140000001,28.8522855,0 -97.88373540000001,28.8532549,0 -97.8839457,28.8534352,0 -97.8847308,28.854121,0 -97.8849529,28.854319,0 -97.887416,28.856542,0 -97.88859089999998,28.8575755,0 -97.8892809,28.8581823,0 -97.88954200000001,28.858412,0 -97.889734,28.858581,0 -97.89038399999998,28.859162,0 -97.891024,28.8597345,0 -97.89121799999999,28.859908,0 -97.89240600000001,28.861105,0 -97.89284670000002,28.86160599999999,0 -97.8930458,28.8618324,0 -97.89401900000001,28.862939,0 -97.8947465,28.8636789,0 -97.89496310000001,28.8639247,0 -97.89534999999998,28.8643636,0 -97.89549110000002,28.8645272,0 -97.8959425,28.8650357,0 -97.89608139999999,28.8651932,0 -97.89662600000001,28.865811,0 -97.89850300000002,28.8679,0 -97.90123299999999,28.87092,0 -97.902011,28.8717,0 -97.902379,28.872069,0 
				
					-97.902379,28.872069,0 -97.90255500000001,28.872264,0 -97.90292700000001,28.872706,0 -97.90324699999999,28.873074,0 -97.903392,28.873253,0 -97.903429,28.873297,0 -97.903773,28.873757,0 -97.904099,28.874227,0 -97.904256,28.874465,0 -97.90440299999999,28.874708,0 -97.905024,28.875861,0 -97.90547800000002,28.876704,0 -97.90612299999999,28.87818,0 -97.906629,28.87918000000001,0 -97.90702299999998,28.879866,0 -97.907904,28.88139899999999,0 -97.90821699999999,28.881951,0 -97.90844700000001,28.882358,0 -97.908502,28.882455,0 -97.90880839999998,28.8829936,0 -97.9090104,28.8833487,0 -97.909127,28.883554,0 -97.90982,28.884745,0 -97.91039470000001,28.885428,0 -97.91086660000001,28.8859874,0 -97.91178929999998,28.8869764,0 -97.911829,28.887019,0 -97.91217210000001,28.887323,0 -97.912452,28.887571,0 -97.9135569,28.8886177,0 -97.91412200000001,28.889153,0 -97.91474000000001,28.889638,0 -97.91501599999999,28.889901,0 -97.91589500000001,28.890738,0 -97.916629,28.891396,0 -97.91836000000001,28.893034,0 -97.919297,28.893878,0 -97.919921,28.894439,0 -97.92027100000001,28.894753,0 -97.92054499999999,28.895008,0 -97.921663,28.896047,0 -97.922107,28.896459,0 -97.92233100000001,28.896667,0 -97.922465,28.896792,0 -97.92331,28.89757699999999,0 -97.92333600000001,28.897602,0 -97.923745,28.898003,0 -97.92394100000001,28.898196,0 -97.9263235,28.9003869,0 -97.92649,28.90054,0 -97.93018549999999,28.9039781,0 -97.93027799999999,28.904068,0 -97.93259999999999,28.906194,0 -97.93332599999999,28.906882,0 -97.93468799999999,28.908171,0 -97.93578930000001,28.9091875,0 -97.936955,28.910249,0 -97.9376165,28.9108686,0 -97.938076,28.911299,0 -97.941013,28.914051,0 -97.94216200000001,28.9151,0 -97.94712,28.91973399999999,0 -97.94734099999999,28.919941,0 -97.948142,28.920689,0 -97.948657,28.921127,0 -97.94960039999999,28.9220431,0 -97.949763,28.922201,0 -97.94977200000001,28.922209,0 -97.950745,28.923103,0 -97.95090099999999,28.923246,0 -97.95322400000001,28.925436,0 -97.95356690000001,28.9257529,0 -97.953976,28.926131,0 -97.9547122,28.926812,0 -97.9573759,28.9292761,0 -97.95814679999999,28.9299893,0 -97.959407,28.931155,0 -97.960663,28.932282,0 -97.96077,28.932379,0 -97.961028,28.93261,0 -97.963122,28.934383,0 -97.96385099999999,28.935,0 -97.96498299999999,28.9359,0 -97.96676239999999,28.9374074,0 -97.967359,28.937903,0 -97.96820200000001,28.938614,0 -97.968333,28.938725,0 -97.97014000000001,28.940233,0 -97.97051100000002,28.940534,0 -97.971085,28.940999,0 -97.97449570000001,28.9438293,0 -97.9746646,28.943984,0 -97.97559200000001,28.944783,0 -97.977964,28.946853,0 -97.97799599999999,28.946881,0 -97.97977400000001,28.948351,0 -97.980774,28.949194,0 -97.98212500000001,28.950333,0 -97.98226300000002,28.950449,0 -97.98438600000001,28.952238,0 -97.984683,28.952464,0 -97.9862935,28.9538424,0 -97.986558,28.954048,0 -97.987629,28.954922,0 -97.98892499999999,28.95605,0 -97.98968600000001,28.956681,0 -97.99082199999999,28.957625,0 -97.99148399999999,28.958174,0 -97.99184599999998,28.958487,0 -97.99224,28.958826,0 -97.99291570000001,28.9593696,0 -97.994175,28.960419,0 -97.994863,28.960986,0 -97.99564400000001,28.961646,0 -97.9959324,28.961936,0 -97.99717899999999,28.962943,0 -97.998521,28.964077,0 -97.999326,28.964757,0 -97.9998018,28.965159,0 -97.999888,28.9652319,0 -98.000719,28.965934,0 -98.00084990000001,28.9660448,0 -98.00095299999998,28.966132,0 -98.00108810000002,28.9662463,0 -98.00112900000001,28.966281,0 -98.001536,28.966633,0 -98.002227,28.967251,0 -98.00263699999999,28.967629,0 -98.003197,28.968161,0 -98.00352500000001,28.968491,0 -98.003907,28.968885,0 -98.0042255,28.9692297,0 -98.00433300000002,28.969346,0 -98.00491,28.969993,0 -98.005353,28.970508,0 -98.005881,28.971155,0 -98.00657199999999,28.972082,0 -98.00719799999999,28.972977,0 -98.00791199999999,28.974056,0 -98.008285,28.974608,0 -98.008768,28.975323,0 -98.00887399999999,28.975472,0 -98.00908,28.975759,0 -98.009669,28.9765535,0 -98.00995239999999,28.97693569999999,0 -98.01085639999999,28.9781933,0 -98.01120539999999,28.9787018,0 -98.01166910000001,28.9793341,0 -98.0120495,28.9797762,0 -98.0123574,28.980084,0 -98.0127243,28.980396,0 -98.01291879999999,28.9805494,0 -98.0129812,28.9805973,0 -98.01322600000002,28.980773,0 -98.013514,28.980951,0 -98.013738,28.98108,0 -98.013823,28.98113,0 -98.01415900000001,28.981302,0 -98.014713,28.981557,0 -98.01504660000001,28.9817035,0 -98.01572899999999,28.982003,0 -98.0167596,28.9824315,0 -98.01774740000002,28.9828732,0 -98.01877400000001,28.983308,0 -98.01899999999999,28.983403,0 -98.0193057,28.9835314,0 -98.019762,28.983735,0 -98.0208107,28.984186,0 -98.021715,28.984586,0 -98.024103,28.985618,0 -98.026081,28.986482,0 -98.02649339999999,28.9866703,0 -98.02679500000001,28.986808,0 -98.02817899999999,28.987419,0 -98.029391,28.987955,0 -98.030349,28.988399,0 -98.03075699999999,28.988589,0 -98.031237,28.988835,0 -98.031615,28.989062,0 -98.03191599999998,28.989264,0 -98.03225899999998,28.989509,0 -98.03256000000002,28.98977199999999,0 -98.032977,28.990169,0 -98.033277,28.990487,0 -98.03351599999999,28.990779,0 -98.03361599999999,28.9909009,0 -98.033754,28.991102,0 -98.034019,28.991498,0 -98.034502,28.992205,0 -98.034757,28.992582,0 -98.03504100000002,28.993003,0 -98.03579499999999,28.994118,0 -98.036124,28.994599,0 -98.03673929999999,28.9954975,0 -98.0374253,28.9964985,0 -98.03849599999999,28.998061,0 -98.039723,28.99988,0 -98.039918,29.000169,0 -98.041544,29.00255,0 -98.04227799999998,29.003635,0 -98.04233160000001,29.0037129,0 -98.043533,29.005457,0 -98.04367689999998,29.00566570000001,0 -98.04369310000001,29.0056891,0 -98.04412499999999,29.006315,0 -98.0445407,29.0069211,0 -98.0450972,29.0077324,0 -98.045411,29.00819,0 -98.0464807,29.0097932,0 -98.04792999999999,29.011921,0 -98.05031800000002,29.01539,0 -98.0505916,29.0157875,0 -98.05252600000001,29.018598,0 -98.05256199999999,29.01865,0 -98.05306700000001,29.019439,0 -98.05315499999999,29.019571,0 -98.053431,29.019986,0 -98.05385800000001,29.02061399999999,0 -98.05411599999999,29.020993,0 -98.0541411,29.0210299,0 -98.055831,29.023516,0 -98.057098,29.025379,0 -98.05712800000001,29.025423,0 -98.05715600000001,29.025464,0 -98.05726,29.025613,0 -98.057681,29.02621600000001,0 -98.0587302,29.0277652,0 -98.05900099999999,29.028165,0 -98.059591,29.029011,0 -98.05966650000001,29.0291194,0 -98.0605671,29.0304133,0 -98.060924,29.030926,0 -98.0628366,29.033752,0 -98.06291419999999,29.0338649,0 -98.06360510000002,29.0348875,0 -98.06436000000001,29.036003,0 -98.065224,29.03728,0 -98.0660656,29.0384996,0 -98.06616139999998,29.0386376,0 -98.06809199999999,29.041518,0 -98.06878039999999,29.0425119,0 -98.06920299999999,29.043122,0 -98.06942100000001,29.043437,0 -98.06985339999999,29.0440684,0 -98.07022500000001,29.044611,0 -98.07027500000001,29.044685,0 -98.07126100000001,29.046124,0 -98.071608,29.046663,0 -98.071754,29.04687300000001,0 -98.071946,29.04714999999999,0 -98.07225000000001,29.047622,0 -98.07294469999999,29.0489737,0 -98.0730013,29.0490967,0 -98.0731754,29.049475,0 -98.07357589999999,29.0505757,0 -98.07396420000001,29.0515612,0 -98.0742346,29.0522474,0 -98.07468399999999,29.053692,0 -98.07471069999998,29.0538209,0 -98.0748936,29.0554755,0 -98.07484259999998,29.05723070000001,0 -98.0748294,29.0578366,0 -98.07480339999998,29.0583709,0 -98.0748033,29.0589608,0 -98.0748785,29.059674,0 -98.07503800000001,29.060395,0 -98.075177,29.060756,0 -98.07530700000001,29.061146,0 -98.0753722,29.0612982,0 -98.07547099999998,29.061529,0 -98.075669,29.061869,0 -98.07573530000001,29.0619924,0 -98.07579100000001,29.062096,0 -98.075891,29.062282,0 -98.0759832,29.062431,0 -98.07667500000001,29.063549,0 -98.07692600000001,29.063917,0 -98.0772609,29.0644094,0 -98.07784570000001,29.0652557,0 -98.078523,29.066208,0 -98.07871299999998,29.06648,0 -98.0792759,29.0673106,0 -98.0794686,29.0675859,0 -98.0797105,29.0678868,0 -98.0799032,29.0681011,0 -98.0800428,29.0682405,0 -98.08019650000001,29.0683864,0 -98.080409,29.068579,0 -98.08060370000001,29.0687211,0 -98.08078620000001,29.0688425,0 -98.08125699999998,29.069121,0 -98.08165700000001,29.069349,0 -98.082122,29.069627,0 -98.08232970000002,29.0697638,0 -98.08241200000001,29.069818,0 -98.082504,29.069901,0 -98.08254240000001,29.06993569999999,0 -98.082786,29.07019,0 -98.083161,29.070584,0 -98.083405,29.070821,0 -98.08390799999998,29.071348,0 -98.08423100000002,29.071692,0 -98.084418,29.071942,0 -98.08485399999999,29.072611,0 -98.0849559,29.0727605,0 -98.08525419999999,29.0731981,0 -98.08549600000001,29.073553,0 -98.08587249999999,29.0740875,0 -98.08662869999999,29.0751609,0 -98.0866611,29.0752069,0 -98.08676360000001,29.0753582,0 -98.08749469999998,29.0764374,0 -98.0881692,29.077417,0 -98.08831109999998,29.0776256,0 -98.08860559999999,29.0781073,0 -98.0888267,29.0784733,0 -98.088989,29.078742,0 -98.08971299999999,29.079842,0 -98.091596,29.082487,0 -98.092113,29.083168,0 -98.093334,29.085026,0 -98.0934113,29.0851482,0 -98.094053,29.08612,0 -98.09501319999998,29.0875131,0 -98.09641999999999,29.089554,0 -98.09652800000001,29.0897106,0 -98.096802,29.090108,0 -98.09705700000001,29.090506,0 -98.097302,29.090934,0 -98.097525,29.091372,0 -98.097725,29.091818,0 -98.09789000000001,29.092243,0 -98.098001,29.092555,0 -98.09803929999998,29.0926448,0 -98.100379,29.099276,0 -98.100402,29.09934,0 -98.10044730000001,29.0994666,0 -98.10101499999999,29.10107199999999,0 -98.10112100000001,29.101382,0 -98.101277,29.101743,0 -98.10145799999999,29.102111,0 -98.10165600000002,29.10245,0 -98.101862,29.102753,0 -98.102085,29.103092,0 -98.10222299999998,29.103262,0 -98.10237499999999,29.103447,0 -98.10265699999998,29.103713,0 -98.102932,29.103966,0 -98.10297199999999,29.104002,0 -98.1030299,29.1040448,0 -98.103313,29.104254,0 -98.103629,29.104477,0 -98.103686,29.104513,0 -98.10401200000001,29.104721,0 -98.10436100000001,29.10492199999999,0 -98.104936,29.105176,0 -98.1055611,29.10546130000001,0 -98.10773320000001,29.1064525,0 -98.11004999999999,29.107543,0 -98.1101883,29.1076076,0 -98.11023109999999,29.10762739999999,0 -98.11172999999999,29.1083211,0 -98.1155723,29.1100994,0 -98.11902199999999,29.111696,0 -98.12072010000001,29.1124692,0 -98.12090899999998,29.112569,0 -98.122018,29.113076,0 -98.12215879999999,29.1131424,0 -98.12276399999999,29.113428,0 -98.12358399999999,29.113799,0 -98.124684,29.114313,0 -98.12518969999999,29.1145528,0 -98.126115,29.1149916,0 -98.12724799999999,29.115529,0 -98.127325,29.115561,0 -98.12766499999999,29.115703,0 -98.12770090000001,29.1157179,0 -98.12803160000001,29.1158555,0 -98.128771,29.1161913,0 -98.129015,29.116306,0 -98.12948679999998,29.1165717,0 -98.1298221,29.1167955,0 -98.13006919999999,29.11697180000001,0 -98.1301711,29.1170541,0 -98.1303374,29.1171771,0 -98.1308202,29.1175816,0 -98.1310395,29.1177736,0 -98.131238,29.1179648,0 -98.1313701,29.1181052,0 -98.13149369999999,29.1182452,0 -98.1329255,29.1198791,0 -98.13370389999999,29.1207674,0 -98.1340563,29.1211724,0 -98.1345343,29.1217206,0 -98.134989,29.122242,0 -98.13577960000001,29.1231803,0 -98.136033,29.123481,0 -98.1362294,29.1236947,0 -98.13644240000002,29.1239265,0 -98.13705120000002,29.1246199,0 -98.1371369,29.1247175,0 -98.13749850000001,29.1251293,0 -98.13821160000001,29.125947,0 -98.1385681,29.1263449,0 -98.1386651,29.1264514,0 -98.13876740000001,29.1265636,0 -98.13895650000001,29.12679049999999,0 -98.1394748,29.1274126,0 -98.140002,29.128014,0 -98.141308,29.129497,0 -98.14193639999999,29.1302223,0 -98.14201300000001,29.130304,0 -98.1424926,29.130879,0 -98.14268269999999,29.1311069,0 -98.14282799999998,29.131281,0 -98.142989,29.131474,0 -98.1434005,29.1319078,0 -98.14357899999999,29.132096,0 -98.14370169999999,29.13222530000001,0 -98.14394299999999,29.1324798,0 -98.14425900000001,29.132813,0 -98.1443307,29.1329308,0 -98.14453899999999,29.133273,0 -98.1448546,29.1335843,0 -98.14512499999999,29.133851,0 -98.1451983,29.1339235,0 -98.14584069999999,29.1345582,0 -98.146643,29.135351,0 -98.1467634,29.1354664,0 -98.14680620000001,29.1355074,0 -98.14702260000001,29.135705,0 -98.14721729999999,29.1359013,0 -98.147465,29.1361373,0 -98.1480875,29.1367376,0 -98.1484789,29.1371155,0 -98.1485934,29.1372297,0 -98.1487648,29.1373971,0 -98.14894,29.13756830000001,0 -98.14931379999999,29.1379335,0 -98.14960720000001,29.1382201,0 -98.1497177,29.138328,0 -98.14981609999998,29.1384241,0 -98.149951,29.1385559,0 -98.15019129999999,29.1387906,0 -98.15065300000001,29.1392416,0 -98.15073890000001,29.1393255,0 -98.1507981,29.1393833,0 -98.15138869999998,29.1399603,0 -98.1514923,29.1400615,0 -98.15171869999999,29.1402826,0 -98.15181149999999,29.1403732,0 -98.15207610000002,29.1406399,0 -98.15280670000001,29.1413454,0 -98.1532,29.1417322,0 -98.15336560000001,29.1418913,0 -98.15351360000001,29.142036,0 -98.153706,29.1422239,0 -98.15382509999999,29.1423403,0 -98.15406520000001,29.1425748,0 -98.1540888,29.1425979,0 -98.1543633,29.1428662,0 -98.15449599999999,29.1429965,0 -98.1545857,29.1430839,0 -98.1548528,29.1433442,0 -98.15542729999999,29.1439053,0 -98.1555805,29.144055,0 -98.15577820000001,29.1442481,0 -98.15603210000002,29.1444961,0 -98.15614030000002,29.1446018,0 -98.15632499999998,29.1447823,0 -98.15667230000001,29.1451215,0 -98.1569693,29.1454116,0 -98.15716810000001,29.1456015,0 -98.1573879,29.1457375,0 -98.1575395,29.1458312,0 -98.15796159999999,29.1461874,0 -98.1582054,29.146391,0 -98.15839759999999,29.1465515,0 -98.15865220000002,29.1467641,0 -98.15869899999998,29.146804,0 -98.15887170000001,29.14694950000001,0 -98.15910820000002,29.1471488,0 -98.15970900000001,29.1476549,0 -98.160583,29.148373,0 -98.1607758,29.1485324,0 -98.16113129999999,29.1488264,0 -98.16184700000001,29.1494182,0 -98.16203299999998,29.149572,0 -98.16220300000001,29.149712,0 -98.16233809999999,29.1498267,0 -98.16243400000002,29.149908,0 -98.163374,29.150703,0 -98.16464320000001,29.1517309,0 -98.1647334,29.1518115,0 -98.16520199999999,29.152228,0 -98.16533819999999,29.1523426,0 -98.16598399999999,29.152886,0 -98.16627690000001,29.1531323,0 -98.16634120000002,29.1531864,0 -98.166594,29.153399,0 -98.1672343,29.1539328,0 -98.1675881,29.1542278,0 -98.16766989999999,29.154296,0 -98.16771,29.1543294,0 -98.16800189999999,29.1545727,0 -98.16820130000001,29.154739,0 -98.16848229999999,29.1549733,0 -98.16851200000001,29.154998,0 -98.16896000000001,29.155386,0 -98.16944580000002,29.1558078,0 -98.169961,29.156255,0 -98.17000269999998,29.1562993,0 -98.17006699999999,29.1563676,0 -98.170186,29.156494,0 -98.17046759999998,29.1567648,0 -98.17081399999999,29.157098,0 -98.17113310000002,29.15740479999999,0 -98.17122999999999,29.157498,0 -98.1716588,29.1579169,0 -98.17184290000002,29.1580967,0 -98.1723756,29.158617,0 -98.1724019,29.1586426,0 -98.17247399999999,29.158713,0 -98.17311189999999,29.1593311,0 -98.1741165,29.1602986,0 -98.17481899999999,29.16103,0 -98.17570379999999,29.1619055,0 -98.175972,29.162171,0 -98.176411,29.162596,0 -98.17672399999999,29.162899,0 -98.17775760000001,29.163884,0 -98.178343,29.164509,0 -98.178776,29.164906,0 -98.17906069999999,29.1651871,0 -98.17941999999998,29.165542,0 -98.180093,29.166193,0 -98.180859,29.1669564,0 -98.1810109,29.1671063,0 -98.1812157,29.1672947,0 -98.18159799999999,29.16767,0 -98.18173609999999,29.1678002,0 -98.1818954,29.1679535,0 -98.182247,29.168292,0 -98.18306699999999,29.169125,0 -98.18445760000002,29.1704769,0 -98.18508000000001,29.171082,0 -98.18551569999998,29.1715161,0 -98.18593199999999,29.171931,0 -98.18655499999998,29.1725406,0 -98.186958,29.172935,0 -98.18723559999998,29.1732102,0 -98.187862,29.173831,0 -98.188984,29.174932,0 -98.18919300000002,29.175133,0 -98.18931019999999,29.175245,0 -98.189415,29.175345,0 -98.18991999999999,29.175828,0 -98.19090700000001,29.176831,0 -98.191874,29.17779,0 -98.192179,29.178107,0 -98.19281000000001,29.178702,0 -98.19377200000001,29.179632,0 -98.193972,29.179827,0 -98.19479200000001,29.180625,0 -98.19540700000002,29.181263,0 -98.19565,29.181565,0 -98.196078,29.182112,0 -98.19639100000002,29.18259,0 -98.19658300000002,29.1829523,0 -98.19671599999998,29.18317,0 -98.1969852,29.1837306,0 -98.197142,29.184057,0 -98.1974195,29.1847181,0 -98.197605,29.18516,0 -98.1984425,29.186986,0 -98.198487,29.1870965,0 -98.19855799999999,29.187241,0 -98.19883799999999,29.187809,0 -98.19910500000002,29.188298,0 -98.19918800000001,29.188432,0 -98.19956500000001,29.189044,0 -98.19967749999999,29.1891969,0 -98.20017199999998,29.189869,0 -98.200594,29.190393,0 -98.20161800000001,29.191686,0 -98.201623,29.191694,0 -98.20176000000001,29.191899,0 -98.201925,29.192147,0 -98.203064,29.193583,0 -98.20402300000001,29.194841,0 -98.20495099999999,29.19603800000001,0 -98.20554600000001,29.196744,0 -98.20598200000001,29.197223,0 -98.20643099999999,29.197679,0 -98.20740000000001,29.198541,0 -98.20745799999999,29.198592,0 -98.207554,29.198678,0 -98.208248,29.199248,0 -98.2096018,29.2003175,0 -98.20962900000001,29.2003483,0 -98.209717,29.200448,0 -98.210224,29.200866,0 -98.21063819999999,29.2012081,0 -98.21087299999999,29.201402,0 -98.212157,29.202441,0 -98.21331999999998,29.203366,0 -98.214223,29.204094,0 -98.21621599999999,29.205701,0 -98.2175539,29.2067726,0 -98.21916380000002,29.2080725,0 -98.2195438,29.2083793,0 -98.21959750000001,29.2084227,0 -98.22017460000001,29.2088919,0 -98.22029870000001,29.2089936,0 -98.22052720000001,29.2091808,0 -98.22063209999999,29.2092668,0 -98.2213264,29.20983469999999,0 -98.2213763,29.2098746,0 -98.22178580000001,29.2102018,0 -98.2218537,29.2102566,0 -98.22545030000002,29.2131582,0 -98.2262245,29.2137828,0 -98.2271846,29.2145624,0 -98.22797110000002,29.215201,0 -98.2292692,29.2162549,0 -98.22930239999999,29.21628189999999,0 -98.23014400000001,29.2169617,0 -98.23099070000002,29.2176457,0 -98.2325122,29.2188749,0 -98.2326419,29.2189799,0 -98.2344714,29.2204606,0 -98.2360915,29.2217689,0 -98.23883469999998,29.2239836,0 -98.2406108,29.2254174,0 -98.24142879999999,29.2260778,0 -98.24176249999999,29.2263499,0 -98.2420427,29.2265783,0 -98.24241439999999,29.2268814,0 -98.24341769999999,29.2276993,0 -98.24374810000002,29.2279665,0 -98.24397630000001,29.22815110000001,0 -98.24468549999999,29.2287247,0 -98.24509580000002,29.2290566,0 -98.2458843,29.2296944,0 -98.2461461,29.2299061,0 -98.2462757,29.2300114,0 -98.2469428,29.2305503,0 -98.248059,29.231452,0 -98.24910459999998,29.2321916,0 -98.2521651,29.2344668,0 -98.2523477,29.2346003,0 -98.25878070000002,29.2393949,0 -98.25946,29.239905,0 -98.25966060000002,29.2400496,0 -98.2596739,29.2400595,0 -98.26109580000002,29.2411195,0 -98.26437930000002,29.243564,0 -98.26444039999998,29.2436096,0 -98.2665966,29.2452187,0 -98.26783989999998,29.24614649999999,0 -98.27056930000001,29.2481834,0 -98.27171400000002,29.2490221,0 -98.2722725,29.2494093,0 -98.27281199999999,29.2497708,0 -98.27366360000001,29.2503193,0 -98.27465789999998,29.2509075,0 -98.27540550000002,29.2513223,0 -98.2759693,29.2516235,0 -98.27624830000001,29.2517673,0 -98.27729100000001,29.2523048,0 -98.27738650000001,29.2523541,0 -98.2792828,29.2533266,0 -98.28194190000001,29.2546904,0 -98.2824114,29.2549324,0 -98.28367919999999,29.255586,0 -98.28435519999999,29.2559334,0 -98.28667129999999,29.2571238,0 -98.28749330000001,29.2575463,0 -98.28839819999999,29.2580107,0 -98.29242539999998,29.2600714,0 -98.29344879999999,29.26059589999999,0 -98.2957588,29.2617843,0 -98.3039394,29.2659929,0 -98.304559,29.2663111,0 -98.305217,29.266649,0 -98.30671079999999,29.2674145,0 -98.30696760000001,29.2675433,0 -98.30839469999999,29.2682798,0 -98.3086158,29.2683931,0 -98.30910059999999,29.2686415,0 -98.31030250000001,29.2692573,0 -98.310953,29.2695906,0 -98.3115572,29.269901,0 -98.3121325,29.2701999,0 -98.3126592,29.2704835,0 -98.3132657,29.2708283,0 -98.31435459999999,29.2714474,0 -98.315523,29.2721218,0 -98.31601219999999,29.27238759999999,0 -98.3165207,29.2726461,0 -98.3168312,29.2728078,0 -98.3173067,29.2730413,0 -98.31762999999999,29.2732,0 -98.31792609999999,29.2733396,0 -98.3187901,29.273747,0 -98.319954,29.274252,0 -98.320016,29.274276,0 -98.32082599999998,29.27459500000001,0 -98.3237566,29.27574600000001,0 -98.32398619999999,29.2758362,0 -98.32405199999999,29.275862,0 -98.324173,29.27591,0 -98.32631499999999,29.276863,0 -98.3264951,29.2769467,0 -98.32773299999999,29.277522,0 -98.3279994,29.277646,0 -98.329538,29.278362,0 -98.330617,29.278864,0 -98.33145199999998,29.279252,0 -98.33187700000001,29.27945,0 -98.33245700000001,29.27972,0 -98.3328298,29.2798936,0 -98.33349440000002,29.280203,0 -98.3343,29.280578,0 -98.335739,29.281248,0 -98.33846270000001,29.2825094,0 -98.33963199999999,29.283051,0 -98.342579,29.284397,0 -98.344995,29.285526,0 -98.3455307,29.2857731,0 -98.34839700000001,29.287095,0 -98.35069609999999,29.288185,0 -98.3539047,29.2896673,0 -98.3547586,29.2900668,0 -98.3564619,29.2908589,0 -98.3579197,29.291525,0 -98.3585028,29.2917914,0 -98.35866600000001,29.291866,0 -98.36141149999999,29.2931278,0 -98.361451,29.293146,0 -98.362498,29.293636,0 -98.363736,29.294214,0 -98.36431700000001,29.294483,0 -98.36553120000001,29.2950454,0 -98.36604,29.295281,0 -98.36608289999999,29.2952972,0 -98.36619089999999,29.2953505,0 -98.36770660000001,29.2960486,0 -98.367938,29.29616,0 -98.36860780000002,29.2964705,0 -98.36882900000001,29.296573,0 -98.3688731,29.2965923,0 -98.369722,29.296964,0 -98.370317,29.29724999999999,0 -98.371483,29.2978,0 -98.37234720000001,29.2982404,0 -98.37358030000001,29.2988652,0 -98.3759,29.300054,0 -98.37673100000001,29.300471,0 -98.378754,29.301487,0 -98.37975299999999,29.302015,0 -98.379766,29.3020226,0 -98.38018599999998,29.302268,0 -98.38132299999999,29.302881,0 -98.38193939999999,29.3032403,0 -98.3826002,29.3036255,0 -98.38274389999999,29.3037093,0 -98.38366360000002,29.3042454,0 -98.3841992,29.3045576,0 -98.38452650000001,29.3047484,0 -98.38468419999998,29.3048403,0 -98.38588940000001,29.3055382,0 -98.38627649999999,29.3057623,0 -98.386402,29.305835,0 -98.3866761,29.3059917,0 -98.38763900000001,29.306542,0 -98.3877842,29.3066156,0 -98.388229,29.306841,0 -98.3883431,29.3068938,0 -98.388363,29.306903,0 -98.388594,29.306993,0 -98.38913030000001,29.3072172,0 -98.3896098,29.3073694,0 -98.38985899999999,29.3074389,0 -98.38991420000001,29.307454,0 -98.39001830000001,29.3074794,0 -98.39049780000001,29.3075826,0 -98.39069809999999,29.3076197,0 -98.39109319999999,29.3076797,0 -98.39142579999999,29.3077178,0 -98.39174729999999,29.3077415,0 -98.39211169999999,29.3077595,0 -98.39240890000001,29.3077632,0 -98.39263680000002,29.3077565,0 -98.3937019,29.3077186,0 -98.39411460000001,29.3077044,0 -98.39461650000001,29.3076856,0 -98.3958485,29.3076394,0 -98.39891969999999,29.3075242,0 -98.3998928,29.3074845,0 -98.4004841,29.307463,0 -98.4008402,29.3074509,0 -98.40113370000002,29.3074683,0 -98.4014121,29.3075066,0 -98.40171690000001,29.3075891,0 -98.40200780000001,29.3077008,0 -98.40229540000001,29.3078556,0 -98.40256769999999,29.3080473,0 -98.4028021,29.3082549,0 -98.40297440000002,29.308449,0 -98.4031466,29.308719,0 -98.4033087,29.3090912,0 -98.4039611,29.3109124,0 -98.4043504,29.3119889,0 -98.40448120000001,29.3122944,0 -98.40457000000001,29.312452,0 -98.4049081,29.3130284,0 -98.4049251,29.3131154,0 
				</coordinates>
			</LineString>
		<atom:link rel="app" href="https://www.google.com/earth/about/versions/#earth-pro" title="Google Earth Pro 7.3.6.10201"></atom:link>
	</Placemark>
</Document>
</kml>
