<?xml version="1.0" encoding="UTF-8"?>
<kml xmlns="http://www.opengis.net/kml/2.2" xmlns:gx="http://www.google.com/kml/ext/2.2" xmlns:kml="http://www.opengis.net/kml/2.2" xmlns:atom="http://www.w3.org/2005/Atom">
<Document>
	<name>US.14A.WY.kml</name>
	<Placemark>
		<name>US.14A.WY</name>
		<LineString>
			<coordinates>
				-109.056271,44.5260728,0 -109.0562721,44.5261945,0 -109.0562732,44.5263161,0 -109.0562766,44.5266312,0 -109.0562817,44.527136,0 -109.0563041,44.5277118,0 -109.0563246,44.5282394,0 -109.0563229,44.5284173,0 -109.056319,44.5288214,0 -109.0563139,44.5293465,0 -109.0563299,44.5299169,0 -109.0563246,44.5304169,0 -109.0563246,44.5309162,0 -109.0563246,44.5311591,0 -109.0562924,44.5317557,0 -109.0562513,44.5319317,0 -109.0562281,44.532031,0 -109.0561,44.5323018,0 -109.0556702,44.5327729,0 -109.055177,44.533049,0 -109.0547582,44.5332471,0 -109.0543008,44.5333539,0 -109.0535715,44.5333963,0 -109.05139,44.5333996,0 -109.0462694,44.5334076,0 -109.0446596,44.5334101,0 -109.0443105,44.5334106,0 -109.0440774,44.533411,0 -109.0435894,44.5334117,0 -109.0435482,44.5334123,0 -109.0429306,44.5334209,0 -109.0424741,44.5334273,0 -109.0423963,44.5334254,0 -109.0411931,44.5334227,0 -109.0406851,44.5334227,0 -109.0403573,44.5334273,0 -109.0370266,44.5334264,0 -109.0368631,44.5334273,0 -109.0323572,44.533441,0 -109.0312053,44.5334384,0 -109.0297813,44.5334483,0 -109.028088,44.5334373,0 -109.0267463,44.5334417,0 -109.0247476,44.5334483,0 -109.0228491,44.5334556,0 -109.0227054,44.5334556,0 -109.0209556,44.5334812,0 -109.01893,44.53346,0 -109.0158653,44.5334813,0 -109.0153844,44.5334763,0 -109.0148722,44.5334729,0 -109.0146043,44.533473,0 -109.0138728,44.5334924,0 -109.0133269,44.5335317,0 -109.0129188,44.5335842,0 -109.0126407,44.5336407,0 -109.0120452,44.533763,0 -109.0113178,44.5339296,0 -109.0105069,44.5341858,0 -109.0088106,44.5348758,0 -109.0064931,44.5358853,0 -109.0021596,44.5376906,0 -109.001097,44.538106,0 -109.000694,44.538292,0 -108.999526,44.5388059,0 -108.9968986,44.5399618,0 -108.995598,44.540534,0 -108.9937169,44.5414859,0 -108.9926244,44.5421517,0 -108.9921015,44.5424783,0 -108.9907676,44.5433081,0 -108.9880545,44.5449502,0 -108.9861289,44.5461403,0 -108.9855939,44.5464709,0 -108.9842621,44.5472738,0 -108.9828956,44.5481609,0 -108.9824234,44.5485223,0 -108.9820426,44.5489187,0 -108.9816641,44.5493387,0 -108.9813955,44.5497514,0 -108.9810277,44.550349,0 -108.9807806,44.5509769,0 -108.9805967,44.5519013,0 -108.9804966,44.5535329,0 -108.9804796,44.5552743,0 -108.9806011,44.5594493,0 -108.9807128,44.5624936,0 -108.9807336,44.5637708,0 -108.9807659,44.5650069,0 -108.980806,44.5660238,0 -108.9807467,44.5667774,0 -108.9805642,44.5674984,0 -108.9802545,44.5681179,0 -108.9798615,44.5687148,0 -108.9794103,44.5692223,0 -108.9790278,44.5695796,0 -108.9759758,44.5720992,0 -108.9750964,44.5730278,0 -108.974455,44.5738589,0 -108.9737891,44.5748992,0 -108.9729094,44.57626,0 -108.972541,44.576822,0 -108.9720497,44.5775296,0 -108.9710899,44.5790698,0 -108.9703907,44.5802492,0 -108.9698759,44.5814063,0 -108.9696064,44.5821209,0 -108.9692452,44.5833263,0 -108.9689478,44.5845115,0 -108.9682423,44.5873592,0 -108.9680526,44.5881315,0 -108.9677927,44.589155,0 -108.9675203,44.5903489,0 -108.9671388,44.5918523,0 -108.9666663,44.5935361,0 -108.9661533,44.5954588,0 -108.9658059,44.5967737,0 -108.9656014,44.5975226,0 -108.9651371,44.5993187,0 -108.964801,44.6006249,0 -108.9645839,44.6014383,0 -108.9642643,44.6025668,0 -108.9638708,44.6036832,0 -108.9629425,44.6060994,0 -108.9621562,44.6081534,0 -108.9608211,44.611639,0 -108.9601047,44.6134812,0 -108.9593173,44.6155442,0 -108.9581221,44.6186549,0 -108.9573303,44.6207189,0 -108.9568883,44.6218659,0 -108.9565253,44.6227893,0 -108.9564002,44.6231193,0 -108.956099,44.623997,0 -108.9559298,44.624699,0 -108.9558797,44.6252202,0 -108.9558647,44.6256543,0 -108.9558643,44.626555,0 -108.9558628,44.6271586,0 -108.9558449,44.6280468,0 -108.9558542,44.6289436,0 -108.9558421,44.6310331,0 -108.9558204,44.6318427,0 -108.9557674,44.6328671,0 -108.9557118,44.633307,0 -108.9555797,44.6340162,0 -108.9555316,44.6342394,0 -108.9551332,44.6358094,0 -108.9545926,44.6379315,0 -108.9540204,44.6401786,0 -108.9530038,44.644223,0 -108.9509996,44.6520635,0 -108.9506933,44.6532607,0 -108.9503518,44.6545915,0 -108.9501829,44.655141,0 -108.9498739,44.6559514,0 -108.9496026,44.6565449,0 -108.9491666,44.6573649,0 -108.9485853,44.6582725,0 -108.9478765,44.65922,0 -108.9474222,44.659746,0 -108.9469613,44.6602393,0 -108.9463831,44.6607939,0 -108.9451156,44.6620014,0 -108.9439114,44.6631404,0 -108.9412131,44.6656975,0 -108.939034,44.6677708,0 -108.9341388,44.6724492,0 -108.9338776,44.6726932,0 -108.933628,44.6729345,0 -108.9334687,44.6730886,0 -108.933036,44.673502,0 -108.9293791,44.6770032,0 -108.9284972,44.6778446,0 -108.9274039,44.6788769,0 -108.9255419,44.6806434,0 -108.9251165,44.6810521,0 -108.9219949,44.6840061,0 -108.9201514,44.6857553,0 -108.919445,44.686421,0 -108.9187036,44.6870724,0 -108.9180632,44.687583,0 -108.9171829,44.6882178,0 -108.9146607,44.6899348,0 -108.9102258,44.6929762,0 -108.9073119,44.6949702,0 -108.9041856,44.697123,0 -108.9019197,44.6986299,0 -108.9009892,44.6991641,0 -108.8999861,44.6996906,0 -108.8971719,44.7010258,0 -108.894608,44.7022221,0 -108.8919305,44.7034974,0 -108.8911888,44.7038343,0 -108.8769218,44.7105644,0 -108.874471,44.7117121,0 -108.8715628,44.7129716,0 -108.8701215,44.7136017,0 -108.8676667,44.7147556,0 -108.8645148,44.7162481,0 -108.8639592,44.7164972,0 -108.8636617,44.7166207,0 -108.8634106,44.7167249,0 -108.8625395,44.7170437,0 -108.8601345,44.7179423,0 -108.8584674,44.7185594,0 -108.8581021,44.7187193,0 -108.8577249,44.7189291,0 -108.8573742,44.7191606,0 -108.8568977,44.7195683,0 -108.8565736,44.7199523,0 -108.856335,44.7203452,0 -108.856182,44.7207581,0 -108.8561284,44.7208573,0 -108.8559591,44.721422,0 -108.8557984,44.7217405,0 -108.8554443,44.7222482,0 -108.855052,44.7226461,0 -108.8550045,44.7226841,0 -108.8547685,44.7228729,0 -108.8545132,44.7230685,0 -108.8540063,44.7233705,0 -108.853576,44.7235691,0 -108.8530763,44.7237565,0 -108.852558,44.7239056,0 -108.8521576,44.7239881,0 -108.8516314,44.7240736,0 -108.8504942,44.724246,0 -108.8499028,44.7243574,0 -108.8492451,44.7245225,0 -108.8479235,44.7249124,0 -108.8446016,44.7259002,0 -108.8406354,44.7270697,0 -108.8270039,44.7310912,0 -108.8255297,44.7314999,0 -108.8233477,44.7320863,0 -108.820689,44.7328602,0 -108.8157348,44.7343131,0 -108.8107474,44.7357836,0 -108.8000557,44.7389335,0 -108.7977807,44.7396045,0 -108.7953645,44.740295,0 -108.7902553,44.7417328,0 -108.7874686,44.7425365,0 -108.7830812,44.7438325,0 -108.7800859,44.7447188,0 -108.7769605,44.7456349,0 -108.7737786,44.7465675,0 -108.7701328,44.7476284,0 -108.7685347,44.7480949,0 -108.7670847,44.748505,0 -108.7656328,44.7489406,0 -108.7648216,44.7492205,0 -108.76425,44.7494529,0 -108.7641955,44.7494695,0 -108.7635256,44.7496743,0 -108.7617447,44.7501912,0 -108.7613408,44.7503184,0 -108.7610872,44.7504217,0 -108.7608712,44.75051,0 -108.7603992,44.750657,0 -108.7596953,44.750862,0 -108.7590001,44.7510645,0 -108.7588753,44.7510998,0 -108.7575911,44.7514517,0 -108.7568151,44.751685,0 -108.7560951,44.7519016,0 -108.7545844,44.7523389,0 -108.753114,44.7526963,0 -108.7525262,44.7528516,0 -108.7521879,44.7529409,0 -108.7516571,44.7530812,0 -108.7509307,44.7532937,0 -108.750177,44.753521,0 -108.7491618,44.7538189,0 -108.7482847,44.7540913,0 -108.747377,44.7543531,0 -108.7464666,44.7546161,0 -108.7449356,44.755063,0 -108.7446303,44.7550991,0 -108.7432682,44.7555097,0 -108.7427775,44.7556576,0 -108.7415327,44.7560215,0 -108.7396159,44.756582,0 -108.7385029,44.7569006,0 -108.736831,44.7573717,0 -108.7348252,44.7579576,0 -108.7325627,44.7586214,0 -108.725279,44.7607621,0 -108.7192409,44.7626181,0 -108.7104867,44.7651005,0 -108.7007536,44.7679559,0 -108.7003077,44.768084,0 -108.6989945,44.7684614,0 -108.6888903,44.7714235,0 -108.6883315,44.7715776,0 -108.6872676,44.7718866,0 -108.6866745,44.7720488,0 -108.6857062,44.7722663,0 -108.6843253,44.7725855,0 -108.6833859,44.7728408,0 -108.6810414,44.7735243,0 -108.6786113,44.7742368,0 -108.6745763,44.7754391,0 -108.6696636,44.7768301,0 -108.6668188,44.7777003,0 -108.6651035,44.7783219,0 -108.6647871,44.7784435,0 -108.6630047,44.7791559,0 -108.6628089,44.7792777,0 -108.6620305,44.7797617,0 -108.6618295,44.7798867,0 -108.6611382,44.7806855,0 -108.6609236,44.7810578,0 -108.6606184,44.7818316,0 -108.660594,44.781987,0 -108.6605806,44.7829197,0 -108.6605841,44.7831228,0 -108.6606183,44.78506,0 -108.6581837,44.7855139,0 -108.6522534,44.7866194,0 -108.6517992,44.7866955,0 -108.651326,44.7867627,0 -108.650815,44.7868164,0 -108.6503292,44.7868433,0 -108.6485536,44.786845,0 -108.6479825,44.786845,0 -108.6468024,44.7868653,0 -108.6462663,44.7868736,0 -108.6409872,44.7869556,0 -108.6401241,44.7869341,0 -108.6393418,44.7869018,0 -108.6385191,44.7867944,0 -108.6375702,44.7865365,0 -108.636687,44.7861711,0 -108.635723,44.7855549,0 -108.6351325,44.7850498,0 -108.6284706,44.7791293,0 -108.6276805,44.7784106,0 -108.6270975,44.7778171,0 -108.6265913,44.7773325,0 -108.6260927,44.7767771,0 -108.6256785,44.7761455,0 -108.6249035,44.7747422,0 -108.6247708,44.7744365,0 -108.6244256,44.7736328,0 -108.624141,44.7730428,0 -108.6240345,44.772822,0 -108.623563,44.7719374,0 -108.62298,44.7710771,0 -108.6222147,44.7701087,0 -108.6215639,44.7693877,0 -108.6213829,44.7692062,0 -108.6208323,44.7686864,0 -108.6198198,44.7678097,0 -108.618953,44.7671507,0 -108.6180145,44.7665452,0 -108.6177641,44.7663937,0 -108.6163757,44.7655768,0 -108.6155013,44.7651412,0 -108.6147468,44.7647767,0 -108.6139368,44.764456,0 -108.613112,44.7641563,0 -108.6122137,44.76386,0 -108.6112368,44.7635881,0 -108.6102402,44.7633267,0 -108.6090915,44.7630827,0 -108.6079476,44.762898,0 -108.6068627,44.7627516,0 -108.6058269,44.762647,0 -108.6049482,44.7625808,0 -108.6042039,44.76253,0 -108.6028471,44.762539,0 -108.6021609,44.7625639,0 -108.6010156,44.7626281,0 -108.6002566,44.7627014,0 -108.598836,44.7628686,0 -108.5972271,44.763019,0 -108.5942918,44.7633255,0 -108.5929058,44.7634856,0 -108.5926275,44.7635152,0 -108.5922745,44.7635527,0 -108.5911277,44.7636746,0 -108.5900076,44.7638208,0 -108.5892944,44.7639385,0 -108.5883752,44.7641632,0 -108.5879331,44.7643023,0 -108.5874219,44.7644778,0 -108.5866061,44.7648108,0 -108.5860729,44.7650707,0 -108.5852699,44.765504,0 -108.5817173,44.7676067,0 -108.5813961,44.7677937,0 -108.5807864,44.768157,0 -108.5805041,44.7683222,0 -108.5769588,44.7703962,0 -108.5764073,44.7707188,0 -108.5752289,44.7714048,0 -108.5741939,44.7720074,0 -108.5721601,44.7733886,0 -108.572061,44.773477,0 -108.568904,44.775719,0 -108.56577,44.777991,0 -108.564941,44.778872,0 -108.5621,44.782911,0 -108.561299,44.783805,0 -108.5607443,44.7842621,0 -108.5607203,44.7842819,0 -108.560327,44.784606,0 -108.5595049,44.7851301,0 -108.559221,44.785311,0 -108.5570699,44.7865872,0 -108.5564837,44.786935,0 -108.5562474,44.7870812,0 -108.5553477,44.7876377,0 -108.554463,44.788185,0 -108.5540814,44.7883465,0 -108.553173,44.788746,0 -108.5515187,44.7892759,0 -108.5512492,44.7893623,0 -108.5507093,44.7895352,0 -108.5473585,44.7906086,0 -108.54707,44.790701,0 -108.5451567,44.7913136,0 -108.544797,44.791473,0 -108.544512,44.79159,0 -108.5439199,44.7918538,0 -108.5432148,44.792277,0 -108.5426291,44.7926746,0 -108.5421267,44.7931105,0 -108.5416666,44.7935462,0 -108.5410833,44.7940056,0 -108.539775,44.794814,0 -108.5389131,44.7951881,0 -108.538616,44.795317,0 -108.5380551,44.7954678,0 -108.5376011,44.7956016,0 -108.537335,44.79568,0 -108.535954,44.795896,0 -108.534547,44.795958,0 -108.530596,44.795975,0 -108.5284388,44.79602,0 -108.5282107,44.7960248,0 -108.527235,44.796051,0 -108.5231667,44.7961744,0 -108.5229185,44.7961878,0 -108.522293,44.796173,0 -108.5214521,44.7961938,0 -108.5213406,44.7961966,0 -108.520294,44.796174,0 -108.519064,44.796152,0 -108.517728,44.796154,0 -108.5176084,44.7961556,0 -108.5174264,44.7961581,0 -108.516002,44.7961775,0 -108.513166,44.796216,0 -108.51218,44.7962159,0 -108.5097157,44.7962132,0 -108.509115,44.796213,0 -108.5071784,44.7962166,0 -108.5046395,44.7962302,0 -108.5037409,44.7962369,0 -108.5034894,44.7962388,0 -108.502521,44.796246,0 -108.5021859,44.7962526,0 -108.5011321,44.7962756,0 -108.500849,44.7963064,0 -108.5004342,44.7963617,0 -108.5000209,44.7964603,0 -108.4997798,44.7965339,0 -108.4993443,44.7966893,0 -108.498937,44.7968618,0 -108.4985313,44.7970901,0 -108.4981717,44.7973417,0 -108.4979856,44.7975584,0 -108.496433,44.799013,0 -108.4960055,44.7993618,0 -108.495222,44.800001,0 -108.493814,44.800996,0 -108.492063,44.802221,0 -108.4907308,44.8031355,0 -108.4848111,44.807199,0 -108.4836726,44.8079598,0 -108.4802923,44.8103413,0 -108.47932,44.811012,0 -108.4768524,44.8127004,0 -108.4764252,44.8129582,0 -108.469007,44.818068,0 -108.4676748,44.8189824,0 -108.467065,44.8194009,0 -108.4564305,44.8266997,0 -108.4553654,44.8274308,0 -108.452092,44.829677,0 -108.4515938,44.8299998,0 -108.4503,44.83095,0 -108.449177,44.831948,0 -108.448357,44.833015,0 -108.448092,44.833447,0 -108.447745,44.83411,0 -108.4462982,44.8371132,0 -108.445913,44.837851,0 -108.445131,44.8394669,0 -108.4447421,44.8401056,0 -108.4446346,44.8402548,0 -108.4443695,44.8405983,0 -108.444032,44.840963,0 -108.443256,44.841665,0 -108.4429962,44.8418372,0 -108.4417512,44.8426621,0 -108.4414546,44.8428589,0 -108.4401704,44.8422278,0 -108.4363462,44.8403994,0 -108.4347971,44.8396743,0 -108.4339065,44.839255,0 -108.4327336,44.8387048,0 -108.431781,44.838271,0 -108.4309763,44.837898,0 -108.4305934,44.8377596,0 -108.429784,44.8375196,0 -108.428798,44.8372691,0 -108.4278489,44.8371334,0 -108.4270616,44.8370656,0 -108.4260369,44.8370419,0 -108.4254821,44.8370632,0 -108.4234858,44.8371799,0 -108.4219333,44.8372738,0 -108.4211018,44.8372999,0 -108.4197406,44.8372686,0 -108.4187179,44.8372112,0 -108.4171138,44.8370651,0 -108.4157599,44.8369555,0 -108.4143987,44.8368303,0 -108.4140451,44.8368107,0 -108.4110206,44.8368025,0 -108.4063671,44.8367807,0 -108.4062721,44.8367493,0 -108.4045924,44.8367396,0 -108.404386,44.8367406,0 -108.4041232,44.8367851,0 -108.4038834,44.836878,0 -108.4037976,44.8369252,0 -108.4036192,44.8370464,0 -108.4035381,44.8371281,0 -108.4034402,44.8372267,0 -108.4032095,44.837357,0 -108.4030117,44.8374404,0 -108.4028563,44.8374638,0 -108.4018225,44.837466,0 -108.3997285,44.837473,0 -108.3976292,44.8374799,0 -108.3955351,44.8374797,0 -108.3934432,44.8374921,0 -108.3913797,44.8374817,0 -108.3892997,44.8375069,0 -108.3872214,44.8374962,0 -108.3868064,44.8374958,0 -108.3851032,44.837494,0 -108.384425,44.8374931,0 -108.3832819,44.8374993,0 -108.3819719,44.8374917,0 -108.3811624,44.837384,0 -108.380735,44.8373316,0 -108.3802067,44.8372306,0 -108.3796814,44.8370996,0 -108.3792614,44.8369827,0 -108.3791073,44.8369819,0 -108.3786137,44.8378019,0 -108.3782017,44.8383186,0 -108.377754,44.838849,0 -108.3771095,44.8393979,0 -108.3765677,44.8397049,0 -108.3760293,44.8399658,0 -108.3753967,44.8401753,0 -108.3751469,44.8402395,0 -108.3748783,44.8403086,0 -108.3743722,44.8403916,0 -108.3736128,44.8404614,0 -108.3728793,44.8404704,0 -108.3722779,44.8404564,0 -108.3708205,44.840482,0 -108.3614393,44.8405799,0 -108.3611579,44.8405768,0 -108.3572127,44.8406278,0 -108.352883,44.840625,0 -108.3520908,44.8406354,0 -108.3422781,44.8406523,0 -108.34142,44.840622,0 -108.3315468,44.8406558,0 -108.327745,44.840594,0 -108.3210679,44.8406131,0 -108.319779,44.840578,0 -108.3107996,44.840586,0 -108.302935,44.840583,0 -108.300993,44.840692,0 -108.3001179,44.8408407,0 -108.299363,44.840969,0 -108.297761,44.841405,0 -108.29625,44.842004,0 -108.295118,44.842595,0 -108.293818,44.843468,0 -108.290893,44.845642,0 -108.2901575,44.846099,0 -108.289494,44.84641,0 -108.288582,44.846806,0 -108.286954,44.847331,0 -108.285218,44.847687,0 -108.283421,44.847869,0 -108.276137,44.847917,0 -108.2696931,44.8479697,0 -108.2690514,44.8479812,0 -108.268735,44.847984,0 -108.251001,44.847963,0 -108.2491604,44.8479669,0 -108.246925,44.847977,0 -108.245085,44.848072,0 -108.243659,44.848324,0 -108.242308,44.84874,0 -108.240734,44.849408,0 -108.2400978,44.8496902,0 -108.2387533,44.8502864,0 -108.23854,44.850381,0 -108.2372272,44.8509067,0 -108.2366,44.851144,0 -108.234561,44.851756,0 -108.231409,44.852536,0 -108.2284705,44.8532484,0 -108.225453,44.85398,0 -108.222305,44.854726,0 -108.221595,44.854876,0 -108.220169,44.855129,0 -108.2194155,44.8552155,0 -108.217975,44.855381,0 -108.217609,44.855405,0 -108.215392,44.855447,0 -108.2092634,44.8554623,0 -108.2080377,44.8554608,0 -108.20738,44.855463,0 -108.202399,44.855398,0 -108.199786,44.855388,0 -108.188877,44.855371,0 -108.185194,44.8554,0 -108.182858,44.855595,0 -108.1803099,44.8559829,0 -108.1785262,44.8562544,0 -108.176354,44.856585,0 -108.1759105,44.8566375,0 -108.175033,44.856678,0 -108.174703,44.856674,0 -108.173732,44.856599,0 -108.173093,44.856493,0 -108.171886,44.856171,0 -108.17078,44.855709,0 -108.169806,44.855102,0 -108.168984,44.854392,0 -108.168637,44.853998,0 -108.167738,44.852723,0 -108.166714,44.851102,0 -108.1637034,44.8465926,0 -108.1601141,44.8411806,0 -108.155594,44.834167,0 -108.1540783,44.8318864,0 -108.153541,44.831078,0 -108.152665,44.829912,0 -108.151878,44.8291134,0 -108.151631,44.828841,0 -108.151177,44.82845,0 -108.150459,44.827906,0 -108.149948,44.827573,0 -108.1489731,44.8270189,0 -108.148873,44.82694,0 -108.1406991,44.8222388,0 -108.129994,44.815998,0 -108.115709,44.807699,0 -108.113439,44.806364,0 -108.111429,44.805226,0 -108.1066884,44.8024751,0 -108.1065321,44.8023844,0 -108.094883,44.795564,0 -108.0926726,44.7942907,0 -108.087811,44.791468,0 -108.08727,44.791197,0 -108.08615,44.790782,0 -108.085858,44.790701,0 -108.0857925,44.7906897,0 -108.0856631,44.7906673,0 -108.085262,44.79057,0 -108.084662,44.790485,0 -108.083748,44.790425,0 -108.0807759,44.7904113,0 -108.071966,44.790332,0 -108.069665,44.790334,0 -108.067701,44.790395,0 -108.0669318,44.7904352,0 -108.064449,44.790565,0 -108.06028,44.790824,0 -108.057653,44.79097,0 -108.054672,44.791089,0 -108.053025,44.79111,0 -108.048137,44.791102,0 -108.043313,44.791117,0 -108.041707,44.791208,0 -108.041066,44.791277,0 -108.040434,44.791375,0 -108.039806,44.791487,0 -108.035104,44.792408,0 -108.0340994,44.7926315,0 -108.030881,44.793248,0 -108.030096,44.793358,0 -108.029581,44.793398,0 -108.029076,44.793415,0 -108.028321,44.793386,0 -108.027826,44.793341,0 -108.0197207,44.792245,0 -108.019294,44.792214,0 -108.018758,44.792207,0 -108.018488,44.792219,0 -108.017955,44.79229,0 -108.017447,44.792416,0 -108.017206,44.792497,0 -108.016744,44.792694,0 -108.013928,44.794152,0 -108.013514,44.794349,0 -108.012829,44.794543,0 -108.012338,44.794586,0 -108.01186,44.794546,0 -108.01163,44.794503,0 -108.011181,44.794381,0 -108.010539,44.794138,0 -108.010096,44.794017,0 -108.009642,44.793942,0 -108.009185,44.793939,0 -108.008957,44.793967,0 -108.008516,44.794077,0 -108.008111,44.794247,0 -108.007614,44.794612,0 -108.007184,44.795023,0 -108.006632,44.795338,0 -108.005971,44.795483,0 -108.005503,44.795486,0 -108.005035,44.795469,0 -108.004563,44.795482,0 -108.003701,44.795684,0 -108.003094,44.795918,0 -108.00243,44.796032,0 -108.002204,44.796027,0 -108.001559,44.795923,0 -108.000919,44.795796,0 -108.000476,44.795743,0 -108.000033,44.795738,0 -107.999588,44.795752,0 -107.997783,44.795867,0 -107.997321,44.795853,0 -107.996867,44.79581,0 -107.995751,44.795661,0 -107.995295,44.795613,0 -107.994611,44.795588,0 -107.994161,44.795601,0 -107.993703,44.795643,0 -107.992812,44.795827,0 -107.9923362,44.7959882,0 -107.9890622,44.7971498,0 -107.9887387,44.7972714,0 -107.9882818,44.79742,0 -107.9876918,44.797591,0 -107.9872332,44.7976811,0 -107.9870953,44.7977081,0 -107.9864355,44.7977846,0 -107.9858835,44.7977846,0 -107.9853124,44.7977351,0 -107.9846589,44.7976316,0 -107.9840752,44.7974695,0 -107.9835549,44.7972849,0 -107.9829331,44.7969652,0 -107.9825017,44.7966816,0 -107.982121,44.7963484,0 -107.9817784,44.7959612,0 -107.9812581,44.7952588,0 -107.9808399,44.7946556,0 -107.9804079,44.7942863,0 -107.9799955,44.7940026,0 -107.9793927,44.7937054,0 -107.9781428,44.7930571,0 -107.9775908,44.7926563,0 -107.9772037,44.7923051,0 -107.9747607,44.7899471,0 -107.9745416,44.7897035,0 -107.9743444,44.7894444,0 -107.9742203,44.7891438,0 -107.9741034,44.7888431,0 -107.9740596,44.7884647,0 -107.9741034,44.7881486,0 -107.9742057,44.7877909,0 -107.9743956,44.7874436,0 -107.9749506,44.7866039,0 -107.975177,44.7862722,0 -107.9752939,44.7859456,0 -107.9753523,44.7855517,0 -107.9753085,44.7851059,0 -107.9751478,44.7846808,0 -107.974936,44.7843802,0 -107.9746383,44.7840468,0 -107.9740073,44.7835724,0 -107.9704645,44.7808884,0 -107.9701315,44.7807391,0 -107.9697239,44.7806038,0 -107.9693223,44.7805261,0 -107.9687654,44.7805196,0 -107.9683819,44.7805909,0 -107.9679985,44.7807399,0 -107.9676881,44.7808954,0 -107.967479,44.781096,0 -107.967292,44.7813338,0 -107.9671459,44.7816137,0 -107.9671094,44.782044,0 -107.9671751,44.7823654,0 -107.9690464,44.7856081,0 -107.9698909,44.7870875,0 -107.9705639,44.7882643,0 -107.9706515,44.7885286,0 -107.9706369,44.7887671,0 -107.9705054,44.7890521,0 -107.9703448,44.7894409,0 -107.9702717,44.7897311,0 -107.9703009,44.7900007,0 -107.9704981,44.7906382,0 -107.9704981,44.7908973,0 -107.9703813,44.7911565,0 -107.9698408,44.7919961,0 -107.9696144,44.7922812,0 -107.9690594,44.7929394,0 -107.9688916,44.7932292,0 -107.9687794,44.7935741,0 -107.9687121,44.7941606,0 -107.9686448,44.7943543,0 -107.9684467,44.7946377,0 -107.9681254,44.7949124,0 -107.9677737,44.7951191,0 -107.9673743,44.7952765,0 -107.9669158,44.7953552,0 -107.9666495,44.7953657,0 -107.9659489,44.7953422,0 -107.9653005,44.7952885,0 -107.9648662,44.7952541,0 -107.9644816,44.7952373,0 -107.9640733,44.7952499,0 -107.9619965,44.7954094,0 -107.961677,44.7954682,0 -107.9613042,44.7955732,0 -107.9609966,44.7957159,0 -107.960754,44.7958755,0 -107.9606001,44.7960392,0 -107.9604877,44.7961988,0 -107.960399,44.7964087,0 -107.9603102,44.7966858,0 -107.9602925,44.7969377,0 -107.9603339,44.7971645,0 -107.9605173,44.7974122,0 -107.9609847,44.7978488,0 -107.9614107,44.7980546,0 -107.9621918,44.7983443,0 -107.9623929,44.7984996,0 -107.9625704,44.7987011,0 -107.9626355,44.7989111,0 -107.9625645,44.7991378,0 -107.9623988,44.7993351,0 -107.9621622,44.7994485,0 -107.9618427,44.7995114,0 -107.961464,44.7994821,0 -107.961109,44.7993561,0 -107.9597841,44.7987665,0 -107.959572,44.798702,0 -107.9593562,44.7986885,0 -107.9590646,44.798702,0 -107.9587768,44.7987503,0 -107.9565019,44.7992582,0 -107.9561564,44.7992884,0 -107.9559055,44.7992548,0 -107.9557019,44.7991977,0 -107.955541,44.7990567,0 -107.9554985,44.7988908,0 -107.9555334,44.7986445,0 -107.9557898,44.7983448,0 -107.9562887,44.7979908,0 -107.9565301,44.797749,0 -107.9566059,44.7975374,0 -107.9566106,44.7974299,0 -107.956568,44.7972048,0 -107.9563929,44.7969462,0 -107.9561846,44.7967614,0 -107.956,44.7966372,0 -107.9557113,44.7965095,0 -107.9553515,44.7964289,0 -107.9549918,44.796402,0 -107.9546178,44.7964188,0 -107.952999,44.796654,0 -107.9512393,44.7971746,0 -107.9508352,44.7972784,0 -107.9505133,44.7973375,0 -107.9502141,44.7973456,0 -107.9499566,44.7973026,0 -107.9498014,44.7971951,0 -107.9496537,44.7970849,0 -107.9495477,44.7969291,0 -107.9495022,44.7967275,0 -107.9495401,44.7965152,0 -107.9496122,44.7963399,0 -107.9499554,44.7957353,0 -107.9501176,44.7952864,0 -107.9502037,44.7950883,0 -107.9502342,44.794893,0 -107.950219,44.794703,0 -107.9501864,44.7945904,0 -107.9501157,44.7944792,0 -107.9499264,44.7942946,0 -107.9497888,44.7942078,0 -107.9495747,44.7941223,0 -107.949242,44.7940654,0 -107.9489246,44.7940789,0 -107.9486436,44.7941535,0 -107.9483702,44.7943028,0 -107.9481656,44.7945022,0 -107.9477164,44.7951304,0 -107.9475233,44.7953244,0 -107.9472441,44.7955048,0 -107.9468446,44.7956134,0 -107.9463083,44.7956902,0 -107.9455534,44.795783,0 -107.9452277,44.7958448,0 -107.9447797,44.7958922,0 -107.9444543,44.7958922,0 -107.943975,44.795846,0 -107.9428804,44.7956276,0 -107.9425194,44.7955059,0 -107.9423538,44.7953463,0 -107.9422946,44.7952078,0 -107.9422501,44.7950386,0 -107.9422274,44.7942567,0 -107.9422009,44.7940578,0 -107.942163,44.7938751,0 -107.9420721,44.7936789,0 -107.9419623,44.7935096,0 -107.9418336,44.7933779,0 -107.9415344,44.7932247,0 -107.941133,44.7931065,0 -107.9404628,44.7930151,0 -107.9399553,44.7929157,0 -107.9395804,44.792784,0 -107.9392661,44.7925878,0 -107.9376132,44.7912809,0 -107.9373389,44.791114,0 -107.9370472,44.7909812,0 -107.9367859,44.7908823,0 -107.9363461,44.790771,0 -107.9344608,44.790496,0 -107.9342257,44.7904497,0 -107.933677,44.7903415,0 -107.9325085,44.7901486,0 -107.931992,44.7900634,0 -107.9315827,44.7900449,0 -107.9313171,44.7900603,0 -107.931034,44.7900912,0 -107.9306247,44.790187,0 -107.9301719,44.7903322,0 -107.9297408,44.7905486,0 -107.9293533,44.7908452,0 -107.9289702,44.7912562,0 -107.9287307,44.7916394,0 -107.9277815,44.7938765,0 -107.9276378,44.7941083,0 -107.9273896,44.7943616,0 -107.9271943,44.7945303,0 -107.9268042,44.7947815,0 -107.9251546,44.7956979,0 -107.9249114,44.79583,0 -107.9245993,44.7959486,0 -107.9242482,44.7960277,0 -107.924028,44.7960614,0 -107.9236769,44.7960416,0 -107.9233509,44.7959803,0 -107.922983,44.7958537,0 -107.9227545,44.795741,0 -107.9226124,44.7956421,0 -107.9224591,44.79548,0 -107.9223003,44.7952644,0 -107.9221916,44.795037,0 -107.9221749,44.7948037,0 -107.9222223,44.7945169,0 -107.9223505,44.7941867,0 -107.9226411,44.7934593,0 -107.9226759,44.7932986,0 -107.9227152,44.7930757,0 -107.9227018,44.7928163,0 -107.9226372,44.7925615,0 -107.9224887,44.7923065,0 -107.922271,44.7920322,0 -107.9220206,44.7918391,0 -107.9217247,44.7916666,0 -107.9213958,44.7915341,0 -107.921067,44.791455,0 -107.9207605,44.7914115,0 -107.9203815,44.7914016,0 -107.919969,44.7914445,0 -107.9195009,44.7915333,0 -107.9155038,44.7925829,0 -107.9144316,44.7928804,0 -107.9140778,44.7930233,0 -107.913675,44.7931894,0 -107.9132723,44.7934288,0 -107.9128586,44.7937185,0 -107.9124613,44.79407,0 -107.9108431,44.7957763,0 -107.9105625,44.7960721,0 -107.9091902,44.797519,0 -107.9087004,44.7979593,0 -107.9081616,44.7984189,0 -107.9075574,44.798809,0 -107.9068226,44.7992338,0 -107.9060008,44.7995891,0 -107.9054239,44.7998401,0 -107.8984898,44.802765,0 -107.8951906,44.8041473,0 -107.8884552,44.8070013,0 -107.8877154,44.8072366,0 -107.8870435,44.8074116,0 -107.8861506,44.8076167,0 -107.884943,44.807846,0 -107.8842837,44.8079247,0 -107.8836658,44.807956,0 -107.8832169,44.8079788,0 -107.8822971,44.8079788,0 -107.8814045,44.807944,0 -107.881229,44.8079299,0 -107.8809251,44.8079054,0 -107.8801472,44.8078166,0 -107.8793744,44.8077007,0 -107.8783457,44.807442,0 -107.8774857,44.8072346,0 -107.8767155,44.8070481,0 -107.8752953,44.8066982,0 -107.8746932,44.8066049,0 -107.8745554,44.8065836,0 -107.8738155,44.8065232,0 -107.8730927,44.8065232,0 -107.8724804,44.8065836,0 -107.8720296,44.8066741,0 -107.8712988,44.8068517,0 -107.8695009,44.8074213,0 -107.8689121,44.8075762,0 -107.8683549,44.8077228,0 -107.8678498,44.8078019,0 -107.8675676,44.8078349,0 -107.8670545,44.8078836,0 -107.8663519,44.8078835,0 -107.865561,44.8078933,0 -107.8621447,44.8079223,0 -107.8611811,44.8079969,0 -107.859751,44.8081265,0 -107.8582904,44.8083242,0 -107.8558026,44.8086847,0 -107.8527075,44.8091321,0 -107.8498752,44.8095299,0 -107.848462,44.809708,0 -107.8472531,44.8097536,0 -107.8459975,44.8097453,0 -107.8446135,44.80965,0 -107.8445251,44.809637,0 -107.8434105,44.8094719,0 -107.8425579,44.8093144,0 -107.8418337,44.8091612,0 -107.8409227,44.808896,0 -107.8395328,44.8083988,0 -107.8388262,44.8080922,0 -107.8379327,44.8076655,0 -107.8364027,44.8069363,0 -107.834277,44.8059087,0 -107.8321467,44.8048876,0 -107.8304375,44.8040655,0 -107.8280064,44.802916,0 -107.8263671,44.8020393,0 -107.824692,44.801119,0 -107.81135,44.793888,0 -107.80968,44.792939,0 -107.80838,44.791994,0 -107.807379,44.791076,0 -107.8039173,44.7875953,0 -107.7998084,44.7834416,0 -107.7968277,44.7804495,0 -107.795526,44.779126,0 -107.794601,44.778037,0 -107.794166,44.777054,0 -107.793426,44.774983,0 -107.7923242,44.772106,0 -107.7921948,44.7717559,0 -107.7920709,44.7715066,0 -107.7918421,44.7711647,0 -107.7909835,44.7701904,0 -107.787356,44.765954,0 -107.786719,44.765284,0 -107.782734,44.761403,0 -107.78196,44.760679,0 -107.781615,44.760426,0 -107.781241,44.760204,0 -107.780653,44.759915,0 -107.7785946,44.7590742,0 -107.7783055,44.7589833,0 -107.7780047,44.7589236,0 -107.7777207,44.7588997,0 -107.7773668,44.7589071,0 -107.7771543,44.758938,0 -107.774612,44.759948,0 -107.773965,44.760155,0 -107.77341,44.76024,0 -107.772784,44.760246,0 -107.77172,44.760004,0 -107.768328,44.759083,0 -107.767532,44.759034,0 -107.766969,44.759166,0 -107.766787,44.75923,0 -107.765651,44.759712,0 -107.764382,44.760174,0 -107.763699,44.760359,0 -107.762518,44.760625,0 -107.761125,44.761031,0 -107.760446,44.761289,0 -107.756146,44.763073,0 -107.755465,44.763315,0 -107.755228,44.763378,0 -107.7551066,44.7633915,0 -107.754227,44.763488,0 -107.753177,44.763468,0 -107.752084,44.763399,0 -107.751803,44.763369,0 -107.751229,44.763293,0 -107.749781,44.763065,0 -107.74778,44.762666,0 -107.747233,44.762506,0 -107.746687,44.762324,0 -107.7461444,44.7621196,0 -107.744643,44.761374,0 -107.742288,44.759998,0 -107.741418,44.7595,0 -107.740755,44.759142,0 -107.739583,44.758643,0 -107.73859,44.758381,0 -107.738076,44.758294,0 -107.737559,44.758235,0 -107.736486,44.758223,0 -107.734869,44.758357,0 -107.732421,44.758601,0 -107.731862,44.758621,0 -107.730998,44.758591,0 -107.730415,44.758519,0 -107.729838,44.758403,0 -107.729002,44.758178,0 -107.726547,44.757457,0 -107.724508,44.756808,0 -107.72389,44.75664,0 -107.722838,44.75651,0 -107.721911,44.756503,0 -107.719867,44.756586,0 -107.71826,44.756567,0 -107.717985,44.756538,0 -107.71716,44.756398,0 -107.716882,44.756337,0 -107.715823,44.756015,0 -107.715086,44.755702,0 -107.714621,44.755468,0 -107.712055,44.753889,0 -107.710829,44.75309,0 -107.708809,44.751619,0 -107.708046,44.751083,0 -107.707205,44.750585,0 -107.706098,44.75001,0 -107.704926,44.749491,0 -107.704196,44.74921,0 -107.70225,44.748516,0 -107.701506,44.748325,0 -107.700997,44.748223,0 -107.699695,44.748081,0 -107.699166,44.748075,0 -107.698122,44.748145,0 -107.696843,44.748333,0 -107.695828,44.748444,0 -107.695572,44.748462,0 -107.694556,44.74847,0 -107.693222,44.748328,0 -107.692671,44.748212,0 -107.691848,44.747971,0 -107.6915322,44.7478562,0 -107.6908294,44.7475953,0 -107.689424,44.747077,0 -107.688162,44.746513,0 -107.687014,44.745823,0 -107.685824,44.744839,0 -107.684978,44.743937,0 -107.683686,44.742766,0 -107.682241,44.741688,0 -107.680326,44.7403,0 -107.679457,44.739783,0 -107.67923,44.739671,0 -107.678524,44.739354,0 -107.677484,44.738973,0 -107.675484,44.738365,0 -107.670668,44.736962,0 -107.66747,44.735989,0 -107.666627,44.735786,0 -107.665179,44.735589,0 -107.663681,44.735588,0 -107.662162,44.735814,0 -107.654384,44.737587,0 -107.653078,44.737822,0 -107.651559,44.738056,0 -107.651002,44.738185,0 -107.649692,44.738598,0 -107.6480747,44.7390278,0 -107.647837,44.739091,0 -107.6474256,44.7391861,0 -107.646487,44.739403,0 -107.645967,44.739562,0 -107.645461,44.739739,0 -107.644771,44.740022,0 -107.643946,44.740465,0 -107.642991,44.741053,0 -107.642267,44.74155,0 -107.64115,44.742408,0 -107.640784,44.742719,0 -107.639401,44.744059,0 -107.636359,44.74713,0 -107.636001,44.747513,0 -107.635015,44.748719,0 -107.634878,44.748925,0 -107.634183,44.750225,0 -107.633489,44.751582,0 -107.6326,44.753121,0 -107.631816,44.753907,0 -107.6311558,44.7543626,0 -107.63109,44.754408,0 -107.629974,44.754976,0 -107.628394,44.755538,0 -107.626743,44.75608,0 -107.6229526,44.7573714,0 -107.6225933,44.7574887,0 -107.6223133,44.7575712,0 -107.621237,44.757867,0 -107.62055,44.758032,0 -107.618822,44.758376,0 -107.6169961,44.7587011,0 -107.610756,44.759812,0 -107.608278,44.760164,0 -107.607557,44.760219,0 -107.606115,44.760292,0 -107.6023262,44.7603233,0 -107.599612,44.7603458,0 -107.599252,44.760351,0 -107.595641,44.760429,0 -107.5947814,44.76048,0 -107.591994,44.760695,0 -107.590196,44.760947,0 -107.588458,44.761342,0 -107.586788,44.761878,0 -107.582828,44.763248,0 -107.580776,44.763848,0 -107.579712,44.764077,0 -107.576509,44.764675,0 -107.5756587,44.7648214,0 -107.5717276,44.7655435,0 -107.56941,44.765953,0 -107.567943,44.766045,0 -107.566483,44.765925,0 -107.5656336,44.765784,0 -107.5647622,44.7656394,0 -107.563602,44.76547,0 -107.560715,44.765075,0 -107.558897,44.765014,0 -107.553766,44.76504,0 -107.551944,44.7650486,0 -107.545716,44.765107,0 -107.5433157,44.7650917,0 -107.542393,44.765081,0 -107.5376495,44.7648553,0 -107.536944,44.764818,0 -107.5368388,44.7648155,0 -107.535526,44.764834,0 -107.535169,44.76486,0 -107.533754,44.765069,0 -107.53238,44.765476,0 -107.531397,44.765856,0 -107.5302588,44.7663543,0 -107.5292366,44.7668018,0 -107.52817,44.7672318,0 -107.5266066,44.7678621,0 -107.5245744,44.768669,0 -107.523118,44.769258,0 -107.5223647,44.7695684,0 -107.5217607,44.7698238,0 -107.5198942,44.7706386,0 -107.5193136,44.7709814,0 -107.5188998,44.7712711,0 -107.5185319,44.7715894,0 -107.5180836,44.7720015,0 -107.5176352,44.7723647,0 -107.5164454,44.7731563,0 -107.5151636,44.7739031,0 
			</coordinates>
		</LineString>
		<atom:link rel="app" href="https://www.google.com/earth/about/versions/#earth-pro" title="Google Earth Pro 7.3.6.10201"></atom:link>
	</Placemark>
</Document>
</kml>
