<?xml version="1.0" encoding="UTF-8"?>
<kml xmlns="http://www.opengis.net/kml/2.2" xmlns:gx="http://www.google.com/kml/ext/2.2" xmlns:kml="http://www.opengis.net/kml/2.2" xmlns:atom="http://www.w3.org/2005/Atom">
<Document>
	<name>US.11W.kml</name>
	<Placemark>
		<name>US.11W</name>
			<LineString>
				<coordinates>
					-83.8763221,36.0004671,0 -83.8758457,36.001182,0 -83.8755292,36.0017375,0 -83.8753629,36.0021541,0 -83.8750711,36.0031355,0 -83.8745969,36.0047248,0 -83.87457809999999,36.0047899,0 -83.87453050000001,36.0049268,0 -83.8743551,36.0055307,0 -83.8742464,36.0059323,0 -83.8741813,36.0061729,0 -83.8739664,36.0069845,0 -83.8738376,36.0075225000001,0 -83.8737568,36.0077563,0 -83.8736499,36.008109,0 -83.8735025,36.0083851,0 -83.8734326,36.0084925,0 -83.8732413,36.0087217,0 -83.8730889,36.0088631,0 -83.8727548,36.0091189,0 -83.8722399,36.0094617,0 -83.8720896,36.009562,0 -83.87194049999999,36.0096606,0 -83.8717917,36.0097317,0 -83.87152879999999,36.0099239,0 -83.87113069999999,36.010215,0 -83.8703709,36.0107705,0 -83.87011270000001,36.0109593,0 -83.8695062,36.0114027,0 -83.8677143,36.0127102,0 -83.8675148,36.0128585,0 -83.8672699,36.0130337,0 -83.8664644,36.01361,0 -83.86398320000001,36.0154011,0 -83.863866,36.0154857,0 -83.8638232,36.0155166,0 -83.86268560000001,36.0163368,0 -83.86223630000001,36.0166493,0 -83.8617952,36.016929,0 -83.8612871,36.0171931,0 -83.8610953,36.0172774,0 -83.8606715,36.0174634999999,0 -83.859431,36.0179508,0 -83.8589916,36.018131,0 -83.8584441,36.0183555,0 -83.8575049,36.0187401,0 -83.8573092,36.0188202,0 -83.8568781,36.0189967,0 -83.8565325,36.0191382,0 -83.8560117,36.0193515,0 -83.85540229999999,36.019601,0 -83.8541168,36.0201274,0 -83.8525477,36.0207698,0 -83.85201499999999,36.0210477,0 -83.85160740000001,36.0213376,0 -83.8512669,36.0216695,0 -83.8509947,36.0220282,0 -83.85088810000001,36.0222143,0 -83.850764,36.0224628,0 -83.8506294,36.0230073,0 -83.85060439999999,36.0231527,0 -83.8505383,36.0238198000001,0 -83.85049840000001,36.0241511,0 -83.8504932,36.0241862,0 -83.8504466,36.0245244,0 -83.8503498,36.0246594,0 -83.8502979,36.0249146,0 -83.850263,36.0250611,0 -83.85015420000001,36.0254895,0 -83.8501309,36.0255642,0 -83.8500552,36.0258075999999,0 -83.8499896,36.026022,0 -83.8499137,36.0262297,0 -83.8498594,36.0263718,0 -83.84976140000001,36.0266246,0 -83.8496447,36.0269223,0 -83.8496011,36.0270133,0 -83.8495566,36.0271043,0 -83.84935419999999,36.0275045000001,0 -83.84886179999999,36.0284238,0 -83.84880870000001,36.0285101,0 -83.8485407,36.0289459,0 -83.8481773,36.0294962,0 -83.847521,36.0303396,0 -83.8467576,36.0311645,0 -83.84566649999999,36.0321746,0 -83.84561669999999,36.0322137,0 -83.844684,36.0329466,0 -83.8438235,36.0335034,0 -83.84368859999999,36.0335908,0 -83.8429754,36.0340060000001,0 -83.8420184,36.0344771,0 -83.84135240000001,36.0347842,0 -83.8403335,36.0352171,0 -83.83913560000001,36.0357073,0 -83.8383886,36.0360254,0 -83.8375789,36.0363719,0 -83.8368428,36.0366845,0 -83.8346207,36.0376297,0 -83.8336661,36.0380707,0 -83.83242920000001,36.038677,0 -83.8307676,36.0396137,0 -83.83051930000001,36.0397622999999,0 -83.8294576,36.0403976,0 -83.82898179999999,36.0407105,0 -83.8282445,36.0411718,0 -83.8279386,36.0413508,0 -83.8275285,36.0416271,0 -83.8267161,36.0421299999999,0 -83.8261049,36.0425113,0 -83.8252567,36.0429964,0 -83.8243858,36.0434339,0 -83.82384860000001,36.0436826,0 -83.8229707,36.0440435,0 -83.8220773,36.0443788,0 -83.8209521,36.0447605,0 -83.8205226,36.0449087,0 -83.819895,36.0451253,0 -83.81887469999999,36.0454861,0 -83.8179657,36.0458151,0 -83.8171423,36.0460689,0 -83.81620479999999,36.0463141,0 -83.8157346,36.0464178,0 -83.81518800000001,36.0465037,0 -83.8144877,36.0465976,0 -83.8137559,36.0466841,0 -83.81112899999999,36.0469634,0 -83.8089705,36.0472034,0 -83.8087665,36.0472261,0 -83.8084506,36.0472801,0 -83.80738409999999,36.0474825,0 -83.80702890000001,36.0475734,0 -83.8062766,36.0477772,0 -83.80594259999999,36.0478887,0 -83.8057494,36.047954,0 -83.8053681,36.048092,0 -83.8049833,36.0482413,0 -83.80435540000001,36.0485212,0 -83.8035402,36.0489289,0 -83.8032838,36.049081,0 -83.80284349999999,36.0493453,0 -83.8024678,36.0495691,0 -83.8016228,36.0500901,0 -83.7986731,36.0518868,0 -83.7981013,36.0522472,0 -83.79713460000001,36.0528195,0 -83.7958895,36.0536895,0 -83.79211669999999,36.056382,0 -83.7914269,36.0568874,0 -83.79132009999999,36.0569657,0 -83.78835890000001,36.0591213,0 -83.7866509,36.0603364,0 -83.78646929999999,36.0604656000001,0 -83.7852804,36.0613148,0 -83.7847664,36.061682,0 -83.7841117,36.062161,0 -83.783885,36.0623327,0 -83.7835068,36.0626192,0 -83.7831106,36.0629025,0 -83.7820021,36.0636991,0 -83.7816052,36.063979,0 -83.78048939999999,36.0647669,0 -83.77938210000001,36.0655731,0 -83.7782553,36.0665104,0 -83.7781896,36.0665662000001,0 -83.7769764,36.0676376,0 -83.77622239999999,36.0683586,0 -83.7758613,36.0687263,0 -83.77525489999999,36.0693569,0 -83.7747579,36.0699045,0 -83.7742336,36.0705079,0 -83.77342160000001,36.0714993,0 -83.77303499999999,36.0719793,0 -83.7725652,36.0725625,0 -83.7723031,36.0729123,0 -83.7719621,36.0733402,0 -83.7715369,36.0738737,0 -83.7708877,36.0746882,0 -83.770616,36.0750201,0 -83.77030449999999,36.0754006,0 -83.7701215,36.0756199,0 -83.7697192,36.0761154,0 -83.7687384,36.0773391,0 -83.7678047,36.078502,0 -83.7677724,36.0785423,0 -83.7665138,36.0801044,0 -83.7650596,36.0819177,0 -83.76430310000001,36.0828377,0 -83.7635203,36.0837242,0 -83.7626994,36.0845922,0 -83.7618214,36.0854437,0 -83.7597876,36.0873699,0 -83.75809460000001,36.089022,0 -83.75739059999999,36.0896646,0 -83.756961,36.0900736,0 -83.75581750000001,36.091162,0 -83.75362010000001,36.093282,0 -83.7524105,36.094457,0 -83.75138010000001,36.0954245,0 -83.75122589999999,36.0955716,0 -83.7495756,36.097146,0 -83.7476364,36.0989967,0 -83.7458719,36.1006887,0 -83.74411809999999,36.1023836,0 -83.7421319,36.1042906,0 -83.7400375,36.106264,0 -83.7379224,36.1082918,0 -83.7377946,36.1084195,0 -83.737279,36.1089128,0 -83.7370533,36.1091363,0 -83.7368136,36.1093806,0 -83.7365071,36.109703,0 -83.7363062,36.1099231,0 -83.73603110000001,36.110226,0 -83.7357856,36.1104922,0 -83.73540199999999,36.1109254,0 -83.73378200000001,36.112755,0 -83.7333059,36.1132532,0 -83.7324825,36.1140494,0 -83.73189000000001,36.1146069,0 -83.731537,36.1149615,0 -83.7308099,36.1157201,0 -83.7305399,36.1159801,0 -83.7300012,36.1164991,0 -83.72882850000001,36.1177716,0 -83.7281588,36.1184984,0 -83.7275877,36.1191256,0 -83.72668779999999,36.1201139,0 -83.72657890000001,36.1202357,0 -83.724721,36.1222717,0 -83.7242334,36.122769,0 -83.72373140000001,36.1232913,0 -83.7229648,36.1241447,0 -83.7221933,36.1249667,0 -83.72189539999999,36.1252934,0 -83.7209203,36.126369,0 -83.7203387,36.1271595,0 -83.7198108,36.1279616000001,0 -83.7192663,36.1288945,0 -83.7183441,36.1306716,0 -83.7181452,36.1310549,0 -83.7175064,36.1322714,0 -83.71733999999999,36.1326101,0 -83.71697949999999,36.1333557,0 -83.71641339999999,36.1344635,0 -83.7163863,36.134522,0 -83.7160753,36.1352077,0 -83.7160382,36.1352995,0 -83.71583630000001,36.1358478,0 -83.71577000000001,36.1360386999999,0 -83.7157289,36.1361414,0 -83.7156114,36.1364644,0 -83.7156375,36.1365757,0 -83.71559790000001,36.1366679,0 -83.7154194,36.1372951,0 -83.7153201,36.1375825,0 -83.7152603,36.1377968,0 -83.71512319999999,36.1382157,0 -83.7149423,36.1388692,0 -83.7148354,36.1392552,0 -83.714735,36.1396237,0 -83.7146592,36.1399018,0 -83.71455469999999,36.1402402,0 -83.7143422,36.1409283,0 -83.71416720000001,36.1415593,0 -83.7138801,36.1424849,0 -83.71360749999999,36.1431016,0 -83.7134645,36.1434146,0 -83.7133345,36.1436313,0 -83.71310750000001,36.1440096,0 -83.71207149999999,36.1453163,0 -83.71072119999999,36.1468723,0 -83.7102323,36.1474617,0 -83.7100128,36.1477272,0 -83.70946790000001,36.1483613,0 -83.7090901,36.1488111,0 -83.7086831,36.1493041,0 -83.7084535,36.1495376,0 -83.7081325,36.1499186,0 -83.7079365,36.1501516,0 -83.70751250000001,36.1506566,0 -83.7074315,36.1507526,0 -83.7072335,36.1509876,0 -83.7067565,36.1515536,0 -83.7057215,36.1528389,0 -83.705045,36.1536667,0 -83.7046328,36.1541285,0 -83.704514,36.1542596,0 -83.70326319999999,36.1557417,0 -83.70287829999999,36.1562139,0 -83.70244630000001,36.1567225,0 -83.7011019,36.1583505,0 -83.700515,36.1590613,0 -83.6999294,36.1597533,0 -83.6996194,36.1601196,0 -83.69883780000001,36.16106,0 -83.6980746,36.1619782,0 -83.697885,36.162206,0 -83.6975664,36.1625772,0 -83.695673,36.164881,0 -83.69538799999999,36.16522,0 -83.695064,36.165607,0 -83.6935477,36.1673815,0 -83.69111100000001,36.1695954,0 -83.6901622,36.1704632,0 -83.6900668,36.1705486,0 -83.6860295,36.174163,0 -83.6852143,36.1748798,0 -83.6850055,36.1750634,0 -83.6841991,36.1758461,0 -83.6838499,36.1762043,0 -83.6830757,36.177196,0 -83.68279800000001,36.1776199,0 -83.68228430000001,36.1785676,0 -83.6820773,36.1789272,0 -83.6802548,36.1822275000001,0 -83.6801789,36.1823585,0 -83.679524,36.183488,0 -83.6787502,36.1849177,0 -83.6781251,36.1861653000001,0 -83.6774114,36.1879233,0 -83.67697149999999,36.1890696,0 -83.6765501,36.1900651,0 -83.6761013,36.1909223,0 -83.6755041,36.1919023,0 -83.675213,36.1923313,0 -83.6748722,36.1928336,0 -83.6736413,36.1945863,0 -83.67320789999999,36.1950942,0 -83.67278930000001,36.1954981,0 -83.67228679999999,36.1959948,0 -83.67204719999999,36.1962198,0 -83.66975050000001,36.1983765,0 -83.6693148,36.1987871,0 -83.6692178,36.1988785,0 -83.66690970000001,36.2010535,0 -83.66622510000001,36.2016802,0 -83.665526,36.2022303,0 -83.664328,36.202908,0 -83.66391280000001,36.2031196,0 -83.663258,36.2034466,0 -83.6613686,36.2044113,0 -83.66087,36.2046568,0 -83.6599552,36.2051246,0 -83.658008,36.2061092,0 -83.657781,36.2062312,0 -83.6568231,36.206746,0 -83.65576849999999,36.2073373,0 -83.6547465,36.2080367,0 -83.6540198,36.2086366,0 -83.653819,36.208811,0 -83.6533421,36.2092322,0 -83.65145560000001,36.2109258,0 -83.6507338,36.2115785,0 -83.6500092,36.2121844,0 -83.6497146,36.2123873,0 -83.64928639999999,36.2126668000001,0 -83.6488695,36.2129084,0 -83.6482232,36.2132341,0 -83.6475354,36.2135513,0 -83.64537730000001,36.2145221,0 -83.64478560000001,36.2148338000001,0 -83.6442064,36.2151775,0 -83.6436544,36.2155487,0 -83.6430792,36.2159631,0 -83.64250749999999,36.2164715,0 -83.6419199,36.217123,0 -83.6407753,36.2183649,0 -83.6401527,36.2190328,0 -83.6396297,36.2196369,0 -83.6386289,36.2207212,0 -83.6375376,36.2219141,0 -83.6371326,36.2223645,0 -83.636245,36.2233515,0 -83.63544640000001,36.2241109,0 -83.63484630000001,36.224617,0 -83.6343141,36.2250552,0 -83.63339499999999,36.2257216,0 -83.6323515,36.2263997,0 -83.6316633,36.2268146,0 -83.6314035,36.2269712,0 -83.6310752,36.2271631,0 -83.63095149999999,36.2272354,0 -83.6301088,36.2277568,0 -83.62940829999999,36.2281824,0 -83.6285785,36.2286847,0 -83.6265045,36.2299589,0 -83.6248326,36.2309817,0 -83.6244289,36.2312403,0 -83.6236693,36.2316856,0 -83.62337890000001,36.2318596,0 -83.6225424,36.2323797,0 -83.6219301,36.2327603,0 -83.6197485,36.2340942,0 -83.6193012,36.2343877,0 -83.6175432,36.2355625,0 -83.6171569,36.235825,0 -83.6148031,36.2374436,0 -83.6122428,36.2392131,0 -83.61091879999999,36.2401335,0 -83.609559,36.2410149,0 -83.60801650000001,36.2419689,0 -83.6070701,36.2425199,0 -83.6059181,36.2431484,0 -83.6047275,36.243798,0 -83.6044242,36.243963,0 -83.6042422,36.2440485,0 -83.6016559,36.2453586,0 -83.59947390000001,36.2465298,0 -83.5984595,36.2470771,0 -83.5960149,36.2483542,0 -83.59581609999999,36.2484567,0 -83.59565689999999,36.2485388,0 -83.5944167,36.2491782,0 -83.5943692,36.2492036,0 -83.5937873,36.2495155000001,0 -83.59326369999999,36.2497961,0 -83.5926142,36.2501139,0 -83.5915925,36.2505788,0 -83.59037379999999,36.2510614,0 -83.5860098,36.2525856,0 -83.5840103,36.2533036,0 -83.583549,36.2534661,0 -83.5815875,36.2541569,0 -83.5809599,36.2543922,0 -83.5802812,36.2547041,0 -83.57971929999999,36.2550101,0 -83.5781138,36.2559458,0 -83.57666159999999,36.2567991,0 -83.5758634,36.2572769,0 -83.575385,36.2575633,0 -83.5745307,36.2580701,0 -83.57260460000001,36.2593649,0 -83.57140010000001,36.2601827,0 -83.5701084,36.2611124,0 -83.5698165,36.2612948,0 -83.56950999999999,36.2614537,0 -83.5693014,36.261553,0 -83.568252,36.2619926,0 -83.5675758,36.2622306,0 -83.5647869,36.2631489,0 -83.56344799999999,36.2635898,0 -83.5627941,36.2638273,0 -83.5622035,36.2640418,0 -83.562082,36.2640877,0 -83.558751,36.265346,0 -83.55707409999999,36.2659048,0 -83.5539198,36.2670723,0 -83.5521865,36.2676938,0 -83.5501766,36.2684218,0 -83.5500866,36.2684602,0 -83.54994739999999,36.2684933,0 -83.5487923,36.2689432,0 -83.5475125,36.2694049,0 -83.5460808,36.2699361,0 -83.5453443,36.2701975,0 -83.5433281,36.2710241999999,0 -83.54289110000001,36.2712433,0 -83.5424024,36.2714882,0 -83.541374,36.271957,0 -83.54113719999999,36.2720793,0 -83.53851969999999,36.2733656,0 -83.5379859,36.2736027,0 -83.5377976,36.2736998,0 -83.5373939,36.2739009,0 -83.5357216,36.2746889,0 -83.53423170000001,36.2754067,0 -83.5336882,36.2756772,0 -83.53329309999999,36.2758738,0 -83.532419,36.2762783,0 -83.5322977,36.2763344,0 -83.53026269999999,36.27724,0 -83.5285489,36.2778359,0 -83.5284691,36.2778637,0 -83.5261431,36.2786027,0 -83.5246341,36.2790702,0 -83.5230139,36.2794875,0 -83.52220389999999,36.2796533,0 -83.5207652,36.2799037,0 -83.5202263,36.2799894,0 -83.51935020000001,36.2801039,0 -83.51702880000001,36.2804087,0 -83.51613930000001,36.2805333,0 -83.5149176,36.2807059,0 -83.5140571,36.2808321,0 -83.5134101,36.2809173,0 -83.5122334,36.2810829,0 -83.51221080000001,36.2810861,0 -83.5117309,36.2811605,0 -83.5106385,36.2814627,0 -83.5103783,36.281545,0 -83.5098443,36.2817653999999,0 -83.5085851,36.2823649,0 -83.5083442,36.2824877,0 -83.5079906,36.2826679,0 -83.5074915,36.2829224,0 -83.5071161,36.283113,0 -83.5063,36.2835262,0 -83.50528559999999,36.2840348,0 -83.504678,36.284368,0 -83.50293689999999,36.2852076,0 -83.502931,36.2852107,0 -83.5021203,36.2856345,0 -83.50098,36.2861756,0 -83.4998537,36.286761,0 -83.4973358,36.2880119,0 -83.4965471,36.2884067,0 -83.49597110000001,36.2886950000001,0 -83.4950498,36.2891561,0 -83.4948492,36.2892575,0 -83.493719,36.289829,0 -83.49049309999999,36.291455,0 -83.4884977,36.2924492,0 -83.4881694,36.2926102,0 -83.48657129999999,36.2933942,0 -83.48528810000001,36.2940425,0 -83.4842003,36.2945921,0 -83.48361439999999,36.2948676,0 -83.4834723,36.2949422,0 -83.48261170000001,36.2953936,0 -83.4825637,36.2954176,0 -83.4816716,36.2958637999999,0 -83.47969980000001,36.2968162,0 -83.4792763,36.2970208,0 -83.4782592,36.2974701,0 -83.47724340000001,36.2979233,0 -83.475921,36.2984826,0 -83.475239,36.2987739,0 -83.4733786,36.2994756,0 -83.4717704,36.3000611,0 -83.4697838,36.3007405,0 -83.46864290000001,36.3010918,0 -83.4679306,36.3013299,0 -83.4643724,36.3023119,0 -83.4627084,36.3027405,0 -83.46156449999999,36.3030292,0 -83.4597364,36.303406,0 -83.45909,36.303527,0 -83.4585173,36.3036286,0 -83.4575839,36.3037918,0 -83.45707160000001,36.3038783,0 -83.4561422,36.3040501,0 -83.4552303,36.3041939,0 -83.45463890000001,36.3042911,0 -83.45403810000001,36.3043906,0 -83.4535486,36.3044608,0 -83.452398,36.3045757,0 -83.4513994,36.3047045,0 -83.4504005,36.3048104,0 -83.4464124,36.3052896,0 -83.4444026,36.3055195,0 -83.44425080000001,36.3055369,0 -83.4429169,36.3056991,0 -83.441063,36.305944,0 -83.43947249999999,36.306127,0 -83.43851220000001,36.3062157,0 -83.4342963,36.3067457,0 -83.43276950000001,36.3069376,0 -83.4323079,36.3069955,0 -83.4309951,36.30716,0 -83.4307534,36.307189,0 -83.4296963,36.3073157,0 -83.42861859999999,36.3074449,0 -83.4280807,36.3075155,0 -83.4277762,36.3075509,0 -83.4274893,36.3075843,0 -83.4265414,36.3076945,0 -83.4251421,36.3078639,0 -83.42466520000001,36.3079124,0 -83.42450789999999,36.3079284,0 -83.42392049999999,36.3080118,0 -83.4238055,36.3080257,0 -83.4226982,36.3082018,0 -83.4207564,36.3085106,0 -83.4203426,36.3085797,0 -83.4189107,36.3088447,0 -83.41752200000001,36.309197,0 -83.415851,36.309698,0 -83.4147289,36.3101,0 -83.41466200000001,36.310124,0 -83.413804,36.310458,0 -83.4131854,36.3107237,0 -83.41267499999999,36.310943,0 -83.4121928,36.3111666,0 -83.41207,36.3112294,0 -83.411828,36.3113529999999,0 -83.4113017,36.3116227,0 -83.4107094,36.3119262,0 -83.41061999999999,36.311972,0 -83.4093037,36.3127451,0 -83.4090137,36.3129258,0 -83.407663,36.313753,0 -83.40567660000001,36.3149619,0 -83.4051832,36.3152674,0 -83.404758,36.315521,0 -83.40384,36.316053,0 -83.40379,36.3160789,0 -83.402783,36.316601,0 -83.402653,36.316683,0 -83.401805,36.317076,0 -83.40051029999999,36.3176377999999,0 -83.3999948,36.3178416,0 -83.398844,36.318246,0 -83.398039,36.318514,0 -83.3974724,36.3187012,0 -83.3969991,36.318829,0 -83.39587419999999,36.3191604,0 -83.39254699999999,36.3201102,0 -83.3893223,36.3210422,0 -83.3880108,36.3214224,0 -83.3866652,36.3219387,0 -83.3862657,36.3220825,0 -83.385903,36.3222313,0 -83.3857077,36.3223115,0 -83.3850944,36.3225662,0 -83.3844922,36.3228463,0 -83.3837291,36.3232424,0 -83.3833411,36.323459,0 -83.38300220000001,36.3236482,0 -83.38258140000001,36.323896,0 -83.3817013,36.3244506,0 -83.381382,36.3246488,0 -83.38044789999999,36.3253392,0 -83.38000599999999,36.3256682,0 -83.3793503,36.3262159,0 -83.37928479999999,36.3262753,0 -83.37720710000001,36.3281615,0 -83.3767993,36.3284965,0 -83.3765834,36.3286512,0 -83.3763754,36.3287736,0 -83.376034,36.3290337,0 -83.37590950000001,36.3291049,0 -83.3752159,36.3295016,0 -83.374864,36.3296896,0 -83.37452999999999,36.3298432,0 -83.3741363,36.3300041,0 -83.37306479999999,36.3303906,0 -83.37234460000001,36.3305999,0 -83.3720809,36.3306659,0 -83.3716338,36.3307565,0 -83.37092680000001,36.3308669,0 -83.37012,36.3309575,0 -83.3692657,36.3309973,0 -83.36897449999999,36.3310223,0 -83.3685802,36.3310496,0 -83.367475,36.3311508,0 -83.36691740000001,36.3312555000001,0 -83.36617149999999,36.3313956,0 -83.3649628,36.3317243,0 -83.36489210000001,36.3317435,0 -83.36480109999999,36.3317698,0 -83.3639185,36.3320377,0 -83.3636458,36.3321373,0 -83.3635566,36.3321751,0 -83.3623891,36.3326389,0 -83.36189039999999,36.3328343,0 -83.3613751,36.3330422,0 -83.3610006,36.3331898,0 -83.36064279999999,36.333333,0 -83.3603579,36.3334507,0 -83.35988709999999,36.3336533,0 -83.3597741,36.3337019,0 -83.35808350000001,36.334325,0 -83.35769329999999,36.3344629,0 -83.3576149,36.3344906,0 -83.3568873,36.3347389,0 -83.3563391,36.3349063,0 -83.35603930000001,36.3349897,0 -83.3554333,36.3351582,0 -83.3539931,36.3355369,0 -83.3533645,36.3357022,0 -83.3528262,36.3358104,0 -83.3527366,36.3358303,0 -83.3523823,36.3359104,0 -83.349829,36.3365038,0 -83.3495889,36.336561,0 -83.34864829999999,36.3367704,0 -83.3478722,36.336981,0 -83.347317,36.3371322,0 -83.3468835,36.3372621,0 -83.3467139,36.3373184,0 -83.34642580000001,36.337414,0 -83.3459708,36.3375788,0 -83.3455251,36.3377491,0 -83.34479399999999,36.3380613,0 -83.3443582,36.3382538,0 -83.3442177,36.3383158,0 -83.3433768,36.338744,0 -83.3429476,36.338983,0 -83.3425775,36.3391891,0 -83.3421555,36.3394504,0 -83.3421153,36.3394753,0 -83.3407993,36.3402903,0 -83.3401992,36.3407128,0 -83.3401874,36.3407211,0 -83.3394706,36.34119,0 -83.3388552,36.3415636,0 -83.338262,36.3418776,0 -83.337631,36.3421762,0 -83.3370724,36.3424164,0 -83.3366462,36.3425704,0 -83.3361536,36.3427511,0 -83.3357455,36.3428999,0 -83.33526089999999,36.3430695,0 -83.3344671,36.3433403,0 -83.3341595,36.3434641,0 -83.3337727,36.3436631,0 -83.3335716,36.3437944,0 -83.3326062,36.3444126,0 -83.332396,36.3445617,0 -83.3322783,36.3446419,0 -83.3321574,36.3447095,0 -83.33204360000001,36.3447638,0 -83.3319229,36.3448138,0 -83.3317911,36.3448593,0 -83.331644,36.3448934,0 -83.3315374,36.3449121,0 -83.33141500000001,36.3449282,0 -83.33125560000001,36.3449493,0 -83.33097600000001,36.3449455,0 -83.33072439999999,36.3449136,0 -83.3304424,36.3448479,0 -83.3294009,36.3445326,0 -83.3289302,36.3444275,0 -83.3284549,36.3443769,0 -83.3279213,36.3443731,0 -83.3271082,36.3444144,0 -83.3258215,36.3445408,0 -83.3247561,36.3447455,0 -83.32365849999999,36.3449657,0 -83.3231779,36.3450603,0 -83.3225925,36.3451762,0 -83.3224214,36.3452101000001,0 -83.3223737,36.3452195,0 -83.32137419999999,36.3454052999999,0 -83.31989400000001,36.3457009,0 -83.3172816,36.346213,0 -83.3161467,36.3464351,0 -83.3146629,36.3467183,0 -83.3135795,36.346933,0 -83.31312629999999,36.3470263,0 -83.3126438,36.3471149,0 -83.3124277,36.3471527,0 -83.3122801,36.3471785,0 -83.3120129,36.3472213,0 -83.3116716,36.3472653,0 -83.31119390000001,36.3473095,0 -83.3108201,36.3473444,0 -83.3104258,36.3473665,0 -83.3100894,36.3473807,0 -83.3097449,36.347382,0 -83.30924589999999,36.3473794,0 -83.30876809999999,36.347362,0 -83.308319,36.3473218,0 -83.3078402,36.3472749,0 -83.30683260000001,36.3471469,0 -83.3047631,36.3468829000001,0 -83.3042282,36.346815,0 -83.3019496,36.3465235,0 -83.30168999999999,36.3464887,0 -83.3013662,36.3464356,0 -83.30111719999999,36.3463847,0 -83.3008456,36.346322,0 -83.30047450000001,36.3462248,0 -83.30030379999999,36.3461704,0 -83.30013529999999,36.3461167,0 -83.2997689,36.3459737,0 -83.299391,36.3457995,0 -83.2991679,36.3456876,0 -83.29901889999999,36.3456061,0 -83.2988651,36.3455226,0 -83.2986307,36.3453778,0 -83.2983756,36.3452071,0 -83.2981353,36.3450206,0 -83.2979145,36.3448496,0 -83.2975345,36.3445535,0 -83.297129,36.3442262,0 -83.2955838,36.3429842,0 -83.29500880000001,36.3425288,0 -83.2929424,36.3408643,0 -83.29247669999999,36.3404908,0 -83.2922172,36.3402813000001,0 -83.2918162,36.3399574,0 -83.2904547,36.3388728,0 -83.2901488,36.3386166,0 -83.28989869999999,36.3384784,0 -83.2893474,36.3380502,0 -83.2887759,36.3376133,0 -83.2882633,36.3372566,0 -83.2879497,36.3371139,0 -83.2876169,36.3370204,0 -83.2872029,36.3369767,0 -83.2868134,36.3369875,0 -83.2865699,36.337026,0 -83.2862416,36.3371307,0 -83.2860077,36.3372398,0 -83.2852573,36.3376529,0 -83.2848644,36.3378398,0 -83.2846739,36.3379548,0 -83.2838725,36.3384388,0 -83.28276289999999,36.339125,0 -83.282614,36.3392148999999,0 -83.2825,36.3392809,0 -83.2822864,36.3394095,0 -83.282242,36.3394366,0 -83.2820234,36.3395697,0 -83.28195479999999,36.3396114,0 -83.2813883,36.3399464,0 -83.2806195,36.3403973,0 -83.2802413,36.340618,0 -83.27948050000001,36.3410556,0 -83.27891630000001,36.3413836,0 -83.27826279999999,36.3417688,0 -83.2780405,36.3418415,0 -83.2777421,36.341995,0 -83.2775171,36.3420935,0 -83.27706619999999,36.3422675,0 -83.276511,36.3424438,0 -83.2759798,36.3425658999999,0 -83.2750018,36.3427255,0 -83.2747676,36.3427624,0 -83.2745189,36.3428016,0 -83.2739412,36.3428926999999,0 -83.2726818,36.3430918,0 -83.27198129999999,36.343202,0 -83.2707626,36.3433928,0 -83.26922190000001,36.3436341,0 -83.2687621,36.343718,0 -83.2683282,36.3437977,0 -83.2679088,36.3439545,0 -83.26758839999999,36.3440314,0 -83.2673018,36.3441084,0 -83.26694550000001,36.3442025,0 -83.2666364,36.3442913,0 -83.2662272,36.3444198,0 -83.2657847,36.3445642,0 -83.265007,36.3448342,0 -83.2646206,36.3449594,0 -83.2644818,36.3450065,0 -83.26265410000001,36.3456186,0 -83.2620381,36.3458254,0 -83.2616471,36.3459509,0 -83.2613546,36.3460354,0 -83.2610224,36.3461148,0 -83.26081569999999,36.3461558,0 -83.2605598,36.3461954,0 -83.2603156,36.3462211,0 -83.26001890000001,36.3462392,0 -83.25970409999999,36.3462446000001,0 -83.25939839999999,36.3462374,0 -83.25904989999999,36.3462121,0 -83.25870159999999,36.3461804,0 -83.25662629999999,36.3459594000001,0 -83.253057,36.3455759,0 -83.250393,36.3452907,0 -83.24765379999999,36.3450003,0 -83.24704130000001,36.3449331,0 -83.2465931,36.3448921000001,0 -83.24616930000001,36.3448643,0 -83.2458141,36.3448473,0 -83.2454978,36.3448396,0 -83.2450257,36.3448422,0 -83.2444899,36.3448588,0 -83.2440287,36.3448882,0 -83.2436479,36.3449181,0 -83.2434476,36.3449407,0 -83.24309270000001,36.3449843,0 -83.2427826,36.3450232,0 -83.2418273,36.3451431,0 -83.24022290000001,36.3453487,0 -83.23925,36.3454652,0 -83.238851,36.3455075,0 -83.2385701,36.3455341,0 -83.2383116,36.3455468,0 -83.23800919999999,36.3455559,0 -83.2378215,36.3455549,0 -83.237554,36.3455441,0 -83.23725949999999,36.3455269,0 -83.236966,36.345494,0 -83.236749,36.3454635,0 -83.23648609999999,36.3454213,0 -83.2361587,36.3453508,0 -83.2358392,36.3452702,0 -83.2355101,36.3451716,0 -83.23507979999999,36.3450306,0 -83.2316402,36.3438283,0 -83.2300065,36.3432574,0 -83.2287302,36.342812,0 -83.22797199999999,36.3425521,0 -83.2275825,36.3424317,0 -83.2272105,36.3423254,0 -83.2268179,36.3422332,0 -83.22645540000001,36.3421564,0 -83.22601830000001,36.3420834,0 -83.2256304,36.342036,0 -83.22544600000001,36.3420181,0 -83.225109,36.34199,0 -83.2245277,36.3419538,0 -83.2223743,36.3418475,0 -83.2219546,36.3418244,0 -83.2186267,36.3416577,0 -83.21520839999999,36.3414837,0 -83.2148948,36.3414728,0 -83.2146508,36.3414764,0 -83.21438670000001,36.3414846,0 -83.2141596,36.3415045,0 -83.2139562,36.3415298,0 -83.2137527,36.3415615,0 -83.21358859999999,36.3415932,0 -83.21344360000001,36.3416204,0 -83.2133469,36.341643,0 -83.2131761,36.3416883,0 -83.21299620000001,36.3417444,0 -83.2128441,36.3417973,0 -83.2126279,36.3418818,0 -83.2123879,36.3419817,0 -83.2119234,36.3421907,0 -83.2095429,36.3432877,0 -83.20920580000001,36.34344,0 -83.2087531,36.3436511,0 -83.2065297,36.3446848,0 -83.20606549999999,36.3448986,0 -83.2042958,36.3457324,0 -83.203165,36.3462883,0 -83.2023483,36.346774,0 -83.20056700000001,36.3479402,0 -83.19975289999999,36.348479,0 -83.19815989999999,36.3495324,0 -83.1961761,36.3508502,0 -83.1947444,36.3518135,0 -83.194474,36.3519739,0 -83.1935629,36.3523997,0 -83.1935039,36.3524273,0 -83.1930881,36.3525909,0 -83.1922971,36.3529022,0 -83.1915585,36.3531117,0 -83.19079840000001,36.3533165,0 -83.19001110000001,36.3535512,0 -83.1893924,36.3537359,0 -83.1882995,36.3540782,0 -83.1876043,36.3543321,0 -83.18703499999999,36.3545572,0 -83.1861287,36.354961,0 -83.1855487,36.3552368000001,0 -83.1846518,36.3557755,0 -83.1827234,36.3568732,0 -83.1825652,36.3569632,0 -83.1818095,36.3574082,0 -83.18095390000001,36.3579719,0 -83.1805801,36.3581786,0 -83.17834329999999,36.3594159,0 -83.1765676,36.360452,0 -83.1760336,36.3607636,0 -83.1751944,36.3612501,0 -83.1746043,36.3615946,0 -83.173653,36.3621493,0 -83.1725881,36.3626514,0 -83.1711858,36.363207,0 -83.169783,36.3636256,0 -83.1692688,36.3637725,0 -83.1682605,36.3639826,0 -83.1676722,36.3640745,0 -83.1670014,36.3641505,0 -83.16636680000001,36.364236,0 -83.16567430000001,36.3643293,0 -83.164874,36.3644274,0 -83.1645573,36.3644797,0 -83.16333969999999,36.3647656,0 -83.16295719999999,36.3648913,0 -83.16216850000001,36.3652016,0 -83.1598616,36.3662351,0 -83.1594083,36.366434,0 -83.1586908,36.3667691,0 -83.1578999,36.3671359,0 -83.1555255,36.3682106,0 -83.15433609999999,36.3687489,0 -83.1523567,36.3696448,0 -83.151157,36.37019,0 -83.1504068,36.3705172,0 -83.14979959999999,36.3707878,0 -83.1492403,36.371037,0 -83.1482948,36.3714927,0 -83.1470559,36.3720307,0 -83.1464031,36.372214,0 -83.1450128,36.3724562,0 -83.1442346,36.3725918,0 -83.1431556,36.3727543,0 -83.1406175,36.3731986,0 -83.13994940000001,36.3732771,0 -83.1394019,36.3734041,0 -83.1392381,36.3734489,0 -83.13851099999999,36.3736479,0 -83.13739270000001,36.3740654,0 -83.1368116,36.3743208,0 -83.1350575,36.3751182,0 -83.1340659,36.3755708,0 -83.1317876,36.3766106,0 -83.13156960000001,36.3766982,0 -83.130875,36.3770208,0 -83.1303406,36.3772617,0 -83.1293337,36.3777107,0 -83.1287968,36.3779709,0 -83.1281936,36.3782978,0 -83.12735929999999,36.3788348,0 -83.1260314,36.3799619,0 -83.124143,36.3816502,0 -83.12046119999999,36.3849049,0 -83.1198337,36.3854075,0 -83.1193638,36.3857453,0 -83.118267,36.3863655,0 -83.117075,36.3868417,0 -83.11600730000001,36.3871606,0 -83.115782,36.3872279,0 -83.104499,36.3901105,0 -83.1024685,36.3906293,0 -83.1003846,36.3911661,0 -83.09967380000001,36.3913204,0 -83.0993721,36.3913671,0 -83.0989782,36.3914094,0 -83.0986338,36.3914313,0 -83.0981877,36.3914464,0 -83.0977407,36.3914196,0 -83.09723870000001,36.3913692,0 -83.0967855,36.3912977,0 -83.0963768,36.3912083,0 -83.09586659999999,36.3910767,0 -83.095411,36.39089,0 -83.0943714,36.3904008,0 -83.0930039,36.3893322,0 -83.0925343,36.3887612,0 -83.0918604,36.3879416,0 -83.0897401,36.3854653,0 -83.0894517,36.3851194,0 -83.0892209,36.3848576,0 -83.089057,36.3847021,0 -83.0889409,36.3845998,0 -83.0888872,36.3845492,0 -83.0887286,36.3844175,0 -83.0885804,36.3843057,0 -83.0884125,36.3841893,0 -83.0881931,36.3840602,0 -83.0880629,36.3839907,0 -83.08768550000001,36.3838062,0 -83.0872695,36.3836424,0 -83.0863506,36.3833773,0 -83.0849192,36.3830296,0 -83.0845305,36.3829268,0 -83.08265609999999,36.3824309,0 -83.08180040000001,36.3821862,0 -83.07975500000001,36.3816384,0 -83.07754610000001,36.3810467,0 -83.0759412,36.3806159,0 -83.0733568,36.3799144,0 -83.07004310000001,36.3790493,0 -83.06947289999999,36.3788972,0 -83.0684928,36.3786619,0 -83.0683696,36.3786437,0 -83.0678348,36.3785775,0 -83.0674327,36.3785515,0 -83.06719649999999,36.3785399,0 -83.0669101,36.3785395,0 -83.06659759999999,36.3785472,0 -83.06635420000001,36.3785567,0 -83.0660768,36.3785748,0 -83.0656924,36.3786109,0 -83.06545079999999,36.3786473,0 -83.06516550000001,36.3786863,0 -83.06478629999999,36.3787648,0 -83.06455939999999,36.378822,0 -83.0642217,36.3789145000001,0 -83.0638943,36.3790123,0 -83.06364790000001,36.3790973,0 -83.0634601,36.3791659,0 -83.0632497,36.3792551,0 -83.0629754,36.3793632,0 -83.06265500000001,36.3795022,0 -83.0621072,36.3796923000001,0 
				
					-83.0621072,36.3796923000001,0 -83.0611533,36.3801327,0 -83.0600481,36.3806254,0 -83.0585567,36.3812996,0 -83.0558036,36.3825414,0 -83.0548501,36.3829679,0 -83.0540297,36.3833385,0 -83.0534799,36.3835954,0 -83.0528025,36.3838938,0 -83.05197269999999,36.3842602999999,0 -83.05137620000001,36.3845188,0 -83.0508561,36.384747,0 -83.0504723,36.3849154,0 -83.05031990000001,36.3849799,0 -83.0479184,36.3859093,0 -83.0475521,36.3860453,0 -83.0458529,36.3866773,0 -83.04526730000001,36.3869052,0 -83.0440696,36.3873712,0 -83.0434731,36.3876196,0 -83.0431028,36.3877591,0 -83.04259690000001,36.3880136,0 -83.0407457,36.3889768,0 -83.039728,36.3895113,0 -83.0386251,36.3901181,0 -83.037525,36.3907099,0 -83.03688990000001,36.3910637,0 -83.036554,36.3912508,0 -83.0361151,36.3914903,0 -83.0336575,36.3926107,0 -83.0331037,36.3928632,0 -83.0320682,36.3933257,0 -83.0310047,36.3938025,0 -83.03088320000001,36.393857,0 -83.0285459,36.3949001,0 -83.0280741,36.3951792,0 -83.0277948,36.3954098,0 -83.027748,36.3954484,0 -83.0274714,36.395681,0 -83.02723159999999,36.3959165,0 -83.0270994,36.3961052,0 -83.0269843,36.3962206,0 -83.0263009,36.396885,0 -83.02540329999999,36.3977928,0 -83.0248065,36.3984303,0 -83.0246954,36.3985331,0 -83.02403169999999,36.3991935,0 -83.0233092,36.3998963,0 -83.02260990000001,36.4005893,0 -83.0219853,36.4012063,0 -83.02164620000001,36.4015396,0 -83.0214538,36.4017261,0 -83.0213341,36.4018428,0 -83.0209467,36.402221,0 -83.0207776,36.4023899,0 -83.0201802,36.4029752,0 -83.0198177,36.4033329,0 -83.01937,36.4037692,0 -83.0188002,36.4043251,0 -83.0181984,36.4049209,0 -83.0178136,36.4052915999999,0 -83.0174231,36.4056809,0 -83.0169947,36.4060985,0 -83.01662020000001,36.4064656,0 -83.0161743,36.4068807,0 -83.0156147,36.4073862,0 -83.0151178,36.4078202,0 -83.0145771,36.4082658,0 -83.01431049999999,36.4084804,0 -83.0139185,36.4087889,0 -83.0134041,36.4091735,0 -83.0129742,36.4094924999999,0 -83.0126259,36.4097377,0 -83.01225580000001,36.4099968,0 -83.0119629,36.4101903,0 -83.0115359,36.410473,0 -83.0113217,36.4106078,0 -83.01089039999999,36.4108764,0 -83.0105523,36.4110898,0 -83.00973329999999,36.4115695,0 -83.0093224,36.4118017,0 -83.009146,36.411899,0 -83.0088123,36.4120761,0 -83.0081114,36.412442,0 -83.0075078,36.4127451,0 -83.0072064,36.4128869,0 -83.0058882,36.4135262,0 -83.0052117,36.4138497,0 -83.0037919,36.4145348,0 -83.0033387,36.4147519,0 -83.0025965,36.4151112,0 -83.00182150000001,36.4154845,0 -83.0010908,36.4158329,0 -83.00001229999999,36.4163524,0 -82.99869990000001,36.4169855,0 -82.99799640000001,36.4173292,0 -82.99688690000001,36.4178658,0 -82.9962472,36.4181831,0 -82.995445,36.4185999,0 -82.994877,36.4189042,0 -82.9945723,36.419077,0 -82.9944661,36.4191363,0 -82.9938805,36.4194548,0 -82.9933145,36.419782,0 -82.9926574,36.420172,0 -82.9918984,36.4206336,0 -82.9913129,36.4210088,0 -82.9905333,36.4215174,0 -82.9901201,36.4217905,0 -82.98960080000001,36.4221439,0 -82.98908350000001,36.4225042,0 -82.98858370000001,36.4228698,0 -82.9883888,36.4230194000001,0 -82.98798530000001,36.4233262,0 -82.9876117,36.4236202,0 -82.9857379,36.4251202,0 -82.9851857,36.4255404,0 -82.9847542,36.4258769,0 -82.98392560000001,36.4265036,0 -82.9838489,36.4265673,0 -82.9835108,36.42683,0 -82.9805296,36.4290939,0 -82.9794675,36.4300348,0 -82.9778367,36.4317526,0 -82.9749506,36.4348601,0 -82.97377040000001,36.4359563,0 -82.9726225,36.4369144,0 -82.9709809,36.4380796,0 -82.96935019999999,36.439055,0 -82.96817,36.439711,0 -82.9653912,36.4412732,0 -82.96338489999999,36.4424383,0 -82.963059,36.442625,0 -82.9626768,36.442844,0 -82.9611962,36.4438279,0 -82.96020919999999,36.4445874,0 -82.958957,36.4457116,0 -82.9575018,36.4472069,0 -82.9552954,36.4494031,0 -82.9526132,36.4521043,0 -82.9510253,36.4536663,0 -82.9502421,36.4544429,0 -82.9499969,36.4546775,0 -82.9488259,36.4557978,0 -82.94813929999999,36.4565399,0 -82.94687329999999,36.4575754,0 -82.9459835,36.4581128,0 -82.9448562,36.4586023,0 -82.9429894,36.4592494,0 -82.9429442,36.459265,0 -82.94129220000001,36.4598344,0 -82.9395791,36.4604249,0 -82.9395347,36.4604402,0 -82.9360564,36.4616747,0 -82.9330009,36.4627527,0 -82.9306405,36.4635207,0 -82.9288488,36.4640469999999,0 -82.9272502,36.4644784,0 -82.9254049,36.4648926,0 -82.9222828,36.465557,0 -82.92070560000001,36.4658072,0 -82.92053369999999,36.4658317,0 -82.9191929,36.4660229,0 -82.91748699999999,36.4661868,0 -82.9155665,36.4663594,0 -82.9134851,36.4665147,0 -82.9115647,36.4665837,0 -82.91008410000001,36.4666096,0 -82.90992300000001,36.466608,0 -82.9083567,36.4665924,0 -82.9077343,36.4665689,0 -82.906963,36.4665398,0 -82.90538479999999,36.4664802,0 -82.90444599999999,36.4664137,0 -82.90128009999999,36.4661894,0 -82.9000097,36.4661092,0 -82.8976923,36.4661092,0 -82.8960615,36.4662127000001,0 -82.8942115,36.4664589,0 -82.8922206,36.4668253,0 -82.89079359999999,36.4671877000001,0 -82.8897851,36.4674897,0 -82.8886157,36.4678607,0 -82.8869098,36.4685423,0 -82.88312620000001,36.4700594,0 -82.8793599,36.4716623,0 -82.8771599,36.4725685,0 -82.87664650000001,36.4727815,0 -82.87609999999999,36.4730045,0 -82.8755163,36.4732068,0 -82.87504029999999,36.4733468,0 -82.8746738,36.4734353,0 -82.87425090000001,36.4735289,0 -82.87396939999999,36.4735804,0 -82.87368789999999,36.4736215,0 -82.8730685,36.4736985,0 -82.8710023,36.4739102,0 -82.8704216,36.4740148,0 -82.86987310000001,36.4741323,0 -82.8694454,36.474252,0 -82.8690436,36.4743759,0 -82.86865299999999,36.4745127,0 -82.8683654,36.4746256,0 -82.8676796,36.4749322,0 -82.8669905,36.4752544,0 -82.8661072,36.4756861,0 -82.8658262,36.4758207,0 -82.8654921,36.4759669,0 -82.8651479,36.4761025,0 -82.8646777,36.4762699,0 -82.86419789999999,36.4764152,0 -82.86387089999999,36.4765007,0 -82.8635407,36.4765730999999,0 -82.862768,36.4767221,0 -82.86167930000001,36.476897,0 -82.8587074,36.4773763000001,0 -82.8580915,36.4775139,0 -82.8578366,36.4775766,0 -82.85761340000001,36.4776443,0 -82.85713199999999,36.4778071,0 -82.8566725,36.4780004,0 -82.8562785,36.4781895,0 -82.8558039,36.4784435,0 -82.8554567,36.4786672999999,0 -82.8551466,36.4788898,0 -82.85473930000001,36.4792155,0 -82.85438379999999,36.4795369,0 -82.8540591,36.479892,0 -82.852924,36.4813334,0 -82.8525235,36.48181,0 -82.8521521,36.4822063000001,0 -82.85184150000001,36.4824979,0 -82.85150830000001,36.4827584,0 -82.8510711,36.4830815,0 -82.8506307,36.4833501,0 -82.8501978,36.483579,0 -82.8498343,36.4837392,0 -82.8490986,36.4840364,0 -82.8447259,36.4855765,0 -82.8396377,36.4873632,0 -82.83958680000001,36.4873811,0 -82.83910349999999,36.4875377,0 -82.83862019999999,36.4876797,0 -82.837971,36.4878586,0 -82.8375061,36.4879772,0 -82.8371009,36.4880673,0 -82.8367195,36.4881441,0 -82.8361118,36.4882591,0 -82.834935,36.4884325,0 -82.83288140000001,36.4887418,0 -82.8319386,36.488927,0 -82.8310103,36.4891269,0 -82.8303744,36.4893073,0 -82.8296565,36.4895325999999,0 -82.82894949999999,36.4897638,0 -82.828407,36.4899715,0 -82.8278801,36.4901886,0 -82.8271324,36.4905094,0 -82.826464,36.490844,0 -82.82577120000001,36.4912205,0 -82.824117,36.4922041,0 -82.82058240000001,36.4943658,0 -82.82055560000001,36.4943822,0 -82.8186084,36.4955708,0 -82.8184803,36.4956495,0 -82.8166964,36.4967306,0 -82.8129045,36.4990642,0 -82.81186150000001,36.4996895,0 -82.8108246,36.5003025,0 -82.8104755,36.500507,0 -82.8101233,36.5006992,0 -82.8094006,36.5010786,0 -82.8090198,36.5012565,0 -82.80855819999999,36.5014538,0 -82.8080715,36.5016511,0 -82.8073608,36.5019191,0 -82.80620759999999,36.5023038,0 -82.80564010000001,36.5024722,0 -82.80517020000001,36.5025999,0 -82.80428360000001,36.5027995,0 -82.80378330000001,36.5029017,0 -82.80168140000001,36.5032352,0 -82.800408,36.5034424,0 -82.80004529999999,36.5035223,0 -82.7996321,36.5036324,0 -82.7993424,36.5037189,0 -82.7989954,36.5038266,0 -82.79865959999999,36.5039461,0 -82.79827090000001,36.5041079,0 -82.79788670000001,36.5042856,0 -82.7975414,36.5044497,0 -82.7964106,36.5049859,0 -82.795818,36.5052477,0 -82.7953521,36.5054442,0 -82.7948641,36.5056372,0 -82.79424539999999,36.5058529,0 -82.793525,36.506071,0 -82.7925783,36.506342,0 -82.7907568,36.5068412,0 -82.7869223,36.5079145,0 -82.7860568,36.5081541,0 -82.7851155,36.5084045,0 -82.7810891,36.50953,0 -82.7751615,36.5111508,0 -82.7704639,36.5124409,0 -82.7675461,36.5132533,0 -82.76463339999999,36.5140576,0 -82.7554655,36.516596,0 -82.7526072,36.517387,0 -82.7463829,36.5191095,0 -82.7453946,36.5193715,0 -82.7444818,36.5195993,0 -82.74353910000001,36.5198034,0 -82.742178,36.5200724,0 -82.74084999999999,36.5202971,0 -82.73902889999999,36.52054,0 -82.7383146,36.5206119,0 -82.7376003,36.5206765,0 -82.73647630000001,36.520756,0 -82.7353433,36.5208136,0 -82.7343303,36.5208349,0 -82.7334615,36.5208406,0 -82.73258149999999,36.5208299,0 -82.7317635,36.5208033999999,0 -82.7309523,36.5207714,0 -82.72957340000001,36.520676,0 -82.7287606,36.5206005,0 -82.7279568,36.5205177,0 -82.7270456,36.5203993,0 -82.7261345,36.5202627,0 -82.72544790000001,36.5201536,0 -82.72476570000001,36.5200299,0 -82.72377830000001,36.5198268,0 -82.72279090000001,36.5196091,0 -82.721718,36.5193541,0 -82.7211288,36.5192049,0 -82.7204023,36.519035,0 -82.71975740000001,36.5188835,0 -82.7181892,36.5185099,0 -82.71683299999999,36.5182156,0 -82.7157023,36.5180299,0 -82.7145778,36.5178881,0 -82.71383539999999,36.5178177999999,0 -82.71312829999999,36.5177678,0 -82.7124252,36.5177338,0 -82.71182570000001,36.5177255,0 -82.7112241,36.5177218,0 -82.71001149999999,36.5177587,0 -82.70860589999999,36.5178587,0 -82.7078827,36.5179441,0 -82.7071084,36.5180568,0 -82.7062857,36.5181934,0 -82.7055335,36.5183427,0 -82.7048396,36.5185021,0 -82.70382309999999,36.5187678,0 -82.70280390000001,36.5190698,0 -82.70204889999999,36.5193277,0 -82.7011371,36.5196713,0 -82.70047700000001,36.5199488,0 -82.69984479999999,36.5202338,0 -82.69887869999999,36.5207152,0 -82.69805789999999,36.5211678,0 -82.69680940000001,36.5219054,0 -82.6949576,36.5230423,0 -82.68792670000001,36.5272766,0 -82.68766309999999,36.5274353,0 -82.6874444,36.5275669,0 -82.6866139,36.5280666,0 -82.6851707,36.5289318,0 -82.6834583,36.5299376,0 -82.679204,36.5324259,0 -82.6775743,36.5333437,0 -82.67666730000001,36.5338213,0 -82.6757588,36.5342912,0 -82.67354210000001,36.5354245,0 -82.6711918,36.5366191,0 -82.6708481,36.5367938,0 -82.6633678,36.5405964,0 -82.6626267,36.5409536,0 -82.66203179999999,36.5412216,0 -82.66078589999999,36.5417106,0 -82.6595288,36.5421911,0 -82.6592165,36.542329,0 -82.65896499999999,36.5424484,0 -82.6587621,36.5425573,0 -82.6584319,36.5427581,0 -82.65810879999999,36.5429676,0 -82.65743670000001,36.5434138,0 -82.6560643,36.5443452,0 -82.65528930000001,36.544872,0 -82.6549802,36.5450682,0 -82.65469229999999,36.5452388,0 -82.6543751,36.5454089,0 -82.6540655,36.5455645,0 -82.65371159999999,36.5457233,0 -82.6533278,36.5458778,0 -82.6528575,36.5460437,0 -82.64935629999999,36.5472184,0 -82.6487027,36.5474369,0 -82.6480809,36.5476299,0 -82.6475636,36.5477766,0 -82.646936,36.5479354,0 -82.6459127,36.5481603,0 -82.6446832,36.5483837000001,0 -82.64334049999999,36.5486382,0 -82.6428367,36.5487478,0 -82.64233299999999,36.5488703,0 -82.64093560000001,36.5492521,0 -82.6400155,36.5495213,0 -82.63964489999999,36.5496268000001,0 -82.639303,36.5497284,0 -82.6387793,36.5498781,0 -82.6380127,36.5501087,0 -82.6363528,36.5505826,0 -82.6354504,36.5508446,0 -82.63500929999999,36.5509654,0 -82.6346472,36.551072,0 -82.6339071,36.5512886,0 -82.6333873,36.5514407,0 -82.633287,36.5514676,0 -82.6331842,36.5514951,0 -82.6329839,36.5515429,0 -82.63276500000001,36.5515918999999,0 -82.63250770000001,36.5516355,0 -82.63223139999999,36.5516673,0 -82.63167199999999,36.5517103,0 -82.6306056,36.5517588,0 -82.63015420000001,36.5517814,0 -82.62839169999999,36.5518691999999,0 -82.62804370000001,36.5518832,0 -82.62790099999999,36.5518889,0 -82.62759339999999,36.5519013,0 -82.62740890000001,36.5519087,0 -82.62691719999999,36.5519285,0 -82.6261061,36.5519611000001,0 -82.6254467,36.5519876,0 -82.6249073,36.5520186,0 -82.6246601,36.5520395,0 -82.62442849999999,36.5520676,0 -82.624213,36.5520966,0 -82.62403740000001,36.552127,0 -82.6235331,36.5522307,0 -82.62312420000001,36.5523224000001,0 -82.6218818,36.5526258,0 -82.6217214,36.5526647,0 -82.62144790000001,36.5527298,0 -82.6203502,36.5530055,0 -82.6187626,36.553401,0 -82.6174796,36.5537182,0 -82.616095,36.5540204,0 -82.61404020000001,36.5545283,0 -82.61386899999999,36.5545738,0 -82.6136186,36.5546353,0 -82.6125366,36.5549062,0 -82.6116961,36.555092,0 -82.6109405,36.5552097,0 -82.61016170000001,36.5552809,0 -82.6091285,36.555315,0 -82.6053354,36.5554011,0 -82.6043743,36.555422,0 -82.60409850000001,36.555428,0 -82.5994518,36.5555161,0 -82.5984291,36.5555462,0 -82.5980964,36.555556,0 -82.597979,36.5555595,0 -82.59672140000001,36.555583,0 -82.5961556,36.5556015,0 -82.593839,36.5556584,0 -82.59294680000001,36.5556763,0 -82.5925833,36.5556785,0 -82.5925273,36.5556797,0 -82.59166039999999,36.5556853,0 -82.590751,36.5557038,0 -82.58878850000001,36.5557501,0 -82.5872866,36.5558039,0 -82.5864377,36.5558633,0 -82.5859593,36.5559125,0 -82.58548089999999,36.5559747,0 -82.58522689999999,36.5560072,0 -82.5846236,36.5560857,0 -82.5842596,36.5561526,0 -82.5841343,36.5561756,0 -82.5835201,36.5562979,0 -82.5829346,36.5564347,0 -82.5822462,36.5565964,0 -82.5819194,36.5566814,0 -82.58121250000001,36.5568542,0 -82.5801519,36.5571135,0 -82.57997930000001,36.5571531,0 -82.57968579999999,36.5572243,0 -82.5790092,36.5573846,0 -82.5784216,36.5575124,0 -82.57815479999999,36.557576,0 -82.57783329999999,36.5576523,0 -82.57721359999999,36.5578262,0 -82.5770326,36.5578759,0 -82.57662879999999,36.5579879,0 -82.5761333,36.5581347,0 -82.5759781,36.5581807,0 -82.5752737,36.5583894,0 -82.5741197,36.5586453,0 
				
					-82.57407018984101,36.55867652033248,0 -82.57246608827757,36.55897271316904,0 -82.57044242595728,36.55922307961199,0 -82.56703175741093,36.55945843242505,0 -82.56413827579438,36.55963050307537,0 -82.56167264849279,36.55974058950472,0 -82.55982677266856,36.55972579686478,0 -82.55795273156225,36.5596344293652,0 -82.55571098792622,36.55951250932694,0 -82.55420081536667,36.55940351001843,0 -82.552504,36.5592952,0 -82.55224459999999,36.5592759,0 -82.5519817,36.5592564,0 -82.55184490000001,36.5592476000001,0 -82.5516786,36.5592368,0 -82.5510182,36.559194,0 -82.55054819999999,36.5591628,0 -82.5500108,36.5591275,0 -82.5492679,36.5590767,0 -82.54621160000001,36.5588643999999,0 -82.5453777,36.558807,0 -82.5448488,36.5587706,0 -82.5438254,36.5586919,0 -82.54336480000001,36.5586363,0 -82.5429042,36.558563,0 -82.5422587,36.5584247,0 -82.5418659,36.5583235,0 -82.5414789,36.55821,0 -82.5410983,36.5580833,0 -82.5407208,36.5579408,0 -82.5405256,36.5578613,0 -82.5401766,36.5577016,0 -82.53983409999999,36.5575363,0 -82.53928139999999,36.5572337,0 -82.5390744,36.5571121999999,0 -82.53874829999999,36.5569207,0 -82.5383173,36.5566623,0 -82.53794860000001,36.5564413,0 -82.5373431,36.5560782,0 -82.536822,36.5557658,0 -82.5349629,36.5546512,0 -82.5347675,36.554534,0 -82.53436170000001,36.5542907,0 -82.5336506,36.5538644,0 -82.533269,36.5536356,0 -82.53235429999999,36.5530944,0 -82.5321016,36.5529593,0 -82.5318041,36.5528001,0 -82.5316349,36.5527182,0 -82.5312354,36.5525248,0 -82.5310271,36.5524344,0 -82.5304367,36.5521781,0 -82.5300154,36.5520193,0 -82.52992279999999,36.5519844,0 -82.5297443,36.5519171,0 -82.529507,36.5518306,0 -82.5290636,36.5516689,0 -82.5290086,36.5516487,0 -82.52884760000001,36.5515903,0 -82.528434,36.5514401,0 -82.5278876,36.5512408,0 -82.5271602,36.5509742,0 -82.5269739,36.5509066,0 -82.52691919999999,36.5508867,0 -82.5268042,36.5508449,0 -82.52652449999999,36.5507434,0 -82.5259509,36.5505351,0 -82.5257532,36.5504629,0 -82.5255859,36.5504018,0 -82.525323,36.5503057999999,0 -82.52530520000001,36.5502999,0 -82.5249726,36.5501773,0 -82.52494969999999,36.5501689,0 -82.52463849999999,36.5500548,0 -82.5243559,36.5499512,0 -82.52401620000001,36.5498266,0 -82.5239898,36.5498169,0 -82.5238078,36.5497502000001,0 -82.52369160000001,36.5497076,0 -82.5236556,36.5496944,0 -82.5235875,36.5496694,0 -82.5231696,36.5495171000001,0 -82.5231445,36.5495079,0 -82.52291630000001,36.5494247,0 -82.5227423,36.5493613,0 -82.52270849999999,36.549349,0 -82.5226402,36.5493241,0 -82.52236689999999,36.5492245,0 -82.5220458,36.5491074,0 -82.5213323,36.5488473,0 -82.52111429999999,36.5487678,0 -82.5208641,36.5486766000001,0 -82.5204483,36.548525,0 -82.52040940000001,36.5485107,0 -82.52012120000001,36.5484052,0 -82.5200107,36.5483647,0 -82.5198493,36.5483056,0 -82.5195731,36.5482044,0 -82.5193881,36.5481366,0 -82.5190827,36.5480221999999,0 -82.5187798,36.5479088,0 -82.51869480000001,36.5478769,0 -82.5186097,36.5478451,0 -82.5184567,36.5477878,0 -82.51840300000001,36.5477677,0 -82.5183237,36.547738,0 -82.5178445,36.5475626,0 -82.5177331,36.5475218,0 -82.51761980000001,36.5474804,0 -82.517397,36.5473989,0 -82.51736529999999,36.5473873,0 -82.51731770000001,36.5473698,0 -82.5172364,36.5473399,0 -82.51700848944112,36.54724984403906,0 -82.51469942844044,36.54633364885799,0 -82.51276131721522,36.54566605139956,0 -82.51162850216396,36.54529257096665,0 -82.510800397262,36.54508248523936,0 -82.51001884638214,36.54495513325519,0 -82.50938154647666,36.54486233633932,0 -82.50874616893691,36.54482838551232,0 -82.5079387843404,36.544853139842,0 -82.50692846847218,36.54494749022971,0 -82.50601849251993,36.54509955851342,0 -82.50539279636649,36.54522726424834,0 -82.50429189321252,36.54555126701978,0 -82.50277569661731,36.54615088942044,0 -82.50105069498106,36.54684706676424,0 -82.49973976383856,36.5473713967838,0 -82.49933766335892,36.54758769303606,0 
				
					-82.49932699999999,36.5475953,0 -82.49844419999999,36.5478432,0 -82.4977878,36.5481013,0 -82.4973614,36.5482671,0 -82.49661039999999,36.5485623,0 -82.4960548,36.5487796,0 -82.4948629,36.5492435,0 -82.494259,36.5494783,0 -82.4939036,36.5496183,0 -82.49343330000001,36.5498005,0 -82.49313309999999,36.5499183,0 -82.49295770000001,36.5499842,0 -82.49229219999999,36.5502483,0 -82.4916739,36.5505072,0 -82.491648,36.5505188,0 -82.4912144,36.550713,0 -82.4911953,36.5507216,0 -82.4911745,36.5507316,0 -82.49081169999999,36.5509054,0 -82.4907833,36.5509194,0 -82.4903774,36.5511199,0 -82.48996940000001,36.5513377,0 -82.48945070000001,36.5516299,0 -82.4891118,36.5518321,0 -82.4886443,36.5521243,0 -82.48813180000001,36.5524693,0 -82.4881207,36.5524772,0 -82.4877704,36.5527254,0 -82.487397,36.5530099,0 -82.48543100000001,36.5545087,0 -82.4849454,36.5548781,0 -82.4849347,36.5548862,0 -82.4845357,36.5551903,0 -82.4845119,36.5552084,0 -82.4841126,36.5555134,0 -82.4836397,36.5558746,0 -82.4828789,36.5564552,0 -82.4828339,36.5564905,0 -82.48273519999999,36.5565645,0 -82.48250539999999,36.5567381,0 -82.4824715,36.5567639,0 -82.48198069999999,36.5571372,0 -82.4817096,36.557335,0 -82.4814731,36.5575006,0 -82.48123940000001,36.5576528,0 -82.48096990000001,36.5578124,0 -82.4806615,36.5579891,0 -82.4803447,36.5581557,0 -82.48006119999999,36.5582868,0 -82.4797597,36.5584202,0 -82.4795591,36.5585024,0 -82.47925069999999,36.5586135,0 -82.47892419999999,36.5587279,0 -82.47870570000001,36.5587968,0 -82.4783673,36.5588903,0 -82.4780377,36.5589751,0 -82.4776621,36.5590576,0 -82.47728360000001,36.5591338,0 -82.4765762,36.5592737,0 -82.4761488,36.5593609,0 -82.4747808,36.5596363,0 -82.47293259999999,36.5600062,0 -82.4716895,36.5602524,0 -82.4708298,36.5604224,0 -82.4704433,36.5604988,0 -82.4699743,36.5605973,0 -82.46803199999999,36.5609825,0 -82.4659674,36.561392,0 -82.4635133,36.5618907,0 -82.4630512,36.5619858,0 -82.4626353,36.56208,0 -82.4622753,36.5621709,0 -82.4618469,36.5622849,0 -82.4615336,36.5623735,0 -82.4612762,36.5624557,0 -82.46097949999999,36.5625546,0 -82.4603412,36.5627691,0 -82.4597201,36.5630041,0 -82.45902409999999,36.5632715,0 -82.4584874,36.5634797,0 -82.4574363,36.563891,0 -82.4553375,36.564703,0 -82.4536164,36.5653738,0 -82.452625,36.5657601,0 -82.4522959,36.5658853,0 -82.4513728,36.5662389,0 -82.45110270000001,36.5663401,0 -82.4505453,36.5665666,0 -82.4486136,36.5673211,0 -82.44499500000001,36.5687338,0 -82.4415508,36.5700829,0 -82.437032,36.5718346,0 -82.4362294,36.5721531,0 -82.4353551,36.5725001,0 -82.43491950000001,36.5726709,0 -82.4343791,36.5728801,0 -82.4330562,36.5733924,0 -82.43239560000001,36.5736501,0 -82.43193909999999,36.5738197,0 -82.4314826,36.5739819,0 -82.4307208,36.5742262999999,0 -82.4300128,36.5744199,0 -82.42941949999999,36.5745733,0 -82.42882179999999,36.5747022,0 -82.42813270000001,36.5748268,0 -82.42732890000001,36.5749582,0 -82.4263174,36.5750814,0 -82.4258627,36.5751278,0 -82.4245207,36.5751911,0 -82.42376109999999,36.57519,0 -82.4228442,36.5751704,0 -82.42198209999999,36.575109,0 -82.4211407,36.5750244,0 -82.41821849999999,36.5746112,0 -82.4163199,36.574342,0 -82.4147913,36.5741083,0 -82.41377439999999,36.5739383999999,0 -82.4131685,36.5738194,0 -82.4126035,36.573702,0 -82.4119288,36.5735602,0 -82.4113765,36.5734314,0 -82.40899039999999,36.5727924,0 -82.4069696,36.5722375,0 -82.40522009999999,36.571734,0 -82.4049012,36.5716512,0 -82.40308899999999,36.5712144,0 -82.4013367,36.5708713,0 -82.4000633,36.5706493,0 -82.3998091,36.5705999,0 -82.3992545,36.5704944,0 -82.3983027,36.5703449,0 -82.39782409999999,36.5702766,0 -82.3971652,36.5702338,0 -82.3964726,36.5702226,0 -82.3959787,36.5702455,0 -82.39553479999999,36.5702725,0 -82.39501629999999,36.5703257,0 -82.3943129,36.5704452,0 -82.39362010000001,36.5706031,0 -82.3928682,36.5708271999999,0 -82.39201509999999,36.5711175,0 -82.3900708,36.5717768,0 -82.38731629999999,36.5726935,0 -82.38639379999999,36.5728816,0 -82.3855082,36.5729955,0 -82.38412529999999,36.5730621,0 -82.38258860000001,36.5730019,0 -82.3818936,36.5729512,0 -82.37903319999999,36.5728441,0 -82.3788799,36.572843,0 -82.37860619999999,36.5728309,0 -82.3777734,36.5728135,0 -82.37682959999999,36.5728321,0 -82.3747899,36.5729677,0 -82.37385519999999,36.5731040000001,0 -82.3737435,36.5731203,0 -82.37328770000001,36.5732124,0 -82.3728873,36.5732954,0 -82.3711596,36.5737292,0 -82.36943840000001,36.574289,0 -82.369297,36.5743375,0 -82.36885359999999,36.5744812,0 -82.36659710000001,36.5752345,0 -82.36581959999999,36.5754695,0 -82.3645381,36.5759275,0 -82.3633138,36.5762812,0 -82.3629663,36.5763657,0 -82.36275910000001,36.5764138,0 -82.3625095,36.5764491,0 -82.36030289999999,36.576834,0 -82.3601973,36.5768422,0 -82.3599822,36.576859,0 -82.358626,36.5769139,0 -82.35730460000001,36.5769412,0 -82.355988,36.5768404,0 -82.3553383,36.5767629,0 -82.3552775,36.576755,0 -82.35504830000001,36.5767254,0 -82.3548768,36.5767033,0 -82.3543382,36.5766337,0 -82.35394479999999,36.5765829,0 -82.3536185,36.5765383,0 -82.3510263,36.5762447,0 -82.3509243,36.5762301,0 -82.34623929999999,36.5756536,0 -82.3457578,36.5756083,0 -82.3456473,36.5755979,0 -82.3435947,36.5754047,0 -82.34300500000001,36.5753492,0 -82.34157999999999,36.5754043,0 -82.3404068,36.5755636,0 -82.3387836,36.5759997,0 -82.338357,36.576162,0 -82.33704109999999,36.5765774,0 -82.3350731,36.5772272,0 -82.3330581,36.5778607,0 -82.3289695,36.5792056999999,0 -82.3269028,36.5798881,0 -82.324945,36.5805224,0 -82.32320799999999,36.5810742,0 -82.3226099,36.581239,0 -82.32203509999999,36.5813256,0 -82.32137899999999,36.5814208000001,0 -82.3209185,36.5814561,0 -82.3208001,36.5814651999999,0 -82.3205955,36.5814669,0 -82.3205212,36.5814694,0 -82.31961200000001,36.5814964,0 -82.31940109999999,36.5814727,0 -82.31878930000001,36.5813949,0 -82.31855419999999,36.5813625,0 -82.3180591,36.5812877,0 -82.31760610000001,36.581204,0 -82.3174709,36.5811773,0 -82.31687169999999,36.580998,0 -82.3154265,36.5804645,0 -82.3153571,36.580432,0 -82.3134553,36.5795423,0 -82.31244959999999,36.5791436,0 -82.311764,36.5789267,0 -82.3110894,36.5787792,0 -82.31066850000001,36.5787018,0 -82.31022129999999,36.5786257,0 -82.30938209999999,36.5785858,0 -82.3084297,36.5786404,0 -82.30778890000001,36.5787075,0 -82.3073267,36.578785,0 -82.3067777,36.5789186,0 -82.30635940000001,36.5790643,0 -82.3054185,36.5793884,0 -82.3048065,36.5796349,0 -82.3013382,36.5812109,0 -82.3013088,36.5812242,0 -82.297693,36.5828096000001,0 -82.2971539,36.5830571,0 -82.2928345,36.5850207,0 -82.2927135,36.5850918,0 -82.2908764,36.5859226,0 -82.28949470000001,36.5865474,0 -82.2872728,36.5874951,0 -82.28667470000001,36.5877588,0 -82.2845001,36.5887177,0 -82.28390039999999,36.5889821,0 -82.2836539,36.5891126,0 -82.2835024,36.589198,0 -82.28228110000001,36.5897469,0 -82.2809264,36.5903461,0 -82.2804702,36.5905399,0 -82.28017389999999,36.5906482000001,0 -82.279912,36.5907351,0 -82.2795938,36.5908232,0 -82.27927080000001,36.5909063,0 -82.2790152,36.5909604,0 -82.27873460000001,36.5910133,0 -82.278443,36.5910586,0 -82.2780683,36.5911026,0 -82.2776983,36.5911341,0 -82.27733139999999,36.5911505,0 -82.2769912,36.5911505,0 -82.276687,36.5911404,0 -82.27640169999999,36.5911215,0 -82.2759846,36.5910762,0 -82.275588,36.5910221000001,0 -82.2751882,36.590944,0 -82.27478840000001,36.5908496,0 -82.2744309,36.5907477,0 -82.2740436,36.5906243,0 -82.27371909999999,36.5904984,0 -82.2726667,36.5900874,0 -82.272075,36.5898505,0 -82.27164689999999,36.5896895,0 -82.2712717,36.5895621,0 -82.2709558,36.5894707,0 -82.2705646,36.5893677,0 -82.2701718,36.5892763,0 -82.2698367,36.5892081,0 -82.2695513,36.5891579,0 -82.2692322,36.5891102,0 -82.268849,36.5890677,0 -82.2686326,36.5890510999999,0 -82.26837279999999,36.5890304,0 -82.26803289999999,36.589015,0 -82.2677162,36.5890132,0 -82.2674585,36.5890155,0 -82.2671093,36.5890341,0 -82.2665167,36.5890768,0 -82.2656727,36.5891495,0 -82.26553819999999,36.589156,0 -82.2646603,36.5892119,0 -82.2641473,36.5892544,0 -82.263732,36.5892762,0 -82.26336000000001,36.5892917,0 -82.2629367,36.5892917,0 -82.26269910000001,36.5892828,0 -82.2624361,36.5892661,0 -82.26208339999999,36.5892404,0 -82.2617948,36.5892082,0 -82.2614725,36.5891644,0 -82.2610813,36.5891039,0 -82.2602491,36.5889713,0 -82.26003590000001,36.5889237,0 -82.2596334,36.588858,0 -82.2593128,36.5888091,0 -82.25891350000001,36.5887614,0 -82.258565,36.5887278,0 -82.2582764,36.5887098,0 -82.2578804,36.5886995,0 -82.2575693,36.5887136,0 -82.2572861,36.5887202,0 -82.2569074,36.5887355,0 -82.2565469,36.5887628,0 -82.25614779999999,36.5888065,0 -82.2557147,36.5888638,0 -82.25546540000001,36.5888902999999,0 -82.2551503,36.5889531,0 -82.25481809999999,36.589028,0 -82.25450859999999,36.5891065,0 -82.253941,36.5892765,0 -82.2538339,36.5893114,0 -82.25372849999999,36.589349,0 -82.2534007,36.5894684,0 -82.2530991,36.5895893999999,0 -82.252572,36.5898452,0 -82.2521747,36.5900483,0 -82.2516778,36.5903185,0 -82.2502198,36.5911414,0 -82.2485997,36.5920535,0 -82.2481791,36.5922893,0 -82.24784579999999,36.5924731999999,0 -82.2476746,36.5925597,0 -82.24750899999999,36.5926352,0 -82.2472925,36.5927272,0 -82.24704989999999,36.5928264,0 -82.2467698,36.5929229,0 -82.2465057,36.5930011,0 -82.24626360000001,36.5930625,0 -82.24600959999999,36.5931234000001,0 -82.24570799999999,36.5931799,0 -82.2454008,36.5932263,0 -82.2451221,36.5932584,0 -82.24480130000001,36.5932811,0 -82.2445201,36.593292,0 -82.2442832,36.593293,0 -82.24404250000001,36.5932913,0 -82.24375499999999,36.5932718,0 -82.2433138,36.5932238,0 -82.24295669999999,36.5931655,0 -82.2426143,36.5930945,0 -82.2424175,36.5930456,0 -82.2422742,36.5930099,0 -82.24203610000001,36.5929389,0 -82.24156670000001,36.5927841,0 -82.2407403,36.5925084,0 -82.24001459999999,36.5922662,0 -82.2398287,36.5922052,0 -82.2393162,36.5920368000001,0 -82.23890919999999,36.5918993,0 -82.2378276,36.5915407,0 -82.2365669,36.591121,0 -82.2351146,36.5906422,0 -82.2347189,36.5905138,0 -82.23429369999999,36.5903855,0 -82.2339241,36.5902926,0 -82.23353179999999,36.5902071,0 -82.23318380000001,36.590147,0 -82.2327133,36.5900742,0 -82.2323178,36.5900307,0 -82.23182009999999,36.5899908,0 -82.2313887,36.5899741,0 -82.2310057,36.5899763,0 -82.2306186,36.5899896,0 -82.2301444,36.5900185,0 -82.22971990000001,36.5900629,0 -82.2293452,36.5901151,0 -82.22912820000001,36.5901506,0 -82.2287005,36.590229,0 -82.22826360000001,36.5903311,0 -82.2279041,36.5904243,0 -82.2277078,36.5904842999999,0 -82.2273995,36.5905864,0 -82.22713400000001,36.5906752,0 -82.2266736,36.5908517,0 -82.2262879,36.5910149,0 -82.2252146,36.5914699,0 -82.22491220000001,36.591595,0 -82.2246136,36.5917071,0 -82.2242914,36.591817,0 -82.2238462,36.591948,0 -82.2235732,36.5920212,0 -82.22333039999999,36.5920811,0 -82.2230732,36.5921372,0 -82.22278300000001,36.5921933,0 -82.222427,36.5922496,0 -82.22208569999999,36.5922955,0 -82.2217806,36.5923232,0 -82.2215013,36.5923465,0 -82.2212966,36.5923644,0 -82.22107680000001,36.5923762,0 -82.22081,36.5923807,0 -82.22079220000001,36.5923808,0 -82.2204864,36.5923818,0 -82.2203123,36.5923814,0 -82.2198377,36.5924218,0 -82.2193946,36.5924844,0 -82.21884609999999,36.592614,0 -82.21842530000001,36.5927638,0 -82.2178345,36.5929795,0 -82.2162885,36.5935441,0 -82.21604600000001,36.5936308,0 -82.21506890000001,36.5939646,0 -82.2144479,36.5942132,0 -82.2138875,36.5944376,0 -82.2137192,36.5944998,0 -82.2128495,36.5948336,0 -82.21248439999999,36.5949755,0 -82.2121478,36.5951064,0 -82.211848,36.595223,0 -82.2117563,36.5952583,0 -82.2109744,36.5955597,0 -82.2105253,36.5957328,0 -82.21038350000001,36.595801,0 -82.21002420000001,36.5959651,0 -82.209592,36.596129,0 -82.20916699999999,36.5963041999999,0 -82.208823,36.596446,0 -82.208494,36.596573,0 -82.20822250000001,36.5966774,0 -82.2078877,36.596806,0 -82.207651,36.596897,0 -82.206727,36.597243,0 -82.205893,36.597544,0 -82.205252,36.59778,0 -82.20289699999999,36.598648,0 -82.202602,36.598755,0 -82.201756,36.599065,0 -82.2012678,36.5992446000001,0 -82.2010686,36.5993178,0 -82.199472,36.599905,0 -82.198476,36.60027,0 -82.196898,36.60085,0 -82.196431,36.601023,0 -82.19513259999999,36.6014968,0 -82.1949791,36.6015531,0 -82.1942129,36.6018351,0 -82.1935337,36.6020856,0 -82.1929081,36.6023188,0 -82.1928106,36.6023519,0 -82.192153,36.602589,0 -82.192003,36.60264,0 
				</coordinates>
			</LineString>
		<atom:link rel="app" href="https://www.google.com/earth/about/versions/#earth-pro" title="Google Earth Pro 7.3.6.10201"></atom:link>
	</Placemark>
</Document>
</kml>
