<?xml version="1.0" encoding="UTF-8"?>
<kml xmlns="http://www.opengis.net/kml/2.2" xmlns:gx="http://www.google.com/kml/ext/2.2" xmlns:kml="http://www.opengis.net/kml/2.2" xmlns:atom="http://www.w3.org/2005/Atom">
<Document>
	<name>US.138.kml</name>
	<Placemark>
		<name>US.138</name>
			<LineString>
				<coordinates>
					-103.206663,40.6261759,0 -103.2065713,40.626306,0 -103.206544,40.6263444,0 -103.206207,40.6268232,0 -103.2058921,40.62725,0 -103.205832,40.6273315,0 -103.2057591,40.627427,0 -103.2053897,40.6279045,0 -103.2050266,40.6284054,0 -103.2049651,40.6284905,0 -103.2049073,40.6285677,0 -103.2045319,40.6290711,0 -103.2041285,40.6296431,0 -103.2032753,40.6307942,0 -103.2023781,40.6319935,0 -103.2021408,40.6323174,0 -103.201997,40.6324897,0 -103.2019023,40.6326133,0 -103.2017953,40.6327094,0 -103.2016512,40.6328086,0 -103.2014914,40.6329106,0 -103.2013017,40.6329981,0 -103.2011089,40.6330672,0 -103.2007353,40.6331581,0 -103.2003689,40.6331817,0 -103.2000367,40.6332174,0 -103.1997055,40.6332707,0 -103.1994607,40.6333232,0 -103.1992332,40.6333896,0 -103.1990422,40.6334606,0 -103.1988505,40.6335512,0 -103.1986597,40.633654,0 -103.1984825,40.6337702,0 -103.1982802,40.6339251,0 -103.1981077,40.6340843,0 -103.1979578,40.634253,0 -103.1977637,40.6345,0 -103.1959441,40.6369878,0 -103.1947654,40.6385771,0 -103.1944744,40.6389694,0 -103.1940415,40.6395471,0 -103.1935218,40.6402458,0 -103.192743,40.6413239,0 -103.1919403,40.6424187,0 -103.1910599,40.6435841,0 -103.1907999,40.6439279,0 -103.1904447,40.6445931,0 -103.1900746,40.6451162,0 -103.1893477,40.6461704,0 -103.1887549,40.6469824,0 -103.1883741,40.6475013,0 -103.1882943,40.6476058,0 -103.1882158,40.6477143,0 -103.1880023,40.6480017,0 -103.1877572,40.6483316,0 -103.1868747,40.6495282,0 -103.1854349,40.6514849,0 -103.1853593,40.6515876,0 -103.1836212,40.653942,0 -103.1827829,40.6550774,0 -103.1822345,40.6558202,0 -103.181749,40.6564713,0 -103.1798211,40.6590536,0 -103.1790475,40.6600965,0 -103.1788371,40.6603894,0 -103.1785305,40.6608163,0 -103.1781113,40.6613849,0 -103.1779413,40.661638,0 -103.1776051,40.6621754,0 -103.177496,40.6624475,0 -103.1774024,40.6627284,0 -103.1773163,40.6630455,0 -103.1770347,40.6640871,0 -103.1769449,40.6643976,0 -103.1768665,40.6646283,0 -103.1767842,40.6648126,0 -103.1766976,40.6649632,0 -103.1765913,40.6651306,0 -103.1764736,40.665272,0 -103.1763456,40.6654118,0 -103.1761928,40.665555,0 -103.1759962,40.6657162,0 -103.1757631,40.6658789,0 -103.1755018,40.6660333,0 -103.175172,40.6662046,0 -103.1750528,40.6662665,0 -103.1745325,40.6665428,0 -103.1743117,40.6666606,0 -103.174168,40.6667426,0 -103.1739303,40.6668842,0 -103.1736836,40.6670463,0 -103.17344,40.6672283,0 -103.1732281,40.6674073,0 -103.1730457,40.667568,0 -103.1728473,40.6677613,0 -103.1726649,40.6679546,0 -103.1724449,40.6682231,0 -103.1722491,40.6684774,0 -103.1717932,40.6690959,0 -103.1713446,40.6696935,0 -103.1711917,40.6699122,0 -103.1710629,40.6700841,0 -103.165785,40.677227,0 -103.1647107,40.6786698,0 -103.1602988,40.6846867,0 -103.1520071,40.6959327,0 -103.1516982,40.6963602,0 -103.1508295,40.6975306,0 -103.1496348,40.6991479,0 -103.1472625,40.7023501,0 -103.1468176,40.7029439,0 -103.1419284,40.7095763,0 -103.1417401,40.7098272,0 -103.141601,40.7100124,0 -103.1406668,40.711238,0 -103.1398635,40.7122217,0 -103.1386082,40.7136083,0 -103.1383507,40.713899,0 -103.1371491,40.7153506,0 -103.1369882,40.7155457,0 -103.1361674,40.7164606,0 -103.1359367,40.7167005,0 -103.1357356,40.7168936,0 -103.134796,40.7178132,0 -103.133066,40.7195127,0 -103.1309712,40.7215476,0 -103.1290346,40.7234442,0 -103.1271705,40.7252615,0 -103.1267735,40.7256538,0 -103.1265428,40.7258896,0 -103.1263068,40.7261477,0 -103.1260654,40.726412,0 -103.1258294,40.7266844,0 -103.125368,40.7272372,0 -103.1244936,40.7282556,0 -103.1240028,40.728841,0 -103.1234985,40.7294365,0 -103.1232813,40.7296764,0 -103.1231203,40.7298471,0 -103.1229782,40.7299813,0 -103.1228253,40.7301113,0 -103.1226805,40.7302211,0 -103.1225946,40.7302882,0 -103.1223801,40.7304254,0 -103.1222272,40.7305189,0 -103.121908,40.7306937,0 -103.12157,40.7308644,0 -103.1201286,40.7315473,0 -103.118643,40.7322625,0 -103.1181993,40.7324737,0 -103.1177849,40.7326609,0 -103.1174998,40.7327711,0 -103.1171466,40.7328952,0 -103.1167823,40.7330184,0 -103.1165412,40.7330997,0 -103.1154987,40.733414,0 -103.1147434,40.7336403,0 -103.1141323,40.7338237,0 -103.113766,40.7339465,0 -103.1135193,40.734036,0 -103.1132028,40.734166,0 -103.1129678,40.7342683,0 -103.1128375,40.734325,0 -103.112661,40.7344018,0 -103.1070213,40.7370298,0 -103.1064247,40.7373072,0 -103.102924,40.7389351,0 -103.0985713,40.7409458,0 -103.0942057,40.7429644,0 -103.0939858,40.7430678,0 -103.0866383,40.7464588,0 -103.0847942,40.7473155,0 -103.084366,40.7475082,0 -103.078526,40.7502115,0 -103.075032,40.7518294,0 -103.073774,40.7523828,0 -103.0731182,40.7526907,0 -103.0726663,40.7529071,0 -103.0721996,40.7531428,0 -103.0712501,40.7536832,0 -103.0703394,40.7542149,0 -103.0697775,40.7545081,0 -103.0693779,40.7547134,0 -103.0684318,40.7551657,0 -103.0666608,40.7559731,0 -103.0661573,40.7562121,0 -103.0649718,40.7567647,0 -103.0638432,40.7573135,0 -103.0632935,40.7575713,0 -103.0614655,40.7584429,0 -103.0611226,40.7586181,0 -103.0607927,40.7588016,0 -103.0606548,40.7588808,0 -103.0601493,40.759208,0 -103.0588767,40.7600792,0 -103.0560344,40.7619811,0 -103.054535,40.7629603,0 -103.0541517,40.7632192,0 -103.0536287,40.7635504,0 -103.0532103,40.7638064,0 -103.052808,40.76404,0 -103.0523734,40.7642817,0 -103.0517056,40.7646413,0 -103.0507695,40.7651451,0 -103.0506351,40.7652171,0 -103.044393,40.7685827,0 -103.0378868,40.7720965,0 -103.0364597,40.7728955,0 -103.0355012,40.7734089,0 -103.0348954,40.7737326,0 -103.034231,40.7740831,0 -103.033464,40.774498,0 -103.0329848,40.7747374,0 -103.032649,40.7748891,0 -103.032342,40.7750129,0 -103.0320136,40.7751215,0 -103.0316969,40.77521,0 -103.0312759,40.7753165,0 -103.0307921,40.7754109,0 -103.0303459,40.7754623,0 -103.0298441,40.7755058,0 -103.0293267,40.7755243,0 -103.0279818,40.7755645,0 -103.0254777,40.7756368,0 -103.0245985,40.7756311,0 -103.0241902,40.7756659,0 -103.0237933,40.7757225,0 -103.0234365,40.7757936,0 -103.0230589,40.7758808,0 -103.0226842,40.7759837,0 -103.0223068,40.7761166,0 -103.021865,40.7762925,0 -103.0209378,40.7767206,0 -103.0136435,40.7801014,0 -103.0134571,40.7801864,0 -103.0099367,40.7818074,0 -103.0079699,40.7827433,0 -103.0073932,40.7830047,0 -103.00682,40.7832684,0 -103.0059534,40.7836518,0 -103.0053146,40.7839205,0 -103.0047935,40.7841251,0 -103.0036771,40.7845529,0 -103.0024621,40.7850122,0 -103.0012472,40.7854787,0 -102.9998523,40.7860089,0 -102.999422,40.7861848,0 -102.9983519,40.7866675,0 -102.9960815,40.7877347,0 -102.995723,40.7879056,0 -102.9954052,40.7880509,0 -102.9951141,40.7881798,0 -102.9947896,40.7883149,0 -102.9941499,40.7885778,0 -102.9932998,40.7889183,0 -102.9922647,40.7893248,0 -102.9919446,40.7894467,0 -102.9916526,40.7895486,0 -102.9913394,40.7896438,0 -102.9908898,40.7897663,0 -102.9903294,40.7899108,0 -102.9892607,40.7901871,0 -102.9888748,40.790293,0 -102.9884666,40.7904157,0 -102.987789,40.7906388,0 -102.9865601,40.7910894,0 -102.9863527,40.7911669,0 -102.9729817,40.7962515,0 -102.9599338,40.8012157,0 -102.9588615,40.8016214,0 -102.9582178,40.8018827,0 -102.9570939,40.8023875,0 -102.9561111,40.8028323,0 -102.9554336,40.8031159,0 -102.95472,40.8034062,0 -102.9519268,40.8044589,0 -102.9514198,40.8046563,0 -102.9509464,40.8048465,0 -102.9505815,40.805003,0 -102.9498427,40.8053285,0 -102.9485664,40.8058907,0 -102.9466262,40.8067746,0 -102.9458965,40.8071121,0 -102.9453874,40.8073342,0 -102.9448974,40.8075453,0 -102.9443861,40.8077337,0 -102.9440037,40.8078427,0 -102.9435541,40.8079867,0 -102.9422618,40.8083582,0 -102.9411383,40.808692,0 -102.9389249,40.8093337,0 -102.9379971,40.8096183,0 -102.9372874,40.8098305,0 -102.9365705,40.8100903,0 -102.9357221,40.8104005,0 -102.9340178,40.8110567,0 -102.9029245,40.8228842,0 -102.8936562,40.8264118,0 -102.8862747,40.8292238,0 -102.8825894,40.8306322,0 -102.8807279,40.8313385,0 -102.8801941,40.8315475,0 -102.8796684,40.8317708,0 -102.8791883,40.8319839,0 -102.8787002,40.8322152,0 -102.8784319,40.8323471,0 -102.8781986,40.8324689,0 -102.8778338,40.8326678,0 -102.8769755,40.8331589,0 -102.8752991,40.834133,0 -102.8746554,40.8345064,0 -102.8741779,40.8347844,0 -102.87373,40.8350219,0 -102.8732875,40.8352349,0 -102.8729146,40.8353953,0 -102.8725311,40.8355434,0 -102.8721073,40.8356956,0 -102.8716594,40.8358336,0 -102.8711122,40.8359838,0 -102.869755,40.836343,0 -102.8683631,40.8366992,0 -102.8679044,40.8367905,0 -102.8674511,40.8368676,0 -102.8669589,40.8369376,0 -102.8666867,40.8369752,0 -102.866401,40.8370147,0 -102.8660792,40.8370675,0 -102.8655695,40.8371771,0 -102.8651404,40.8372826,0 -102.8646844,40.8374328,0 -102.8640246,40.8376722,0 -102.8566525,40.8404837,0 -102.8564849,40.8405476,0 -102.8529712,40.8418909,0 -102.8502465,40.8429216,0 -102.8493341,40.8432667,0 -102.848744,40.8434655,0 -102.848213,40.8436481,0 -102.8476282,40.8438267,0 -102.8458955,40.8443177,0 -102.8242072,40.8504817,0 -102.8159044,40.8528332,0 -102.81503,40.8530888,0 -102.8144936,40.8532633,0 -102.8140698,40.8534175,0 -102.813646,40.853596,0 -102.8131095,40.8538394,0 -102.8123907,40.8542046,0 -102.8094081,40.8557951,0 -102.8078953,40.8565863,0 -102.8071658,40.8569799,0 -102.8067795,40.8571747,0 -102.8064094,40.857337,0 -102.8060017,40.8574911,0 -102.8056933,40.8575859,0 -102.8054425,40.8576479,0 -102.8051819,40.8576941,0 -102.8049742,40.8577128,0 -102.8046945,40.857728,0 -102.8043827,40.8577389,0 -102.80366,40.857749,0 -102.8029775,40.8577579,0 -102.8022667,40.857762,0 -102.8016123,40.857768,0 -102.8009176,40.8577701,0 -102.8002363,40.857768,0 -102.7999895,40.8577701,0 -102.799732,40.8577721,0 -102.7995604,40.8577863,0 -102.799386,40.8578106,0 -102.7991983,40.8578431,0 -102.7989891,40.8578898,0 -102.7988469,40.8579283,0 -102.7984875,40.8580257,0 -102.7983158,40.8580744,0 -102.7981924,40.8581089,0 -102.7973422,40.8583604,0 -102.7967896,40.8585207,0 -102.7964534,40.8586135,0 -102.7961745,40.8586906,0 -102.7957278,40.8588083,0 -102.7953818,40.8588894,0 -102.7949715,40.8589868,0 -102.7944967,40.8590862,0 -102.7936867,40.8592464,0 -102.7932951,40.8593276,0 -102.7928767,40.8594209,0 -102.7924985,40.8595102,0 -102.7920881,40.8596136,0 -102.7913317,40.8598185,0 -102.7861212,40.8613047,0 -102.7668834,40.8667539,0 -102.7479618,40.8721226,0 -102.7426402,40.8736216,0 -102.7425463,40.87365,0 -102.7327898,40.8764245,0 -102.7323607,40.8765664,0 -102.7320442,40.8766841,0 -102.7317008,40.8768058,0 -102.7308854,40.8771181,0 -102.7286538,40.8780429,0 -102.727634,40.8784634,0 -102.7270252,40.8787149,0 -102.7266255,40.878867,0 -102.7262876,40.8789887,0 -102.7259469,40.8791023,0 -102.7252361,40.8793213,0 -102.7246139,40.8794937,0 -102.7241472,40.8796093,0 -102.723887,40.8796681,0 -102.7235946,40.8797269,0 -102.7232406,40.8797857,0 -102.722798,40.8798486,0 -102.721929,40.8799621,0 -102.721237,40.8800534,0 -102.7205342,40.8801507,0 -102.7199307,40.880242,0 -102.7193514,40.8803393,0 -102.7189222,40.8804225,0 -102.7183697,40.8805421,0 -102.7179325,40.8806435,0 -102.7172941,40.8808078,0 -102.7156097,40.8812742,0 -102.6904722,40.888393,0 -102.6870525,40.8893936,0 -102.6836329,40.8903554,0 -102.6767852,40.892292,0 -102.6713038,40.8938324,0 -102.6521786,40.8992168,0 -102.6326815,40.9047054,0 -102.6134676,40.9100952,0 -102.6133117,40.9101389,0 -102.6128032,40.9102844,0 -102.609326,40.911294,0 -102.594241,40.915525,0 -102.579155,40.919749,0 -102.57478,40.920839,0 -102.57322,40.921228,0 -102.565381,40.923181,0 -102.559353,40.924675,0 -102.555539,40.925611,0 -102.5508165,40.9267776,0 -102.5498567,40.9270118,0 -102.546236,40.927914,0 -102.5368196,40.9302295,0 -102.5320372,40.9313953,0 -102.5296675,40.9319873,0 -102.5293533,40.9320799,0 -102.5287172,40.9322997,0 -102.5279532,40.9325696,0 -102.5273815,40.9327747,0 -102.527161,40.932844,0 -102.5271472,40.9328478,0 -102.5268179,40.9329443,0 -102.5263654,40.9330677,0 -102.5259578,40.93317,0 -102.5254139,40.9333021,0 -102.5248245,40.9334515,0 -102.5242125,40.9335985,0 -102.5236599,40.9337321,0 -102.522506,40.934026,0 -102.5220817,40.9341293,0 -102.5214277,40.9342881,0 -102.5211639,40.9343517,0 -102.5208998,40.9344137,0 -102.5206577,40.9344687,0 -102.5204411,40.9345124,0 -102.5201576,40.934566,0 -102.5198775,40.9346159,0 -102.5194793,40.9346818,0 -102.5186843,40.9348091,0 -102.5182885,40.9348734,0 -102.5179023,40.9349448,0 -102.5175588,40.9350114,0 -102.5172307,40.9350843,0 -102.5166882,40.9352015,0 -102.5160425,40.9353498,0 -102.5129932,40.9361016,0 -102.5126571,40.9361843,0 -102.5077733,40.9373867,0 -102.479209,40.944419,0 -102.4790123,40.9444697,0 -102.470929,40.946455,0 -102.467716,40.94736,0 -102.4636084,40.948375,0 -102.4617923,40.9488269,0 -102.4599186,40.9492857,0 -102.4406597,40.9540103,0 -102.4309191,40.9564045,0 -102.421504,40.958705,0 -102.417683,40.959643,0 -102.416111,40.959994,0 -102.415151,40.960161,0 -102.4139647,40.960323,0 -102.4131729,40.9603951,0 -102.4123452,40.9604542,0 -102.4109928,40.9604909,0 -102.4021272,40.9606177,0 -102.3925004,40.9607614,0 -102.3922851,40.9607668,0 -102.3918275,40.9607729,0 -102.3911271,40.9607803,0 -102.3904434,40.9607902,0 -102.3897621,40.9608036,0 -102.3890649,40.9608078,0 -102.388378,40.9608195,0 -102.3879508,40.9608269,0 -102.3877951,40.960824,0 -102.3876347,40.9608262,0 -102.3872167,40.9608325,0 -102.386655,40.9608431,0 -102.3865317,40.9608456,0 -102.3858398,40.9608529,0 -102.3851789,40.9608607,0 -102.3850497,40.9608617,0 -102.3849205,40.9608627,0 -102.383015,40.9608858,0 -102.380314,40.9609203,0 -102.3796815,40.9609309,0 -102.379177,40.9609323,0 -102.3777805,40.9609119,0 -102.3763647,40.9608818,0 -102.3755551,40.9608615,0 -102.374733,40.9608506,0 -102.373982,40.9608339,0 -102.3733345,40.9608123,0 -102.3728214,40.9607838,0 -102.3719412,40.9607161,0 -102.3714442,40.9606888,0 -102.3709842,40.9606683,0 -102.3705122,40.9606531,0 -102.3702929,40.9606504,0 -102.3680468,40.9606238,0 -102.3670926,40.9606185,0 -102.363811,40.9605919,0 -102.3620549,40.9606026,0 -102.358928,40.9606061,0 -102.3543358,40.9606185,0 -102.347718,40.9606388,0 -102.344714,40.960634,0 -102.3370235,40.9605681,0 -102.3365683,40.9605788,0 -102.3361794,40.9606055,0 -102.3358838,40.9606384,0 -102.3356274,40.9606744,0 -102.3353742,40.960718,0 -102.3351129,40.96077,0 -102.3350333,40.9607858,0 -102.3347103,40.9608654,0 -102.3343563,40.960964,0 -102.3339631,40.9611022,0 -102.3335656,40.961264,0 -102.3332024,40.9614319,0 -102.332858,40.9616175,0 -102.3325742,40.9617884,0 -102.3323014,40.9619752,0 -102.3319863,40.9622174,0 -102.3314423,40.962696,0 -102.326392,40.9672756,0 -102.3260366,40.9676085,0 -102.3257381,40.9679048,0 -102.3253628,40.9682957,0 -102.3248615,40.9688579,0 -102.3202746,40.9742623,0 -102.3194496,40.9752174,0 -102.3185147,40.9763106,0 -102.31814,40.976746,0 -102.3168145,40.9781725,0 -102.3157288,40.9793563,0 -102.3150889,40.9800457,0 -102.3149768,40.9801646,0 -102.3147093,40.980435,0 -102.3143627,40.9807254,0 -102.3140465,40.9809678,0 -102.3137853,40.981146,0 -102.3134857,40.9813279,0 -102.313025,40.9815675,0 -102.3125875,40.9817645,0 -102.312159,40.9819198,0 -102.3118098,40.9820352,0 -102.3113894,40.9821469,0 -102.3108978,40.9822544,0 -102.3104998,40.9823257,0 -102.3100124,40.9823795,0 -102.3095628,40.9824095,0 -102.3091348,40.9824196,0 -102.3065909,40.9824018,0 -102.3037041,40.9824314,0 -102.2981439,40.9824884,0 -102.2922146,40.9825492,0 -102.2872955,40.9825996,0 -102.2871824,40.9826032,0 -102.2827692,40.9826396,0 -102.2774113,40.9826839,0 -102.2732323,40.9827202,0 -102.2727983,40.982724,0 -102.2715508,40.9827348,0 -102.2707578,40.9827362,0 -102.2703457,40.9827559,0 -102.269848,40.9828145,0 -102.2694749,40.9828878,0 -102.2691144,40.9829738,0 -102.2685171,40.9831737,0 -102.2680986,40.9833438,0 -102.2678931,40.9834453,0 -102.2677552,40.9835213,0 -102.266788,40.9840574,0 -102.2660573,40.9844653,0 -102.2656678,40.9846776,0 -102.2645599,40.9852927,0 -102.2634935,40.9858851,0 -102.2634468,40.9859076,0 -102.262451,40.9864464,0 -102.2623357,40.9865091,0 -102.2611983,40.987127,0 -102.2600924,40.9877353,0 -102.2578759,40.9889601,0 -102.2568209,40.9895418,0 -102.2526144,40.9918515,0 -102.2501221,40.9932211,0 -102.2495086,40.9935458,0 -102.2492793,40.9936592,0 -102.2491408,40.9937265,0 -102.2485467,40.994003,0 -102.2475125,40.9945027,0 -102.2464643,40.9950144,0 -102.2463129,40.995098,0 -102.2446727,40.9960018,0 -102.2407544,40.9981496,0 -102.2386353,40.9993217,0 -102.2364911,41.0004844,0 -102.235505,41.0010071,0 -102.2345504,41.0015286,0 -102.2330255,41.0023438,0 -102.2325439,41.0026013,0 -102.2320561,41.0028664,0 -102.229735,41.004124,0 -102.2271201,41.0055504,0 -102.224879,41.0067877,0 -102.224489,41.007003,0 -102.2234103,41.0075924,0 -102.222416,41.008135,0 -102.221404,41.008701,0 -102.220142,41.009391,0 -102.219176,41.009928,0 -102.217896,41.010619,0 -102.216993,41.011123,0 -102.203097,41.018751,0 -102.2027483,41.0189475,0 -102.202719,41.018964,0 -102.202531,41.01907,0 -102.201047,41.019874,0 -102.187602,41.027259,0 -102.187492,41.027331,0 -102.1854616,41.0284792,0 -102.1852704,41.0285808,0 -102.1842552,41.0291655,0 -102.183928,41.029354,0 -102.182519,41.030203,0 -102.181347,41.0309111,0 -102.18051,41.031425,0 -102.1793476,41.0321007,0 -102.179133,41.0322277,0 -102.178705,41.032455,0 -102.177756,41.03298,0 -102.176586,41.033614,0 -102.175407,41.034267,0 -102.175097,41.034435,0 -102.174651,41.034675,0 -102.173126,41.035519,0 -102.168179,41.038229,0 -102.167581,41.038565,0 -102.166188,41.03931,0 -102.164052,41.0404936,0 -102.1631098,41.0410143,0 -102.1624564,41.0413633,0 -102.1621167,41.0415333,0 -102.1618053,41.0416835,0 -102.1614486,41.0418444,0 -102.161092,41.041993,0 -102.1606428,41.0421798,0 -102.16015,41.042376,0 -102.1597124,41.0425355,0 -102.1593457,41.0426642,0 -102.158983,41.0427883,0 -102.1586109,41.0429024,0 -102.1582348,41.0430089,0 -102.1578945,41.0431037,0 -102.1575118,41.0432046,0 -102.1562718,41.0435155,0 -102.155036,41.0438188,0 -102.1537109,41.044143,0 -102.1530414,41.0443082,0 -102.152722,41.0443853,0 -102.149786,41.045094,0 -102.14945,41.045176,0 -102.147492,41.045671,0 -102.147031,41.04578,0 -102.1454407,41.0461795,0 -102.1432526,41.0467258,0 -102.1397143,41.0475903,0 -102.1361615,41.0484683,0 -102.1342773,41.0489385,0 -102.1337824,41.0490571,0 -102.1329312,41.0492566,0 -102.1323891,41.0493754,0 -102.1318371,41.049485,0 -102.1313227,41.0495748,0 -102.1307882,41.0496592,0 -102.1303164,41.0497257,0 -102.1297737,41.0497872,0 -102.1291853,41.0498403,0 -102.12857,41.0498902,0 -102.1271094,41.0500002,0 -102.1265882,41.0500408,0 -102.125933,41.0500932,0 -102.1254323,41.0501284,0 -102.1250028,41.0501504,0 -102.124517,41.0501671,0 -102.123987,41.050178,0 -102.1220826,41.0502026,0 -102.1215836,41.0502124,0 -102.1212207,41.0502314,0 -102.1207853,41.0502596,0 -102.1180824,41.0504639,0 -102.1155808,41.0506617,0 -102.110996,41.051,0 -102.1098738,41.0510875,0 -102.1075709,41.0512659,0 -102.1065086,41.0513448,0 -102.1056551,41.0514167,0 -102.1049527,41.0514905,0 -102.1043084,41.0515806,0 -102.1037658,41.0516716,0 -102.1033813,41.0517443,0 -102.1028872,41.0518387,0 -102.1023918,41.0519468,0 -102.101912,41.0520613,0 -102.1013145,41.0522218,0 -102.1007346,41.0523838,0 -102.1001822,41.0525512,0 -102.0996415,41.0527337,0 -102.0990774,41.0529379,0 -102.09578,41.054172,0 -102.0950081,41.0544676,0 -102.0938369,41.0549002,0 -102.089122,41.056671,0 -102.088193,41.05701,0 -102.086865,41.057528,0 -102.0861259,41.0578293,0 -102.0853709,41.0581512,0 -102.0847319,41.0584316,0 -102.0841333,41.0586938,0 -102.0833661,41.0590358,0 -102.0828575,41.0592515,0 -102.0824289,41.0594281,0 -102.081655,41.059721,0 -102.0814553,41.059794,0 -102.0807525,41.0600608,0 -102.0796762,41.0604655,0 -102.0788025,41.0608003,0 -102.077896,41.061125,0 -102.0773693,41.0613237,0 -102.0764418,41.061671,0 -102.0752008,41.0621567,0 
				
					-102.0746123,41.0621763,0 -102.0747245,41.0621763,0 -102.0752008,41.0621567,0 -102.075031,41.062216,0 -102.074849,41.062266,0 -102.0747547,41.0622784,0 -102.0746106,41.0622843,0 -102.0745973,41.0629792,0 -102.0745921,41.0640223,0 -102.0745896,41.064526,0 -102.074587,41.0650665,0 -102.0745818,41.066099,0 -102.0745807,41.066308,0 -102.0745798,41.066501,0 -102.074589,41.066999,0 -102.074589,41.067502,0 -102.074591,41.068112,0 -102.074592,41.06853,0 -102.0746,41.069182,0 -102.074594,41.070233,0 -102.074601,41.071155,0 -102.074555,41.071448,0 -102.07452,41.071671,0 -102.07442,41.072103,0 -102.074268,41.072604,0 -102.073845,41.073696,0 -102.073084,41.07558,0 -102.0726541,41.0767683,0 -102.0724341,41.0773257,0 -102.072019,41.07819,0 -102.071811,41.078726,0 -102.071675,41.079119,0 -102.071469,41.079832,0 -102.071278,41.080628,0 -102.069564,41.088308,0 -102.069497,41.088628,0 -102.069409,41.089054,0 -102.069367,41.090132,0 -102.069366,41.090855,0 -102.0693748,41.0911097,0 
				</coordinates>
			</LineString>
		<atom:link rel="app" href="https://www.google.com/earth/about/versions/#earth-pro" title="Google Earth Pro 7.3.6.10201"></atom:link>
	</Placemark>
</Document>
</kml>
