<?xml version="1.0" encoding="UTF-8"?>
<kml xmlns="http://www.opengis.net/kml/2.2" xmlns:gx="http://www.google.com/kml/ext/2.2" xmlns:kml="http://www.opengis.net/kml/2.2" xmlns:atom="http://www.w3.org/2005/Atom">
<Document>
	<name>US.201A.kml</name>
	<Placemark>
		<name>US.201A</name>
		<LineString>
			<coordinates>
				-69.717163,44.762443,0 -69.717322,44.762386,0 -69.7176348,44.7622504,0 -69.7177056,44.7622178,0 -69.71785300000001,44.76215,0 -69.71796310000001,44.7621005,0 -69.71807219999999,44.7620515,0 -69.71836500000001,44.76192,0 -69.7184278,44.7618974,0 -69.7185873,44.7618401,0 -69.71881,44.76176,0 -69.718991,44.761706,0 -69.719268,44.761631,0 -69.719371,44.761613,0 -69.71955800000001,44.761563,0 -69.71996300000001,44.761444,0 -69.720364,44.761302,0 -69.720376,44.761297,0 -69.720547,44.761224,0 -69.720811,44.7611,0 -69.72093599999999,44.761032,0 -69.721086,44.760941,0 -69.721222,44.760843,0 -69.721569,44.760629,0 -69.721745,44.76053,0 -69.721988,44.760411,0 -69.72240600000001,44.760237,0 -69.72293999999999,44.760021,0 -69.723776,44.759669,0 -69.72395400000001,44.759599,0 -69.724372,44.759398,0 -69.724788,44.75919,0 -69.726117,44.758499,0 -69.7263031,44.7584038,0 -69.72829470000001,44.7573852,0 -69.72851799999999,44.757259,0 -69.72896299999999,44.756972,0 -69.729167,44.756824,0 -69.72947600000001,44.756584,0 -69.72974809999999,44.7563577,0 -69.7309789,44.7553676,0 -69.7311947,44.7551938,0 -69.7322288,44.7543581,0 -69.7324813,44.7541413,0 -69.73262510000001,44.7540019,0 -69.73285300000001,44.753747,0 -69.73368499999999,44.752703,0 -69.7337357,44.7526396,0 -69.733954,44.752367,0 -69.73415199999999,44.75213,0 -69.734319,44.75195,0 -69.734495,44.751775,0 -69.734679,44.751607,0 -69.734874,44.751443,0 -69.735077,44.751287,0 -69.735287,44.751141,0 -69.735505,44.751002,0 -69.735731,44.750867,0 -69.735964,44.750736,0 -69.73637960000001,44.7505186,0 -69.736442,44.750486,0 -69.737083,44.750167,0 -69.737487,44.749957,0 -69.737798,44.749786,0 -69.737948,44.749695,0 -69.738168,44.74955,0 -69.738377,44.749399,0 -69.73857700000001,44.749244,0 -69.738769,44.749083,0 -69.73895400000001,44.748918,0 -69.739131,44.748746,0 -69.7396675,44.7481972,0 -69.7400816,44.7477737,0 -69.74066000000001,44.747182,0 -69.740844,44.747012,0 -69.741004,44.746841,0 -69.74117699999999,44.746675,0 -69.74133500000001,44.746505,0 -69.741507,44.746335,0 -69.742051,44.745835,0 -69.742436,44.745516,0 -69.742846,44.745208,0 -69.74287080000001,44.7451898,0 -69.743875,44.744453,0 -69.74396900000001,44.7443853,0 -69.745119,44.743558,0 -69.74554000000001,44.743263,0 -69.74572499999999,44.743144,0 -69.745822,44.743084,0 -69.74597900000001,44.742988,0 -69.74621,44.742857,0 -69.74644600000001,44.742734,0 -69.746692,44.742621,0 -69.746939,44.742514,0 -69.747196,44.742411,0 -69.74737,44.742347,0 -69.74744699999999,44.742312,0 -69.747891,44.742168,0 -69.747983,44.742135,0 -69.748153,44.742074,0 -69.748518,44.74195,0 -69.748763,44.741859,0 -69.749038,44.741764,0 -69.749477,44.741577,0 -69.749726,44.741459,0 -69.74996400000001,44.741335,0 -69.75019399999999,44.741208,0 -69.750626,44.740943,0 -69.75103300000001,44.740702,0 -69.751465,44.740428,0 -69.75155100000001,44.740385,0 -69.752002,44.740107,0 -69.75234,44.73993,0 -69.752577,44.739811,0 -69.752809,44.739685,0 -69.752972,44.739605,0 -69.75330200000001,44.739456,0 -69.75363900000001,44.739315,0 -69.753984,44.739183,0 -69.754797,44.738897,0 -69.75540700000001,44.738673,0 -69.75567700000001,44.738586,0 -69.75636900000001,44.738326,0 -69.75670700000001,44.73818,0 -69.756725,44.738171,0 -69.757037,44.738016,0 -69.757204,44.737939,0 -69.757795,44.737571,0 -69.757936,44.737475,0 -69.75816500000001,44.737307,0 -69.758207,44.737276,0 -69.75833799999999,44.73717,0 -69.758926,44.736652,0 -69.759704,44.735966,0 -69.760813,44.734976,0 -69.76137,44.734487,0 -69.76156400000001,44.73433,0 -69.761764,44.734178,0 -69.76197500000001,44.734029,0 -69.76261700000001,44.733599,0 -69.7631482,44.7332483,0 -69.764133,44.732598,0 -69.76478,44.732163,0 -69.765782,44.731497,0 -69.766507,44.731015,0 -69.766716,44.730869,0 -69.76694000000001,44.730725,0 -69.767155,44.730578,0 -69.76744100000001,44.730391,0 -69.76751400000001,44.730343,0 -69.7676996,44.7302169,0 -69.76787899999999,44.730095,0 -69.768669,44.72957,0 -69.76954499999999,44.729004,0 -69.769702,44.728916,0 -69.77013100000001,44.728632,0 -69.770982,44.728098,0 -69.771103,44.728022,0 -69.77146689999999,44.7277933,0 -69.771759,44.727612,0 -69.77265300000001,44.727063,0 -69.77311,44.726804,0 -69.77358,44.726549,0 -69.77478000000001,44.725922,0 -69.77525799999999,44.725685,0 -69.7762606,44.7251663,0 -69.776926,44.724822,0 -69.77763,44.724451,0 -69.77785900000001,44.724324,0 -69.778572,44.723951,0 -69.778932,44.723748,0 -69.779428,44.723514,0 -69.78086500000001,44.722754,0 -69.781328,44.7225,0 -69.781554,44.722365,0 -69.781772,44.722221,0 -69.78219300000001,44.721914,0 -69.78238399999999,44.721753,0 -69.78255799999999,44.721584,0 -69.78292500000001,44.721254,0 -69.78312200000001,44.721096,0 -69.783306,44.720933,0 -69.78351000000001,44.720786,0 -69.783939,44.720507,0 -69.784823,44.719943,0 -69.78504100000001,44.719795,0 -69.78525399999999,44.719641,0 -69.78545099999999,44.719482,0 -69.78563699999999,44.719318,0 -69.78581,44.719146,0 -69.78597000000001,44.718969,0 -69.786115,44.718784,0 -69.786248,44.7186,0 -69.786362,44.718409,0 -69.78840099999999,44.715377,0 -69.788521,44.715189,0 -69.788668,44.714937,0 -69.78877300000001,44.714689,0 -69.78881800000001,44.71433,0 -69.78881699999999,44.714186,0 -69.788787,44.713908,0 -69.788718,44.713554,0 -69.788686,44.713148,0 -69.788747,44.712906,0 -69.789136,44.712951,0 -69.789517,44.71297,0 -69.7897062,44.7129761,0 -69.78997099999999,44.712991,0 -69.78998,44.712992,0 -69.79125500000001,44.713062,0 -69.79133400000001,44.713066,0 -69.792092,44.713103,0 -69.792469,44.713127,0 -69.793505,44.713226,0 -69.7949603,44.7133912,0 -69.79547100000001,44.713449,0 -69.796249,44.713524,0 -69.796458,44.713548,0 -69.796622,44.713571,0 -69.796807,44.713606,0 -69.7968927,44.7136789,0 -69.7969567,44.713762,0 -69.7969969,44.7138478,0 -69.7970576,44.7139713,0 -69.79712480000001,44.7141185,0 -69.7971397,44.7142191,0 -69.79716089999999,44.7144442,0 -69.7971697,44.7149228,0 -69.79719179999999,44.7152658,0 -69.7971902,44.7154582,0 -69.7972742,44.7162364,0 -69.7975064,44.7177948,0 -69.7975112,44.7178252,0 -69.79752550000001,44.7179147,0 -69.7975331,44.7179625,0 -69.797551,44.7180758,0 -69.7975656,44.718168,0 -69.7975879,44.7183085,0 -69.79764590000001,44.7187038,0 -69.7977114,44.71922,0 -69.79775189999999,44.7194343,0 -69.7978299,44.719707,0 -69.7979145,44.7199556,0 -69.7979519,44.7200422,0 -69.7979902,44.720131,0 -69.798095,44.720342,0 -69.7982615,44.720607,0 -69.7984357,44.7208594,0 -69.798625,44.7210821,0 -69.7989,44.721391,0 -69.799149,44.721619,0 -69.7993651,44.7217856,0 -69.7994748,44.7218811,0 -69.799823,44.722088,0 -69.80005,44.722217,0 -69.800201,44.722308,0 -69.80036,44.722388,0 -69.8006,44.722501,0 -69.800764,44.722571,0 -69.800938,44.72263,0 -69.801193,44.722723,0 -69.801455,44.72281,0 -69.802333,44.72309,0 -69.802685,44.72321,0 -69.803566,44.723483,0 -69.80418640000001,44.723696,0 -69.804799,44.723879,0 -69.805243,44.724031,0 -69.80665999999999,44.724484,0 -69.80710000000001,44.724618,0 -69.8078,44.724848,0 -69.808187,44.724963,0 -69.808756,44.725192,0 -69.808998,44.7253,0 -69.80923799999999,44.725413,0 -69.80958099999999,44.725583,0 -69.809629,44.725606,0 -69.80985200000001,44.725731,0 -69.810069,44.725864,0 -69.81029100000001,44.725994,0 -69.810503,44.726129,0 -69.81070699999999,44.726266,0 -69.81111,44.726554,0 -69.81150100000001,44.726879,0 -69.8117,44.727038,0 -69.812529,44.727741,0 -69.81261499999999,44.727814,0 -69.812805,44.727957,0 -69.813293,44.728383,0 -69.81332399999999,44.72841,0 -69.81392700000001,44.728917,0 -69.81422999999999,44.729171,0 -69.81441100000001,44.729328,0 -69.81459599999999,44.729476,0 -69.8155537,44.7303577,0 -69.81621800000001,44.730843,0 -69.816391,44.730998,0 -69.81657300000001,44.731142,0 -69.81727600000001,44.731738,0 -69.817452,44.731893,0 -69.819755,44.733838,0 -69.8201662,44.7341805,0 -69.820491,44.734468,0 -69.821178,44.735034,0 -69.82135700000001,44.735194,0 -69.82311799999999,44.736685,0 -69.823303,44.736828,0 -69.823986,44.737438,0 -69.824322,44.737748,0 -69.82478999999999,44.738217,0 -69.825231,44.738705,0 -69.826106,44.739693,0 -69.826245,44.739862,0 -69.826397,44.740022,0 -69.826536,44.740191,0 -69.827105,44.740846,0 -69.827247,44.740999,0 -69.829221,44.743253,0 -69.82965,44.743719,0 -69.829819,44.74389,0 -69.830107,44.744182,0 -69.830579,44.744638,0 -69.830741,44.744789,0 -69.83126300000001,44.745242,0 -69.831625,44.74554,0 -69.831999,44.745834,0 -69.832199,44.745973,0 -69.83238799999999,44.746126,0 -69.83259099999999,44.746262,0 -69.832983,44.74655,0 -69.833372,44.746847,0 -69.834048,44.747335,0 -69.834259,44.747479,0 -69.834464,44.747629,0 -69.83466199999999,44.747785,0 -69.835483,44.748375,0 -69.83567499999999,44.748527,0 -69.836958,44.749462,0 -69.8376899,44.7499826,0 -69.8385713,44.7506211,0 -69.83950299999999,44.751326,0 -69.840267,44.751872,0 -69.8409614,44.7523595,0 -69.841539,44.752765,0 -69.842742,44.753518,0 -69.844117,44.7542781,0 -69.84660599999999,44.755448,0 -69.85299999999999,44.757889,0 -69.855486,44.759006,0 -69.85678299999999,44.759676,0 -69.85804400000001,44.760409,0 -69.86672900000001,44.765627,0 -69.86714499999999,44.765881,0 -69.86853000000001,44.7667,0 -69.870912,44.768138,0 -69.87453240000001,44.7703461,0 -69.87565499999999,44.771181,0 -69.877022,44.772359,0 -69.878488,44.773961,0 -69.88397399999999,44.781905,0 -69.884186,44.782353,0 -69.884291,44.782741,0 -69.88432400000001,44.782951,0 -69.884351,44.783498,0 -69.884248,44.784045,0 -69.883517,44.786357,0 -69.88304909999999,44.7877371,0 -69.882786,44.7884347,0 -69.8824271,44.7896316,0 -69.88168109999999,44.7920666,0 -69.8816523,44.7923456,0 -69.8813847,44.7930892,0 -69.88125429999999,44.7934834,0 -69.8809478,44.7942477,0 -69.88090080000001,44.7943487,0 -69.880869,44.7944409,0 -69.88068370000001,44.7949284,0 -69.88053960000001,44.7953467,0 -69.8803769,44.7957822,0 -69.8802601,44.7961805,0 -69.8801148,44.7966479,0 -69.8800248,44.796933,0 -69.879758,44.797714,0 -69.88014800000001,44.797725,0 -69.88237599999999,44.79791,0 -69.8824415,44.7979156,0 -69.8835811,44.7980259,0 -69.8846322,44.7980999,0 -69.8847648,44.7981092,0 -69.8850659,44.7981465,0 -69.885874,44.798214,0 -69.8860763,44.7982396,0 -69.886349,44.798274,0 -69.88662170000001,44.7982929,0 -69.8870689,44.7983542,0 -69.887227,44.798384,0 -69.887531,44.7985066,0 -69.88893469999999,44.7992904,0 -69.889076,44.799365,0 -69.88887,44.799678,0 -69.888808,44.79974,0 -69.88869099999999,44.799883,0 -69.888419,44.800215,0 -69.88833099999999,44.800335,0 -69.88811,44.800715,0 -69.888041,44.800843,0 -69.887927,44.801099,0 -69.887783,44.801358,0 -69.8876819,44.8015798,0 -69.8876042,44.8017157,0 -69.8875209,44.8018818,0 -69.88746690000001,44.8020269,0 -69.8874259,44.802169,0 -69.887411,44.802336,0 -69.887416,44.802402,0 -69.887451,44.802534,0 -69.887483,44.802597,0 -69.88752700000001,44.802653,0 -69.88760499999999,44.80277,0 -69.88768899999999,44.802884,0 -69.888059,44.803334,0 -69.88846100000001,44.803786,0 -69.888554,44.803905,0 -69.888746,44.804134,0 -69.888976,44.804424,0 -69.889025,44.804472,0 -69.889233,44.804849,0 -69.88950699999999,44.805471,0 -69.88964900000001,44.805773,0 -69.889782,44.806073,0 -69.889867,44.80625,0 -69.889959,44.806427,0 -69.890056,44.8066,0 -69.890258,44.806938,0 -69.89047600000001,44.807266,0 -69.89064399999999,44.807486,0 -69.891086,44.808028,0 -69.891475,44.808522,0 -69.891515,44.808584,0 -69.891829,44.808973,0 -69.892071,44.809241,0 -69.89233900000001,44.80951,0 -69.892572,44.809798,0 -69.89279000000001,44.810086,0 -69.89286,44.810211,0 -69.892916,44.810338,0 -69.892962,44.810464,0 -69.89304199999999,44.810888,0 -69.893044,44.810978,0 -69.89302499999999,44.811234,0 -69.89301,44.81136,0 -69.89297500000001,44.811551,0 -69.892746,44.81241,0 -69.892661,44.812652,0 -69.892611,44.812775,0 -69.892492,44.813002,0 -69.892425,44.813119,0 -69.89239499999999,44.813165,0 -69.89224,44.8134,0 -69.8919624,44.8137565,0 -69.891901,44.813828,0 -69.8918,44.813934,0 -69.891718,44.814041,0 -69.89153,44.814248,0 -69.891428,44.814345,0 -69.89121,44.814531,0 -69.89086500000001,44.81479,0 -69.89061599999999,44.81496,0 -69.89035699999999,44.815125,0 -69.890091,44.815279,0 -69.88968199999999,44.815486,0 -69.88954,44.815551,0 -69.889252,44.815671,0 -69.88850499999999,44.81594,0 -69.887747,44.816201,0 -69.887287,44.81635,0 -69.886518,44.81661,0 -69.886139,44.816742,0 -69.885744,44.81687,0 -69.884968,44.81714,0 -69.884179,44.817399,0 -69.88377800000001,44.817513,0 -69.883371,44.817619,0 -69.882964,44.817717,0 -69.882548,44.817812,0 -69.882065,44.817912,0 -69.881732,44.81798,0 -69.881317,44.818054,0 -69.880511,44.818214,0 -69.88011,44.81829,0 -69.87971,44.818378,0 -69.87955100000001,44.818418,0 -69.879239,44.818514,0 -69.878947,44.818623,0 -69.878803,44.818683,0 -69.87853,44.818813,0 -69.87840300000001,44.818883,0 -69.878286,44.818967,0 -69.87816599999999,44.819044,0 -69.878038,44.819119,0 -69.87781699999999,44.819293,0 -69.877612,44.819479,0 -69.877422,44.819678,0 -69.877335,44.81978,0 -69.87718099999999,44.819993,0 -69.877089,44.820135,0 -69.877044,44.820211,0 -69.876963,44.820378,0 -69.876907,44.820509,0 -69.876874,44.820606,0 -69.876846,44.820716,0 -69.876768,44.820944,0 -69.87658500000001,44.821642,0 -69.876352,44.822455,0 -69.87617899999999,44.8230486,0 -69.875856,44.824309,0 -69.875806,44.824599,0 -69.87576799999999,44.824898,0 -69.875738,44.825201,0 -69.875716,44.825803,0 -69.875719,44.826106,0 -69.875731,44.826406,0 -69.875794,44.827013,0 -69.875846,44.827317,0 -69.87589,44.827622,0 -69.875963,44.827924,0 -69.876043,44.828224,0 -69.8761968,44.8287444,0 -69.8762705,44.8289937,0 -69.876413,44.829476,0 -69.876513,44.829772,0 -69.87671,44.830412,0 -69.876795,44.830669,0 -69.87716229999999,44.8316543,0 -69.87726600000001,44.831901,0 -69.87748310000001,44.8323659,0 -69.877534,44.832475,0 -69.87768699999999,44.832757,0 -69.87783399999999,44.833041,0 -69.87799099999999,44.83332,0 -69.878139,44.833605,0 -69.87832899999999,44.833894,0 -69.878483,44.834145,0 -69.8786032,44.8343512,0 -69.878669,44.834464,0 -69.87899899999999,44.834975,0 -69.87918000000001,44.835268,0 -69.87930369999999,44.8354541,0 -69.879368,44.835551,0 -69.879537,44.835842,0 -69.879873,44.836377,0 -69.8802204,44.8369381,0 -69.880702,44.837716,0 -69.881029,44.838272,0 -69.881197,44.838539,0 -69.88135,44.838812,0 -69.881681,44.839348,0 -69.8817389,44.8394491,0 -69.881835,44.839617,0 -69.882158,44.840159,0 -69.882334,44.840432,0 -69.882537,44.840716,0 -69.882818,44.841088,0 -69.88289899999999,44.841168,0 -69.883173,44.841469,0 -69.883675,44.841972,0 -69.88444800000001,44.842725,0 -69.88582510000001,44.8440701,0 -69.88669400000001,44.844961,0 -69.887666,44.84593,0 -69.888209,44.846465,0 -69.888727,44.84696,0 -69.88898399999999,44.847198,0 -69.889515,44.847657,0 -69.88978299999999,44.847883,0 -69.890332,44.848319,0 -69.890601,44.848542,0 -69.890877,44.848749,0 -69.891316,44.8491,0 -69.891531,44.849283,0 -69.891699,44.84941,0 -69.89184899999999,44.849552,0 -69.89200700000001,44.849684,0 -69.892157,44.849826,0 -69.892444,44.850119,0 -69.892577,44.850268,0 -69.893506,44.851431,0 -69.89370099999999,44.851692,0 -69.893924,44.851962,0 -69.8943033,44.8523652,0 -69.894588,44.852649,0 -69.89479900000001,44.852824,0 -69.8958784,44.8538735,0 -69.89622989999999,44.8542094,0 -69.8963636,44.8543141,0 -69.896658,44.854544,0 -69.89676300000001,44.854642,0 -69.8968619,44.8547519,0 -69.89692700000001,44.854881,0 -69.897003,44.85508,0 -69.897023,44.855148,0 -69.897059,44.8553324,0 -69.897087,44.855483,0 -69.897125,44.855683,0 -69.89715,44.855885,0 -69.89715,44.856054,0 -69.89712400000001,44.856225,0 -69.896975,44.8566441,0 -69.89648099999999,44.857824,0 -69.89643100000001,44.857942,0 -69.896372,44.858072,0 -69.896311,44.858192,0 -69.896173,44.858382,0 -69.896013,44.858556,0 -69.895841,44.858723,0 -69.895737,44.8588082,0 -69.895651,44.858875,0 -69.894643,44.859608,0 -69.894034,44.86003,0 -69.89364500000001,44.860247,0 -69.893475,44.860312,0 -69.893224,44.860389,0 -69.892961,44.860448,0 -69.892698,44.86049,0 -69.891902,44.860595,0 -69.8911923,44.8606839,0 -69.8904059,44.8607765,0 -69.88981219999999,44.8608463,0 -69.889501,44.860896,0 -69.889219,44.860933,0 -69.88712599999999,44.86121,0 -69.88542700000001,44.861434,0 -69.883967,44.861629,0 -69.880332,44.862093,0 -69.87955959999999,44.8621908,0 -69.879471,44.862202,0 -69.87834700000001,44.862372,0 -69.877837,44.862503,0 -69.87530409999999,44.8634753,0 -69.874347,44.8638877,0 -69.87336999999999,44.86438,0 -69.870772,44.866078,0 -69.870395,44.866388,0 -69.86988599999999,44.866929,0 -69.86963,44.867711,0 -69.86957700000001,44.869705,0 -69.86925599999999,44.871819,0 -69.868641,44.874531,0 -69.868506,44.874887,0 -69.8680683,44.8755985,0 -69.867529,44.876384,0 -69.86738,44.876737,0 -69.867311,44.877102,0 -69.86741499999999,44.877643,0 -69.868156,44.879928,0 -69.8683475,44.8811393,0 -69.868691,44.8832383,0 -69.868712,44.883617,0 -69.868646,44.884157,0 -69.868182,44.885414,0 -69.8681115,44.8856019,0 -69.867349,44.887635,0 -69.867278,44.887809,0 -69.867187,44.887981,0 -69.86706599999999,44.888147,0 -69.86692499999999,44.888302,0 -69.86599,44.889169,0 -69.865844,44.889317,0 -69.865711,44.889464,0 -69.86558599999999,44.88962,0 -69.865471,44.889779,0 -69.865368,44.889941,0 -69.865302,44.890062,0 -69.86527700000001,44.890109,0 -69.865202,44.890284,0 -69.865139,44.89046,0 -69.865049,44.890817,0 -69.86495499999999,44.891356,0 -69.864786,44.892434,0 -69.864741,44.8928,0 -69.86466799999999,44.893531,0 -69.86465099999999,44.893902,0 -69.864643,44.894271,0 -69.864645,44.89463,0 -69.864676,44.895368,0 -69.86470300000001,44.895738,0 -69.864743,44.896107,0 -69.864822,44.896483,0 -69.86484900000001,44.896675,0 -69.8650016,44.8973742,0 -69.8650157,44.8974387,0 -69.86511400000001,44.897863,0 -69.865388,44.899189,0 -69.865478,44.899557,0 -69.865587,44.899917,0 -69.865645,44.900092,0 -69.866045,44.901143,0 -69.866848,44.903232,0 -69.86689699999999,44.903412,0 -69.866924,44.903596,0 -69.866922,44.90378,0 -69.866855,44.904143,0 -69.866619,44.905167,0 -69.86659210000001,44.9053189,0 -69.866517,44.905743,0 -69.866325,44.906653,0 -69.866259,44.907009,0 -69.866204,44.907366,0 -69.86618300000001,44.907543,0 -69.866158,44.907901,0 -69.866162,44.908259,0 -69.86618799999999,44.908616,0 -69.866237,44.908971,0 -69.8663327,44.9095196,0 -69.8663375,44.909547,0 -69.866517,44.910576,0 -69.86661700000001,44.911114,0 -69.8669933,44.9133146,0 -69.8671028,44.9139553,0 -69.8671904,44.9144884,0 -69.867265,44.914853,0 -69.867575,44.916603,0 -69.867681,44.917122,0 -69.867769,44.91766,0 -69.86789,44.918337,0 -69.86795499999999,44.918671,0 -69.86810800000001,44.919518,0 -69.86818599999999,44.920099,0 -69.86824900000001,44.920681,0 -69.868312,44.92146,0 -69.86832560000001,44.9217764,0 -69.868312,44.921853,0 -69.868228,44.923023,0 -69.8681555,44.9237002,0 -69.86812399999999,44.923998,0 -69.868071,44.924383,0 -69.868028,44.924576,0 -69.867876,44.925133,0 -69.86739300000001,44.926834,0 -69.867248,44.927409,0 -69.866985,44.928377,0 -69.86688100000001,44.928736,0 -69.86685799999999,44.928815,0 -69.866823,44.929009,0 -69.866725,44.929728,0 -69.86671800000001,44.930003,0 -69.86675700000001,44.930537,0 -69.866861,44.931276,0 -69.866919,44.931646,0 -69.867052,44.9324,0 -69.867091,44.932591,0 -69.867142,44.932781,0 -69.86721799999999,44.932961,0 -69.867313,44.933135,0 -69.86743199999999,44.933307,0 -69.86797300000001,44.933996,0 -69.868239,44.934335,0 -69.86890219999999,44.9351193,0 -69.869523,44.935855,0 -69.870143,44.936526,0 -69.87043799999999,44.936876,0 -69.870577,44.937068,0 -69.870683,44.937245,0 -69.87081499999999,44.937488,0 -69.8704611,44.9375572,0 -69.86877079999999,44.937962,0 -69.868544,44.938032,0 -69.867891,44.938184,0 -69.867852,44.938193,0 -69.867554,44.938269,0 -69.86727399999999,44.938356,0 -69.867026,44.938443,0 -69.866793,44.938554,0 -69.866585,44.938683,0 -69.866412,44.938832,0 -69.86626099999999,44.938992,0 -69.866139,44.939161,0 -69.866033,44.939336,0 -69.86586200000001,44.939696,0 -69.865313,44.940958,0 -69.865296,44.940999,0 -69.865166,44.941311,0 -69.865032,44.94166,0 -69.86481999999999,44.94219,0 -69.86462299999999,44.94272,0 -69.864572,44.942898,0 -69.86453299999999,44.943075,0 -69.86450600000001,44.943255,0 -69.86450000000001,44.943435,0 -69.864513,44.943614,0 -69.864536,44.943796,0 -69.864608,44.94416,0 -69.864693,44.944525,0 -69.864767,44.944893,0 -69.864818,44.945261,0 -69.864836,44.945632,0 -69.86481000000001,44.946001,0 -69.864744,44.946375,0 -69.864632,44.946747,0 -69.864451,44.947106,0 -69.864186,44.947438,0 -69.863962,44.947635,0 -69.863844,44.947739,0 -69.86364399999999,44.947873,0 -69.863439,44.947976,0 -69.86174099999999,44.9487985,0 -69.8615313,44.9489197,0 -69.86133700000001,44.949032,0 -69.860867,44.949278,0 -69.860377,44.949516,0 -69.86018300000001,44.949594,0 -69.85983400000001,44.949713,0 
			</coordinates>
		</LineString>
		<atom:link rel="app" href="https://www.google.com/earth/about/versions/#earth-pro" title="Google Earth Pro 7.3.6.10201"></atom:link>
	</Placemark>
</Document>
</kml>
