<?xml version="1.0" encoding="UTF-8"?>
<kml xmlns="http://www.opengis.net/kml/2.2" xmlns:gx="http://www.google.com/kml/ext/2.2" xmlns:kml="http://www.opengis.net/kml/2.2" xmlns:atom="http://www.w3.org/2005/Atom">
<Placemark>
	<name>US.266</name>
	<LineString>
		<coordinates>
			-95.96271510000001,35.4582144,0 -95.9625109,35.458241,0 -95.96207059999999,35.4582983,0 -95.96193100000002,35.458316,0 -95.96145830000002,35.4583709,0 -95.9611835,35.4583774,0 -95.960955,35.4583827,0 -95.9594675,35.4583921,0 -95.9579789,35.4583928,0 -95.9550871,35.4583921,0 -95.95475860000002,35.458389,0 -95.95440999999998,35.4583934,0 -95.95405880000001,35.4583857,0 -95.9534407,35.4583871,0 -95.95215949999999,35.4583827,0 -95.9506975,35.4583744,0 -95.9501211,35.4583912,0 -95.94772339999999,35.4583764,0 -95.94622270000001,35.4582448,0 -95.9456607,35.4582405,0 -95.9446446,35.4582583,0 -95.9434555,35.4582637,0 -95.94219969999999,35.4582728,0 -95.9409967,35.4582715,0 -95.9402523,35.4582771,0 -95.9397599,35.4582808,0 -95.9385468,35.4582937,0 -95.9373272,35.4582995,0 -95.93710590000002,35.4583009,0 -95.93687610000001,35.4583023,0 -95.93621090000001,35.4583165,0 -95.9355099,35.4583145,0 -95.93487340000001,35.4583201,0 -95.93452569999999,35.458321,0 -95.933009,35.4583285,0 -95.93228540000001,35.4583312,0 -95.9319957,35.4583323,0 -95.9316364,35.4583551,0 -95.93137659999999,35.458385,0 -95.93112929999999,35.458425,0 -95.9307608,35.4584992,0 -95.9305097,35.4585659,0 -95.93028049999998,35.4586326,0 -95.9301947,35.458664,0 -95.92997090000001,35.4587459,0 -95.92962849999999,35.4588925,0 -95.9291406,35.4591244,0 -95.92856639999999,35.459403,0 -95.9277697,35.4597868,0 -95.92736679999999,35.4599749,0 -95.92708829999999,35.4601065,0 -95.9268611,35.4602392,0 -95.9265793,35.4604409,0 -95.9263155,35.460661,0 -95.9261832,35.4607962,0 -95.92607790000001,35.4609131,0 -95.92589780000002,35.4611384,0 -95.9256723,35.4614902,0 -95.9251031,35.4623295,0 -95.9248465,35.4626104,0 -95.92449379999999,35.4629495,0 -95.92399770000002,35.4633996,0 -95.9231238,35.4641925,0 -95.922625,35.4645575,0 -95.921897,35.4648979,0 -95.92181840000001,35.4649347,0 -95.92145120000001,35.4650785,0 -95.9201116,35.4656033,0 -95.91889910000002,35.4660653,0 -95.9180329,35.4664016,0 -95.9173686,35.4666594,0 -95.91574860000001,35.4672771,0 -95.91555000000001,35.4673541,0 -95.91514989999999,35.4675094,0 -95.9142119,35.4678707,0 -95.9130237,35.4683317,0 -95.91192640000001,35.46874,0 -95.91132260000001,35.4689352,0 -95.91087869999998,35.4690586,0 -95.91008690000001,35.469245,0 -95.909156,35.4693967,0 -95.90901790000001,35.4694139,0 -95.9084916,35.469467,0 -95.908033,35.4695109,0 -95.906554,35.4696561,0 -95.9052102,35.4697725,0 -95.90430269999999,35.4698549,0 -95.90345739999999,35.4699753,0 -95.90300360000001,35.4700635,0 -95.90254120000002,35.4701695,0 -95.9018102,35.4703647,0 -95.901031,35.4706163,0 -95.9001521,35.4709516,0 -95.8994604,35.4712242,0 -95.8983475,35.4717203,0 -95.8981739,35.4717959,0 -95.89729989999999,35.4721766,0 -95.8966959,35.4724461,0 -95.8956424,35.4729087,0 -95.8931414,35.4739702,0 -95.8884659,35.4760123,0 -95.88733860000002,35.4766383,0 -95.88602950000002,35.4775563,0 -95.88543070000001,35.4780362,0 -95.88463659999999,35.4786542,0 -95.88329809999999,35.4798266,0 -95.88274350000002,35.4803279,0 -95.88197700000001,35.4809524,0 -95.8804203,35.4822694,0 -95.8796598,35.4828838,0 -95.8788631,35.4835736,0 -95.87834719999999,35.4840944,0 -95.877594,35.4850452,0 -95.8754715,35.4879353,0 -95.8753622,35.4880877,0 -95.87523210000001,35.4882691,0 -95.8739329,35.490003,0 -95.87345879999999,35.4906478,0 -95.8720242,35.4926363,0 -95.87181200000001,35.4929322,0 -95.8716647,35.493115,0 -95.8711101,35.4938851,0 -95.86976679999999,35.4957119,0 -95.8695611,35.4959824,0 -95.8679923,35.4981393,0 -95.86688599999999,35.4996614,0 -95.86658059999999,35.5000707,0 -95.8663609,35.5003515,0 -95.8656689,35.5012848,0 -95.8654018,35.5016634,0 -95.86447949999999,35.5029477,0 -95.86434439999998,35.503155,0 -95.863384,35.504456,0 -95.862308,35.505866,0 -95.861949,35.506211,0 -95.8614467,35.5065903,0 -95.8608215,35.5068874,0 -95.8604484,35.5069837,0 -95.86023419999999,35.5070312,0 -95.86002840000002,35.5070777,0 -95.8596759,35.5071278,0 -95.85924369999999,35.5071538,0 -95.8580504,35.5071591,0 -95.85748599999998,35.507167,0 -95.85682300000001,35.507165,0 -95.854553,35.507149,0 -95.84548100000001,35.507174,0 -95.84491800000001,35.507175,0 -95.84320800000002,35.507181,0 -95.84029770000001,35.5071824,0 -95.835821,35.507218,0 -95.83455170000002,35.507218,0 -95.8343077,35.507218,0 -95.82896250000002,35.5072099,0 -95.82252099999999,35.507242,0 -95.82157100000001,35.507225,0 -95.819958,35.507221,0 -95.819039,35.507219,0 -95.81758800000001,35.507229,0 -95.81539100000001,35.507241,0 -95.813614,35.507248,0 -95.81248700000002,35.507247,0 -95.81102200000001,35.507258,0 -95.81015099999999,35.507264,0 -95.809307,35.50727,0 -95.80608500000001,35.507278,0 -95.8047097,35.5072842,0 -95.80287300000001,35.507283,0 -95.79931500000001,35.507303,0 -95.797684,35.507306,0 -95.79591799999999,35.507309,0 -95.793869,35.507317,0 -95.79328200000002,35.507317,0 -95.792607,35.507319,0 -95.79046200000001,35.50734,0 -95.78977300000001,35.507347,0 -95.786986,35.507359,0 -95.78503099999999,35.507348,0 -95.78355999999999,35.50734,0 -95.78146649999999,35.5073375,0 -95.78063899999999,35.5073399,0 -95.7788113,35.5073477,0 -95.77664799999999,35.507323,0 -95.77291200000001,35.507343,0 -95.769267,35.507335,0 -95.76818299999999,35.507337,0 -95.76578499999999,35.507349,0 -95.765124,35.507343,0 -95.76362199999998,35.507344,0 -95.763324,35.507337,0 -95.76068499999998,35.507372,0 -95.76051200000001,35.507375,0 -95.759252,35.50737,0 -95.75787900000002,35.507365,0 -95.751884,35.5073882,0 -95.75060899999998,35.507382,0 -95.7499727,35.5073807,0 -95.748169,35.507372,0 -95.74695400000002,35.507367,0 -95.74493,35.507379,0 -95.741812,35.507384,0 -95.73973819999999,35.5073726,0 -95.73902219999998,35.5073732,0 -95.737144,35.507359,0 -95.736345,35.507377,0 -95.7354357,35.5073716,0 -95.73435399999998,35.507372,0 -95.734129,35.507373,0 -95.733497,35.507375,0 -95.733035,35.507369,0 -95.73200199999999,35.507357,0 -95.72944099999999,35.507371,0 -95.72893800000001,35.507373,0 -95.7274479,35.5073675,0 -95.72686,35.507366,0 -95.72664500000002,35.50736,0 -95.72533100000001,35.5073605,0 -95.72321100000002,35.507361,0 -95.72305400000002,35.507362,0 -95.721574,35.507371,0 -95.72080099999999,35.507372,0 -95.72068899999999,35.507368,0 -95.71799900000001,35.507382,0 -95.71642,35.507372,0 -95.7145414,35.5073805,0 -95.7144454,35.5073832,0 -95.7143985,35.5073845,0 -95.7137724,35.50738,0 -95.71263399999999,35.507395,0 -95.7112631,35.5074,0 -95.70963370000001,35.5074023,0 -95.708196,35.5074165,0 -95.70755200000001,35.507409,0 -95.70683100000001,35.507425,0 -95.705022,35.507427,0 -95.703086,35.507446,0 -95.70278000000002,35.507448,0 -95.698581,35.507476,0 -95.697514,35.507483,0 -95.695531,35.507497,0 -95.69483700000001,35.5075,0 -95.694204,35.507508,0 -95.6925524,35.5075277,0 -95.691858,35.507536,0 -95.69036499999999,35.507548,0 -95.688817,35.507532,0 -95.68750299999999,35.50755,0 -95.68452199999999,35.507558,0 -95.68398999999999,35.507559,0 -95.68192000000001,35.507584,0 -95.680853,35.507578,0 -95.679884,35.507572,0 -95.67859199999999,35.507564,0 -95.67736799999999,35.507566,0 -95.67571,35.507575,0 -95.67528899999999,35.507577,0 -95.67304999999999,35.507563,0 -95.67188899999999,35.507572,0 -95.67170399999999,35.507574,0 -95.671049,35.507579,0 -95.670592,35.507582,0 -95.67035499999999,35.507582,0 -95.66905199999999,35.507576,0 -95.66894599999999,35.507575,0 -95.668712,35.507575,0 -95.66806099999999,35.507572,0 -95.666374,35.507554,0 -95.663853,35.507535,0 -95.66308209999998,35.507551,0 -95.66219270000001,35.507549,0 -95.65849600000001,35.507544,0 -95.657039,35.507562,0 -95.656848,35.507561,0 -95.656656,35.507561,0 -95.653876,35.507552,0 -95.650929,35.507545,0 -95.648354,35.507539,0 -95.647643,35.507533,0 -95.64533500000002,35.507515,0 -95.643879,35.507504,0 -95.641575,35.507505,0 -95.63971100000001,35.507511,0 -95.63750800000001,35.507538,0 -95.6366805,35.5075542,0 -95.6365351,35.5075518,0 -95.63599789999999,35.5074249,0 -95.63575299999999,35.5073532,0 -95.63536809999999,35.5072418,0 -95.6350985,35.5071403,0 -95.6348021,35.5070049,0 -95.6345554,35.5068783,0 -95.63437159999999,35.506768,0 -95.6341396,35.506637,0 -95.63391300000002,35.5065514,0 -95.63134770000001,35.50383,0 -95.6285463,35.500857,0 -95.6282082,35.5005164,0 -95.6211553,35.492996,0 -95.62021,35.491985,0 -95.6144089,35.4858201,0 -95.61384,35.485208,0 -95.61338069999998,35.4847352,0 -95.612632,35.4839496,0 -95.610356,35.48153,0 -95.6090865,35.4801813,0 -95.60881689999999,35.4799107,0 -95.60852589999999,35.4796407,0 -95.6082657,35.4794376,0 -95.60806719999999,35.4793087,0 -95.6077842,35.4791493,0 -95.60745970000001,35.4789833,0 -95.6071405,35.4788489,0 -95.60680120000001,35.4787332,0 -95.6063439,35.4786262,0 -95.60584679999999,35.4785324,0 -95.60542030000001,35.4784998,0 -95.6050157,35.47848,0 -95.60474119999999,35.4784816,0 -95.60315989999999,35.4784827,0 -95.6030399,35.4784827,0 -95.60247339999999,35.4784849,0 -95.60217340000001,35.4784839,0 -95.6015163,35.4784841,0 -95.59663300000001,35.4784824,0 -95.5941144,35.4784706,0 -95.5936088,35.4784683,0 -95.592572,35.4784699,0 -95.59170619999999,35.4784654,0 -95.5915287,35.4784656,0 -95.59065699999999,35.4784666,0 -95.58912879999998,35.4784711,0 -95.5883099,35.4784768,0 -95.58714139999999,35.4784774,0 -95.58492699999999,35.4784745,0 -95.58337659999999,35.4784797,0 -95.58286500000001,35.4784833,0 -95.582443,35.4784813,0 -95.57998430000001,35.4784829,0 -95.5792184,35.4784803,0 -95.57915280000002,35.4784799,0 -95.57640259999999,35.4784766,0 -95.57525579999999,35.4784667,0 -95.57482269999998,35.4784689,0 -95.57115469999999,35.4784852,0 -95.57068580000001,35.4784861,0 -95.5700717,35.4784891,0 -95.5677306,35.4784796,0 -95.56599399999999,35.4784711,0 -95.56507619999999,35.4784564,0 -95.5637018,35.4784678,0 -95.55716870000001,35.4784645,0 -95.55484960000001,35.4784748,0 -95.5544471,35.4784781,0 -95.55263119999999,35.4784892,0 -95.55203849999999,35.4784928,0 -95.55113059999999,35.4784984,0 -95.550499,35.4785022,0 -95.5491013,35.4785081,0 -95.5481822,35.4785167,0 -95.5480199,35.4785171,0 -95.5463769,35.4785269,0 -95.54593199999999,35.4785287,0 -95.54526759999999,35.4785369,0 -95.54502410000001,35.4785407,0 -95.5436682,35.4785488,0 -95.54337769999999,35.4785509,0 -95.5428256,35.4785506,0 -95.542565,35.4785333,0 -95.54233299999999,35.4785049,0 -95.5420862,35.4784656,0 -95.5418488,35.4784285,0 -95.5416477,35.4783793,0 -95.54128959999998,35.4782778,0 -95.54117960000001,35.4782428,0 -95.54098650000002,35.4781718,0 -95.5407733,35.4780801,0 -95.5405815,35.4779796,0 -95.54041119999999,35.477889,0 -95.54007379999999,35.4777004,0 -95.53908110000002,35.4770265,0 -95.5388032,35.4768272,0 -95.5384493,35.4765955,0 -95.53810470000001,35.4763982,0 -95.53786760000001,35.4762495,0 -95.53742680000001,35.4759625,0 -95.5372402,35.4758435,0 -95.53706439999999,35.4757314,0 -95.5369522,35.4755507,0 -95.5359708,35.4748766,0 -95.53558719999999,35.4746061,0 -95.5355636,35.4745894,0 -95.5353357,35.4745256,0 -95.53520570000001,35.4744315,0 -95.53494780000001,35.4742448,0 -95.5345629,35.4739637,0 -95.53399880000001,35.4735661,0 -95.53391160000001,35.473496,0 -95.5335642,35.4732526,0 -95.53338909999999,35.4731232,0 -95.53320769999999,35.4729753,0 -95.53306859999999,35.4728498,0 -95.53283659999998,35.4726772,0 -95.53270120000002,35.4725953,0 -95.5323793,35.4724129,0 -95.5322257,35.4723254,0 -95.5320449,35.4722519,0 -95.53192999999999,35.472212,0 -95.53165699999998,35.4721175,0 -95.53154359999999,35.4720839,0 -95.5314923,35.4720683,0 -95.5313829,35.472035,0 -95.53117090000002,35.4719815,0 -95.53103249999999,35.4719463,0 -95.5307906,35.4718849,0 -95.53065349999999,35.4718547,0 -95.53059159999998,35.4718428,0 -95.5303495,35.4717964,0 -95.52992049999999,35.4717009,0 -95.52964410000001,35.4716394,0 -95.5295696,35.4716215,0 -95.52937559999999,35.4715747,0 -95.5291063,35.4715099,0 -95.5285137,35.4713674,0 -95.52801799999999,35.4712607,0 -95.5279463,35.4712371,0 -95.52787600000002,35.4712211,0 -95.5271645,35.4710596,0 -95.526454,35.4708915,0 -95.5259398,35.4707756,0 -95.52579900000001,35.4707456,0 -95.52569460000001,35.4707212,0 -95.52525869999998,35.4706193,0 -95.5251919,35.4706056,0 -95.52481949999999,35.4705212,0 -95.52475290000001,35.4705058,0 -95.52463340000001,35.4704782,0 -95.5244399,35.4704334,0 -95.5240895,35.4703523,0 -95.5240189,35.4703366,0 -95.5236695,35.4702589,0 -95.52358340000001,35.4702397,0 -95.5231646,35.4701466,0 -95.52311880000001,35.470135,0 -95.5230297,35.4701126,0 -95.5229293,35.4700902,0 -95.52289139999999,35.4700817,0 -95.5220815,35.4698948,0 -95.52185689999999,35.469843,0 -95.5216319,35.4697789,0 -95.52121219999999,35.4696292,0 -95.52051199999998,35.469382,0 -95.5201189,35.4692614,0 -95.51918550000001,35.4690169,0 -95.5180908,35.4687204,0 -95.5168578,35.4683877,0 -95.51573210000001,35.4680901,0 -95.5146122,35.467788,0 -95.5143459,35.4677165,0 -95.51395919999999,35.4676127,0 -95.5134968,35.4674886,0 -95.51316319999999,35.4673992,0 -95.51275889999999,35.467262,0 -95.51245680000001,35.4671406,0 -95.5121561,35.4669884,0 -95.51186699999998,35.466812,0 -95.51128180000001,35.4663557,0 -95.50999309999999,35.4653049,0 -95.5097669,35.4651386,0 -95.5096154,35.4650327,0 -95.50941290000002,35.4649136,0 -95.50922509999999,35.4648055,0 -95.50890459999999,35.464658,0 -95.508674,35.464555,0 -95.5083923,35.4644549,0 -95.5080691,35.4643609,0 -95.507762,35.4642899,0 -95.50746289999999,35.4642353,0 -95.5071183,35.4641927,0 -95.50673340000002,35.4641719,0 -95.50634580000002,35.4641665,0 -95.5047015,35.4641766,0 -95.50387499999999,35.4641807,0 -95.5033656,35.4641843,0 -95.50222799999999,35.464183,0 -95.5021962,35.464182,0 -95.5008911,35.4641869,0 -95.5004265,35.4641871,0 -95.4997522,35.4642012,0 -95.49916829999999,35.4641979,0 -95.4990081,35.4642013,0 -95.49839559999998,35.4642019,0 -95.4974787,35.4642059,0 -95.49694409999999,35.4642057,0 -95.4955109,35.4642114,0 -95.49513810000001,35.4642133,0 -95.49494810000002,35.4642121,0 -95.49464380000001,35.4642142,0 -95.49386009999999,35.4642168,0 -95.4936536,35.4642175,0 -95.4885987,35.4642344,0 -95.48689279999999,35.4642478,0 -95.48330060000001,35.4642606,0 -95.4806683,35.4642734,0 -95.47872820000002,35.4642779,0 -95.47804620000001,35.4642817,0 -95.47445760000001,35.4642989,0 -95.47410210000001,35.4642953,0 -95.47038029999999,35.4643194,0 -95.46915150000001,35.464331,0 -95.46329529999998,35.4643404,0 -95.46090100000001,35.4643548,0 -95.4585191,35.4643625,0 -95.45139240000002,35.4643858,0 -95.4496479,35.4643876,0 -95.4489999,35.4643892,0 -95.4461031,35.4643764,0 -95.44480090000002,35.4643773,0 -95.44367539999999,35.4643756,0 -95.4382186,35.4643643,0 -95.4380936,35.4643646,0 -95.434337,35.4643494,0 -95.4335664,35.4643512,0 -95.43255600000002,35.4643494,0 -95.43154999999999,35.4643477,0 -95.4311999,35.4643471,0 -95.43083899999999,35.4643465,0 -95.429816,35.4643447,0 -95.42827890000001,35.464342,0 -95.4280189,35.4643415,0 -95.42688099999999,35.4643396,0 -95.4246639,35.4643357,0 -95.4240149,35.4643346,0 -95.42367189999999,35.464334,0 -95.422523,35.464332,0 -95.422428,35.4643318,0 -95.422127,35.4643313,0 -95.42182099999998,35.4643308,0 -95.421516,35.4643302,0 -95.420366,35.4643282,0 -95.41978,35.4643272,0 -95.41952100000002,35.4643268,0 -95.418511,35.464325,0 -95.41793800000001,35.464324,0 -95.41695,35.4643223,0 -95.41586270000001,35.4643204,0 -95.414441,35.464306,0 -95.413343,35.464296,0 -95.41182999999998,35.464299,0 -95.41079500000001,35.464298,0 -95.409503,35.464297,0 -95.40873999999999,35.464308,0 -95.40780400000001,35.464318,0 -95.4077099,35.4643169,0 -95.40706499999999,35.464308,0 -95.405777,35.464305,0 -95.40461899999998,35.464297,0 -95.401796,35.464303,0 -95.40063600000001,35.464309,0 -95.400265,35.464307,0 -95.39984699999999,35.464306,0 -95.3987382,35.4643033,0 -95.398054,35.464301,0 -95.396777,35.4643,0 -95.39577300000001,35.464307,0 -95.39152900000001,35.464289,0 -95.39018100000001,35.464296,0 -95.389059,35.464286,0 -95.38604600000001,35.464289,0 -95.38570799999999,35.464293,0 -95.38486899999999,35.464302,0 -95.38334999999999,35.464287,0 -95.382622,35.464286,0 -95.38230999999999,35.464286,0 -95.38031599999999,35.464289,0 -95.37995700000002,35.464286,0 -95.378647,35.464292,0 -95.377501,35.464265,0 -95.37636599999999,35.464275,0 -95.375568,35.464267,0 -95.37527440000001,35.464264,0 -95.37421899999998,35.464274,0 -95.37381499999999,35.464285,0 -95.37318500000001,35.464282,0 -95.372444,35.464278,0 -95.371405,35.464273,0 -95.37099199999999,35.464271,0 -95.36918999999999,35.464263,0 -95.368025,35.464259,0 -95.36701399999998,35.464261,0 -95.36590399999999,35.464262,0 -95.364458,35.464257,0 -95.36304500000001,35.464247,0 -95.362505,35.464247,0 -95.35971600000001,35.464251,0 -95.359431,35.464249,0 -95.35785799999999,35.464236,0 -95.356725,35.464244,0 -95.354995,35.464237,0 -95.353522,35.464229,0 -95.35254,35.464225,0 -95.350928,35.464224,0 -95.350308,35.464221,0 -95.34928600000001,35.464217,0 -95.34847499999999,35.464213,0 -95.348187,35.464206,0 -95.34775,35.464194,0 -95.34731600000001,35.464194,0 -95.34705599999999,35.464194,0 -95.34582,35.464194,0 -95.344847,35.464189,0 -95.34411,35.464177,0 -95.343346,35.464164,0 -95.342303,35.464153,0 -95.34121399999999,35.464141,0 -95.33992000000001,35.464158,0 -95.33898600000001,35.464156,0 -95.338204,35.464154,0 -95.33660399999999,35.464174,0 -95.33577399999999,35.464169,0 -95.33463399999999,35.464163,0 -95.33280600000001,35.464168,0 -95.32786900000001,35.464189,0 -95.32758200000001,35.464186,0 -95.32674500000002,35.464179,0 -95.325197,35.464192,0 -95.323999,35.464198,0 -95.32261300000002,35.464179,0 -95.32107499999999,35.464195,0 -95.32085200000002,35.464197,0 -95.31971900000001,35.4642078,0 -95.31865500000001,35.464218,0 -95.31634699999999,35.464207,0 -95.31412500000002,35.464205,0 -95.30982950000002,35.4642517,0 -95.305617,35.464247,0 -95.297234,35.464277,0 -95.295359,35.464284,0 -95.294945,35.464314,0 -95.29455400000001,35.464405,0 -95.29339830000001,35.4647717,0 -95.29321190000002,35.4648308,0 -95.2930836,35.4648715,0 -95.2933199,35.4650681,0 -95.29374920000001,35.4654186,0 -95.2944547,35.465977,0 -95.29561430000001,35.4669469,0 -95.3017103,35.4720299,0 -95.30274320000001,35.4729117,0 -95.3032745,35.4734497,0 -95.3036714,35.4738612,0 -95.3041054,35.4743335,0 -95.3047868,35.4751412,0 -95.30535450000002,35.4757985,0 -95.30646059999999,35.4773191,0 -95.3067886,35.4777829,0 -95.30692219999999,35.4779759,0 -95.3071111,35.4782557,0 -95.3073735,35.4786948,0 -95.3074919,35.4788924,0 -95.3076544,35.4791635,0 -95.30780920000001,35.4794705,0 -95.3078501,35.4795516,0 -95.30809379999999,35.4800212,0 -95.3082548,35.480355,0 -95.30857899999998,35.4810869,0 -95.3087537,35.4814661,0 -95.30900080000002,35.4821101,0 -95.30924589999999,35.4826026,0 -95.3094535,35.4832525,0 -95.3096458,35.4839764,0 -95.30983229999998,35.4847552,0 -95.309945,35.485255,0 -95.31004339999998,35.4858504,0 -95.31005999999998,35.485998,0 -95.31015400000001,35.4867012,0 -95.3102095,35.4872208,0 -95.31022480000001,35.487408,0 -95.3102418,35.4877419,0 -95.3102602,35.488069,0 -95.3102674,35.4882435,0 -95.3102749,35.4884241,0 -95.3102792,35.4895234,0 -95.3102767,35.4905588,0 -95.31027760000001,35.4907043,0 -95.31027470000001,35.4907566,0 -95.3102793,35.4913393,0 -95.31027000000002,35.4927994,0 -95.3102696,35.4929124,0 -95.31026940000001,35.4929556,0 -95.31025570000001,35.4933167,0 -95.310256,35.4936401,0 -95.31025529999999,35.4938563,0 -95.31025209999999,35.4949485,0 -95.31024859999999,35.4961121,0 -95.3102478,35.4963621,0 -95.310247,35.4966505,0 -95.31025209999999,35.4969776,0 -95.310249,35.4971897,0 -95.31023759999999,35.4978828,0 -95.3102276,35.4984954,0 -95.3102239,35.4987215,0 -95.3102209,35.4989177,0 
		</coordinates>
	</LineString>
	<atom:link rel="app" href="https://www.google.com/earth/about/versions/#earth-pro" title="Google Earth Pro 7.3.6.10201"></atom:link>
</Placemark>
</kml>
