<?xml version="1.0" encoding="UTF-8"?>
<kml xmlns="http://www.opengis.net/kml/2.2" xmlns:gx="http://www.google.com/kml/ext/2.2" xmlns:kml="http://www.opengis.net/kml/2.2" xmlns:atom="http://www.w3.org/2005/Atom">
<Document>
	<name>US.220A.NC.kml</name>
	<Placemark>
		<name>US.220A.NC</name>
		<LineString>
			<tessellate>1</tessellate>
			<coordinates>
				-79.73056637872089,35.2547576712627,0 -79.73411761664488,35.25974570512182,0 -79.73722773962945,35.26419174606016,0 -79.73785209986147,35.2653832531666,0 -79.7388932377938,35.26728260629191,0 -79.74252924218028,35.27289554461121,0 -79.74370205791682,35.27460210479098,0 -79.74443601393193,35.27578513191521,0 -79.74514086859318,35.27717301774329,0 -79.7454784962092,35.2790002751513,0 -79.74586485311616,35.28194217377388,0 -79.74600570768915,35.28309457944155,0 -79.74602128866093,35.28395213368559,0 -79.74597930025526,35.28527421210314,0 -79.74583330540942,35.28697676095531,0 -79.74563957504594,35.28918962749911,0 -79.74556806793598,35.29062639155802,0 -79.7456016946507,35.29329257571725,0 -79.74567489212836,35.29506475399779,0 -79.74562735213802,35.29926640238109,0 -79.74581796967244,35.2999762534745,0 -79.74627813655083,35.30059139532796,0 -79.74704398596398,35.30110260644144,0 -79.74831832843613,35.30151439059455,0 -79.75037318514191,35.30218639665097,0 -79.75162059630928,35.30266624911167,0 -79.75222555301191,35.30299830883128,0 -79.75253985383792,35.3033069086699,0 -79.75296702629629,35.30384636135414,0 -79.75503142882928,35.30703784274029,0 -79.75834426758186,35.31221884019683,0 -79.75921461754446,35.31371381431109,0 -79.76011513528475,35.31541644658509,0 -79.7614865377987,35.31835500442767,0 -79.76161034822056,35.32056210728145,0 -79.76176137383973,35.321532077607,0 -79.76210152372248,35.32268619637737,0 -79.76344377522116,35.32626573915677,0 -79.76438281527193,35.32842276395968,0 -79.76573417227225,35.33029571563461,0 -79.7679306716838,35.3332486882984,0 -79.76947460391494,35.33526694972136,0 -79.77067925184572,35.33643129318865,0 -79.77160951306233,35.3372468095449,0 -79.7774370890079,35.3426589313375,0 -79.7778629843644,35.34311566365734,0 -79.77838277958654,35.34394767367213,0 -79.77904428153381,35.34498101207458,0 -79.77982497976464,35.34622562130863,0 -79.78020867362964,35.34698535842577,0 -79.78061709142486,35.34812570467574,0 -79.78141085519698,35.35057107211455,0 -79.78152256044407,35.35095283900253,0 -79.78152612385038,35.35132995738356,0 -79.78140440283482,35.35193715327633,0 -79.78110697962408,35.35288175744186,0 -79.77990970907352,35.35702952855754,0 -79.77978305223785,35.35757941415504,0 -79.77975608330114,35.35883431406469,0 -79.77996820029931,35.36085188295402,0 -79.78007359952065,35.36236188780838,0 -79.78027931629293,35.3650944622871,0 -79.78025915974952,35.36623361575343,0 -79.77978626914084,35.36777667728015,0 -79.77751330325134,35.37447321215917,0 -79.77694632152146,35.37615461321074,0 -79.77678199215963,35.3772259151427,0 -79.7768933197797,35.37815561093355,0 -79.777291960434,35.37943673033215,0 -79.78217415447111,35.384994780639,0 -79.78411584174832,35.38711908356713,0 -79.7848055932607,35.38805797565823,0 -79.78533419842194,35.38923528259235,0 -79.78564832095155,35.39049983913418,0 -79.78571937839124,35.39208838898888,0 -79.78528247290227,35.3939568772384,0 -79.78433438011368,35.39673805967383,0 -79.78411558507761,35.39786115372858,0 -79.78410492361166,35.40000661361564,0 -79.78424168895478,35.40312591291554,0 -79.78462063698879,35.4056400411086,0 -79.78461483191553,35.40730771230276,0 -79.78443870121862,35.41110049117746,0 -79.78431518501809,35.41218863176409,0 -79.78373416736527,35.41410998127364,0 -79.78305729408079,35.41605946875196,0 -79.78155430307004,35.42076387840034,0 -79.78111600052533,35.42236417627498,0 -79.78127831702517,35.42434235467697,0 -79.78168882112585,35.42826552963291,0 -79.78221135699746,35.43264720773402,0 -79.78257169366923,35.43558139005294,0 -79.78276898439678,35.43645056711795,0 -79.78333372318809,35.4386818318611,0 -79.78402125925531,35.44200068001553,0 -79.78418490034339,35.44290794530636,0 -79.7841134012467,35.44370540576606,0 -79.78389084425682,35.44436538029419,0 -79.78310617365442,35.44582804602027,0 -79.78214859654022,35.44754372503252,0 -79.78187509816421,35.44816507726744,0 -79.78139415469818,35.44957768615874,0 -79.7807920882214,35.45135976748814,0 -79.77901136482042,35.45658147907121,0 -79.77681483395322,35.46283590317281,0 -79.77620469837242,35.46479331825847,0 -79.7761241788612,35.46539735072005,0 -79.77617730649344,35.46591140220059,0 -79.77698671860985,35.47070619030752,0 -79.77709345209698,35.47144650864666,0 -79.77751744810804,35.47421985095298,0 -79.77757583537885,35.47496154624556,0 -79.77754210426126,35.47725108627669,0 -79.77745279886574,35.48235792363436,0 -79.77736657884225,35.48441080466579,0 -79.77729006415987,35.485045285732,0 -79.77706939724843,35.48617005418933,0 -79.77670701731014,35.48706845968162,0 -79.77602595748105,35.48830237694853,0 -79.77441636462618,35.49095598344919,0 -79.77416737969369,35.49144076970159,0 -79.77397579046658,35.49208773769531,0 -79.77389214697958,35.49247145218375,0 -79.77382270329194,35.4932310275298,0 -79.77387863580489,35.49392025853314,0 -79.77406688011929,35.49470936361818,0 -79.77451594005686,35.49561116911829,0 -79.77564100862017,35.49759525631465,0 -79.77596962735875,35.49833684973579,0 -79.7762144638716,35.49921755734337,0 -79.77636898820607,35.50017785898979,0 -79.7763961508021,35.50088345063597,0 -79.77670855670465,35.50171711724336,0 -79.77724416987667,35.50273443257193,0 -79.77803219513953,35.50412080671481,0 -79.77837059311031,35.50504914469229,0 -79.7785374321446,35.5059047946586,0 -79.77853299754213,35.50676706070066,0 -79.77837519608136,35.50751938843811,0 -79.77751317649106,35.51052709287659,0 -79.77729924145623,35.51133171405695,0 -79.777139350021,35.51213463230113,0 -79.77705328535123,35.51278455228488,0 -79.7768680609362,35.51448168493424,0 -79.77663052153576,35.51696421121577,0 -79.77653858125564,35.51825659514345,0 -79.77621005760636,35.52164017921599,0 -79.77606337268823,35.52349912221997,0 -79.77605628238868,35.52456590488119,0 -79.77617856605994,35.52537702306473,0 -79.77637378348044,35.52626620000371,0 -79.77693133887834,35.52739063903333,0 -79.77782274515839,35.52890846477644,0 -79.77916992954887,35.53120613526463,0 -79.77953604549194,35.53199778731346,0 -79.77976623724385,35.5326037318592,0 -79.7797988004003,35.53332332547936,0 -79.7797516009728,35.53392500923233,0 -79.77957095386384,35.5345677778873,0 -79.77914147272718,35.53560529138294,0 -79.7780608606552,35.53826553315351,0 -79.77780669553509,35.53903589899403,0 -79.77780530539896,35.53976057476322,0 -79.77799667517226,35.54044741083538,0 -79.77834868191043,35.54105086761929,0 -79.77957483292195,35.54251332706717,0 -79.77986330213514,35.54283362169546,0 -79.78055486843395,35.54458378650919,0 -79.78103563401717,35.54613487080935,0 -79.78121641815002,35.54702300525329,0 -79.78190693089549,35.55060299912066,0 -79.78246056812048,35.55350324613948,0 -79.78287792146575,35.55564199648945,0 -79.78311754811001,35.55624249600061,0 -79.78346876728419,35.55677943069053,0 -79.78419782131402,35.55760887299866,0 -79.78704713228679,35.56050258805857,0 -79.7924739350138,35.56599379922577,0 -79.79485597286964,35.56844726922482,0 -79.79519173864965,35.56877738754103,0 -79.79554986337402,35.56951580412607,0 -79.79753309104021,35.57612840769715,0 -79.79938937942164,35.58206866983286,0 -79.8013702165522,35.58631600060544,0 -79.80364691882843,35.59115214083772,0 -79.80412468610083,35.59209025821261,0 -79.80443034458878,35.59265098689924,0 -79.80501916060126,35.5933012240133,0 -79.80655515357148,35.59449778134238,0 -79.80977426092535,35.59682424476214,0 -79.81205994494321,35.59846838260173,0 -79.81243664720363,35.59885041115276,0 -79.81414424859446,35.60131206112138,0 -79.81544900511918,35.6032151547792,0 -79.81583513733048,35.60388863353706,0 -79.81592846673304,35.60441290062472,0 -79.81611245190521,35.60826362248633,0 -79.81622504544235,35.60886408353224,0 -79.81648082487469,35.60948733273398,0 -79.81706083516571,35.61022730357911,0 -79.81849344147156,35.61193642677498,0 -79.81879670151945,35.61238731111973,0 -79.81929038526231,35.61324556670341,0 -79.81982913451505,35.6140802201565,0 -79.82090211066486,35.61541989387184,0 -79.8222665203992,35.61699530363497,0 -79.82347553439762,35.61843711404303,0 -79.82390814985597,35.61908368385868,0 -79.82418593134093,35.61964856663614,0 -79.82454538071005,35.62064561786132,0 -79.82464063284721,35.62118587139179,0 -79.82470997640876,35.62137443921083,0 -79.8249070227383,35.62146372097435,0 
			</coordinates>
		</LineString>
		<atom:link rel="app" href="https://www.google.com/earth/about/versions/#earth-pro" title="Google Earth Pro 7.3.6.10201"></atom:link>
	</Placemark>
</Document>
</kml>
