<?xml version="1.0" encoding="UTF-8"?>
<kml xmlns="http://www.opengis.net/kml/2.2" xmlns:gx="http://www.google.com/kml/ext/2.2" xmlns:kml="http://www.opengis.net/kml/2.2" xmlns:atom="http://www.w3.org/2005/Atom">
<Document>
	<name>US.221A.kml</name>
	<Placemark>
		<name>US.221A</name>
		<LineString>
			<coordinates>
				-81.796813,35.181254,0 -81.7967254,35.1813638,0 -81.7965641,35.1815925,0 -81.79594880000001,35.1825224,0 -81.795782,35.182759,0 -81.7957148,35.1828604,0 -81.79540470000001,35.1833286,0 -81.7950443,35.1838867,0 -81.7947472,35.1843212,0 -81.7936622,35.1859084,0 -81.7930769,35.1867923,0 -81.79245469999999,35.1876991,0 -81.7913934,35.1892799,0 -81.790508,35.1905991,0 -81.7899118,35.1914838,0 -81.78921939999999,35.1925114,0 -81.7880322,35.194251,0 -81.7861363,35.1970664,0 -81.78590199999999,35.197439,0 -81.78482750000001,35.1990306,0 -81.7838532,35.200474,0 -81.78304350000001,35.2016735,0 -81.78302410000001,35.2017022,0 -81.782944,35.201821,0 -81.782892,35.201898,0 -81.7823401,35.2027445,0 -81.78052889999999,35.2054199,0 -81.7804029,35.2056075,0 -81.7792742,35.2072755,0 -81.77747239999999,35.2099584,0 -81.7772203,35.2103737,0 -81.77705690000001,35.2107437,0 -81.77693549999999,35.2110508,0 -81.7768104,35.2115098,0 -81.7767564,35.2117881,0 -81.7767204,35.212114,0 -81.77670790000001,35.2123358,0 -81.77671340000001,35.2126288,0 -81.77674330000001,35.2129159,0 -81.7767564,35.2130102,0 -81.7767707,35.2130837,0 -81.7768422,35.2133915,0 -81.7769126,35.2136558,0 -81.77699869999999,35.2138973,0 -81.77710949999999,35.2141541,0 -81.77723,35.2143951,0 -81.7773756,35.2146394,0 -81.77751120000001,35.2148579,0 -81.77767040000001,35.2150627,0 -81.77784490000001,35.215272,0 -81.778097,35.2155424,0 -81.77846,35.2159246,0 -81.77915779999999,35.2166605,0 -81.7797257,35.2172657,0 -81.7799473,35.2175338,0 -81.7801564,35.2178404,0 -81.78032,35.2181656,0 -81.78041399999999,35.218422,0 -81.7804569,35.218577,0 -81.7805261,35.2188185,0 -81.78055519999999,35.2190092,0 -81.7805663,35.2191472,0 -81.780576,35.2192762,0 -81.780576,35.2194878,0 -81.7805635,35.2196711,0 -81.780522,35.2198849,0 -81.7804666,35.2200988,0 -81.78039459999999,35.2202798,0 -81.7802769,35.2205072,0 -81.7801453,35.2207041,0 -81.7799902,35.2209088,0 -81.7797977,35.2211091,0 -81.77963560000001,35.2212483,0 -81.7793697,35.2214474,0 -81.77909,35.2216442,0 -81.7785665,35.2219848,0 -81.77710949999999,35.2229318,0 -81.776881,35.2230845,0 -81.7756454,35.223894,0 -81.7747205,35.2244953,0 -81.77426509999999,35.2248049,0 -81.7739505,35.2250655,0 -81.7736915,35.2252963,0 -81.7735184,35.2254682,0 -81.7733564,35.2256549,0 -81.7731098,35.2259547,0 -81.7727275,35.2264456,0 -81.7722789,35.2270227,0 -81.77192429999999,35.2274922,0 -81.771664,35.2278304,0 -81.7710823,35.2285929,0 -81.7708538,35.228912,0 -81.7707015,35.2291665,0 -81.770599,35.2293599,0 -81.7704799,35.2296009,0 -81.7703774,35.22986,0 -81.77031239999999,35.2300576,0 -81.7702659,35.2302108,0 -81.7699836,35.2311823,0 -81.7697957,35.231808,0 -81.7696918,35.2320987,0 -81.7696409,35.2322343,0 -81.76936600000001,35.2327625,0 -81.7691614,35.2330739,0 -81.7689855,35.2333171,0 -81.7687529,35.2336033,0 -81.7685012,35.2339041,0 -81.7681767,35.2342662,0 -81.76785820000001,35.2346372,0 -81.767163,35.2354437,0 -81.7669732,35.2356813,0 -81.7668079,35.2359458,0 -81.7667239,35.2361021,0 -81.76664220000001,35.2362842,0 -81.7665841,35.2364675,0 -81.76653,35.2367039,0 -81.7664996,35.236972,0 -81.7665051,35.2372276,0 -81.7665342,35.2376077,0 -81.7665854,35.238154,0 -81.7666796,35.2391461,0 -81.7667045,35.2394153,0 -81.7667641,35.240094,0 -81.7669164,35.2417499,0 -81.76700510000001,35.2426344,0 -81.7670882,35.2431185,0 -81.7672931,35.244037,0 -81.7674617,35.2449131,0 -81.76747020000001,35.2450537,0 -81.7674585,35.2453292,0 -81.76742040000001,35.2461699,0 -81.7674147,35.2462474,0 -81.76740409999999,35.2465329,0 -81.7673921,35.2468561,0 -81.7674018,35.2469837,0 -81.767425,35.2470944,0 -81.76743879999999,35.2471282,0 -81.76748240000001,35.2472351,0 -81.7675789,35.2473777,0 -81.76768269999999,35.2474834,0 -81.7677655,35.2475504,0 -81.7678049,35.2475822,0 -81.7679258,35.24765,0 -81.7680797,35.2477138,0 -81.7683373,35.2477816,0 -81.7688137,35.2478674,0 -81.7702108,35.2481148,0 -81.77160069999999,35.2483771,0 -81.7720992,35.2484769,0 -81.7723141,35.2485199,0 -81.77306369999999,35.2486495,0 -81.7733975,35.2487457,0 -81.77368800000001,35.24887,0 -81.7748179,35.2494608,0 -81.7751526,35.2497148,0 -81.77530369999999,35.2498722,0 -81.7754747,35.2500607,0 -81.7756811,35.2503649,0 -81.7757531,35.2505005,0 -81.7758484,35.250707,0 -81.7759253,35.2508965,0 -81.77597299999999,35.2510949,0 -81.7760035,35.2513393,0 -81.77600959999999,35.2515886,0 -81.7759815,35.2518011,0 -81.77595100000001,35.2519666,0 -81.7758924,35.2521202,0 -81.77583009999999,35.2522429,0 -81.7757299,35.2523755,0 -81.7756078,35.2525072,0 -81.7754271,35.2527116,0 -81.77530489999999,35.2528553,0 -81.77524510000001,35.2529779,0 -81.7751999,35.2531215,0 -81.775184,35.2532322,0 -81.7751742,35.2533559,0 -81.7751901,35.2535165,0 -81.775239,35.2536661,0 -81.77529269999999,35.2537868,0 -81.77538800000001,35.2539264,0 -81.7756054,35.2542356,0 -81.7758008,35.2544949,0 -81.7765775,35.2555281,0 -81.77705779999999,35.2561756,0 -81.77752649999999,35.2568206,0 -81.777993,35.2574568,0 -81.778567,35.2582227,0 -81.7795917,35.259601,0 -81.78063229999999,35.2610081,0 -81.7808338,35.2612454,0 -81.7810475,35.2614588,0 -81.78123069999999,35.2616353,0 -81.7814764,35.2618488,0 -81.7821149,35.2623862,0 -81.7824056,35.2626385,0 -81.78346689999999,35.263542,0 -81.784058,35.2640416,0 -81.7843072,35.264244,0 -81.784488,35.2643757,0 -81.7846785,35.2644834,0 -81.78487389999999,35.2645891,0 -81.7851108,35.2646868,0 -81.7857813,35.2649421,0 -81.78680970000001,35.2653489,0 -81.7870686,35.2654477,0 -81.7872139,35.2654885,0 -81.7873483,35.2655214,0 -81.7875339,35.2655354,0 -81.78769509999999,35.2655264,0 -81.787904,35.2654915,0 -81.7881592,35.2654227,0 -81.7891973,35.2650568,0 -81.7895613,35.2649481,0 -81.789742,35.2649092,0 -81.7900022,35.2648872,0 -81.7903771,35.2648813,0 -81.7908607,35.2649022,0 -81.7909902,35.2649092,0 -81.7912032,35.2649258,0 -81.79137249999999,35.264958,0 -81.7914995,35.2650039,0 -81.791631,35.265069,0 -81.7917181,35.2651395,0 -81.79179019999999,35.2652253,0 -81.7918427,35.265309,0 -81.791883,35.2654317,0 -81.7918976,35.2655304,0 -81.79190370000001,35.265686,0 -81.7918842,35.2659054,0 -81.79189890000001,35.2661287,0 -81.7919399,35.2662983,0 -81.7920544,35.2665027,0 -81.7922117,35.2667069,0 -81.79237310000001,35.2668828,0 -81.7928002,35.2673612,0 -81.79315680000001,35.2677581,0 -81.7933864,35.2679914,0 -81.7936258,35.2682627,0 -81.7938163,35.2685339,0 -81.7939726,35.2688131,0 -81.7942584,35.2693057,0 -81.79471030000001,35.2700794,0 -81.7949766,35.2705202,0 -81.7952233,35.2708422,0 -81.7955274,35.2711663,0 -81.79568980000001,35.2713248,0 -81.7960782,35.2716549,0 -81.7963017,35.2718593,0 -81.79639210000001,35.271971,0 -81.7964678,35.2720886,0 -81.7965411,35.2722452,0 -81.7966265,35.2725114,0 -81.79671690000001,35.2726998,0 -81.7968049,35.2728255,0 -81.7969392,35.2729601,0 -81.7971639,35.2731376,0 -81.7975051,35.2733551,0 -81.7977095,35.2734955,0 -81.7980017,35.273696,0 -81.7981724,35.2738131,0 -81.7983516,35.2739581,0 -81.7984666,35.2741072,0 -81.7985596,35.2742507,0 -81.7986239,35.2744026,0 -81.7986398,35.2745257,0 -81.79865599999999,35.2746511,0 -81.7986306,35.274836,0 -81.7985748,35.2750017,0 -81.7982147,35.2756836,0 -81.7981218,35.2758562,0 -81.79794579999999,35.2761833,0 -81.7977192,35.2766209,0 -81.7976719,35.2768197,0 -81.79762959999999,35.277238,0 -81.7975738,35.2774077,0 -81.7973777,35.2776562,0 -81.79701919999999,35.2780372,0 -81.79663650000001,35.2784502,0 -81.796561,35.2785695,0 -81.79656439999999,35.2786666,0 -81.7965931,35.2787426,0 -81.796643,35.2788065,0 -81.7967179,35.2788729,0 -81.79680260000001,35.2789128,0 -81.79695890000001,35.278958,0 -81.79727800000001,35.2790165,0 -81.79761449999999,35.2790811,0 -81.79784789999999,35.2791465,0 -81.7979766,35.2792056,0 -81.79805450000001,35.2792678,0 -81.7981173,35.2793359,0 -81.79816700000001,35.2794399,0 -81.7982312,35.2796026,0 -81.7983306,35.2797618,0 -81.79839560000001,35.2798565,0 -81.7985355,35.2800195,0 -81.79867299999999,35.2801669,0 -81.79914719999999,35.2806335,0 -81.79971070000001,35.2812083,0 -81.79995769999999,35.2814099,0 -81.8001665,35.2815342,0 -81.8003334,35.2816147,0 -81.8005455,35.2817051,0 -81.80078930000001,35.2817989,0 -81.8017753,35.2821909,0 -81.802547,35.282522,0 -81.80286529999999,35.282763,0 -81.80305,35.283025,0 -81.80345939999999,35.283734,0 -81.8038669,35.284419,0 -81.8041846,35.2849425,0 -81.8044708,35.28543,0 -81.8045322,35.2855345,0 -81.8047588,35.2858604,0 -81.8050597,35.286102,0 -81.8052455,35.2862145,0 -81.8054865,35.2863444,0 -81.8057574,35.2864583,0 -81.8063073,35.2866225,0 -81.80717629999999,35.2869159,0 -81.80866229999999,35.2874019,0 -81.8093713,35.2876219,0 -81.8095715,35.2876822,0 -81.8111217,35.2882039,0 -81.8114839,35.2883258,0 -81.8121069,35.288534,0 -81.8132456,35.288911,0 -81.8138155,35.2891058,0 -81.8140937,35.2891951,0 -81.81465559999999,35.2893713,0 -81.815032,35.2894955,0 -81.81594939999999,35.2897982,0 -81.81600709999999,35.2898159,0 -81.81637360000001,35.289928,0 -81.816593,35.2900042,0 -81.8169327,35.2901221,0 -81.8171607,35.2902013,0 -81.81735,35.290267,0 -81.8183131,35.2905879,0 -81.8184268,35.2906237,0 -81.81881679999999,35.2907466,0 -81.8193337,35.2908831,0 -81.81999829999999,35.2909705,0 -81.8206945,35.2909558,0 -81.8227959,35.2907576,0 -81.8240345,35.290636,0 -81.8249363,35.2905474,0 -81.8252648,35.2905178,0 -81.8257957,35.2904699,0 -81.8261727,35.2904359,0 -81.8264496,35.2904109,0 -81.82691389999999,35.290369,0 -81.8283093,35.2902431,0 -81.8293362,35.2901427,0 -81.8313043,35.2899503,0 -81.8319192,35.2898902,0 -81.8320612,35.2898779,0 -81.8328341,35.2898055,0 -81.83344390000001,35.2897484,0 -81.834812,35.2896231,0 -81.8351164,35.2895952,0 -81.8358113,35.2895345,0 -81.8362429,35.2894917,0 -81.8374578,35.2893777,0 -81.8375482,35.2893692,0 -81.83811179999999,35.2893163,0 -81.8393828,35.2892183,0 -81.84079269999999,35.2890584,0 -81.842601,35.288884,0 -81.84300639999999,35.2888843,0 -81.8435257,35.2889661,0 -81.84387340000001,35.2891003,0 -81.8441153,35.2892584,0 -81.84424629999999,35.2893441,0 -81.84453790000001,35.2895815,0 -81.8446079,35.2897147,0 -81.84483400000001,35.2900438,0 -81.84487590000001,35.2901284,0 -81.84499150000001,35.2903929,0 -81.84536490000001,35.2912475,0 -81.84550520000001,35.2915553,0 -81.845553,35.291678,0 -81.8456054,35.2917997,0 -81.8457556,35.2921414,0 -81.84578860000001,35.2922165,0 -81.8458961,35.2925246,0 -81.84610189999999,35.2931831,0 -81.8462955,35.2938062,0 -81.84687,35.2956024,0 -81.84724629999999,35.2968356,0 -81.8472818,35.2969521,0 -81.84753929999999,35.2976907,0 -81.8476416,35.2978672,0 -81.84779229999999,35.2980527,0 -81.84791439999999,35.2981894,0 -81.8480484,35.2982988,0 -81.8482274,35.2984092,0 -81.84833070000001,35.2984687,0 -81.8486633,35.2986073,0 -81.8489696,35.2987225,0 -81.8498214,35.2989959,0 -81.8503104,35.2991604,0 -81.85053310000001,35.299236,0 -81.85085429999999,35.2993436,0 -81.8515372,35.2995631,0 -81.852006,35.2997302,0 -81.85250120000001,35.2998987,0 -81.8531043,35.3001149,0 -81.8531679,35.3001431,0 -81.853188,35.300152,0 -81.8533207,35.3002195,0 -81.8536307,35.3003903,0 -81.85385789999999,35.3005654,0 -81.8540996,35.3007906,0 -81.85429689999999,35.3010368,0 -81.8546135,35.3014075,0 -81.8550673,35.3019895,0 -81.85533460000001,35.3023252,0 -81.85577809999999,35.3028873,0 -81.8560598,35.3032393,0 -81.8568197,35.3041797,0 -81.857305,35.30478,0 -81.858001,35.305689,0 -81.85812199999999,35.3058838,0 -81.8584068,35.3065326,0 -81.8585004,35.3068432,0 -81.8585518,35.3071168,0 -81.85856990000001,35.307319,0 -81.8585729,35.3077183,0 -81.85856870000001,35.3077672,0 -81.8585336,35.3081769,0 -81.8584611,35.308517,0 -81.85836860000001,35.3088881,0 -81.85825149999999,35.3092762,0 -81.8581995,35.3094487,0 -81.8580551,35.3100552,0 -81.8578504,35.3107547,0 -81.85756739999999,35.3118111,0 -81.8573821,35.3124971,0 -81.8572855,35.3128479,0 -81.8572459,35.3130064,0 -81.8572023,35.3131807,0 -81.857193,35.3132178,0 -81.8570656,35.3139105,0 -81.8570589,35.3139764,0 -81.8570552,35.3140123,0 -81.8570486,35.314077,0 -81.8570441,35.3141206,0 -81.8570081,35.3146994,0 -81.85703959999999,35.315206,0 -81.8571171,35.3158331,0 -81.8572692,35.316549,0 -81.8573138,35.3166819,0 -81.8576322,35.3174663,0 -81.8578181,35.3178842,0 -81.8579135,35.3180985,0 -81.8580189,35.3183354,0 -81.8581257,35.3185756,0 -81.85819909999999,35.3187406,0 -81.8584877,35.3193891,0 -81.8593674,35.3214247,0 -81.8600357,35.3229152,0 -81.86015279999999,35.3231728,0 -81.8609032,35.3248496,0 -81.86147029999999,35.3261552,0 -81.86199070000001,35.3273117,0 -81.8620755,35.3275123,0 -81.86224470000001,35.3278919,0 -81.8623534,35.3281593,0 -81.8626244,35.3288271,0 -81.86281889999999,35.3292637,0 -81.8629878,35.3296318,0 -81.8630165,35.3297181,0 -81.86303460000001,35.329813,0 -81.8630089,35.3299485,0 -81.86289840000001,35.3303136,0 -81.8627441,35.3307131,0 -81.862247,35.3320528,0 -81.8621832,35.3322785,0 -81.8620399,35.3326725,0 -81.8619166,35.3330118,0 -81.86242110000001,35.3331333,0 -81.86301469999999,35.3332582,0 -81.86323729999999,35.3332768,0 -81.8634045,35.3333184,0 -81.8635981,35.3333655,0 -81.86397220000001,35.3334431,0 -81.8645236,35.3335607,0 -81.86493520000001,35.3336434,0 -81.86512310000001,35.3336962,0 -81.8658377,35.3338655,0 -81.86611619999999,35.333927,0 -81.8664761,35.3340066,0 -81.8668284,35.3340941,0 -81.8671748,35.3342232,0 -81.8674049,35.3343449,0 -81.86817189999999,35.3346133,0 -81.8683924,35.3347715,0 -81.86854700000001,35.3348902,0 -81.86872990000001,35.3350204,0 -81.86907549999999,35.3352892,0 -81.8705066,35.3364067,0 -81.8706344,35.3365033,0 -81.8708137,35.3366459,0 -81.8710796,35.3368573,0 -81.87125570000001,35.3369973,0 -81.87133179999999,35.3370579,0 -81.87142679999999,35.3371335,0 -81.871729,35.337374,0 -81.8722023,35.3377507,0 -81.8727414,35.3381764,0 -81.87313140000001,35.3384106,0 -81.8740671,35.3388326,0 -81.8747499,35.3391377,0 -81.8749566,35.3392141,0 -81.875079,35.3392634,0 -81.87529139999999,35.339349,0 -81.8761349,35.3396472,0 -81.8767335,35.3397858,0 -81.8773431,35.3399264,0 -81.8776213,35.3400019,0 -81.8778822,35.3400795,0 -81.878196,35.3401851,0 -81.878328,35.3402283,0 -81.87855070000001,35.3403257,0 -81.8787408,35.3404122,0 -81.878837,35.3404559,0 -81.8792488,35.3406681,0 -81.87953640000001,35.3408387,0 -81.8798362,35.3410406,0 -81.880028,35.3411784,0 -81.8801741,35.3412944,0 -81.88030689999999,35.3414082,0 -81.8806464,35.3417078,0 -81.8808502,35.3419059,0 -81.8809919,35.3420437,0 -81.88277069999999,35.3437995,0 -81.88437879999999,35.3453919,0 -81.8846836,35.3456869,0 -81.88536070000001,35.3463483,0 -81.88643759999999,35.3473981,0 -81.8867704,35.3477004,0 -81.88726250000001,35.3480691,0 -81.88776319999999,35.3484384,0 -81.8879362,35.3485499,0 -81.8882072,35.3487245,0 -81.88885879999999,35.3491443,0 -81.8890471,35.34926,0 -81.8892366,35.3493764,0 -81.8895315,35.3495401,0 -81.88965690000001,35.3496097,0 -81.890249,35.3499203,0 -81.89027919999999,35.3499362,0 -81.8909518,35.3502319,0 -81.8910491,35.3502732,0 -81.89157280000001,35.3504956,0 -81.8920947,35.3506914,0 -81.89265930000001,35.3508954,0 -81.89330889999999,35.3510956,0 -81.8938967,35.3512584,0 -81.8944566,35.3513993,0 -81.8948176,35.3514804,0 -81.8950287,35.3515279,0 -81.8953774,35.3516045,0 -81.8955831,35.3516497,0 -81.8961566,35.3517327,0 -81.8967658,35.3518118,0 -81.89742270000001,35.3518822,0 -81.8975341,35.3518915,0 -81.89794019999999,35.3519174,0 -81.8984555,35.3519425,0 -81.8992317,35.3519567,0 -81.8997239,35.3519637,0 -81.89981539999999,35.351965,0 -81.8999148,35.3519664,0 -81.9002131,35.3519707,0 -81.90154029999999,35.3519944,0 -81.9036509,35.3520259,0 -81.90543,35.3520381,0 -81.90671690000001,35.3520712,0 -81.9078075,35.3520948,0 -81.9087002,35.3521009,0 -81.9101386,35.3521331,0 -81.9110393,35.3521339,0 -81.91113249999999,35.3521365,0 -81.9118783,35.3521576,0 -81.91255049999999,35.3521943,0 -81.91311949999999,35.3522272,0 -81.9138809,35.3523405,0 -81.91896869999999,35.3532529,0 -81.91972819999999,35.3534835,0 -81.9201312,35.3536058,0 -81.92067900000001,35.353808,0 -81.9218551,35.3542765,0 -81.92274020000001,35.354595,0 -81.92328999999999,35.3547859,0 -81.9235281,35.3549002,0 -81.9238737,35.3550182,0 -81.9257044,35.3557038,0 -81.9269139,35.3561837,0 -81.9270633,35.3562332,0 -81.9274025,35.3563596,0 -81.9275135,35.3564006,0 -81.9276121,35.3564273,0 -81.92768700000001,35.3564403,0 -81.9277697,35.3564478,0 -81.92791649999999,35.3564439,0 -81.9280388,35.3564255,0 -81.92810830000001,35.3564111,0 -81.92821050000001,35.3564012,0 -81.92831579999999,35.3564077,0 -81.9284272,35.3564341,0 -81.928478,35.3564504,0 -81.9293304,35.3567816,0 -81.929705,35.356925,0 -81.9306071,35.3572869,0 -81.9318748,35.3577879,0 -81.9322011,35.357912,0 -81.9327674,35.358126,0 -81.9331023,35.3582511,0 -81.9336484,35.3584692,0 -81.9338802,35.3585639,0 -81.93444529999999,35.3588199,0 -81.93523999999999,35.3592398,0 -81.9364336,35.3599639,0 -81.9372705,35.3605195,0 -81.93914530000001,35.3616372,0 -81.940248,35.362203,0 -81.9403695,35.3622663,0 -81.9405436,35.362357,0 -81.9407344,35.362446,0 -81.94091160000001,35.3625287,0 -81.9409859,35.3625629,0 -81.9411715,35.3626482,0 -81.9418178,35.3629815,0 -81.94215130000001,35.3631849,0 -81.9432207,35.3636859,0 -81.94379240000001,35.3639657,0 -81.94416819999999,35.3641447,0 -81.94437720000001,35.3642196,0 -81.9446761,35.3643266,0 -81.9448072,35.3643587,0 -81.94490279999999,35.3643822,0 -81.94512899999999,35.3644376,0 -81.9453133,35.3644653,0 -81.94591699999999,35.364556,0 -81.9471982,35.3645647,0 -81.94811660000001,35.3645721,0 -81.9484198,35.3645745,0 -81.94854309999999,35.3645755,0 -81.94902380000001,35.3645794,0 -81.9496451,35.3645844,0 -81.9503247,35.3645732,0 -81.9513544,35.3645931,0 -81.95212650000001,35.36464,0 -81.952611,35.3647195,0 -81.9533759,35.3648572,0 -81.9535801,35.3648939,0 -81.95428080000001,35.3650388,0 -81.95465249999999,35.3651157,0 -81.95472169999999,35.3651282,0 -81.9555853,35.3652844,0 -81.9562095,35.3654117,0 -81.9562531,35.3654185,0 -81.95682050000001,35.3655264,0 -81.957607,35.3656759,0 -81.9577223,35.3656978,0 
			</coordinates>
		</LineString>
		<atom:link rel="app" href="https://www.google.com/earth/about/versions/#earth-pro" title="Google Earth Pro 7.3.6.10201"></atom:link>
	</Placemark>
</Document>
</kml>
