<?xml version="1.0" encoding="UTF-8"?>
<kml xmlns="http://www.opengis.net/kml/2.2" xmlns:gx="http://www.google.com/kml/ext/2.2" xmlns:kml="http://www.opengis.net/kml/2.2" xmlns:atom="http://www.w3.org/2005/Atom">
<Document>
	<name>US.201.kml</name>
	<Placemark>
		<name>US.201</name>
			<LineString>
				<coordinates>
					-69.9665439,43.9177338,0 -69.9666375,43.9179367,0 -69.9666593,43.9179829,0 -69.9667049,43.9181186,0 -69.9667173,43.91815,0 -69.9667717,43.9183596,0 -69.96677769999999,43.9183821,0 -69.9667888,43.9185323,0 -69.96678369999999,43.9186174,0 -69.9667642,43.918699,0 -69.966728,43.9187858,0 -69.9666837,43.9188921,0 -69.96649290000001,43.919292,0 -69.96647489999999,43.9193391,0 -69.9663352,43.9197047,0 -69.9662465,43.9199626,0 -69.9660093,43.9205631,0 -69.96540349999999,43.9220985,0 -69.9653509,43.9222222,0 -69.9652804,43.9223545,0 -69.9652162,43.9224536,0 -69.9647769,43.9229546,0 -69.9647307,43.9229986,0 -69.9646362,43.9230886,0 -69.9644687,43.9232481,0 -69.96405249999999,43.9236444,0 -69.96395339999999,43.9237622,0 -69.9638544,43.9238962,0 -69.96379,43.9240096,0 -69.9637397,43.9241138,0 -69.9637139,43.9241755,0 -69.96369060000001,43.9242444,0 -69.9636356,43.9244157,0 -69.9635959,43.924553,0 -69.96357759999999,43.9247019,0 -69.9635662,43.9248035,0 -69.96350820000001,43.9252234,0 -69.963481,43.925453,0 -69.963481,43.9254901,0 -69.963481,43.9255598,0 -69.9634884,43.9256124,0 -69.9635056,43.9257338,0 -69.9636857,43.9268268,0 -69.9637421,43.9271584,0 -69.9638357,43.9277079,0 -69.9640052,43.9284261,0 -69.9640572,43.9286303,0 -69.9641491,43.9290972,0 -69.9641712,43.9291991,0 -69.96420929999999,43.9293752,0 -69.96422200000001,43.9294423,0 -69.9643481,43.9301125,0 -69.9644629,43.9307223,0 -69.9645603,43.9313163,0 -69.96475529999999,43.93215,0 -69.96481350000001,43.9323364,0 -69.9649465,43.9327225,0 -69.9651578,43.9333043,0 -69.9652248,43.9334703,0 -69.9653256,43.93372,0 -69.96539420000001,43.9338899,0 -69.9654154,43.9339424,0 -69.96547769999999,43.9340967,0 -69.9655054,43.9341654,0 -69.9657527,43.9347232,0 -69.96589880000001,43.9350476,0 -69.9659492,43.9351555,0 -69.9661256,43.935607,0 -69.96616469999999,43.935703,0 -69.9663786,43.9363829,0 -69.96639570000001,43.9364372,0 -69.9664592,43.9366975,0 -69.966527,43.9370076,0 -69.9665459,43.9370943,0 -69.9665675,43.9372056,0 -69.96664370000001,43.9375807,0 -69.96667480000001,43.9377316,0 -69.9667486,43.9381135,0 -69.9667985,43.938372,0 -69.966863,43.938598,0 -69.9668965,43.9386834,0 -69.967123,43.9392597,0 -69.96719349999999,43.9393849,0 -69.9672654,43.9395127,0 -69.9675031,43.9399749,0 -69.9677399,43.9404209,0 -69.9681312,43.941158,0 -69.96867779999999,43.9422183,0 -69.9689284,43.9427043,0 -69.9693987,43.9436633,0 -69.9703202,43.945288,0 -69.9705597,43.9457102,0 -69.97159190000001,43.9476542,0 -69.9718963,43.9482186,0 -69.972345,43.9490816,0 -69.97249360000001,43.949345,0 -69.9727218,43.9498135,0 -69.9728367,43.9503002,0 -69.9728468,43.9503431,0 -69.97287350000001,43.950549,0 -69.9728865,43.9506496,0 -69.97290340000001,43.9507803,0 -69.9728966,43.9510733,0 -69.9728922,43.9512644,0 -69.9728874,43.9512862,0 -69.97283059999999,43.9515419,0 -69.9727991,43.951684,0 -69.972618,43.9522075,0 -69.97246,43.952516,0 -69.9723807,43.9526708,0 -69.9721406,43.9530156,0 -69.9715647,43.9536353,0 -69.97119189999999,43.9539884,0 -69.9702277,43.9548796,0 -69.969404,43.9555754,0 -69.96888010000001,43.9560702,0 -69.96832569999999,43.9565633,0 -69.9677088,43.9571147,0 -69.96669439999999,43.9580256,0 -69.9657282,43.9589111,0 -69.9650864,43.9595519,0 -69.9644993,43.9603929,0 -69.964331,43.9606836,0 -69.96403770000001,43.9611903,0 -69.9635554,43.9620203,0 -69.96320489999999,43.9626236,0 -69.9630648,43.9628646,0 -69.9626536,43.9635723,0 -69.9620791,43.9646136,0 -69.96165000000001,43.9651935,0 -69.9610502,43.9658904,0 -69.9600428,43.9668507,0 -69.95923329999999,43.96769,0 -69.9585166,43.9686781,0 -69.9580577,43.9693776,0 -69.95776480000001,43.9699872,0 -69.9576409,43.9705906,0 -69.9575969,43.9710543,0 -69.95761349999999,43.9714265,0 -69.9576151,43.9714616,0 -69.9577589,43.9720342,0 -69.95786029999999,43.9722361,0 -69.95814559999999,43.9728348,0 -69.9589479,43.9744909,0 -69.95997439999999,43.9766096,0 -69.9605291,43.9777274,0 -69.9608625,43.978578,0 -69.96090150000001,43.9787776,0 -69.96097,43.9791283,0 -69.9609797,43.9796424,0 -69.9609231,43.9800997,0 -69.9609128,43.9801502,0 -69.9608394,43.9805101,0 -69.9605773,43.9811046,0 -69.9605425,43.9811834,0 -69.9601474,43.981792,0 -69.9598148,43.9822386,0 -69.9593623,43.9827855,0 -69.9570879,43.9856742,0 -69.9569853,43.9858255,0 -69.9567978,43.9860596,0 -69.9560996,43.9869312,0 -69.955701,43.9874633,0 -69.95531699999999,43.9879426,0 -69.9546301,43.9887582,0 -69.954384,43.989138,0 -69.95417999999999,43.9894402,0 -69.9539438,43.9900809,0 -69.95389249999999,43.9902202,0 -69.95365769999999,43.9913424,0 -69.95357509999999,43.9916803,0 -69.9532708,43.9929254,0 -69.95321300000001,43.993162,0 -69.95282899999999,43.9942743,0 -69.9525525,43.99489,0 -69.9521968,43.9956695,0 -69.95177750000001,43.9966546,0 -69.951402,43.9974789,0 -69.9507626,43.9991062,0 -69.9504815,44.0000146,0 -69.9501988,44.0009048,0 -69.9499005,44.0019714,0 -69.94939410000001,44.0036792,0 -69.9489988,44.004789,0 -69.9485605,44.0062976,0 -69.9480922,44.007437,0 -69.94757610000001,44.008228,0 -69.9472451,44.008826,0 -69.94635289999999,44.0109806,0 -69.94497130000001,44.0152274,0 -69.9442808,44.0173676,0 -69.9432422,44.02076,0 -69.94285600000001,44.0220102,0 -69.9420102,44.0250796,0 -69.9418759,44.0255832,0 -69.9418051,44.0263612,0 -69.94186139999999,44.0270875,0 -69.9422847,44.0285057,0 -69.942795,44.0302669,0 -69.943082,44.0314837,0 -69.9433559,44.0337988,0 -69.9435678,44.0354521,0 -69.9435678,44.0359812,0 -69.94346539999999,44.0364945,0 -69.94298310000001,44.0377459,0 -69.9423716,44.0396378,0 -69.94175250000001,44.0414442,0 -69.9410385,44.0437535,0 -69.9408676,44.0445387,0 -69.9407575,44.0450404,0 -69.940606,44.0457279,0 -69.94033279999999,44.0469942,0 -69.9401708,44.0478289,0 -69.9400397,44.0484277,0 -69.9398288,44.0490066,0 -69.9396223,44.0493961,0 -69.9393434,44.0497386,0 -69.9377568,44.0513341,0 -69.93766669999999,44.0514347,0 -69.93714559999999,44.0519014,0 -69.93581519999999,44.0532327,0 -69.9349153,44.0540574,0 -69.93469640000001,44.0543234,0 -69.9338252,44.0551685,0 -69.92574,44.0629941,0 -69.92450239999999,44.0640892,0 -69.9233909,44.0652397,0 -69.92308610000001,44.0657025,0 -69.92192590000001,44.067519,0 -69.920124,44.0704503,0 -69.91934670000001,44.0720143,0 -69.9187721,44.0733478,0 -69.9181134,44.0749361,0 -69.9175968,44.0760125,0 -69.9174498,44.0763836,0 -69.9172755,44.0768568,0 -69.9170319,44.0773297,0 -69.9168683,44.0775453,0 -69.91669400000001,44.077775,0 -69.91641300000001,44.078067,0 -69.9135043,44.0811422,0 -69.9121562,44.082536,0 -69.9113419,44.0832562,0 -69.9107802,44.083635,0 -69.910203,44.0839987,0 -69.9092589,44.0845879,0 -69.9086039,44.0851698,0 -69.9080031,44.0858572,0 -69.9056824,44.0896968,0 -69.9046659,44.0913266,0 -69.9016725,44.0958532,0 -69.9002129,44.0978546,0 -69.8997966,44.0984332,0 -69.8984957,44.100114,0 -69.8974394,44.1014581,0 -69.8963682,44.102593,0 -69.89505629999999,44.1035255,0 -69.8934587,44.1044797,0 -69.891867,44.105551,0 -69.8899993,44.1066799,0 -69.88969830000001,44.1068675,0 -69.8890272,44.1074692,0 -69.88834540000001,44.1082496,0 -69.8879951,44.1089075,0 -69.88782449999999,44.1094097,0 -69.88761529999999,44.1102552,0 -69.8875719,44.1111014,0 -69.88762800000001,44.111962,0 -69.8877596,44.1127236,0 -69.8878909,44.113974,0 -69.88790179999999,44.1140778,0 -69.8878508,44.1149783,0 -69.8875998,44.115958,0 -69.8873353,44.1166081,0 -69.8865596,44.1181679,0 -69.88620229999999,44.1189647,0 -69.88596250000001,44.1197749,0 -69.88581050000001,44.1209077,0 -69.88543249999999,44.1231071,0 -69.8853357,44.1236649,0 -69.8851244,44.1248354,0 -69.88506270000001,44.1252447,0 -69.88479,44.1265326,0 -69.8847888,44.1265382,0 -69.88414400000001,44.1290431,0 -69.88413490000001,44.1290783,0 -69.88363440000001,44.1309638,0 -69.8836282,44.1309808,0 -69.8829595,44.132832,0 -69.8816913,44.1344014,0 -69.8815611,44.1345721,0 -69.87990670000001,44.1367406,0 -69.8783665,44.1392514,0 -69.8778709,44.140061,0 -69.8774578,44.1407424,0 -69.8772692,44.1410487,0 -69.8768968,44.1416694,0 -69.87683180000001,44.1417778,0 -69.87645120000001,44.1423244,0 -69.8760529,44.1428399,0 -69.87555020000001,44.1434029,0 -69.87464420000001,44.1441776,0 -69.8734613,44.1450982,0 -69.8730961,44.14538,0 -69.87280800000001,44.145623,0 -69.8723203,44.1460034,0 -69.87215550000001,44.146132,0 -69.8712716,44.1468215,0 -69.8708596,44.1471537,0 -69.87066,44.1472808,0 -69.8692296,44.1484072,0 -69.8687516,44.1488087,0 -69.8682779,44.1493443,0 -69.8679569,44.1498085,0 -69.86730799999999,44.1510732,0 -69.86710720000001,44.1514651,0 -69.8669647,44.1517363,0 -69.8662234,44.1530436,0 -69.8648549,44.1548931,0 -69.864683,44.1551011,0 -69.8641353,44.1558355,0 -69.863758,44.1564224,0 -69.86309079999999,44.1572839,0 -69.8626136,44.1578745,0 -69.86195410000001,44.1586086,0 -69.8613313,44.159208,0 -69.8612311,44.1593022,0 -69.86014400000001,44.1602332,0 -69.85997279999999,44.1603757,0 -69.8595557,44.1607229,0 -69.85909700000001,44.1611203,0 -69.8580595,44.1619942,0 -69.8575317,44.1624229,0 -69.8572425,44.1626578,0 -69.85690049999999,44.162949,0 -69.856523,44.1632705,0 -69.8564279,44.1633515,0 -69.8562336,44.1635169,0 -69.8556936,44.1639767,0 -69.85484630000001,44.1645385,0 -69.8542575,44.1648596,0 -69.85370690000001,44.1650847,0 -69.8527649,44.1653947,0 -69.8522802,44.1655265,0 -69.8507669,44.1659078,0 -69.8497,44.1661922,0 -69.8495602,44.1662294,0 -69.8485994,44.1665035,0 -69.84791869999999,44.1667829,0 -69.8475195,44.1669637,0 -69.8469295,44.1672922,0 -69.8467771,44.1673926,0 -69.8461162,44.1678688,0 -69.844058,44.169691,0 -69.8436188,44.1701633,0 -69.84259710000001,44.1710698,0 -69.8425532,44.1711095,0 -69.8421117,44.1715092,0 -69.84193310000001,44.1716725,0 -69.8402191,44.1732398,0 -69.8401286,44.1733209,0 -69.8377964,44.175444,0 -69.8374287,44.1757844,0 -69.8368049,44.1763544,0 -69.8361598,44.1768476,0 -69.83570520000001,44.1771527,0 -69.83526500000001,44.1774176,0 -69.8347995,44.1776898,0 -69.8342775,44.1779861,0 -69.8328856,44.1787876,0 -69.83266589999999,44.1789114,0 -69.83213240000001,44.1792246,0 -69.8316186,44.1795153,0 -69.83083000000001,44.1799789,0 -69.8303659,44.1802386,0 -69.8259961,44.1827251,0 -69.8259752,44.1827373,0 -69.82293439999999,44.184504,0 -69.8228084,44.1845747,0 -69.8195417,44.1864945,0 -69.81921199999999,44.186647,0 -69.818534,44.1870432,0 -69.8184583,44.1870875,0 -69.8180358,44.1873514,0 -69.8169853,44.1880076,0 -69.81632279999999,44.1884349,0 -69.8156431,44.18885,0 -69.8141947,44.1897724,0 -69.8137163,44.1901603,0 -69.81299249999999,44.1907471,0 -69.8120079,44.1915434,0 -69.81086980000001,44.1924637,0 -69.8095107,44.193569,0 -69.8094227,44.1936436,0 -69.8074709,44.1950295,0 -69.8071937,44.1952039,0 -69.8054899,44.1962756,0 -69.8036601,44.1973002,0 -69.8020432,44.1983225,0 -69.8017619,44.1985684,0 -69.7979309,44.2011268,0 -69.7961523,44.2022967,0 -69.7947964,44.2031885,0 -69.794121,44.2035369,0 -69.793632,44.2038114,0 -69.79333250000001,44.2039795,0 -69.79020610000001,44.2058692,0 -69.7894044,44.2064337,0 -69.78613970000001,44.2096452,0 -69.7838979,44.2124168,0 -69.782962,44.213995,0 -69.7821673,44.2154373,0 -69.7814479,44.2167372,0 -69.7810832,44.2174028,0 -69.7808744,44.2178256,0 -69.7804349,44.2187158,0 -69.77999199999999,44.2196126,0 -69.779461,44.220809,0 -69.7787982,44.222057,0 -69.7786694,44.2222995,0 -69.7782971,44.2228177,0 -69.7777344,44.2236505,0 -69.7776717,44.2237359,0 -69.77765960000001,44.2237541,0 -69.77749559999999,44.2239994,0 -69.7774781,44.2240257,0 -69.77714210000001,44.2245285,0 -69.77618560000001,44.2258694,0 -69.77595359999999,44.2262407,0 -69.77589450000001,44.2264342,0 -69.77585569999999,44.2265613,0 -69.77585569999999,44.2266536,0 -69.7759094,44.226792,0 -69.7759978,44.226945,0 -69.7760091,44.2270603,0 -69.7759458,44.2271562,0 -69.7757522,44.2272669,0 -69.7752818,44.2274665,0 -69.77521470000001,44.2275877,0 -69.7748445,44.2288135,0 -69.7746356,44.2295097,0 -69.77457630000001,44.2297915,0 -69.77455569999999,44.22988,0 -69.77449590000001,44.2301756,0 -69.7743107,44.2308067,0 -69.7742722,44.2309091,0 -69.7742092,44.2310769,0 -69.7741589,44.2312109,0 -69.7739669,44.2315678,0 -69.773318,44.2323719,0 -69.77293659999999,44.232828,0 -69.7728848,44.2328879,0 -69.77274060000001,44.2330546,0 -69.77258980000001,44.2332156,0 -69.77248779999999,44.2333116,0 -69.77236449999999,44.2333866,0 -69.7723477,44.2333929,0 -69.7722062,44.2334462,0 -69.7722218,44.2337177,0 -69.77218910000001,44.2340806,0 -69.7721114,44.2345425,0 -69.7719776,44.235108,0 -69.7718876,44.2356718,0 -69.7717727,44.2364706,0 -69.77171079999999,44.2369859,0 -69.7716618,44.2378357,0 -69.7715919,44.2381577,0 -69.77155569999999,44.2383244,0 -69.77154400000001,44.2383784,0 -69.77152150000001,44.2384442,0 -69.77132450000001,44.2390212,0 -69.77123570000001,44.2392813,0 -69.771169,44.2394978,0 -69.7711621,44.239542,0 -69.77113369999999,44.2397225,0 -69.7710704,44.240387,0 -69.7709918,44.2412066,0 -69.77091369999999,44.2419785,0 -69.7708916,44.2422851,0 -69.77086490000001,44.2429514,0 -69.77082040000001,44.2441243,0 -69.7707838,44.245298,0 -69.7707922,44.2461271,0 -69.7708555,44.246681,0 -69.77091710000001,44.2470351,0 -69.7710173,44.2474373,0 -69.77158660000001,44.2491377,0 -69.7718129,44.2498327,0 -69.77199330000001,44.2503451,0 -69.7720916,44.2507209,0 -69.7721347,44.2509616,0 -69.77221,44.2513993,0 -69.7722595,44.2519959,0 -69.77229939999999,44.2522986,0 -69.77234850000001,44.2526745,0 -69.77248489999999,44.2533407,0 -69.772575,44.2537629,0 -69.7728268,44.2549978,0 -69.7730035,44.255832,0 -69.773073,44.2560966,0 -69.7731543,44.2563112,0 -69.77324230000001,44.256524,0 -69.77338810000001,44.2567958,0 -69.7735694,44.2570359,0 -69.7736658,44.2571422,0 -69.7737336,44.2572169,0 -69.7741182,44.2575097,0 -69.774282,44.2576344,0 -69.77445659999999,44.2577588,0 -69.7748127,44.2580122,0 -69.7761261,44.2588203,0 -69.7765976,44.2591056,0 -69.7771106,44.2594228,0 -69.77798970000001,44.2600553,0 -69.7782746,44.2602672,0 -69.77910730000001,44.2608948,0 -69.7799715,44.2615364,0 -69.780421,44.2618696,0 -69.781182,44.2624323,0 -69.7813379,44.2625443,0 -69.78179280000001,44.2629047,0 -69.7824913,44.2634761,0 -69.7828269,44.2637454,0 -69.7831503,44.2640291,0 -69.7839355,44.2648591,0 -69.7842205,44.2651489,0 -69.78479129999999,44.2656438,0 -69.7851971,44.265968,0 -69.78643080000001,44.267025,0 -69.78665700000001,44.2672398,0 -69.78677399999999,44.2673508,0 -69.7872121,44.2677763,0 -69.7875693,44.2680876,0 -69.78789089999999,44.26835,0 -69.788524,44.2687893,0 -69.7888997,44.2690565,0 -69.78921889999999,44.2693132,0 -69.7894256,44.2695301,0 -69.7895642,44.2696987,0 -69.78969119999999,44.2698972,0 -69.7897675,44.2700545,0 -69.78996909999999,44.2704761,0 -69.7900704,44.2706535,0 -69.7902014,44.270855,0 -69.7903859,44.271052,0 -69.790542,44.2712016,0 -69.79091819999999,44.2715607,0 -69.79111330000001,44.2717628,0 -69.7912439,44.271927,0 -69.79136339999999,44.2721013,0 -69.791487,44.2723387,0 -69.79156070000001,44.2725529,0 -69.7916165,44.2727639,0 -69.7916846,44.273178,0 -69.7917293,44.2742069,0 -69.7917606,44.2748393,0 -69.7918044,44.2753347,0 -69.79183380000001,44.2756447,0 -69.7918598,44.2758479,0 -69.791887,44.2760672,0 -69.7919459,44.2765357,0 -69.79199490000001,44.2768917,0 -69.7920561,44.2772462,0 -69.79212889999999,44.277443,0 -69.79222110000001,44.2776418,0 -69.7923973,44.2779671,0 -69.7925032,44.2782055,0 -69.7925774,44.2784327,0 -69.79262060000001,44.2786591,0 -69.7926368,44.2788553,0 -69.7926476,44.2791848,0 -69.79264480000001,44.2794878,0 -69.7926161,44.2797893,0 -69.7925493,44.2802643,0 -69.7924502,44.2806805,0 -69.7922999,44.281107,0 -69.7919054,44.2819087,0 -69.7918609,44.2819992,0 -69.7913477,44.2829002,0 -69.7911838,44.2831877,0 -69.7909741,44.2835728,0 -69.79087389999999,44.2837507,0 -69.7905185,44.2844556,0 -69.7904092,44.2847502,0 -69.7903139,44.2849914,0 -69.7902429,44.2852101,0 -69.790165,44.2856028,0 -69.79013740000001,44.2858923,0 -69.7901337,44.2859192,0 -69.79009120000001,44.2862486,0 -69.7900157,44.2869174,0 -69.78997529999999,44.2871801,0 -69.78995569999999,44.2873402,0 -69.78991449999999,44.287704,0 -69.7898672,44.28797,0 -69.789768,44.2882734,0 -69.7896473,44.288521,0 -69.7894005,44.2888302,0 -69.78914229999999,44.2891239,0 -69.78911669999999,44.2891572,0 -69.7890404,44.2892564,0 -69.7887789,44.2896377,0 -69.78854269999999,44.2901584,0 -69.7883413,44.2907502,0 -69.78808979999999,44.2911804,0 -69.7875701,44.2918155,0 -69.7871047,44.2924652,0 -69.7868938,44.2927591,0 -69.7865764,44.2931859,0 -69.78638960000001,44.2934354,0 -69.7862871,44.2935725,0 -69.78609470000001,44.2938305,0 -69.78591729999999,44.2940664,0 -69.78591230000001,44.2940731,0 -69.785489,44.2946298,0 -69.78548240000001,44.2946393,0 -69.78529589999999,44.2949061,0 -69.784727,44.295677,0 -69.7846275,44.2958118,0 -69.7844664,44.2960301,0 -69.7843671,44.2961647,0 -69.7843475,44.2961913,0 -69.7839403,44.296752,0 -69.7838919,44.2968118,0 -69.7837392,44.2970182,0 -69.78363160000001,44.2971635,0 -69.78352289999999,44.2973436,0 -69.78346790000001,44.2974913,0 -69.78340249999999,44.297654,0 -69.78320979999999,44.2984131,0 -69.78315600000001,44.2986117,0 -69.782893,44.2995681,0 -69.7827542,44.3000501,0 -69.7827097,44.3002087,0 -69.78267769999999,44.3003236,0 -69.78259850000001,44.3006079,0 -69.78256,44.3007459,0 -69.7825442,44.3008026,0 -69.7825373,44.3008275,0 -69.7824001,44.301363,0 -69.78202400000001,44.3027557,0 -69.7819167,44.3031594,0 -69.7818125,44.3035872,0 -69.7817745,44.3037426,0 -69.78153469999999,44.3046057,0 -69.7815184,44.3046643,0 -69.7813246,44.3053617,0 -69.78119529999999,44.3058744,0 -69.7811722,44.3059464,0 -69.7811303,44.3060841,0 -69.7810714,44.3062979,0 -69.7809024,44.3066666,0 -69.7807504,44.3069313,0 -69.7807042,44.3070425,0 -69.7806889,44.307201,0 -69.78075010000001,44.3075027,0 -69.7807543,44.3076259,0 -69.78075680000001,44.3077012,0 -69.78073310000001,44.307763,0 -69.78054640000001,44.3082589,0 -69.7805189,44.3083217,0 -69.78031369999999,44.3088096,0 -69.7801924,44.3090982,0 -69.7801892,44.3091058,0 -69.7799758,44.3096153,0 -69.77995749999999,44.3096599,0 -69.779844,44.3098705,0 -69.7797977,44.3099184,0 -69.7797489,44.3099539,0 -69.7796797,44.3099952,0 -69.7796037,44.3100352,0 -69.77951090000001,44.3100775,0 -69.77941939999999,44.3101223,0 -69.7793621,44.3101444,0 -69.7792726,44.31017,0 -69.7791763,44.310188,0 -69.7790698,44.3102132,0 -69.7789969,44.3102128,0 -69.7789239,44.3102086,0 -69.7788663,44.3102024,0 -69.7788157,44.3101958,0 -69.7786584,44.3101726,0 -69.7785056,44.3101473,0 -69.7782078,44.3100967,0 -69.7780863,44.3100837,0 -69.7779597,44.3100882,0 -69.7778254,44.310105,0 -69.7776952,44.3101363,0 -69.777587,44.3101729,0 -69.77753920000001,44.3101887,0 -69.7774833,44.3102141,0 -69.77568669999999,44.3110693,0 -69.7755671,44.3111262,0 -69.7752138,44.3112984,0 -69.77515630000001,44.3113232,0 -69.7750996,44.3113799,0 -69.7750257,44.3114205,0 -69.7747332,44.3115431,0 -69.7745943,44.3116016,0 -69.7728898,44.3123991,0 -69.7725676,44.3125548,0 -69.7701546,44.3137353,0 -69.7700346,44.313795,0 -69.7699211,44.3138571,0 -69.7698221,44.313912,0 -69.7697349,44.3139672,0 -69.76962760000001,44.3140401,0 -69.7695265,44.3141139,0 -69.769431,44.3141895,0 -69.7693324,44.3142725,0 -69.76926520000001,44.3143386,0 -69.7691789,44.3144144,0 -69.7690928,44.3144999,0 -69.76900329999999,44.3145956,0 -69.7689283,44.3146905,0 -69.7688775,44.3147653,0 -69.7688141,44.314869,0 -69.7687425,44.3150073,0 -69.76853079999999,44.3152763,0 -69.7684869,44.3153441,0 -69.76843770000001,44.3154264,0 -69.7683779,44.3155403,0 -69.76826560000001,44.3157792,0 -69.768243,44.3158195,0 -69.76821959999999,44.3158527,0 -69.7681932,44.3158788,0 -69.7681642,44.3159044,0 -69.7681305,44.3159296,0 -69.7680965,44.315953,0 -69.7680598,44.3159763,0 -69.7679888,44.3160217,0 -69.7679761,44.3160211,0 -69.7679272,44.3160221,0 -69.7678853,44.316027,0 -69.767843,44.3160359,0 -69.7678011,44.3160493,0 -69.76775910000001,44.3160681,0 -69.7677238,44.3160893,0 -69.76769880000001,44.3161085,0 -69.76767270000001,44.3161341,0 -69.7676464,44.3161698,0 -69.7676263,44.3162158,0 -69.7676237,44.3162258,0 -69.76761930000001,44.3162578,0 -69.7676211,44.3162916,0 -69.7676297,44.3163258,0 -69.76764609999999,44.3163608,0 -69.7676689,44.3163927,0 -69.7676919,44.3164154,0 -69.7677183,44.3164374,0 -69.76772510000001,44.3164426,0 -69.7677249,44.3165979,0 -69.7677248,44.316671,0 -69.76772320000001,44.3167172,0 -69.7677194,44.3167672,0 -69.76771429999999,44.316813,0 -69.7677072,44.3168515,0 -69.7676963,44.316894,0 -69.76767820000001,44.3169288,0 -69.7676572,44.3169668,0 -69.7676348,44.3170043,0 -69.76749150000001,44.317225,0 -69.76743310000001,44.317315,0 -69.7673626,44.3174235,0 -69.7673401,44.3174582,0 -69.7672965,44.3175254,0 -69.7672305,44.3176271,0 -69.7670981,44.3178309,0 -69.7669559,44.31805,0 -69.76680229999999,44.3182865,0 -69.76658759999999,44.3186172,0 -69.7665418,44.3186878,0 -69.7662205,44.3191682,0 -69.76610580000001,44.3193439,0 -69.7660996,44.3193534,0 -69.7660817,44.3193789,0 -69.7659972,44.3194994,0 -69.76575819999999,44.3198401,0 -69.76571149999999,44.3199076,0 -69.76568330000001,44.3199523,0 -69.7656506,44.3199939,0 -69.7656207,44.320032,0 -69.76528399999999,44.3204911,0 -69.765243,44.3205471,0 -69.7651919,44.3206276,0 -69.7651293,44.3207263,0 -69.7650634,44.3208361,0 -69.7649979,44.3209513,0 -69.76494599999999,44.3210686,0 -69.7649131,44.3211497,0 -69.764895,44.3211944,0 -69.7648044,44.3214985,0 -69.76471100000001,44.3218123,0 -69.7646955,44.3218682,0 -69.7646261,44.322118,0 -69.7645971,44.3222225,0 -69.7645816,44.3222736,0 -69.7645612,44.3223401,0 -69.7644725,44.3226331,0 -69.7644574,44.3226782,0 -69.7644238,44.3227788,0 -69.7642675,44.3231929,0 -69.7641778,44.3234215,0 -69.7641493,44.3234941,0 -69.7640832,44.3236626,0 -69.7640437,44.3237612,0 -69.7639715,44.3239412,0 -69.7639363,44.3240291,0 -69.7639068,44.3241027,0 -69.7638733,44.3241935,0 -69.76383970000001,44.3242843,0 -69.76377410000001,44.324452,0 -69.76368290000001,44.3246853,0 -69.76353829999999,44.3250654,0 -69.7633673,44.3254924,0 -69.7632369,44.3258268,0 -69.7631275,44.3261074,0 -69.76300519999999,44.3264246,0 -69.7628356,44.326859,0 -69.7627603,44.3270729,0 -69.76273089999999,44.3271829,0 -69.7626842,44.3274192,0 -69.76266889999999,44.32753,0 -69.7626532,44.3279714,0 -69.76265069999999,44.3280398,0 -69.7626424,44.3282741,0 -69.7626321,44.3284914,0 -69.76262490000001,44.3286427,0 -69.7626192,44.3287616,0 -69.76261359999999,44.329207,0 -69.7626106,44.3294396,0 -69.7625999,44.3297026,0 -69.7625608,44.3299891,0 -69.7625524,44.3300503,0 -69.762536,44.3301125,0 -69.7625146,44.3302436,0 -69.76245659999999,44.3305103,0 -69.7623169,44.3309547,0 -69.76216549999999,44.3313687,0 -69.76209799999999,44.3315059,0 -69.7619328,44.331856,0 -69.7618262,44.3319314,0 -69.7617415,44.332042,0 -69.7616829,44.3321213,0 -69.76134260000001,44.3326043,0 -69.7611388,44.3328973,0 -69.76104890000001,44.333009,0 -69.7609552,44.3331255,0 -69.7608831,44.3332259,0 -69.7608049,44.3333307,0 -69.7606356,44.3335539,0 -69.7603814,44.3338801,0 -69.760215,44.3340994,0 -69.76005170000001,44.334312,0 -69.7598545,44.334593,0 -69.7597236,44.334777,0 -69.7595554,44.3350616,0 -69.7594979,44.3351361,0 -69.75865140000001,44.3360984,0 -69.7581797,44.3366174,0 -69.75787649999999,44.3370318,0 -69.7574776,44.3376795,0 -69.7574393,44.3377456,0 -69.7569987,44.338505,0 -69.75624689999999,44.3397787,0 -69.75599390000001,44.3402074,0 -69.75551179999999,44.3410241,0 -69.7550554,44.3418057,0 -69.75464100000001,44.3424168,0 -69.7541126,44.3429926,0 -69.7537172,44.343377,0 -69.7534465,44.3436395,0 -69.7533375,44.3437626,0 -69.7532554,44.3438455,0 -69.7530316,44.3440608,0 -69.7528669,44.3441988,0 -69.751643,44.3452038,0 -69.7515002,44.3453211,0 -69.7510843,44.3456626,0 -69.7510643,44.345679,0 -69.750778,44.345909,0 -69.75041450000001,44.3462476,0 -69.7503998,44.3462613,0 -69.7493999,44.3471927,0 -69.7492122,44.3473675,0 -69.7476534,44.3491765,0 -69.7467321,44.350305,0 -69.74616570000001,44.3509869,0 -69.7461399,44.3510179,0 -69.7454248,44.351854,0 -69.744294,44.3532707,0 -69.7438982,44.3537652,0 -69.7434959,44.3542542,0 -69.7434009,44.3543619,0 -69.74326689999999,44.3545139,0 -69.7428242,44.3550158,0 -69.7428041,44.3550386,0 -69.7427139,44.3551482,0 -69.74248129999999,44.3554308,0 -69.74205310000001,44.3559512,0 -69.7414021,44.3566878,0 -69.7404896,44.3577754,0 -69.74030620000001,44.3579939,0 -69.73892859999999,44.3596516,0 -69.73844939999999,44.360295,0 -69.7381401,44.3607891,0 -69.7377104,44.3614514,0 -69.73742849999999,44.3618799,0 -69.737139,44.3621759,0 -69.7366091,44.362742,0 -69.736328,44.3629399,0 -69.7356487,44.3634264,0 -69.73360150000001,44.364599,0 -69.7333256,44.364781,0 -69.73263249999999,44.3652692,0 -69.73213560000001,44.3656845,0 -69.7319535,44.3658438,0 -69.7316958,44.3660691,0 -69.7316692,44.3660986,0 -69.73153379999999,44.3662492,0 -69.7314014,44.3663765,0 -69.7304919,44.3674719,0 -69.73033150000001,44.3676369,0 -69.7285007,44.369334,0 -69.7275882,44.3702973,0 -69.7270791,44.3710327,0 -69.726724,44.371685,0 -69.72588020000001,44.3730862,0 -69.72511710000001,44.3740677,0 -69.7241743,44.3751334,0 -69.72326769999999,44.3760494,0 -69.72257879999999,44.376737,0 -69.72222720000001,44.3770908,0 -69.7219025,44.3774466,0 -69.7214807,44.3778767,0 -69.72102219999999,44.3783442,0 -69.7206983,44.3787043,0 -69.7203499,44.3791753,0 -69.7189451,44.3811902,0 -69.71821660000001,44.3821943,0 -69.71752619999999,44.3829308,0 -69.7167322,44.3835955,0 -69.7165529,44.3837652,0 -69.7161268,44.3841056,0 -69.71611040000001,44.3841203,0 -69.7152712,44.3848719,0 -69.7148833,44.3853249,0 -69.71468729999999,44.3856358,0 -69.7144673,44.3860314,0 -69.714253,44.3865434,0 -69.7135696,44.3881907,0 -69.71268070000001,44.3904175,0 -69.7126703,44.3904444,0 -69.7121465,44.3917909,0 -69.71112890000001,44.3943925,0 -69.7108551,44.3951035,0 -69.7107295,44.3954832,0 -69.7105703,44.3959513,0 -69.710058,44.3978672,0 -69.7092308,44.4007211,0 -69.70870840000001,44.4025589,0 -69.7081242,44.4046138,0 -69.7072161,44.4077831,0 -69.7071973,44.407854,0 -69.7067471,44.4094716,0 -69.7065036,44.4104878,0 -69.7063823,44.4110945,0 -69.70637170000001,44.4111383,0 -69.7061216,44.4121716,0 -69.7058926,44.4128433,0 -69.7054886,44.413645,0 -69.7050133,44.414529,0 -69.70396460000001,44.4166096,0 -69.70206880000001,44.4201526,0 -69.7013484,44.4215269,0 -69.70076469999999,44.4226311,0 -69.7000985,44.4237548,0 -69.69898910000001,44.4252558,0 -69.6971829,44.4274146,0 -69.6959659,44.4288514,0 -69.6950114,44.4299782,0 -69.693961,44.4312236,0 -69.6928692,44.4324746,0 -69.6918051,44.4338866,0 -69.691321,44.4346437,0 -69.69130490000001,44.4346686,0 -69.6912142,44.4348094,0 -69.68869960000001,44.438606,0 -69.6883433,44.4391249,0 -69.6879047,44.4397411,0 -69.6857218,44.4425536,0 -69.6844419,44.4443216,0 -69.68430739999999,44.4445074,0 -69.683679,44.4453755,0 -69.6825171,44.4474259,0 -69.68135409999999,44.4500112,0 -69.68045499999999,44.4522588,0 -69.6793993,44.4548667,0 -69.67888000000001,44.4561196,0 -69.6777895,44.4589071,0 -69.67650709999999,44.4621019,0 -69.67648699999999,44.462152,0 -69.6760192,44.463349,0 -69.675952,44.4635592,0 -69.6758368,44.4640517,0 -69.67579120000001,44.4649396,0 -69.6757794,44.4670017,0 -69.6758232,44.4688237,0 -69.6758354,44.4700032,0 -69.6758562,44.4707843,0 -69.67588569999999,44.4711537,0 -69.67592809999999,44.4715327,0 -69.6759689,44.4717988,0 -69.67602100000001,44.4720573,0 -69.676125,44.4725203,0 -69.6762532,44.4729529,0 -69.6763997,44.4733908,0 -69.6769414,44.4746578,0 -69.6776179,44.4762253,0 -69.67800560000001,44.4772005,0 -69.67863920000001,44.4787224,0 -69.67876510000001,44.4791084,0 -69.67886799999999,44.4795055,0 -69.6789081,44.4797343,0 -69.6789405,44.479944,0 -69.6789764,44.4805226,0 -69.67896229999999,44.4808394,0 -69.67892879999999,44.4811981,0 -69.6788517,44.4816456,0 -69.6787144,44.4821503,0 -69.67856569999999,44.482587,0 -69.6780455,44.4841141,0 -69.677199,44.4866205,0 -69.67700910000001,44.4872068,0 -69.6763632,44.4892691,0 -69.6761668,44.4897571,0 -69.6759303,44.4904799,0 -69.6753824,44.4918905,0 -69.67496680000001,44.4926005,0 -69.67467550000001,44.4930982,0 -69.67407040000001,44.493896,0 -69.6717058,44.4969492,0 -69.6713432,44.4973854,0 -69.6703282,44.4987977,0 -69.6700163,44.4994702,0 -69.6694699,44.5007088,0 -69.6689125,44.5016856,0 -69.6680247,44.5030779,0 -69.6676482,44.503961,0 -69.66717800000001,44.505873,0 -69.6667448,44.506854,0 -69.6663087,44.5075832,0 -69.6656199,44.5084616,0 -69.6638367,44.5104738,0 -69.66207230000001,44.5124256,0 -69.6619431,44.5125708,0 -69.6612296,44.5133727,0 -69.66067820000001,44.5139056,0 -69.6600057,44.5144432,0 -69.6590222,44.515244,0 -69.657588,44.516138,0 -69.65621950000001,44.517047,0 -69.6553304,44.5178007,0 -69.6530585,44.5200438,0 -69.65231559999999,44.5207816,0 -69.6519323,44.521101,0 -69.6514755,44.5214221,0 -69.6509152,44.521743,0 -69.6499665,44.5221886,0 -69.64843329999999,44.5226066,0 -69.6481684,44.5226752,0 -69.64704450000001,44.5229661,0 -69.6462355,44.5233184,0 -69.64453090000001,44.5242007,0 -69.64393920000001,44.5245805,0 -69.6431943,44.5250338,0 -69.64316169999999,44.5250541,0 -69.6427673,44.5252999,0 -69.6425378,44.5254429,0 -69.6425349,44.5254449,0 -69.64250610000001,44.5254642,0 -69.64213820000001,44.5257114,0 -69.64167279999999,44.5261531,0 -69.6414419,44.5264874,0 -69.6411184,44.5271534,0 -69.6408674,44.5276255,0 -69.6405884,44.5281153,0 -69.6394497,44.5297629,0 -69.6387809,44.5305964,0 -69.6376503,44.5320687,0 -69.63702929999999,44.5329506,0 -69.63671170000001,44.5333545,0 -69.636527,44.5335408,0 -69.636274,44.5337583,0 -69.6360227,44.5339308,0 -69.6357706,44.534058,0 -69.63557179999999,44.5341519,0 -69.6344376,44.5347071,0 -69.63293969999999,44.5354303,0 -69.6324889,44.5356549,0 -69.632137,44.535814,0 -69.6310641,44.5363402,0 -69.63061519999999,44.5365974,0 -69.6302185,44.536864,0 -69.6297417,44.537271,0 -69.62965920000001,44.5373502,0 -69.62939059999999,44.5376079,0 -69.62920889999999,44.5377688,0 -69.62898149999999,44.5379699,0 -69.628877,44.5380643,0 -69.6287596,44.5381705,0 -69.6287236,44.5382054,0 -69.62869259999999,44.5382367,0 -69.6286637,44.5382691,0 -69.62863369999999,44.5383086,0 -69.6285836,44.5383768,0 -69.6284134,44.5386461,0 -69.6280441,44.5392303,0 -69.6279231,44.5394298,0 -69.6275792,44.5399967,0 -69.6274872,44.5401637,0 -69.62740169999999,44.5403322,0 -69.62732939999999,44.5404846,0 -69.62726720000001,44.5406292,0 -69.62711349999999,44.5410212,0 -69.62707109999999,44.5411292,0 -69.6269832,44.5413473,0 -69.6269456,44.5414406,0 -69.6267986,44.5418054,0 -69.6264473,44.5426869,0 -69.626166,44.5434174,0 -69.62579460000001,44.5442614,0 -69.6255374,44.5449802,0 -69.6254627,44.545268,0 -69.6253847,44.5456894,0 -69.62537949999999,44.5467239,0 -69.6254077,44.5467688,0 -69.6254252,44.5468065,0 -69.62543530000001,44.5468528,0 -69.6254594,44.5471147,0 -69.625484,44.5471648,0 -69.6255013,44.5471872,0 -69.62554590000001,44.5472084,0 -69.6255847,44.5472225,0 -69.6256315,44.5472341,0 -69.6256707,44.5472444,0 -69.62594900000001,44.547308,0 -69.6261631,44.5473122,0 -69.6269159,44.547327,0 -69.62827540000001,44.5473538,0 -69.6284351,44.5473583,0 -69.62862149999999,44.5473657,0 -69.6287775,44.5473792,0 -69.6289101,44.5474009,0 -69.62901669999999,44.5474231,0 -69.62912919999999,44.5474494,0 -69.62924169999999,44.5474828,0 -69.62912679999999,44.5475718,0 -69.6290513,44.5477099,0 -69.62898509999999,44.5478403,0 -69.6289357,44.5479854,0 -69.6288795,44.5482273,0 -69.62877760000001,44.5484702,0 -69.6287677,44.5485319,0 -69.6287636,44.5485816,0 -69.6287435,44.5487444,0 -69.628716,44.5489375,0 -69.6286934,44.5490597,0 -69.6286736,44.5492207,0 -69.6286624,44.5493261,0 -69.6286265,44.5496165,0 -69.628575,44.5500332,0 -69.62857099999999,44.5500713,0 -69.62856379999999,44.5501397,0 -69.6285484,44.5503203,0 -69.62852169999999,44.550633,0 -69.6285208,44.5506989,0 -69.6285018,44.5513163,0 -69.6284892,44.5517283,0 -69.6284802,44.5520204,0 -69.6284649,44.5522933,0 -69.6284522,44.5525196,0 -69.6284393,44.5527508,0 -69.628426,44.5529877,0 -69.62840420000001,44.5533121,0 -69.6283629,44.5539262,0 -69.6283466,44.5541685,0 -69.62832880000001,44.5544992,0 -69.6283143,44.5547672,0 -69.6282753,44.5554897,0 -69.6282705,44.5557616,0 -69.6282748,44.5558081,0 -69.6282877,44.5558629,0 -69.62830460000001,44.5559177,0 -69.628326,44.5559826,0 -69.62835130000001,44.5560407,0 -69.62837879999999,44.5560943,0 -69.6284746,44.5562383,0 -69.6285652,44.5563744,0 -69.6286896,44.5565565,0 -69.6287813,44.5567028,0 -69.6288194,44.556778,0 -69.62884529999999,44.5568454,0 -69.6288705,44.5569296,0 -69.6288866,44.5570062,0 -69.62889060000001,44.5570818,0 -69.6288828,44.557159,0 -69.62886949999999,44.5572356,0 -69.6288471,44.5573153,0 
				
					-69.6288471,44.5573153,0 -69.6287854,44.557372,0 -69.62874239999999,44.557421,0 -69.62870959999999,44.5574729,0 -69.6278494,44.5590505,0 -69.62774779999999,44.5592327,0 -69.6269021,44.5606008,0 -69.6266028,44.5611162,0 -69.62653950000001,44.5613335,0 -69.6260492,44.5622208,0 -69.62568779999999,44.5628747,0 -69.62542430000001,44.5633516,0 -69.625069,44.5639945,0 -69.62499200000001,44.5641338,0 -69.6247243,44.5646181,0 -69.62446129999999,44.5650939,0 -69.6241478,44.5656614,0 -69.6239777,44.5659691,0 -69.62385329999999,44.5661942,0 -69.6237991,44.5662922,0 -69.62352009999999,44.5667995,0 -69.62327759999999,44.5672194,0 -69.62309449999999,44.5675487,0 -69.622991,44.5676952,0 -69.6228679,44.5678394,0 -69.62272110000001,44.5679849,0 -69.62257099999999,44.5681118,0 -69.6222827,44.5683602,0 -69.6217025,44.5688006,0 -69.6211941,44.5691515,0 -69.620896,44.5693523,0 -69.6203113,44.5697498,0 -69.62008350000001,44.5699029,0 -69.6194546,44.5703265,0 -69.6192618,44.5704604,0 -69.618808,44.5707715,0 -69.61874160000001,44.5708161,0 -69.6184135,44.5710363,0 -69.618329,44.5710931,0 -69.6179456,44.5713676,0 -69.6176703,44.5715648,0 -69.6164907,44.5726205,0 -69.6157461,44.5732166,0 -69.6136722,44.574966,0 -69.6115174,44.576507,0 -69.6096239,44.5778928,0 -69.60892920000001,44.5783732,0 -69.6073833,44.5795137,0 -69.60703460000001,44.5797521,0 -69.6070173,44.5797639,0 -69.60681030000001,44.5799128,0 -69.6066663,44.5800165,0 -69.6064358,44.5801823,0 -69.6064212,44.5801928,0 -69.60612999999999,44.5804113,0 -69.6056916,44.5807448,0 -69.6053221,44.5810036,0 -69.60486299999999,44.581312,0 -69.604794,44.5814103,0 -69.6046121,44.5815364,0 -69.6043244,44.5817144,0 -69.604251,44.5817596,0 -69.604125,44.581837,0 -69.60374,44.582043,0 -69.603494,44.582159,0 -69.603061,44.582316,0 -69.602585,44.582455,0 -69.6015627,44.5827249,0 -69.60145660000001,44.582756,0 -69.6009991,44.5828951,0 -69.6007991,44.5829587,0 -69.6005986,44.5829771,0 -69.600385,44.583074,0 -69.600078,44.583216,0 -69.59991599999999,44.583292,0 -69.59982340000001,44.5833399,0 -69.5995934,44.5834707,0 -69.59926849999999,44.5836416,0 -69.5991384,44.583715,0 -69.5990224,44.5837821,0 -69.59876800000001,44.583937,0 -69.59799719999999,44.5844652,0 -69.596765,44.585321,0 -69.59591500000001,44.58596,0 -69.595725,44.586123,0 -69.595538,44.586294,0 -69.595163,44.586657,0 -69.595027,44.586798,0 -69.594925,44.586912,0 -69.59483299999999,44.587036,0 -69.59474760000001,44.587187,0 -69.59468699999999,44.587294,0 -69.59461,44.587468,0 -69.59457810000001,44.5875868,0 -69.5945389,44.587733,0 -69.5945153,44.5878315,0 -69.594488,44.587985,0 -69.5944822,44.5880827,0 -69.59447900000001,44.588137,0 -69.594506,44.588353,0 -69.59455800000001,44.588635,0 -69.594629,44.588911,0 -69.59477200000001,44.589392,0 -69.594809,44.58953,0 -69.595091,44.590484,0 -69.59519349999999,44.5907794,0 -69.59520999999999,44.590827,0 -69.595235,44.590931,0 -69.59526,44.591079,0 -69.595275,44.59129,0 -69.595258,44.591496,0 -69.595056,44.592542,0 -69.594989,44.592821,0 -69.594936,44.593235,0 -69.59493399999999,44.593443,0 -69.59495200000001,44.593671,0 -69.5950217,44.5938843,0 -69.595114,44.594208,0 -69.59521700000001,44.594393,0 -69.595298,44.594522,0 -69.595389,44.594648,0 -69.595488,44.594774,0 -69.59563199999999,44.59493,0 -69.595924,44.595207,0 -69.59635350000001,44.5956032,0 -69.59651599999999,44.595753,0 -69.5969355,44.5961457,0 -69.597106,44.596309,0 -69.597939,44.597075,0 -69.598219,44.59737,0 -69.598376,44.597551,0 -69.598517,44.597735,0 -69.598646,44.597926,0 -69.598758,44.598119,0 -69.598857,44.598318,0 -69.598968,44.598588,0 -69.599014,44.598727,0 -69.59904710000001,44.5988528,0 -69.599086,44.599001,0 -69.59912799999999,44.599211,0 -69.59916699999999,44.599498,0 -69.59917299999999,44.599642,0 -69.59917129999999,44.5998513,0 -69.59914430000001,44.600144,0 -69.5991075,44.6003726,0 -69.599052,44.600617,0 -69.59894,44.600902,0 -69.59815399999999,44.602694,0 -69.5980532,44.6028953,0 -69.5980229,44.6029697,0 -69.597795,44.6034984,0 -69.597713,44.603634,0 -69.59750699999999,44.604101,0 -69.597346,44.604577,0 -69.597223,44.605062,0 -69.59715,44.605551,0 -69.597132,44.605883,0 -69.59713000000001,44.605918,0 -69.597129,44.605952,0 -69.59711900000001,44.60614,0 -69.59711660000001,44.6062358,0 -69.59710699999999,44.606623,0 -69.597031,44.607369,0 -69.596931,44.607974,0 -69.59671,44.608943,0 -69.59641499999999,44.609899,0 -69.596006,44.610838,0 -69.595465,44.611748,0 -69.59451300000001,44.613157,0 -69.593974,44.613955,0 -69.59307,44.615275,0 -69.591656,44.617376,0 -69.59155800000001,44.617514,0 -69.591258,44.617954,0 -69.591131,44.618139,0 -69.590795,44.618645,0 -69.590743,44.618723,0 -69.590355,44.619339,0 -69.5903096,44.6194275,0 -69.59017900000001,44.619682,0 -69.58999,44.620052,0 -69.58986899999999,44.620335,0 -69.58968299999999,44.620871,0 -69.589608,44.621197,0 -69.589528,44.621463,0 -69.58947999999999,44.621686,0 -69.58945900000001,44.6217462,0 -69.589382,44.622382,0 -69.58935700000001,44.622872,0 -69.58936199999999,44.623363,0 -69.589406,44.623857,0 -69.589477,44.624348,0 -69.589583,44.624832,0 -69.589724,44.625312,0 -69.589899,44.625777,0 -69.590108,44.626245,0 -69.590343,44.626703,0 -69.59061699999999,44.627159,0 -69.59083,44.627483,0 -69.59097199999999,44.627674,0 -69.59207000000001,44.628983,0 -69.594236,44.631526,0 -69.595929,44.633482,0 -69.596704,44.634292,0 -69.59699139999999,44.6345692,0 -69.59724199999999,44.634811,0 -69.59738,44.634951,0 -69.5985304,44.6360237,0 -69.599259,44.636703,0 -69.600495,44.637878,0 -69.60173500000001,44.639049,0 -69.603002,44.640226,0 -69.60387799999999,44.640974,0 -69.604784,44.641716,0 -69.60503300000001,44.64191,0 -69.60614,44.642729,0 -69.61055500000001,44.645829,0 -69.61398,44.648246,0 -69.615458,44.649282,0 -69.616434,44.649977,0 -69.61736500000001,44.650706,0 -69.618219,44.651475,0 -69.619016,44.652284,0 -69.61933500000001,44.652642,0 -69.619783,44.653185,0 -69.620423,44.65406,0 -69.62157500000001,44.655849,0 -69.621689,44.656044,0 -69.62234599999999,44.657073,0 -69.623205,44.658399,0 -69.624055,44.659749,0 -69.625894,44.662617,0 -69.625972,44.662748,0 -69.626834,44.664093,0 -69.627765,44.665518,0 -69.628247,44.666187,0 -69.628902,44.667163,0 -69.6289032,44.6671646,0 -69.629017,44.667319,0 -69.629302,44.66777,0 -69.62957900000001,44.668224,0 -69.629952,44.668874,0 -69.630106,44.669116,0 -69.630444,44.669705,0 -69.63067599999999,44.670171,0 -69.6307506,44.6703504,0 -69.63080600000001,44.670515,0 -69.6308652,44.6706976,0 -69.6309112,44.6708974,0 -69.63096400000001,44.671132,0 -69.631052,44.671622,0 -69.6310819,44.6717701,0 -69.63112390000001,44.6719966,0 -69.6311666,44.6722498,0 -69.6312827,44.6730416,0 -69.631291,44.673095,0 -69.63144699999999,44.674012,0 -69.631742,44.675744,0 -69.63213709999999,44.6780775,0 -69.632474,44.680155,0 -69.632577,44.680806,0 -69.6328225,44.6823004,0 -69.6328683,44.6825904,0 -69.63301,44.683362,0 -69.633088,44.683849,0 -69.63317499999999,44.684337,0 -69.63333799999999,44.684808,0 -69.6335224,44.6852225,0 -69.63355199999999,44.685289,0 -69.63364199999999,44.685457,0 -69.63377,44.685676,0 -69.634019,44.686089,0 -69.6342533,44.6864883,0 -69.63446399999999,44.686872,0 -69.6345585,44.6870293,0 -69.63462199999999,44.687135,0 -69.635054,44.687903,0 -69.63515200000001,44.688099,0 -69.635237,44.688298,0 -69.63531399999999,44.688499,0 -69.635383,44.688707,0 -69.635431,44.688921,0 -69.63545809999999,44.6890703,0 -69.635486,44.689224,0 -69.63550600000001,44.689333,0 -69.635558,44.690176,0 -69.635634,44.692283,0 -69.63566899999999,44.692984,0 -69.635712,44.693682,0 -69.63579799999999,44.695796,0 -69.63582,44.696139,0 -69.635892,44.697899,0 -69.635926,44.698249,0 -69.63596800000001,44.698462,0 -69.636028,44.698671,0 -69.63611,44.698868,0 -69.636229,44.699135,0 -69.63627,44.699224,0 -69.636678,44.7001,0 -69.637314,44.701466,0 -69.638079,44.703149,0 -69.63827499999999,44.703553,0 -69.638306,44.703716,0 -69.638429,44.704004,0 -69.63871899999999,44.704565,0 -69.63894500000001,44.704934,0 -69.638988,44.704991,0 -69.639349,44.705474,0 -69.63950699999999,44.705658,0 -69.63963699999999,44.705762,0 -69.639978,44.706158,0 -69.640992,44.707261,0 -69.64231599999999,44.708658,0 -69.642493,44.70882,0 -69.64264799999999,44.708981,0 -69.64273300000001,44.7091,0 -69.642954,44.709328,0 -69.643247,44.709607,0 -69.643536,44.709869,0 -69.643747,44.710077,0 -69.643925,44.710238,0 -69.64445499999999,44.710687,0 -69.644496,44.710722,0 -69.64487800000001,44.711035,0 -69.64501300000001,44.711111,0 -69.645216,44.711272,0 -69.645911,44.71186,0 -69.646418,44.712385,0 -69.646826,44.712945,0 -69.6470976,44.7134695,0 -69.6472995,44.7139946,0 -69.647834,44.715826,0 -69.648624,44.718071,0 -69.648859,44.719183,0 -69.6491996,44.7219481,0 -69.64934700000001,44.723387,0 -69.64931869999999,44.7243216,0 -69.64835100000001,44.729313,0 -69.6483254,44.7295029,0 -69.648276,44.72987,0 -69.64824900000001,44.730148,0 -69.648211,44.730985,0 -69.6483161,44.7317693,0 -69.648323,44.731821,0 -69.64860299999999,44.73248,0 -69.6486467,44.7325514,0 -69.6495121,44.7339667,0 -69.649719,44.734281,0 -69.65022999999999,44.734792,0 -69.651786,44.735897,0 -69.655123,44.738203,0 -69.655778,44.738652,0 -69.656215,44.738969,0 -69.65643300000001,44.73912,0 -69.65718,44.739843,0 -69.65869499999999,44.741889,0 -69.6605387,44.7438919,0 -69.660687,44.744053,0 -69.66127299999999,44.744672,0 -69.662997,44.74642,0 -69.664568,44.748008,0 -69.665649,44.749025,0 -69.666769,44.749838,0 -69.6733268,44.7541185,0 -69.675284,44.755396,0 -69.6768787,44.7564289,0 -69.6788193,44.7577264,0 -69.679439,44.758078,0 -69.679984,44.758363,0 -69.680888,44.758718,0 -69.68353500000001,44.759531,0 -69.68607900000001,44.760509,0 -69.68775599999999,44.761209,0 -69.688433,44.761431,0 -69.6893721,44.7615873,0 -69.689981,44.7616144,0 -69.690918,44.761525,0 -69.69160220000001,44.7614115,0 -69.695977,44.760528,0 -69.69765099999999,44.760491,0 -69.698564,44.76047,0 -69.6986285,44.7604646,0 -69.700321,44.760322,0 -69.70088610000001,44.7603203,0 -69.70146,44.760388,0 -69.7020945,44.7605302,0 -69.702777,44.760748,0 -69.7033149,44.7609286,0 -69.704049,44.761175,0 -69.705358,44.761615,0 -69.70605740000001,44.7618807,0 -69.707944,44.762651,0 -69.708958,44.762937,0 -69.709964,44.763194,0 -69.71076069999999,44.7633705,0 -69.71110299999999,44.763352,0 -69.7122134,44.7631683,0 -69.7131119,44.7630273,0 -69.714033,44.762895,0 -69.715024,44.762758,0 -69.7155339,44.7626874,0 -69.7160207,44.76262,0 -69.7166321,44.762543,0 -69.7169842,44.7624927,0 -69.717163,44.762443,0 -69.717281,44.762666,0 -69.7173179,44.7627077,0 -69.7174074,44.7628086,0 -69.7174885,44.7628698,0 -69.71756980000001,44.762917,0 -69.7176221,44.7629392,0 -69.7186792,44.7633791,0 -69.7188021,44.7634268,0 -69.71888130000001,44.7634575,0 -69.7189551,44.7634959,0 -69.7189729,44.7635051,0 -69.719121,44.763582,0 -69.71921639999999,44.7636385,0 -69.71933629999999,44.7637097,0 -69.719374,44.763732,0 -69.7194566,44.7637897,0 -69.71959,44.763883,0 -69.71971499999999,44.763987,0 -69.71982800000001,44.764107,0 -69.71986099999999,44.764179,0 -69.719877,44.764252,0 -69.7198911,44.7643304,0 -69.7198834,44.7643976,0 -69.71986219999999,44.7644796,0 -69.71977630000001,44.7646421,0 -69.7196581,44.764805,0 -69.7196009,44.7648977,0 -69.719427,44.764978,0 -69.7191734,44.7651356,0 -69.7191146,44.7651559,0 -69.719039,44.765182,0 -69.71835400000001,44.7654731,0 -69.71806479999999,44.7655957,0 -69.7179209,44.7656475,0 -69.7177429,44.7657115,0 -69.7177124,44.7657225,0 -69.71769399999999,44.765905,0 -69.71804710000001,44.7658868,0 -69.718102,44.765884,0 -69.7182964,44.765863,0 -69.71861610000001,44.7658284,0 -69.71868499999999,44.765821,0 -69.718782,44.765814,0 -69.719075,44.765777,0 -69.719376,44.765751,0 -69.719511,44.7657544,0 -69.719691,44.765759,0 -69.7198714,44.7661555,0 -69.7199505,44.7663293,0 -69.72027300000001,44.767038,0 -69.72098,44.768586,0 -69.7213539,44.7694208,0 -69.7213927,44.7695075,0 -69.721457,44.769651,0 -69.7216359,44.7700417,0 -69.72165200000001,44.770077,0 -69.7216798,44.7701383,0 -69.721889,44.7706,0 -69.722105,44.771065,0 -69.7225823,44.7721109,0 -69.72268939999999,44.7723457,0 -69.72288,44.7727596,0 -69.72295800000001,44.772929,0 -69.72305420000001,44.7731336,0 -69.7231393,44.7733147,0 -69.7232661,44.7735929,0 -69.72344870000001,44.7740058,0 -69.723653,44.774428,0 -69.723854,44.774842,0 -69.7241983,44.7756056,0 -69.7242267,44.7756645,0 -69.72452199999999,44.776312,0 -69.72463740000001,44.7765391,0 -69.7246754,44.7766139,0 -69.7247081,44.7766868,0 -69.72471779999999,44.7767086,0 -69.72500100000001,44.777353,0 -69.725452,44.77837,0 -69.725489,44.778459,0 -69.725559,44.778618,0 -69.725764,44.7790836,0 -69.7259469,44.779499,0 -69.7259796,44.7795714,0 -69.7259932,44.7796016,0 -69.72603359999999,44.7796879,0 -69.72615399999999,44.779945,0 -69.7263287,44.7803388,0 -69.726536,44.780806,0 -69.726947,44.781707,0 -69.72705999999999,44.78198,0 -69.72714999999999,44.782158,0 -69.72739,44.782628,0 -69.727485,44.782753,0 -69.7281435,44.783529,0 -69.72832440000001,44.7837159,0 -69.72877099999999,44.7840812,0 -69.72911670000001,44.7843172,0 -69.7291386,44.7843321,0 -69.72927900000001,44.784428,0 -69.7300729,44.7849024,0 -69.7304333,44.7851178,0 -69.73193910000001,44.7860177,0 -69.7320472,44.7860823,0 -69.7324284,44.7863101,0 -69.7327216,44.7864853,0 -69.732778,44.786519,0 -69.73310979999999,44.7867189,0 -69.7332115,44.786783,0 -69.7337198,44.7870835,0 -69.734548,44.787573,0 -69.734948,44.787801,0 -69.7350581,44.787864,0 -69.73529600000001,44.788,0 -69.7354339,44.7880822,0 -69.73706799999999,44.789056,0 -69.739558,44.790539,0 -69.74014680000001,44.7909006,0 -69.74026480000001,44.7909731,0 -69.740583,44.791157,0 -69.740889,44.791335,0 -69.7411493,44.791489,0 -69.741663,44.791753,0 -69.744612,44.793295,0 -69.74538800000001,44.793708,0 -69.745833,44.793945,0 -69.74621399999999,44.794157,0 -69.74636099999999,44.794246,0 -69.746574,44.794385,0 -69.746781,44.79453,0 -69.746979,44.794681,0 -69.747229,44.794891,0 -69.747349,44.794999,0 -69.74757,44.795218,0 -69.74787999999999,44.795555,0 -69.74807699999999,44.795782,0 -69.74883800000001,44.796704,0 -69.749436,44.797442,0 -69.749726,44.797812,0 -69.75026200000001,44.798469,0 -69.750552,44.798801,0 -69.750741,44.799032,0 -69.750879,44.799213,0 -69.751037,44.799386,0 -69.75172499999999,44.800218,0 -69.75197900000001,44.800513,0 -69.752219,44.800811,0 -69.75245200000001,44.801113,0 -69.752791,44.801532,0 -69.7535,44.802449,0 -69.754233,44.803366,0 -69.754715,44.803946,0 -69.75497799999999,44.804239,0 -69.755222,44.804539,0 -69.755477,44.804834,0 -69.75573799999999,44.805122,0 -69.75597500000001,44.805419,0 -69.75633000000001,44.805829,0 -69.75643599999999,44.805941,0 -69.756767,44.806358,0 -69.757085,44.806785,0 -69.757347,44.807158,0 -69.757593,44.807538,0 -69.757824,44.807922,0 -69.758111,44.808434,0 -69.758758,44.809677,0 -69.758934,44.809995,0 -69.759992,44.811987,0 -69.76014499999999,44.812237,0 -69.760312,44.812479,0 -69.76040500000001,44.812596,0 -69.76061300000001,44.812825,0 -69.76083800000001,44.813044,0 -69.761089,44.813251,0 -69.76122100000001,44.813351,0 -69.76136,44.813447,0 -69.761503,44.813538,0 -69.762111,44.813886,0 -69.76242999999999,44.814056,0 -69.763211,44.814471,0 -69.76331,44.81452,0 -69.76372000000001,44.814745,0 -69.763969,44.814888,0 -69.764002,44.814907,0 -69.76406,44.814938,0 -69.765247,44.815557,0 -69.7658835,44.8158985,0 -69.766423,44.816188,0 -69.76688799999999,44.816443,0 -69.7679569,44.8170154,0 -69.769002,44.817575,0 -69.7691303,44.8176396,0 -69.7705885,44.8183735,0 -69.7712217,44.8186921,0 -69.7713232,44.8187397,0 -69.771405,44.8187781,0 -69.77149679999999,44.8188213,0 -69.7717091,44.8189212,0 -69.77182569999999,44.8189761,0 -69.7722012,44.8191473,0 -69.7730193,44.8195158,0 -69.7730432,44.8195262,0 -69.7735342,44.819739,0 -69.77397019999999,44.8199396,0 -69.7743169,44.8200967,0 -69.7746897,44.8202871,0 -69.7749973,44.8204655,0 -69.7750966,44.8205262,0 -69.7751744,44.8205823,0 -69.7753314,44.8206849,0 -69.775499,44.8208001,0 -69.775538,44.8208298,0 -69.7756581,44.8209211,0 -69.775847,44.8210665,0 -69.7759671,44.8211665,0 -69.7760177,44.8212086,0 -69.7761694,44.8213444,0 -69.7762848,44.8214593,0 -69.77639910000001,44.8215777,0 -69.77669899999999,44.821943,0 -69.7767106,44.8219562,0 -69.77688910000001,44.8221602,0 -69.7770539,44.8223719,0 -69.7771077,44.8224398,0 -69.7780534,44.8236331,0 -69.77824990000001,44.823881,0 -69.7784985,44.8241845,0 -69.77853450000001,44.8242294,0 -69.778745,44.8244898,0 -69.7788292,44.8245939,0 -69.7790723,44.8249023,0 -69.7790893,44.8249243,0 -69.77931150000001,44.8252109,0 -69.7794634,44.8254027,0 -69.77963029999999,44.8256134,0 -69.7800458,44.826138,0 -69.7811615,44.8275466,0 -69.7814169,44.8278603,0 -69.781718,44.8282302,0 -69.7822595,44.8289108,0 -69.7824143,44.8291043,0 -69.7826242,44.8293666,0 -69.78268060000001,44.8294455,0 -69.7827489,44.829524,0 -69.7828406,44.8296357,0 -69.782898,44.829707,0 -69.78312,44.8299797,0 -69.783323,44.830237,0 -69.783619,44.830609,0 -69.7841401,44.8312521,0 -69.784836,44.832111,0 -69.785916,44.833421,0 -69.786491,44.834299,0 -69.78702199999999,44.8357,0 -69.7876109,44.8381147,0 -69.787879,44.839389,0 -69.787937,44.839661,0 -69.788039,44.840074,0 -69.788101,44.840348,0 -69.788256,44.840961,0 -69.7883671,44.8414236,0 -69.789728,44.8470714,0 -69.79002,44.848339,0 -69.79034900000001,44.849268,0 -69.790778,44.850035,0 -69.79164969999999,44.8511564,0 -69.795513,44.855841,0 -69.7969121,44.8575995,0 -69.797262,44.858042,0 -69.798501,44.859607,0 -69.799881,44.861351,0 -69.800219,44.861921,0 -69.80037900000001,44.862316,0 -69.80110500000001,44.865129,0 -69.8021186,44.8694612,0 -69.80230659999999,44.8701904,0 -69.8025487,44.8711292,0 -69.8027597,44.8719472,0 -69.802871,44.872379,0 -69.80303000000001,44.873057,0 -69.8032912,44.8741062,0 -69.8034392,44.8747004,0 -69.80370499999999,44.875768,0 -69.8038554,44.8763416,0 -69.8069289,44.8879713,0 -69.80712800000001,44.88873,0 -69.80792049999999,44.8917821,0 -69.808469,44.893662,0 -69.80937299999999,44.896152,0 -69.810163,44.898334,0 -69.81049,44.898986,0 -69.810886,44.899614,0 -69.811897,44.900998,0 -69.81589,44.906222,0 -69.81864299999999,44.909473,0 -69.82060300000001,44.91185,0 -69.821263,44.912861,0 -69.822822,44.9155,0 -69.824809,44.918911,0 -69.825867,44.920715,0 -69.82678300000001,44.922133,0 -69.828187,44.92383,0 -69.82965799999999,44.925431,0 -69.831036,44.926953,0 -69.8343606,44.9306086,0 -69.83788800000001,44.934408,0 -69.839913,44.936649,0 -69.840768,44.937452,0 -69.84128699999999,44.937821,0 -69.8483775,44.9421718,0 -69.85126339999999,44.9440703,0 -69.8514492,44.9441834,0 -69.85231210000001,44.9447783,0 -69.8543379,44.9460954,0 -69.85548,44.946873,0 -69.85983400000001,44.949713,0 -69.860169,44.949939,0 -69.86055899999999,44.950213,0 -69.8606382,44.9502641,0 -69.86077419999999,44.9503632,0 -69.860855,44.950425,0 -69.860901,44.950479,0 -69.8609496,44.9505725,0 -69.86096190000001,44.9505978,0 -69.8609939,44.9506634,0 -69.86103629999999,44.9507941,0 -69.8610623,44.9509306,0 -69.8610826,44.9510681,0 -69.86109999999999,44.951277,0 -69.86111630000001,44.9514811,0 -69.861126,44.9516905,0 -69.8611346,44.9518941,0 -69.8612242,44.9535549,0 -69.8613524,44.955265,0 -69.861492,44.956972,0 -69.861496,44.957178,0 -69.86151,44.957383,0 -69.861536,44.957583,0 -69.861616,44.958585,0 -69.86167500000001,44.95909,0 -69.86181500000001,44.960032,0 -69.86197799999999,44.961254,0 -69.862301,44.96342,0 -69.862365,44.96379,0 -69.862572,44.964861,0 -69.86273199999999,44.965553,0 -69.86282199999999,44.9659,0 -69.86287799999999,44.966077,0 -69.86302499999999,44.966595,0 -69.86316600000001,44.967044,0 -69.863246,44.967299,0 -69.863337,44.967656,0 -69.863609,44.968504,0 -69.863709,44.968858,0 -69.863765,44.969035,0 -69.863826,44.969207,0 -69.86386899999999,44.969386,0 -69.86410100000001,44.970103,0 -69.864367,44.970985,0 -69.864828,44.972457,0 -69.865129,44.97348,0 -69.86516,44.973585,0 -69.865229,44.97377,0 -69.865512,44.974715,0 -69.865554,44.974866,0 -69.86575499999999,44.975585,0 -69.86584999999999,44.975889,0 -69.86591300000001,44.976066,0 -69.866168,44.976884,0 -69.866315,44.977381,0 -69.866435,44.977738,0 -69.866496,44.977951,0 -69.86653099999999,44.9781,0 -69.86668299999999,44.978605,0 -69.866691,44.978631,0 -69.86689200000001,44.979259,0 -69.867147,44.980093,0 -69.867362,44.980916,0 -69.86747099999999,44.981901,0 -69.867442,44.982569,0 -69.86731,44.983382,0 -69.867282,44.983514,0 -69.865128,44.98932,0 -69.864225,44.991506,0 -69.863541,44.992769,0 -69.862967,44.993676,0 -69.862185,44.994749,0 -69.86094199999999,44.996252,0 -69.86023900000001,44.997229,0 -69.85936100000001,44.998748,0 -69.85867450000001,45.0003851,0 -69.858673,45.0003886,0 -69.858446,45.001264,0 -69.858199,45.002717,0 -69.858141,45.00405,0 -69.858217,45.00523,0 -69.858574,45.007289,0 -69.858667,45.008139,0 -69.858711,45.009627,0 -69.85853899999999,45.011588,0 -69.857964,45.014195,0 -69.857697,45.01610000000001,0 -69.85761100000001,45.023085,0 -69.85759160000001,45.0267269,0 -69.85758800000001,45.02741199999999,0 -69.8577617,45.02912539999999,0 -69.8578366,45.0296065,0 -69.85814999999999,45.030872,0 -69.858526,45.032075,0 -69.8592483,45.0337717,0 -69.86039100000001,45.03583199999999,0 -69.861929,45.038587,0 -69.86251110000001,45.039458,0 -69.863039,45.04001599999999,0 -69.863474,45.040382,0 -69.864154,45.04083399999999,0 -69.865025,45.041282,0 -69.86599699999999,45.04163940000001,0 -69.86682209999999,45.0418992,0 -69.8674513,45.0421015,0 -69.86815919999999,45.0423291,0 -69.8683532,45.04239139999999,0 -69.869114,45.042636,0 -69.86923470000001,45.04267349999999,0 -69.87039799999999,45.043086,0 -69.8712103,45.0435153,0 -69.87166329999999,45.04387690000001,0 -69.8722521,45.0446039,0 -69.8728966,45.04551179999999,0 -69.8731257,45.0458143,0 -69.8737421,45.0465062,0 -69.8743752,45.0469722,0 -69.87481390000001,45.0472327,0 -69.8752586,45.0474809,0 -69.8760345,45.0479096,0 -69.87677360000001,45.04830519999999,0 -69.8773703,45.0486428,0 -69.8780672,45.0490363,0 -69.8784158,45.0492566,0 -69.8788393,45.0495533,0 -69.879457,45.0499964,0 -69.8803904,45.05067139999999,0 -69.8810165,45.0511237,0 -69.88105179999999,45.0511533,0 -69.8813011,45.0513628,0 -69.8814859,45.0515502,0 -69.8816522,45.0517581,0 -69.88177020000001,45.051983,0 -69.88190299999999,45.052245,0 -69.882165,45.052775,0 -69.8822864,45.053011,0 -69.88229,45.05301799999999,0 -69.8824486,45.0532997,0 -69.8825107,45.0533916,0 -69.8828185,45.05401169999999,0 -69.883077,45.054551,0 -69.88315,45.054682,0 -69.883402,45.055168,0 -69.883589,45.055536,0 -69.883627,45.055643,0 -69.88365899999999,45.05575699999999,0 -69.88366600000001,45.05585299999999,0 -69.88365899999999,45.055946,0 -69.88364799999999,45.05601300000001,0 -69.883616,45.056144,0 -69.883565,45.056279,0 -69.88343399999999,45.05655400000001,0 -69.88327700000001,45.056869,0 -69.882949,45.05753399999999,0 -69.882806,45.05782300000001,0 -69.882328,45.058848,0 -69.882237,45.059075,0 -69.88214600000001,45.059322,0 -69.882099,45.05948999999999,0 -69.882071,45.05962000000001,0 -69.882032,45.059907,0 -69.8820303,45.0599689,0 -69.88200999999999,45.060193,0 -69.88200000000001,45.060454,0 -69.88199899999999,45.06074799999999,0 -69.8820049,45.0608604,0 -69.88200999999999,45.060959,0 -69.882026,45.061102,0 -69.882079,45.061353,0 -69.882127,45.061516,0 -69.88219100000001,45.06173500000001,0 -69.88224200000001,45.061868,0 -69.8822615,45.0618942,0 -69.882345,45.062062,0 -69.88244229999999,45.0622221,0 -69.88275109999999,45.0627467,0 -69.882885,45.062935,0 -69.883292,45.06366299999999,0 -69.88359199999999,45.064236,0 -69.884187,45.06540199999999,0 -69.88426200000001,45.06556,0 -69.88428399999999,45.06560600000001,0 -69.88444749999999,45.06590499999999,0 -69.8845305,45.0660806,0 -69.88464759999999,45.0663284,0 -69.8848929,45.0667593,0 -69.885002,45.066951,0 -69.885199,45.067275,0 -69.885456,45.067581,0 -69.885808,45.067917,0 -69.886199,45.068229,0 -69.886409,45.068387,0 -69.88659699999999,45.06849600000001,0 -69.88723899999999,45.068805,0 -69.888429,45.069266,0 -69.88864700000001,45.06935000000001,0 -69.8887467,45.06939,0 -69.88970399999999,45.069774,0 -69.890384,45.070049,0 -69.890441,45.070072,0 -69.890717,45.07017599999999,0 -69.89149999999999,45.070492,0 -69.892183,45.07075400000001,0 -69.893614,45.0713,0 -69.8937032,45.0713332,0 -69.894077,45.071472,0 -69.895143,45.071871,0 -69.89599699999999,45.072198,0 -69.896979,45.07256099999999,0 -69.89810199999999,45.073005,0 -69.898552,45.073169,0 -69.89870999999999,45.073227,0 -69.8989528,45.07337290000001,0 -69.89900299999999,45.073403,0 -69.899248,45.07359,0 -69.89932,45.07365699999999,0 -69.899435,45.07376500000001,0 -69.8995918,45.0739321,0 -69.8996653,45.0740531,0 -69.899742,45.0742363,0 -69.899798,45.07443199999999,0 -69.8998519,45.0747273,0 -69.89992599999999,45.07511,0 -69.9001191,45.0761452,0 -69.9002575,45.076582,0 -69.9004018,45.07696,0 -69.90062260000001,45.0773248,0 -69.9009235,45.0777504,0 -69.90117480000001,45.078175,0 -69.90119540000001,45.07823290000001,0 -69.9013052,45.0785412,0 -69.9013983,45.07896289999999,0 -69.90149460000001,45.0793658,0 -69.90167080000001,45.0796669,0 -69.901855,45.0799222,0 -69.9020584,45.0802724,0 -69.902128,45.0804217,0 -69.9022145,45.08060710000001,0 -69.902322,45.080978,0 -69.90244199999999,45.08139299999999,0 -69.9025828,45.081794,0 -69.9026595,45.08202799999999,0 -69.90268399999999,45.082144,0 -69.902829,45.082482,0 -69.903029,45.08281,0 -69.90327000000001,45.083118,0 -69.9036744,45.0834888,0 -69.90418,45.0838436,0 -69.9046038,45.0840644,0 -69.90509299999999,45.0842704,0 -69.9056303,45.0844356,0 -69.9061447,45.0845403,0 -69.90651269999999,45.0845816,0 -69.90665920000001,45.08459809999999,0 -69.9075716,45.0846645,0 -69.9089626,45.0847568,0 -69.9096512,45.08473839999999,0 -69.91019110000001,45.0846755,0 -69.9108552,45.0845346,0 -69.9115166,45.08438939999999,0 -69.9119549,45.084321,0 -69.912325,45.0843028,0 -69.91264990000001,45.0843136,0 -69.9129454,45.08435740000001,0 -69.91329279999999,45.0844405,0 -69.91360899999999,45.0845712,0 -69.91393650000001,45.0847666,0 -69.91431040000001,45.0850291,0 -69.9145789,45.0851613,0 -69.9148471,45.0852448,0 -69.915155,45.08529910000001,0 -69.9155013,45.0852952,0 -69.9157883,45.0852669,0 -69.91627509999999,45.0852118,0 -69.9166008,45.0852122,0 -69.91695110000001,45.08527409999999,0 -69.91728929999999,45.0854027,0 -69.91767040000001,45.0856078,0 -69.918143,45.0859383,0 -69.9185832,45.08628900000001,0 -69.9190153,45.0867185,0 -69.91933419999999,45.087109,0 -69.9196389,45.0875338,0 -69.9197851,45.0877932,0 -69.91991280000001,45.0881168,0 -69.9201606,45.08879760000001,0 -69.92034649999999,45.089307,0 -69.9203902,45.0896227,0 -69.9204208,45.0900165,0 -69.92048080000001,45.09053179999999,0 -69.920581,45.091093,0 -69.9208711,45.09275709999999,0 -69.920917,45.09303360000001,0 -69.92093819999999,45.0933504,0 -69.92088800000001,45.0936476,0 -69.9208075,45.0941169,0 -69.9207268,45.0944865,0 -69.92066699999999,45.0948595,0 -69.9206702,45.0951505,0 -69.9207196,45.09543129999999,0 -69.92084,45.0957325,0 -69.92099899999999,45.0959885,0 -69.92142200000001,45.09661800000001,0 -69.92148210000001,45.09672680000001,0 -69.92229,45.097976,0 -69.922321,45.098024,0 -69.92249839999999,45.0983669,0 -69.9226886,45.0985904,0 -69.922916,45.098793,0 -69.923377,45.099114,0 -69.923771,45.099257,0 -69.924111,45.099343,0 -69.924509,45.099392,0 -69.925011,45.09938699999999,0 -69.925406,45.09932899999999,0 -69.925961,45.099161,0 -69.926294,45.098995,0 -69.92655689999999,45.0987881,0 -69.9268063,45.0985613,0 -69.9271268,45.098328,0 -69.92740740000001,45.098169,0 -69.92776840000001,45.0980078,0 -69.92813769999999,45.0979012,0 -69.92853580000001,45.0978176,0 -69.92894269999999,45.0977856,0 -69.929301,45.0977854,0 -69.930964,45.09793700000001,0 -69.9321096,45.09802410000001,0 -69.9331368,45.0980946,0 -69.934682,45.098227,0 -69.935159,45.098281,0 -69.93558059999999,45.0983835,0 -69.93590810000001,45.0985075,0 -69.936283,45.098691,0 -69.936683,45.098998,0 -69.936978,45.09935,0 -69.93728299999999,45.09986800000001,0 -69.937652,45.100372,0 -69.937952,45.10065599999999,0 -69.938298,45.100908,0 -69.938608,45.101084,0 -69.93912400000001,45.101302,0 -69.93957949999999,45.1014383,0 -69.9399489,45.1015322,0 -69.94026049999999,45.1016006,0 -69.9406398,45.1017123,0 -69.9409383,45.1018245,0 -69.9412792,45.1019834,0 -69.9415815,45.10218749999999,0 -69.94183099999999,45.102429,0 -69.94208500000001,45.102766,0 -69.943465,45.104626,0 -69.9436592,45.104907,0 -69.9438134,45.1052266,0 -69.9438665,45.1054628,0 -69.9439239,45.1057989,0 -69.9440542,45.10680369999999,0 -69.9441953,45.1074549,0 -69.9443158,45.107875,0 -69.94452,45.1084739,0 -69.94520439999999,45.1107796,0 -69.94537440000001,45.1113583,0 -69.94568150000001,45.11200699999999,0 -69.94609749999999,45.1127584,0 -69.9474319,45.11501980000001,0 -69.94751890000001,45.11517789999999,0 -69.9475905,45.1153191,0 -69.9476342,45.1154499,0 -69.9476717,45.11558309999999,0 -69.9476841,45.1157347,0 -69.9476725,45.11590559999999,0 -69.94755019999999,45.1170825,0 -69.9475315,45.1176076,0 -69.9475336,45.11782090000001,0 -69.94756769999999,45.1180344,0 -69.94763450000001,45.1183616,0 -69.9477691,45.1188452,0 -69.9479493,45.1193445,0 -69.9482551,45.1200187,0 -69.94846750000001,45.1205741,0 -69.9485679,45.1209258,0 -69.9486296,45.1211703,0 -69.948684,45.121469,0 -69.948735,45.12172700000001,0 -69.9489804,45.1231697,0 -69.94907910000001,45.1236959,0 -69.94914129999999,45.1240806,0 -69.9492164,45.1246522,0 -69.94926340000001,45.1250856,0 -69.9492656,45.1257069,0 -69.9492509,45.1261395,0 -69.9492192,45.1265604,0 -69.9491617,45.1268896,0 -69.9490995,45.1272143,0 -69.9490212,45.1274967,0 -69.9488983,45.1277936,0 -69.948735,45.12816900000001,0 -69.94855800000001,45.128568,0 -69.948395,45.12897100000001,0 -69.94798900000001,45.130188,0 -69.947585,45.1314194,0 -69.94728979999999,45.1322809,0 -69.9471899,45.1326424,0 -69.9471113,45.13308010000001,0 -69.94708919999999,45.133409,0 -69.94710069999999,45.1336934,0 -69.94714279999999,45.1340451,0 -69.94721749999999,45.13462609999999,0 -69.94723639999999,45.13483780000001,0 -69.94720340000001,45.1350989,0 -69.9471669,45.135235,0 -69.94710550000001,45.1353959,0 -69.9469902,45.1355906,0 -69.94685080000001,45.1357756,0 -69.9466972,45.1359649,0 -69.9462551,45.1364335,0 -69.9460096,45.1367289,0 -69.94596180000001,45.1368013,0 -69.94590479999999,45.1369221,0 -69.9458362,45.1370837,0 -69.94579779999999,45.13721710000001,0 -69.9457836,45.1373403,0 -69.9457821,45.137466,0 -69.94579280000001,45.13756959999999,0 -69.9458327,45.137739,0 -69.9459154,45.1379348,0 -69.94600610000001,45.138106,0 -69.9461407,45.1382765,0 -69.9463026,45.1384166,0 -69.94649130000001,45.138554,0 -69.9468073,45.1387261,0 -69.9475508,45.1391356,0 -69.947852,45.13932440000001,0 -69.94801510000001,45.139444,0 -69.9481486,45.13957319999999,0 -69.948261,45.13971920000001,0 -69.9483568,45.1398676,0 -69.9484429,45.1400846,0 -69.9484649,45.140337,0 -69.9484193,45.1405954,0 -69.9483407,45.1408467,0 -69.9482299,45.1411096,0 -69.9480954,45.1414316,0 -69.94793749999999,45.1418332,0 -69.9477899,45.14220629999999,0 -69.9476593,45.1427029,0 -69.94739970000001,45.14387490000001,0 -69.9471966,45.1447715,0 -69.94706789999999,45.14557260000001,0 -69.9469678,45.1464366,0 -69.9468868,45.1471485,0 -69.9468093,45.1478399,0 -69.9467922,45.1482937,0 -69.94685680000001,45.1486948,0 -69.9469678,45.1490986,0 -69.9471728,45.1498437,0 -69.9473259,45.1504672,0 -69.94736210000001,45.15084569999999,0 -69.9473581,45.1514603,0 -69.9473651,45.1518935,0 -69.94739970000001,45.15214600000001,0 -69.947463,45.1523965,0 -69.9475904,45.1526702,0 -69.94771110000001,45.1528535,0 -69.94785160000001,45.1530275,0 -69.9479678,45.1531472,0 -69.9480689,45.1532334,0 -69.9484121,45.15348839999999,0 -69.94859460000001,45.1536096,0 -69.9488327,45.1537331,0 -69.9491179,45.15383210000001,0 -69.9493995,45.15392750000001,0 -69.94984719999999,45.1540387,0 -69.950108,45.154114,0 -69.95020700000001,45.154133,0 -69.950772,45.154259,0 -69.951155,45.154333,0 -69.95143899999999,45.154396,0 -69.952005,45.154531,0 -69.952551,45.15468899999999,0 -69.953081,45.154874,0 -69.95359500000001,45.15508199999999,0 -69.954093,45.15531299999999,0 -69.95506899999999,45.15577999999999,0 -69.955584,45.155998,0 -69.955763,45.15606900000001,0 -69.956559,45.156333,0 -69.95667400000001,45.156378,0 -69.95878500000001,45.157094,0 -69.959717,45.157406,0 -69.960272,45.157563,0 -69.96084,45.157697,0 -69.9609756,45.157723,0 -69.961409,45.157806,0 -69.96313600000001,45.15811000000001,0 -69.96370400000001,45.158226,0 -69.96426099999999,45.158365,0 -69.964811,45.158521,0 -69.965344,45.15869800000001,0 -69.96675399999999,45.159208,0 -69.967944,45.15958500000001,0 -69.968683,45.159768,0 -69.970212,45.16005999999999,0 -69.970574,45.160164,0 -69.970698,45.16021,0 -69.973032,45.161084,0 -69.973463,45.161253,0 -69.97435900000001,45.161661,0 -69.975123,45.1621,0 -69.975781,45.162527,0 -69.976399,45.162886,0 -69.97697700000001,45.16315900000001,0 -69.977418,45.16331600000001,0 -69.97787,45.163455,0 -69.97859,45.16368400000001,0 -69.978764,45.163752,0 -69.978897,45.16381000000001,0 -69.97929499999999,45.163995,0 -69.97976199999999,45.164247,0 -69.980187,45.164536,0 -69.98056200000001,45.16485400000001,0 -69.982124,45.16628799999999,0 -69.98253699999999,45.16668,0 -69.982788,45.166977,0 -69.983003,45.167286,0 -69.98318,45.167608,0 -69.983351,45.168081,0 -69.983437,45.168494,0 -69.98348300000001,45.16911999999999,0 -69.98348,45.169538,0 -69.98347200000001,45.169676,0 -69.98347,45.169828,0 -69.98338,45.170729,0 -69.982828,45.173216,0 -69.982747,45.17363400000001,0 -69.982597,45.174247,0 -69.982581,45.174898,0 -69.982626,45.175317,0 -69.982877,45.176975,0 -69.983037,45.17822399999999,0 -69.98311200000001,45.179478,0 -69.983144,45.18073,0 -69.98311200000001,45.18156,0 -69.98303300000001,45.182044,0 -69.983009,45.182115,0 -69.98294199999999,45.182396,0 -69.98223400000001,45.184856,0 -69.982122,45.185271,0 -69.982032,45.18582799999999,0 -69.982034,45.18632199999999,0 -69.982221,45.187214,0 -69.98227799999999,45.187629,0 -69.982275,45.187977,0 -69.982237,45.188323,0 -69.98211999999999,45.188801,0 -69.98199,45.189207,0 -69.981711,45.190024,0 -69.98160799999999,45.190439,0 -69.981331,45.191686,0 -69.981269,45.192029,0 -69.981244,45.192382,0 -69.981274,45.192805,0 -69.981371,45.19321799999999,0 -69.982067,45.19482,0 -69.982223,45.195361,0 -69.98231800000001,45.195922,0 -69.98233500000001,45.196058,0 -69.98244800000001,45.19679,0 -69.98247499999999,45.19696199999999,0 -69.98256000000001,45.19736899999999,0 -69.98277,45.198191,0 -69.982916,45.198593,0 -69.98307,45.198996,0 -69.983232,45.19940200000001,0 -69.98341600000001,45.19980600000001,0 -69.983649,45.200199,0 -69.98377600000001,45.200387,0 -69.984054,45.200761,0 -69.984621,45.201489,0 -69.98488500000001,45.201867,0 -69.98511000000001,45.20225400000001,0 -69.985291,45.20265200000001,0 -69.98543100000001,45.203057,0 -69.98553,45.203473,0 -69.98590900000001,45.205548,0 -69.98609500000001,45.20638000000001,0 -69.9862692,45.2070287,0 -69.986316,45.207203,0 -69.986705,45.208433,0 -69.9870689,45.20948760000001,0 -69.987126,45.209653,0 -69.98741080000001,45.2105011,0 -69.987539,45.210883,0 -69.987663,45.211293,0 -69.98774400000001,45.21168400000001,0 -69.98781200000001,45.212122,0 -69.987841,45.212541,0 -69.987842,45.212966,0 -69.987871,45.214916,0 -69.9879341,45.21891459999999,0 -69.987962,45.221512,0 -69.98800199999999,45.223229,0 -69.988066,45.223575,0 -69.988237,45.224201,0 -69.98838499999999,45.224608,0 -69.988561,45.225009,0 -69.988769,45.225404,0 -69.989282,45.226167,0 -69.98957,45.226537,0 -69.990736,45.228002,0 -69.994418,45.232583,0 -69.99497700000001,45.2332989,0 -69.995473,45.233934,0 -69.99574,45.234308,0 -69.99585810000001,45.2344991,0 -69.9958994,45.234575,0 -69.99596699999999,45.234696,0 -69.99606300000001,45.23489399999999,0 -69.996256,45.23536200000001,0 -69.996385,45.23577,0 -69.99651900000001,45.236605,0 -69.996517,45.237024,0 -69.996489,45.23743799999999,0 -69.9963794,45.2380075,0 -69.996334,45.2381961,0 -69.996256,45.238474,0 -69.995903,45.239423,0 -69.99549,45.24036,0 -69.994883,45.241245,0 -69.99409199999999,45.242044,0 -69.99317600000001,45.242784,0 -69.99233099999999,45.243551,0 -69.991602,45.244379,0 -69.990847,45.245203,0 -69.990132,45.24604000000001,0 -69.98984,45.24648199999999,0 -69.989597,45.246936,0 -69.989407,45.247406,0 -69.989277,45.24788299999999,0 -69.98921,45.248371,0 -69.98920099999999,45.248857,0 -69.989256,45.249341,0 -69.9893367,45.2499188,0 -69.989392,45.250315,0 -69.98944299999999,45.250806,0 -69.98947699999999,45.25129500000001,0 -69.98948799999999,45.25178399999999,0 -69.989459,45.252269,0 -69.989441,45.25241100000001,0 -69.98939799999999,45.25276,0 -69.98932859999999,45.2532058,0 -69.9890573,45.2549484,0 -69.9889,45.256027,0 -69.988885,45.256167,0 -69.988888,45.256648,0 -69.98899299999999,45.25711299999999,0 -69.989159,45.257586,0 -69.98941600000001,45.258044,0 -69.98987,45.25873099999999,0 -69.990273,45.25936599999999,0 -69.99054700000001,45.259813,0 -69.99106500000001,45.2606397,0 -69.991804,45.261819,0 -69.991894,45.26194499999999,0 -69.99261799999999,45.263077,0 -69.99278099999999,45.263328,0 -69.993044,45.263755,0 -69.993351,45.264178,0 -69.993726,45.264588,0 -69.99417200000001,45.264958,0 -69.99467799999999,45.26529200000001,0 -69.99519600000001,45.26560199999999,0 -69.99539660000001,45.2657601,0 -69.99566299999999,45.26597,0 -69.99602400000001,45.266397,0 -69.99619199999999,45.26668399999999,0 -69.99627099999999,45.26685999999999,0 -69.996413,45.267337,0 -69.996424,45.267809,0 -69.996343,45.26831900000001,0 -69.996208,45.2688,0 -69.995975,45.26926,0 -69.995457,45.270168,0 -69.99523600000001,45.270633,0 -69.99509399999999,45.271109,0 -69.99501600000001,45.27159400000001,0 -69.994998,45.272081,0 -69.995012,45.272571,0 -69.994985,45.273059,0 -69.994888,45.27353299999999,0 -69.994711,45.274009,0 -69.994231,45.274935,0 -69.99272999999999,45.27768,0 -69.992323,45.278595,0 -69.991415,45.28095900000001,0 -69.991088,45.28192300000001,0 -69.990853,45.282889,0 -69.99060900000001,45.284243,0 -69.99041,45.285314,0 -69.99020400000001,45.28628,0 -69.98990999999999,45.287237,0 -69.989621,45.28811200000001,0 -69.989419,45.288647,0 -69.988913,45.290069,0 -69.988388,45.291514,0 -69.98788399999999,45.292939,0 -69.986817,45.295893,0 -69.985986,45.298188,0 -69.98561100000001,45.299207,0 -69.985298,45.30005700000001,0 -69.985207,45.300277,0 -69.985043,45.300631,0 -69.984685,45.301265,0 -69.98439399999999,45.301719,0 -69.984233,45.301936,0 -69.983994,45.30226800000001,0 -69.983008,45.303533,0 -69.982032,45.30481200000001,0 -69.981414,45.305678,0 -69.98095000000001,45.30659699999999,0 -69.980664,45.307548,0 -69.980003,45.31043199999999,0 -69.97993099999999,45.31092,0 -69.97993700000001,45.311407,0 -69.979979,45.311755,0 -69.9807576,45.314974,0 -69.9808062,45.3152496,0 -69.98082479999999,45.3155287,0 -69.98080469999999,45.3158133,0 -69.9807297,45.31615680000001,0 -69.9806373,45.3164726,0 -69.98047939999999,45.3168419,0 -69.9801492,45.3173965,0 -69.979426,45.31847100000001,0 -69.979248,45.318758,0 -69.9786,45.319723,0 -69.977993,45.320592,0 -69.977605,45.321049,0 -69.977278,45.32143500000001,0 -69.976057,45.32260999999999,0 -69.97489899999999,45.3237094,0 -69.9746193,45.3239868,0 -69.97405000000001,45.324594,0 -69.97394,45.324729,0 -69.97335,45.32545099999999,0 -69.971666,45.327579,0 -69.970832,45.32835800000001,0 -69.9703133,45.328771,0 -69.969919,45.32908499999999,0 -69.969436,45.32944499999999,0 -69.9689862,45.3298287,0 -69.96860700000001,45.330249,0 -69.9682973,45.3306923,0 -69.96817160000001,45.3309457,0 -69.968082,45.33116,0 -69.9679976,45.33139160000001,0 -69.9679366,45.33167370000001,0 -69.96785180000001,45.3321972,0 -69.96770909999999,45.3327306,0 -69.967592,45.333059,0 -69.96737419999999,45.3336238,0 -69.9673074,45.3338622,0 -69.9672589,45.3341449,0 -69.9672624,45.3343516,0 -69.9672645,45.3344826,0 -69.96726510000001,45.33451550000001,0 -69.96728520000001,45.3348805,0 -69.9672944,45.3350483,0 -69.9672959,45.33507549999999,0 -69.9673504,45.335421,0 -69.9674576,45.3357736,0 -69.9674997,45.33585459999999,0 -69.9675908,45.3360299,0 -69.9678213,45.3363334,0 -69.9679915,45.33649489999999,0 -69.96857439999999,45.3369897,0 -69.968682,45.337081,0 -69.969168,45.337513,0 -69.96950820000001,45.3378567,0 -69.97035200000001,45.33870900000001,0 -69.97156,45.33991999999999,0 -69.972257,45.340759,0 -69.973296,45.34202999999999,0 -69.97435900000001,45.343201,0 -69.974425,45.343273,0 -69.975207,45.344062,0 -69.97608,45.34481600000001,0 -69.97705000000001,45.34550000000001,0 -69.97809700000001,45.34614800000001,0 -69.981415,45.34789800000001,0 -69.981649,45.348017,0 -69.98277059999999,45.3486015,0 -69.9839686,45.3492297,0 -69.9842637,45.3494046,0 -69.9846257,45.3496396,0 -69.9850994,45.3500146,0 -69.9854435,45.3503329,0 -69.9855548,45.3504517,0 -69.98591930000001,45.3508728,0 -69.98604039999999,45.35105609999999,0 -69.9862208,45.35134589999999,0 -69.9864491,45.3517879,0 -69.98653090000001,45.3520042,0 -69.98664890000001,45.3524181,0 -69.9868173,45.3530974,0 -69.9869188,45.3534401,0 -69.98702950000001,45.353761,0 -69.987173,45.3540842,0 -69.9874195,45.354564,0 -69.9877427,45.35516,0 -69.988474,45.356409,0 -69.9887421,45.3568244,0 -69.98914499999999,45.3572941,0 -69.9895264,45.3576369,0 -69.9899145,45.3579389,0 -69.9899532,45.3579641,0 -69.99013840000001,45.35808460000001,0 -69.9904104,45.3582615,0 -69.99097930000001,45.3585552,0 -69.9916853,45.3588618,0 -69.993511,45.359533,0 -69.994145,45.35977,0 -69.9949027,45.36005369999999,0 -69.9950266,45.36009920000001,0 -69.9963786,45.360596,0 -69.997073,45.36085299999999,0 -69.998884,45.36154000000001,0 -70.0012657,45.362421,0 -70.0026788,45.3629649,0 -70.0032592,45.3631873,0 -70.0041554,45.3635322,0 -70.0047562,45.3637706,0 -70.00514579999999,45.3639383,0 -70.0055538,45.3641399,0 -70.0058066,45.3642808,0 -70.0062673,45.3645696,0 -70.0066448,45.3648339,0 -70.00702099999999,45.3651331,0 -70.007509,45.365579,0 -70.00825500000001,45.36639700000001,0 -70.009012,45.36726000000001,0 -70.010446,45.368863,0 -70.011585,45.37018740000001,0 -70.012584,45.371349,0 -70.01364700000001,45.372593,0 -70.014315,45.373444,0 -70.014878,45.37433,0 -70.01587499999999,45.37613600000001,0 -70.01631,45.377049,0 -70.016634,45.378007,0 -70.01678510000001,45.37856099999999,0 -70.01689399999999,45.37896,0 -70.017008,45.37943500000001,0 -70.017146,45.37991499999999,0 -70.0172989,45.38029,0 -70.017363,45.3804429,0 -70.018232,45.3822,0 -70.01870959999999,45.3831606,0 -70.01918809999999,45.38433919999999,0 -70.01940430000001,45.3848248,0 -70.0196468,45.385295,0 -70.0200998,45.38593759999999,0 -70.0205885,45.3864864,0 -70.0210941,45.3869522,0 -70.02134700000001,45.387158,0 -70.021702,45.387429,0 -70.02221900000001,45.3877797,0 -70.0228249,45.3881284,0 -70.023988,45.388664,0 -70.026972,45.389977,0 -70.02866899999999,45.390789,0 -70.030895,45.391942,0 -70.031958,45.39256899999999,0 -70.03288499999999,45.393297,0 -70.03363880000001,45.3940893,0 -70.03405650000001,45.3946707,0 -70.03408589999999,45.3947116,0 -70.03446599999999,45.395385,0 -70.03464200000001,45.39568899999999,0 -70.03489500000001,45.396152,0 -70.03551400000001,45.39732,0 -70.036252,45.398694,0 -70.036534,45.39919199999999,0 -70.036984,45.400063,0 -70.037728,45.401429,0 -70.038462,45.40279400000001,0 -70.039177,45.40415899999999,0 -70.040662,45.406905,0 -70.043584,45.412382,0 -70.04431099999999,45.41375500000001,0 -70.045055,45.41512300000001,0 -70.04536,45.415707,0 -70.0454373,45.4158485,0 -70.045793,45.41649899999999,0 -70.047252,45.41924,0 -70.04799199999999,45.420612,0 -70.0484306,45.4215445,0 -70.0489247,45.42274329999999,0 -70.049356,45.42403399999999,0 -70.0493714,45.4240794,0 -70.049673,45.424967,0 -70.04983199999999,45.425434,0 -70.05029,45.42685900000001,0 -70.05055299999999,45.427692,0 -70.05074500000001,45.428302,0 -70.05104,45.429211,0 -70.05122,45.42976999999999,0 -70.051687,45.431178,0 -70.05227499999999,45.43257000000001,0 -70.05269199999999,45.433483,0 -70.05368799999999,45.435726,0 -70.05392000000001,45.43618499999999,0 -70.054129,45.436625,0 -70.0546705,45.43786490000001,0 -70.0548886,45.4384476,0 -70.05503229999999,45.4389373,0 -70.0551294,45.439424,0 -70.0552021,45.4398956,0 -70.05520799999999,45.4403433,0 -70.0552048,45.4408006,0 -70.0551777,45.441366,0 -70.0551217,45.44235439999999,0 -70.055012,45.44578299999999,0 -70.054998,45.446268,0 -70.05495639999999,45.44673700000001,0 -70.0548333,45.4475457,0 -70.0547746,45.4479392,0 -70.05477620000001,45.4482612,0 -70.0548663,45.4487017,0 -70.0549784,45.4491311,0 -70.055027,45.449373,0 -70.055036,45.449544,0 -70.055025,45.44974199999999,0 -70.05499399999999,45.449932,0 -70.05459500000001,45.4512,0 -70.054542,45.451398,0 -70.054503,45.451597,0 -70.05446000000001,45.452066,0 -70.05451600000001,45.452535,0 -70.05491000000001,45.453894,0 -70.0552,45.454921,0 -70.055443,45.455884,0 -70.055936,45.45789589999999,0 -70.05614300000001,45.4585871,0 -70.0563995,45.4592416,0 -70.05728619999999,45.4610625,0 -70.05758179999999,45.4614777,0 -70.05802,45.461939,0 -70.059179,45.463133,0 -70.06034699999999,45.464358,0 -70.061161,45.46518099999999,0 -70.06161299999999,45.465558,0 -70.062118,45.46589000000001,0 -70.063188,45.46649,0 -70.063689,45.46683699999999,0 -70.064145,45.467221,0 -70.06452299999999,45.467638,0 -70.0649123,45.4681925,0 -70.06519059999999,45.46875229999999,0 -70.06540579999999,45.46927520000001,0 -70.0655163,45.4696936,0 -70.065546,45.470012,0 -70.0655556,45.4703536,0 -70.0655428,45.47084619999999,0 -70.0654924,45.4712287,0 -70.0653607,45.4720961,0 -70.06527199999999,45.472594,0 -70.06519,45.473073,0 -70.065023,45.473803,0 -70.064857,45.47452700000001,0 -70.064756,45.47500699999999,0 -70.064701,45.47548900000001,0 -70.064747,45.475972,0 -70.06487300000001,45.47645000000001,0 -70.06508100000001,45.476915,0 -70.065665,45.477796,0 -70.06659999999999,45.47911999999999,0 -70.06752,45.480436,0 -70.06845300000001,45.48174599999999,0 -70.0717125,45.4863776,0 -70.07402399999999,45.489662,0 -70.07495900000001,45.490976,0 -70.07554399999999,45.491874,0 -70.075695,45.492179,0 -70.0758903,45.4927854,0 -70.0760544,45.4935078,0 -70.076173,45.49426320000001,0 -70.0767,45.4969926,0 -70.0769184,45.49766209999999,0 -70.07771700000001,45.499486,0 -70.078141,45.500489,0 -70.079145,45.502832,0 -70.079555,45.503771,0 -70.0798841,45.5043769,0 -70.0801479,45.50479849999999,0 -70.0802089,45.504896,0 -70.080743,45.505543,0 -70.0812901,45.5060939,0 -70.0814706,45.5062756,0 -70.0818228,45.5065507,0 -70.08252,45.50704,0 -70.0829018,45.5072752,0 -70.082983,45.50732519999999,0 -70.083556,45.507678,0 -70.08589499999999,45.509103,0 -70.086735,45.509618,0 -70.08830399999999,45.51059100000001,0 -70.089349,45.511231,0 -70.0898924,45.51162160000001,0 -70.090276,45.511976,0 -70.09072930000001,45.5124708,0 -70.0910959,45.5129821,0 -70.0913542,45.5134741,0 -70.09147830000001,45.5137781,0 -70.091521,45.5138825,0 -70.0915296,45.5139116,0 -70.0916096,45.5141822,0 -70.0917627,45.5147003,0 -70.09196540000001,45.5152647,0 -70.09202999999999,45.5154446,0 -70.09205780000001,45.515522,0 -70.092648,45.517186,0 -70.09286419999999,45.51778780000001,0 -70.093328,45.519079,0 -70.0933331,45.5190941,0 -70.0936287,45.5199681,0 -70.093808,45.520498,0 -70.09407520000001,45.5212151,0 -70.094162,45.52144800000001,0 -70.0942423,45.5217158,0 -70.09431530000001,45.5218557,0 -70.0944554,45.5221309,0 -70.0949004,45.5227313,0 -70.095146,45.522976,0 -70.0953751,45.52326960000001,0 -70.09618399999999,45.523982,0 -70.09748500000001,45.525122,0 -70.098349,45.525886,0 -70.0983758,45.52591489999999,0 -70.0987643,45.5263346,0 -70.09911,45.526708,0 -70.09971,45.527595,0 -70.09995499999999,45.528108,0 -70.100156,45.52853,0 -70.1009461,45.53080320000001,0 -70.1017315,45.5330631,0 -70.10251100000001,45.535196,0 -70.1030856,45.5368707,0 -70.103331,45.537586,0 -70.103557,45.538051,0 -70.103844,45.538495,0 -70.1040977,45.5388222,0 -70.1044466,45.5391876,0 -70.1047246,45.5394045,0 -70.104924,45.53956000000001,0 -70.105132,45.539704,0 -70.105605,45.540008,0 -70.1070284,45.5409453,0 -70.108615,45.54199,0 -70.11013800000001,45.542982,0 -70.11126400000001,45.543752,0 -70.111716,45.544091,0 -70.1117569,45.5441226,0 -70.112607,45.54478,0 -70.113032,45.54511,0 -70.113952,45.54583700000001,0 -70.11451,45.54627700000001,0 -70.11452180000001,45.5462863,0 -70.1146019,45.5463495,0 -70.115647,45.547174,0 -70.1174838,45.548637,0 -70.118571,45.549503,0 -70.11950400000001,45.55023199999999,0 -70.12048299999999,45.550923,0 -70.121527,45.551569,0 -70.12262699999999,45.552162,0 -70.123778,45.552726,0 -70.124208,45.55292200000001,0 -70.125523,45.55353,0 -70.127259,45.554354,0 -70.1285972,45.5549764,0 -70.129007,45.555167,0 -70.130741,45.555967,0 -70.131905,45.556515,0 -70.13299600000001,45.557114,0 -70.133619,45.557558,0 -70.1342128,45.55802690000001,0 -70.134818,45.558591,0 -70.135526,45.55943499999999,0 -70.136368,45.56077799999999,0 -70.13646180000001,45.56093740000001,0 -70.137164,45.56213,0 -70.137975,45.563486,0 -70.138423,45.56422400000001,0 -70.14044939999999,45.567622,0 -70.14125300000001,45.568917,0 -70.141897,45.569819,0 -70.14228869999999,45.5703138,0 -70.142494,45.570581,0 -70.14301399999999,45.571144,0 -70.143165,45.57130799999999,0 -70.143226,45.57137400000001,0 -70.14405499999999,45.57215,0 -70.14495100000001,45.572889,0 -70.145914,45.573589,0 -70.147441,45.574597,0 -70.150519,45.57659,0 -70.152282,45.57768279999999,0 -70.15287720000001,45.5780061,0 -70.153522,45.5783102,0 -70.154963,45.578913,0 -70.15665730000001,45.579598,0 -70.156739,45.579631,0 -70.158011,45.580113,0 -70.159307,45.58047000000001,0 -70.1601197,45.5805943,0 -70.16068,45.58068,0 -70.162048,45.58079,0 -70.16350799999999,45.580891,0 -70.16412200000001,45.580933,0 -70.16521899999999,45.581013,0 -70.166178,45.58108000000001,0 -70.167562,45.581161,0 -70.16895100000001,45.581174,0 -70.171311,45.5809924,0 -70.17152419999999,45.580976,0 -70.1723672,45.5808996,0 -70.172764,45.5808988,0 -70.17313780000001,45.5808981,0 -70.17379579999999,45.5809366,0 -70.17452,45.58103089999999,0 -70.1753075,45.581179,0 -70.17607889999999,45.5814027,0 -70.1767564,45.58166909999999,0 -70.1773819,45.5819434,0 -70.1784529,45.5824125,0 -70.1806668,45.5833939,0 -70.18153049999999,45.5837709,0 -70.1821922,45.58411120000001,0 -70.1831218,45.5846559,0 -70.183916,45.58519380000001,0 -70.18959099999999,45.5893458,0 -70.190305,45.58992979999999,0 -70.1910547,45.5906745,0 -70.1912083,45.59084240000001,0 -70.19325499999999,45.593113,0 -70.19438100000001,45.59435700000001,0 -70.195517,45.595598,0 -70.19587300000001,45.596015,0 -70.196153,45.596372,0 -70.1964583,45.59680880000001,0 -70.1968062,45.5974177,0 -70.1971575,45.5983112,0 -70.1976331,45.5997483,0 -70.198121,45.601171,0 -70.198607,45.602597,0 -70.1989774,45.60357059999999,0 -70.1992159,45.60403350000001,0 -70.1995155,45.60443360000001,0 -70.1999138,45.60482570000001,0 -70.2004151,45.6051988,0 -70.200936,45.6055249,0 -70.2015025,45.60579329999999,0 -70.2078748,45.6085075,0 -70.2086886,45.6088647,0 -70.21022689999999,45.6095265,0 -70.210882,45.609815,0 -70.21204969999999,45.6103012,0 -70.2126832,45.6105765,0 -70.2139342,45.6111109,0 -70.21451279999999,45.6113642,0 -70.2148389,45.6114902,0 -70.21514929999999,45.6116,0 -70.2155422,45.6117291,0 -70.2158941,45.6118308,0 -70.2161744,45.6119036,0 -70.216499,45.6119638,0 -70.21704800000001,45.6120666,0 -70.2175909,45.6121231,0 -70.21790970000001,45.6121383,0 -70.218569,45.612168,0 -70.220679,45.61219700000001,0 -70.222774,45.612238,0 -70.2238807,45.61228020000001,0 -70.2243947,45.6123044,0 -70.226579,45.612429,0 -70.227643,45.612484,0 -70.229722,45.612596,0 -70.2316332,45.6126981,0 -70.23176580000001,45.6127052,0 -70.2318969,45.6127135,0 -70.23202070000001,45.6127199,0 -70.23259179999999,45.61275719999999,0 -70.2333515,45.6128371,0 -70.2340572,45.6129459,0 -70.2345803,45.6130471,0 -70.235302,45.61321600000001,0 -70.23542860000001,45.6132459,0 -70.23569999999999,45.61331,0 -70.23598200000001,45.613392,0 -70.2364046,45.6135275,0 -70.237239,45.613795,0 -70.23823899999999,45.614173,0 -70.239086,45.614493,0 -70.2396361,45.6147359,0 -70.240779,45.61534,0 -70.241332,45.615635,0 -70.24162219999999,45.61580299999999,0 -70.241871,45.615947,0 -70.242329,45.616329,0 -70.242717,45.616744,0 -70.242999,45.617063,0 -70.24334500000001,45.6174055,0 -70.24376030000001,45.61780040000001,0 -70.244197,45.618148,0 -70.24469499999999,45.618491,0 -70.24520699999999,45.618812,0 -70.24554980000001,45.6189932,0 -70.24632099999999,45.619418,0 -70.24745950000001,45.62007169999999,0 -70.24843300000001,45.6207,0 -70.249436,45.621389,0 -70.249942,45.62173399999999,0 -70.25043599999999,45.62211599999999,0 -70.250895,45.622554,0 -70.251169,45.622835,0 -70.251554,45.623227,0 -70.2517034,45.6233818,0 -70.25176999999999,45.623447,0 -70.251998,45.623679,0 -70.2522195,45.6238659,0 -70.252458,45.624042,0 -70.252842,45.624227,0 -70.25311189999999,45.6243474,0 -70.253829,45.62464700000001,0 -70.256007,45.625589,0 -70.25616100000001,45.625669,0 -70.256248,45.625708,0 -70.256805,45.62599300000001,0 -70.257304,45.626263,0 -70.257863,45.6265319,0 -70.2583369,45.62673099999999,0 -70.259156,45.627075,0 -70.2595292,45.6272482,0 -70.259716,45.627381,0 -70.2598172,45.62747510000001,0 -70.25991860000001,45.6275625,0 -70.26008539999999,45.6277606,0 -70.26021590000001,45.6279115,0 -70.2603543,45.6280843,0 -70.26056,45.62837189999999,0 -70.260622,45.6284571,0 -70.26090000000001,45.62886,0 -70.2611725,45.6292813,0 -70.26125690000001,45.62944600000001,0 -70.2613509,45.6297047,0 -70.26142369999999,45.6301073,0 -70.261465,45.630467,0 -70.261495,45.630794,0 -70.2615971,45.6315959,0 -70.261618,45.63176,0 -70.2616601,45.6322948,0 -70.2616594,45.6328501,0 -70.261638,45.633436,0 -70.26161999999999,45.63404999999999,0 -70.261624,45.634753,0 -70.2616774,45.6352564,0 -70.2616842,45.6355073,0 -70.2617023,45.6356813,0 -70.2617259,45.6358129,0 -70.2617611,45.63592930000001,0 -70.2618173,45.6360502,0 -70.2618815,45.6361855,0 -70.26194,45.63630049999999,0 -70.262084,45.6365805,0 -70.2621832,45.6367806,0 -70.262242,45.636884,0 -70.26229050000001,45.6369948,0 -70.2623399,45.63710710000001,0 -70.2623737,45.6372296,0 -70.2623753,45.63736930000001,0 -70.2623656,45.637482,0 -70.2623396,45.6376043,0 -70.26228740000001,45.6377494,0 -70.262281,45.6377677,0 -70.2622034,45.6379912,0 -70.2620534,45.6383786,0 -70.261945,45.63870900000001,0 -70.261822,45.639049,0 -70.261792,45.63918700000001,0 -70.26175000000001,45.639492,0 -70.261734,45.639746,0 -70.26173799999999,45.63995400000001,0 -70.261758,45.640163,0 -70.26180600000001,45.640441,0 -70.26197500000001,45.64112899999999,0 -70.262152,45.641819,0 -70.262182,45.641925,0 -70.26224999999999,45.64216200000001,0 -70.26235699999999,45.642505,0 -70.2626575,45.643245,0 -70.263278,45.644865,0 -70.26366400000001,45.64587899999999,0 -70.263892,45.646562,0 -70.264087,45.64725000000001,0 -70.26418099999999,45.647561,0 -70.264459,45.648489,0 -70.2646,45.64895300000001,0 -70.264695,45.649294,0 -70.26502960000001,45.65034889999999,0 -70.2655346,45.6519863,0 -70.2657519,45.652691,0 -70.2659972,45.6535556,0 -70.2661403,45.6540648,0 -70.266316,45.65474399999999,0 -70.266507,45.655423,0 -70.266711,45.656105,0 -70.26680500000001,45.656449,0 -70.2668905,45.656739,0 -70.267162,45.65766,0 -70.267258,45.658001,0 -70.26736099999999,45.658339,0 -70.26747899999999,45.658675,0 -70.26759300000001,45.658939,0 -70.267619,45.659006,0 -70.267804,45.659324,0 -70.268021,45.659627,0 -70.268291,45.659908,0 -70.268597,45.66017000000001,0 -70.2687825,45.66032,0 -70.26922399999999,45.660677,0 -70.270526,45.661704,0 -70.271511,45.66247200000001,0 -70.272486,45.66325,0 -70.27280500000001,45.66351499999999,0 -70.27311899999999,45.663784,0 -70.273427,45.664056,0 -70.274036,45.66460599999999,0 -70.27463299999999,45.665159,0 -70.2751378,45.6656188,0 -70.275238,45.66570999999999,0 -70.275397,45.665862,0 -70.275538,45.665986,0 -70.27614199999999,45.666542,0 -70.276579,45.666931,0 -70.277058,45.667359,0 -70.277995,45.668175,0 -70.27813500000001,45.668283,0 -70.27821,45.668345,0 -70.27838,45.668516,0 -70.278685,45.668791,0 -70.278949,45.6690203,0 -70.278997,45.669062,0 -70.279301,45.669338,0 -70.279608,45.66960799999999,0 -70.27992,45.669874,0 -70.281109,45.67091599999999,0 -70.281392,45.671185,0 -70.281914,45.671744,0 -70.282156,45.672034,0 -70.28238,45.67233899999999,0 -70.2825287,45.6725687,0 -70.28258,45.672648,0 -70.2827162,45.6728951,0 -70.282753,45.672962,0 -70.283387,45.6742,0 -70.283536,45.674511,0 -70.28367,45.674821,0 -70.283773,45.67513,0 -70.28384200000001,45.67544899999999,0 -70.283878,45.675767,0 -70.283884,45.676083,0 -70.28385900000001,45.676922,0 -70.28384699999999,45.677677,0 -70.283849,45.678003,0 -70.283858,45.678321,0 -70.28386,45.678345,0 -70.283905,45.678964,0 -70.28397200000001,45.679607,0 -70.28422399999999,45.681544,0 -70.284279,45.68187,0 -70.284345,45.682197,0 -70.28442099999999,45.682521,0 -70.284684,45.68349799999999,0 -70.2847699,45.6837909,0 -70.284969,45.68446999999999,0 -70.285242,45.68545,0 -70.285813,45.68742,0 -70.286277,45.688984,0 -70.2870779,45.691747,0 -70.28719599999999,45.692179,0 -70.28728099999999,45.692507,0 -70.287356,45.692835,0 -70.287419,45.69316499999999,0 -70.28746599999999,45.6935,0 -70.287491,45.693836,0 -70.287492,45.694172,0 -70.28747,45.694509,0 -70.287426,45.694841,0 -70.287361,45.695172,0 -70.287279,45.695502,0 -70.286901,45.696679,0 -70.286834,45.696862,0 -70.2868247,45.69689269999999,0 -70.286749,45.697142,0 -70.286411,45.698129,0 -70.28609400000001,45.699113,0 -70.28601,45.69944300000001,0 -70.28594200000001,45.699776,0 -70.285887,45.700112,0 -70.285849,45.700449,0 -70.28584600000001,45.70078600000001,0 -70.285858,45.70103799999999,0 -70.28586199999999,45.701122,0 -70.28589599999999,45.701453,0 -70.28595199999999,45.701785,0 -70.286023,45.70212,0 -70.286118,45.70245,0 -70.286348,45.703108,0 -70.286716,45.70409599999999,0 -70.2872143,45.705434,0 -70.2874132,45.7059402,0 -70.287599,45.706419,0 -70.288335,45.70837900000001,0 -70.288578,45.70903799999999,0 -70.288811,45.709702,0 -70.289055,45.710365,0 -70.2895769,45.7117914,0 -70.290435,45.714292,0 -70.290902,45.715616,0 -70.291152,45.71634499999999,0 -70.29138,45.716947,0 -70.291512,45.71728000000001,0 -70.291695,45.717673,0 -70.291831,45.717932,0 -70.292027,45.71825199999999,0 -70.292239,45.71856,0 -70.292466,45.718863,0 -70.29319099999999,45.719765,0 -70.29340999999999,45.72007599999999,0 -70.29359700000001,45.720394,0 -70.293752,45.720721,0 -70.29386,45.721058,0 -70.29392,45.72139800000001,0 -70.293943,45.72174299999999,0 -70.29392300000001,45.722085,0 -70.29386100000001,45.722426,0 -70.293699,45.723103,0 -70.293631,45.72344399999999,0 -70.293592,45.72378999999999,0 -70.293605,45.724133,0 -70.293654,45.724474,0 -70.29392799999999,45.72583399999999,0 -70.294015,45.726171,0 -70.294123,45.72650500000001,0 -70.29414800000001,45.7265619,0 -70.2941865,45.7266497,0 -70.29426599999999,45.72683099999999,0 -70.294445,45.72714999999999,0 -70.294659,45.727457,0 -70.294822,45.727651,0 -70.295154,45.728049,0 -70.295388,45.728352,0 -70.29558900000001,45.728663,0 -70.29575800000001,45.72898499999999,0 -70.29589300000001,45.72931500000001,0 -70.295918,45.72939399999999,0 -70.295936,45.729446,0 -70.29598900000001,45.729649,0 -70.296048,45.72998800000001,0 -70.29606939999999,45.7303235,0 -70.29607,45.730333,0 -70.296064,45.730674,0 -70.296046,45.730954,0 -70.295996,45.731704,0 -70.295981,45.73205,0 -70.295941,45.732583,0 -70.295801,45.734792,0 -70.295677,45.73685799999999,0 -70.29564499999999,45.737299,0 -70.295627,45.737547,0 -70.29562300000001,45.737623,0 -70.295531,45.739261,0 -70.2955261,45.7394631,0 -70.2955274,45.7395215,0 -70.2955303,45.73965199999999,0 -70.29553900000001,45.739948,0 -70.295575,45.74028899999999,0 -70.295635,45.740632,0 -70.29568,45.740836,0 -70.295744,45.741068,0 -70.295818,45.741311,0 -70.295939,45.741645,0 -70.296077,45.741975,0 -70.296239,45.742298,0 -70.296711,45.743029,0 -70.296824,45.743172,0 -70.29696,45.74332800000001,0 -70.297061,45.74345399999999,0 -70.297291,45.743751,0 -70.297764,45.744346,0 -70.29800899999999,45.744647,0 -70.298288,45.74493199999999,0 -70.298593,45.745202,0 -70.298861,45.74540200000001,0 -70.29907900000001,45.745552,0 -70.299193,45.74562,0 -70.299521,45.745783,0 -70.29984399999999,45.745937,0 -70.300183,45.746071,0 -70.300535,45.746196,0 -70.300988,45.746324,0 -70.30144199999999,45.746437,0 -70.301892,45.746554,0 -70.302342,45.746679,0 -70.302781,45.746816,0 -70.303214,45.746969,0 -70.30363199999999,45.747131,0 -70.304444,45.747496,0 -70.305209,45.747913,0 -70.30585600000001,45.74833,0 -70.30591800000001,45.74837,0 -70.306583,45.74885199999999,0 -70.307199,45.749373,0 -70.30744,45.749667,0 -70.30762,45.74998099999999,0 -70.30775199999999,45.750311,0 -70.30784,45.750649,0 -70.30784300000001,45.750925,0 -70.307823,45.751208,0 -70.307802,45.751341,0 -70.30778100000001,45.751476,0 -70.307757,45.751676,0 -70.30775800000001,45.751884,0 -70.30777399999999,45.75209,0 -70.30782000000001,45.75229,0 -70.307919,45.752548,0 -70.30806800000001,45.752869,0 -70.308256,45.753179,0 -70.308841,45.75410800000001,0 -70.30922700000001,45.75473400000001,0 -70.309586,45.755366,0 -70.309715,45.755697,0 -70.309787,45.756035,0 -70.30980099999999,45.756379,0 -70.30976699999999,45.756714,0 -70.30971,45.757051,0 -70.309431,45.758403,0 -70.30937,45.758741,0 -70.309333,45.759077,0 -70.309325,45.759414,0 -70.309352,45.759755,0 -70.309404,45.760084,0 -70.309483,45.76042,0 -70.30960899999999,45.76074200000001,0 -70.309749,45.761061,0 -70.309929,45.761383,0 -70.310057,45.761575,0 -70.3103085,45.7619068,0 -70.31033770000001,45.761945,0 -70.310447,45.76208800000001,0 -70.310897,45.76252999999999,0 -70.31121,45.762795,0 -70.311851,45.763305,0 -70.312163,45.763565,0 -70.312456,45.763836,0 -70.312736,45.76411499999999,0 -70.313,45.764402,0 -70.31323,45.764694,0 -70.31366,45.76528,0 -70.314267,45.76617499999999,0 -70.314699,45.76677,0 -70.315167,45.767356,0 -70.315668,45.76792600000001,0 -70.31625699999999,45.76853799999999,0 -70.316531,45.768809,0 -70.31682499999999,45.76906600000001,0 -70.317172,45.76931,0 -70.317547,45.769526,0 -70.317941,45.76972499999999,0 -70.318352,45.769888,0 -70.318771,45.770042,0 -70.31920100000001,45.77019199999999,0 -70.320086,45.77048600000001,0 -70.320367,45.770585,0 -70.321045,45.770813,0 -70.32250999999999,45.771306,0 -70.323367,45.771606,0 -70.32422099999999,45.77189799999999,0 -70.325059,45.772224,0 -70.327017,45.773059,0 -70.327439,45.773211,0 -70.32788499999999,45.773334,0 -70.328335,45.773448,0 -70.32879079999999,45.7735409,0 -70.3296886,45.7736481,0 -70.33018800000001,45.7736849,0 -70.33053,45.773707,0 -70.33104,45.77374399999999,0 -70.331521,45.773789,0 -70.331993,45.773855,0 -70.33245599999999,45.773945,0 -70.332914,45.774056,0 -70.33335700000001,45.774186,0 -70.333792,45.774334,0 -70.33422,45.77449,0 -70.33556059999999,45.7749642,0 -70.3361656,45.7752019,0 -70.3365593,45.7753325,0 -70.337169,45.7755703,0 -70.33761560000001,45.7757344,0 -70.3380669,45.7759018,0 -70.338499,45.7760391,0 -70.3389263,45.7761563,0 -70.340587,45.77657700000001,0 -70.341067,45.77669,0 -70.341921,45.77689000000001,0 -70.343287,45.777207,0 -70.34927999999999,45.778634,0 -70.350191,45.778888,0 -70.350627,45.779042,0 -70.35104800000001,45.779215,0 -70.351445,45.77939800000001,0 -70.352216,45.779821,0 -70.352565,45.780053,0 -70.352901,45.780302,0 -70.35321500000001,45.780565,0 -70.354219,45.7814737,0 -70.35437400000001,45.78161399999999,0 -70.356133,45.783205,0 -70.35623390000001,45.7832909,0 -70.358964,45.785753,0 -70.359872,45.786563,0 -70.362274,45.788728,0 -70.36347600000001,45.789803,0 -70.364678,45.790898,0 -70.366776,45.792783,0 -70.3679467,45.7938472,0 -70.368898,45.794712,0 -70.3689584,45.7947721,0 -70.370075,45.79578200000001,0 -70.37065699999999,45.796325,0 -70.371258,45.796865,0 -70.37188,45.79740000000001,0 -70.37220000000001,45.797649,0 -70.37254299999999,45.79789099999999,0 -70.372823,45.798077,0 -70.37311699999999,45.798259,0 -70.373417,45.798431,0 -70.3740438,45.7987524,0 -70.3744588,45.7989532,0 -70.37569329999999,45.79951830000001,0 -70.3768456,45.8000438,0 -70.37792640000001,45.80053809999999,0 -70.379122,45.8010939,0 -70.380539,45.801758,0 -70.382927,45.802851,0 -70.38302400000001,45.802899,0 -70.38473999999999,45.803687,0 -70.386381,45.80445,0 -70.386797,45.804638,0 -70.387142,45.80478,0 -70.387575,45.804945,0 -70.38801599999999,45.805087,0 -70.388479,45.805205,0 -70.388949,45.8053,0 -70.389439,45.80536599999999,0 -70.38978899999999,45.80539400000001,0 -70.3900508,45.80541,0 -70.3904151,45.8054177,0 -70.39076059999999,45.8054072,0 -70.3915691,45.80537579999999,0 -70.3919902,45.80535860000001,0 -70.3922614,45.80534849999999,0 -70.3924136,45.8053429,0 -70.39276750000001,45.8053249,0 -70.39300660000001,45.8052928,0 -70.3931316,45.8052786,0 -70.39328639999999,45.8052611,0 -70.3938184,45.8051738,0 -70.3941133,45.8051298,0 -70.3942732,45.8051074,0 -70.39445670000001,45.8050895,0 -70.39455599999999,45.805087,0 -70.3946681,45.8050882,0 -70.3948058,45.8050968,0 -70.3949497,45.80511299999999,0 -70.3950995,45.8051361,0 -70.39523579999999,45.8051593,0 -70.3953046,45.8051726,0 -70.3953764,45.8051923,0 -70.3954868,45.8052278,0 -70.3955737,45.8052605,0 -70.3958044,45.8053484,0 -70.39600969999999,45.8054267,0 -70.396562,45.8056492,0 -70.3967466,45.8057222,0 
				</coordinates>
			</LineString>
		<atom:link rel="app" href="https://www.google.com/earth/about/versions/#earth-pro" title="Google Earth Pro 7.3.6.10201"></atom:link>
	</Placemark>
</Document>
</kml>
