<?xml version="1.0" encoding="UTF-8"?>
<kml xmlns="http://www.opengis.net/kml/2.2" xmlns:gx="http://www.google.com/kml/ext/2.2" xmlns:kml="http://www.opengis.net/kml/2.2" xmlns:atom="http://www.w3.org/2005/Atom">
<Document>
	<name>US.211.kml</name>
	<Style id="style">
		<LineStyle>
			<color>ff0000ff</color>
		</LineStyle>
		<PolyStyle>
			<fill>0</fill>
		</PolyStyle>
	</Style>
	<Style id="style0">
		<LineStyle>
			<color>ff0000ff</color>
		</LineStyle>
		<PolyStyle>
			<fill>0</fill>
		</PolyStyle>
	</Style>
	<StyleMap id="stylemap_id18">
		<Pair>
			<key>normal</key>
			<styleUrl>#style</styleUrl>
		</Pair>
		<Pair>
			<key>highlight</key>
			<styleUrl>#style0</styleUrl>
		</Pair>
	</StyleMap>
	<Placemark>
		<name>US.211</name>
		<styleUrl>#stylemap_id18</styleUrl>
		<LineString>
			<coordinates>
				-78.6774606,38.6480756,0 -78.67718549999999,38.6480733,0 -78.67681709999999,38.6480759,0 -78.6765091,38.6480987,0 -78.6762408,38.6481155,0 -78.67562839999999,38.6481765,0 -78.6752346,38.6482157,0 -78.674334,38.6483097,0 -78.6742835,38.648315,0 -78.6740764,38.6483366,0 -78.67391240000001,38.6483537,0 -78.6737768,38.6483654,0 -78.6736305,38.6483769,0 -78.673574,38.6483814,0 -78.6735297,38.64839,0 -78.67335730000001,38.6484239,0 -78.673242,38.648401,0 -78.673185,38.6483872,0 -78.6730792,38.6483615,0 -78.6729594,38.64833,0 -78.67288859999999,38.64831,0 -78.6727175,38.6482616,0 -78.6726938,38.6482549,0 -78.6725481,38.6482081,0 -78.6723688,38.6481476,0 -78.67231580000001,38.6481295,0 -78.6721761,38.6480819,0 -78.6719746,38.6480134,0 -78.6718319,38.6479649,0 -78.6717227,38.6479278,0 -78.6716849,38.6479866,0 -78.6716492,38.6480424,0 -78.671629,38.6480739,0 -78.67158740000001,38.6481386,0 -78.6713824,38.6484579,0 -78.6712899,38.648602,0 -78.6710666,38.6489499,0 -78.6710224,38.6490133,0 -78.6707304,38.649468,0 -78.67068209999999,38.6495432,0 -78.6704474,38.6499049,0 -78.67043510000001,38.6499239,0 -78.6702938,38.6501416,0 -78.67015600000001,38.650354,0 -78.6698032,38.6509257,0 -78.6697217,38.6510578,0 -78.6696297,38.6512068,0 -78.66955710000001,38.6513244,0 -78.6695385,38.6513546,0 -78.6694657,38.6513278,0 -78.66933710000001,38.6512806,0 -78.6692074,38.651233,0 -78.66901009999999,38.6511606,0 -78.6688205,38.651091,0 -78.6686306,38.6510212,0 -78.6682569,38.65088,0 -78.6675158,38.6505998,0 -78.6670925,38.6504384,0 -78.6665785,38.6502486,0 -78.6663147,38.6501511,0 -78.66573080000001,38.6499355,0 -78.6649075,38.6496267,0 -78.6643866,38.6494328,0 -78.66346230000001,38.6490913,0 -78.6628959,38.6488973,0 -78.66245960000001,38.6487087,0 -78.6623045,38.6486508,0 -78.661902,38.6485125,0 -78.6615949,38.6484089,0 -78.661097,38.648273,0 -78.6609225,38.648232,0 -78.6607173,38.6481873,0 -78.66055950000001,38.6481569,0 -78.66030360000001,38.648114,0 -78.6600476,38.6480711,0 -78.65942699999999,38.647961,0 -78.657167,38.647618,0 -78.6547406,38.647232,0 -78.65441680000001,38.6471805,0 -78.6523957,38.6468749,0 -78.65182710000001,38.6467664,0 -78.6511091,38.6466156,0 -78.6501368,38.6463688,0 -78.64807209999999,38.6459081,0 -78.64763360000001,38.6458102,0 -78.64549,38.645334,0 -78.6451982,38.6452473,0 -78.644587,38.645065,0 -78.643973,38.644835,0 -78.6435135,38.6446354,0 -78.643306,38.6445369,0 -78.64301469999999,38.6443918,0 -78.64248000000001,38.644108,0 -78.6422465,38.643949,0 -78.6419898,38.6437742,0 -78.64187800000001,38.643698,0 -78.641485,38.643449,0 -78.64091500000001,38.643156,0 -78.6406707,38.6430632,0 -78.64009299999999,38.642876,0 -78.639016,38.642619,0 -78.637823,38.64232,0 -78.63638,38.641978,0 -78.6348911,38.6415962,0 -78.6347578,38.6415746,0 -78.6345851,38.6415538,0 -78.6344045,38.6415538,0 -78.63419879999999,38.6415888,0 -78.6340065,38.6416498,0 -78.6338507,38.6417432,0 -78.63372699999999,38.6418524,0 -78.6336409,38.6419567,0 -78.6335607,38.6421457,0 -78.6335452,38.6423219,0 -78.63357329999999,38.6424922,0 -78.63360470000001,38.642588,0 -78.63367460000001,38.6428934,0 -78.6336854,38.643065,0 -78.6336592,38.6432229,0 -78.63360900000001,38.643357,0 -78.6335165,38.6435222,0 -78.63346900000001,38.64356,0 -78.633258,38.64373,0 -78.632633,38.644091,0 -78.63232600000001,38.644232,0 -78.6321078,38.6443192,0 -78.63187600000001,38.6443862,0 -78.63160430000001,38.6444365,0 -78.6313828,38.644462,0 -78.63107890000001,38.6444666,0 -78.63076700000001,38.64444,0 -78.630599,38.6444078,0 -78.63037799999999,38.644347,0 -78.63030500000001,38.644311,0 -78.6301862,38.6442437,0 -78.630039,38.644131,0 -78.629953,38.644036,0 -78.62988,38.643884,0 -78.62984899999999,38.643662,0 -78.6298544,38.6431209,0 -78.6298384,38.6429336,0 -78.62979,38.642749,0 -78.629712,38.642616,0 -78.629598,38.642488,0 -78.629463,38.642386,0 -78.62935400000001,38.642325,0 -78.6291745,38.6422657,0 -78.62896600000001,38.642227,0 -78.62871800000001,38.642221,0 -78.62849300000001,38.642268,0 -78.628259,38.642376,0 -78.628016,38.642542,0 -78.62779999999999,38.642705,0 -78.6271993,38.6432177,0 -78.62593200000001,38.644239,0 -78.6257088,38.644403,0 -78.6254655,38.6445297,0 -78.6252102,38.6446248,0 -78.6250053,38.6446845,0 -78.624696,38.644741,0 -78.62444790000001,38.6447564,0 -78.62421639999999,38.6447564,0 -78.623983,38.644724,0 -78.623735,38.6446793,0 -78.6234662,38.6446083,0 -78.6232085,38.6445092,0 -78.62297270000001,38.6443785,0 -78.622778,38.6442406,0 -78.62263900000001,38.644121,0 -78.6225323,38.6439978,0 -78.62242000000001,38.643854,0 -78.62232899999999,38.643713,0 -78.622271,38.64359,0 -78.62220000000001,38.643288,0 -78.6221249,38.6429698,0 -78.62201810000001,38.6427186,0 -78.621876,38.642482,0 -78.62170639999999,38.6422963,0 -78.621486,38.642093,0 -78.62133040000001,38.6419904,0 -78.6210732,38.6418649,0 -78.6208159,38.6417715,0 -78.6205002,38.6417013,0 -78.6201995,38.6416738,0 -78.61990489999999,38.6416608,0 -78.6193665,38.6416381,0 -78.6186804,38.6416161,0 -78.6183644,38.6416207,0 -78.618061,38.641636,0 -78.61776399999999,38.641683,0 -78.6175313,38.6417596,0 -78.6172108,38.6418987,0 -78.6169426,38.6419862,0 -78.6165783,38.6420663,0 -78.61609420000001,38.642175,0 -78.61572,38.642295,0 -78.6147161,38.6427228,0 -78.6144006,38.6428397,0 -78.61421249999999,38.6428989,0 -78.6140941,38.6429252,0 -78.6130998,38.6431003,0 -78.6128733,38.6431397,0 -78.61280600000001,38.643148,0 -78.612696,38.643157,0 -78.6125644,38.64315,0 -78.612431,38.643131,0 -78.612358,38.643115,0 -78.61210199999999,38.643052,0 -78.611637,38.642912,0 -78.611527,38.642884,0 -78.611357,38.642859,0 -78.6112093,38.6428519,0 -78.611068,38.642862,0 -78.610899,38.64289,0 -78.610789,38.64292,0 -78.610659,38.642968,0 -78.61053800000001,38.643028,0 -78.61043100000001,38.643097,0 -78.610355,38.64316,0 -78.61027300000001,38.643246,0 -78.61020499999999,38.643341,0 -78.61015399999999,38.643441,0 -78.6100891,38.6436076,0 -78.60977099999999,38.644425,0 -78.60973799999999,38.644488,0 -78.609683,38.644561,0 -78.609613,38.644626,0 -78.609531,38.644682,0 -78.609419,38.644734,0 -78.609358,38.644753,0 -78.60923200000001,38.644777,0 -78.609145,38.644782,0 -78.609059,38.644779,0 -78.608952,38.644762,0 -78.60888799999999,38.644742,0 -78.608788,38.644699,0 -78.60869599999999,38.644644,0 -78.608602,38.644565,0 -78.608565,38.64452,0 -78.60851599999999,38.64442,0 -78.60849399999999,38.644333,0 -78.60849,38.644245,0 -78.608504,38.644156,0 -78.60854999999999,38.644057,0 -78.608632,38.643926,0 -78.60874800000001,38.643782,0 -78.608824,38.643675,0 -78.608884,38.643562,0 -78.608951,38.643386,0 -78.60899000000001,38.643245,0 -78.609009,38.64313,0 -78.609016,38.642986,0 -78.609005,38.642842,0 -78.608968,38.642672,0 -78.608918,38.642533,0 -78.608124,38.640973,0 -78.608079,38.640833,0 -78.608052,38.64069,0 -78.608042,38.640546,0 -78.60804829999999,38.6404267,0 -78.60807800000001,38.640259,0 -78.608118,38.640149,0 -78.608183,38.640015,0 -78.608266,38.639887,0 -78.60836399999999,38.639766,0 -78.60855599999999,38.639573,0 -78.608693,38.6394445,0 -78.60876399999999,38.639378,0 -78.608941,38.63923,0 -78.608992,38.639179,0 -78.609111,38.639046,0 -78.609166,38.638962,0 -78.609205,38.638871,0 -78.609228,38.638758,0 -78.609227,38.638663,0 -78.609208,38.638569,0 -78.609172,38.638478,0 -78.60911900000001,38.638392,0 -78.60905700000001,38.6383181,0 -78.60898419999999,38.6382536,0 -78.608904,38.638201,0 -78.6088,38.638147,0 -78.608687,38.638104,0 -78.60856699999999,38.638075,0 -78.60844299999999,38.63806,0 -78.608318,38.638059,0 -78.608177,38.638073,0 -78.60806599999999,38.638098,0 -78.607962,38.638137,0 -78.60781299999999,38.638221,0 -78.60771099999999,38.638297,0 -78.60762200000001,38.638384,0 -78.6066271,38.6395969,0 -78.6065621,38.6396762,0 -78.60639,38.639886,0 -78.6062039,38.6401109,0 -78.605315,38.641185,0 -78.6052329,38.6412755,0 -78.60502529999999,38.6415044,0 -78.604866,38.64168,0 -78.604736,38.641799,0 -78.604465,38.642003,0 -78.6041398,38.6422169,0 -78.603964,38.642321,0 -78.60386,38.642375,0 -78.60359699999999,38.642493,0 -78.603325,38.642598,0 -78.603044,38.6426834,0 -78.6029154,38.6427172,0 -78.6027119,38.6427663,0 -78.602493,38.6428083,0 -78.60222400000001,38.642856,0 -78.601949,38.64288,0 -78.60167300000001,38.64289,0 -78.60157599999999,38.642886,0 -78.600644,38.642849,0 -78.598817,38.642745,0 -78.59866700000001,38.64275,0 -78.59851,38.642771,0 -78.598375,38.642803,0 -78.598265,38.64284,0 -78.598134,38.642897,0 -78.597988,38.642983,0 -78.59786800000001,38.64307,0 -78.597782,38.643147,0 -78.597672,38.643267,0 -78.59755,38.64342,0 -78.597413,38.643621,0 -78.59733199999999,38.643726,0 -78.597241,38.643826,0 -78.597114,38.643942,0 -78.596924,38.644086,0 -78.596779,38.644174,0 -78.596625,38.644251,0 -78.59646100000001,38.644315,0 -78.59629,38.644367,0 -78.596114,38.644405,0 -78.595933,38.644429,0 -78.59575100000001,38.64444,0 -78.595691,38.644439,0 -78.595568,38.644436,0 -78.595386,38.644419,0 -78.595202,38.644387,0 -78.595004,38.644341,0 -78.594812,38.644281,0 -78.59459099999999,38.644193,0 -78.59441700000001,38.644106,0 -78.593113,38.643326,0 -78.591413,38.642184,0 -78.590834,38.641817,0 -78.5902488,38.6414733,0 -78.59009949999999,38.6413866,0 -78.5898198,38.6412358,0 -78.58951930000001,38.6410825,0 -78.58913800000001,38.640903,0 -78.588937,38.640817,0 -78.588596,38.640684,0 -78.588317,38.640587,0 -78.587777,38.640417,0 -78.587475,38.640322,0 -78.58729,38.640238,0 -78.587202,38.640192,0 -78.58702,38.640085,0 -78.586849,38.639966,0 -78.586692,38.639836,0 -78.586495,38.639645,0 -78.586446,38.639588,0 -78.586372,38.639502,0 -78.586265,38.639352,0 -78.586158,38.639162,0 -78.58588899999999,38.638537,0 -78.58544500000001,38.637479,0 -78.5852687,38.6371544,0 -78.58524199999999,38.637112,0 -78.585122,38.63691,0 -78.58500100000001,38.636709,0 -78.584875,38.636498,0 -78.584748,38.636288,0 -78.584132,38.635251,0 -78.584087,38.635176,0 -78.584041,38.635117,0 -78.583916,38.634975,0 -78.583777,38.634841,0 -78.583624,38.634717,0 -78.583459,38.634602,0 -78.583319,38.634519,0 -78.583134,38.634424,0 -78.58298000000001,38.634357,0 -78.58278,38.634285,0 -78.582573,38.634225,0 -78.58245599999999,38.634175,0 -78.58233199999999,38.634137,0 -78.58225400000001,38.634121,0 -78.581788,38.634052,0 -78.581158,38.633971,0 -78.58073899999999,38.633917,0 -78.58013200000001,38.633845,0 -78.57941099999999,38.633758,0 -78.57834200000001,38.633615,0 -78.576172,38.633338,0 -78.575884,38.633299,0 -78.575005,38.633194,0 -78.574432,38.633155,0 -78.574082,38.633139,0 -78.573742,38.633136,0 -78.572945,38.633153,0 -78.572716,38.633163,0 -78.572495,38.633181,0 -78.57226,38.63321,0 -78.57198,38.633258,0 -78.57170600000001,38.633316,0 -78.571398,38.633398,0 -78.571335,38.633419,0 -78.57112600000001,38.633489,0 -78.57076499999999,38.633634,0 -78.57051300000001,38.633753,0 -78.570224,38.63391,0 -78.56999399999999,38.63406,0 -78.569694,38.634277,0 -78.569496,38.634442,0 -78.569311,38.634617,0 -78.56913900000001,38.634804,0 -78.568988,38.634988,0 -78.568856,38.63517,0 -78.56869399999999,38.635436,0 -78.56858,38.635657,0 -78.56848100000001,38.635907,0 -78.56832199999999,38.636377,0 -78.568229,38.636604,0 -78.5681901,38.636681,0 -78.56807499999999,38.636909,0 -78.56795,38.637117,0 -78.56783799999999,38.637279,0 -78.567684,38.637474,0 -78.567438,38.637747,0 -78.56726999999999,38.637903,0 -78.567132,38.638031,0 -78.566804,38.6383,0 -78.565752,38.639114,0 -78.565382,38.639394,0 -78.565,38.639663,0 -78.564854,38.639757,0 -78.56460300000001,38.639903,0 -78.564215,38.640108,0 -78.563982,38.640221,0 -78.56369599999999,38.640352,0 -78.562962,38.640691,0 -78.562935,38.640703,0 -78.56223199999999,38.641026,0 -78.561795,38.641233,0 -78.561365,38.641414,0 -78.56107799999999,38.641524,0 -78.560712,38.641649,0 -78.560509,38.641709,0 -78.56018400000001,38.64179,0 -78.559853,38.641856,0 -78.559449,38.64192,0 -78.55910900000001,38.641957,0 -78.558623,38.641988,0 -78.55754899999999,38.642031,0 -78.55672199999999,38.64206,0 -78.55611399999999,38.642094,0 -78.55582099999999,38.642115,0 -78.555201,38.6422,0 -78.555077,38.642217,0 -78.554658,38.64229,0 -78.55406000000001,38.642422,0 -78.553532,38.642554,0 -78.54982699999999,38.643501,0 -78.549126,38.643671,0 -78.548591,38.643786,0 -78.548215,38.643853,0 -78.547832,38.643912,0 -78.54735100000001,38.643977,0 -78.54688299999999,38.64403,0 -78.546356,38.64408,0 -78.54569600000001,38.644121,0 -78.545033,38.644142,0 -78.544855,38.644142,0 -78.544352,38.644147,0 -78.543993,38.644141,0 -78.541224,38.644131,0 -78.54080399999999,38.64413,0 -78.540374,38.644127,0 -78.539659,38.64413,0 -78.539528,38.644134,0 -78.53912200000001,38.64416,0 -78.538695,38.644205,0 -78.53830000000001,38.644271,0 -78.538028,38.644331,0 -78.537716,38.644415,0 -78.53748400000001,38.644487,0 -78.537012,38.644659,0 -78.53640900000001,38.644913,0 -78.535844,38.645159,0 -78.53565949999999,38.6452418,0 -78.5338106,38.6460472,0 -78.533342,38.646244,0 -78.53271100000001,38.646519,0 -78.530399,38.64752,0 -78.52928300000001,38.648007,0 -78.52844349999999,38.6483967,0 -78.528361,38.648435,0 -78.52755500000001,38.648826,0 -78.527236,38.648986,0 -78.525891,38.649694,0 -78.52528100000001,38.650023,0 -78.522783,38.651349,0 -78.521518,38.652025,0 -78.51983199999999,38.65292,0 -78.513525,38.65628,0 -78.51224000000001,38.656964,0 -78.51078200000001,38.657739,0 -78.51039299999999,38.657943,0 -78.51007,38.658099,0 -78.509708,38.658258,0 -78.50937500000001,38.658387,0 -78.509069,38.65849,0 -78.508668,38.658602,0 -78.50826600000001,38.658694,0 -78.507964,38.658749,0 -78.507554,38.658803,0 -78.507065,38.658845,0 -78.50633999999999,38.658884,0 -78.505242,38.658938,0 -78.5050573,38.6589461,0 -78.504808,38.658957,0 -78.503095,38.659047,0 -78.5028909,38.6590563,0 -78.50228300000001,38.659084,0 -78.500806,38.659155,0 -78.500451,38.659184,0 -78.50017699999999,38.659218,0 -78.499854,38.659274,0 -78.499622,38.659329,0 -78.499408,38.659392,0 -78.499082,38.659506,0 -78.49889229999999,38.6595792,0 -78.4986255,38.6596835,0 -78.49845500000001,38.659736,0 -78.498245,38.659792,0 -78.497939,38.659854,0 -78.49771699999999,38.65989,0 -78.49737500000001,38.659929,0 -78.496917,38.659963,0 -78.49552799999999,38.660044,0 -78.495356,38.660058,0 -78.49485900000001,38.660114,0 -78.493741,38.660258,0 -78.4925348,38.6604153,0 -78.4924439,38.6604271,0 -78.4921605,38.6604641,0 -78.49146020000001,38.6605554,0 -78.490666,38.660659,0 -78.4904976,38.6606824,0 -78.48982289999999,38.6607643,0 -78.4891811,38.6608542,0 -78.488983,38.660882,0 -78.48754,38.661066,0 -78.487084,38.661116,0 -78.48649899999999,38.661162,0 -78.4862548,38.6611758,0 -78.486143,38.661182,0 -78.485046,38.66123,0 -78.484542,38.661267,0 -78.484219,38.661307,0 -78.483901,38.661364,0 -78.48365699999999,38.661419,0 -78.4833871,38.6615002,0 -78.48337650000001,38.6615034,0 -78.483125,38.661579,0 -78.4830963,38.6615901,0 -78.482876,38.661675,0 -78.482573,38.661808,0 -78.482288,38.661953,0 -78.482078,38.662076,0 -78.481837,38.662235,0 -78.481539,38.662459,0 -78.481353,38.662622,0 -78.48111400000001,38.662858,0 -78.48098899999999,38.662998,0 -78.480814,38.663223,0 -78.4807904,38.6632579,0 -78.48067399999999,38.66343,0 -78.480532,38.663674,0 -78.480355,38.664004,0 -78.48003,38.664642,0 -78.4799841,38.6647278,0 -78.479969,38.664756,0 -78.479823,38.66503,0 -78.47961599999999,38.665381,0 -78.479353,38.665803,0 -78.479252,38.665954,0 -78.478988,38.666326,0 -78.478596,38.666833,0 -78.4782508,38.6672422,0 -78.477823,38.667695,0 -78.477389,38.668119,0 -78.477059,38.668413,0 -78.47671,38.668711,0 -78.476218,38.669111,0 -78.475842,38.66938,0 -78.475521,38.669599,0 -78.474936,38.669968,0 -78.474422,38.670263,0 -78.47406100000001,38.670462,0 -78.4736114,38.6707012,0 -78.472956,38.671001,0 -78.47258600000001,38.671161,0 -78.472461,38.671211,0 -78.47197300000001,38.671401,0 -78.47157300000001,38.671542,0 -78.471214,38.671661,0 -78.47062699999999,38.671841,0 -78.47011500000001,38.67198,0 -78.469486,38.672135,0 -78.46889,38.672257,0 -78.46832999999999,38.672353,0 -78.46795400000001,38.67241,0 -78.467348,38.67249,0 -78.46666500000001,38.672553,0 -78.466294,38.672581,0 -78.465619,38.672612,0 -78.465087,38.672614,0 -78.46429500000001,38.672599,0 -78.463666,38.672578,0 -78.46171440000001,38.6725019,0 -78.46166599999999,38.6725,0 -78.4616151,38.6724977,0 -78.46142,38.672489,0 -78.460696,38.672475,0 -78.460189,38.672475,0 -78.459739,38.672484,0 -78.459042,38.672512,0 -78.458978,38.672515,0 -78.4584243,38.6725465,0 -78.4577431,38.6726122,0 -78.45738900000001,38.672663,0 -78.4557193,38.6729177,0 -78.45500629999999,38.6730132,0 -78.451944,38.673491,0 -78.451449,38.67357,0 -78.450056,38.673784,0 -78.44848,38.674029,0 -78.447114,38.674247,0 -78.446654,38.674313,0 -78.445904,38.674432,0 -78.445786,38.67445,0 -78.445143,38.674546,0 -78.44488200000001,38.674589,0 -78.444147,38.674701,0 -78.443901,38.674742,0 -78.44321600000001,38.674847,0 -78.442875,38.674895,0 -78.43861,38.675559,0 -78.438241,38.67562,0 -78.437844,38.675676,0 -78.437089,38.675797,0 -78.436036,38.675942,0 -78.435243,38.676042,0 -78.43478899999999,38.676092,0 -78.433735,38.676193,0 -78.432969,38.676254,0 -78.43173299999999,38.676326,0 -78.430966,38.676353,0 -78.43023100000001,38.676371,0 -78.429137,38.676376,0 -78.428501,38.67637,0 -78.42771399999999,38.676349,0 -78.426331,38.676283,0 -78.42582899999999,38.676251,0 -78.424869,38.676177,0 -78.42425299999999,38.676118,0 -78.423423,38.67603,0 -78.418554,38.675491,0 -78.41748,38.675376,0 -78.41708300000001,38.675329,0 -78.41463709999999,38.675059,0 -78.4139505,38.674983,0 -78.4130301,38.674883,0 -78.412087,38.674781,0 -78.411649,38.674737,0 -78.41089599999999,38.67467,0 -78.409643,38.67458,0 -78.409249,38.674554,0 -78.40874119999999,38.6745187,0 -78.40825599999999,38.674485,0 -78.40802600000001,38.674469,0 -78.4078701,38.6744568,0 -78.407093,38.674396,0 -78.407023,38.674391,0 -78.406026,38.67433,0 -78.405503,38.674302,0 -78.405134,38.674278,0 -78.40418200000001,38.674226,0 -78.403488,38.674188,0 -78.402806,38.674152,0 -78.402303,38.674131,0 -78.40072600000001,38.674082,0 -78.398532,38.673961,0 -78.398143,38.67394,0 -78.39747,38.673903,0 -78.395393,38.673775,0 -78.394082,38.673705,0 -78.392341,38.6736,0 -78.39098300000001,38.67352,0 -78.38910799999999,38.673412,0 -78.38761100000001,38.673326,0 -78.386647,38.67327,0 -78.386106,38.673233,0 -78.385722,38.6732,0 -78.38554000000001,38.673169,0 -78.38539900000001,38.673134,0 -78.385186,38.673067,0 -78.385014,38.673001,0 -78.384705,38.672847,0 -78.384072,38.672495,0 -78.38230799999999,38.671483,0 -78.382037,38.67131,0 -78.38177899999999,38.671127,0 -78.381573,38.670961,0 -78.3813372,38.6707661,0 -78.38128279999999,38.6707135,0 -78.38113319999999,38.6705648,0 -78.3810611,38.6704859,0 -78.3809858,38.6704024,0 -78.38082989999999,38.6702145,0 -78.38076239999999,38.6701162,0 -78.38069950000001,38.6700247,0 -78.38053170000001,38.66973,0 -78.3803509,38.6694187,0 -78.3802,38.669148,0 -78.38016260000001,38.6690967,0 -78.38007399999999,38.668975,0 -78.379971,38.668859,0 -78.37982700000001,38.668729,0 -78.37980330000001,38.6687126,0 -78.37966,38.668613,0 -78.379537,38.668541,0 -78.379104,38.668346,0 -78.3789816,38.6682793,0 -78.37882500000001,38.668183,0 -78.378686,38.668085,0 -78.378563,38.667985,0 -78.377539,38.667061,0 -78.37740479999999,38.666952,0 -78.37718700000001,38.666775,0 -78.37670900000001,38.666402,0 -78.37599899999999,38.665856,0 -78.375479,38.665445,0 -78.37523899999999,38.665234,0 -78.375162,38.665166,0 -78.375073,38.665092,0 -78.374853,38.664894,0 -78.374438,38.664505,0 -78.37429,38.664357,0 -78.374163,38.664238,0 -78.373498,38.66356,0 -78.373366,38.663426,0 -78.373228,38.663291,0 -78.37279700000001,38.662839,0 -78.3722878,38.6623188,0 -78.37221099999999,38.662246,0 -78.372108,38.662152,0 -78.371272,38.661173,0 -78.37115300000001,38.661034,0 -78.370526,38.660268,0 -78.37034199999999,38.660076,0 -78.37026400000001,38.660002,0 -78.370103,38.659875,0 -78.369964,38.659781,0 -78.36948700000001,38.659486,0 -78.36926800000001,38.65937,0 -78.36908819999999,38.6593079,0 -78.36897759999999,38.6592711,0 -78.3688511,38.6592423,0 -78.368692,38.659222,0 -78.368495,38.659219,0 -78.368312,38.659233,0 -78.36821500000001,38.659247,0 -78.367756,38.659346,0 -78.36755100000001,38.659375,0 -78.36730900000001,38.659394,0 -78.36711,38.659395,0 -78.36679100000001,38.65937,0 -78.36659589999999,38.6593484,0 -78.3664058,38.6593114,0 -78.36625410000001,38.6592744,0 -78.36606829999999,38.6592181,0 -78.3656344,38.6590684,0 -78.3653478,38.6589783,0 -78.3651337,38.6589327,0 -78.3649726,38.6589013,0 -78.3647248,38.6588647,0 -78.3642382,38.6588011,0 -78.3641411,38.6587899,0 -78.36326,38.658667,0 -78.362526,38.658561,0 -78.361107,38.658381,0 -78.36091500000001,38.658344,0 -78.360744,38.6583,0 -78.360662,38.658279,0 -78.360353,38.658184,0 -78.360118,38.65809,0 -78.359937,38.658006,0 -78.359618,38.657833,0 -78.35930399999999,38.657653,0 -78.35909599999999,38.657549,0 -78.35897199999999,38.657504,0 -78.358816,38.657468,0 -78.358602,38.657445,0 -78.358401,38.657428,0 -78.358277,38.657408,0 -78.35815599999999,38.657379,0 -78.358026,38.657333,0 -78.35791399999999,38.657277,0 -78.357815,38.657208,0 -78.357338,38.656769,0 -78.357114,38.656588,0 -78.35696900000001,38.656483,0 -78.3568077,38.6563956,0 -78.3566051,38.6562889,0 -78.35624900000001,38.656158,0 -78.35613499999999,38.656115,0 -78.356031,38.656063,0 -78.355951,38.656008,0 -78.35589400000001,38.655956,0 -78.355836,38.655885,0 -78.355794,38.655807,0 -78.355773,38.655741,0 -78.355689,38.655277,0 -78.355653,38.655178,0 -78.3556,38.655084,0 -78.355531,38.654997,0 -78.355458,38.65493,0 -78.355375,38.654877,0 -78.35530199999999,38.654842,0 -78.355243,38.654821,0 -78.35497100000001,38.654743,0 -78.354817,38.654683,0 -78.35467199999999,38.654611,0 -78.35456499999999,38.654544,0 -78.35439700000001,38.654404,0 -78.354193,38.654198,0 -78.353718,38.653682,0 -78.353616,38.653589,0 -78.35350699999999,38.653507,0 -78.35340600000001,38.653451,0 -78.353296,38.653408,0 -78.353179,38.653379,0 -78.353002,38.653356,0 -78.352408,38.6533225,0 -78.3517277,38.6532872,0 -78.35149939999999,38.653298,0 -78.3513482,38.6533123,0 -78.3512178,38.653337,0 -78.3510429,38.6533872,0 -78.3508621,38.6534641,0 -78.350711,38.653537,0 -78.350162,38.653895,0 -78.349293,38.654504,0 -78.34918399999999,38.6546184,0 -78.3491057,38.6547181,0 -78.3490335,38.6548063,0 -78.3489142,38.654975,0 -78.34875049999999,38.6552298,0 -78.34863369999999,38.6553428,0 -78.34854199999999,38.6554004,0 -78.3484474,38.6554417,0 -78.34834360000001,38.6554746,0 -78.3482399,38.6554838,0 -78.3481336,38.655481,0 -78.3479961,38.6554595,0 -78.3478597,38.655423,0 -78.3475929,38.655321,0 -78.347072,38.655106,0 -78.346935,38.655063,0 -78.34679300000001,38.655034,0 -78.346676,38.655021,0 -78.346451,38.655014,0 -78.34628499999999,38.655024,0 -78.346121,38.655049,0 -78.346025,38.655072,0 -78.345409,38.655297,0 -78.34518300000001,38.655385,0 -78.34497399999999,38.655448,0 -78.344759,38.655498,0 -78.344528,38.655536,0 -78.34427599999999,38.655562,0 -78.344022,38.655572,0 -78.34321300000001,38.655568,0 -78.342983,38.655583,0 -78.34289099999999,38.655593,0 -78.342741,38.655628,0 -78.342595,38.655673,0 -78.34241900000001,38.655741,0 -78.341683,38.6561,0 -78.341435,38.656204,0 -78.34132200000001,38.656233,0 -78.341206,38.656254,0 -78.34111799999999,38.656264,0 -78.340745,38.656276,0 -78.339108,38.656262,0 -78.33887300000001,38.656279,0 -78.33868699999999,38.656306,0 -78.338504,38.656347,0 -78.338337,38.656402,0 -78.338134,38.656482,0 -78.337795,38.65664,0 -78.337503,38.656789,0 -78.33717,38.656978,0 -78.337012,38.657087,0 -78.336907,38.657174,0 -78.33673400000001,38.657335,0 -78.336411,38.657668,0 -78.336251,38.657813,0 -78.336089,38.657941,0 -78.33596199999999,38.658028,0 -78.335823,38.658104,0 -78.335115,38.658536,0 -78.334388,38.658965,0 -78.3343,38.659007,0 -78.33417799999999,38.659056,0 -78.334018,38.659106,0 -78.33385199999999,38.659141,0 -78.333746,38.659155,0 -78.33355299999999,38.659162,0 -78.33205,38.659146,0 -78.331504,38.659128,0 -78.3313,38.659104,0 -78.33105999999999,38.659056,0 -78.330943,38.659024,0 -78.330764,38.658949,0 -78.33059299999999,38.658863,0 -78.330434,38.658764,0 -78.33018800000001,38.658584,0 -78.33002980000001,38.6585196,0 -78.3298753,38.6584925,0 -78.3297415,38.6584888,0 -78.3296596,38.6585098,0 -78.3295682,38.658537,0 -78.32949139999999,38.6585861,0 -78.3294011,38.6586527,0 -78.3293573,38.6587054,0 -78.3292989,38.6588369,0 -78.3292994,38.6589068,0 -78.32930210000001,38.6589675,0 -78.3293224,38.6590148,0 -78.3293884,38.659121,0 -78.32947679999999,38.6592204,0 -78.3296374,38.6593699,0 -78.3297558,38.6595032,0 -78.32983249999999,38.6596346,0 -78.3298791,38.6597632,0 -78.3299181,38.659887,0 -78.3299451,38.6600029,0 -78.3299447,38.6601524,0 -78.32993740000001,38.6602894,0 -78.3299188,38.6604049,0 -78.3298671,38.6605658,0 -78.3298324,38.6606856,0 -78.32981169999999,38.6608001,0 -78.32979880000001,38.6608714,0 -78.329801,38.66111,0 -78.329837,38.661272,0 -78.329868,38.661367,0 -78.329971,38.661543,0 -78.330066,38.661679,0 -78.33017,38.661811,0 -78.33029000000001,38.661942,0 -78.33047500000001,38.662115,0 -78.330674,38.662279,0 -78.3308454,38.6623888,0 -78.3310001,38.6624665,0 -78.3311514,38.6625369,0 -78.3313337,38.6626083,0 -78.33160289999999,38.6626874,0 -78.3321858,38.6628516,0 -78.3322752,38.6628896,0 -78.33233540000001,38.6629367,0 -78.33242199999999,38.6630281,0 -78.33245700000001,38.6630965,0 -78.33248690000001,38.6631754,0 -78.33249240000001,38.6632515,0 -78.3324772,38.6633237,0 -78.33245169999999,38.6634087,0 -78.3323997,38.6634948,0 -78.3323425,38.663537,0 -78.3322549,38.6635979,0 -78.3321636,38.6636381,0 -78.3320641,38.6636609,0 -78.3319904,38.6636667,0 -78.33184489999999,38.6636597,0 -78.331692,38.66363,0 -78.331558,38.6636,0 -78.331305,38.663532,0 -78.33111,38.663466,0 -78.33095899999999,38.663405,0 -78.33077900000001,38.663317,0 -78.330636,38.663222,0 -78.330099,38.662817,0 -78.329948,38.662729,0 -78.329787,38.662653,0 -78.329611,38.662606,0 -78.328883,38.662479,0 -78.32871299999999,38.662434,0 -78.328484,38.662356,0 -78.328385,38.662311,0 -78.328253,38.662238,0 -78.327815,38.661971,0 -78.32762,38.661882,0 -78.327417,38.661807,0 -78.32710729999999,38.6617356,0 -78.326728,38.6616691,0 -78.3249756,38.6613381,0 -78.3244507,38.6612372,0 -78.3239037,38.6610762,0 -78.3235133,38.6609963,0 -78.3229718,38.660893,0 -78.3224811,38.6607994,0 -78.3222967,38.6607643,0 -78.3219867,38.6607121,0 -78.3218772,38.6606943,0 -78.32145970000001,38.6606595,0 -78.32109749999999,38.6606512,0 -78.3201226,38.6606404,0 -78.31951170000001,38.6606325,0 -78.3192876,38.6606405,0 -78.3191446,38.6606574,0 -78.3189893,38.6606847,0 -78.31882,38.6607245,0 -78.31869469999999,38.6607624,0 -78.3186403,38.6607789,0 -78.3184821,38.6608438,0 -78.3183026,38.660936,0 -78.31768839999999,38.6612941,0 -78.31745239999999,38.6614135,0 -78.31720540000001,38.6615203,0 -78.31701219999999,38.6615936,0 -78.31683820000001,38.6616502,0 -78.3166501,38.6616984,0 -78.31647340000001,38.6617298,0 -78.31631590000001,38.6617534,0 -78.3161954,38.6617684,0 -78.31532,38.6618527,0 -78.3151435,38.6618706,0 -78.31488659999999,38.6619087,0 -78.3147173,38.661942,0 -78.31452059999999,38.6619871,0 -78.3142646,38.6620288,0 -78.3140571,38.6620716,0 -78.3138412,38.6621273,0 -78.31224109999999,38.6625766,0 -78.312071,38.6626389,0 -78.3119002,38.6627192,0 -78.311685,38.6628416,0 -78.31152590000001,38.6629875,0 -78.311412,38.6631269,0 -78.3113113,38.6632818,0 -78.31124130000001,38.663463,0 -78.3112005,38.663658,0 -78.3111334,38.6641645,0 -78.311074,38.6643214,0 -78.3110148,38.664419,0 -78.31093540000001,38.6645048,0 -78.31085280000001,38.6645618,0 -78.31074940000001,38.6646257,0 -78.31063589999999,38.6646769,0 -78.31050140000001,38.6647127,0 -78.3103881,38.6647199,0 -78.310271,38.6647159,0 -78.3101308,38.6647003,0 -78.31000210000001,38.6646745,0 -78.30988960000001,38.6646265,0 -78.3098009,38.6645737,0 -78.30969880000001,38.6644945,0 -78.3095951,38.6643894,0 -78.3095273,38.6642285,0 -78.3094974,38.6640998,0 -78.3095562,38.6636509,0 -78.3095727,38.6634863,0 -78.30957530000001,38.6632628,0 -78.30956089999999,38.6628268,0 -78.3095766,38.6626829,0 -78.3096108,38.6625326,0 -78.30966050000001,38.6624079,0 -78.3097428,38.6622695,0 -78.3098809,38.6620965,0 -78.31013950000001,38.6618919,0 -78.3103409,38.6617897,0 -78.3112979,38.6614049,0 -78.3114343,38.6613374,0 -78.3115586,38.6612585,0 -78.3116311,38.6611749,0 -78.3116735,38.6610548,0 -78.31167979999999,38.6609628,0 -78.31165489999999,38.6608643,0 -78.31159289999999,38.6607616,0 -78.3115138,38.6606771,0 -78.31141909999999,38.6606148,0 -78.31131190000001,38.6605657,0 -78.3112076,38.6605354,0 -78.3110909,38.6605168,0 -78.31091960000001,38.6605256,0 -78.3094225,38.660878,0 -78.3092554,38.6609268,0 -78.30906,38.6610046,0 -78.3088894,38.6610973,0 -78.3087098,38.6612277,0 -78.30856660000001,38.6613648,0 -78.3084581,38.6615323,0 -78.3083685,38.6617027,0 -78.308322,38.6618919,0 -78.30827840000001,38.662085,0 -78.3081979,38.6621936,0 -78.30809259999999,38.6622829,0 -78.3079741,38.6623348,0 -78.3078519,38.6623563,0 -78.30770990000001,38.662355,0 -78.3075924,38.6623312,0 -78.3074553,38.6622874,0 -78.3068942,38.6620679,0 -78.3066075,38.6619897,0 -78.3063782,38.6619522,0 -78.3061606,38.6619398,0 -78.305684,38.6619321,0 -78.3054861,38.6619098,0 -78.30388050000001,38.6616088,0 -78.30347879999999,38.6614877,0 -78.30327939999999,38.6614398,0 -78.3031249,38.6614368,0 -78.3029932,38.6614581,0 -78.30287300000001,38.6615058,0 -78.3027585,38.6615777,0 -78.3026309,38.6617157,0 -78.302131,38.6625091,0 -78.3019682,38.6627082,0 -78.3018148,38.6628383,0 -78.30167419999999,38.6629543,0 -78.3014951,38.6630562,0 -78.30128879999999,38.6631592,0 -78.30032,38.6635647,0 -78.3001191,38.6636833,0 -78.2998959,38.6638519,0 -78.299592,38.6641901,0 -78.2994413,38.6643203,0 -78.2992928,38.6644268,0 -78.2991064,38.6645115,0 -78.298894,38.6645939,0 -78.2986901,38.6646338,0 -78.29812099999999,38.6646865,0 -78.2979641,38.6646868,0 -78.2978257,38.6646662,0 -78.29766789999999,38.6646089,0 -78.2973399,38.6644538,0 -78.29719110000001,38.6644196,0 -78.2970547,38.6643972,0 -78.2969287,38.6643999,0 -78.29678749999999,38.6644215,0 -78.29628409999999,38.6645391,0 -78.2961353,38.6645643,0 -78.2959889,38.6645521,0 -78.2958702,38.6645317,0 -78.2957681,38.6644755,0 -78.29526009999999,38.6640726,0 -78.29512560000001,38.663983,0 -78.29498820000001,38.6639003,0 -78.2948366,38.6638359,0 -78.29470139999999,38.6637861,0 -78.2944566,38.6637382,0 -78.29423370000001,38.6637156,0 -78.294011,38.6637111,0 -78.2938662,38.6637321,0 -78.29373750000001,38.6637781,0 -78.29364769999999,38.6638433,0 -78.293541,38.6639613,0 -78.2933113,38.6642741,0 -78.2932223,38.6644322,0 -78.29317899999999,38.6645363,0 -78.2931762,38.6646068,0 -78.2932225,38.6647604,0 -78.2932761,38.664953,0 -78.2932965,38.665058,0 -78.2932734,38.6651583,0 -78.2932278,38.6652379,0 -78.2931313,38.6653279,0 -78.29296770000001,38.6654264,0 -78.29257610000001,38.6656065,0 -78.2923454,38.6657112,0 -78.2922248,38.6657776,0 -78.29210670000001,38.6658662,0 -78.2920074,38.6659751,0 -78.2919383,38.6660734,0 -78.2918919,38.6661556,0 -78.2918525,38.6662486,0 -78.2918233,38.6663566,0 -78.2918081,38.6664907,0 -78.2918075,38.6666411,0 -78.2918064,38.6667842,0 -78.2917994,38.6668402,0 -78.291783,38.6668849,0 -78.29176080000001,38.6669255,0 -78.2917293,38.6669665,0 -78.29169659999999,38.6670002,0 -78.29165519999999,38.6670344,0 -78.2916015,38.6670677,0 -78.2915343,38.6670959,0 -78.29145320000001,38.6671205,0 -78.291354,38.6671379,0 -78.291236,38.6671497,0 -78.2910679,38.6671584,0 -78.2909634,38.6671666,0 -78.29088640000001,38.667178,0 -78.290828,38.6671935,0 -78.2907603,38.6672195,0 -78.290706,38.6672509,0 -78.2906593,38.6672865,0 -78.29062140000001,38.6673252,0 -78.29057640000001,38.6673954,0 -78.290542,38.6674628,0 -78.29051219999999,38.6675476,0 -78.2904947,38.6676128,0 -78.29048589999999,38.6676853,0 -78.2904877,38.6677764,0 -78.29049639999999,38.6678484,0 -78.29052040000001,38.66792,0 -78.2905449,38.6679747,0 -78.29058929999999,38.6680449,0 -78.2906605,38.6681297,0 -78.29076259999999,38.6682418,0 -78.2908613,38.6683471,0 -78.29091320000001,38.66842,0 -78.2909494,38.668487,0 -78.2909664,38.6685522,0 -78.2909693,38.6686169,0 -78.2909576,38.6686775,0 -78.29093659999999,38.6687231,0 -78.2909056,38.6687718,0 -78.2908584,38.6688229,0 -78.2907895,38.6688712,0 -78.2907007,38.6689077,0 -78.2906406,38.6689263,0 -78.29058759999999,38.6689374,0 -78.290527,38.6689437,0 -78.29041599999999,38.6689407,0 -78.29034969999999,38.6689292,0 -78.29025369999999,38.6688958,0 -78.290172,38.6688492,0 -78.2900767,38.6687712,0 -78.2895712,38.6682472,0 -78.2894799,38.6681398,0 -78.2894012,38.668049,0 -78.28933670000001,38.667953,0 -78.2892892,38.6678656,0 -78.2892452,38.6677555,0 -78.289219,38.6676679,0 -78.2891898,38.6675526,0 -78.2891647,38.6674603,0 -78.28913850000001,38.6673444,0 -78.28911069999999,38.6672185,0 -78.28909710000001,38.667112,0 -78.28909160000001,38.6669945,0 -78.2890925,38.6668887,0 -78.2891041,38.6667901,0 -78.28912649999999,38.666686,0 -78.28916700000001,38.666582,0 -78.2892104,38.6664828,0 -78.28924619999999,38.6664017,0 -78.2893006,38.6663129,0 -78.2893594,38.6662383,0 -78.28942480000001,38.6661662,0 -78.2895304,38.6660564,0 -78.2896789,38.6659131,0 -78.2899748,38.6656342,0 -78.29007110000001,38.6655367,0 -78.29014050000001,38.6654479,0 -78.2901834,38.6653644,0 -78.2902057,38.6652758,0 -78.2902175,38.6651863,0 -78.2902177,38.6650883,0 -78.29014979999999,38.6645205,0 -78.2901268,38.6643166,0 -78.2901033,38.6641201,0 -78.29009259999999,38.6639518,0 -78.2900927,38.6638316,0 -78.2901195,38.6636327,0 -78.29016799999999,38.663426,0 -78.2902268,38.6631982,0 -78.29027000000001,38.6629704,0 -78.2902957,38.6627385,0 -78.2902892,38.6625108,0 -78.2902703,38.6623758,0 -78.29025559999999,38.6622917,0 -78.2902216,38.6621491,0 -78.2901538,38.6619373,0 -78.29003470000001,38.6616961,0 -78.2897523,38.6612088,0 -78.28960189999999,38.6609523,0 -78.28952169999999,38.660825,0 -78.2894415,38.6607142,0 -78.2893172,38.6605758,0 -78.2892006,38.6604678,0 -78.2890767,38.660374,0 -78.28889700000001,38.6602707,0 -78.2887217,38.6601925,0 -78.2885259,38.6601339,0 -78.2883248,38.6600857,0 -78.288105,38.6600564,0 -78.2879255,38.6600543,0 -78.28776740000001,38.660067,0 -78.28745809999999,38.6601118,0 -78.28702869999999,38.6601826,0 -78.2868891,38.6601994,0 -78.2867196,38.6602128,0 -78.28656599999999,38.6602137,0 -78.2864173,38.6602099,0 -78.286321,38.6602023,0 -78.28623349999999,38.6601906,0 -78.28610140000001,38.6601718,0 -78.2858011,38.6601228,0 -78.2855752,38.6600727,0 -78.28534139999999,38.6600138,0 -78.2851105,38.6599434,0 -78.2849135,38.6598755,0 -78.2847391,38.659806,0 -78.2846108,38.6597505,0 -78.2844276,38.659656,0 -78.2839582,38.6594084,0 -78.2832652,38.65902,0 -78.2828837,38.6588285,0 -78.2825479,38.6586614,0 -78.2822051,38.6585077,0 -78.28214440000001,38.6584816,0 -78.28205010000001,38.658441,0 -78.2818832,38.65837,0 -78.28164,38.6582646,0 -78.281537,38.6582203,0 -78.28107369999999,38.6580208,0 -78.2803359,38.6577055,0 -78.2799358,38.6575297,0 -78.27952430000001,38.6573514,0 -78.27911539999999,38.6571788,0 -78.27883730000001,38.6570594,0 -78.27821040000001,38.6567867,0 -78.2777651,38.6565915,0 -78.2774782,38.6564647,0 -78.27722439999999,38.6563398,0 -78.27689220000001,38.6561715,0 -78.276555,38.655993,0 -78.2757885,38.6555837,0 -78.2748493,38.6550714,0 -78.27379790000001,38.6545164,0 -78.27285910000001,38.6540179,0 -78.27260699999999,38.6538817,0 -78.2723898,38.6538,0 -78.2721559,38.6537213,0 -78.2718453,38.6536283,0 -78.27164879999999,38.6535552,0 -78.2714915,38.6534726,0 -78.2713826,38.6533949,0 -78.27125289999999,38.6532705,0 -78.27109369999999,38.6531216,0 -78.2709794,38.6530488,0 -78.27085270000001,38.652995,0 -78.27073679999999,38.6529655,0 -78.27053410000001,38.6529397,0 -78.2702664,38.6529109,0 -78.27007570000001,38.6528806,0 -78.2699243,38.6528348,0 -78.26975520000001,38.6527546,0 -78.2695186,38.6526182,0 -78.2693776,38.6525537,0 -78.2691899,38.6524971,0 -78.2689736,38.6524506,0 -78.2684713,38.6523783,0 -78.2679275,38.6523126,0 -78.2677206,38.6522876,0 -78.26766050000001,38.6522803,0 -78.2670442,38.6522061,0 -78.266656,38.6521594,0 -78.26654259999999,38.6521457,0 -78.2652712,38.6519923,0 -78.2649995,38.6519534,0 -78.26485460000001,38.6519242,0 -78.2646759,38.651878,0 -78.264641,38.6518671,0 -78.26451609999999,38.651828,0 -78.2643437,38.6517599,0 -78.2641043,38.6516473,0 -78.2629967,38.6510602,0 -78.26162100000001,38.6503195,0 -78.26075299999999,38.6498521,0 -78.26020269999999,38.6495614,0 -78.2597933,38.6493579,0 -78.25962509999999,38.6492839,0 -78.25946690000001,38.6492315,0 -78.2592952,38.6491917,0 -78.2591048,38.6491707,0 -78.25895989999999,38.6491728,0 -78.2587899,38.6491859,0 -78.2586417,38.6492136,0 -78.2584411,38.6492682,0 -78.2582384,38.6493446,0 -78.2579729,38.6494598,0 -78.2574637,38.6497193,0 -78.2571768,38.6498794,0 -78.2569967,38.6499799,0 -78.2563663,38.6503489,0 -78.25417640000001,38.6516921,0 -78.2538175,38.6518984,0 -78.25362320000001,38.6519993,0 -78.25247969999999,38.6525557,0 -78.25219939999999,38.6526877,0 -78.2514025,38.65303,0 -78.2511672,38.6531003,0 -78.2508615,38.6531628,0 -78.25018609999999,38.6532506,0 -78.24947179999999,38.6533327,0 -78.24891820000001,38.653395,0 -78.24858020000001,38.6534373,0 -78.24794079999999,38.6535172,0 -78.2471922,38.6536108,0 -78.24679519999999,38.653654,0 -78.24648379999999,38.6537082,0 -78.2461984,38.6538048,0 -78.24586069999999,38.6539514,0 -78.2451892,38.6543058,0 -78.2447353,38.654558,0 -78.24449250000001,38.6546539,0 -78.244246,38.654752,0 -78.2440119,38.65481,0 -78.2437166,38.6548471,0 -78.24338849999999,38.6548638,0 -78.24304979999999,38.654868,0 -78.24196670000001,38.6548792,0 -78.2417052,38.6549024,0 -78.2413605,38.6549562,0 -78.2410491,38.6550236,0 -78.2407771,38.6550992,0 -78.2404739,38.6552095,0 -78.2401474,38.6553464,0 -78.2399702,38.6554309,0 -78.23976399999999,38.6555279,0 -78.23957,38.6556212,0 -78.23818780000001,38.6562779,0 -78.2379202,38.6563948,0 -78.23725090000001,38.6567137,0 -78.2369431,38.6568583,0 -78.2365178,38.6570581,0 -78.2362179,38.6571989,0 -78.2351293,38.6576982,0 -78.23495440000001,38.6577594,0 -78.23434279999999,38.6579623,0 -78.234171,38.658021,0 -78.2337917,38.6581508,0 -78.23357729999999,38.6582221,0 -78.2321049,38.6587492,0 -78.23180139999999,38.6588445,0 -78.2314604,38.6589334,0 -78.23103399999999,38.6590284,0 -78.2305132,38.6591411,0 -78.2302933,38.659181,0 -78.2300369,38.6592228,0 -78.2297447,38.6592481,0 -78.229528,38.6592476,0 -78.22937400000001,38.6592477,0 -78.22915930000001,38.6592276,0 -78.2290284,38.6592062,0 -78.2288193,38.6591642,0 -78.2285933,38.6591037,0 -78.2279149,38.6589044,0 -78.2276279,38.6588309,0 -78.2273548,38.6587914,0 -78.2270755,38.6587683,0 -78.2268863,38.6587693,0 -78.2267665,38.65877,0 -78.2264802,38.6587935,0 -78.22616859999999,38.658846,0 -78.2254714,38.6590126,0 -78.2252866,38.6590586,0 -78.2245805,38.6592346,0 -78.2240101,38.6593876,0 -78.2221931,38.6598743,0 -78.2217052,38.6600059,0 -78.2213058,38.6601318,0 -78.2209728,38.6602556,0 -78.2207164,38.6603639,0 -78.2203777,38.6605523,0 -78.2201055,38.6607407,0 -78.21987816779421,38.6609375382089,0 -78.2195921272354,38.6611992176111,0 -78.2193559103908,38.6615144423596,0 -78.2191462,38.6618448,0 -78.2189407,38.6621759,0 -78.21856579999999,38.6628375,0 -78.21833789999999,38.6632398,0 -78.2178084,38.6641301,0 -78.217668,38.6643783,0 -78.2174389,38.6648104,0 -78.2171037,38.6654114,0 -78.21659889999999,38.6665978,0 -78.2163722,38.6671582,0 -78.21618410000001,38.6676232,0 -78.21547320000001,38.6693817,0 -78.2152256,38.6698845,0 -78.21497239999999,38.6703548,0 -78.2147382,38.6707267,0 -78.2141712,38.6715801,0 -78.21380379999999,38.672062,0 -78.21343419999999,38.672481,0 -78.2129455,38.6730313,0 -78.2126056,38.6733865,0 -78.2114734,38.6747105,0 -78.2108989,38.6753735,0 -78.2101339,38.6763181,0 -78.20881989999999,38.6780148,0 -78.20796420000001,38.6790633,0 -78.2074776,38.6796598,0 -78.206535,38.6807475,0 -78.205641,38.68172,0 -78.2051491,38.6822392,0 -78.2049425,38.6824319,0 -78.2044011,38.6828967,0 -78.20395550000001,38.68324,0 -78.2034774,38.6835464,0 -78.20298630000001,38.683845,0 -78.20262030000001,38.6840504,0 -78.202163,38.6842917,0 -78.2015687,38.6845612,0 -78.2011287,38.6847347,0 -78.20048850000001,38.6849533,0 -78.19987279999999,38.6851285,0 -78.199372,38.6852543,0 -78.1977631,38.685567,0 -78.196377,38.685834,0 -78.193457,38.6863971,0 -78.1910985,38.6868568,0 -78.1892891,38.687213,0 -78.187394,38.687553,0 -78.1858563,38.6878509,0 -78.1851892,38.6879802,0 -78.184889,38.6880509,0 -78.184653,38.6880982,0 -78.1843319,38.6881694,0 -78.18397710000001,38.6882745,0 -78.1834321,38.688484,0 -78.1832789,38.6885541,0 -78.1816792,38.689278,0 -78.1804867,38.6897865,0 -78.179821,38.6900923,0 -78.17944420000001,38.6902654,0 -78.1781768,38.6908477,0 -78.1761297,38.6917896,0 -78.17473680000001,38.6924171,0 -78.1738465,38.6927814,0 -78.1737514,38.6928315,0 -78.1724641,38.6933833,0 -78.1713215,38.693873,0 -78.17033000000001,38.694298,0 -78.168485,38.695068,0 -78.1679803,38.6952859,0 -78.16725649999999,38.6955922,0 -78.1666074,38.6958896,0 -78.166033,38.696188,0 -78.16577100000001,38.696355,0 -78.1651274,38.6967779,0 -78.16470409999999,38.6970923,0 -78.1643693,38.6973975,0 -78.1639131,38.6978491,0 -78.1634602,38.6983684,0 -78.1625988,38.6995279,0 -78.1607722,38.7020566,0 -78.15973150000001,38.7034778,0 -78.158546,38.7051,0 -78.1574409,38.7066238,0 -78.1565214,38.7078779,0 -78.15605960000001,38.7085327,0 -78.1557162,38.7090015,0 -78.1552871,38.7095666,0 -78.1549759,38.7099413,0 -78.1545656,38.7103724,0 -78.154115,38.7107952,0 -78.1536358,38.7111971,0 -78.15323220000001,38.7114996,0 -78.1528055,38.7117939,0 -78.1524654,38.7120069,0 -78.15212,38.7122129,0 -78.151822,38.7123792,0 -78.15146489999999,38.7125679,0 -78.15095460000001,38.7128052,0 -78.15047250000001,38.7130137,0 -78.14983410000001,38.7132544,0 -78.1493138,38.7134239,0 -78.1487881,38.7135746,0 -78.1482463,38.7137044,0 -78.1477098,38.7138153,0 -78.1471921,38.7139048,0 -78.1464599,38.7140037,0 -78.14591540000001,38.7140476,0 -78.14536289999999,38.714079,0 -78.1447809,38.7140874,0 -78.1442337,38.714079,0 -78.14358729999999,38.7140413,0 -78.14323330000001,38.7140087,0 -78.1427004,38.7139597,0 -78.1417756,38.7138385,0 -78.1414663,38.713793,0 -78.1407924,38.7136939,0 -78.138998,38.7134344,0 -78.1385796,38.7133863,0 -78.1383055,38.713364,0 -78.1380324,38.7133632,0 -78.137974,38.7133649,0 -78.1377245,38.7133724,0 -78.13710260000001,38.7134354,0 -78.1353843,38.7136708,0 -78.1339684,38.713863,0 -78.13316039999999,38.7139745,0 -78.1326554,38.7140428,0 -78.1303559,38.7143636,0 -78.1296457,38.7144925,0 -78.1291516,38.7146127,0 -78.12863400000001,38.7147738,0 -78.1281333,38.7149559,0 -78.12752620000001,38.7152301,0 -78.1270595,38.715477,0 -78.126625,38.7157491,0 -78.12611,38.7161237,0 -78.12548769999999,38.7166364,0 -78.12464989999999,38.7173751,0 -78.12413340000001,38.717823,0 -78.1234384,38.7184322,0 -78.1225669,38.7191959,0 -78.1217202,38.7199325,0 -78.1200197,38.7214099,0 -78.1198057,38.7215785,0 -78.11946589999999,38.7218345,0 -78.1190206,38.7221316,0 -78.1184344,38.7224836,0 -78.1178941,38.722772,0 -78.11754999999999,38.7229272,0 -78.117034,38.7231271,0 -78.11640850000001,38.7233324,0 -78.11581839999999,38.7235002,0 -78.1153241,38.7236134,0 -78.1148244,38.7237059,0 -78.11430590000001,38.723785,0 -78.1139599,38.7238231,0 -78.1134899,38.7238643,0 -78.1130447,38.7238846,0 -78.1126316,38.723881,0 -78.11077210000001,38.7238278,0 -78.1105499,38.7238189,0 -78.1082274,38.7237262,0 -78.1077801,38.7237178,0 -78.107282,38.7237306,0 -78.10679949999999,38.7237758,0 -78.1063874,38.7238392,0 -78.100876,38.724912,0 -78.09983750000001,38.7251282,0 -78.09905430000001,38.7252538,0 -78.0985608,38.7253082,0 -78.0982636,38.7253301,0 -78.0980404,38.7253375,0 -78.0979877,38.7253376,0 -78.0976325,38.7253379,0 -78.0972342,38.7253172,0 -78.09386720000001,38.7250068,0 -78.0930011,38.7248899,0 -78.09220740000001,38.7247428,0 -78.0915219,38.7245852,0 -78.0908098,38.7243749,0 -78.0902818,38.724197,0 -78.08972319999999,38.723989,0 -78.0887409,38.7235737,0 -78.0879087,38.7232202,0 -78.087129,38.7229346,0 -78.0867901,38.7228216,0 -78.08623350000001,38.7226671,0 -78.08568080000001,38.7225466,0 -78.0851701,38.7224587,0 -78.08464720000001,38.7223918,0 -78.083884,38.7223206,0 -78.081277,38.722129,0 -78.080988,38.722102,0 -78.079275,38.7219986,0 -78.076683,38.7218397,0 -78.0738898,38.7215846,0 -78.0735943,38.7215423,0 -78.0733,38.7214793,0 -78.07302439999999,38.7214057,0 -78.0679823,38.7198182,0 -78.0676014,38.7196882,0 -78.06721539999999,38.7195281,0 -78.06686929999999,38.7193635,0 -78.0665147,38.7191439,0 -78.0661104,38.7188503,0 -78.0658749,38.7186406,0 -78.0656919,38.7184623,0 -78.06547310000001,38.7182309,0 -78.06533279999999,38.7180433,0 -78.0642579,38.7163509,0 -78.0624907,38.7135524,0 -78.06226890000001,38.713238,0 -78.06204839999999,38.7129285,0 -78.0617823,38.7126187,0 -78.0614899,38.7123394,0 -78.0612663,38.7121572,0 -78.06093370000001,38.7119224,0 -78.06058299999999,38.711719,0 -78.06009090000001,38.7114925,0 -78.0595548,38.711287,0 -78.05533320000001,38.7097895,0 -78.0536606,38.7091076,0 -78.05289879999999,38.7087208,0 -78.05216849999999,38.7083443,0 -78.0513966,38.7078806,0 -78.050579,38.7073542,0 -78.049319,38.7065,0 -78.04719900000001,38.70507,0 -78.0456224,38.7039967,0 -78.045158,38.7036806,0 -78.04420880000001,38.7029984,0 -78.0436756,38.7026016,0 -78.0431517,38.702158,0 -78.0424635,38.7015121,0 -78.0417779,38.7008052,0 -78.0417417,38.7007632,0 -78.04110249999999,38.7000217,0 -78.0399105,38.6986529,0 -78.03926250000001,38.6979032,0 -78.0389192,38.6974553,0 -78.03874190000001,38.6971844,0 -78.03873400000001,38.6971697,0 -78.0386271,38.6969712,0 -78.0385812,38.6968859,0 -78.038113,38.69589,0 -78.0375141,38.6945515,0 -78.0372991,38.6941896,0 -78.0370362,38.6938504,0 -78.03671970000001,38.6934862,0 -78.03641399999999,38.6931847,0 -78.03611890000001,38.6929377,0 -78.035816,38.692702,0 -78.0356082,38.6925632,0 -78.0347763,38.6920873,0 -78.0330505,38.6912001,0 -78.03229229999999,38.6908404,0 -78.0312187,38.6903661,0 -78.0305968,38.690103,0 -78.02915230000001,38.6895445,0 -78.0275522,38.6890269,0 -78.02629570000001,38.6886401,0 -78.0252886,38.6883634,0 -78.0243205,38.6881401,0 -78.02380580000001,38.68803,0 -78.0228704,38.6878237,0 -78.0220733,38.6876412,0 -78.0213183,38.6874398,0 -78.0201118,38.6870715,0 -78.01930900000001,38.6867877,0 -78.0187329,38.6865841,0 -78.0179655,38.6862807,0 -78.0147077,38.685104,0 -78.0133508,38.6845711,0 -78.01246759999999,38.6842242,0 -78.01218679999999,38.6841196,0 -78.0093632,38.6830671,0 -78.0085193,38.6827333,0 -78.0081646,38.6825762,0 -78.0079238,38.6824695,0 -78.0073337,38.6821638,0 -78.00683479999999,38.6818707,0 -78.006336,38.6815149,0 -78.0062282,38.6814326,0 -78.0058744,38.6811624,0 -78.0058532,38.6811462,0 -78.0055893,38.6809022,0 -78.0053013,38.6806359,0 -78.0050722,38.6803909,0 -78.0048231,38.6801246,0 -78.0042583,38.6795206,0 -78.00348769999999,38.6786966,0 -78.0031475,38.6783242,0 -78.0027417,38.6778798,0 -78.00210869999999,38.6772061,0 -78.00149829999999,38.6765781,0 -78.00052650000001,38.6755218,0 -77.99989100000001,38.6748636,0 -77.9993553,38.6743045,0 -77.9989693,38.6739686,0 -77.998436,38.6735587,0 -77.9982993,38.6734537,0 -77.99775820000001,38.6730845,0 -77.99726819999999,38.6728047,0 -77.9967638,38.6725364,0 -77.9967231,38.6725147,0 -77.9960525,38.6721964,0 -77.9952091,38.671875,0 -77.9947124,38.6717109,0 -77.9939914,38.6715148,0 -77.9934013,38.6713895,0 -77.9926444,38.6712386,0 -77.9918794,38.6710872,0 -77.9918358,38.6710786,0 -77.99103650000001,38.6709446,0 -77.9904713,38.6708819,0 -77.9899138,38.6708361,0 -77.98930919999999,38.6708189,0 -77.9885367,38.6708399,0 -77.9876301,38.6709236,0 -77.98470260000001,38.6712677,0 -77.9840561,38.6713437,0 -77.9837273,38.6713715,0 -77.9825479,38.6715166,0 -77.98209490000001,38.6715723,0 -77.9813644,38.6716561,0 -77.9799,38.6718241,0 -77.97797300000001,38.672052,0 -77.9767832,38.6721785,0 -77.9750003,38.6723646,0 -77.97363420000001,38.6724862,0 -77.97231499999999,38.6725734,0 -77.971614,38.672599,0 -77.971356,38.672614,0 -77.96934709999999,38.6727293,0 -77.9671378,38.6728561,0 -77.965851,38.67293,0 -77.9638467,38.673047,0 -77.960026,38.67327,0 -77.9565642,38.6734697,0 -77.95404600000001,38.673615,0 -77.953214,38.673659,0 -77.95262200000001,38.673698,0 -77.949167,38.673899,0 -77.947644,38.673983,0 -77.947362,38.673998,0 -77.94708,38.674013,0 -77.94541099999999,38.674042,0 -77.94483099999999,38.674048,0 -77.943969,38.67406,0 -77.94344,38.67407,0 -77.942412,38.67408,0 -77.941002,38.674092,0 -77.9403295,38.6741048,0 -77.939245,38.67411,0 -77.938399,38.674117,0 -77.93798,38.67413,0 -77.937138,38.674173,0 -77.93657,38.674217,0 -77.936091,38.674263,0 -77.9354,38.674348,0 -77.934972,38.674412,0 -77.934569,38.674484,0 -77.93423799999999,38.674543,0 -77.93323700000001,38.674736,0 -77.93271300000001,38.674843,0 -77.931061,38.675175,0 -77.930362,38.675315,0 -77.929433,38.675504,0 -77.928279,38.675733,0 -77.926418,38.676104,0 -77.92577300000001,38.676233,0 -77.925669,38.676254,0 -77.923355,38.676727,0 -77.92289940000001,38.6768186,0 -77.92282299999999,38.676834,0 -77.92244700000001,38.67691,0 -77.92201300000001,38.676999,0 -77.92139899999999,38.677122,0 -77.920767,38.677249,0 -77.9180346,38.6778008,0 -77.9176543,38.6778765,0 -77.9173552,38.6779376,0 -77.916825,38.678046,0 -77.91609099999999,38.678195,0 -77.912908,38.678847,0 -77.911665,38.679092,0 -77.910594,38.67931,0 -77.909994,38.679434,0 -77.909387,38.679579,0 -77.909091,38.679666,0 -77.9088,38.679764,0 -77.90848099999999,38.679888,0 -77.908152,38.680034,0 -77.907776,38.680225,0 -77.907551,38.680353,0 -77.90728,38.680525,0 -77.906983,38.680732,0 -77.906741,38.680926,0 -77.906429,38.681199,0 -77.906308,38.681312,0 -77.904048,38.683518,0 -77.9036306,38.6839304,0 -77.903396,38.684159,0 -77.902976,38.684566,0 -77.90226,38.685259,0 -77.900519,38.686958,0 -77.899562,38.687893,0 -77.89900299999999,38.688438,0 -77.897273,38.690121,0 -77.894997,38.6923482,0 -77.8947565,38.6925835,0 -77.894043,38.693273,0 -77.89372299999999,38.693574,0 -77.893474,38.693793,0 -77.89315000000001,38.694057,0 -77.89294460000001,38.6942107,0 -77.89281200000001,38.69431,0 -77.89246199999999,38.694553,0 -77.89127000000001,38.695358,0 -77.890449,38.695922,0 -77.8891579,38.6968302,0 -77.8881852,38.6974738,0 -77.8878407,38.6976825,0 -77.8874787,38.6978819,0 -77.88716220000001,38.6980431,0 -77.886816,38.6982093,0 -77.88647829999999,38.6983574,0 -77.88593109999999,38.6985897,0 -77.8857299,38.6986751,0 -77.8854441,38.6987964,0 -77.883094,38.699794,0 -77.882043,38.700251,0 -77.87937100000001,38.701394,0 -77.87897100000001,38.70157,0 -77.878849,38.701624,0 -77.877934,38.702008,0 -77.875687,38.702975,0 -77.8750934,38.7032276,0 -77.87443,38.70351,0 -77.871568,38.704744,0 -77.868135,38.706229,0 -77.867266,38.706586,0 -77.867108,38.706645,0 -77.866788,38.706757,0 -77.86638000000001,38.706884,0 -77.865955,38.707001,0 -77.865482,38.707113,0 -77.865072,38.707195,0 -77.86246800000001,38.707641,0 -77.860215,38.708027,0 -77.85851099999999,38.708316,0 -77.857123,38.708545,0 -77.855739,38.708788,0 -77.8546702,38.708969,0 -77.8502944,38.70971,0 -77.84907800000001,38.709916,0 -77.84775399999999,38.710141,0 -77.846656,38.71033,0 -77.846356,38.71038,0 -77.8447929,38.7106437,0 -77.8446072,38.7106772,0 -77.843874,38.710796,0 -77.84363190000001,38.7108375,0 -77.842718,38.710994,0 -77.842203,38.711082,0 -77.84188829999999,38.7111347,0 -77.84095499999999,38.711291,0 -77.83723000000001,38.711929,0 -77.83506199999999,38.712296,0 -77.8346725,38.7123603,0 -77.83353,38.712549,0 -77.83226879999999,38.7127631,0 -77.83128600000001,38.71293,0 -77.83073,38.713027,0 -77.829897,38.713182,0 -77.827377,38.713665,0 -77.82444599999999,38.714229,0 -77.82426700000001,38.714264,0 -77.82266540000001,38.7145723,0 -77.81981,38.715122,0 -77.819378,38.715206,0 -77.8166961,38.715719,0 -77.81392409999999,38.7162567,0 -77.81287039999999,38.7164615,0 -77.81231940000001,38.7165686,0 -77.811443,38.716739,0 -77.8102872,38.7169582,0 -77.809988,38.717015,0 -77.8098056,38.7170499,0 -77.809727,38.717065,0 -77.809567,38.717095,0 -77.8093734,38.7171321,0 -77.80930600000001,38.717145,0 -77.8092061,38.7171628,0 -77.80891800000001,38.717214,0 -77.80856,38.717273,0 -77.8082941,38.7173033,0 -77.8079496,38.717328,0 -77.8079496,38.717328,0 -77.8079245,38.7173844,0 -77.8077833,38.7177017,0 -77.8076583,38.7179823,0 -77.8076095,38.718092,0 -77.8075668,38.7181879,0 -77.8075259,38.7182827,0 -77.80750279999999,38.7183317,0 -77.8074392,38.7184746,0 -77.8074013,38.7185579,0 -77.8073072,38.7187604,0 -77.8072646,38.7188506,0 -77.807118,38.7191719,0 -77.80706600000001,38.7192858,0 -77.80696140000001,38.7195071,0 -77.8069429,38.7195461,0 -77.8068287,38.719788,0 -77.8067413,38.7199665,0 -77.8066475,38.7201899,0 -77.80660829999999,38.7202744,0 -77.80648069999999,38.7205492,0 -77.80640959999999,38.7207025,0 -77.8063306,38.7208685,0 -77.8062109,38.7211202,0 -77.8060041,38.7215551,0 -77.8058647,38.7218481,0 -77.80566760000001,38.7222639,0 -77.8056503,38.7223004,0 -77.8055404,38.7225355,0 -77.80552400000001,38.7225707,0 -77.8054226,38.7227877,0 -77.8053666,38.7229075,0 -77.8052922,38.7230667,0 -77.80527170000001,38.7231105,0 -77.80517620000001,38.7233149,0 -77.8051123,38.7234517,0 -77.8050866,38.7235067,0 -77.80489439999999,38.7239073,0 -77.8047581,38.7241915,0 -77.8046801,38.7243541,0 -77.804596,38.7245345,0 -77.80456719999999,38.7245962,0 -77.80449419999999,38.7247527,0 -77.804439,38.7248711,0 -77.8043945,38.7249657,0 -77.8042957,38.7251756,0 -77.8041798,38.7254267,0 -77.8041532,38.7254836,0 -77.8040589,38.7256847,0 -77.8039722,38.7258696,0 -77.8039016,38.7260204,0 -77.8038105,38.7261946,0 -77.80378450000001,38.7262443,0 -77.8037199,38.7263456,0 -77.803681,38.7265002,0 -77.8036245,38.7266278,0 -77.803607,38.7266566,0 -77.80355489999999,38.7267423,0 -77.803471,38.726838,0 -77.8034021,38.7269137,0 -77.80325999999999,38.72707,0 -77.80305199999999,38.727276,0 -77.803012,38.7273113,0 -77.802875,38.727432,0 -77.802757,38.727526,0 -77.802498,38.727712,0 -77.802204,38.727898,0 -77.801962,38.728032,0 -77.80171300000001,38.728151,0 -77.80153730000001,38.7282235,0 -77.80134,38.728305,0 -77.8011422,38.7283847,0 -77.80113129999999,38.7283884,0 -77.8010036,38.7284317,0 -77.80089940000001,38.7284613,0 -77.8007758,38.7284893,0 -77.80068,38.728511,0 -77.800354,38.728582,0 -77.80009099999999,38.728628,0 -77.799842,38.728661,0 -77.7997793,38.7286666,0 -77.79956,38.728686,0 -77.799437,38.7286921,0 -77.799278,38.7287,0 -77.798965,38.7287,0 -77.798653,38.728683,0 -77.797669,38.728591,0 -77.7975545,38.7285797,0 -77.7966715,38.7284927,0 -77.79579099999999,38.728406,0 -77.79438709999999,38.7282699,0 -77.794275,38.728259,0 -77.7941764,38.7282494,0 -77.7936101,38.7281944,0 -77.792691,38.728105,0 -77.792663,38.7281025,0 -77.7919105,38.7280361,0 -77.790972,38.7279532,0 -77.790824,38.7279401,0 
			</coordinates>
		</LineString>
		<atom:link rel="app" href="https://www.google.com/earth/about/versions/#earth-pro" title="Google Earth Pro 7.3.6.10201"></atom:link>
	</Placemark>
</Document>
</kml>
