<?xml version="1.0" encoding="UTF-8"?>
<kml xmlns="http://www.opengis.net/kml/2.2" xmlns:gx="http://www.google.com/kml/ext/2.2" xmlns:kml="http://www.opengis.net/kml/2.2" xmlns:atom="http://www.w3.org/2005/Atom">
<Document>
	<name>US.222.kml</name>
	<Placemark>
		<name>US.222</name>
			<LineString>
				<coordinates>
					-76.1591292,39.6778650999999,0 -76.1592981,39.6780617,0 -76.15948710000001,39.6782749,0 -76.1596686,39.6784801,0 -76.1603525,39.6792397999999,0 -76.16041559999999,39.6793074,0 -76.1606779,39.679594,0 -76.1612106,39.6801762,0 -76.1613183,39.6802939,0 -76.16141,39.6803911,0 -76.1616853,39.6806848000001,0 -76.1617409,39.6807434,0 -76.1619774,39.6809925,0 -76.1621414,39.6811653,0 -76.1623048,39.6813358,0 -76.1626672,39.681714,0 -76.1630512,39.6821146,0 -76.16343550000001,39.6825282,0 -76.16394510000001,39.6830908,0 -76.1641082,39.683276,0 -76.1645573,39.6837769000001,0 -76.1648883,39.684154,0 -76.1655186,39.6848494999999,0 -76.1665643,39.6860376,0 -76.1667805,39.6862725,0 -76.1669531,39.6864711,0 -76.1670718,39.6866119,0 -76.16718590000001,39.6867547,0 -76.16732930000001,39.6869476,0 -76.1674227,39.6870787,0 -76.1675302,39.6872397999999,0 -76.1676094,39.6873661,0 -76.1676949,39.6875068,0 -76.1677869,39.6876724,0 -76.1680142,39.6880992,0 -76.16864889999999,39.6893286,0 -76.1688134,39.6896472,0 -76.16912000000001,39.690241,0 -76.16952240000001,39.6910011,0 -76.1697175,39.69135,0 -76.1698657,39.6916239,0 -76.1701575,39.6921494,0 -76.1706664,39.6930693,0 -76.1710588,39.6937693,0 -76.1712674,39.6941559,0 -76.1715914,39.6947402,0 -76.1716946,39.6949167,0 -76.1718283,39.6951392,0 -76.1719647,39.6953651,0 -76.1720411,39.6954839,0 -76.1721155,39.6955948,0 -76.17218889999999,39.6956965,0 -76.1724169,39.6959999,0 -76.1728234,39.6965229,0 -76.1729222,39.6966566,0 -76.1730063,39.6967772,0 -76.1730859,39.6968969999999,0 -76.1731614,39.6970191,0 -76.17324910000001,39.6971736,0 -76.1733256,39.697318,0 -76.17339339999999,39.6974578,0 -76.1734762,39.6976523,0 -76.1735331,39.697801,0 -76.1735797,39.6979369,0 -76.1736209,39.6980718,0 -76.173654,39.6981881,0 -76.1736813,39.6982949,0 -76.17370459999999,39.6984034,0 -76.173727,39.6985232,0 -76.1737559,39.6986982,0 -76.1737821,39.69893,0 -76.17379010000001,39.6990416,0 -76.1737904,39.6992015,0 -76.17378429999999,39.6993449,0 -76.17377620000001,39.6994789999999,0 -76.1737615,39.6996349,0 -76.1737454,39.6997933000001,0 -76.17370750000001,39.7001452,0 -76.17362869999999,39.7008416,0 -76.1735123,39.701874,0 -76.17338789999999,39.702948,0 -76.1733433,39.7032939,0 -76.1733309,39.7033774,0 -76.1733127,39.7034722,0 -76.1732913,39.7035536,0 -76.17326490000001,39.7036428,0 -76.1732275,39.7037479,0 -76.1731846,39.7038455,0 -76.1731388,39.7039366,0 -76.173101,39.704002,0 -76.1730422,39.7040938,0 -76.17298580000001,39.7041694,0 -76.17292019999999,39.7042489,0 -76.172848,39.7043293,0 -76.1727518,39.7044232,0 -76.17263250000001,39.7045336,0 -76.1719617,39.7050945,0 -76.17112849999999,39.7057696,0 -76.17099779999999,39.7058783,0 -76.170863,39.7059823,0 -76.17073329999999,39.7060803,0 -76.17060859999999,39.7061651,0 -76.1704761,39.7062483,0 -76.17034200000001,39.7063292,0 -76.1702399,39.7063856,0 -76.1701126,39.7064527,0 -76.16996640000001,39.7065263,0 -76.16966290000001,39.7066775,0 -76.1695249,39.7067494,0 -76.169405,39.7068169,0 -76.1692932,39.7068844,0 -76.16911140000001,39.7070014,0 -76.1690498,39.7070431,0 -76.16890979999999,39.7071442,0 -76.1687233,39.7072843,0 -76.1678414,39.7079993,0 -76.1670333,39.7086367,0 -76.16685440000001,39.7087757,0 -76.1666683,39.7089164,0 -76.1659896,39.7094056,0 -76.1656387,39.7096549,0 -76.1655354,39.7097282,0 -76.16543660000001,39.7097969,0 -76.16510239999999,39.7100293,0 -76.16474820000001,39.7102644,0 -76.1644934,39.7104241,0 -76.164232,39.7105813,0 -76.1639883,39.7107223000001,0 -76.16374380000001,39.7108619,0 -76.1635187,39.7109879,0 -76.1633051,39.7111124,0 -76.1631529,39.7112028,0 -76.1630179,39.7112872,0 -76.1628889,39.7113755,0 -76.1627514,39.7114726,0 -76.16261179999999,39.7115757,0 -76.16248109999999,39.7116773,0 -76.1623597,39.7117779,0 -76.1620006,39.7120947,0 -76.1619456,39.7121433,0 -76.1615164,39.7125297,0 -76.16139200000001,39.7126417,0 -76.16106550000001,39.7129459,0 -76.16104,39.7129696,0 -76.1606318,39.71335,0 -76.15976259999999,39.7141884,0 -76.1594183,39.7145255,0 -76.15917090000001,39.714768,0 -76.1589226,39.7150119,0 -76.1588191,39.7151216,0 -76.1587588,39.7151893,0 -76.1586944,39.7152648,0 -76.1586223,39.7153544,0 -76.15852649999999,39.715484,0 -76.1583705,39.7156949,0 -76.1581884,39.7159412,0 -76.15785270000001,39.7164031,0 -76.15766960000001,39.7166551,0 -76.1575584,39.7168081,0 -76.15660370000001,39.7181223,0 -76.15656509999999,39.7181764,0 -76.1563215,39.7185176,0 -76.15555980000001,39.7195633,0 -76.1547547,39.720678,0 -76.1546859,39.7207777,0 -76.1546196,39.7208815,0 -76.1545642,39.7209762,0 -76.1545259,39.721049,0 -76.1544778,39.7211464,0 -76.15443879999999,39.7212326000001,0 -76.1544043,39.7213137,0 -76.154353,39.721455,0 -76.154329,39.7215349,0 -76.1543078,39.7216223,0 -76.15429399999999,39.7216895,0 -76.154268,39.721833,0 -76.1541735,39.7223753,0 -76.1541263,39.7226799,0 -76.1540904,39.7229419,0 -76.1540763,39.7230747,0 -76.15406539999999,39.7232124,0 -76.15405629999999,39.7233836999999,0 -76.15401199999999,39.725505,0 -76.154014,39.7256271,0 -76.15401970000001,39.7257437,0 -76.15403259999999,39.7258653,0 -76.1540555,39.7260177,0 -76.1541173,39.7263796,0 -76.1541314,39.7264716,0 -76.15414749999999,39.7265724,0 -76.1541617,39.7266864,0 -76.15416930000001,39.7267871,0 -76.1541723,39.7268843,0 -76.15417309999999,39.7270039,0 -76.15416930000001,39.7271523,0 -76.15415299999999,39.727695,0 -76.1541343,39.7281044,0 -76.15412449999999,39.7282546,0 -76.1541107,39.7283672,0 -76.15409200000001,39.7284682,0 -76.1540663,39.7285815,0 -76.1540352,39.7286935,0 -76.1540048,39.7287836,0 -76.1539652,39.72889,0 -76.1539089,39.7290297,0 -76.1536476,39.729633,0 -76.153497,39.7299888,0 -76.1531432,39.7308238,0 -76.1530868,39.7309638,0 -76.1530573,39.7310458,0 -76.1530291,39.7311352999999,0 -76.15300999999999,39.7312151,0 -76.1529999,39.7312861,0 -76.1529944,39.7313599,0 -76.153002,39.7314611,0 -76.1530444,39.7315530000001,0 -76.1531028,39.731666,0 -76.1533325,39.7320371,0 -76.1534163,39.7321749,0 -76.153505,39.73231,0 -76.1536323,39.7325117,0 -76.1544682,39.733823,0 -76.154602,39.734034,0 -76.155056,39.734721,0 -76.155069,39.7347460000001,0 -76.1552781,39.7350502,0 -76.155592,39.735507,0 -76.155647,39.735599,0 -76.15566099999999,39.735614,0 -76.155886,39.735999,0 -76.15611800000001,39.736433,0 -76.15627499999999,39.736707,0 -76.156419,39.736955,0 -76.156672,39.737367,0 -76.156947,39.737797,0 -76.1573437,39.7384339,0 -76.1574492,39.7386013,0 -76.157752,39.739085,0 -76.157927,39.739351,0 -76.158174,39.739742,0 -76.15860000000001,39.740396,0 -76.15869000000001,39.740537,0 -76.159279,39.741456,0 -76.159369,39.741589,0 -76.159407,39.7416476,0 -76.161034,39.744156,0 -76.1613371,39.7446144,0 -76.161508,39.744873,0 -76.162391,39.746191,0 -76.162673,39.746631,0 -76.16273459999999,39.7467337,0 -76.16294000000001,39.747076,0 -76.1630578,39.747309,0 -76.163168,39.747527,0 -76.16326100000001,39.747801,0 -76.1633681,39.748154,0 -76.163515,39.748638,0 -76.163566,39.748758,0 -76.163675,39.748958,0 -76.163751,39.7490599999999,0 -76.163893,39.749229,0 -76.16397600000001,39.749316,0 -76.164063,39.749407,0 -76.165628,39.750878,0 -76.1658716,39.7511065,0 -76.166416,39.751612,0 -76.1664365,39.7516319,0 -76.166792,39.751978,0 -76.167129,39.752322,0 -76.1677072,39.7529056000001,0 -76.1686275,39.7538404,0 -76.16877890000001,39.7539862,0 -76.1689895,39.7541833,0 -76.1691687,39.754346,0 -76.1700882,39.7551695,0 -76.17049,39.755551,0 -76.1709474,39.7559767,0 -76.17103280000001,39.7560562,0 -76.17142699999999,39.756423,0 -76.171493,39.756484,0 -76.1722503,39.7572215,0 -76.172523,39.757486,0 -76.17343700000001,39.758382,0 -76.1743365,39.7592653,0 -76.1745932,39.7595161,0 -76.1750883,39.7599942,0 -76.17568199999999,39.7605697,0 -76.1760113,39.7608977,0 -76.17637430000001,39.7612384,0 -76.17701340000001,39.7618608,0 -76.1777357,39.7625674,0 -76.1778723,39.7627025,0 -76.17799100000001,39.7628297,0 -76.17808599999999,39.7629499000001,0 -76.178202,39.763116,0 -76.1782824,39.7632489,0 -76.1783648,39.7634222,0 -76.1787159,39.764263,0 -76.178935,39.764794,0 -76.1790469,39.7650379,0 -76.1791192,39.7651809,0 -76.17919879999999,39.7653241,0 -76.17931729999999,39.7655097,0 -76.17957800000001,39.765894,0 -76.1800731,39.7665987,0 -76.1801648,39.7667531,0 -76.18022240000001,39.7668718,0 -76.1802541,39.7669629,0 -76.1802689,39.7670398,0 -76.1802763,39.7671,0 -76.1802797,39.7671731,0 -76.1802627,39.7672746,0 -76.180223,39.767391,0 -76.179936,39.7679631,0 -76.17975389999999,39.7683109,0 -76.179642,39.768554,0 -76.179616,39.7686178000001,0 -76.179472,39.768971,0 -76.17939629999999,39.7691982,0 -76.17933859999999,39.7694146,0 -76.17929580000001,39.7696067,0 -76.1792662,39.7697656,0 -76.179248,39.769906,0 -76.1792164,39.7701904,0 -76.1791705,39.7705558,0 -76.179149,39.7707612,0 -76.1791467,39.7709904,0 -76.1791566,39.7711948,0 -76.17917250000001,39.7715196000001,0 -76.17920479999999,39.7721692,0 -76.17920169999999,39.772427,0 -76.17915600000001,39.773893,0 -76.17914,39.7744505,0 -76.17912200000001,39.7750779,0 -76.17910120000001,39.7755267,0 -76.179074,39.7757231,0 -76.179042,39.775882,0 -76.17898700000001,39.7760621,0 -76.178769,39.776628,0 -76.178675,39.776858,0 -76.178624,39.777024,0 -76.178589,39.777183,0 -76.17857600000001,39.777292,0 -76.178569,39.777413,0 -76.178578,39.777638,0 -76.1785988,39.7778813,0 -76.17865930000001,39.7785983999999,0 -76.17873969999999,39.7795828,0 -76.17877230000001,39.7800467,0 -76.1787819,39.7801463,0 -76.178802,39.7802705000001,0 -76.1787849,39.7803752999999,0 -76.1787508,39.7804911,0 -76.178731,39.7805509,0 -76.1786924,39.7806493,0 -76.1786582,39.7807163,0 -76.1785545,39.7808885,0 -76.17848429999999,39.7809935000001,0 -76.1782352,39.7812539,0 -76.1777117,39.7817644,0 -76.1774673,39.7820182,0 -76.17701099999999,39.782508,0 -76.1767612,39.7827715,0 -76.1763447,39.7832115,0 -76.1759599,39.7836271,0 -76.175861,39.783734,0 -76.1753066,39.7843297000001,0 -76.174701,39.784981,0 -76.17455099999999,39.78513,0 -76.17439659999999,39.7852796,0 -76.1742424,39.7854068,0 -76.1740757,39.7855164,0 -76.173936,39.785597,0 -76.17378530000001,39.7856716,0 -76.17366389999999,39.7857334,0 -76.1734615,39.7858141,0 -76.1732769,39.7858714,0 -76.17309880000001,39.7859139,0 -76.172899,39.785953,0 -76.17259199999999,39.786005,0 -76.171594,39.786157,0 -76.16815099999999,39.786681,0 -76.167962,39.786711,0 -76.167399,39.786801,0 -76.167084,39.786856,0 -76.166866,39.786908,0 -76.166629,39.786982,0 -76.166561,39.787012,0 -76.166399,39.787085,0 -76.166269,39.787162,0 -76.166124,39.78727,0 -76.165987,39.787388,0 -76.165914,39.787464,0 -76.165829,39.787568,0 -76.165711,39.787748,0 -76.16565199999999,39.787858,0 -76.1656282,39.7879176,0 -76.165595,39.788001,0 -76.16557,39.788096,0 -76.165564,39.78812,0 -76.165539,39.788248,0 -76.16553500000001,39.788307,0 -76.165537,39.788522,0 -76.165646,39.790094,0 -76.16569,39.790818,0 -76.16582200000001,39.792772,0 -76.16585499999999,39.793329,0 -76.165882,39.793625,0 -76.165887,39.793678,0 -76.165916,39.7942530000001,0 -76.165933,39.7944340000001,0 -76.165932,39.79446,0 -76.1659464,39.794638,0 -76.165982,39.795079,0 -76.165994,39.79531,0 -76.16598999999999,39.795524,0 -76.165976,39.795667,0 -76.165936,39.795835,0 -76.165864,39.796014,0 -76.16581600000001,39.796106,0 -76.16577100000001,39.79618,0 -76.165621,39.796373,0 -76.16549000000001,39.796498,0 -76.165432,39.796548,0 -76.165226,39.796692,0 -76.165085,39.796775,0 -76.16488,39.796868,0 -76.16448099999999,39.79702,0 -76.16378899999999,39.797265,0 -76.16266899999999,39.79767,0 -76.162159,39.797862,0 -76.160436,39.798486,0 -76.15995700000001,39.798696,0 -76.15970900000001,39.798821,0 -76.15945600000001,39.79896,0 -76.159386,39.799007,0 -76.159239,39.799106,0 -76.158193,39.799862,0 -76.15792500000001,39.80006,0 -76.15782299999999,39.800143,0 -76.157721,39.800246,0 -76.157652,39.800333,0 -76.157504,39.800573,0 -76.157492,39.800604,0 -76.15748499999999,39.800622,0 -76.15749599999999,39.80089,0 -76.157505,39.800975,0 -76.157524,39.801064,0 -76.15768799999999,39.801518,0 -76.15780599999999,39.801793,0 -76.1579753,39.802243,0 -76.15803699999999,39.802407,0 -76.158327,39.803126,0 -76.15886399999999,39.804515,0 -76.15892599999999,39.804718,0 -76.158953,39.804821,0 -76.158962,39.804877,0 -76.15896619999999,39.8050242,0 -76.158968,39.805085,0 -76.15894900000001,39.805298,0 -76.158928,39.80541,0 -76.158889,39.805568,0 -76.158795,39.805795,0 -76.1586685,39.8060268,0 -76.158646,39.806068,0 -76.158432,39.806443,0 -76.15754699999999,39.807991,0 -76.157286,39.80851,0 -76.15724280000001,39.8085973,0 -76.156847,39.809396,0 -76.15661799999999,39.809858,0 -76.1563173,39.8104668,0 -76.156294,39.810514,0 -76.155967,39.811174,0 -76.15593699999999,39.811242,0 -76.155884,39.81136,0 -76.155778,39.811635,0 -76.15566699999999,39.811988,0 -76.15559399999999,39.81235,0 -76.155586,39.812374,0 -76.155569,39.812494,0 -76.155547,39.812712,0 -76.155495,39.8135439999999,0 -76.155479,39.813936,0 -76.155438,39.814442,0 -76.1554251,39.8145176,0 -76.155372,39.814829,0 -76.1553418,39.8149494,0 -76.155294,39.81514,0 -76.155187,39.815444,0 -76.155142,39.815554,0 -76.15504799999999,39.815758,0 -76.15494700000001,39.815952,0 -76.154905,39.816048,0 -76.15486900000001,39.816098,0 -76.15468799999999,39.816392,0 -76.154618,39.816493,0 -76.15448670000001,39.8166582,0 -76.154409,39.816756,0 -76.154207,39.816994,0 -76.15410199999999,39.817099,0 -76.154003,39.81721,0 -76.153842,39.81738,0 -76.153667,39.817553,0 -76.153346,39.817897,0 -76.15328700000001,39.817975,0 -76.153155,39.818123,0 -76.153038,39.81828,0 -76.15272,39.818754,0 -76.15253,39.819113,0 -76.15236899999999,39.819462,0 -76.152297,39.819646,0 -76.15228089999999,39.8196943,0 -76.15219399999999,39.819954,0 -76.152109,39.820245,0 -76.152073,39.820396,0 -76.151922,39.820907,0 -76.1518971,39.8209732,0 -76.151843,39.821117,0 -76.151824,39.8211596,0 -76.15167700000001,39.821489,0 -76.15157600000001,39.8217014,0 -76.15153100000001,39.821796,0 -76.151465,39.821943,0 -76.151426,39.822029,0 -76.15133400000001,39.82222,0 -76.151123,39.822664,0 -76.15103999999999,39.82286,0 -76.150797,39.82335,0 -76.15069099999999,39.8235930000001,0 -76.15050100000001,39.823947,0 -76.15039299999999,39.824159,0 -76.15028599999999,39.82433,0 -76.15013,39.824598,0 -76.14986,39.825035,0 -76.149745,39.825212,0 -76.1495,39.825626,0 -76.149456,39.8257169999999,0 -76.14939099999999,39.825881,0 -76.14934100000001,39.826051,0 -76.14932,39.826171,0 -76.14931300000001,39.826341,0 -76.14953800000001,39.829162,0 -76.14955399999999,39.829275,0 -76.149569,39.82951,0 -76.14958900000001,39.829731,0 -76.149608,39.82982,0 -76.149609,39.829946,0 -76.14960000000001,39.830033,0 -76.149598,39.830131,0 -76.149568,39.830323,0 -76.14935699999999,39.831114,0 -76.149314,39.831305,0 -76.149278,39.831439,0 -76.149242,39.831638,0 -76.149238,39.831787,0 -76.149249,39.831949,0 -76.149294,39.83227,0 -76.149484,39.833129,0 -76.149501,39.833182,0 -76.149541,39.833276,0 -76.14966099999999,39.833501,0 -76.149957,39.833909,0 -76.150205,39.834277,0 -76.150459,39.834682,0 -76.150789,39.835178,0 -76.1510504,39.8355456,0 -76.1512,39.835756,0 -76.151644,39.83641,0 -76.151888,39.83679,0 -76.152097,39.837139,0 -76.152591,39.837912,0 -76.1533651,39.839069,0 -76.153527,39.839311,0 -76.153848,39.839768,0 -76.1539496,39.8399233,0 -76.15401629999999,39.8400252,0 -76.15424,39.840367,0 -76.15442729999999,39.8406238000001,0 -76.1545933,39.8408522,0 -76.154768,39.841091,0 -76.155141,39.841574,0 -76.155334,39.8418360000001,0 -76.1554278,39.8419768,0 -76.155727,39.842426,0 -76.155933,39.842755,0 -76.15602199999999,39.84291,0 -76.15619,39.843183,0 -76.156265,39.843317,0 -76.156643,39.8439220000001,0 -76.15675899999999,39.84414,0 -76.15683300000001,39.844302,0 -76.15721499999999,39.845197,0 -76.15728900000001,39.845353,0 -76.1573401,39.8454745,0 -76.15738399999999,39.845579,0 -76.15750199999999,39.845841,0 -76.157635,39.846108,0 -76.15774,39.846339,0 -76.1580136,39.8469025,0 -76.15804300000001,39.846963,0 -76.1580759,39.847044,0 -76.1581671,39.8472389,0 -76.1582475,39.8474159,0 -76.158266,39.847459,0 -76.158351,39.84762,0 -76.1585015,39.8479541,0 -76.15854469999999,39.8480662,0 -76.1585786,39.8481895,0 -76.1586181,39.8483207,0 -76.1586258,39.848414,0 -76.1586389,39.8486949,0 -76.1586255,39.8488686,0 -76.1585795,39.8490744,0 -76.158511,39.8493179999999,0 -76.1584153,39.8496405,0 -76.1583291,39.8499318,0 -76.1581,39.850754,0 -76.158022,39.85101,0 -76.158007,39.851059,0 -76.1578568,39.8515958,0 -76.157759,39.851945,0 -76.15762100000001,39.852517,0 -76.157202,39.854396,0 -76.157118,39.854639,0 -76.15706299999999,39.854734,0 -76.15695599999999,39.854902,0 -76.156897,39.854978,0 -76.156741,39.855104,0 -76.15654499999999,39.855235,0 -76.15593800000001,39.855611,0 -76.155771,39.855727,0 -76.15570030000001,39.8557795,0 -76.1556444,39.8558209000001,0 -76.155496,39.855931,0 -76.155235,39.856133,0 -76.155053,39.856291,0 -76.15492500000001,39.856417,0 -76.154647,39.856713,0 -76.15449,39.856902,0 -76.15436099999999,39.857076,0 -76.15421000000001,39.857295,0 -76.15405800000001,39.857547,0 -76.15381600000001,39.858006,0 -76.15343,39.858804,0 -76.153175,39.859345,0 -76.15287499999999,39.859957,0 -76.15249230000001,39.8607205,0 -76.152261,39.861205,0 -76.1517516,39.8622857,0 -76.1516807,39.8624476,0 -76.15163339999999,39.8625812000001,0 -76.1515926,39.8627115,0 -76.15156159999999,39.8628644,0 -76.1515388,39.8630179,0 -76.1515296,39.863169,0 -76.15152639999999,39.8633154,0 -76.15154459999999,39.8642321,0 -76.15155,39.8644364,0 -76.1515607,39.8646406,0 -76.151571,39.8647932,0 -76.1515964,39.8650461,0 -76.1516946,39.8659481,0 -76.1517594,39.8665249,0 -76.15181149999999,39.8669451,0 -76.1518641,39.8673839,0 -76.15188860000001,39.8675174,0 -76.1519155,39.8676063,0 -76.1519469,39.867691,0 -76.151995,39.8677991,0 -76.1520483,39.8679,0 -76.152135,39.8680388,0 -76.152485,39.868565,0 -76.15271199999999,39.868915,0 -76.15337,39.8699466,0 -76.153767,39.870569,0 -76.15389,39.8707607,0 -76.1539672,39.8708787,0 -76.1540418,39.8710033,0 -76.154093,39.8711,0 -76.1541239,39.8711767,0 -76.15414269999999,39.8712598,0 -76.1541495,39.8713366,0 -76.15414699999999,39.8714213,0 -76.1541381,39.871501,0 -76.15412000000001,39.871604,0 -76.15382099999999,39.8728,0 -76.15375659999999,39.8730353,0 -76.15359530000001,39.8735703999999,0 -76.1535745,39.8736631,0 -76.1535657,39.8737253,0 -76.15356199999999,39.8737796,0 -76.153561,39.8738554,0 -76.1535732,39.8739342,0 -76.1535947,39.8740049,0 -76.153634,39.874094,0 -76.15404770000001,39.8747478,0 -76.154359,39.875238,0 -76.154679,39.875717,0 -76.155158,39.876385,0 -76.155342,39.876641,0 -76.155607,39.876998,0 -76.155722,39.877153,0 -76.1558531,39.8773391,0 -76.15607540000001,39.8776548,0 -76.1567446,39.8785782,0 -76.1574639,39.8795938,0 -76.1580898,39.8804855,0 -76.158357,39.880876,0 -76.1587688,39.8814842,0 -76.1589883,39.8818145,0 -76.15909120000001,39.8819511,0 -76.159215,39.8821088999999,0 -76.15932359999999,39.8822384,0 -76.1594606,39.8823884,0 -76.1599741,39.8829572,0 -76.16034430000001,39.8833622,0 -76.1605911,39.8836507,0 -76.16071839999999,39.8838107,0 -76.1608001,39.8839275,0 -76.1608839,39.8840608,0 -76.16097069999999,39.8842056,0 -76.1610864,39.8844307,0 -76.1613297,39.8849326,0 -76.16166699999999,39.8856309999999,0 -76.16186860000001,39.8860587,0 -76.16210150000001,39.8865808,0 -76.1621576,39.8867332,0 -76.1621986,39.8868657,0 -76.16222860000001,39.8869968,0 -76.1623364,39.8875683,0 -76.1624238,39.8880677,0 -76.1625129,39.8885211,0 -76.16252179999999,39.8885657,0 -76.1625404,39.8886588,0 -76.162679,39.889329,0 -76.162739,39.889642,0 -76.162786,39.889928,0 -76.162835,39.890293,0 -76.1628948,39.8908345,0 -76.1629578,39.8913763,0 -76.163049,39.8921679,0 -76.163089,39.892528,0 -76.16313270000001,39.8929442,0 -76.163194,39.8935276,0 -76.16323800000001,39.893946,0 -76.1632487,39.8940482,0 -76.1632809,39.894356,0 -76.16331599999999,39.894692,0 -76.163393,39.895528,0 -76.16346040000001,39.8962532000001,0 -76.16351400000001,39.896774,0 -76.16354320000001,39.8971027,0 -76.1635562,39.897185,0 -76.1646247,39.8968528,0 -76.165166,39.896689,0 -76.16689700000001,39.896145,0 -76.1682495,39.8957231,0 -76.16981989999999,39.8952286,0 -76.17129199999999,39.894758,0 -76.17153999999999,39.894665,0 -76.171908,39.89478,0 -76.17212379999999,39.8948556,0 -76.17239600000001,39.894951,0 -76.1728622,39.8951219,0 -76.17294510000001,39.8951523,0 -76.1729876,39.8951679,0 -76.1733474,39.8952999,0 -76.1734502,39.8953371,0 -76.173748,39.895445,0 -76.1739328,39.8955169,0 -76.17405979999999,39.8955639,0 -76.1742368,39.8956292,0 -76.174436,39.8957037,0 -76.17466589999999,39.8957828,0 -76.1749653,39.8958896,0 -76.17529450000001,39.8960042,0 -76.1755787,39.8961035,0 -76.1758734,39.8962065,0 -76.1769669,39.8965933,0 -76.1773544,39.8967304,0 -76.17750789999999,39.8967874,0 -76.17767000000001,39.8968589,0 -76.1777914,39.8969193,0 -76.17790599999999,39.896986,0 -76.178102,39.897129,0 -76.178428,39.897389,0 -76.17894,39.8978160000001,0 -76.179372,39.898185,0 -76.17945899999999,39.898276,0 -76.17975800000001,39.898635,0 -76.18003779999999,39.8990219,0 -76.18026690000001,39.8993587000001,0 -76.18068959999999,39.8999757,0 -76.180899,39.900283,0 -76.18110470000001,39.9005855,0 -76.18119299999999,39.900738,0 -76.181287,39.900909,0 -76.181478,39.901282,0 -76.1816611,39.9016756,0 -76.1817611,39.9018907,0 -76.1822835,39.9030431,0 -76.182706,39.903966,0 -76.1830452,39.9047051,0 -76.18331499999999,39.905288,0 -76.18368700000001,39.906018,0 -76.18392299999999,39.906444,0 -76.1840406,39.9066471,0 -76.18410350000001,39.9067592,0 -76.1842549,39.907023,0 -76.1843647,39.9072096,0 -76.18443499999999,39.907329,0 -76.1844811,39.9074075,0 -76.1849345,39.9081795,0 -76.185017,39.90832,0 -76.1853373,39.9088706,0 -76.18564069999999,39.9093964,0 -76.185874,39.909793,0 -76.185909,39.909846,0 -76.186442,39.910756,0 -76.18665679999999,39.9111366,0 -76.186848,39.911468,0 -76.186982,39.911715,0 -76.18710400000001,39.911982,0 -76.18722200000001,39.91226,0 -76.187377,39.912669,0 -76.18740699999999,39.912766,0 -76.18748119999999,39.9130323,0 -76.187544,39.913292,0 -76.187583,39.913474,0 -76.18765,39.913968,0 -76.187704,39.914547,0 -76.187826,39.9157011,0 -76.18789200000001,39.916153,0 -76.187955,39.916507,0 -76.1880522,39.9170007,0 -76.1881114,39.9172483,0 -76.1882222,39.9176694,0 -76.1882951,39.9179065,0 -76.18836949999999,39.9181294,0 -76.1885235,39.9185622,0 -76.1886868,39.9189585,0 -76.188796,39.9192114,0 -76.188908,39.919449,0 -76.1890363,39.9196944,0 -76.1891103,39.9198314,0 -76.18930400000001,39.920187,0 -76.189528,39.920553,0 -76.189758,39.920907,0 -76.1897821,39.9209404,0 -76.189807,39.920975,0 -76.190021,39.921273,0 -76.190353,39.921701,0 -76.19068300000001,39.922084,0 -76.190955,39.9223840000001,0 -76.19131400000001,39.92275,0 -76.191558,39.922984,0 -76.192127,39.923492,0 -76.192505,39.923807,0 -76.192775,39.924015,0 -76.193108,39.924256,0 -76.193467,39.924502,0 -76.193786,39.92471,0 -76.19380390000001,39.9247211,0 -76.194205,39.924971,0 -76.194704,39.925282,0 -76.19518119999999,39.9255742,0 -76.195604,39.925833,0 -76.1956465,39.9258598,0 -76.19586099999999,39.925995,0 -76.196033,39.926103,0 -76.196353,39.926317,0 -76.1967434,39.9265979,0 -76.19679499999999,39.926635,0 -76.197142,39.926911,0 -76.1972545,39.9270101,0 -76.19728670000001,39.9270385,0 -76.197495,39.927222,0 -76.197711,39.9274339999999,0 -76.19779800000001,39.927528,0 -76.198024,39.927768,0 -76.198458,39.928304,0 -76.19858600000001,39.928479,0 -76.199,39.9290900000001,0 -76.19936970000001,39.9296546,0 -76.19962,39.930037,0 -76.199889,39.930437,0 -76.200309,39.931083,0 -76.200906,39.9319954000001,0 -76.2011206,39.9322793,0 -76.201616,39.933059,0 -76.201774,39.933293,0 -76.201975,39.933594,0 -76.201988,39.933619,0 -76.202209,39.933945,0 -76.203154,39.935382,0 -76.20344,39.935805,0 -76.2037005,39.9362033,0 -76.2037191,39.9362317,0 -76.20375,39.936279,0 -76.203812,39.936368,0 -76.203844,39.936413,0 -76.204116,39.936825,0 -76.20437099999999,39.937202,0 -76.204432,39.937299,0 -76.205219,39.9385049999999,0 -76.205275,39.938576,0 -76.20573,39.93927,0 -76.205923,39.939554,0 -76.206012,39.939697,0 -76.2060752,39.939789,0 -76.206126,39.939863,0 -76.206481,39.940404,0 -76.206878,39.940993,0 -76.207345,39.94165,0 -76.20740000000001,39.941718,0 -76.20749000000001,39.941843,0 -76.207549,39.9419159999999,0 -76.20764,39.942017,0 -76.20774400000001,39.94212,0 -76.207891,39.942242,0 -76.20811999999999,39.942388,0 -76.2081929,39.9424249,0 -76.208709,39.942686,0 -76.210458,39.943555,0 -76.210702,39.943664,0 -76.21087900000001,39.943732,0 -76.21192600000001,39.944109,0 -76.21204299999999,39.944156,0 -76.21253350000001,39.9443408,0 -76.213917,39.944862,0 -76.214173,39.944935,0 -76.21430700000001,39.944962,0 -76.214428,39.944979,0 -76.214574,39.944989,0 -76.214749,39.9449850000001,0 -76.215064,39.944954,0 -76.21577430000001,39.9448371,0 -76.217251,39.944594,0 -76.217563,39.944546,0 -76.217759,39.944525,0 -76.217977,39.94451,0 -76.218163,39.944509,0 -76.218352,39.944519,0 -76.21854,39.944541,0 -76.218757,39.944587,0 -76.219076,39.94467,0 -76.21996900000001,39.944934,0 -76.2217704,39.945467,0 -76.22429200000001,39.946213,0 -76.22638999999999,39.946821,0 -76.22662,39.946887,0 -76.227255,39.94706,0 -76.228266,39.947324,0 -76.22885100000001,39.947487,0 -76.22930839999999,39.9476235,0 -76.23002,39.947836,0 -76.23016200000001,39.947879,0 -76.230243,39.947904,0 -76.23136169999999,39.9482466,0 -76.232904,39.948719,0 -76.2332854,39.9488358,0 -76.2336859,39.9489584,0 -76.23377600000001,39.948986,0 -76.23484980000001,39.9493209,0 -76.235094,39.949397,0 -76.23517339999999,39.9494245,0 -76.235394,39.949501,0 -76.23576199999999,39.949641,0 -76.23618999999999,39.949822,0 -76.236518,39.949978,0 -76.23680400000001,39.950126,0 -76.23716,39.9503230000001,0 -76.237431,39.950486,0 -76.237782,39.950717,0 -76.238134,39.950967,0 -76.23836900000001,39.951145,0 -76.238512,39.951263,0 -76.238799,39.951514,0 -76.23888479999999,39.9516,0 -76.2395138,39.9522305,0 -76.239672,39.952389,0 -76.23993,39.952659,0 -76.240157,39.9528680000001,0 -76.24030999999999,39.953031,0 -76.240606,39.953343,0 -76.240983,39.953722,0 -76.24242,39.955195,0 -76.242682,39.955479,0 -76.24305,39.955911,0 -76.24394100000001,39.957093,0 -76.244221,39.957501,0 -76.244437,39.957889,0 -76.244649,39.958326,0 -76.244821,39.958736,0 -76.2449124,39.9589869,0 -76.24498269999999,39.9592231,0 -76.245002,39.959307,0 -76.24507,39.959607,0 -76.245127,39.95994,0 -76.245164,39.960168,0 -76.245204,39.960651,0 -76.24521,39.961023,0 -76.245176,39.961422,0 -76.2451607,39.9615471,0 -76.245119,39.961888,0 -76.24506220000001,39.9622335,0 -76.245008,39.962563,0 -76.2449221,39.9630289,0 -76.24485199999999,39.9634089,0 -76.24478499999999,39.963772,0 -76.2447454,39.9640456,0 -76.24468400000001,39.96447,0 -76.244669,39.964988,0 -76.244697,39.965311,0 -76.244725,39.965507,0 -76.244786,39.965815,0 -76.244865,39.966105,0 -76.2450458,39.9666292,0 -76.2451504,39.9669324,0 -76.245243,39.967201,0 -76.24526400000001,39.9672599999999,0 -76.245284,39.96732,0 -76.24537100000001,39.967582,0 -76.2455404,39.9680697,0 -76.24575400000001,39.968685,0 -76.2461538,39.9698863,0 -76.246165,39.96992,0 -76.246241,39.970183,0 -76.2462565,39.970244,0 -76.24632699999999,39.970521,0 -76.246398,39.9708367,0 -76.246681,39.972096,0 -76.247013,39.973538,0 -76.24725599999999,39.974642,0 -76.247367,39.975099,0 -76.247497,39.975705,0 -76.247614,39.976205,0 -76.247697,39.976508,0 -76.247783,39.976797,0 -76.247907,39.977183,0 -76.24800399999999,39.977457,0 -76.248132,39.977796,0 -76.24835299999999,39.978315,0 -76.248468,39.9785669999999,0 -76.248684,39.979002,0 -76.24870799999999,39.979042,0 -76.249118,39.979867,0 -76.249309,39.980272,0 -76.249363,39.980412,0 -76.249472,39.980804,0 -76.24950250000001,39.9809398,0 -76.249537,39.981093,0 -76.249546,39.981152,0 -76.24961500000001,39.981441,0 -76.249695,39.981693,0 -76.2497546,39.9818203,0 -76.249889,39.982107,0 -76.249972,39.982237,0 -76.250193,39.982554,0 -76.25045900000001,39.9829174,0 -76.251738,39.984672,0 -76.251946,39.98497,0 -76.252292,39.985452,0 -76.252486,39.985714,0 -76.2528365,39.986192,0 -76.25287400000001,39.986257,0 -76.253325,39.986869,0 -76.253743,39.987457,0 -76.253951,39.987742,0 -76.254177,39.988042,0 -76.25425300000001,39.988131,0 -76.254532,39.988423,0 -76.254823,39.988694,0 -76.255008,39.98885,0 -76.25514200000001,39.988954,0 -76.25539499999999,39.989137,0 -76.255652,39.989306,0 -76.256286,39.989682,0 -76.256603,39.98986,0 -76.256924,39.990044,0 -76.25731500000001,39.990284,0 -76.25750909999999,39.9903978,0 -76.257755,39.990542,0 -76.257879,39.990606,0 -76.2579942,39.9906555,0 -76.258342,39.990805,0 -76.258707,39.990927,0 -76.2588485,39.9909646,0 -76.25888399999999,39.990974,0 -76.259151,39.991029,0 -76.259471,39.991081,0 -76.25973500000001,39.991109,0 -76.259998,39.991126,0 -76.260248,39.99113,0 -76.26038699999999,39.991128,0 -76.2604525,39.9911247,0 -76.260588,39.991118,0 -76.26090600000001,39.99109,0 -76.26117499999999,39.991045,0 -76.2611921,39.9910415,0 -76.26162600000001,39.990952,0 -76.262283,39.990794,0 -76.263216,39.990588,0 -76.26326280000001,39.9905771,0 -76.26436699999999,39.990319,0 -76.2649255,39.9901922,0 -76.265164,39.990138,0 -76.26563,39.990037,0 -76.266203,39.9899070000001,0 -76.26690290000001,39.9897455,0 -76.267854,39.9895259999999,0 -76.2685573,39.98937,0 -76.26867900000001,39.989343,0 -76.26903419999999,39.9892596,0 -76.2699945,39.9890342,0 -76.270089,39.989012,0 -76.2701552,39.9889974,0 -76.2705045,39.9889202,0 -76.270709,39.988875,0 -76.2710865,39.9887881,0 -76.271226,39.988756,0 -76.27183650000001,39.9886198,0 -76.27278920000001,39.9884072,0 -76.2732086,39.9883137,0 -76.27328060000001,39.9882976,0 -76.27337350000001,39.9882768,0 -76.2734875,39.9882514,0 -76.27362460000001,39.9882208,0 -76.27398719999999,39.9881399,0 -76.275338,39.9878384999999,0 -76.2758611,39.9877218,0 -76.27621259999999,39.9876434,0 -76.27656399999999,39.9875649,0 -76.27835709999999,39.9871548,0 -76.2790866,39.9869898,0 -76.27929570000001,39.9869401,0 -76.27968199999999,39.9868468,0 -76.2799456,39.9867630000001,0 -76.2801391,39.9867141,0 -76.28056789999999,39.9865906,0 -76.2811507,39.9864406,0 
				
					-76.2811507,39.9864406,0 -76.2813252,39.986399,0 -76.282121,39.9862095,0 -76.2821836,39.9861942,0 -76.2824229,39.9861354,0 -76.28343289999999,39.9858775,0 -76.2836381,39.9858153,0 -76.2836756,39.9859313,0 -76.28370719999999,39.9860321,0 -76.2837825,39.986268,0 -76.2840094,39.9869788,0 -76.28429939999999,39.9878557,0 -76.2843761,39.9880878,0 -76.2846406,39.9888879,0 -76.2849908,39.9899807,0 -76.2851505,39.990479,0 -76.2852786,39.9908722,0 -76.2854445,39.9913314,0 -76.285588,39.9916836,0 -76.28570430000001,39.9919027,0 -76.2858737,39.9921784,0 -76.2859619,39.9922965,0 -76.28602359999999,39.9923995,0 -76.2864946,39.9930772,0 -76.2866709,39.9933378,0 -76.2867107,39.9933967,0 -76.286925,39.993688,0 -76.287042,39.9939167,0 -76.28740999999999,39.994349,0 -76.287459,39.994407,0 -76.2878247,39.9948211,0 -76.288253,39.995306,0 -76.288765,39.995929,0 -76.288973,39.996192,0 -76.289278,39.996613,0 -76.289562,39.997043,0 -76.289665,39.997206,0 -76.28984800000001,39.997504,0 -76.2899,39.997589,0 -76.2902587,39.9982383,0 -76.290432,39.998552,0 -76.29068359999999,39.9990326,0 -76.29073099999999,39.999123,0 -76.29087800000001,39.999392,0 -76.291102,39.999798,0 -76.29138639999999,40.0002351,0 -76.292024,40.001213,0 -76.29214899999999,40.001391,0 -76.29227,40.001569,0 -76.2926703,40.0021408,0 -76.2928498,40.0023972,0 -76.2931164,40.0027556,0 -76.293352,40.00305,0 -76.293464,40.003186,0 -76.293662,40.003414,0 -76.293868,40.003643,0 -76.294196,40.003998,0 -76.29450300000001,40.0043231,0 -76.29467099999999,40.004501,0 -76.29631500000001,40.006216,0 -76.29656,40.006467,0 -76.29674559999999,40.0066624,0 -76.2969093,40.0068347,0 -76.2969696,40.0068982,0 -76.2970825,40.0070171,0 -76.2974188,40.0073716,0 -76.29746950000001,40.0074246,0 -76.297506,40.007463,0 -76.2975898,40.0075505,0 -76.297827,40.007813,0 -76.2978991,40.0079033,0 -76.297918,40.007927,0 -76.297949,40.007968,0 -76.298152,40.0083060000001,0 -76.298272,40.008548,0 -76.298625,40.009416,0 -76.29874169999999,40.009707,0 -76.2989838,40.0103215999999,0 -76.29911749999999,40.0107178,0 -76.2995633,40.0117894,0 -76.300381,40.013786,0 -76.3006091,40.0143658,0 -76.3007233,40.0146562999999,0 -76.30079600000001,40.014841,0 -76.3010542,40.0154954,0 -76.301225,40.015913,0 -76.3013656,40.0162705,0 -76.3019333,40.0177137,0 
				
					-76.3019333,40.0177137,0 -76.3019468,40.0178348,0 -76.30200600000001,40.018121,0 -76.302015,40.018186,0 -76.3020649,40.0184016,0 -76.3021337,40.0188056,0 -76.3021845,40.0191120999999,0 -76.3022378,40.019254,0 -76.30230400000001,40.019607,0 -76.3023452,40.0198037,0 -76.3024882,40.0206078,0 -76.3025839,40.0211206,0 -76.3027225,40.0219111,0 -76.302845,40.0226380000001,0 -76.3028687,40.0227613,0 -76.302971,40.023295,0 -76.30302399999999,40.023622,0 -76.30304,40.023699,0 -76.303074,40.0239496,0 -76.303307,40.025212,0 -76.3033171,40.0252598,0 -76.3033622,40.0255152,0 -76.3034174,40.0257914,0 -76.303504,40.026259,0 -76.303575,40.026616,0 -76.30371580000001,40.0273974,0 -76.303832,40.027967,0 -76.3038543,40.0280994,0 -76.3041291,40.0295074,0 -76.304179,40.029763,0 -76.30450209999999,40.031541,0 -76.3045106,40.0315748,0 -76.304579,40.031967,0 -76.30459999999999,40.0321180000001,0 -76.304661,40.032463,0 -76.3048009,40.033266,0 -76.3048283,40.0334235,0 -76.3040517,40.0341301,0 -76.3039388,40.0342387,0 -76.3031931,40.034909,0 -76.3030491,40.0350397,0 -76.30280380000001,40.0352621000001,0 -76.3026545,40.0353977,0 -76.30216830000001,40.0358393,0 -76.3018113,40.0361636,0 -76.301069,40.0368379,0 -76.30104900000001,40.036877,0 -76.301041,40.036922,0 -76.3011844,40.0376399,0 -76.301286,40.03813,0 -76.3013468,40.0384447,0 -76.3014836,40.0392239,0 -76.3016349,40.0399926,0 -76.30177879999999,40.0407588,0 -76.3018004,40.0408665,0 -76.3018581,40.0411544,0 -76.30192959999999,40.0415117,0 -76.3019437,40.0415818,0 -76.30195689999999,40.0416477000001,0 -76.3020762,40.0422433,0 -76.30209600000001,40.042342,0 -76.3021449,40.0425863,0 -76.3021658,40.0426903,0 -76.3022438,40.0430801000001,0 -76.3022565,40.0431434,0 -76.30227120000001,40.0432144000001,0 -76.3024159,40.0439144,0 -76.3025804,40.0447105,0 -76.3027251,40.0454762,0 -76.30288040000001,40.0462982,0 -76.303245,40.0482281,0 -76.3033224,40.0486378,0 -76.3034329,40.0492230999999,0 -76.3034471,40.049298,0 -76.3034631,40.0493826,0 -76.3036324,40.0502789,0 -76.303645,40.0503457,0 -76.3036587,40.0504183,0 -76.303753,40.050917,0 -76.30385800000001,40.0514762,0 -76.3039699,40.0520654,0 -76.3040867,40.0526082,0 -76.3043416,40.0525823,0 -76.3046408,40.0525514,0 -76.30485760000001,40.05253,0 -76.3053603,40.0524788999999,0 -76.3063551,40.0523849,0 -76.30644839999999,40.0529547,0 -76.3064735,40.0531087,0 -76.3065184,40.0533679,0 -76.3065197,40.0533762,0 -76.30654149999999,40.0536009,0 -76.3065531,40.0537204,0 -76.3064995,40.0540425,0 -76.3064134,40.0542667,0 -76.3061132,40.0549048,0 -76.30577890000001,40.0555846,0 -76.3056654,40.0559826,0 -76.305663,40.0561355,0 -76.3056596,40.0563443,0 -76.3056765,40.0565987,0 -76.305679,40.056637,0 -76.30568700000001,40.0567005999999,0 -76.3056926,40.056745,0 -76.3057221,40.0569803000001,0 -76.305745,40.0571631,0 -76.3057793,40.0574363,0 -76.3057901,40.0575225,0 -76.30581189999999,40.0576958,0 -76.305825,40.0577999999999,0 -76.3058316,40.0578465,0 -76.3058442,40.0579347,0 -76.30586220000001,40.0580605,0 -76.3058865,40.0582374000001,0 -76.305909,40.058401,0 -76.3060296,40.0592682,0 -76.3060495,40.0594117,0 -76.30607000000001,40.059559,0 -76.3062417,40.060656,0 -76.3060948,40.0607819,0 -76.3060371,40.0611421,0 -76.3060078,40.0612662,0 -76.30597760000001,40.0614271999999,0 -76.3059516,40.0615655,0 -76.305914,40.0618071,0 -76.30585480000001,40.0621883,0 -76.3058432,40.062275,0 -76.3058419,40.062285,0 -76.30581429999999,40.0624496,0 -76.3057874,40.0626095,0 -76.3057647,40.0627448,0 -76.30575279999999,40.0628408000001,0 -76.3057304,40.0630207,0 -76.3057141,40.0631465,0 -76.3056978,40.0632722,0 -76.30567720000001,40.0634318,0 -76.3056663,40.0635157,0 -76.3056557,40.0635973,0 -76.3056521,40.0636248,0 -76.30559599999999,40.064058,0 -76.3055403,40.0642948,0 -76.30551699999999,40.0643941,0 -76.305486,40.064526,0 -76.30537,40.064914,0 -76.3053566,40.0649514,0 -76.305295,40.0651327,0 -76.305222,40.065326,0 -76.3051182,40.065565,0 -76.30511300000001,40.065577,0 -76.3049989,40.0658267,0 -76.30489249999999,40.0660231,0 -76.30483030000001,40.0661278,0 -76.3047715,40.0662268,0 -76.30466,40.066405,0 -76.3044731,40.0667561,0 -76.30428360000001,40.0669063,0 -76.30404729999999,40.0671836,0 -76.303966,40.0672789,0 -76.30387500000001,40.0673897,0 -76.3037211,40.0675863,0 -76.3035398,40.0676862,0 -76.303433,40.067763,0 -76.303178,40.067841,0 -76.303085,40.067859,0 -76.30286700000001,40.067889,0 -76.302284,40.06792,0 -76.301897,40.0679405,0 -76.30150999999999,40.0679532,0 -76.3012793,40.0679569,0 -76.3011106,40.0679537,0 -76.3009046,40.0679483,0 -76.3006293,40.0679378,0 -76.30037919999999,40.0679273,0 -76.3001482,40.0679175,0 -76.29962159999999,40.0679083,0 -76.29908570000001,40.0679298,0 -76.2985515,40.0679203,0 -76.2981159,40.0679177,0 -76.2975553,40.0679203,0 -76.29705,40.067928,0 -76.29657589999999,40.0679361000001,0 -76.2950414,40.0679177,0 -76.2946213,40.0679075,0 -76.29437919999999,40.0678984,0 -76.29415849999999,40.0678861,0 -76.2939555,40.0678712,0 -76.2937836,40.0678545,0 -76.29364,40.067834,0 -76.293403,40.067793,0 -76.293249,40.067752,0 -76.292931,40.067634,0 -76.292783,40.067564,0 -76.292669,40.067494,0 -76.292554,40.067408,0 -76.292446,40.067313,0 -76.292343,40.06721,0 -76.29145200000001,40.066226,0 -76.291337,40.066121,0 -76.291229,40.066045,0 -76.29104100000001,40.06595,0 -76.290931,40.065905,0 -76.29082,40.065873,0 -76.29062500000001,40.065835,0 -76.29050700000001,40.0658220000001,0 -76.29041599999999,40.065819,0 -76.29023100000001,40.065827,0 -76.289953,40.065866,0 -76.28980900000001,40.065898,0 -76.289621,40.06595,0 -76.28944199999999,40.066014,0 -76.289275,40.066086,0 -76.289115,40.066169,0 -76.288995,40.066242,0 -76.288828,40.066363,0 -76.28870999999999,40.066462,0 -76.28855799999999,40.066602,0 -76.288481,40.066682,0 -76.28833640000001,40.0668336,0 -76.28820640000001,40.0670068,0 -76.2881476,40.0670874,0 -76.28808979999999,40.0671759999999,0 -76.2880183,40.0672996,0 -76.2879533,40.0674188,0 -76.2879034,40.0675299,0 -76.287762,40.067815,0 -76.287711,40.06801,0 -76.287617,40.068425,0 -76.287012,40.071259,0 -76.286889,40.071894,0 -76.2868,40.072292,0 -76.286705,40.072637,0 -76.286613,40.072912,0 -76.286554,40.073072,0 -76.286394,40.073456,0 -76.286252,40.07376,0 -76.28604300000001,40.074157,0 -76.285681,40.074724,0 -76.285595,40.074871,0 -76.28550300000001,40.074999,0 -76.28527200000001,40.075291,0 -76.285,40.07561,0 -76.284795,40.075831,0 -76.284594,40.076032,0 -76.284379,40.076234,0 -76.284255,40.076343,0 -76.28374599999999,40.076772,0 -76.283332,40.0770850000001,0 -76.282893,40.077382,0 -76.2824871,40.0776406,0 -76.28246300000001,40.077656,0 -76.282371,40.077715,0 -76.28184899999999,40.07803,0 -76.280596,40.078818,0 -76.27582099999999,40.081798,0 -76.2728012,40.0836811,0 -76.270577,40.085068,0 -76.268798,40.086176,0 -76.267528,40.086973,0 -76.267127,40.08722,0 -76.266699,40.087506,0 -76.26632499999999,40.087775,0 -76.26598,40.0880500000001,0 -76.26577899999999,40.088216,0 -76.26533499999999,40.088609,0 -76.265112,40.088822,0 -76.264809,40.0891329999999,0 -76.264527,40.089441,0 -76.264376,40.089618,0 -76.26392,40.090211,0 -76.26375,40.090446,0 -76.26347699999999,40.090857,0 -76.26237399999999,40.092572,0 -76.26115299999999,40.094431,0 -76.26043199999999,40.095553,0 -76.260043,40.096139,0 -76.260003,40.096207,0 -76.25886300000001,40.097946,0 -76.25873799999999,40.098102,0 -76.25792800000001,40.09935,0 -76.25765699999999,40.099739,0 -76.25743199999999,40.100116,0 -76.25728700000001,40.100369,0 -76.25686899999999,40.10102,0 -76.256477,40.101599,0 -76.25615999999999,40.102028,0 -76.25594,40.1022940000001,0 -76.255584,40.102705,0 -76.255225,40.103063,0 -76.254915,40.103352,0 -76.254638,40.103595,0 -76.2544972,40.1037068,0 -76.254249,40.103904,0 -76.25421799999999,40.103928,0 -76.25420099999999,40.103942,0 -76.2538921,40.1041747,0 -76.253772,40.104264,0 -76.25342000000001,40.104502,0 -76.25306500000001,40.104724,0 -76.252298,40.105183,0 -76.251732,40.105522,0 -76.2510821,40.1059216,0 -76.2502825,40.1063939,0 -76.2499328,40.1066096,0 -76.2490291,40.1071414,0 -76.24772400000001,40.107913,0 -76.24770100000001,40.107928,0 -76.24722,40.10823,0 -76.246781,40.108546,0 -76.24650800000001,40.108758,0 -76.246329,40.108904,0 -76.246067,40.109133,0 -76.245734,40.109455,0 -76.24556200000001,40.109633,0 -76.245317,40.109907,0 -76.24515100000001,40.110106,0 -76.244857,40.110472,0 -76.24427900000001,40.111211,0 -76.244236,40.111265,0 -76.243731,40.111889,0 -76.243312,40.112417,0 -76.243003,40.112785,0 -76.242828,40.112971,0 -76.242594,40.113196,0 -76.242135,40.113584,0 -76.241996,40.11369,0 -76.24179700000001,40.113833,0 -76.241546,40.113997,0 -76.241191,40.11421,0 -76.24090099999999,40.114369,0 -76.240613,40.1145140000001,0 -76.24040599999999,40.114607,0 -76.24002400000001,40.114764,0 -76.239902,40.114811,0 -76.239724,40.114878,0 -76.239418,40.11498,0 -76.23911200000001,40.115071,0 -76.238781,40.115163,0 -76.238288,40.115311,0 -76.236639,40.115783,0 -76.235826,40.11602,0 -76.23540199999999,40.116139,0 -76.235282,40.11618,0 -76.234804,40.116323,0 -76.234217,40.116484,0 -76.23406730000001,40.1165311,0 -76.233724,40.116625,0 -76.23331,40.11675,0 -76.23270290000001,40.116934,0 -76.2322762,40.1170544,0 -76.2314751,40.1172868,0 -76.230643,40.117518,0 -76.2302,40.117639,0 -76.229275,40.117912,0 -76.228994,40.118,0 -76.228756,40.118084,0 -76.228233,40.118281,0 -76.227963,40.11839,0 -76.227436,40.118611,0 -76.227161,40.118735,0 -76.226615,40.119012,0 -76.226238,40.11922,0 -76.22565400000001,40.119578,0 -76.225201,40.119879,0 -76.22489899999999,40.120095,0 -76.224397,40.120473,0 -76.223952,40.12087,0 -76.22377299999999,40.121025,0 -76.22360500000001,40.121182,0 -76.22299700000001,40.121806,0 -76.222165,40.122704,0 -76.219696,40.125319,0 -76.219131,40.125911,0 -76.217618,40.127524,0 -76.216874,40.128296,0 -76.2168535,40.128318,0 -76.21632200000001,40.128889,0 -76.21579269999999,40.1294566,0 -76.215704,40.1295507,0 -76.215036,40.130259,0 -76.21441900000001,40.130913,0 -76.21370400000001,40.131655,0 -76.21300530000001,40.1324018,0 -76.2126171,40.1327847,0 -76.212176,40.133156,0 -76.211865,40.133441,0 -76.21173,40.133555,0 -76.210793,40.134313,0 -76.21033799999999,40.134666,0 -76.208922,40.135749,0 -76.203992,40.139534,0 -76.20352,40.13987,0 -76.20316699999999,40.140105,0 -76.202783,40.14034,0 -76.202544,40.140475,0 -76.202085,40.140724,0 -76.20179400000001,40.140872,0 -76.201284,40.141109,0 -76.2011,40.141188,0 -76.200728,40.141339,0 -76.200086,40.1415820000001,0 -76.19930100000001,40.141854,0 -76.19768000000001,40.142422,0 -76.193569,40.143856,0 -76.18959649999999,40.1452415,0 -76.188253,40.14571,0 -76.185974,40.146512,0 -76.180628,40.148376,0 -76.179885,40.148643,0 -76.179384,40.1488119999999,0 -76.178494,40.149086,0 -76.17774199999999,40.149279,0 -76.177274,40.149385,0 -76.176627,40.149513,0 -76.175586,40.149676,0 -76.175033,40.149743,0 -76.174588,40.149786,0 -76.174026,40.149823,0 -76.17335199999999,40.149855,0 -76.17149999999999,40.14996,0 -76.169569,40.150076,0 -76.16884899999999,40.150112,0 -76.168609,40.15013,0 -76.168193,40.150176,0 -76.167694,40.150248,0 -76.167187,40.150341,0 -76.166766,40.150432,0 -76.16655799999999,40.150482,0 -76.16615400000001,40.150594,0 -76.16587,40.150684,0 -76.16549500000001,40.150815,0 -76.165047,40.150984,0 -76.164624,40.151159,0 -76.164288,40.151304,0 -76.163858,40.151502,0 -76.16155999999999,40.152591,0 -76.1605892,40.1530628,0 -76.16023199999999,40.153225,0 -76.158069,40.154243,0 -76.15759,40.154486,0 -76.157315,40.154631,0 -76.15695599999999,40.154828,0 -76.156691,40.154983,0 -76.156463,40.155125,0 -76.156237,40.155272,0 -76.15568399999999,40.155661,0 -76.15522900000001,40.15601,0 -76.154882,40.156302,0 -76.154538,40.156615,0 -76.154341,40.156808,0 -76.15415,40.157004,0 -76.153964,40.157204,0 -76.1538388,40.1573456,0 -76.1536763,40.1575365,0 -76.153612,40.157616,0 -76.15344,40.157834,0 -76.153265,40.158069,0 -76.153098,40.158308,0 -76.15284,40.158702,0 -76.1527736,40.1588176,0 -76.15255329999999,40.1592068,0 -76.1522951,40.1597216,0 -76.1521733,40.1599851,0 -76.1520692,40.1602434,0 -76.1519418,40.1606088,0 -76.151827,40.160973,0 -76.151763,40.161208,0 -76.15170980000001,40.161461,0 -76.15162410000001,40.1618443,0 -76.15145320000001,40.1626229,0 -76.15135720000001,40.1630198,0 -76.151228,40.1636153999999,0 -76.1510248,40.1645603,0 -76.1508091,40.1655399,0 -76.1507166,40.165964,0 -76.1506167,40.1664127,0 -76.15052439999999,40.1668107,0 -76.15021900000001,40.168016,0 -76.150126,40.168313,0 -76.150042,40.16854,0 -76.149981,40.168691,0 -76.149845,40.168988,0 -76.14977399999999,40.169131,0 -76.149624,40.169404,0 -76.14949799999999,40.169602,0 -76.149286,40.169933,0 -76.14910399999999,40.170189,0 -76.148861,40.170501,0 -76.14852999999999,40.170867,0 -76.14821499999999,40.171179,0 -76.148043,40.171341,0 -76.147685,40.171653,0 -76.147346,40.171917,0 -76.147025,40.172144,0 -76.14666200000001,40.172385,0 -76.14539499999999,40.173199,0 -76.140181,40.176552,0 -76.137215,40.178464,0 -76.13666600000001,40.178809,0 -76.135954,40.179241,0 -76.135515,40.179499,0 -76.134913,40.179841,0 -76.134162,40.180252,0 -76.131765,40.181543,0 -76.13131250000001,40.1817894,0 -76.13067700000001,40.182142,0 -76.130292,40.182376,0 -76.12991700000001,40.182621,0 -76.129659,40.182797,0 -76.12928700000001,40.183071,0 -76.129047,40.183259,0 -76.128816,40.183452,0 -76.12848,40.183749,0 -76.128249,40.183967,0 -76.12802499999999,40.1841900000001,0 -76.127809,40.184417,0 -76.12748499999999,40.184776,0 -76.127272,40.185038,0 -76.127167,40.1851680000001,0 -76.126868,40.185573,0 -76.126582,40.1860100000001,0 -76.126411,40.186296,0 -76.126175,40.186732,0 -76.125967,40.187172,0 -76.1258031,40.1875637,0 -76.125629,40.18798,0 -76.124956,40.189641,0 -76.124067,40.191784,0 -76.123435,40.193338,0 -76.12277,40.19495,0 -76.122488,40.195664,0 -76.12232400000001,40.196053,0 -76.12081999999999,40.199725,0 -76.120373,40.200818,0 -76.120176,40.201278,0 -76.12007,40.201504,0 -76.119871,40.201888,0 -76.119602,40.202339,0 -76.119376,40.202686,0 -76.11910899999999,40.203062,0 -76.11881,40.203439,0 -76.118493,40.203802,0 -76.118272,40.204043,0 -76.1180842,40.2042308,0 -76.1174865,40.2047751,0 -76.117318,40.20492,0 -76.11702099999999,40.205161,0 -76.11658300000001,40.205489,0 -76.11617200000001,40.205771,0 -76.115801,40.206005,0 -76.11547,40.206199,0 -76.115133,40.206387,0 -76.11480299999999,40.206557,0 -76.114418,40.206745,0 -76.113984,40.206939,0 -76.11355399999999,40.207122,0 -76.102779,40.21152,0 -76.101719,40.211958,0 -76.101534,40.212033,0 -76.097111,40.213835,0 -76.096405,40.214123,0 -76.095969,40.214302,0 -76.095758,40.214389,0 -76.09543600000001,40.214522,0 -76.094492,40.214905,0 -76.094179,40.215025,0 -76.093613,40.21525,0 -76.09286,40.215567,0 -76.09232799999999,40.215805,0 -76.09223,40.215843,0 -76.092082,40.215892,0 -76.09191,40.215957,0 -76.09082720000001,40.2163697,0 -76.090264,40.216572,0 -76.09008849999999,40.2166309,0 -76.089394,40.216864,0 -76.088503,40.217144,0 -76.08793900000001,40.217321,0 -76.087124,40.21756,0 -76.08583659999999,40.2179269,0 -76.084738,40.21824,0 -76.0837914,40.2185116,0 -76.0827578,40.2188155999999,0 -76.0805294,40.2194627,0 -76.08011860000001,40.2195818,0 -76.07746899999999,40.2203495,0 -76.07716499999999,40.220436,0 -76.07619099999999,40.220713,0 -76.071032,40.222199,0 -76.069845,40.222535,0 -76.06902599999999,40.222778,0 -76.0679952,40.2230824,0 -76.0677692,40.2231430000001,0 -76.06753399999999,40.223213,0 -76.0664,40.223527,0 -76.063968,40.224236,0 -76.063766,40.224289,0 -76.063005,40.224514,0 -76.06259,40.224629,0 -76.060306,40.22529,0 -76.059426,40.225559,0 -76.058667,40.225823,0 -76.05785299999999,40.226137,0 -76.05703099999999,40.226487,0 -76.056219,40.226874,0 -76.05591800000001,40.227029,0 -76.05579,40.227099,0 -76.05530400000001,40.227364,0 -76.054969,40.227566,0 -76.054224,40.228026,0 -76.054046,40.2281320000001,0 -76.05343999999999,40.228548,0 -76.053072,40.22882,0 -76.052644,40.229151,0 -76.05239899999999,40.229349,0 -76.05199,40.229698,0 -76.0517,40.22996,0 -76.05134,40.230298,0 -76.051227,40.230404,0 -76.04895,40.232612,0 -76.048484,40.233072,0 -76.04725000000001,40.234269,0 -76.046751,40.234749,0 -76.045796,40.235682,0 -76.044044,40.237373,0 -76.043577,40.237841,0 -76.042711,40.238674,0 -76.0419186,40.2394326,0 -76.03996600000001,40.241302,0 -76.03958900000001,40.241706,0 -76.03897000000001,40.242466,0 -76.03873830000001,40.2427871,0 -76.03828489999999,40.2435333,0 -76.0380918,40.2438773,0 -76.037845,40.2444833,0 -76.03779470000001,40.2446171,0 -76.0377766,40.2446651,0 -76.0375339,40.2453104,0 -76.0372764,40.2461129,0 -76.0371476,40.2468663,0 -76.03680780000001,40.2488356,0 -76.0367097,40.2493117,0 -76.03661390000001,40.2497316,0 -76.03644540000001,40.2502637,0 -76.0362602,40.2507152,0 -76.036041,40.25119,0 -76.0356027,40.2520907,0 -76.0352915,40.2527539,0 -76.035077,40.2533353,0 -76.034916,40.2539085,0 -76.03470299999999,40.254897,0 -76.03448419999999,40.2558699,0 -76.034407,40.2561891,0 -76.0341114,40.2575521,0 -76.0338327,40.2590823,0 -76.03347840000001,40.2609335,0 -76.0330847,40.2629845,0 -76.0328731,40.2638603,0 -76.0324784,40.2651342,0 -76.03222529999999,40.26582,0 -76.0319571,40.2663716,0 -76.0315028,40.2671564,0 -76.031178,40.2676231,0 -76.0307596,40.2681501,0 -76.0301776,40.2687917,0 -76.02975549999999,40.2692185,0 -76.0291976,40.269677,0 -76.0285109,40.2701681,0 -76.02831879999999,40.2702924,0 -76.02752390000001,40.2708066,0 -76.02675139999999,40.2713879,0 -76.0260969,40.2718626,0 -76.02530299999999,40.2724275,0 -76.02467,40.2728531,0 -76.0225993,40.2742938,0 -76.0219663,40.2747686,0 -76.0213226,40.2752925,0 -76.0207218,40.2758491,0 -76.0202175,40.2764057,0 -76.0196703,40.2770769,0 -76.0192734,40.2777317,0 -76.0188228,40.2784848,0 -76.0172993,40.2810793999999,0 -76.01447760000001,40.286031,0 -76.0140377,40.2868004,0 -76.0136086,40.287496,0 -76.0131579,40.2881016,0 -76.0129281,40.2883889,0 -76.0126537,40.2887318,0 -76.0121709,40.2893292,0 -76.0117525,40.2897875,0 -76.0112697,40.2902622,0 -76.0106474,40.2907859,0 -76.0098642,40.2913997,0 -76.0092956,40.2918252,0 -76.0086948,40.2922426,0 -76.0080081,40.2926681,0 -76.0072785,40.2930855,0 -76.0065704,40.2934619000001,0 -76.0058623,40.2938302,0 -76.00560110000001,40.293961,0 -76.0051435,40.2941902,0 -76.004532,40.2944603,0 -76.0035347,40.2949232,0 -76.0033315,40.2950224,0 -76.0029455,40.2952046,0 -76.0026099,40.2953628999999,0 -76.0023389,40.2954971,0 -76.0021205,40.2956136,0 -76.00192490000001,40.2957287,0 -76.001367,40.2960887,0 -76.0009807,40.2963751,0 -76.00053010000001,40.2967843,0 -76.00016530000001,40.2971934,0 -75.9999383,40.2974957,0 -75.999679,40.2978880999999,0 -75.9995844,40.2980703,0 -75.9993632,40.298523,0 -75.9992227,40.298906,0 -75.9991279,40.2993213,0 -75.99903999999999,40.2997793,0 -75.999019,40.3000579,0 -75.99900839999999,40.3003043,0 -75.9991314,40.3024124,0 -75.9992859,40.3050615,0 -75.99935259999999,40.3069176,0 -75.999314,40.3073890000001,0 -75.99924729999999,40.3078953,0 -75.99913840000001,40.3084470000001,0 -75.998925,40.309193,0 -75.99879900000001,40.3095517,0 -75.9985616,40.3101389,0 -75.9982711,40.3107126,0 -75.9978304,40.3114413,0 -75.9973105,40.3123289,0 -75.996752,40.3132423,0 -75.99590120000001,40.3146776,0 -75.9955025,40.3153287,0 -75.99532170000001,40.3156143,0 -75.9948777,40.3162408,0 -75.9946582,40.3165079,0 -75.99436919999999,40.3168304,0 -75.9941771,40.3170274,0 -75.99400439999999,40.3171972,0 -75.9938123,40.3173757,0 -75.9934377,40.3177044,0 -75.99259670000001,40.318326,0 -75.9924559,40.3184182999999,0 -75.9921689,40.3186066,0 -75.9914763,40.3189943,0 -75.9908564,40.3193008,0 -75.9902494,40.3195568,0 -75.9898539,40.3197094,0 -75.9884182,40.3202509,0 -75.9877166,40.3205076,0 -75.9865714,40.3209465,0 -75.98597049999999,40.3211768,0 -75.9836038,40.3220629,0 -75.9831633,40.3222495,0 -75.9827851,40.3224428,0 -75.9823224,40.3227176,0 -75.9819131,40.3230263,0 -75.98160609999999,40.3232976,0 -75.9813169,40.3236131,0 -75.9811478,40.3238132,0 -75.9809832,40.3240337,0 -75.9808252,40.3242853,0 -75.9807394,40.3244246,0 -75.980425,40.3250122,0 -75.9802863,40.3252768,0 -75.9800096,40.3258643000001,0 -75.9793846,40.3271322999999,0 -75.9791252,40.3276344,0 -75.9789372,40.3279616,0 -75.9786792,40.3282968,0 -75.97826689999999,40.328756,0 -75.97788869999999,40.3291067,0 -75.97747219999999,40.3294196,0 -75.97718039999999,40.3296124,0 -75.9769175,40.3297608,0 -75.9765015,40.3299663,0 -75.97607619999999,40.3301381999999,0 -75.97473909999999,40.3306489,0 -75.9706553,40.3321901,0 -75.96964989999999,40.3326123,0 -75.9695088,40.3326817,0 -75.96944670000001,40.3327166,0 -75.96903949999999,40.3329248,0 -75.96838990000001,40.3334223,0 -75.9678916,40.3339535,0 -75.96771409999999,40.3341754,0 -75.96728570000001,40.3350394,0 -75.96710330000001,40.3355197000001,0 -75.96699150000001,40.3360423,0 -75.96700250000001,40.3362732,0 -75.9670297,40.3368461,0 -75.9671859,40.3375461999999,0 -75.96773659999999,40.3393082,0 -75.9679811,40.3401664,0 -75.9681398,40.3408907,0 -75.9681884,40.3415938,0 -75.9680427,40.3423528,0 -75.9678181,40.3429187,0 -75.9677708,40.3430026,0 -75.9676321,40.3432488,0 -75.9674344,40.343536,0 -75.9671057,40.3439118,0 -75.9658936,40.3451191,0 -75.96488340000001,40.3461108,0 -75.9648006,40.346192,0 -75.9645604,40.3464999,0 -75.9639099,40.3473954,0 -75.9632787,40.3480606,0 -75.96321260000001,40.3481218,0 -75.9631517,40.3481633,0 -75.96308310000001,40.3482018,0 -75.9629652,40.348257,0 -75.96282859999999,40.3483174,0 -75.96239629999999,40.3484960999999,0 -75.9621142,40.3486077999999,0 -75.9620262,40.3486553,0 -75.9619639,40.3486944,0 -75.9619087,40.3487483,0 -75.96184700000001,40.3488157,0 -75.9618067,40.3488743,0 -75.9617664,40.3489357,0 -75.9617449,40.3490091,0 -75.9617324,40.3491256,0 -75.9617305,40.349182,0 -75.9617439,40.3492414,0 -75.9617744,40.3493327,0 -75.9618342,40.3494315,0 -75.96192069999999,40.3495434,0 -75.96275439999999,40.3504242,0 -75.96289710000001,40.3505794,0 -75.9633688,40.3511734,0 -75.9636726,40.3515035,0 -75.96425790000001,40.3522227,0 -75.9644546,40.3524681,0 -75.9646391,40.3526522,0 -75.96491760000001,40.3528404,0 -75.96515119999999,40.3529396,0 -75.9668365,40.35359,0 -75.9672214,40.3537427,0 -75.96874099999999,40.3543817,0 -75.9714158,40.3556804,0 -75.9744625,40.3571447,0 -75.9777699,40.358731,0 -75.9779898,40.3588387,0 -75.9821213,40.3608165,0 -75.9831506,40.3613093,0 -75.98481820000001,40.3621098,0 -75.98487969999999,40.3621305,0 -75.9849701,40.3621646,0 -75.9851577,40.3622222,0 -75.9855957,40.3623616,0 -75.9859572,40.3624568,0 -75.987065,40.362724,0 -75.988186,40.3629993,0 -75.9884065,40.3630681000001,0 -75.9886589,40.3631572,0 -75.9889192,40.3632543,0 -75.9893682,40.3634932,0 -75.98968960000001,40.3637056999999,0 -75.9900695,40.3640255,0 -75.9903272,40.3643008,0 -75.9905397,40.3645761,0 -75.9907061,40.3648605,0 -75.99076909999999,40.3650108,0 -75.99088500000001,40.3653007,0 -75.99096470000001,40.3656367,0 -75.9909663,40.365653,0 -75.99099390000001,40.3659464,0 -75.9909674,40.3663836,0 -75.9909275,40.3666042,0 -75.99086200000001,40.3668263,0 -75.99060799999999,40.3677118,0 -75.9902979,40.368767,0 -75.9890967,40.3729341,0 -75.9890577,40.3730697,0 -75.9888571,40.3738407,0 -75.988692,40.3743234,0 -75.98840970000001,40.3753431,0 -75.9881425,40.3763455,0 -75.98809319999999,40.3765138,0 -75.98797159999999,40.3769291,0 -75.98783539999999,40.3773931,0 -75.9876871,40.3778459,0 -75.9875308,40.3782334,0 -75.9873844,40.3785586,0 -75.9871788,40.3789749,0 -75.98699879999999,40.3792843,0 -75.986817,40.3795907,0 -75.9864968,40.3800531,0 -75.9861796,40.3804659,0 -75.9854733,40.3812832,0 -75.9849456,40.3818693,0 -75.9844209,40.3824653,0 -75.9823846,40.3847528,0 -75.9815976,40.3856388,0 -75.98060630000001,40.3867698,0 -75.97918300000001,40.3883077,0 -75.9790684,40.3884262,0 -75.9788099,40.3886878,0 -75.978236,40.3892827,0 -75.97741790000001,40.3900193,0 -75.9766229,40.3907035,0 -75.9760083,40.3911674,0 -75.9753364,40.3916597,0 -75.974434,40.3922631,0 -75.9740834,40.3924967,0 -75.9732485,40.3930529,0 -75.9718926,40.3939162,0 -75.9683879,40.3962159,0 -75.9668049,40.3972076,0 -75.9658929,40.3977469,0 -75.965254,40.3981014,0 -75.9646822,40.3983952,0 -75.9632443,40.3991083,0 -75.95644160000001,40.4024688,0 -75.9496396,40.4058265999999,0 -75.94812349999999,40.4065924,0 -75.94643309999999,40.4074367,0 -75.945705,40.4078011,0 -75.9423738,40.4094354,0 -75.9405872,40.4103119,0 -75.9379081,40.4116339,0 -75.9360444,40.412559,0 -75.935548,40.4127945,0 -75.93513369999999,40.4129891000001,0 -75.9341167,40.4134277,0 -75.9334673,40.4137078,0 -75.9321978,40.4142555,0 -75.93205879999999,40.4143255000001,0 -75.93153909999999,40.4146149,0 -75.9312412,40.4148078,0 -75.9309219,40.4150281000001,0 -75.9304437,40.4154312,0 -75.9297512,40.4161103,0 -75.9288133,40.4170416,0 -75.9284622,40.417387,0 -75.9280136,40.4178047,0 -75.92735,40.418407,0 -75.92700689999999,40.4187108,0 -75.9266104,40.4190345,0 -75.9258248,40.4196766,0 -75.92294870000001,40.4219951,0 -75.9205517,40.4239477,0 -75.9195635,40.4247526,0 -75.9194865,40.42482,0 -75.9191257,40.4251412,0 -75.918537,40.425696,0 -75.9182745,40.4259560000001,0 -75.9176859,40.4265768,0 -75.9169723,40.4273411,0 -75.91671169999999,40.4276191,0 -75.9165836,40.4277465,0 -75.9160914,40.428173,0 -75.9156584,40.4285014,0 -75.9154496,40.4286408,0 -75.915205,40.4287879,0 -75.914979,40.428906,0 -75.91468810000001,40.4290496,0 -75.91449110000001,40.4291444,0 -75.9140347,40.4293268,0 -75.91373350000001,40.4294323,0 -75.9132451,40.429566,0 -75.91238300000001,40.4298278,0 -75.91182139999999,40.4300056,0 -75.9115462,40.4300871,0 -75.91123020000001,40.4301996,0 -75.91095,40.4303077,0 -75.91065570000001,40.4304265,0 -75.9104926,40.4305081,0 -75.91036560000001,40.4305815000001,0 -75.9101953,40.4306933,0 -75.9100079,40.4308373,0 -75.9098142,40.4310156,0 -75.90971949999999,40.4311144,0 -75.9096132,40.4312385,0 -75.9095375,40.4313517,0 -75.90948349999999,40.4314552,0 -75.9094285,40.4315945,0 -75.90939969999999,40.4317008000001,0 -75.9093898,40.4318146,0 -75.9093907,40.4319045,0 -75.909415,40.4320101,0 -75.9094565,40.4321068,0 -75.9095186,40.4322042,0 -75.9096006,40.4322995,0 -75.91009080000001,40.4328344,0 -75.9101367,40.4328914,0 -75.91019350000001,40.4329785,0 -75.9102403,40.4330744999999,0 -75.9102791,40.4331774,0 -75.91032680000001,40.4333255,0 -75.9103458,40.43344,0 -75.910353,40.4335532,0 -75.9103458,40.4337034,0 -75.9103223,40.4338474,0 -75.9102412,40.4341423,0 -75.90985569999999,40.4350465,0 -75.909426,40.4357420999999,0 -75.9091765,40.4361036,0 -75.908996,40.4363651,0 -75.9079648,40.4377557,0 -75.9073278,40.4386815,0 -75.9071251,40.439074,0 -75.9069054,40.4394555,0 -75.9067058,40.4398411,0 -75.9066053,40.440056,0 -75.90642889999999,40.4403997,0 -75.9063151,40.4406243,0 -75.90592959999999,40.441393,0 -75.9056216,40.4420323,0 -75.90512029999999,40.4430197,0 -75.90492039999999,40.4434159,0 -75.9046094,40.443976,0 -75.9043908,40.4442955,0 -75.90422119999999,40.4445166,0 -75.9041347,40.444615,0 -75.90407500000001,40.4446847,0 -75.9038722,40.4449219,0 -75.9037742,40.4450127,0 -75.90351339999999,40.4452706,0 -75.9030412,40.445665,0 -75.902907,40.445787,0 -75.902647,40.445965,0 -75.902502,40.446059,0 -75.902163,40.446268,0 -75.90151400000001,40.4466657,0 -75.9007936,40.4470438,0 -75.9000841,40.4474317,0 -75.8997208,40.4476242,0 -75.8991953,40.4479026,0 -75.89870689999999,40.4481439,0 -75.89832920000001,40.4483527,0 -75.8974754,40.4488083000001,0 -75.8966491,40.4492493,0 -75.89640609999999,40.449379,0 -75.8961485,40.4495164,0 -75.89497919999999,40.4501404,0 -75.89424270000001,40.4505334,0 -75.8932262,40.4510641,0 -75.8920306,40.4516883,0 -75.8919124,40.4517429,0 -75.8918571,40.4518017,0 -75.8917318,40.4518676,0 -75.8913946,40.4520415,0 -75.8912067,40.4521578,0 -75.8908899,40.4523805999999,0 -75.8908751,40.4524306,0 -75.8908412,40.4524708,0 -75.8907943,40.4525051,0 -75.8907311,40.4525288,0 -75.8906719,40.4525417,0 -75.8906084,40.4525465,0 -75.8905407,40.4525401,0 -75.8904995,40.4525485,0 -75.8903463,40.4525798,0 -75.89028,40.4526008,0 -75.8902137,40.4526317,0 -75.8901123,40.4527046,0 -75.8899612,40.4528182,0 -75.8897862,40.4529443,0 -75.889567,40.4530831,0 -75.889472,40.4530986,0 -75.88895050000001,40.4534201,0 -75.888302,40.4537931,0 -75.8874426,40.4542663,0 -75.8866029,40.4547236,0 -75.88513810000001,40.4554467,0 -75.88498199999999,40.4555257,0 -75.884883,40.4555371,0 -75.8848113,40.4555723,0 -75.8847404,40.4556075000001,0 -75.88466750000001,40.4556341,0 -75.8845888,40.4556555,0 -75.8844952,40.4556661,0 -75.884373,40.4556674,0 -75.88431249999999,40.4556678,0 -75.88427470000001,40.4556648,0 
				
					-75.88427470000001,40.4556648,0 -75.8842277,40.4556545,0 -75.88419810000001,40.4556527,0 -75.8841197,40.4556492,0 -75.8840522,40.455664,0 -75.88397019999999,40.4557009,0 -75.8839291,40.4557385,0 -75.8837762,40.4559076,0 -75.8836335,40.4560327,0 -75.88346369999999,40.4561556000001,0 -75.8832524,40.4562826,0 -75.8827292,40.4565998,0 -75.8826847,40.4566656,0 -75.882479,40.4567822,0 -75.8817248,40.4572096,0 -75.88165669999999,40.4572474,0 -75.88154160000001,40.4573085,0 -75.880747,40.4577303,0 -75.87997900000001,40.458118,0 -75.8788955,40.4586566,0 -75.87879,40.458709,0 -75.8774191,40.4593896,0 -75.8756944,40.4602459,0 -75.875092,40.460545,0 -75.8733107,40.4614404,0 -75.872511,40.461827,0 -75.872134,40.462029,0 -75.87184000000001,40.462199,0 -75.87163099999999,40.462329,0 -75.871469,40.462435,0 -75.871112,40.462682,0 -75.870842,40.46289,0 -75.8706,40.463088,0 -75.87030300000001,40.46335,0 -75.86770129999999,40.465698,0 -75.867114,40.466228,0 -75.866967,40.466356,0 -75.8666449,40.4666389,0 -75.86256590000001,40.4703843,0 -75.861957,40.4709484,0 -75.86167140000001,40.4712187000001,0 -75.8614163,40.4714628,0 -75.86125699999999,40.4716023,0 -75.8608038,40.4720266,0 -75.8604651,40.4723456,0 -75.85917449999999,40.4735216,0 -75.859041,40.4736504,0 -75.8586172,40.4740595,0 -75.858254,40.4744101,0 -75.8582105,40.4744524000001,0 -75.8576161,40.475026,0 -75.8566972,40.4759354,0 -75.8566153,40.476016,0 -75.85642470000001,40.4762157999999,0 -75.85547390000001,40.4771395,0 -75.855096,40.477461,0 -75.8548368,40.4776344,0 -75.8548064,40.4776547,0 -75.854045,40.4781566,0 -75.8522928,40.4792331,0 -75.8518596,40.4794987,0 -75.8513186,40.4798360999999,0 -75.8511582,40.4799395,0 -75.849608,40.4809126,0 -75.8486499,40.4814299,0 -75.84784569999999,40.4818348,0 -75.84702849999999,40.4822699,0 -75.84683080000001,40.4823752000001,0 -75.8461748,40.482699,0 -75.8457966,40.4828826,0 -75.8454466,40.4830346,0 -75.8450107,40.4832121,0 -75.8438037,40.4836797999999,0 -75.8430656,40.4839658,0 -75.842418,40.4842168,0 -75.84158050000001,40.4845414,0 -75.8413243,40.4846407,0 -75.841166,40.484702,0 -75.840991,40.4847698,0 -75.8405692,40.4849332,0 -75.84031109999999,40.4850332,0 -75.84010050000001,40.4851148,0 -75.83988789999999,40.4851481,0 -75.8397178,40.485214,0 -75.8396456,40.4852445,0 -75.8395259,40.4853011,0 -75.8394837,40.4853174,0 -75.8394381,40.4853303999999,0 -75.8393885,40.4853404,0 -75.83933949999999,40.485345,0 -75.8392877,40.4853452,0 -75.8392339,40.4853432,0 -75.8391726,40.4853376,0 -75.8391206,40.4853307,0 -75.8390522,40.4853336,0 -75.8390131,40.4853197,0 -75.8389749,40.4853091,0 -75.8389347,40.4853053,0 -75.8388795,40.4853129,0 -75.8388277,40.485329,0 -75.8387814,40.485353,0 -75.8387427,40.4853838,0 -75.8387173,40.4854115,0 -75.838705,40.4854392,0 -75.83870020000001,40.4854900000001,0 -75.83858979999999,40.4855453,0 -75.8384691,40.4856059,0 -75.8383793,40.4856663,0 -75.8382775,40.4857288,0 -75.8381566,40.4857961,0 -75.83804170000001,40.4858518,0 -75.83795670000001,40.4859414,0 -75.8377591,40.4860175,0 -75.8374998,40.4861155,0 -75.836997,40.4863069,0 -75.8361562,40.4866271,0 -75.8340705,40.4874214,0 -75.83355299999999,40.4876185,0 -75.83292950000001,40.487856,0 -75.8324954,40.4880233,0 -75.8311623,40.4885372,0 -75.8305318,40.4887848,0 -75.82882909999999,40.4894547,0 -75.827679,40.4899092,0 -75.82729070000001,40.4900631,0 -75.8271381,40.4901258,0 -75.8229305,40.4917607,0 -75.8222785,40.4920158,0 -75.82183550000001,40.4921891,0 -75.82049859999999,40.4926807,0 -75.8191076,40.4931374,0 -75.8188663,40.4932198,0 -75.8181486,40.4934697,0 -75.8177811,40.4935336,0 -75.8172829,40.4936985,0 -75.81705409999999,40.4937761,0 -75.8167062,40.4938994,0 -75.81657970000001,40.4939441,0 -75.81582280000001,40.4942108,0 -75.81527370000001,40.4944086,0 -75.8139872,40.4948638,0 -75.8129653,40.4952261,0 -75.8115067,40.495747,0 -75.810716,40.4960358,0 -75.8102098,40.4962488,0 -75.80973059999999,40.4964962,0 -75.8094017,40.4967038,0 -75.80909080000001,40.49692,0 -75.8087384,40.4971892,0 -75.80846270000001,40.4974778,0 -75.80810219999999,40.4978824,0 -75.8079061,40.498202,0 -75.80774169999999,40.4984698,0 -75.80750140000001,40.4990311,0 -75.807158,40.5001537,0 -75.8066602,40.5017527,0 -75.8062568,40.5026859999999,0 -75.80580190000001,40.5035997,0 -75.80514100000001,40.5043763,0 -75.80425700000001,40.5053357,0 -75.8032527,40.5061579,0 -75.8025557,40.5066619,0 -75.801682,40.5072935,0 -75.8001113,40.5084681,0 -75.79757069999999,40.5105302,0 -75.79674009999999,40.5112867,0 -75.79643110000001,40.5115681,0 -75.7959228,40.5120311,0 -75.79452379999999,40.5134863,0 -75.79336499999999,40.5148892,0 -75.7926355,40.5158549,0 -75.7907901,40.5186345,0 -75.789846,40.52022,0 -75.7895249,40.5207478,0 -75.78915929999999,40.5213488,0 -75.7881036,40.5228951,0 -75.7875286,40.5235279,0 -75.7867203,40.5242793,0 -75.7858942,40.5248583,0 -75.7853313,40.5251982,0 -75.78463360000001,40.5255515,0 -75.78395279999999,40.5258386,0 -75.7833176,40.5260865,0 -75.7821225,40.5264883,0 -75.7813232,40.5267248,0 -75.7793403,40.5273837,0 -75.77706259999999,40.5281633,0 -75.7758491,40.5285579,0 -75.77245670000001,40.5296671,0 -75.77009630000001,40.5304303,0 -75.768354,40.5309979,0 -75.767324,40.5312327,0 -75.7661739,40.5313632,0 -75.7651697,40.5314089,0 -75.7642111,40.5313588,0 -75.7639585,40.5313362,0 -75.7619516,40.5311176,0 -75.76090019999999,40.5310524,0 -75.7601063,40.5310605,0 -75.7590441,40.5311502,0 -75.7581337,40.5313061,0 -75.7565973,40.531598,0 -75.7555098,40.5318046,0 -75.75258839999999,40.5323942,0 -75.7523745,40.5324757,0 -75.7516019,40.5326408999999,0 -75.7514915,40.5326668,0 -75.75133839999999,40.5326973,0 -75.7504915,40.5328472,0 -75.7498179,40.5329665,0 -75.7496151,40.5330024000001,0 -75.7494574,40.5330303,0 -75.7482306,40.5332475,0 -75.74643089999999,40.5335818,0 -75.74587579999999,40.5336997,0 -75.7457194,40.5337329,0 -75.74516389999999,40.5338691,0 -75.7449637,40.5339182,0 -75.7439736,40.5341792,0 -75.7434763,40.5343103,0 -75.742907,40.5344563,0 -75.7423453,40.5346082,0 -75.7412228,40.5349044,0 -75.7406113,40.5350514,0 -75.73939470000001,40.535327,0 -75.7386638,40.5354772,0 -75.7380139,40.5356107,0 -75.73747160000001,40.5357221,0 -75.7370951,40.5357995,0 -75.73663000000001,40.5358951,0 -75.7363679,40.5359489,0 -75.73612799999999,40.5359982,0 -75.7359518,40.5360344,0 -75.73536180000001,40.5361555,0 -75.73444809999999,40.5363401,0 -75.73431909999999,40.5363677,0 -75.73427340000001,40.536376,0 -75.734238,40.5363842,0 -75.7341338,40.5364054,0 -75.7336791,40.5364977999999,0 -75.7331897,40.5365974,0 -75.7328572,40.536665,0 -75.7324653,40.5367447,0 -75.7324177,40.5367544,0 -75.7288561,40.5374788,0 -75.7282312,40.5376374,0 -75.72590270000001,40.5381144,0 -75.72560009999999,40.5381731,0 -75.7243963,40.5383859,0 -75.723743,40.5385033,0 -75.7198056,40.539178,0 -75.7196106,40.5392105000001,0 -75.7191593,40.5392857,0 -75.7169045,40.5396624,0 -75.7115783,40.540581,0 -75.70882450000001,40.5410492,0 -75.70686910000001,40.5413746,0 -75.7063287,40.5414486,0 -75.7058018,40.541514,0 -75.7051045,40.5415731,0 -75.70273589999999,40.5417201,0 -75.6993118,40.541911,0 -75.6968851,40.5420433,0 -75.69626220000001,40.5420773,0 -75.69562310000001,40.5421162,0 -75.6951299,40.5421429,0 -75.69414949999999,40.5421936,0 -75.6940286,40.5421998,0 -75.693569,40.5422234,0 -75.69302159999999,40.5422515,0 -75.69182410000001,40.5423224,0 -75.69115739999999,40.5423613,0 -75.6908865,40.5423792,0 -75.6906652,40.5423973,0 -75.6904629,40.5424191,0 -75.6902824,40.5424416,0 -75.6900471,40.5424757,0 -75.68964389999999,40.5425332,0 -75.6894083,40.5425732,0 -75.68868620000001,40.5426863,0 -75.68813,40.5427724,0 -75.6859905,40.5431036,0 -75.684613,40.5433196,0 -75.6839004,40.5434298,0 -75.6822713,40.5436802,0 -75.6792033,40.5441605,0 -75.6787659,40.5442298,0 -75.677181,40.5444058,0 -75.676085,40.5444844,0 -75.67528710000001,40.5445156,0 -75.6745444,40.5445035,0 -75.6739097,40.5444682,0 -75.67334889999999,40.5444301,0 -75.6728001,40.544426,0 -75.6725136,40.5443966,0 -75.6723073,40.54433,0 -75.6722833,40.5442696,0 -75.6722338,40.544219,0 -75.6721648,40.544184,0 -75.67208429999999,40.5441687,0 -75.6720018,40.5441749,0 -75.67192679999999,40.5442019,0 -75.6718717,40.5442428,0 -75.6714942,40.5442434,0 -75.6711193,40.5442386,0 -75.6707914,40.5442369,0 
				
					-75.6707914,40.5442369,0 -75.66446449999999,40.5436068,0 -75.66313940000001,40.543438,0 -75.6612131,40.5432265,0 -75.6600218,40.5430957,0 -75.6594449,40.5430324,0 -75.65727939999999,40.5427947,0 -75.6564992,40.542706,0 -75.6504803,40.5420221,0 -75.6489292,40.5418458,0 -75.64572870000001,40.5414866,0 -75.64342739999999,40.5412283,0 -75.642928,40.5411722,0 -75.63909820000001,40.5407519,0 -75.63901079999999,40.5407423,0 -75.6383967,40.5406749,0 -75.6375646,40.5405799,0 -75.6366554,40.540476,0 -75.63481,40.5402722,0 -75.6337099,40.5401508,0 -75.63233200000001,40.5399986,0 -75.6307714,40.5398263,0 -75.62941530000001,40.5396371,0 -75.6284883,40.5395197,0 -75.62768370000001,40.5394566,0 -75.62723219999999,40.5394358,0 -75.62707210000001,40.5394283999999,0 -75.62656870000001,40.539421,0 -75.6260601,40.5394295999999,0 -75.6255484,40.5395099,0 -75.6251943,40.5395527,0 -75.6249341,40.5395976,0 -75.6245533,40.539675,0 -75.62423680000001,40.5397646999999,0 -75.6240007,40.5398422,0 -75.6238103,40.5399135,0 -75.62346700000001,40.5400766,0 -75.62319340000001,40.5402274,0 -75.6230137,40.5403497,0 -75.62283669999999,40.5404679,0 -75.6226516,40.5406208,0 -75.62235389999999,40.540898,0 -75.622142,40.5411467,0 -75.6218791,40.541532,0 -75.62178520000001,40.5417072,0 -75.62172889999999,40.5418418,0 -75.6216592,40.5420171000001,0 -75.6215921,40.5422209,0 -75.6215572,40.5423738,0 -75.6215277,40.5426286,0 -75.62151160000001,40.5428263,0 -75.62149960000001,40.5437909,0 -75.62154649999999,40.5443794,0 -75.6216331,40.545352,0 -75.62161399999999,40.5461403,0 -75.6215112,40.5468322,0 -75.62134260000001,40.5476078,0 -75.62092250000001,40.5497905,0 -75.6206076,40.5512312,0 -75.6205537,40.5515299,0 -75.62036500000001,40.5519544,0 -75.6202344,40.5522401,0 -75.6200001,40.5526433,0 -75.6198898,40.5528063,0 -75.6198153,40.5529206,0 -75.6194436,40.5533388,0 -75.6189565,40.553853,0 -75.61861210000001,40.5541407,0 -75.61810490000001,40.5545229,0 -75.61719239999999,40.5550234,0 -75.6162174,40.5554452,0 -75.6148302,40.5560369,0 -75.6134179,40.5566652,0 -75.6131994,40.5567625,0 -75.6119334,40.557333,0 -75.6105601,40.5579688,0 -75.60913960000001,40.5586173000001,0 -75.6087327,40.5587909,0 -75.6074369,40.5593842,0 -75.6056803,40.5601407,0 -75.60473450000001,40.5605501,0 -75.60439,40.5607127999999,0 -75.60388349999999,40.5609365,0 -75.6033113,40.5611894,0 -75.6018376,40.5618405,0 -75.5999815,40.5626801,0 -75.5982102,40.5634922,0 -75.59540990000001,40.5646007,0 -75.5947556,40.5647962,0 -75.5940485,40.5649296,0 -75.5929434,40.5650518,0 -75.591849,40.5650356,0 -75.59064739999999,40.5649459,0 -75.58935889999999,40.5646821,0 -75.5874511,40.5642775,0 -75.5866288,40.5641031,0 -75.5860897,40.564005,0 -75.5857635,40.5639683,0 -75.58558530000001,40.5639556,0 -75.5853589,40.5639442,0 -75.5851871,40.5639404,0 -75.5849947,40.5639411,0 -75.5848139,40.5639437,0 -75.5846378,40.56395,0 -75.5845092,40.5639546,0 -75.5842121,40.5639697,0 -75.5837959,40.5639901,0 -75.58300180000001,40.5640279,0 -75.5829621,40.5640302,0 -75.5809367,40.5641442,0 -75.57970299999999,40.5642013,0 -75.5785131,40.5642531,0 -75.5775582,40.564245,0 -75.576528,40.5641702,0 -75.57552269999999,40.5640684,0 -75.5732119,40.563828,0 -75.5729077,40.5638046,0 -75.572604,40.5637935,0 -75.5723045,40.5637919,0 -75.5719939,40.5638058,0 -75.57169500000001,40.5638333,0 -75.57139359999999,40.5638785000001,0 -75.5711024,40.5639312,0 -75.57081669999999,40.5639935,0 -75.57052899999999,40.5640693,0 -75.56985090000001,40.5642711,0 -75.5687831,40.564589,0 -75.5673599,40.5650127,0 -75.5661606,40.5653851,0 -75.56574089999999,40.5655189,0 -75.5653219,40.5656603,0 -75.564947,40.5657938,0 -75.5649062,40.5658084,0 -75.5647961,40.5658486,0 -75.5646478,40.5659028,0 -75.5645643,40.5659333,0 -75.564449,40.5659754,0 -75.5639769,40.5661593,0 -75.5634767,40.566359,0 -75.5608275,40.5674344,0 -75.5604512,40.5675785,0 -75.5600622,40.5677211,0 -75.55966859999999,40.567853,0 -75.559273,40.5679809,0 -75.5572208,40.5686393,0 -75.55627490000001,40.5689428,0 -75.55446860000001,40.5695223000001,0 -75.55419190000001,40.5696051,0 -75.55391179999999,40.5696828999999,0 -75.55363029999999,40.569757,0 -75.5531715,40.5698646,0 -75.5526472,40.5699647,0 -75.552313,40.5700246,0 -75.5512756,40.5701534,0 -75.55036870000001,40.5702282,0 -75.55006849999999,40.570248,0 -75.5496203,40.570268,0 -75.5492028,40.5702682,0 -75.5470321,40.5702533,0 -75.5466855,40.5702509,0 -75.546633,40.5702501,0 -75.54577190000001,40.5702375,0 -75.54551669999999,40.5702395,0 -75.54516529999999,40.570268,0 -75.5448224,40.5703129,0 -75.54443310000001,40.5703699,0 -75.54427459999999,40.5703968,0 -75.54352230000001,40.5706246,0 -75.5430302,40.570819,0 -75.54254779999999,40.5710235,0 -75.5412728,40.5715533,0 -75.5411821,40.571591,0 -75.53951530000001,40.5723082,0 
				</coordinates>
			</LineString>
		<atom:link rel="app" href="https://www.google.com/earth/about/versions/#earth-pro" title="Google Earth Pro 7.3.6.10201"></atom:link>
	</Placemark>
</Document>
</kml>
