<?xml version="1.0" encoding="UTF-8"?>
<kml xmlns="http://www.opengis.net/kml/2.2" xmlns:gx="http://www.google.com/kml/ext/2.2" xmlns:kml="http://www.opengis.net/kml/2.2" xmlns:atom="http://www.w3.org/2005/Atom">
<Document>
	<name>US.220A.PA.kml</name>
	<Placemark>
		<name>US.220A.PA</name>
		<LineString>
			<tessellate>1</tessellate>
			<coordinates>
				-78.05413686909566,40.7997520179453,0 -78.05130038932255,40.80191860454228,0 -78.04940528993919,40.80366644758622,0 -78.04843627733275,40.80468497522841,0 -78.04759563687713,40.8058993822556,0 -78.04357839951376,40.80948280117503,0 -78.04142086482432,40.81148665210203,0 -78.03847840095152,40.8133963227525,0 -78.03727486596613,40.81427006778061,0 -78.03422103265426,40.81694657037065,0 -78.02876420537186,40.82182897286494,0 -78.02717929137405,40.82309280363759,0 -78.02562053497434,40.82417387919937,0 -78.02212541176726,40.82631373633065,0 -78.01923241335039,40.82803277045939,0 -78.01769729683483,40.82894818385594,0 -78.01492402763741,40.83011876051787,0 -78.01054021645467,40.83202736150462,0 -78.00617564357981,40.834224094517,0 -78.00117158049089,40.83676390119496,0 -77.99824391127777,40.83827662183275,0 -77.99607725594464,40.83904448823061,0 -77.98554985015005,40.84300550594219,0 -77.97448409055662,40.84711818468791,0 -77.97282029692663,40.84784632360964,0 -77.97183263677393,40.84846204853323,0 -77.97009523431588,40.84968099611562,0 -77.96693434822963,40.85167878791992,0 -77.96579629798285,40.85226676267036,0 -77.95920040006969,40.85521107094067,0 -77.95174232561629,40.85845992128392,0 -77.95065549617838,40.85901379429384,0 -77.94571974082007,40.86158203640836,0 -77.94350234444354,40.86275669259156,0 -77.94271371398675,40.86336174451227,0 -77.94208512097815,40.86386263373283,0 -77.94133324023593,40.86426649846123,0 -77.93904710109379,40.86538330024585,0 -77.93852012037929,40.86565239470217,0 -77.93714786949516,40.86657160525684,0 -77.93579021911461,40.86770697177261,0 -77.93469501627041,40.86887875213385,0 -77.93342664607171,40.87007212151673,0 -77.93204441648739,40.87100411195922,0 -77.93107120975804,40.87158800804693,0 -77.9291444470655,40.87272525795395,0 -77.92614496829883,40.87468979220795,0 -77.92403361146076,40.87622993544056,0 -77.92237928070963,40.87731199788762,0 -77.92078776983512,40.87822012586085,0 -77.91784483349696,40.87972549216452,0 -77.91631857707893,40.88047445927462,0 -77.90659076602053,40.88534391851832,0 -77.90482863710999,40.88627343047733,0 -77.90368997375103,40.88687313220939,0 -77.90202266034277,40.88788213662934,0 -77.90100226168423,40.88864701901547,0 -77.89797872888467,40.89087407182662,0 -77.89629148325635,40.89228653629864,0 -77.89571558780548,40.89273700437859,0 -77.89327950282269,40.89443471026525,0 -77.89186736840291,40.89544234093445,0 -77.89105765462205,40.89603089891834,0 -77.89064040869219,40.89637595607356,0 -77.88580267522742,40.90050658094633,0 -77.88162366929831,40.90421091058732,0 -77.8810569372276,40.90463990379862,0 -77.87992386425863,40.90522844471025,0 -77.87870656207419,40.90559519591249,0 -77.87772904504088,40.90620115858543,0 -77.87646368191619,40.90674158630006,0 -77.87408205691376,40.90791196492995,0 -77.87311216048148,40.90873520742213,0 -77.87242793870276,40.90958854204487,0 -77.87143401919275,40.91024179414681,0 -77.86582704315627,40.9132881951517,0 -77.86435133811993,40.9138668488599,0 -77.86260700750861,40.9144116659414,0 -77.86136282958245,40.91501463737861,0 -77.86014585884912,40.91578911372324,0 -77.858862600436,40.91672930326429,0 -77.85703047399122,40.91762756937007,0 -77.85503011701152,40.91866334222037,0 -77.85159030737593,40.92023172976784,0 -77.84814065210956,40.921820021238,0 -77.84542432290145,40.92299924972527,0 -77.84422861013475,40.92338441805764,0 -77.84291490521716,40.92397613621747,0 -77.84123489022735,40.92471952113046,0 -77.83981297770733,40.92535357332716,0 -77.83827920402049,40.92636496715142,0 -77.83740489008669,40.92703326088004,0 -77.83675022376529,40.92789391777944,0 -77.83620093485983,40.92847501608111,0 -77.835374413629,40.92902059429163,0 -77.83434169640802,40.92955737059087,0 -77.83280527202741,40.93026538246247,0 -77.83113113777851,40.9310351734653,0 -77.82978937335042,40.93157946356773,0 -77.8291568035654,40.93181439784191,0 -77.8284138566341,40.9319955417382,0 -77.82720024269429,40.93214162296755,0 -77.82226245637015,40.93264670847019,0 -77.82026513022204,40.9329052824682,0 -77.81931234203724,40.93310590052169,0 -77.81744746335148,40.93364999145508,0 -77.81569112709077,40.93430297076965,0 -77.80444718910586,40.93828414166801,0 -77.80288328185544,40.93882948360444,0 -77.80206142865001,40.93917996499037,0 -77.79956592071402,40.94096583094968,0 -77.79682544406751,40.94296349384648,0 -77.79024346697787,40.94782073924423,0 -77.78835126482974,40.94880709031644,0 -77.78213251978207,40.95094532217443,0 -77.77999026492994,40.95172386436416,0 -77.77630398126095,40.95313183264136,0 -77.77508723077064,40.95359741768331,0 -77.77544065084784,40.95415193423643,0 -77.77549779516252,40.95454074404203,0 -77.77534507991882,40.95490486198271,0 -77.77493067513123,40.9553218722824,0 -77.77424659007021,40.95555488543933,0 -77.77338278334462,40.95558770527143,0 -77.76965867249655,40.95544823860539,0 -77.76222114032154,40.95515835888594,0 -77.75764672014738,40.95501250414694,0 -77.7529646238189,40.95477186878683,0 -77.74990443674221,40.95445285394491,0 -77.74782573200068,40.95391831924726,0 -77.74546002825477,40.95307999756277,0 -77.74350863508513,40.95203652997075,0 -77.73961527744382,40.94955263984471,0 -77.73405451463842,40.94601524091697,0 -77.73295566138447,40.94533567068518,0 -77.73170997603025,40.94474220772887,0 -77.73048892738534,40.94433641101938,0 -77.72918246968305,40.94396327512315,0 -77.72786325160835,40.94364585570066,0 -77.72675415798602,40.94330213444316,0 -77.72622854254759,40.94278280098803,0 -77.72579224391889,40.94221167843551,0 
			</coordinates>
		</LineString>
		<atom:link rel="app" href="https://www.google.com/earth/about/versions/#earth-pro" title="Google Earth Pro 7.3.6.10201"></atom:link>
	</Placemark>
</Document>
</kml>
