<?xml version="1.0" encoding="UTF-8"?>
<kml xmlns="http://www.opengis.net/kml/2.2" xmlns:gx="http://www.google.com/kml/ext/2.2" xmlns:kml="http://www.opengis.net/kml/2.2" xmlns:atom="http://www.w3.org/2005/Atom">
<Document>
	<name>US.220A.VA.kml</name>
	<Placemark>
		<name>US.220A.VA</name>
		<LineString>
			<coordinates>
				-79.93821596833277,37.28215050485073,0 -79.93621759267634,37.28213583373721,0 -79.93443357902513,37.28220419067255,0 -79.93055424844945,37.2822837697017,0 -79.92835852174267,37.28236784470035,0 -79.92748935628789,37.28244758969582,0 -79.9250204852878,37.28286666072017,0 -79.92260142124934,37.28329182041057,0 -79.92102514176888,37.2836126665059,0 -79.91936137360997,37.28406261127207,0 -79.91864919454697,37.28433221292278,0 -79.91757356979404,37.28488515028635,0 -79.91618868446531,37.28571097872867,0 -79.91385872017493,37.28718890593532,0 -79.9123377613052,37.28856821663213,0 -79.91158198101375,37.28916531034702,0 -79.90975128879478,37.29046149776255,0 -79.90856453335543,37.29126170984597,0 -79.90751214245689,37.29182952639819,0 -79.90161285661816,37.29510738420218,0 -79.89970582642255,37.29627774861068,0 -79.89835040672996,37.2970414955311,0 -79.89602456664991,37.29891296585519,0 -79.89394838347239,37.3008620521666,0 -79.89270275682146,37.30244579471155,0 -79.89173318648041,37.30401982178034,0 -79.8902399730172,37.30559084220516,0 -79.88883176551471,37.30696090110459,0 -79.88740712596265,37.30839755464244,0 -79.88579372885924,37.31052150670826,0 -79.88452956026953,37.31178684560685,0 -79.88320664184369,37.31314985475019,0 -79.88179539683763,37.31444598307968,0 -79.88118684918201,37.31495673832489,0 -79.88041372487484,37.31549560199718,0 -79.87982122680107,37.31587526037779,0 -79.87761081993017,37.31731443117452,0 -79.87641778436142,37.31815874476892,0 -79.87571334024138,37.31871846656807,0 -79.87361347356196,37.32069167962742,0 -79.87173773625271,37.32264322185542,0 -79.86977278221919,37.32460032004872,0 -79.86907403493061,37.32538320422979,0 -79.87106142869017,37.32677295013717,0 -79.87158204606015,37.32710771727025,0 -79.87216715982277,37.32776796791151,0 -79.87239521877927,37.3284919059982,0 -79.87242294802135,37.33030693269937,0 -79.87244885589413,37.33122335678431,0 -79.87268110015549,37.33183188451086,0 -79.87315167491001,37.33237373684079,0 -79.87400513393804,37.3334632435927,0 -79.87463431102364,37.33431777669394,0 -79.87522116494189,37.3361797988133,0 -79.87553211121489,37.33710838669506,0 -79.87554448855082,37.33798574115763,0 -79.87560170915694,37.33946820848852,0 -79.87579929944987,37.34038425702582,0 -79.87626134643591,37.3412762356014,0 -79.87700932616659,37.34204741497186,0 -79.87791753753899,37.34255642909567,0 -79.87895914581412,37.34298417393343,0 -79.88005025291366,37.34342642791313,0 -79.8808434724768,37.34399121078679,0 -79.88174893356725,37.34514967456514,0 -79.88238273983455,37.3464779966786,0 -79.88272692171775,37.34830869892144,0 -79.88305395690986,37.34975897105614,0 -79.88364275161277,37.35210623042272,0 -79.88419601465441,37.35407032395852,0 -79.88464551126641,37.35575786299823,0 -79.88499772191545,37.35766815562318,0 -79.88531483170831,37.35926973494979,0 -79.88594010711863,37.36124761489313,0 -79.88633657020081,37.36241893393441,0 -79.88648065152961,37.36353376211511,0 -79.8864213426308,37.3650825982098,0 -79.88624392989188,37.37013410552271,0 -79.88628212216592,37.37409947031282,0 -79.88639559863114,37.37497365686929,0 -79.88680973847561,37.37585271067665,0 -79.88750438517387,37.37662600078231,0 -79.88835778984993,37.3772528173397,0 -79.88932143476148,37.37776436199398,0 -79.89010416776742,37.37847442598515,0 -79.8907324142004,37.37935600641597,0 -79.89119249829406,37.37996990144338,0 -79.89186860914585,37.38064322755476,0 -79.89299841366937,37.38157886943767,0 -79.89457361764502,37.38289109918391,0 -79.89638663926037,37.38424637531146,0 -79.8981476858459,37.38531546107266,0 -79.9003835286962,37.38634780115343,0 -79.90252238171902,37.38730207521043,0 
			</coordinates>
		</LineString>
		<atom:link rel="app" href="https://www.google.com/earth/about/versions/#earth-pro" title="Google Earth Pro 7.3.6.10201"></atom:link>
	</Placemark>
</Document>
</kml>
