<?xml version="1.0" encoding="UTF-8"?>
<kml xmlns="http://www.opengis.net/kml/2.2" xmlns:gx="http://www.google.com/kml/ext/2.2" xmlns:kml="http://www.opengis.net/kml/2.2" xmlns:atom="http://www.w3.org/2005/Atom">
<Document>
	<name>US.281A.kml</name>
	<Placemark>
		<name>US.281A</name>
		<LineString>
			<tessellate>1</tessellate>
			<coordinates>
				-98.20058992470788,28.58021834933251,0 -98.20321445572674,28.57909829843965,0 -98.20602978135651,28.58369549697223,0 -98.20676076844629,28.58444916797955,0 -98.20760661549878,28.58520807452611,0 -98.21196866444525,28.58896013125498,0 -98.21250070031031,28.58934767340328,0 -98.21308973714312,28.589742066933,0 -98.2168030555201,28.59168426658618,0 -98.22206337788354,28.59446852592287,0 -98.22335703312629,28.59521854461916,0 -98.22460470004721,28.59606717845293,0 -98.2257742393202,28.59707760133023,0 -98.22693355056586,28.59817575455271,0 -98.23211053211271,28.60369033402975,0 -98.23959348648607,28.61171042310855,0 -98.24043671458097,28.61247548202793,0 -98.2415470327567,28.61340508395187,0 -98.24265655406721,28.61421159933404,0 -98.24363444966167,28.61486255893224,0 -98.24906907405958,28.61855108692697,0 -98.25512800585838,28.62262407725602,0 -98.26918962296729,28.63207477481441,0 -98.27771788577455,28.63774732823902,0 -98.28216300066236,28.64082080813913,0 -98.28299907678849,28.64160511516036,0 -98.28362045473033,28.64237982796281,0 -98.28415416044675,28.64340678466493,0 -98.28444193694331,28.64475072395535,0 -98.28479919797188,28.64745445072689,0 -98.28592545732613,28.65595289008035,0 -98.28653443880282,28.66038583223465,0 -98.28748756540112,28.667563626411,0 -98.28765034015684,28.66879363804386,0 -98.2878281232146,28.6695035796963,0 -98.29001318294902,28.67766640516366,0 -98.2913950536374,28.68284560388934,0 -98.29159650618817,28.68393606152515,0 -98.29177875646545,28.68529991723388,0 -98.29210534044637,28.69444577683759,0 -98.29225006102246,28.69775261209548,0 -98.29239948895604,28.70209579462772,0 -98.292545293773,28.70558637491613,0 -98.29265445767184,28.70713852438712,0 -98.29274066563865,28.70817150321522,0 -98.29305924066119,28.71034394105788,0 -98.29335950612982,28.7126572024556,0 -98.29368483612335,28.71533332815073,0 -98.294117107288,28.71863585032994,0 -98.29424960892322,28.71955013312006,0 -98.29445020991646,28.72050947185784,0 -98.29466800379613,28.7213764495927,0 -98.29542797716908,28.72378703982208,0 -98.29674713088338,28.72784132540547,0 -98.29799716682561,28.73178397531259,0 -98.29993715764346,28.73791870004096,0 -98.30036223303163,28.73907171235061,0 -98.30227917469902,28.74442357883033,0 -98.30288951434683,28.74614277085374,0 -98.30328933805538,28.74705738161255,0 -98.30369079731666,28.74774931933093,0 -98.30408101976084,28.74820555960399,0 -98.30473792127668,28.74881985173974,0 -98.30665450337304,28.75036493825047,0 -98.30772380613335,28.75127159551157,0 -98.30907208173258,28.75263648596619,0 -98.31059408899554,28.75446716488011,0 -98.31134431990928,28.7553575161376,0 -98.31227805582232,28.75678230894418,0 -98.31299856832908,28.75806564244487,0 -98.31333589234748,28.7588564895945,0 -98.31397469644126,28.76090508085698,0 -98.3142260216853,28.76234921560535,0 -98.3146418231489,28.77286179102554,0 -98.31496329915879,28.78046831990493,0 -98.31498354527315,28.78211894215567,0 -98.31510801090234,28.78312759808011,0 -98.31549390672494,28.78391148078601,0 -98.31600545679879,28.78437409835257,0 -98.31693814260494,28.78475394226934,0 -98.31920197812792,28.78538379771529,0 -98.32117681588196,28.78590191364905,0 -98.32284298385257,28.78657028981635,0 
			</coordinates>
		</LineString>
		<atom:link rel="app" href="https://www.google.com/earth/about/versions/#earth-pro" title="Google Earth Pro 7.3.6.10201"></atom:link>
	</Placemark>
</Document>
</kml>
