<?xml version="1.0" encoding="UTF-8"?>
<kml xmlns="http://www.opengis.net/kml/2.2" xmlns:gx="http://www.google.com/kml/ext/2.2" xmlns:kml="http://www.opengis.net/kml/2.2" xmlns:atom="http://www.w3.org/2005/Atom">
<Document>
	<name>US.27A.GA.kml</name>
	<Placemark>
		<name>US.27A.GA</name>
		<LineString>
			<coordinates>
				-84.97308734275754,32.50690487741707,0 -84.96824970399425,32.50689367897625,0 -84.96559370199593,32.50698208512851,0 -84.9544039821825,32.50673051843687,0 -84.94674899601341,32.50590261407804,0 -84.94557078889927,32.50578413540369,0 -84.94417941437436,32.50582867854978,0 -84.94314290521106,32.50600198962407,0 -84.93247259565405,32.50983204169096,0 -84.9306667728801,32.51053504481143,0 -84.9296047542193,32.51117911431646,0 -84.92533601140734,32.51373497724786,0 -84.92410915575067,32.51429810863919,0 -84.92268996767616,32.51455210858857,0 -84.92090336371743,32.51491593503436,0 -84.91952982968404,32.51537858640371,0 -84.91835799950692,32.51617612619362,0 -84.91606945159165,32.5178191064925,0 -84.91392206564426,32.51925236848798,0 -84.91219844678652,32.51992070515559,0 -84.90929491352745,32.520224628495,0 -84.90129619569943,32.52060099279708,0 -84.89658400006063,32.52084840860755,0 -84.8950290097963,32.52116248609507,0 -84.89363142755055,32.52164624256423,0 -84.89245909177019,32.52224580228107,0 -84.89131004118421,32.5230928560648,0 -84.89003299271884,32.5240795838687,0 -84.88425815491766,32.52890204861208,0 -84.87496576718542,32.53653971744634,0 -84.87388277705507,32.537614877926,0 -84.87299509755051,32.53871757814767,0 -84.87125960265023,32.54062525811398,0 -84.8692420476542,32.54286364414899,0 -84.86777115970519,32.54442496376606,0 -84.86720368274962,32.54493572706438,0 -84.86518634809856,32.54673937839534,0 -84.85974528150096,32.55133197304093,0 -84.85871032813185,32.55214862362153,0 -84.85796836528669,32.55261262516449,0 -84.85560826773141,32.55361175875512,0 -84.84499675104998,32.55764869531326,0 -84.84305377267651,32.55844120305959,0 -84.83783494048424,32.56046212214169,0 -84.8353677574132,32.56143847494722,0 -84.83418339623516,32.56192201003221,0 -84.83343057931148,32.56230806115566,0 -84.83265404704825,32.5628195236082,0 -84.8318738051678,32.56344067656599,0 -84.83102943080785,32.56430221242498,0 -84.82801608478027,32.56813257384571,0 -84.82647133970612,32.57011978667747,0 -84.82376180448608,32.57362045078072,0 -84.82164543485992,32.57630701307755,0 -84.82110459200501,32.57717857503823,0 -84.8206539902113,32.57817690932097,0 -84.82033593244317,32.57925974528155,0 -84.82027924772237,32.58023092439252,0 -84.82047191172273,32.58407122438027,0 -84.82110962362506,32.59490960262582,0 -84.82133391242733,32.60032994443227,0 -84.82129754432343,32.60214932669368,0 -84.8211556848012,32.60305217578443,0 -84.82069970839062,32.6042588321061,0 -84.820157726262,32.60536182090852,0 -84.81572875650183,32.61266919948612,0 -84.8122022523449,32.61858923936294,0 -84.81116891481689,32.61999122731824,0 -84.80990638609862,32.6215675585236,0 -84.80697708373074,32.6252753324882,0 -84.80278493398542,32.63029008419018,0 -84.80200901306107,32.6313063658374,0 -84.80157946643605,32.63179911241328,0 -84.80122472075648,32.63209799197269,0 -84.80076209841435,32.6324194774995,0 -84.7994474219545,32.63324018813538,0 -84.79865552044201,32.63368908373964,0 -84.79817725354174,32.63394730873968,0 -84.79763555927977,32.63418121113942,0 -84.79462944817431,32.63543606677676,0 -84.79353159335214,32.63588802224103,0 -84.79268513485989,32.63627830052082,0 -84.7922240315816,32.63659554247,0 -84.79094369481035,32.63754737484758,0 -84.79020897921323,32.63815287213973,0 -84.78654806968213,32.64135023852303,0 -84.78213002490929,32.64520699329734,0 -84.7814076650037,32.64595573241937,0 -84.78097790351404,32.64651091011466,0 -84.78066472242287,32.6470296700651,0 -84.78000048369472,32.64850466677314,0 -84.77882497028894,32.65108206358171,0 -84.77841029625834,32.65191003911988,0 -84.77810183886972,32.65247150649115,0 -84.77756363116971,32.65319944636705,0 -84.77685859274206,32.65383245204382,0 -84.77566141172765,32.65465560252008,0 -84.77262446558981,32.65669004403291,0 -84.77161418750718,32.65736226576568,0 -84.76859610300762,32.65933326867417,0 -84.76792326905175,32.65976681354838,0 -84.76524402051214,32.66154646775982,0 -84.7647528374563,32.66189813642654,0 -84.76425787046934,32.66231417851165,0 -84.76395386738392,32.66260664836095,0 -84.7635737058709,32.66307947676199,0 -84.7602328214202,32.66727174530845,0 -84.75921921930953,32.66841503588615,0 -84.75866903983179,32.66886514996266,0 -84.7580008333028,32.66923478560742,0 -84.7544829327651,32.67082081186081,0 -84.75073340386966,32.67247851812977,0 -84.75009130529588,32.67285232589388,0 -84.74960924248997,32.67320325519943,0 -84.74912203438365,32.67365729198006,0 -84.74839012393598,32.67448620757149,0 -84.74612896046317,32.67703021556039,0 -84.74528517999225,32.67789388064457,0 -84.74482329696484,32.67828867089103,0 -84.74405460983668,32.6788480195664,0 -84.74319019061508,32.67939453629512,0 -84.74125613714089,32.68077559971847,0 -84.74061703889843,32.68126005422135,0 -84.73976173599873,32.68198614659497,0 -84.73851134058118,32.68303012175788,0 -84.7363158299261,32.68493414886388,0 -84.73506084084387,32.68601638874315,0 -84.73470555325719,32.68642390061148,0 -84.73441494722992,32.68686269501975,0 -84.73414000315192,32.6875275076166,0 -84.73403187699139,32.68809033047736,0 -84.73407660342326,32.68874052505326,0 -84.7342627975472,32.69029105262013,0 -84.73429465592001,32.69085271941055,0 -84.73424366477904,32.69165121849903,0 -84.73391004946632,32.69318079419777,0 -84.73383852872266,32.6937377884481,0 -84.73382423329392,32.69430790265864,0 -84.73390073650124,32.69491095749775,0 -84.73407601606412,32.69556732140636,0 -84.73441271101953,32.69704634977005,0 -84.73555470405864,32.70165070087067,0 -84.73565596239109,32.70210580228277,0 -84.735742900491,32.70338717784271,0 -84.73585691440472,32.70685096227101,0 -84.73588162226872,32.70859736581698,0 -84.7357803272275,32.70925154436792,0 -84.73558663209565,32.70988968969688,0 -84.73516676351291,32.71075004864634,0 -84.73490089167584,32.71112573609948,0 -84.7320568120215,32.71490032279757,0 -84.73137066909696,32.71578769589123,0 -84.73091515340749,32.71617549449626,0 -84.7304175172499,32.71660722850851,0 -84.72950297483183,32.71725861977173,0 -84.72887583555102,32.71767179262631,0 -84.72635682516281,32.71944346494878,0 -84.72411958899113,32.72105657882593,0 -84.72360590747731,32.72158441272982,0 -84.72308426007287,32.72224121626844,0 -84.72271501721143,32.72282817793437,0 -84.72234556880113,32.72367293822649,0 -84.72036078417625,32.72830789049809,0 -84.72000270724942,32.72913308810332,0 -84.71959891377084,32.72968924705472,0 -84.71877818259362,32.73044015527503,0 -84.71800651266118,32.73101256432312,0 -84.71715937795682,32.73138501338823,0 -84.71492626982473,32.73218630264827,0 -84.7119532303329,32.73332956343526,0 -84.71111358626068,32.73371407692267,0 -84.71055463342323,32.73407129257143,0 -84.70997083509239,32.73456222422736,0 -84.7094372609654,32.73509953698971,0 -84.70885379631304,32.7358770927049,0 -84.70664832840531,32.73908969518412,0 -84.70527250495438,32.74103743989081,0 -84.70427477043985,32.7423154896087,0 -84.70342089646336,32.74313753222469,0 -84.70056076265517,32.74562170197333,0 -84.7001159337018,32.74619018422144,0 -84.69978533344691,32.74662318423798,0 -84.69957294211748,32.74720590443996,0 -84.6989574168748,32.74902064358284,0 -84.6986797027744,32.75011685888023,0 -84.69851292431441,32.75082287205176,0 -84.69845549486412,32.75147360596413,0 -84.69843519983137,32.75227489059967,0 -84.69848855629297,32.75408795687727,0 -84.69861988632124,32.75905114880636,0 -84.69862430457694,32.75990877824971,0 -84.69866936026904,32.7606210727597,0 -84.69908185952123,32.76322383695832,0 -84.69920170151939,32.76395868921548,0 -84.69919678691626,32.76460261202459,0 -84.69910218957615,32.76522572632442,0 -84.69883182365083,32.76594049067283,0 -84.69844315746325,32.7667955476443,0 -84.6971534843783,32.76941300890323,0 -84.69529534609119,32.77343235741604,0 -84.6947984885996,32.77451126773128,0 -84.69309211077304,32.77802699625136,0 -84.69272105890074,32.77864292213611,0 -84.69244109996801,32.77928425650929,0 -84.6923529477388,32.77990481144494,0 -84.69237197373525,32.78057343730067,0 -84.69254445004091,32.78141005622726,0 -84.69258640989148,32.78256801733221,0 -84.69272228158049,32.78442446741496,0 -84.6927425574803,32.78802756017154,0 -84.69273652656685,32.79180819447541,0 -84.69272742266016,32.7942220028839,0 -84.69271374956659,32.796202513518,0 -84.69279037516962,32.79698661070284,0 -84.69298150159423,32.79767787344834,0 -84.6933097426632,32.79855049026955,0 -84.69558450617163,32.80452130940193,0 -84.69580505100805,32.80543893941241,0 -84.69586151071185,32.80626869254056,0 -84.69592660163292,32.80706407309334,0 -84.69648999560472,32.80999903550438,0 -84.69851705460164,32.82054324989174,0 -84.69903946810959,32.82313769173484,0 -84.69914920821485,32.82488796503135,0 -84.69905286088327,32.82667215604965,0 -84.69822526009123,32.83310934575471,0 -84.69808002812421,32.83440231346155,0 -84.69785844816479,32.8354239401718,0 -84.6975465669918,32.83637520153497,0 -84.69569487772411,32.84041420363188,0 -84.69456739439923,32.84289783613362,0 -84.694402775532,32.84348136359988,0 -84.69436569455887,32.84410849417266,0 -84.6945208594172,32.84458067561572,0 -84.69478749354496,32.84500835980444,0 -84.69551865964671,32.84559495639485,0 -84.69630913997766,32.84612064453182,0 -84.69765199250089,32.84744747038224,0 -84.69877345297108,32.84861468622537,0 -84.69960352049499,32.84948663478539,0 -84.69989989468249,32.84986259648635,0 -84.70018300880173,32.85046481211089,0 -84.70029567459936,32.85094786144978,0 -84.70025195655192,32.85139940092886,0 -84.70012283892137,32.8520744629123,0 -84.699656980565,32.85350666771724,0 -84.69944174114593,32.85396136087577,0 -84.69916684643235,32.85452269023047,0 -84.69872738834793,32.85509179881287,0 -84.69823346041461,32.8555262632168,0 -84.69647404563136,32.85684593836764,0 -84.69573633044385,32.85744674319639,0 -84.68620110786414,32.86475099748784,0 -84.68374474810157,32.86651642824414,0 -84.68288964585291,32.86698336431797,0 -84.68164463985032,32.86760828091946,0 -84.68087970984197,32.86799066542799,0 -84.67900442356716,32.8689316667158,0 -84.67841820408449,32.86940558260234,0 -84.67788361497563,32.86997983014914,0 -84.67748826186012,32.87068758586858,0 -84.67728657712726,32.87140208665565,0 -84.67724023540502,32.87199768698284,0 -84.67727878044965,32.87253118756596,0 -84.67745387217097,32.87314078406016,0 -84.67800273939105,32.87444135062668,0 -84.67985719113761,32.87884674708448,0 -84.68017479637555,32.87964174037422,0 -84.68040540458047,32.88106213295123,0 -84.68084306610896,32.88434744995551,0 -84.68100609051777,32.88593144003699,0 -84.68103012388033,32.8880619107619,0 -84.6810238256554,32.88999424604734,0 -84.68104635902752,32.8902810344169,0 -84.68314251990174,32.89070267541736,0 -84.68698117059149,32.89148443384301,0 -84.68750308103317,32.89165825576879,0 -84.68800587472514,32.89192680839705,0 -84.6884623032078,32.89228464639216,0 -84.68901353599232,32.89281654900235,0 -84.68927521873447,32.89308036077213,0 -84.6900867167579,32.89475033727311,0 -84.69044543440189,32.89545993010176,0 -84.6923254385253,32.89876129525111,0 -84.69311180035912,32.90007147545313,0 -84.69457056913231,32.90228214014506,0 -84.69481016247811,32.90270656722078,0 -84.69492908000204,32.9031276479888,0 -84.69497583538035,32.90353847898856,0 -84.69503003393638,32.9037924118552,0 -84.69489319359086,32.90778026602379,0 -84.69484550285166,32.91282501559441,0 -84.69477415769006,32.91443103607761,0 -84.6947643071757,32.9146794542421,0 -84.69386240445942,32.91751919844976,0 -84.69348943956352,32.91867712642966,0 -84.69336324235402,32.91923022031014,0 -84.69334199696924,32.91965797486827,0 -84.69340765336764,32.92008339922575,0 -84.69373889643488,32.92112417946229,0 -84.69513603051109,32.92569689566215,0 -84.69547745835573,32.92659631350686,0 -84.69600918702982,32.9276050508088,0 -84.69623706713409,32.92812445453004,0 -84.69643379121334,32.92874582920484,0 -84.69661800669796,32.9299916218944,0 -84.69678396640822,32.93142525045647,0 -84.69695563473253,32.93192767139289,0 -84.6973507993487,32.93270561063659,0 -84.69882710852255,32.93524046956657,0 -84.69966705571103,32.93649556768769,0 -84.70193311305626,32.93982661100397,0 -84.70222243726164,32.94027450885746,0 -84.70241711259268,32.94082234235016,0 -84.7025154123677,32.94135465078629,0 -84.70254165227917,32.94192960589795,0 -84.70240148703411,32.9426640869907,0 -84.70228501238742,32.9432578310158,0 -84.702243760698,32.94389339692826,0 -84.70227460444052,32.94448088482199,0 -84.70316304622837,32.94968528586997,0 -84.70346726280728,32.95095569182106,0 -84.70373549490388,32.95196861960419,0 -84.70392824019132,32.95235240808224,0 -84.70421819223438,32.95279374110634,0 -84.70473119468254,32.95349889183055,0 -84.70506590741304,32.95395513353917,0 -84.70662078377114,32.95605981671613,0 -84.70728800300913,32.95714377972065,0 -84.70771074344665,32.95785469270523,0 -84.70802947667796,32.958398623931,0 -84.70822567476972,32.95886759122693,0 -84.70829859905577,32.95924541478995,0 -84.7085390713651,32.96079177903393,0 -84.70877521998339,32.96229222772326,0 -84.70930882541501,32.96433882266746,0 -84.70956996682015,32.96534679808224,0 -84.70992562717282,32.96666281574685,0 -84.71019196231748,32.9675871207133,0 -84.71048798264985,32.96816011794568,0 -84.71082537788602,32.96856826471001,0 -84.71118934343171,32.96893928900631,0 -84.71137015477977,32.96913083760571,0 -84.71148952896422,32.96937144896142,0 -84.71154265418319,32.96956962023974,0 -84.71165446944045,32.97001233856985,0 -84.71168035444582,32.97051514163438,0 -84.71165035552724,32.9714984437301,0 -84.71162241693122,32.97231242084518,0 -84.71150519455408,32.9733262212866,0 -84.71144896622994,32.9737405361589,0 -84.71111729174325,32.97633372414331,0 -84.71097532582208,32.97699847787479,0 -84.71060624339854,32.97824344050045,0 -84.71039682407772,32.97886838960265,0 -84.70912064713681,32.98300554945863,0 -84.70874672024736,32.98436357829413,0 -84.70849406989593,32.98484590315383,0 -84.7081300084689,32.98540010272522,0 -84.70765387390871,32.98597013684152,0 -84.70734090414444,32.98639702080663,0 -84.70710194196569,32.98689952332135,0 -84.70695219435322,32.9874367868354,0 -84.70691219270054,32.98790187524319,0 -84.70697014725104,32.98854439184404,0 -84.7073510238144,32.99055938693468,0 -84.70935397326647,33.00133727506351,0 -84.70962729644317,33.00277218225009,0 -84.70961035288994,33.00319218569177,0 -84.70956476702513,33.0049484784638,0 -84.7094296825618,33.00583518098996,0 -84.70929374084783,33.00667063789029,0 -84.70888491184759,33.00869684384449,0 -84.70877737450138,33.0093056875893,0 -84.70874798224348,33.00988838165694,0 -84.70874155247131,33.01032103370525,0 -84.70883827534938,33.01159236978118,0 -84.70920758467005,33.01382802908491,0 -84.71033547237913,33.02064985358485,0 -84.71068859484224,33.02277292662234,0 -84.71093723466707,33.02370597826555,0 -84.71245446541002,33.02826371693848,0 -84.71250942990605,33.02843271633438,0 -84.71257287921439,33.02855780885799,0 -84.71258929991681,33.02871497015568,0 -84.71260948487021,33.02889143208353,0 -84.71269812036189,33.02918417330097,0 -84.71278801485697,33.0294401675628,0 -84.71371321213338,33.03226706237657,0 -84.71396942114524,33.03332362588709,0 -84.71411333911477,33.0339333300731,0 -84.71415025845499,33.03462415379407,0 -84.7140184620679,33.03535588316034,0 -84.7137718038355,33.03634667356187,0 -84.71179759038195,33.04474797531427,0 -84.71106639010432,33.04799335630101,0 -84.71090813490316,33.04885822589989,0 -84.71089983064817,33.04988954160636,0 -84.71106858479529,33.05083327628402,0 -84.71126469815192,33.05172568510933,0 -84.71192150497778,33.05536918703927,0 -84.71287546678728,33.06040010326012,0 -84.71321793042182,33.06132601786914,0 -84.71360736554873,33.06221919737874,0 -84.71504327668433,33.06532109129513,0 -84.71600786407188,33.06726721530751,0 -84.71769666198652,33.0702261542345,0 -84.71799421055377,33.0707804007948,0 -84.7182204643731,33.0714560373731,0 -84.71833585294782,33.0720137948891,0 -84.71840647238444,33.07263172675913,0 -84.7184014122203,33.07394343097195,0 -84.71839909264247,33.07576052136783,0 -84.71839298613847,33.07651803858882,0 -84.71834669359812,33.08102751038874,0 -84.71836150493893,33.08265376699094,0 -84.71850273275794,33.08351998234918,0 -84.71878196586827,33.08437806220022,0 -84.71936204579605,33.08534546373301,0 -84.72140211349064,33.08769654640921,0 -84.72219969065671,33.08865634263339,0 -84.72264500505048,33.08945380712883,0 -84.72297899951255,33.09043805264375,0 -84.72310347123755,33.09140301621412,0 -84.72307313307658,33.09226589851451,0 -84.72304266771889,33.09316749961563,0 -84.72298716270478,33.09736789829913,0 -84.72303863517476,33.09803608799757,0 -84.72316983573808,33.09869634434572,0 -84.72337109307011,33.09923425970057,0 -84.72448548020894,33.102104793839,0 -84.72488695049842,33.10322615044176,0 -84.72512590912233,33.10387126609373,0 -84.7252365543788,33.10466980528148,0 -84.72535823550274,33.10646554251154,0 -84.72568473522948,33.110827461147,0 -84.72588680585122,33.11242724525907,0 -84.72604248088855,33.1137004789766,0 -84.72615657098285,33.11480973212682,0 -84.72644414456623,33.11579556381253,0 -84.72702613037529,33.11756598926974,0 -84.72778780101355,33.11984304687287,0 -84.7279432316365,33.12049787033471,0 -84.72813217008783,33.12244742321209,0 -84.72812396587554,33.12303511881717,0 -84.72806800808894,33.12365926593506,0 -84.7279305617507,33.1242341156325,0 -84.72760335732566,33.12549729746627,0 -84.72727456135631,33.12667420853465,0 -84.72712534807793,33.12715313265016,0 -84.72614009840301,33.1297735179385,0 -84.72580282641003,33.13099270723438,0 -84.72562971699725,33.13179642835481,0 -84.72521339910475,33.13360120481858,0 -84.72515244998517,33.13442592135289,0 -84.72523327511196,33.13535799964937,0 -84.72557502509284,33.13658356319494,0 -84.72606308595515,33.13802981294779,0 -84.72657190472627,33.13882541016669,0 -84.72723715932483,33.13961688995742,0 -84.72906446007173,33.14163038753728,0 -84.73006017967336,33.14283338112234,0 -84.73103582221984,33.14446440842389,0 -84.73207156213475,33.1458580643604,0 -84.73312431211296,33.1473592787761,0 -84.73335262127037,33.14774515583304,0 -84.73362654720994,33.1483469840632,0 -84.7338156494814,33.14906719886201,0 -84.73389452220617,33.14984731843909,0 -84.73393975362434,33.15097390736999,0 -84.73407775718401,33.15417401469561,0 -84.73424231299489,33.15765848271045,0 -84.73432436721961,33.15820169264704,0 -84.73447329111178,33.15879569204115,0 -84.73467034148044,33.15932126204503,0 -84.73490450775468,33.15988334800488,0 -84.73612219791991,33.1627958321921,0 -84.73653171826385,33.16382958440143,0 -84.73670573600423,33.16458810740303,0 -84.736729444658,33.16530884780681,0 -84.73664514041977,33.16600335704544,0 -84.7361224339846,33.1689529010815,0 -84.73515237405813,33.17437653850137,0 -84.73439488050288,33.17995047668287,0 -84.73427917614679,33.18103236894382,0 -84.73431609739671,33.18164642389767,0 -84.73441511213321,33.18221582672509,0 -84.73452037361648,33.18268132002755,0 -84.73471515272024,33.18307161825755,0 -84.73491157741944,33.18360220051665,0 -84.7360872029694,33.18544447421687,0 -84.73799476443804,33.18841762548283,0 -84.74004641528443,33.19209258577302,0 -84.74075801663774,33.19343830036326,0 -84.74122432121639,33.19449341796308,0 -84.74157397606619,33.19558085964013,0 -84.74195208465343,33.19728036096142,0 -84.74241761197217,33.20080051327349,0 -84.74262162310293,33.20192086322507,0 -84.74284996722304,33.20298509388486,0 -84.74309593739655,33.20393456680972,0 -84.74561601457539,33.21381865544421,0 -84.74723200728243,33.22080957797937,0 -84.74777382961005,33.22330325283073,0 -84.7480908137361,33.22458648347781,0 -84.75083835872225,33.23325429447934,0 -84.7540399934864,33.2436474281472,0 -84.75432603869218,33.24484187231349,0 -84.75514211387149,33.24666999976976,0 -84.75582173316883,33.2488417762464,0 -84.75673086167465,33.25199530349217,0 -84.76076155034251,33.2649547053371,0 -84.76377262416503,33.27460167119727,0 -84.76507613611388,33.27844079599145,0 -84.76526439962055,33.27868987819541,0 -84.7653243510774,33.27880224712624,0 -84.76533576869926,33.27891135284982,0 -84.76531117923912,33.27898805345976,0 -84.76531264457822,33.27904624187043,0 -84.76534051935603,33.27913677564278,0 -84.76538162077988,33.27924895583778,0 -84.76544806062907,33.27955720932687,0 -84.7655631743982,33.27992328315017,0 -84.76578659741376,33.2806613868858,0 -84.76655912944521,33.28317840184562,0 -84.7671851446576,33.28514667543345,0 -84.76802389242637,33.28778087103257,0 -84.76856255659281,33.28945606600821,0 -84.76881751036811,33.29018785404298,0 -84.77007464711022,33.29387560441669,0 -84.77047877733472,33.29516505099426,0 -84.77073241625796,33.29593865946062,0 -84.77148605169766,33.29807473043433,0 -84.7722654560903,33.30003164771527,0 -84.77365315013679,33.30351822424981,0 -84.77453366606635,33.30578617650384,0 -84.77724295803466,33.31258657236057,0 -84.77745458381976,33.31320677018019,0 -84.77755303976522,33.31353673844816,0 -84.77759486653983,33.31387970368273,0 -84.77764315001191,33.31426496475913,0 -84.77764348681893,33.31467192345072,0 -84.77759445496316,33.31511520129501,0 -84.77747538360913,33.31564978678318,0 -84.77708708786388,33.31705852544707,0 -84.77664129897659,33.31861513570242,0 -84.77648370177839,33.31917474733743,0 -84.77636053202895,33.31987042206052,0 -84.77633638107702,33.32039118891773,0 -84.77638242189288,33.32080243580193,0 -84.77663888601786,33.32172311928154,0 -84.77731170992898,33.32325611434128,0 -84.77813859551,33.3247735553099,0 -84.78153284470918,33.33092348247515,0 -84.78238908695216,33.3324840601483,0 -84.78257368750823,33.33287637604722,0 -84.78273499434744,33.33344442657042,0 -84.78410488048979,33.33783887157797,0 -84.78469149463849,33.33974626524586,0 -84.78570697179066,33.34251211342387,0 -84.78655961402835,33.34446671239336,0 -84.79011044350986,33.35247595653886,0 -84.79041463065047,33.35320270340982,0 -84.79055659448092,33.35390566655234,0 -84.79065346578503,33.35467902820503,0 -84.79104081588225,33.35850760215792,0 -84.79107576199807,33.3589211436149,0 -84.79125381176291,33.35935686932483,0 -84.79173550835847,33.36018074140019,0 -84.79283520008158,33.36199733628798,0 -84.7930317815254,33.36227097294948,0 -84.79325617294576,33.36252267930367,0 -84.79349529292159,33.36271982178432,0 -84.79514191597404,33.36426054694974,0 -84.79817240010379,33.36707593749661,0 -84.79852208276029,33.36740330480519,0 -84.79862666416822,33.36752770157516,0 -84.79867250378007,33.36768440561382,0 -84.79911099280561,33.36950700089869,0 -84.79977367238961,33.37211872200439,0 -84.79983950969371,33.37235082974536,0 -84.79980731628079,33.37276774168256,0 -84.79969081502063,33.37372278097424,0 -84.79939071556146,33.37608281051435,0 -84.79894929009852,33.37951071497987,0 -84.79883846863974,33.38047060371781,0 -84.80221280204445,33.38043688157067,0 -84.80449892122499,33.38037909751048,0 -84.80547442600218,33.38036173305061,0 -84.80640933707107,33.38038251201156,0 -84.8076777754948,33.38039976714362,0 -84.80856382023701,33.38058743438371,0 -84.80922891476177,33.38075108230463,0 -84.8109597893809,33.38118445919715,0 -84.81158148404596,33.38139596167959,0 -84.81208032176343,33.38165794640285,0 -84.81362627498481,33.38281160142439,0 -84.81630314652104,33.38487589068996,0 -84.81809211917361,33.3860757550089,0 -84.81947123596407,33.38695445472128,0 -84.8199694619309,33.38731270849317,0 -84.82039513628537,33.3877183997085,0 -84.82082563078903,33.38820858751951,0 -84.82295993242934,33.39102066002411,0 -84.83170597678854,33.40261552080628,0 -84.83265125023119,33.40398290242944,0 -84.83312850934659,33.40447833586601,0 -84.83360315453369,33.4048618475522,0 -84.83434966190018,33.40535536778233,0 -84.83864154944273,33.40797049533648,0 -84.84117824824639,33.40975995257364,0 -84.84179199815597,33.41027518554275,0 -84.8426653386737,33.41121333390888,0 -84.84360916354022,33.41235045743316,0 -84.84427342222418,33.41306650552568,0 -84.84501520416788,33.41369612464149,0 -84.84579168314262,33.41426567206999,0 -84.84652036972712,33.41473652284336,0 -84.8472626815382,33.41520364630126,0 -84.84799522603605,33.41547860067463,0 -84.84911497556384,33.41577879723982,0 -84.85002709539121,33.41608197821135,0 -84.85054860023629,33.41635681617146,0 -84.85115657061019,33.41673226300432,0 -84.85189975856228,33.41740169219673,0 -84.85425805086051,33.41969998493683,0 -84.85495680075397,33.4204734643989,0 -84.85608712341286,33.42181282906985,0 -84.8578215967222,33.42387498045723,0 -84.85984449061141,33.42626879843618,0 -84.86232905065069,33.42926081830823,0 -84.86275308689618,33.42970643370078,0 -84.86312037927847,33.43004846994011,0 -84.86366579043248,33.43044798007126,0 -84.86534101912989,33.43147660489059,0 -84.86623429988965,33.43199315018182,0 -84.87206190922289,33.43569539405399,0 -84.87268529254055,33.43622108505,0 -84.87339246642919,33.43687376979625,0 -84.87379541255648,33.43730844722126,0 -84.87445704300372,33.43805913528382,0 -84.87485466663126,33.4385923448561,0 -84.875296614166,33.43922338712508,0 -84.87610118474169,33.44036093721805,0 -84.87960023145617,33.44535131565624,0 -84.88365891347435,33.45124691391296,0 -84.88581338956686,33.4542213772937,0 -84.89120577344657,33.46187327581249,0 -84.89767602123935,33.47103781980618,0 -84.89966368030031,33.4739204381888,0 -84.90195574418122,33.47804268544749,0 -84.90437289003941,33.48272300641483,0 -84.90500599484136,33.48377192712025,0 -84.90569204244068,33.48473055553787,0 -84.90669484411715,33.48580082422991,0 -84.90842243216227,33.48736069421653,0 -84.91079933728506,33.48949326062047,0 -84.91126003310619,33.49004034467335,0 -84.9118212063976,33.4907028957731,0 -84.91226632551636,33.49141154032134,0 -84.91381065816552,33.49381294367547,0 -84.91471699494299,33.49516874454211,0 -84.91534077821163,33.49623905581529,0 -84.91607734827311,33.49706242773696,0 -84.91700469120913,33.49811953743257,0 -84.91757529967931,33.498709030695,0 -84.92042776699783,33.50178289426067,0 -84.92117856123384,33.50256544759907,0 -84.92228701831591,33.5036462409056,0 -84.92313145820434,33.50436140122829,0 -84.92392483080944,33.50495823655481,0 -84.92456853986623,33.50536044107301,0 -84.92637506485848,33.50633566404025,0 -84.92732373100549,33.50689717987568,0 -84.928207990793,33.50755484136803,0 -84.92885869956234,33.50821043939778,0 -84.92944305255779,33.50889774193894,0 -84.93001853334877,33.50979902894009,0 -84.93042532627629,33.51060259996663,0 -84.93100180770263,33.51187610910065,0 -84.93172301722535,33.51326621697696,0 -84.93224699025608,33.51399634280374,0 -84.93288820467919,33.51467047268859,0 -84.93374816714856,33.51532284504975,0 -84.93472421903995,33.51586078453,0 -84.93545187566801,33.5161244561769,0 -84.94758011124684,33.51918460599555,0 -84.95366309594233,33.52066752597934,0 -84.95775007812725,33.52163053674164,0 -84.96482136104629,33.52292522909584,0 -84.96815208276908,33.52349134111746,0 -84.96983774665468,33.52390793425833,0 -84.97377579987936,33.52487791130039,0 -84.97808782931878,33.52614077123398,0 -84.9810917580281,33.52699651789148,0 -84.98401779410641,33.52786071678177,0 -84.9903156776225,33.52969481670657,0 -84.99321491799998,33.53063782670571,0 -84.99517579565686,33.53116025111382,0 -84.99690363228643,33.53144020266912,0 -84.99842702477019,33.53145694875029,0 -84.9998321897578,33.53134148606711,0 -85.00121312692431,33.53109841831304,0 -85.00267567473803,33.53078765575145,0 -85.0039867039028,33.53069342745437,0 -85.0052013187568,33.53084234278415,0 -85.00787811599611,33.53154445046763,0 -85.00933502517786,33.53202741934351,0 -85.01014246918574,33.53238329983797,0 -85.0108201590169,33.53279522419538,0 -85.01143905487348,33.53326172014472,0 -85.01374777859682,33.53537780921576,0 -85.02704009577927,33.54829474125447,0 -85.02993288699324,33.55112147794759,0 -85.04075168373774,33.56154579816173,0 -85.04400202888048,33.56472413324354,0 -85.04711360736228,33.56774847074728,0 -85.04845456152289,33.56903966765628,0 -85.0487748736338,33.56934816655781,0 -85.05053469200341,33.56804927086523,0 -85.05227751902183,33.56658060527974,0 -85.05638832927872,33.56259920339658,0 -85.05763479668227,33.56141498495276,0 -85.05850818681037,33.56067410795816,0 -85.05981580438869,33.559754998347,0 -85.06141010757608,33.55899274095876,0 -85.06299413533993,33.55841771246158,0 -85.06494711572074,33.55793708590134,0 -85.0666953059294,33.55779765010426,0 -85.06969318392456,33.55773703177458,0 -85.07307707203637,33.557637571289,0 
			</coordinates>
		</LineString>
		<atom:link rel="app" href="https://www.google.com/earth/about/versions/#earth-pro" title="Google Earth Pro 7.3.6.10201"></atom:link>
	</Placemark>
</Document>
</kml>
