<?xml version="1.0" encoding="UTF-8"?>
<kml xmlns="http://www.opengis.net/kml/2.2" xmlns:gx="http://www.google.com/kml/ext/2.2" xmlns:kml="http://www.opengis.net/kml/2.2" xmlns:atom="http://www.w3.org/2005/Atom">
<Document>
	<name>US.2A.kml</name>
	<Placemark>
		<name>US.2A</name>
		<LineString>
			<coordinates>
				-68.2599877,45.6322999,0 -68.2598722,45.63242610000001,0 -68.2596661,45.6326611,0 -68.2593913,45.6329915,0 -68.259156,45.633233,0 -68.256564,45.636246,0 -68.25539499999999,45.637611,0 -68.25492,45.638067,0 -68.25463999999999,45.63829699999999,0 -68.254403,45.638477,0 -68.254216,45.638606,0 -68.253924,45.638786,0 -68.253224,45.63915899999999,0 -68.2529114,45.6393252,0 -68.2526254,45.63946669999999,0 -68.252505,45.639526,0 -68.252377,45.639587,0 -68.251924,45.639812,0 -68.25158500000001,45.63997000000001,0 -68.250935,45.640293,0 -68.249973,45.64078600000001,0 -68.249088,45.641231,0 -68.248017,45.641769,0 -68.247685,45.641917,0 -68.247353,45.642054,0 -68.247016,45.642183,0 -68.246672,45.642303,0 -68.246324,45.642418,0 -68.24597799999999,45.642527,0 -68.24562400000001,45.642628,0 -68.24460000000001,45.64295299999999,0 -68.24400900000001,45.643138,0 -68.243741,45.64322000000001,0 -68.24307,45.643415,0 -68.24272000000001,45.64351,0 -68.242368,45.643596,0 -68.242013,45.643671,0 -68.24165499999999,45.643741,0 -68.241298,45.64380500000001,0 -68.240945,45.643861,0 -68.24023699999999,45.643982,0 -68.237623,45.64444200000001,0 -68.234987,45.644905,0 -68.23474400000001,45.644958,0 -68.23446,45.645012,0 -68.234178,45.645071,0 -68.23372000000001,45.645157,0 -68.233368,45.645229,0 -68.233019,45.645315,0 -68.232671,45.64541500000001,0 -68.23233,45.64552999999999,0 -68.231998,45.645657,0 -68.231667,45.645798,0 -68.23133799999999,45.645955,0 -68.231013,45.646128,0 -68.230763,45.64627699999999,0 -68.23052300000001,45.646432,0 -68.230287,45.64660099999999,0 -68.23005999999999,45.646778,0 -68.22984,45.646964,0 -68.229632,45.647161,0 -68.22942999999999,45.64737100000001,0 -68.229197,45.647646,0 -68.22876599999999,45.648228,0 -68.228561,45.64851900000001,0 -68.228341,45.648803,0 -68.22809700000001,45.649076,0 -68.22784900000001,45.649341,0 -68.227587,45.649594,0 -68.227317,45.64983699999999,0 -68.226485,45.650544,0 -68.225522,45.651345,0 -68.225241,45.651599,0 -68.222641,45.653779,0 -68.222579,45.65382899999999,0 -68.222414,45.653943,0 -68.222165,45.65418,0 -68.21856699999999,45.6572,0 -68.218006,45.657666,0 -68.217449,45.658113,0 -68.216573,45.65876600000001,0 -68.215688,45.659408,0 -68.21538700000001,45.659622,0 -68.215208,45.659756,0 -68.214675,45.660137,0 -68.214381,45.660358,0 -68.214097,45.660588,0 -68.21355800000001,45.661058,0 -68.213278,45.66133200000001,0 -68.213111,45.661509,0 -68.213009,45.661591,0 -68.212844,45.66179799999999,0 -68.21237499999999,45.662325,0 -68.21175700000001,45.663052,0 -68.211519,45.663324,0 -68.211055,45.66387,0 -68.21058600000001,45.66441,0 -68.21036100000001,45.664687,0 -68.210112,45.664961,0 -68.209602,45.665533,0 -68.209383,45.665773,0 -68.209132,45.666038,0 -68.20808,45.66705,0 -68.205991,45.668981,0 -68.204396,45.670467,0 -68.204297,45.67057,0 -68.20400600000001,45.670848,0 -68.203796,45.671057,0 -68.20357300000001,45.671239,0 -68.20335300000001,45.67142999999999,0 -68.203172,45.671579,0 -68.20286950000001,45.6717669,0 -68.202557,45.672002,0 -68.202264,45.67219,0 -68.201651,45.672572,0 -68.200399,45.673324,0 -68.20032399999999,45.67337,0 -68.198543,45.67445500000001,0 -68.1969138,45.6754369,0 -68.196673,45.675582,0 -68.196358,45.67577299999999,0 -68.19605199999999,45.675967,0 -68.195452,45.676368,0 -68.194855,45.676789,0 -68.188447,45.681551,0 -68.18584,45.683486,0 -68.185605,45.683646,0 -68.185419,45.683795,0 -68.183092,45.685497,0 -68.182913,45.68562,0 -68.182762,45.685739,0 -68.1825,45.685927,0 -68.18221800000001,45.68614100000001,0 -68.181623,45.686557,0 -68.181048,45.686983,0 -68.180447,45.68740200000001,0 -68.17956100000001,45.68805600000001,0 -68.178966,45.68851200000001,0 -68.178709,45.688735,0 -68.178628,45.688796,0 -68.178383,45.689025,0 -68.17812600000001,45.689275,0 -68.17710599999999,45.690308,0 -68.175653,45.691788,0 -68.175504,45.691976,0 -68.175273,45.692187,0 -68.173762,45.69369600000001,0 -68.17177700000001,45.69568699999999,0 -68.171649,45.695804,0 -68.17153399999999,45.695933,0 -68.171271,45.69617599999999,0 -68.171029,45.696423,0 -68.17027,45.697177,0 -68.16873200000001,45.698727,0 -68.167948,45.69949200000001,0 -68.167419,45.69999199999999,0 -68.166769,45.70059299999999,0 -68.166623,45.70072800000001,0 -68.165167,45.702095,0 -68.16510700000001,45.702156,0 -68.164963,45.702276,0 -68.164801,45.702444,0 -68.16404199999999,45.703191,0 -68.161975,45.705191,0 -68.160939,45.70621,0 -68.15997299999999,45.70715400000001,0 -68.15983199999999,45.70728,0 -68.15957299999999,45.707532,0 -68.15929199999999,45.707763,0 -68.158998,45.707967,0 -68.158689,45.708142,0 -68.15836899999999,45.708301,0 -68.158028,45.708458,0 -68.157938,45.708498,0 -68.157687,45.708608,0 -68.157364,45.708765,0 -68.157049,45.708949,0 -68.15675400000001,45.709166,0 -68.156486,45.709419,0 -68.156263,45.70969999999999,0 -68.156068,45.710012,0 -68.155911,45.710306,0 -68.15585400000001,45.710458,0 -68.155607,45.711058,0 -68.155205,45.712078,0 -68.155079,45.712416,0 -68.15468,45.713422,0 -68.154533,45.713758,0 -68.154364,45.71408,0 -68.154152,45.714371,0 -68.153903,45.714632,0 -68.153615,45.714866,0 -68.15342699999999,45.715005,0 -68.153265,45.71510899999999,0 -68.153082,45.71522699999999,0 -68.15279200000001,45.71543400000001,0 -68.15191299999999,45.716028,0 -68.151307,45.716446,0 -68.150707,45.71685,0 -68.150116,45.71725699999999,0 -68.149827,45.71747500000001,0 -68.14954899999999,45.71770799999999,0 -68.149286,45.717958,0 -68.149038,45.718222,0 -68.148725,45.718582,0 -68.14836200000001,45.719001,0 -68.14821999999999,45.719141,0 -68.147814,45.71960599999999,0 -68.14767500000001,45.71977,0 -68.146489,45.721118,0 -68.14623899999999,45.72141,0 -68.145775,45.72193900000001,0 -68.145313,45.722482,0 -68.14460099999999,45.723302,0 -68.143778,45.72425999999999,0 -68.143579,45.724476,0 -68.142841,45.725323,0 -68.14261399999999,45.725597,0 -68.14214699999999,45.726128,0 -68.14190499999999,45.726412,0 -68.140959,45.727506,0 -68.140727,45.72776600000001,0 -68.14063299999999,45.727892,0 -68.140136,45.728454,0 -68.139427,45.72927700000001,0 -68.13850499999999,45.730387,0 -68.1372022,45.732029,0 -68.136807,45.732527,0 -68.13676100000001,45.732591,0 -68.136607,45.73281,0 -68.135698,45.733952,0 -68.133867,45.736219,0 -68.133413,45.736786,0 -68.13317499999999,45.73706200000001,0 -68.132942,45.737341,0 -68.13271899999999,45.737624,0 -68.13247699999999,45.73790199999999,0 -68.13136799999999,45.739287,0 -68.130667,45.740163,0 -68.130003,45.74103099999999,0 -68.12979900000001,45.741325,0 -68.128951,45.742505,0 -68.128106,45.743683,0 -68.12746199999999,45.744562,0 -68.126706,45.745541,0 -68.126625,45.745633,0 -68.12655100000001,45.745738,0 -68.12384,45.74917599999999,0 -68.123165,45.750036,0 -68.121582,45.75203400000001,0 -68.121135,45.752605,0 -68.120233,45.753744,0 -68.12006529999999,45.7539577,0 -68.11991999999999,45.75414299999999,0 -68.119828,45.75424999999999,0 -68.119435,45.75475600000001,0 -68.11875499999999,45.755612,0 -68.118521,45.75589600000001,0 -68.118302,45.756186,0 -68.11694300000001,45.757902,0 -68.11671,45.75818699999999,0 -68.1162643,45.7587527,0 -68.115313,45.75995899999999,0 -68.115213,45.760079,0 -68.115004,45.760341,0 -68.114823,45.760556,0 -68.113467,45.762254,0 -68.110456,45.76586300000001,0 -68.11000199999999,45.766407,0 -68.109815,45.766625,0 -68.10961399999999,45.76683499999999,0 -68.109404,45.767031,0 -68.109179,45.76721,0 -68.10894500000001,45.76737599999999,0 -68.108692,45.767525,0 -68.10844,45.767661,0 -68.108052,45.767855,0 -68.105932,45.768847,0 -68.104899,45.769339,0 -68.103916,45.769792,0 -68.10194300000001,45.770726,0 -68.10096299999999,45.77118100000001,0 -68.100202,45.771546,0 -68.099129,45.77204,0 -68.096485,45.77323100000001,0 -68.09536970000001,45.7737286,0 -68.092491,45.775013,0 -68.087526,45.77723799999999,0 -68.084889,45.778434,0 -68.083901,45.77889,0 -68.082915,45.779353,0 -68.081923,45.77980700000001,0 -68.07863500000001,45.78132599999999,0 -68.076337,45.782378,0 -68.076075,45.782508,0 -68.075788,45.782643,0 -68.07461000000001,45.78318599999999,0 -68.073624,45.783647,0 -68.069703,45.78546599999999,0 -68.068718,45.78591899999999,0 -68.068318,45.78609199999999,0 -68.067897,45.786287,0 -68.067515,45.786451,0 -68.066968,45.786685,0 -68.06630199999999,45.78696,0 -68.065882,45.78712300000001,0 -68.06563300000001,45.787235,0 -68.064831,45.787555,0 -68.06446800000001,45.787693,0 -68.06348199999999,45.78806999999999,0 -68.063138,45.788185,0 -68.0629113,45.78826709999999,0 -68.06267699999999,45.788352,0 -68.062129,45.78855,0 -68.06055000000001,45.789108,0 -68.058542,45.789813,0 -68.055441,45.79090300000001,0 -68.0527036,45.7918554,0 -68.05235999999999,45.791975,0 -68.04997299999999,45.792814,0 -68.04656799999999,45.794013,0 -68.045542,45.79437,0 -68.044478,45.794757,0 -68.044309,45.79480899999999,0 -68.044248,45.79483400000001,0 -68.04390600000001,45.79495500000001,0 -68.04323100000001,45.79522100000001,0 -68.04289900000001,45.795362,0 -68.04256700000001,45.79551000000001,0 -68.041911,45.795816,0 -68.04126599999999,45.79614200000001,0 -68.040947,45.79631200000001,0 -68.040627,45.79648999999999,0 -68.04000600000001,45.796855,0 -68.03907700000001,45.79741400000001,0 -68.038146,45.79796600000001,0 -68.036297,45.79907799999999,0 -68.03442099999999,45.800193,0 -68.033822,45.800554,0 -68.033332,45.800854,0 -68.032591,45.801308,0 -68.03228799999999,45.80150700000001,0 -68.031959,45.80173200000001,0 -68.03172499999999,45.801874,0 -68.03112,45.80226999999999,0 -68.030221,45.802871,0 -68.028424,45.80408400000001,0 -68.02663099999999,45.805305,0 -68.025718,45.805911,0 -68.02569750000001,45.8059244,0 -68.025299,45.80618500000001,0 -68.02498900000001,45.806365,0 -68.024677,45.80655299999999,0 -68.02345200000001,45.807261,0 -68.02317499999999,45.807413,0 -68.022786,45.807626,0 -68.022468,45.807809,0 -68.02120499999999,45.808521,0 -68.020905,45.808714,0 -68.02052399999999,45.808926,0 -68.019451,45.80954,0 -68.01913500000001,45.809717,0 -68.017236,45.810799,0 -68.01626400000001,45.811354,0 -68.01279700000001,45.81335499999999,0 -68.012208,45.813697,0 -68.009998,45.81497900000001,0 -68.009393,45.815305,0 -68.00926800000001,45.81537099999999,0 -68.009122,45.81545,0 -68.00868,45.81570599999999,0 -68.008371,45.81589,0 -68.007744,45.816254,0 -68.006803,45.816793,0 -68.005549,45.817514,0 -68.003978,45.81840700000001,0 -68.002729,45.819128,0 -68.000861,45.82024,0 -68.000739,45.820317,0 -68.000289,45.820586,0 -68.000135,45.820689,0 -68.000028,45.820761,0 -67.99966499999999,45.820974,0 -67.99861,45.82160999999999,0 -67.99765600000001,45.822189,0 -67.994911,45.82385200000001,0 -67.994782,45.823922,0 -67.99429600000001,45.82421500000001,0 -67.993968,45.82441699999999,0 -67.993427,45.824736,0 -67.993134,45.824899,0 -67.992634,45.825196,0 -67.992322,45.82537599999999,0 -67.99169500000001,45.825729,0 -67.99105900000001,45.82607700000001,0 -67.990739,45.826246,0 -67.990101,45.826594,0 -67.989486,45.82694699999999,0 -67.98832299999999,45.827581,0 -67.988088,45.827723,0 -67.9878059,45.827894,0 -67.98748399999999,45.828153,0 -67.987253,45.82834100000001,0 -67.986983,45.828587,0 -67.986881,45.82868899999999,0 -67.986639,45.828957,0 -67.986459,45.82917900000001,0 -67.986299,45.829408,0 -67.9861188,45.8297016,0 -67.986024,45.829856,0 -67.98593049999999,45.8300049,0 -67.9855134,45.8307161,0 -67.985401,45.83094500000001,0 -67.985235,45.831268,0 -67.98518,45.83140100000001,0 -67.985131,45.831536,0 -67.985055,45.831809,0 -67.985035,45.83191,0 -67.985005,45.832128,0 -67.98497399999999,45.832295,0 -67.98496400000001,45.832608,0 -67.98498499999999,45.832858,0 -67.985022,45.83309300000001,0 -67.985151,45.833448,0 -67.98523900000001,45.83366,0 -67.985337,45.833862,0 -67.985449,45.83405200000001,0 -67.985568,45.834236,0 -67.9864,45.835459,0 -67.98658,45.835735,0 -67.987193,45.836647,0 -67.987399,45.836944,0 -67.988589,45.838718,0 -67.98884,45.83905099999999,0 -67.990229,45.8411,0 -67.9903656,45.8412849,0 -67.990396,45.8413295,0 -67.991692,45.843235,0 -67.992424,45.844308,0 -67.992918,45.845032,0 -67.993381,45.84574599999999,0 -67.99342300000001,45.845822,0 -67.993544,45.84608,0 -67.993629,45.846326,0 -67.993683,45.846462,0 -67.99390699999999,45.84708,0 -67.994073,45.84755899999999,0 -67.994523,45.848809,0 -67.994584,45.848957,0 -67.99463799999999,45.849107,0 -67.99479100000001,45.84946,0 -67.99486,45.849592,0 -67.994935,45.84971900000001,0 -67.995059,45.849899,0 -67.99519600000001,45.850071,0 -67.995296,45.850181,0 -67.995561,45.850441,0 -67.99584900000001,45.850673,0 -67.99614200000001,45.850882,0 -67.996444,45.85107300000001,0 -67.996756,45.85126,0 -67.997801,45.851872,0 -67.99796499999999,45.851959,0 -67.99832600000001,45.85217,0 -67.998574,45.852304,0 -67.999234,45.852695,0 -67.99985700000001,45.853071,0 -68.00048099999999,45.853445,0 -68.00090899999999,45.85370999999999,0 -68.001088,45.853833,0 -68.001211,45.853912,0 -68.001496,45.854135,0 -68.001661,45.854277,0 -68.00182100000001,45.854424,0 -68.001977,45.854578,0 -68.002077,45.854684,0 -68.002269,45.854904,0 -68.00249599999999,45.855189,0 -68.00306399999999,45.85593799999999,0 -68.003361,45.856344,0 -68.00362,45.856681,0 -68.00369999999999,45.856797,0 -68.003845,45.857039,0 -68.00387600000001,45.8571,0 -68.00391,45.857167,0 -68.00399,45.857363,0 -68.00403300000001,45.857498,0 -68.004034,45.857505,0 -68.004062,45.85763600000001,0 -68.004091,45.857827,0 -68.004114,45.858069,0 -68.004127,45.858444,0 -68.00421230000001,45.85984849999999,0 -68.004239,45.86062500000001,0 -68.004335,45.862377,0 -68.004345,45.862639,0 -68.0044005,45.8635587,0 -68.00441600000001,45.863816,0 -68.004453,45.86428099999999,0 -68.00457900000001,45.86585199999999,0 -68.004797,45.868866,0 -68.004884,45.870017,0 -68.005022,45.87206399999999,0 -68.005118,45.873348,0 -68.005239,45.874799,0 -68.005346,45.876178,0 -68.00536700000001,45.876471,0 -68.005467,45.877742,0 -68.00550800000001,45.87855,0 -68.00567100000001,45.880636,0 -68.00573199999999,45.881608,0 -68.005804,45.882438,0 -68.00586699999999,45.883432,0 -68.005877,45.88399999999999,0 -68.00585599999999,45.884286,0 -68.005832,45.884525,0 -68.005787,45.88488699999999,0 -68.00552399999999,45.886717,0 -68.005492,45.886995,0 -68.005233,45.88863500000001,0 -68.005082,45.889649,0 -68.00502299999999,45.890006,0 -68.00479900000001,45.89149699999999,0 -68.004755,45.891732,0 -68.00463999999999,45.89255199999999,0 -68.00452,45.893255,0 -68.004437,45.89382700000001,0 -68.00430900000001,45.89464300000001,0 -68.004284,45.89484600000001,0 -68.004257,45.895091,0 -68.00399,45.89692300000001,0 -68.003747,45.89857900000001,0 -68.003719,45.898852,0 -68.0035,45.900444,0 -68.0034,45.900976,0 -68.003349,45.901185,0 -68.003287,45.901393,0 -68.003226,45.901564,0 -68.003038,45.901988,0 -68.00283899999999,45.902339,0 -68.002596,45.902675,0 -68.002501,45.902789,0 -68.002212,45.903111,0 -68.001716,45.903641,0 -67.998521,45.907077,0 -67.99779599999999,45.90787300000001,0 -67.99733000000001,45.90842500000001,0 -67.99696900000001,45.908874,0 -67.996313,45.909734,0 -67.995673,45.910604,0 -67.995053,45.911433,0 -67.994879,45.91166599999999,0 -67.994669,45.911965,0 -67.99447600000001,45.912226,0 -67.99439599999999,45.912344,0 -67.99409,45.912824,0 -67.993949,45.913074,0 -67.993887,45.913207,0 -67.993741,45.91355,0 -67.993613,45.913887,0 -67.993495,45.914227,0 -67.99278099999999,45.91661899999999,0 -67.992569,45.917313,0 -67.99217,45.91865499999999,0 -67.991961,45.919346,0 -67.99164,45.920363,0 -67.991527,45.92069900000001,0 -67.9914,45.921035,0 -67.991263,45.921376,0 -67.991123,45.921707,0 -67.99054599999999,45.923028,0 -67.989709,45.92496799999999,0 -67.989634,45.925167,0 -67.989484,45.925565,0 -67.989439,45.92570099999999,0 -67.98934,45.926081,0 -67.989302,45.926321,0 -67.989282,45.926524,0 -67.989287,45.92692400000001,0 -67.989307,45.927146,0 -67.98935400000001,45.927471,0 -67.989385,45.927612,0 -67.989459,45.927892,0 -67.98952800000001,45.928099,0 -67.98961300000001,45.928301,0 -67.989743,45.928562,0 -67.98988799999999,45.928813,0 -67.990287,45.929409,0 -67.991558,45.931176,0 -67.992223,45.93209099999999,0 -67.99351799999999,45.93387200000001,0 -67.993852,45.93434899999999,0 -67.994006,45.93459,0 -67.994147,45.934839,0 -67.994209,45.934967,0 -67.994314,45.93523,0 -67.994393,45.93546199999999,0 -67.99440420000001,45.935506,0 -67.99442999999999,45.93560800000001,0 -67.994484,45.935876,0 -67.99450400000001,45.93610200000001,0 -67.99451000000001,45.936213,0 -67.994524,45.936323,0 -67.994523,45.93643500000001,0 -67.994501,45.936694,0 -67.994444,45.93702,0 -67.994373,45.93729699999999,0 -67.994326,45.937438,0 -67.994299,45.937543,0 -67.994237,45.937683,0 -67.994049,45.938144,0 -67.993619,45.939141,0 -67.99292800000001,45.940807,0 -67.992103,45.942802,0 -67.991838,45.943462,0 -67.991428,45.944466,0 -67.99086699999999,45.945806,0 -67.99079999999999,45.94599800000001,0 -67.989959,45.94801400000001,0 -67.989829,45.94834599999999,0 -67.98956200000001,45.94899699999999,0 -67.98941000000001,45.949339,0 -67.989135,45.950015,0 -67.988731,45.951018,0 -67.988321,45.952027,0 -67.98765,45.953702,0 -67.987377,45.954368,0 -67.98691100000001,45.95554700000001,0 -67.98627500000001,45.957138,0 -67.985342,45.95949,0 -67.985069,45.960156,0 -67.984897,45.960544,0 -67.98472099999999,45.96096899999999,0 -67.98457500000001,45.961303,0 -67.984459,45.961561,0 -67.98397799999999,45.962633,0 -67.98368600000001,45.963302,0 -67.983504,45.963778,0 -67.98336999999999,45.96419399999999,0 -67.983313,45.964405,0 -67.98324,45.964741,0 -67.983125,45.96545800000001,0 -67.983073,45.965866,0 -67.982984,45.966423,0 -67.982958,45.966538,0 -67.982924,45.966804,0 -67.982865,45.967138,0 -67.982738,45.967631,0 -67.982677,45.967837,0 -67.982598,45.96804,0 -67.982482,45.968305,0 -67.98238499999999,45.96850200000001,0 -67.98223900000001,45.968757,0 -67.981871,45.969384,0 -67.981694,45.969697,0 -67.981132,45.97065000000001,0 -67.98105200000001,45.97080099999999,0 -67.98090999999999,45.971052,0 -67.98079799999999,45.971237,0 -67.98025199999999,45.97217999999999,0 -67.98004299999999,45.972558,0 -67.979944,45.972709,0 -67.979294,45.973824,0 -67.97889499999999,45.97453399999999,0 -67.97882300000001,45.97464,0 -67.97866999999999,45.974923,0 -67.978337,45.975539,0 -67.978274,45.975671,0 -67.97819,45.975871,0 -67.978117,45.976075,0 -67.978056,45.976283,0 -67.978005,45.976495,0 -67.977968,45.97671,0 -67.977942,45.976898,0 -67.977929,45.977087,0 -67.977931,45.977461,0 -67.977941,45.977618,0 -67.977957,45.977761,0 -67.978008,45.978132,0 -67.978217,45.979197,0 -67.978272,45.97952,0 -67.978483,45.980805,0 -67.9785773,45.9813177,0 -67.97868,45.98189099999999,0 -67.978786,45.982424,0 -67.978955,45.98332000000001,0 -67.97905900000001,45.98394299999999,0 -67.97918900000001,45.984898,0 -67.97944699999999,45.98703700000001,0 -67.97978999999999,45.99006899999999,0 -67.979882,45.990908,0 -67.97993099999999,45.991493,0 -67.97994199999999,45.99165199999999,0 -67.97997100000001,45.99207500000001,0 -67.979975,45.99261600000001,0 -67.979966,45.99290200000001,0 -67.979935,45.993521,0 -67.979919,45.993737,0 -67.979912,45.993961,0 -67.979871,45.994365,0 -67.97984599999999,45.994511,0 -67.97967300000001,45.99589899999999,0 -67.97964899999999,45.996172,0 -67.97959,45.996684,0 -67.97955399999999,45.99692,0 -67.97950899999999,45.997284,0 -67.979485,45.997562,0 -67.979448,45.997835,0 -67.979405,45.998101,0 -67.97931199999999,45.998823,0 -67.979207,45.999716,0 -67.97906399999999,46.001042,0 -67.979029,46.001367,0 -67.978933,46.002132,0 -67.978745,46.00375799999999,0 -67.97865299999999,46.004718,0 -67.97857999999999,46.005346,0 -67.97847,46.006473,0 -67.97835600000001,46.007552,0 -67.978307,46.008008,0 -67.978184,46.009276,0 -67.977914,46.011867,0 -67.97779300000001,46.012707,0 -67.977757,46.012888,0 -67.977672,46.013242,0 -67.977621,46.01341699999999,0 -67.97738200000001,46.014096,0 -67.977304,46.014297,0 -67.97721199999999,46.0145,0 -67.977132,46.014692,0 -67.97693599999999,46.015075,0 -67.976829,46.01526299999999,0 -67.97660500000001,46.01563,0 -67.97648100000001,46.015812,0 -67.976271,46.016105,0 -67.97563,46.01697,0 -67.97418500000001,46.018935,0 -67.974046,46.019142,0 -67.973664,46.01965100000001,0 -67.972668,46.02098600000001,0 -67.97253499999999,46.021184,0 -67.972508,46.02122,0 -67.97143,46.022698,0 -67.970574,46.023846,0 -67.97036900000001,46.02414000000001,0 -67.970158,46.02443100000001,0 -67.96964699999999,46.025125,0 -67.969435,46.025424,0 -67.96880299999999,46.02626300000001,0 -67.968165,46.027136,0 -67.967732,46.02771299999999,0 -67.96683400000001,46.028924,0 -67.966301,46.029635,0 -67.965022,46.031382,0 -67.963947,46.032829,0 -67.963865,46.032948,0 -67.962932,46.034222,0 -67.96251700000001,46.034798,0 -67.96229700000001,46.03508,0 -67.96115899999999,46.036586,0 -67.96105900000001,46.036725,0 -67.960943,46.03686399999999,0 -67.960526,46.03741100000001,0 -67.96003899999999,46.03806500000001,0 -67.959896,46.038237,0 -67.959588,46.038662,0 -67.95925,46.039079,0 -67.959103,46.039236,0 -67.958949,46.03939,0 -67.958629,46.039687,0 -67.957973,46.040258,0 -67.957645,46.040533,0 -67.95724,46.040857,0 -67.95691100000001,46.04112,0 -67.956717,46.041296,0 -67.956188,46.041662,0 -67.955657,46.042039,0 -67.955124,46.042401,0 -67.954071,46.043126,0 -67.952961,46.043895,0 -67.952449,46.04424,0 -67.950327,46.045715,0 -67.95011700000001,46.04586400000001,0 -67.950014,46.04592700000001,0 -67.94842300000001,46.047022,0 -67.948071,46.047276,0 -67.947565,46.04768800000001,0 -67.947075,46.04811,0 -67.94657100000001,46.048534,0 -67.946079,46.048964,0 -67.945413,46.04950899999999,0 -67.94502799999999,46.049834,0 -67.944186,46.050543,0 -67.94268700000001,46.051793,0 -67.940673,46.05345899999999,0 -67.940009,46.054,0 -67.939519,46.05442,0 -67.939194,46.05471,0 -67.93888,46.05501,0 -67.938581,46.055329,0 -67.93803200000001,46.056008,0 -67.93763300000001,46.056526,0 -67.93750900000001,46.0567,0 -67.93740099999999,46.05688799999999,0 -67.937309,46.057088,0 -67.937127,46.05759,0 -67.936984,46.058022,0 -67.936741,46.05870400000001,0 -67.93651300000001,46.059386,0 -67.936217,46.060286,0 -67.936176,46.060395,0 -67.935942,46.060961,0 -67.93577399999999,46.061357,0 -67.93557300000001,46.061738,0 -67.935348,46.062105,0 -67.935209,46.062318,0 -67.93512699999999,46.062435,0 -67.934792,46.062855,0 -67.93461000000001,46.063052,0 -67.934358,46.063313,0 -67.934096,46.06356599999999,0 -67.93382200000001,46.063809,0 -67.933533,46.064042,0 -67.933074,46.064362,0 -67.932795,46.06454400000001,0 -67.93252200000001,46.064722,0 -67.932147,46.064938,0 -67.931764,46.065142,0 -67.931375,46.065327,0 -67.93097899999999,46.065499,0 -67.930581,46.065662,0 -67.930181,46.065812,0 -67.929776,46.065946,0 -67.92936,46.066071,0 -67.928093,46.06643699999999,0 -67.92748,46.066623,0 -67.926902,46.066839,0 -67.926693,46.066936,0 -67.92655499999999,46.06699,0 -67.92615600000001,46.067162,0 -67.925765,46.067347,0 -67.92518099999999,46.06763800000001,0 -67.924997,46.067751,0 -67.924606,46.067978,0 -67.924076,46.068338,0 -67.92400600000001,46.068392,0 -67.923728,46.068605,0 -67.923393,46.06889,0 -67.922843,46.069381,0 -67.922445,46.069716,0 -67.920839,46.071158,0 -67.919202,46.07264300000001,0 -67.91867499999999,46.07313,0 -67.918143,46.073609,0 -67.91760600000001,46.074084,0 -67.91707599999999,46.07457,0 -67.916004,46.07553799999999,0 -67.91548400000001,46.076014,0 -67.91493800000001,46.076508,0 -67.91410500000001,46.077264,0 -67.91382900000001,46.07750000000001,0 -67.91276499999999,46.078472,0 -67.911709,46.079423,0 -67.911168,46.079903,0 -67.9101,46.080864,0 -67.909002,46.081834,0 -67.907921,46.08279899999999,0 -67.907089,46.08354,0 -67.906828,46.083779,0 -67.906721,46.08387900000001,0 -67.906547,46.084018,0 -67.90575800000001,46.084721,0 -67.904392,46.085927,0 -67.903851,46.086407,0 -67.903307,46.086897,0 -67.90307180000001,46.0870868,0 -67.90292359999999,46.0872242,0 -67.902294,46.087785,0 -67.901222,46.088745,0 -67.89962199999999,46.09018900000001,0 -67.89818200000001,46.091462,0 -67.89799499999999,46.09162799999999,0 -67.895838,46.093568,0 -67.89503999999999,46.094299,0 -67.894226,46.095025,0 -67.89408299999999,46.095148,0 -67.89367799999999,46.095498,0 -67.89339200000001,46.095723,0 -67.89309900000001,46.095932,0 -67.892788,46.096129,0 -67.892493,46.096298,0 -67.89237900000001,46.09636399999999,0 -67.891791,46.096632,0 -67.891462,46.096767,0 -67.891124,46.096889,0 -67.89078000000001,46.096995,0 -67.889382,46.097373,0 -67.887974,46.097739,0 -67.88586599999999,46.098297,0 -67.88482399999999,46.098572,0 -67.88447499999999,46.09866,0 -67.883771,46.09883,0 -67.883415,46.098907,0 -67.883059,46.09897,0 -67.882701,46.099024,0 -67.882341,46.099069,0 -67.8822354,46.0990827,0 -67.881614,46.099143,0 -67.880892,46.099208,0 -67.88047299999999,46.09924299999999,0 -67.880171,46.099269,0 -67.879442,46.09934199999999,0 -67.879081,46.099385,0 -67.878516,46.099479,0 -67.878169,46.099558,0 -67.87782900000001,46.099651,0 -67.877488,46.09976199999999,0 -67.877151,46.099891,0 -67.876819,46.100033,0 -67.87649,46.100187,0 -67.875838,46.100511,0 -67.875511,46.100669,0 -67.87518300000001,46.100833,0 -67.87485100000001,46.100986,0 -67.874514,46.101125,0 -67.874168,46.101247,0 -67.8738359,46.1013739,0 -67.8731513,46.1015845,0 -67.8727973,46.101697,0 -67.8724218,46.1018125,0 -67.8721099,46.1019038,0 -67.871324,46.10213900000001,0 -67.8711407,46.1022062,0 -67.8708225,46.1023155,0 -67.870642,46.102386,0 -67.870158,46.102572,0 -67.869474,46.102814,0 -67.869063,46.10296600000001,0 -67.868449,46.10319400000001,0 -67.868109,46.10332499999999,0 -67.867774,46.103466,0 -67.86744400000001,46.103619,0 -67.86712,46.103785,0 -67.86680200000001,46.103966,0 -67.86618300000001,46.104346,0 -67.865572,46.10475099999999,0 -67.865272,46.104961,0 -67.864923,46.105222,0 -67.86448300000001,46.105576,0 -67.86391500000001,46.106106,0 -67.863544,46.106469,0 -67.863193,46.106824,0 -67.862291,46.107767,0 -67.86199000000001,46.10807499999999,0 -67.86150000000001,46.10860300000001,0 -67.861096,46.108991,0 -67.860198,46.109919,0 -67.859126,46.111045,0 -67.858549,46.111686,0 -67.85798200000001,46.112255,0 -67.85784200000001,46.11240800000001,0 -67.85681,46.11347600000001,0 -67.85569099999999,46.114633,0 -67.855324,46.115007,0 -67.854615,46.11573,0 -67.85440199999999,46.11595,0 -67.853301,46.117088,0 -67.85313600000001,46.11723099999999,0 -67.85307299999999,46.11729999999999,0 -67.852637,46.11776,0 -67.852239,46.118175,0 -67.851843,46.118599,0 -67.85167800000001,46.118756,0 -67.850779,46.119693,0 -67.85064,46.11984099999999,0 -67.85027100000001,46.120212,0 -67.84989299999999,46.12056400000001,0 -67.84948799999999,46.120876,0 -67.849135,46.12111299999999,0 -67.84893,46.12121999999999,0 -67.848523,46.121449,0 -67.84792,46.12178599999999,0 -67.84690999999999,46.122337,0 -67.84656,46.122537,0 -67.845579,46.123088,0 -67.84533500000001,46.12322499999999,0 -67.845206,46.123293,0 -67.844949,46.123433,0 -67.8446513,46.1233521,0 -67.8445332,46.12336979999999,0 -67.844329,46.1234089,0 -67.8423306,46.1237608,0 -67.841182,46.123963,0 
			</coordinates>
		</LineString>
		<atom:link rel="app" href="https://www.google.com/earth/about/versions/#earth-pro" title="Google Earth Pro 7.3.6.10201"></atom:link>
	</Placemark>
</Document>
</kml>
