<?xml version="1.0" encoding="UTF-8"?>
<kml xmlns="http://www.opengis.net/kml/2.2" xmlns:gx="http://www.google.com/kml/ext/2.2" xmlns:kml="http://www.opengis.net/kml/2.2" xmlns:atom="http://www.w3.org/2005/Atom">
<Document>
	<name>US.20A.OH.kml</name>
	<Placemark>
		<name>US.20A.OH</name>
			<LineString>
				<coordinates>
					-84.574651,41.64364,0 -84.5730263,41.6436298,0 -84.57233100000001,41.643632,0 -84.57208900000001,41.643633,0 -84.57053790000001,41.6436159,0 -84.56981810000001,41.6435919,0 -84.56938700000001,41.6435609,0 -84.568269,41.643473,0 -84.56689799999999,41.64327,0 -84.566794,41.643253,0 -84.566309,41.64316,0 -84.56600400000001,41.643097,0 -84.56549200000001,41.642984,0 -84.56485600000001,41.642822,0 -84.562691,41.642192,0 -84.562347,41.642086,0 -84.560681,41.641583,0 -84.560558,41.641545,0 -84.55992999999999,41.641353,0 -84.559523,41.641231,0 -84.559157,41.641121,0 -84.558331,41.64087,0 -84.557554,41.640638,0 -84.557332,41.64057,0 -84.556766,41.640397,0 -84.55595099999999,41.640153,0 -84.555244,41.639944,0 -84.55453300000001,41.639729,0 -84.554081,41.639596,0 -84.55349699999999,41.639425,0 -84.553498,41.639379,0 -84.553507,41.638481,0 -84.553513,41.63799,0 -84.553516,41.637,0 -84.553523,41.63668,0 -84.55352600000001,41.6364,0 -84.553529,41.636189,0 -84.55354699999999,41.635707,0 -84.55356999999999,41.634836,0 -84.55367200000001,41.632251,0 -84.55372199999999,41.630998,0 -84.55372800000001,41.630862,0 -84.55373400000001,41.630725,0 -84.55373899999999,41.630514,0 -84.553741,41.630375,0 -84.55374999999999,41.629899,0 -84.553755,41.629736,0 -84.553765,41.629294,0 -84.553765,41.628911,0 -84.5536855,41.6258104,0 -84.553635,41.623839,0 -84.55362100000001,41.623296,0 -84.55360899999999,41.622546,0 -84.553588,41.621819,0 -84.55357600000001,41.621606,0 -84.553561,41.621291,0 -84.553546,41.621116,0 -84.553518,41.620952,0 -84.55347999999999,41.620793,0 -84.55345699999999,41.620687,0 -84.55341300000001,41.620555,0 -84.553386,41.620461,0 -84.553207,41.619988,0 -84.553111,41.619708,0 -84.55308100000001,41.61962,0 -84.553017,41.6194,0 -84.55297,41.619209,0 -84.55294600000001,41.619037,0 -84.55292,41.618826,0 -84.55291800000001,41.618479,0 -84.552936,41.618316,0 -84.55295599999999,41.618147,0 -84.55300800000001,41.617921,0 -84.55309,41.617667,0 -84.55328299999999,41.617105,0 -84.553466,41.61666,0 -84.55368,41.616122,0 -84.55424410000001,41.6147119,0 -84.5544699,41.61418,0 -84.5549036,41.6131586,0 -84.5550135,41.6128997,0 -84.5550526,41.6127957,0 -84.55550119999999,41.6116041,0 -84.555603,41.6112608,0 -84.555697,41.610797,0 -84.555716,41.610629,0 -84.555751,41.6102124,0 -84.5557147,41.6090253,0 -84.55571,41.60887,0 -84.55571,41.6086784,0 -84.55571,41.608643,0 -84.55571,41.608512,0 -84.55571,41.6083314,0 -84.55571,41.6080879,0 -84.5557101,41.6079529,0 -84.5557101,41.6078341,0 -84.5557101,41.6075294,0 -84.5557101,41.607412,0 -84.5557101,41.607221,0 -84.5557101,41.606966,0 -84.5557101,41.6068665,0 -84.5557101,41.606428,0 -84.5557103,41.6037633,0 -84.5557151,41.603615,0 -84.5557168,41.6035606,0 -84.5557391,41.6028699,0 -84.5557678,41.6019776,0 -84.5557766,41.6017051,0 -84.5557862,41.6014069,0 -84.5558039,41.6008577,0 -84.5558187,41.6003973,0 -84.5558199,41.6003616,0 -84.5558281,41.6001048,0 -84.5558274,41.599325,0 -84.555815,41.586683,0 -84.551849,41.586673,0 -84.551142,41.586669,0 -84.550904,41.586668,0 -84.547752,41.586677,0 -84.54377599999999,41.586631,0 -84.54334799999999,41.586623,0 -84.536321,41.586506,0 -84.534706,41.586498,0 -84.5341483,41.586489,0 -84.534047,41.586492,0 -84.533439,41.586493,0 -84.53336299999999,41.586493,0 -84.532872,41.586493,0 -84.517009,41.586488,0 -84.50916839999999,41.5865454,0 -84.509092,41.586546,0 -84.5033605,41.5866062,0 -84.50328399999999,41.586607,0 -84.5025874,41.5866187,0 -84.502509,41.58662,0 -84.501322,41.586634,0 -84.497293,41.58669,0 -84.497049,41.5866861,0 -84.4933,41.586673,0 -84.49156259999999,41.5866611,0 -84.4857895,41.5866216,0 -84.48570599999999,41.586621,0 -84.48539890000001,41.5866187,0 -84.485311,41.586618,0 -84.4827768,41.586594,0 -84.48266099999999,41.5866,0 -84.4814897,41.586593,0 -84.4811775,41.5865901,0 -84.4804264,41.5865863,0 -84.477369,41.586571,0 -84.475724,41.586563,0 -84.47280600000001,41.586548,0 -84.472729,41.586548,0 -84.471174,41.58654,0 -84.470511,41.586537,0 -84.46356470000001,41.5864829,0 -84.4619797,41.5864705,0 -84.45891,41.586439,0 -84.458832,41.586419,0 -84.45849920000001,41.586419,0 -84.456273,41.5864019,0 -84.45606859999999,41.5864163,0 -84.45549029999999,41.5864051,0 -84.45453809999999,41.5864059,0 -84.4531672,41.5864259,0 -84.4530493,41.5864278,0 -84.452692,41.586433,0 -84.45182250000001,41.5864353,0 -84.45126860000001,41.5864367,0 -84.45115199999999,41.586437,0 -84.451003,41.586437,0 -84.45072759999999,41.5864391,0 -84.4489561,41.5864523,0 -84.4478584,41.5864573,0 -84.4462809,41.5864645,0 -84.445944,41.586466,0 -84.4450925,41.5864652,0 -84.4439663,41.5864641,0 -84.4428133,41.5864729,0 -84.441621,41.5864793,0 -84.441005,41.586484,0 -84.440563,41.5864815,0 -84.43996970000001,41.5864781,0 -84.4388263,41.5864779,0 -84.4381776,41.5864817,0 -84.43773299999999,41.586494,0 -84.4370674,41.5864847,0 -84.4354122,41.5864791,0 -84.4353251,41.5864818,0 -84.4349096,41.5864801,0 -84.434834,41.5864798,0 -84.4347796,41.5864807,0 -84.4340277,41.5864934,0 -84.433926,41.5864951,0 -84.433843,41.5864944,0 -84.4328429,41.5864855,0 -84.4327874,41.5864849,0 -84.4323199,41.586484,0 -84.4316824,41.5864827,0 -84.43160140000001,41.5864832,0 -84.4305586,41.5864895,0 -84.4283235,41.5865017,0 -84.4271845,41.5865105,0 -84.42656030000001,41.5865079,0 -84.4261096,41.5865143,0 -84.425923,41.586517,0 -84.425602,41.586516,0 -84.424887,41.586513,0 -84.424648,41.586512,0 -84.4245605,41.5865116,0 -84.423483,41.586507,0 -84.423095,41.586505,0 -84.422893,41.586505,0 -84.422663,41.586503,0 -84.422151,41.586501,0 -84.421943,41.5865,0 -84.42176499999999,41.5865,0 -84.42080799999999,41.586499,0 -84.42075,41.586499,0 -84.419856,41.586498,0 -84.41958080000001,41.5864868,0 -84.419552,41.586497,0 -84.419015,41.586499,0 -84.418885,41.586499,0 -84.418314,41.586501,0 -84.417828,41.5865,0 -84.417738,41.586501,0 -84.417097,41.586505,0 -84.417029,41.586505,0 -84.41634000000001,41.586495,0 -84.41611,41.586492,0 -84.41583060000001,41.5864927,0 -84.41573099999999,41.586493,0 -84.415217,41.586493,0 -84.41515200000001,41.586493,0 -84.412633,41.586493,0 -84.41193800000001,41.586494,0 -84.411182,41.586494,0 -84.41042469999999,41.5864949,0 -84.410303,41.586495,0 -84.40988900000001,41.586495,0 -84.40874700000001,41.586495,0 -84.40805,41.586497,0 -84.405018,41.586505,0 -84.4003288,41.5864949,0 -84.39818,41.586517,0 -84.397605,41.586513,0 -84.39637639999999,41.586509,0 -84.395612,41.586523,0 -84.38872189999999,41.5865048,0 -84.3858609,41.5864811,0 -84.38475939999999,41.5864786,0 -84.3821578,41.5864773,0 -84.38103340000001,41.586482,0 -84.3786856,41.5864986,0 -84.3761299,41.5865237,0 -84.3733368,41.5865506,0 -84.3713705,41.5865641,0 -84.36904629999999,41.5865622,0 -84.3659825,41.5865649,0 -84.3637997,41.5865618,0 -84.3632044,41.586561,0 -84.3617205,41.5865734,0 -84.3614448,41.5865767,0 -84.36116920000001,41.5865828,0 -84.36077539999999,41.5865895,0 -84.3605355,41.586596,0 -84.3603023,41.5866027,0 -84.359951,41.5866113,0 -84.3591948,41.5866304,0 -84.3584511,41.5866505,0 -84.3584118,41.5866516,0 -84.3568408,41.5866956,0 -84.35659510000001,41.5867013,0 -84.3563798,41.5867071,0 -84.3559109,41.5867193,0 -84.355789,41.5867225,0 -84.3551095,41.5867411,0 -84.3540722,41.5867713,0 -84.3537293,41.5867786,0 -84.35344120000001,41.5867834,0 -84.35316450000001,41.5867867,0 -84.3529185,41.5867833,0 -84.35268430000001,41.5867728,0 -84.3524663,41.5867551,0 -84.35212060000001,41.5867122,0 -84.3519738,41.5866889,0 -84.35179549999999,41.5866541,0 -84.3516326,41.5866168,0 -84.3514668,41.5865745,0 -84.3512738,41.5865214,0 -84.3510742,41.5864583,0 -84.35077510000001,41.5863557,0 -84.3498402,41.5860295,0 -84.34918620000001,41.5858015,0 -84.348456,41.5855483,0 -84.34618209999999,41.5847611,0 -84.344607,41.5842086,0 -84.3441696,41.5840551,0 -84.3440435,41.5840109,0 -84.34359360000001,41.5838523,0 -84.3435049,41.583821,0 -84.3429955,41.5836417,0 -84.3424576,41.5834524,0 -84.3412034,41.5830063,0 -84.3404649,41.5827415,0 -84.3391838,41.5822822,0 -84.3383913,41.5819954,0 -84.3374359,41.5816524,0 -84.3369897,41.5814917,0 -84.3361859,41.5812016,0 -84.335975,41.5811282,0 -84.3357493,41.5810576,0 -84.33556830000001,41.5810105,0 -84.3353539,41.5809613,0 -84.33517260000001,41.5809282,0 -84.3349757,41.5808997,0 -84.3347392,41.5808731,0 -84.3345424,41.5808597,0 -84.33433429999999,41.5808517,0 -84.33411270000001,41.5808462,0 -84.33388530000001,41.5808437,0 -84.3330856,41.5808478,0 -84.3328381,41.58085,0 -84.332593,41.5808488,0 -84.33233540000001,41.5808428,0 -84.3320325,41.5808266,0 -84.33176690000001,41.5808002,0 -84.3314767,41.5807513,0 -84.33121269999999,41.5806936,0 -84.331024,41.5806452,0 -84.3308196,41.5805874,0 -84.3306236,41.5805266,0 -84.3303878,41.5804373,0 -84.3301548,41.5803357,0 -84.32993930000001,41.5802254,0 -84.3297171,41.580102,0 -84.32947799999999,41.5799618,0 -84.32899070000001,41.5796624,0 -84.32814519999999,41.5791491,0 -84.32809570000001,41.579119,0 -84.3272851,41.5786218,0 -84.3267086,41.5782677,0 -84.3259559,41.5778155,0 -84.32594469999999,41.5778088,0 -84.3256516,41.5776261,0 -84.32530970000001,41.5774169,0 -84.3250925,41.5772853,0 -84.32485130000001,41.5771392,0 -84.3246111,41.5769949,0 -84.3243823,41.5768543,0 -84.3241331,41.5767041,0 -84.3238078,41.576505,0 -84.3235832,41.5763685,0 -84.323121,41.5760858,0 -84.3225395,41.5757291,0 -84.32185939999999,41.5753135,0 -84.3205782,41.5745314,0 -84.32024850000001,41.5743326,0 -84.31947359999999,41.5738583,0 -84.3185618,41.5733015,0 -84.3181211,41.5730381,0 -84.3179306,41.5729389,0 -84.3177354,41.5728447,0 -84.317483,41.5727411,0 -84.3172587,41.5726613,0 -84.3170731,41.5725992,0 -84.3168804,41.572543,0 -84.31672639999999,41.5725021,0 -84.3164226,41.5724338,0 -84.3161882,41.5723901,0 -84.3158864,41.5723424,0 -84.3156341,41.5723206,0 -84.31533570000001,41.5723025,0 -84.3140327,41.5722996,0 -84.31393749999999,41.5722994,0 -84.3093082,41.5723117,0 -84.3084368,41.5723145,0 -84.306819,41.5723271,0 -84.3058539,41.5723316,0 -84.30520319999999,41.5723271,0 -84.304322,41.572321,0 -84.3031771,41.5723245,0 -84.3019157,41.572328,0 -84.3004766,41.572333,0 -84.29997109999999,41.5723342,0 -84.29718990000001,41.5723409,0 -84.2948387,41.5723448,0 -84.294656,41.5723451,0 -84.2912532,41.5723529,0 -84.2901323,41.5723551,0 -84.2899814,41.5723554,0 -84.2897957,41.5723558,0 -84.2875775,41.5723596,0 -84.28526859999999,41.5723603,0 -84.28516380000001,41.5723604,0 -84.2850875,41.5723604,0 -84.2825988,41.5723617,0 -84.2803966,41.5723656,0 -84.28027659999999,41.5723658,0 -84.2801048,41.5723661,0 -84.2800354,41.5723661,0 -84.27679449999999,41.5723669,0 -84.2756134,41.5723672,0 -84.27554240000001,41.5723672,0 -84.2723792,41.5723681,0 -84.2702293,41.5723707,0 -84.2699944,41.572371,0 -84.2683617,41.5723727,0 -84.266066,41.5723805,0 -84.2625633,41.572393,0 -84.26115369999999,41.5724009,0 -84.25858650000001,41.5724153,0 -84.2543677,41.5724609,0 -84.25272630000001,41.5724786,0 -84.25158020000001,41.5724904,0 -84.24902779999999,41.5725168,0 -84.2465266,41.5725257,0 -84.2464456,41.572526,0 -84.2432592,41.5725379,0 -84.2418985,41.5725429,0 -84.2417378,41.5725435,0 -84.2416667,41.5725438,0 -84.2403059,41.5725474,0 -84.23898800000001,41.5725504,0 -84.2370009,41.5725548,0 -84.23688900000001,41.5725551,0 -84.234437,41.5725544,0 -84.2340671,41.5725542,0 -84.2332826,41.5725538,0 -84.2332562,41.5725538,0 -84.23229480000001,41.572555,0 -84.2319184,41.5725562,0 -84.2296703,41.5725889,0 -84.22816090000001,41.5726069,0 -84.2278987,41.57261,0 -84.2276908,41.572612,0 -84.2268275,41.5726204,0 -84.225936,41.5726195,0 -84.2252956,41.5726203,0 -84.22479730000001,41.5726209,0 -84.22130629999999,41.5726283,0 -84.2200732,41.5726426,0 -84.2157,41.5727009,0 -84.214298,41.5727263,0 -84.2121855,41.5728046,0 -84.211592,41.5728238,0 -84.2108455,41.5728363,0 -84.20848460000001,41.5728486,0 -84.2067771,41.5728576,0 -84.2067509,41.5728577,0 -84.2047711,41.5728653,0 -84.2027404,41.5728736,0 -84.2018113,41.5728685,0 -84.2011572,41.572855,0 -84.2003864,41.5728365,0 -84.1998926,41.572824,0 -84.1992395,41.5728152,0 -84.19845549999999,41.5728098,0 -84.197337,41.5728092,0 -84.1967933,41.5728121,0 -84.1961694,41.5728152,0 -84.1945193,41.5728217,0 -84.1922665,41.5728329,0 -84.190866,41.5728379,0 -84.1886478,41.5728508,0 -84.1868561,41.5728616,0 -84.1848322,41.5728764,0 -84.18249299999999,41.5728922,0 -84.18138329999999,41.572897,0 -84.1805738,41.5729005,0 -84.1792715,41.5729076,0 -84.1779305,41.572915,0 -84.17498809999999,41.5729337,0 -84.1730421,41.5729489,0 -84.17202109999999,41.5729588,0 -84.1715224,41.5729634,0 -84.1708233,41.5729698,0 -84.1692003,41.5729894,0 -84.16819030000001,41.5730008,0 -84.1673207,41.5730104,0 -84.1650521,41.5730359,0 -84.16410449999999,41.5730458,0 -84.16348739999999,41.5730522,0 -84.1633276,41.5730541,0 -84.16229800000001,41.5730662,0 -84.1616396,41.573074,0 -84.160798,41.5730839,0 -84.15863539999999,41.5731071,0 -84.1568169,41.5731292,0 -84.1562174,41.5731365,0 -84.15533809999999,41.5731471,0 -84.1538944,41.5731627,0 -84.1537828,41.5731639,0 -84.1513695,41.5731929,0 -84.15005410000001,41.5732071,0 -84.14967439999999,41.5732116,0 -84.14859730000001,41.5732245,0 -84.14757899999999,41.573237,0 -84.1463447,41.573252,0 -84.1458531,41.5732579,0 -84.14560710000001,41.5732609,0 -84.1446682,41.5732791,0 -84.143154,41.5733148,0 -84.1430222,41.5733148,0 -84.1423817,41.5733314,0 -84.1419741,41.5733423,0 -84.1404251,41.5733838,0 -84.1402846,41.5733876,0 -84.1400221,41.5733954,0 -84.1387884,41.5734319,0 -84.13852180000001,41.5734392,0 -84.13844659999999,41.5734412,0 -84.1373732,41.5734776,0 -84.1367013,41.5734926,0 -84.135947,41.5735007,0 -84.13539230000001,41.5735131,0 -84.135154,41.5735177,0 -84.1345073,41.5735291,0 -84.1332419,41.5735474,0 -84.1320054,41.5735648,0 -84.1309921,41.5735649,0 -84.12955890000001,41.5735612,0 -84.1293123,41.5735659,0 -84.1277438,41.5735782,0 -84.1271885,41.5735877,0 -84.125891,41.5736054,0 -84.1251467,41.5736099,0 -84.1245706,41.5736096,0 -84.12279700000001,41.5735788,0 -84.1218681,41.5735625,0 -84.1206523,41.573535,0 -84.1202152,41.5735251,0 -84.1196765,41.5735136,0 -84.1194782,41.5735094,0 -84.11863959999999,41.5734916,0 -84.1175032,41.5734683,0 -84.11702649999999,41.5734585,0 -84.11658540000001,41.5734494,0 -84.11493350000001,41.5734186,0 -84.114908,41.5734181,0 -84.1134974,41.573408,0 -84.1117653,41.573401,0 -84.10992450000001,41.5733902,0 -84.1098212,41.5733898,0 -84.1086013,41.5733853,0 -84.1080827,41.5733834,0 -84.10774120000001,41.5733821,0 -84.10586290000001,41.5733748,0 -84.1035009,41.5733638,0 -84.1024582,41.5733618,0 -84.1005703,41.5733556,0 -84.0980424,41.5733436,0 -84.0969025,41.5733406,0 -84.0965513,41.5733397,0 -84.0957363,41.5733376,0 -84.0945463,41.5733347,0 -84.09396289999999,41.5733333,0 -84.09265859999999,41.5733278,0 -84.0918585,41.5733254,0 -84.0888838,41.5733164,0 -84.08870109999999,41.5733159,0 -84.088374,41.5733151,0 -84.0861949,41.57331,0 -84.0839472,41.5733022,0 -84.0832838,41.5733007,0 -84.0827092,41.5732993,0 -84.08175009999999,41.5732971,0 -84.08112819999999,41.5732956,0 -84.07950510000001,41.5732912,0 -84.0782516,41.5732878,0 -84.0779185,41.5732869,0 -84.0763036,41.5732808,0 -84.07440440000001,41.5732901,0 -84.07266920000001,41.5732973,0 -84.07013910000001,41.5733089,0 -84.06822940000001,41.5733193,0 -84.0649976,41.5733251,0 -84.0632966,41.5733253,0 -84.06104550000001,41.5733253,0 -84.05984960000001,41.5733241,0 -84.058099,41.5733233,0 -84.0569082,41.573324,0 -84.0557105,41.5733248,0 -84.0538011,41.5733341,0 -84.0517043,41.5733506,0 -84.0500912,41.5733635,0 -84.0498315,41.5733654,0 -84.0485056,41.5733751,0 -84.0473317,41.5733904,0 -84.04506240000001,41.5734187,0 -84.04283719999999,41.5734534,0 -84.0421566,41.5734614,0 -84.0399468,41.5734953,0 -84.0387856,41.5735118,0 -84.0375897,41.5735277,0 -84.0363225,41.5735396,0 -84.03532680000001,41.5735441,0 -84.03363,41.5735541,0 -84.0335874,41.5735543,0 -84.0326017,41.5735589,0 -84.03069000000001,41.5735674,0 -84.02936649999999,41.5735729,0 -84.028525,41.5735773,0 -84.0263889,41.5735865,0 -84.0257577,41.573588,0 -84.0255355,41.5735886,0 -84.02500259999999,41.573591,0 -84.0230272,41.5736018,0 -84.0219814,41.5736079,0 -84.0204324,41.5736122,0 -84.01829960000001,41.5736233,0 -84.01691700000001,41.5736481,0 -84.01690549999999,41.5736483,0 -84.0158253,41.5736695,0 -84.0145869,41.573692,0 -84.012394,41.5737303,0 -84.01156469999999,41.5737448,0 -84.01141320000001,41.5737475,0 -84.0111465,41.5737517,0 -84.0094611,41.5737802,0 -84.0094239,41.573781,0 -84.00864730000001,41.5737972,0 -84.0085577,41.5737991,0 -84.0073409,41.5738241,0 -84.0062452,41.5738493,0 -84.0058535,41.5738599,0 -84.00503329999999,41.5738762,0 -84.0038705,41.5739072,0 -84.003756,41.5739103,0 -84.00366080000001,41.5739128,0 -84.0035456,41.5739152,0 -84.00345590000001,41.573917,0 -84.0018579,41.5739498,0 -84.0010789,41.5739627,0 -84.0003439,41.57398,0 -84.0002897,41.5739808,0 -83.999538,41.5739916,0 -83.99880539999999,41.5740054,0 -83.99864700000001,41.5740055,0 -83.9980436,41.574006,0 -83.99750760000001,41.5740056,0 -83.9974649,41.5740056,0 -83.9956751,41.5740087,0 -83.99503470000001,41.5740079,0 -83.9945326,41.5740068,0 -83.9943876,41.5740065,0 -83.9943145,41.5740068,0 -83.9941968,41.5740072,0 -83.99380600000001,41.5740069,0 -83.9931775,41.5740065,0 -83.9931253,41.5740064,0 -83.9925681,41.5740052,0 -83.9925578,41.5740052,0 -83.9920183,41.5740049,0 -83.9910033,41.5740043,0 -83.9907098,41.5740057,0 -83.9904456,41.5740069,0 -83.99030089999999,41.5740097,0 -83.9901393,41.5740138,0 -83.98998690000001,41.5740205,0 -83.9898333,41.5740331,0 -83.9896629,41.5740502,0 -83.98947459999999,41.5740752,0 -83.9893028,41.5741029,0 -83.9891404,41.5741335,0 -83.9890073,41.5741599,0 -83.988895,41.5741856,0 -83.98877280000001,41.5742156,0 -83.98863369999999,41.5742503,0 -83.9883928,41.5743172,0 -83.9879251,41.5744529,0 -83.9876373,41.5745359,0 -83.9873564,41.5746094,0 -83.9871875,41.5746495,0 -83.9870043,41.574686,0 -83.9868254,41.5747178,0 -83.9866268,41.5747466,0 -83.9864309,41.5747649,0 -83.9862546,41.5747762,0 -83.9860829,41.5747832,0 -83.9858852,41.5747842,0 -83.98566580000001,41.574776,0 -83.9854875,41.5747619,0 -83.9852946,41.5747409,0 -83.9850963,41.5747156,0 -83.9848738,41.5746748,0 -83.98463940000001,41.5746224,0 -83.98445940000001,41.5745736,0 -83.9842821,41.5745173,0 -83.9841359,41.5744673,0 -83.98400599999999,41.5744202,0 -83.9838374,41.5743507,0 -83.9836852,41.5742814,0 -83.9835313,41.5742126,0 -83.9832541,41.574078,0 -83.9825682,41.5737464,0 -83.9822736,41.5736079,0 -83.9817407,41.5733487,0 -83.9812584,41.5731196,0 -83.9810277,41.5730118,0 -83.9808529,41.5729363,0 -83.98061970000001,41.5728388,0 -83.98049020000001,41.5727898,0 -83.98036399999999,41.572748,0 -83.98014000000001,41.5726823,0 -83.9799494,41.5726321,0 -83.979765,41.5725904,0 -83.9796453,41.5725663,0 -83.9795889,41.5725549,0 -83.9794301,41.5725323,0 -83.97924949999999,41.5725134,0 -83.97905350000001,41.572499,0 -83.9788846,41.5724892,0 -83.97871050000001,41.5724845,0 -83.97852589999999,41.5724873,0 -83.97837730000001,41.5724952,0 -83.9782249,41.5725056,0 -83.97805580000001,41.5725217,0 -83.9779121,41.5725405,0 -83.9777337,41.572572,0 -83.9776396,41.5725893,0 -83.9775581,41.5726042,0 -83.9774027,41.5726394,0 -83.97723740000001,41.5726802,0 -83.9770011,41.572743,0 -83.9767664,41.5728173,0 -83.9761623,41.5730144,0 -83.976119,41.5730285,0 -83.9735484,41.5738619,0 -83.9732934,41.5739394,0 -83.9730562,41.5739917,0 -83.97283849999999,41.5740332,0 -83.9726325,41.5740654,0 -83.9724351,41.5740903,0 -83.97222259999999,41.5741081,0 -83.9720202,41.5741193,0 -83.9717979,41.5741264,0 -83.9715719,41.5741292,0 -83.9699524,41.5741201,0 -83.9684761,41.5741074,0 -83.96833549999999,41.5741065,0 -83.96698019999999,41.5740996,0 -83.96543680000001,41.5740859,0 -83.9653665,41.5740853,0 -83.9635001,41.5740722,0 -83.9628527,41.5740676,0 -83.96263449999999,41.574066,0 -83.9615751,41.5740585,0 -83.9601823,41.5740486,0 -83.9585268,41.5740469,0 -83.958045,41.5740463,0 -83.9575282,41.5740458,0 -83.9568391,41.5740456,0 -83.9561927,41.5740454,0 -83.9545231,41.5740431,0 -83.9533575,41.5740444,0 -83.95159049999999,41.5740425,0 -83.9493253,41.5740463,0 -83.9485282,41.5740494,0 -83.9474826,41.5740553,0 -83.9456969,41.574064,0 -83.9447077,41.5740677,0 -83.9430668,41.5740731,0 -83.94195379999999,41.5740768,0 -83.9407461,41.57408,0 -83.93929799999999,41.5740887,0 -83.9375189,41.5740925,0 -83.93446590000001,41.5741057,0 -83.93253420000001,41.5741132,0 -83.93032239999999,41.5741183,0 -83.9285946,41.5741152,0 -83.9266269,41.5741171,0 -83.9262269,41.5741162,0 -83.92498139999999,41.5741135,0 -83.9242967,41.5741125,0 -83.92416849999999,41.5741127,0 -83.9240535,41.574114,0 -83.9239281,41.5741168,0 -83.9238004,41.5741212,0 -83.9236755,41.574127,0 -83.9235561,41.5741342,0 -83.92342910000001,41.5741457,0 -83.92329909999999,41.5741628,0 -83.92316750000001,41.5741855,0 -83.9230644,41.5742077,0 -83.92296229999999,41.5742293,0 -83.9228732,41.5742529,0 -83.9227741,41.5742827,0 -83.9226869,41.5743099,0 -83.92254920000001,41.5743578,0 -83.9224056,41.5744063,0 -83.9222616,41.5744553,0 -83.9213177,41.5748036,0 -83.9212544,41.5748271,0 -83.92045969999999,41.5751122,0 -83.9190104,41.5756359,0 -83.9178541,41.5760538,0 -83.9173759,41.576227,0 -83.917162,41.5763045,0 -83.9165977,41.5765095,0 -83.91497010000001,41.5771008,0 -83.91358839999999,41.5776031,0 -83.9121718,41.5781162,0 -83.9110788,41.5785138,0 -83.9110628,41.5785196,0 -83.9099312,41.5789259,0 -83.90976689999999,41.5789815,0 -83.909678,41.579008,0 -83.90962469999999,41.5790238,0 -83.90950290000001,41.5790541,0 -83.9093457,41.5790897,0 -83.9091815,41.5791183,0 -83.9090317,41.5791353,0 -83.9087285,41.5791643,0 -83.9084929,41.5791833,0 -83.9082868,41.5791999,0 -83.9082348,41.5792036,0 -83.9064736,41.5793329,0 -83.90487469999999,41.5794518,0 -83.9044249,41.5794865,0 -83.9039004,41.5795225,0 -83.9037926,41.5795305,0 -83.9033501,41.5795638,0 -83.9029018,41.5795971,0 -83.9019572,41.5796699,0 -83.9008903,41.5797469,0 -83.9000834,41.5798048,0 -83.8993755,41.5798574,0 -83.89932,41.5798615,0 -83.89900419999999,41.5798849,0 -83.8987851,41.5799011,0 -83.8987123,41.579906,0 -83.8985416,41.5799176,0 -83.8983006,41.579934,0 -83.8982711,41.5799362,0 -83.8980947,41.5799493,0 -83.8977319,41.5799762,0 -83.896475,41.580061,0 -83.8962318,41.5800798,0 -83.8956139,41.5801218,0 -83.89527750000001,41.5801446,0 -83.8947702,41.5801818,0 -83.8942608,41.5802181,0 -83.89395349999999,41.5802415,0 -83.8935535,41.5802695,0 -83.8933129,41.5802875,0 -83.89219780000001,41.5803711,0 -83.8921208,41.5803771,0 -83.89195479999999,41.5803893,0 -83.891657,41.580411,0 -83.8914224,41.5804274,0 -83.89118499999999,41.5804439,0 -83.8909479,41.580461,0 -83.89023520000001,41.5805124,0 -83.88955900000001,41.580564,0 -83.8892719,41.5805822,0 -83.88887800000001,41.580609,0 -83.88875950000001,41.5806167,0 -83.8885856,41.5806279,0 -83.8884426,41.580638,0 -83.8881231,41.5806604,0 -83.88808849999999,41.5806628,0 -83.8878563,41.5806791,0 -83.8877504,41.5806865,0 -83.8875903,41.5806967,0 -83.8873363,41.5807129,0 -83.8870678,41.5807354,0 -83.88672080000001,41.5807645,0 -83.8865066,41.5807825,0 -83.88646300000001,41.5807862,0 -83.8862519,41.5808042,0 -83.88587010000001,41.5808367,0 -83.8857326,41.5808484,0 -83.8856143,41.5808585,0 -83.8848474,41.5809157,0 -83.8847926,41.5809198,0 -83.883949,41.5809829,0 -83.8837169,41.5810002,0 -83.88335240000001,41.5810269,0 -83.88323219999999,41.5810357,0 -83.88307829999999,41.5810444,0 -83.8828642,41.5810564,0 -83.88252439999999,41.5810755,0 -83.88158369999999,41.5811318,0 -83.8815441,41.5811348,0 -83.88071549999999,41.5811978,0 -83.88047160000001,41.5812164,0 -83.8797005,41.5812725,0 -83.8790621,41.5813192,0 -83.8775595,41.5814266,0 -83.8772819,41.5814465,0 -83.8761858,41.5815232,0 -83.8749131,41.5816148,0 -83.8738745,41.581689,0 -83.87343129999999,41.5817214,0 -83.8732711,41.5817325,0 -83.87230099999999,41.581797,0 -83.86969999999999,41.581982,0 -83.869193,41.582018,0 -83.866394,41.582217,0 -83.8662246,41.582229,0 -83.86596969999999,41.5822471,0 -83.865759,41.582262,0 -83.8644998,41.5823515,0 -83.86362,41.582414,0 -83.86125149999999,41.5825877,0 -83.8609127,41.58261,0 -83.85829889999999,41.5827948,0 -83.85812490000001,41.5828071,0 -83.85584799999999,41.582968,0 -83.85402999999999,41.583096,0 -83.8500086,41.5833973,0 -83.84969510000001,41.5834208,0 -83.849425,41.583441,0 -83.84929579999999,41.5834501,0 -83.849142,41.583461,0 -83.84656200000001,41.583644,0 -83.8462224,41.5836745,0 -83.84572199999999,41.5837344,0 -83.8451573,41.5838062,0 -83.844731,41.5838656,0 -83.84439140000001,41.5839129,0 -83.8443113,41.5839241,0 -83.84341019999999,41.5840498,0 -83.8428993,41.5841211,0 -83.8414248,41.5843268,0 -83.839675,41.584571,0 -83.839664,41.5838622,0 -83.8396632,41.5838118,0 -83.839662,41.5837654,0 -83.83965739999999,41.5835828,0 -83.8396525,41.5833893,0 -83.83958199999999,41.5806135,0 -83.8395494,41.57897,0 -83.8395424,41.5787453,0 -83.83953219999999,41.578585,0 -83.8395289,41.5785329,0 -83.83951140000001,41.5783302,0 -83.8394799,41.5781442,0 -83.83944529999999,41.5779768,0 -83.83941969999999,41.5778962,0 -83.8393755,41.5777571,0 -83.8392796,41.5775236,0 -83.83917340000001,41.5773062,0 -83.83913269999999,41.5772238,0 -83.8390814,41.5771273,0 -83.8389468,41.5769206,0 -83.8387666,41.5766645,0 -83.8386165,41.5764867,0 -83.83841339999999,41.5762682,0 -83.8382125,41.5760821,0 -83.83804309999999,41.5759435,0 -83.8378396,41.5757909,0 -83.8376257,41.5756554,0 -83.8374006,41.5755206,0 -83.8372231,41.5754268,0 -83.83702700000001,41.575329,0 -83.8368023,41.5752283,0 -83.83653750000001,41.5751274,0 -83.8362245,41.5750258,0 -83.83595939999999,41.5749589,0 -83.8356813,41.5748974,0 -83.8354059,41.574851,0 -83.8351498,41.5748121,0 -83.8348695,41.574775,0 -83.83457420000001,41.5747574,0 -83.8342856,41.5747476,0 -83.83397119999999,41.5747438,0 -83.8336221,41.5747408,0 -83.83091330000001,41.5747585,0 -83.8298005,41.5747542,0 -83.8292934,41.5747605,0 -83.82804470000001,41.5747613,0 -83.82797119999999,41.5747631,0 -83.8272291,41.5747647,0 -83.82609979999999,41.5747776,0 -83.8257634,41.5748242,0 
				
					-83.8257634,41.5748242,0 -83.82539370000001,41.574939,0 -83.8251999,41.574998,0 -83.82517180000001,41.575007,0 -83.82512440000001,41.5750481,0 -83.8250925,41.5750635,0 -83.82505310000001,41.5750826,0 -83.8249704,41.5750969,0 -83.8248861,41.5750893,0 -83.8248103,41.5750607,0 -83.82478999999999,41.5750446,0 -83.824752,41.5750145,0 -83.82471820000001,41.5749562,0 -83.8246704,41.5749281,0 -83.8245682,41.5748746,0 -83.82444409999999,41.5748486,0 -83.82406899999999,41.5748499,0 -83.82352210000001,41.5748254,0 -83.8225035,41.5747925,0 -83.8216752,41.5747932,0 -83.81791579999999,41.574815,0 -83.8168857,41.5748231,0 -83.8167349,41.5748242,0 -83.81615480000001,41.5748284,0 -83.81483679999999,41.574838,0 -83.8142903,41.574842,0 -83.8139645,41.5748444,0 -83.81345229999999,41.5748482,0 -83.8127654,41.5748532,0 -83.81223850000001,41.574857,0 -83.8071819100483,41.57486323524394,0 -83.80682020871684,41.57487001536123,0 -83.80657079981306,41.57490061082587,0 -83.80633085924462,41.57496822976347,0 -83.80617830092099,41.57498696251539,0 -83.80604091958428,41.57497494476974,0 -83.80591875590488,41.57492003494765,0 -83.80578976070871,41.57489612623407,0 -83.80565277196216,41.57491446964544,0 -83.80552386625871,41.57491477128749,0 -83.80535445235778,41.57491498865477,0 -83.80512035671546,41.57491507474586,0 -83.80471692931766,41.57489723657205,0 -83.80446690088704,41.57489741394424,0 -83.80411217411643,41.57493387683369,0 -83.80218513593593,41.57523176438074,0 -83.80110508057662,41.57540171545652,0 -83.80038855476147,41.57548654991165,0 -83.79971136164025,41.57550536264835,0 -83.79905927260486,41.57549974014168,0 -83.79587454674095,41.57534443028269,0 -83.79454775732759,41.57524953524462,0 -83.79276970504097,41.57512490798843,0 -83.79044265446949,41.5749524892346,0 -83.78759907343171,41.57472887752863,0 -83.78716396761327,41.57471458989615,0 -83.78694960180113,41.57471955439012,0 -83.78681303446413,41.57467589354597,0 -83.78666334419559,41.57461254190791,0 -83.78650698561049,41.57452974730448,0 -83.78639007387257,41.57453499781245,0 -83.78616252053564,41.57455956346618,0 -83.78588285548341,41.57458411568889,0 -83.78568736141719,41.57458413228591,0 -83.78536180820623,41.57458435128373,0 -83.78227793295555,41.57427954788031,0 -83.77909772044433,41.57397920739471,0 -83.77835556852679,41.57394813671343,0 -83.77684938252797,41.5739125795679,0 -83.77340577834144,41.57386264011371,0 -83.77036683547657,41.57380206751477,0 -83.76765067335892,41.57373759824142,0 -83.76728717315916,41.57371762479942,0 -83.76712448327405,41.57365111150259,0 -83.76700867196514,41.57355311049811,0 -83.76686534141213,41.57351258619838,0 -83.76668297848065,41.57354430797611,0 -83.76649308244761,41.57360231880808,0 -83.76615987668643,41.57366920493964,0 -83.76564405576475,41.57373045258299,0 
				
					-83.7656099,41.5737324,0 -83.7648908,41.5737205,0 -83.7640083,41.5737074,0 -83.76361110000001,41.5736982,0 -83.7627416,41.5736823,0 -83.7612931,41.5736553,0 -83.7606072,41.5736511,0 -83.7605855,41.5736511,0 -83.75961940000001,41.5736489,0 -83.7588993,41.5736461,0 -83.7581584,41.5736468,0 -83.7576596,41.5736473,0 -83.7573155,41.5736476,0 -83.7566183,41.5736483,0 -83.75542470000001,41.5736495,0 -83.75458759999999,41.5736467,0 -83.75359690000001,41.5736446,0 -83.7522692,41.5736459,0 -83.751448,41.5736469,0 -83.7512354,41.5736471,0 -83.7508617,41.5736462,0 -83.74988740000001,41.5736437,0 -83.7497473,41.5736438,0 -83.74959870000001,41.5736439,0 -83.7488743,41.5736446,0 -83.7479866,41.5736455,0 -83.7474201,41.5736448,0 -83.7456743,41.5736425,0 -83.7446685,41.5736396,0 -83.74352020000001,41.5736363,0 -83.74259979999999,41.5736374,0 -83.7415507,41.5736398,0 -83.7398826,41.5736361,0 -83.7392662,41.573639,0 -83.73746420000001,41.5736386,0 -83.7356827,41.5736416,0 -83.7350126,41.5736366,0 -83.7348203,41.5736391,0 -83.73425279999999,41.5736382,0 -83.73399980000001,41.57364,0 -83.7338118,41.5736413,0 -83.7330589,41.5736412,0 -83.7322984,41.5736411,0 -83.73211910000001,41.573641,0 -83.73179810000001,41.573641,0 -83.7296834,41.5736406,0 -83.72916170000001,41.5736425,0 -83.72852159999999,41.5736411,0 -83.7275641,41.5736414,0 -83.7269258,41.5736416,0 -83.7265878,41.5736417,0 -83.7264268,41.5736417,0 -83.7262322,41.5736418,0 -83.72582509999999,41.5736447,0 -83.7252033,41.5736492,0 -83.72513379999999,41.5736486,0 -83.725031,41.5736476,0 -83.72427980000001,41.5736449,0 -83.723209,41.5736445,0 -83.7228475,41.5736443,0 -83.72274899999999,41.5736437,0 -83.7215439,41.5736364,0 -83.71931619999999,41.573623,0 -83.717979,41.573627,0 -83.7179568,41.573627,0 -83.71683299999999,41.573623,0 -83.715237,41.5736281,0 -83.71439239999999,41.5736271,0 -83.71431,41.573627,0 -83.71359320000001,41.5736203,0 -83.71318290000001,41.5736164,0 -83.7125576,41.5736105,0 -83.7124331,41.5736094,0 -83.7120714,41.573606,0 -83.7116709,41.5736021,0 -83.7112199,41.5735978,0 -83.7107348,41.5736015,0 -83.71011300000001,41.573597,0 -83.70883790000001,41.5736167,0 -83.708389,41.5736245,0 -83.7080552,41.5736333,0 -83.707424,41.573644,0 -83.7065408,41.5736544,0 -83.7061836,41.5736424,0 -83.7059598,41.5736266,0 -83.7057353,41.5736053,0 -83.70545679999999,41.5735727,0 -83.7050921,41.5735265,0 -83.7036829,41.5733345,0 -83.7002444,41.5728698,0 -83.7000362,41.5728417,0 -83.6996067,41.5727878,0 -83.69791309999999,41.5725753,0 -83.69709,41.5724642,0 -83.6956416,41.5722682,0 -83.6877223792124,41.57119787761529,0 
				
					-83.6876053,41.5711703,0 -83.68755520000001,41.5711633,0 -83.68673750000001,41.5710496,0 -83.6861972,41.570984,0 -83.6854001,41.5708738,0 -83.68449099999999,41.5707481,0 -83.68383230000001,41.5706618,0 -83.68374009999999,41.5706493,0 -83.68310080000001,41.5705627,0 -83.6828106,41.5705244,0 -83.68269050000001,41.5705085,0 -83.6824577,41.5704778,0 -83.6819994,41.570416,0 -83.6817736,41.5703856,0 -83.6813569,41.5703294,0 -83.6812465,41.5703134,0 -83.680787,41.570247,0 -83.6803379,41.5701875,0 -83.6800958,41.5701554,0 -83.679338,41.570055,0 -83.67834139999999,41.5699238,0 -83.6775044,41.5698137,0 -83.67667059999999,41.569704,0 -83.67658779999999,41.5696931,0 -83.6757365,41.5695811,0 -83.6755352,41.5695546,0 -83.6750268,41.5694877,0 -83.6749058,41.5694718,0 -83.6738368,41.5693311,0 -83.67246830000001,41.569151,0 -83.6711918,41.5689734,0 -83.67104930000001,41.5689527,0 -83.6709594,41.5689396,0 -83.6702435,41.5688355,0 -83.66983260000001,41.5687789,0 -83.6684315,41.5685859,0 -83.66832549999999,41.5685713,0 -83.6676578,41.5684787,0 -83.66754280000001,41.5684638,0 -83.6671405,41.5684117,0 -83.66587509999999,41.5682478,0 -83.66557349999999,41.5682087,0 -83.66541340000001,41.568188,0 -83.665071,41.5681436,0 -83.6647894,41.5681052,0 -83.66467400000001,41.5680894,0 -83.6643117,41.5680399,0 -83.66361499999999,41.5679447,0 -83.66274060000001,41.5678255,0 -83.662328,41.5677693,0 -83.6620386,41.5677298,0 -83.6615669,41.5676654,0 -83.6613954,41.567642,0 -83.6611616,41.5676101,0 -83.66092999999999,41.5675785,0 -83.6605663,41.5675289,0 -83.6601689,41.5674747,0 -83.659775,41.567421,0 -83.65970729999999,41.5674119,0 -83.6591159,41.5673325,0 -83.65828449999999,41.5672208,0 -83.65803219999999,41.567187,0 -83.6573575,41.5670964,0 -83.6571813,41.5670727,0 -83.6569155,41.567037,0 -83.6566886,41.5670065,0 -83.65658089999999,41.5669921,0 -83.65641720000001,41.5669701,0 -83.6563141,41.5669704,0 -83.6562735,41.5669705,0 -83.6562325,41.56698,0 -83.6562125,41.5669847,0 -83.656144,41.5670007,0 
				</coordinates>
			</LineString>
		<atom:link rel="app" href="https://www.google.com/earth/about/versions/#earth-pro" title="Google Earth Pro 7.3.6.10201"></atom:link>
	</Placemark>
</Document>
</kml>
