<?xml version="1.0" encoding="UTF-8"?>
<kml xmlns="http://www.opengis.net/kml/2.2" xmlns:gx="http://www.google.com/kml/ext/2.2" xmlns:kml="http://www.opengis.net/kml/2.2" xmlns:atom="http://www.w3.org/2005/Atom">
<Document>
	<name>US.20A.NY.kml</name>
	<Placemark>
		<name>US.20A.NY</name>
		<LineString>
			<coordinates>
				-78.8096836,42.7707375,0 -78.8094646,42.7704565,0 -78.80927010000001,42.7702567,0 -78.8089793,42.7700182,0 -78.80844140000001,42.7697327,0 -78.80823549999999,42.7696478,0 -78.8080183,42.7695782,0 -78.8079777,42.7695668,0 -78.8077522,42.7695092,0 -78.8071545,42.7694135,0 -78.8065625,42.7693313,0 -78.8055358,42.7691888,0 -78.803837,42.768953,0 -78.802466,42.7687551,0 -78.8023543,42.768739,0 -78.802001,42.768688,0 -78.80182259999999,42.768663,0 -78.80043999999999,42.768469,0 -78.798699,42.768225,0 -78.79849969999999,42.768197,0 -78.797601,42.768071,0 -78.797337,42.768034,0 -78.7970049,42.7679878,0 -78.796167,42.767868,0 -78.79536299999999,42.767753,0 -78.792608,42.767345,0 -78.7922243,42.7672798,0 -78.7916656,42.7671984,0 -78.7914936,42.7671734,0 -78.7913393,42.767151,0 -78.7908985,42.7670934,0 -78.790201,42.767008,0 -78.7878917,42.7667176,0 -78.7875588,42.766674,0 -78.7869767,42.7665976,0 -78.7853837,42.7663886,0 -78.78518630000001,42.7663627,0 -78.78494600000001,42.7663312,0 -78.783794,42.76618,0 -78.78356580000001,42.7661497,0 -78.783357,42.766122,0 -78.78273299999999,42.7660418,0 -78.781987,42.765946,0 -78.7819423,42.7659403,0 -78.781316,42.765861,0 -78.779734,42.765658,0 -78.77914490000001,42.7655824,0 -78.77760000000001,42.765384,0 -78.77542699999999,42.765104,0 -78.7746886,42.7650012,0 -78.7730785,42.7647985,0 -78.7720686,42.7646714,0 -78.77145400000001,42.764594,0 -78.771377,42.764585,0 -78.77126800000001,42.7645704,0 -78.77067599999999,42.764495,0 -78.7693285,42.7643348,0 -78.76893250000001,42.7642878,0 -78.76872400000001,42.764263,0 -78.76802499999999,42.764178,0 -78.7673985,42.7641036,0 -78.7664789,42.7640056,0 -78.765557,42.763895,0 -78.76387029999999,42.76371,0 -78.7633165,42.7636496,0 -78.76252359999999,42.7635347,0 -78.7624368,42.7635221,0 -78.762388,42.763515,0 -78.76187299999999,42.763459,0 -78.76129400000001,42.763395,0 -78.759747,42.763297,0 -78.75918420000001,42.7633009,0 -78.758455,42.7633063,0 -78.7577855,42.7633473,0 -78.7571463,42.7634327,0 -78.756426,42.7635657,0 -78.7560378,42.7636631,0 -78.75521639999999,42.7639074,0 -78.75460200000001,42.76411,0 -78.75407199999999,42.764279,0 -78.753818,42.76436,0 -78.75359779999999,42.7644256,0 -78.752486,42.764757,0 -78.75243,42.764773,0 -78.75142700000001,42.7651048,0 -78.750607,42.765376,0 -78.7502933,42.7654784,0 -78.749234,42.765824,0 -78.7491808,42.765841,0 -78.7490512,42.7658823,0 -78.7484147,42.7660819,0 -78.747466,42.766388,0 -78.747315,42.766436,0 -78.74660160000001,42.7666621,0 -78.7462531,42.7667726,0 -78.745627,42.766971,0 -78.74534730000001,42.7670525,0 -78.74519100000001,42.767098,0 -78.74487190000001,42.7671878,0 -78.7439165,42.7674568,0 -78.7435627,42.7675182,0 -78.7434696,42.7675343,0 -78.74323510000001,42.767575,0 -78.74289039999999,42.7676348,0 -78.74279970000001,42.7676505,0 -78.7424504,42.7677111,0 -78.74176249999999,42.7678304,0 -78.7415855,42.7678611,0 -78.74117699999999,42.767932,0 -78.741038,42.767955,0 -78.74000700000001,42.768129,0 -78.7393828,42.7682215,0 -78.73809199999999,42.76847,0 -78.737739,42.768532,0 -78.7371285,42.7686653,0 -78.73698520000001,42.7687077,0 -78.736312,42.768898,0 -78.736114,42.768961,0 -78.73518,42.769298,0 -78.733244,42.769963,0 -78.73314000000001,42.769995,0 -78.73232,42.770223,0 -78.73158100000001,42.770311,0 -78.731174,42.770358,0 -78.72964810000001,42.7705355,0 -78.729584,42.770543,0 -78.7292951,42.7705767,0 -78.7286924,42.7706471,0 -78.7283924,42.7706822,0 -78.7278341,42.7707474,0 -78.726973,42.770848,0 -78.7267894,42.7708661,0 -78.7259383,42.77095,0 -78.725847,42.770959,0 -78.7256074,42.7709793,0 -78.7251191,42.7710206,0 -78.725043,42.771027,0 -78.724872,42.771035,0 -78.724721,42.771042,0 -78.72439900000001,42.771043,0 -78.7233938,42.7710265,0 -78.7232843,42.7710247,0 -78.72218239999999,42.7710067,0 -78.721763,42.77099,0 -78.7210391,42.7709709,0 -78.719981,42.770943,0 -78.718425,42.7709,0 -78.71757959999999,42.7708877,0 -78.7170588,42.7708802,0 -78.716838,42.770877,0 -78.7160464,42.7708726,0 -78.71521660000001,42.7708679,0 -78.71264720000001,42.7708276,0 -78.7114194,42.7707739,0 -78.71077320000001,42.7707156,0 -78.7102105,42.7706649,0 -78.7099965,42.7706456,0 -78.70909810000001,42.7705352,0 -78.70825499999999,42.770413,0 -78.70689590000001,42.7702243,0 -78.70635969999999,42.7701499,0 -78.70629700000001,42.7701412,0 -78.7044856,42.7698791,0 -78.7044362,42.7698719,0 -78.70312869999999,42.76968,0 -78.7024315,42.7695776,0 -78.70211190000001,42.7695307,0 -78.7005204,42.7692971,0 -78.70000159999999,42.7692209,0 -78.69968900000001,42.769175,0 -78.6992541,42.7691056,0 -78.6983283,42.7689578,0 -78.69752889999999,42.7688301,0 -78.69673899999999,42.768704,0 -78.69565059999999,42.7686463,0 -78.692836,42.768497,0 -78.69220799999999,42.7684617,0 -78.6907418,42.7683793,0 -78.6901591,42.7683466,0 -78.6901086,42.7683437,0 -78.6891086,42.7682876,0 -78.68856340000001,42.7682683,0 -78.68806789999999,42.7682438,0 -78.68763300000001,42.7682297,0 -78.6873028,42.7682099,0 -78.6870866,42.7681905,0 -78.68602250000001,42.7681144,0 -78.6850481,42.7680599,0 -78.6842402,42.7680146,0 -78.68378199999999,42.767989,0 -78.68326329999999,42.7679633,0 -78.6825522,42.767928,0 -78.681382,42.76787,0 -78.67941810000001,42.7677675,0 -78.679006,42.767746,0 -78.6783197,42.7676141,0 -78.6770506,42.7673702,0 -78.676186,42.767204,0 -78.675302,42.767035,0 -78.6750461,42.7669889,0 -78.67363,42.766734,0 -78.6734568,42.7666998,0 -78.6714144,42.7662964,0 -78.669721,42.765962,0 -78.66800499999999,42.765617,0 -78.66748990000001,42.7655135,0 -78.6667623,42.7653673,0 -78.6665623,42.7653271,0 -78.666313,42.765277,0 -78.66587319999999,42.7651888,0 -78.66567499999999,42.765149,0 -78.665217,42.765063,0 -78.6645262,42.7648967,0 -78.664241,42.764828,0 -78.6639469,42.764752,0 -78.663313,42.764588,0 -78.66313409999999,42.7645291,0 -78.662994,42.764483,0 -78.66267999999999,42.764371,0 -78.66249860000001,42.7643012,0 -78.66237099999999,42.764252,0 -78.662068,42.764125,0 -78.6619942,42.7640918,0 -78.66177,42.763991,0 -78.661659,42.7639372,0 -78.661479,42.76385,0 -78.66124120000001,42.7637265,0 -78.66119399999999,42.763702,0 -78.6610031,42.7635956,0 -78.66044599999999,42.763285,0 -78.659667,42.762836,0 -78.6595178,42.7627563,0 -78.659392,42.762689,0 -78.659111,42.762549,0 -78.658823,42.762415,0 -78.658529,42.76229,0 -78.65823,42.762171,0 -78.65795129999999,42.7620696,0 -78.65792500000001,42.76206,0 -78.6578198,42.7620252,0 -78.657616,42.761956,0 -78.657302,42.761861,0 -78.6572767,42.7618531,0 -78.657072,42.761789,0 -78.656604,42.761659,0 -78.656325,42.761597,0 -78.65579700000001,42.761511,0 -78.65526,42.761436,0 -78.65498599999999,42.76141,0 -78.654782,42.7614,0 -78.6546247,42.7613992,0 -78.6538843,42.7614048,0 -78.6537585,42.7614055,0 -78.65348,42.761407,0 -78.6531098,42.761418,0 -78.6526465,42.7614317,0 -78.65248080000001,42.7614366,0 -78.651926,42.761453,0 -78.6493188,42.7615493,0 -78.64924600000001,42.761552,0 -78.64905469999999,42.7615644,0 -78.648365,42.761609,0 -78.6478393,42.7616657,0 -78.64694369999999,42.7617172,0 -78.6464041,42.7617313,0 -78.64597670000001,42.7617382,0 -78.64541,42.761733,0 -78.64466229999999,42.761735,0 -78.64338100000001,42.761733,0 -78.643107,42.76173,0 -78.642914,42.761733,0 -78.642528,42.761753,0 -78.642336,42.761769,0 -78.642145,42.76179,0 -78.641767,42.761846,0 -78.64153260000001,42.7618922,0 -78.641285,42.761941,0 -78.641138,42.7619706,0 -78.640997,42.761999,0 -78.6407325,42.7620582,0 -78.640711,42.762063,0 -78.6405293,42.7621071,0 -78.640427,42.762132,0 -78.64018350000001,42.7622123,0 -78.64006500000001,42.7622457,0 -78.63975000000001,42.762331,0 -78.63960350000001,42.7623783,0 -78.639177,42.762516,0 -78.638565,42.762713,0 -78.6384728,42.7627393,0 -78.638351,42.762774,0 -78.63766889999999,42.7629661,0 -78.63743270000001,42.7630326,0 -78.637148,42.763105,0 -78.63654200000001,42.7632502,0 -78.63642350000001,42.7632786,0 -78.6358329,42.7634276,0 -78.6340455,42.7638486,0 -78.63346249999999,42.7639883,0 -78.6328517,42.7641347,0 -78.63245790000001,42.7642291,0 -78.632037,42.76433,0 -78.63194300000001,42.764417,0 -78.63175630000001,42.7646206,0 -78.6316776,42.7647065,0 -78.631446,42.764959,0 -78.6313016,42.7651165,0 -78.6311225,42.7653151,0 -78.63038969999999,42.7661104,0 -78.630335,42.76617,0 -78.63026000000001,42.766259,0 -78.6301289,42.7663975,0 -78.62978819999999,42.7667966,0 -78.6293812,42.7672731,0 -78.6290982,42.7676035,0 -78.6290434,42.7676288,0 -78.62900089999999,42.7676673,0 -78.62873810000001,42.7677368,0 -78.6286528,42.7677594,0 -78.6282045,42.767783,0 -78.62727099999999,42.767832,0 -78.6270461,42.7678446,0 -78.6268786,42.7678539,0 -78.62652079999999,42.7678739,0 -78.6259285,42.767907,0 -78.625702,42.76792,0 -78.624937,42.7679652,0 -78.6245693,42.767987,0 -78.6244913,42.7679916,0 -78.6242465,42.7680061,0 -78.6236416,42.7680418,0 -78.62346429999999,42.7680523,0 -78.6229419,42.7680832,0 -78.62250229999999,42.7681092,0 -78.6216967,42.7680941,0 -78.6210336,42.7680816,0 -78.6202018,42.768062,0 -78.620006,42.768058,0 -78.6195906,42.7680495,0 -78.6192789,42.7680432,0 -78.61897500000001,42.768037,0 -78.61867599999999,42.7680316,0 -78.61778839999999,42.7680157,0 -78.6171215,42.7680013,0 -78.6169455,42.7679975,0 -78.616275,42.767983,0 -78.6159428,42.7679763,0 -78.6156969,42.7679713,0 -78.6146617,42.7679505,0 -78.6146205,42.7679497,0 -78.61394300000001,42.767936,0 -78.6136642,42.7679303,0 -78.613647,42.76793,0 -78.6131987,42.7679209,0 -78.6131386,42.7679197,0 -78.6130376,42.7679169,0 -78.6126107,42.7679091,0 -78.6123546,42.767904,0 -78.61157710000001,42.7678879,0 -78.60965400000001,42.767855,0 -78.60908000000001,42.767845,0 -78.6078852,42.767824,0 -78.60703890000001,42.7678088,0 -78.60678609999999,42.7678042,0 -78.6062474,42.7677945,0 -78.60616349999999,42.767793,0 -78.605974,42.7677897,0 -78.6054814,42.767781,0 -78.6032795,42.7677422,0 -78.6020188,42.76772,0 -78.60126,42.767706,0 -78.601035,42.767698,0 -78.600313,42.767671,0 -78.5999559,42.7676678,0 -78.59976,42.767666,0 -78.598866,42.767651,0 -78.59883050000001,42.7676503,0 -78.598189,42.767638,0 -78.5981388,42.767637,0 -78.59660119999999,42.7676067,0 -78.596413,42.767603,0 -78.596245,42.767601,0 -78.5957258,42.7675943,0 -78.595625,42.767593,0 -78.595202,42.767588,0 -78.5946033,42.7675735,0 -78.5940463,42.76756,0 -78.5938628,42.7675556,0 -78.59256600000001,42.7675257,0 -78.5919031,42.7675104,0 -78.591154,42.767495,0 -78.590372,42.76748,0 -78.5902919,42.7674785,0 -78.589854,42.7674703,0 -78.58870899999999,42.767449,0 -78.58771299999999,42.767429,0 -78.5871271,42.7674177,0 -78.586296,42.767401,0 -78.58596799999999,42.7674029,0 -78.585126,42.7674076,0 -78.58505100000001,42.767408,0 -78.584181,42.767426,0 -78.5840384,42.7674333,0 -78.58394800000001,42.767438,0 -78.5839141,42.7674412,0 -78.583625,42.767469,0 -78.583382,42.767499,0 -78.58304459999999,42.7675509,0 -78.58290700000001,42.767572,0 -78.582437,42.767629,0 -78.582137,42.767655,0 -78.581873,42.767672,0 -78.581541,42.767687,0 -78.58147700000001,42.76769,0 -78.581153,42.767696,0 -78.580859,42.767693,0 -78.580614,42.767686,0 -78.5805223,42.7676817,0 -78.580313,42.767672,0 -78.580043,42.767655,0 -78.579545,42.767592,0 -78.5793765,42.7675677,0 -78.579019,42.767516,0 -78.5781233,42.7673195,0 -78.577861,42.7673047,0 -78.577354,42.767277,0 -78.576217,42.767246,0 -78.574915,42.767256,0 -78.574061,42.767278,0 -78.5737632,42.7672914,0 -78.572056,42.7673681,0 -78.5702817,42.767407,0 -78.5694517,42.7674171,0 -78.5685742,42.7674369,0 -78.568271,42.767428,0 -78.5669278,42.7674884,0 -78.56544220000001,42.7675411,0 -78.564431,42.7675769,0 -78.562878,42.7675963,0 -78.5594701,42.7677123,0 -78.5594444,42.7677131,0 -78.55882250000001,42.7677319,0 -78.55706960000001,42.7677699,0 -78.5553051,42.7678375,0 -78.555089,42.7678458,0 -78.55421939999999,42.7678735,0 -78.55411890000001,42.7678767,0 -78.5537293,42.7678891,0 -78.5533539,42.7679011,0 -78.5528166,42.7679182,0 -78.5519336,42.7679269,0 -78.55083380000001,42.767978,0 -78.5503448,42.7680007,0 -78.54945480000001,42.7681134,0 -78.549359,42.7681338,0 -78.5491013,42.7681729,0 -78.5478962,42.7683545,0 -78.5478032,42.7683676,0 -78.5471249,42.7684631,0 -78.5470763,42.7684699,0 -78.5470479,42.7684744,0 -78.5467386,42.7685234,0 -78.54667999999999,42.768532,0 -78.5463941,42.7685741,0 -78.5460775,42.7686178,0 -78.5457079,42.7686512,0 -78.5453143,42.7686819,0 -78.54496589999999,42.7686887,0 -78.5446824,42.768692,0 -78.54461740000001,42.7686927,0 -78.5442469,42.7686855,0 -78.5441282,42.7686824,0 -78.5438638,42.7686755,0 -78.5430863,42.7686384,0 -78.5423198,42.7686018,0 -78.54109010000001,42.7685636,0 -78.5407888,42.7685542,0 -78.53992169999999,42.7685273,0 -78.5396228,42.768518,0 -78.5394539,42.7685128,0 -78.53754240000001,42.7684534,0 -78.53659279999999,42.7684239,0 -78.536241,42.768413,0 -78.535783,42.768399,0 -78.53558169999999,42.7684002,0 -78.533197,42.768414,0 -78.532928,42.768412,0 -78.532642,42.768389,0 -78.53245800000001,42.768368,0 -78.5318693,42.7683124,0 -78.5315035,42.7682681,0 -78.5309314,42.7681849,0 -78.5304057,42.7681612,0 -78.530227,42.76814,0 -78.5294878,42.768133,0 -78.5280345,42.7681193,0 -78.5271503,42.768111,0 -78.5268659,42.7681083,0 -78.5266573,42.7681308,0 -78.5264572,42.7681431,0 -78.5251588,42.7681186,0 -78.5249194,42.7681145,0 -78.5245261,42.7680969,0 -78.5241115,42.7680715,0 -78.523679,42.768036,0 -78.52347399999999,42.768016,0 -78.523107,42.767945,0 -78.522887,42.767876,0 -78.522704,42.76781,0 -78.522231,42.767692,0 -78.5221287,42.7676582,0 -78.5197871,42.7668836,0 -78.51861769999999,42.7665095,0 -78.517687,42.766211,0 -78.51721000000001,42.766044,0 -78.51674389999999,42.7658938,0 -78.5167381,42.765892,0 -78.51631690000001,42.7657529,0 -78.51582809999999,42.765581,0 -78.5154574,42.7654582,0 -78.515303,42.765407,0 -78.514814,42.765204,0 -78.514301,42.765041,0 -78.5140162,42.7649694,0 -78.51381600000001,42.764919,0 -78.513705,42.764896,0 -78.51351699999999,42.7648573,0 -78.513282,42.764809,0 -78.512783,42.764745,0 -78.512608,42.764736,0 -78.5124814,42.7647332,0 -78.512113,42.764725,0 -78.511759,42.764728,0 -78.51150199999999,42.764744,0 -78.511268,42.764766,0 -78.51122479999999,42.7647721,0 -78.511021,42.764801,0 -78.51072000000001,42.764849,0 -78.51067209999999,42.7648583,0 -78.510448,42.764902,0 -78.51016,42.764966,0 -78.5099656,42.7650192,0 -78.509857,42.765049,0 -78.509337,42.765206,0 -78.50897999999999,42.7653478,0 -78.5083661,42.7656294,0 -78.5080663,42.7658039,0 -78.5077476,42.7660125,0 -78.5075764,42.7661359,0 -78.5074316,42.7662629,0 -78.50717229999999,42.7664902,0 -78.5069876,42.7666671,0 -78.50647600000001,42.7671348,0 -78.5063064,42.767313,0 -78.50597140000001,42.7676148,0 -78.505638,42.7678596,0 -78.5053475,42.7680519,0 -78.5050246,42.7682441,0 -78.5043678,42.7685394,0 -78.5039644,42.7686966,0 -78.503745,42.7687651,0 -78.5032229,42.7689022,0 -78.5031461,42.7689178,0 -78.502759,42.7689884,0 -78.50224780000001,42.7690528,0 -78.5019277,42.7690796,0 -78.5015358,42.769105,0 -78.5013459,42.7691132,0 -78.4990528,42.7692253,0 -78.4979438,42.7692808,0 -78.4970055,42.7693235,0 -78.495715,42.7693908,0 -78.495409,42.7694027,0 -78.494601,42.7694378,0 -78.4944021,42.7694479,0 -78.49369799999999,42.769472,0 -78.4928493,42.7695148,0 -78.4926162,42.7695266,0 -78.49218550000001,42.7695483,0 -78.49157700000001,42.769579,0 -78.48893339999999,42.7696555,0 -78.487499,42.769697,0 -78.487274,42.769707,0 -78.486133,42.769755,0 -78.4856802,42.7697802,0 -78.485213,42.7698101,0 -78.4845984,42.7698791,0 -78.4844708,42.7698934,0 -78.48421999999999,42.7699247,0 -78.48366780000001,42.7699936,0 -78.4823414,42.7701821,0 -78.48175740000001,42.7702651,0 -78.48153979999999,42.770296,0 -78.4810145,42.7703707,0 -78.4791614,42.7705985,0 -78.4781014,42.7706641,0 -78.47764170000001,42.7706619,0 -78.4746564,42.7704644,0 -78.4735058,42.7703662,0 -78.473281,42.770347,0 -78.47303599999999,42.770342,0 -78.47272700000001,42.770357,0 -78.472465,42.77037,0 -78.47232150000001,42.7703705,0 -78.4713185,42.7704145,0 -78.46923099999999,42.770506,0 -78.46794,42.770473,0 -78.46774069999999,42.7704438,0 -78.4666497,42.7702837,0 -78.4657334,42.7701084,0 -78.46559480000001,42.7700819,0 -78.464573,42.769828,0 -78.464159,42.769745,0 -78.463853,42.769692,0 -78.46346699999999,42.769637,0 -78.46324869999999,42.7696096,0 -78.46292750000001,42.7695694,0 -78.4628713,42.7695622,0 -78.4618443,42.7694894,0 -78.4615927,42.769492,0 -78.4608953,42.7694991,0 -78.4594658,42.7695136,0 -78.45843720000001,42.769524,0 -78.4583411,42.769525,0 -78.4579054,42.7695294,0 -78.4567304,42.7695414,0 -78.45615599999999,42.7695489,0 -78.45533090000001,42.7695596,0 -78.4551682,42.7695617,0 -78.45504560000001,42.7695645,0 -78.4546005,42.7695745,0 -78.4530032,42.7696107,0 -78.4476671,42.7696532,0 -78.4466262,42.7696615,0 -78.44527600000001,42.7696892,0 -78.4438925,42.7696839,0 -78.4436319,42.7696797,0 -78.4428932,42.7696676,0 -78.442798,42.769666,0 -78.441992,42.769711,0 -78.441171,42.769724,0 -78.43915819999999,42.7697461,0 -78.4379752,42.7697591,0 -78.4332515,42.7697758,0 -78.4330521,42.7697793,0 -78.4305801,42.7698148,0 -78.4300456,42.7698177,0 -78.4276988,42.7698374,0 -78.4273199,42.7698433,0 -78.4239044,42.7699138,0 -78.42331489999999,42.7699203,0 -78.41878819999999,42.7699701,0 -78.4158324,42.7700487,0 -78.41416700000001,42.770093,0 -78.4130897,42.7700972,0 -78.4102826,42.770108,0 -78.4082974,42.7701156,0 -78.40742400000001,42.770119,0 -78.40721120000001,42.7701216,0 -78.40676879999999,42.7701269,0 -78.4040787,42.7701592,0 -78.4031919,42.7701699,0 -78.4022484,42.7701813,0 -78.40094000000001,42.770197,0 -78.400479,42.770202,0 -78.400132,42.770206,0 -78.3934,42.7702843,0 -78.3925943,42.7702936,0 -78.38869080000001,42.770339,0 -78.3879793,42.7703455,0 -78.38771389999999,42.7703479,0 -78.382786,42.7703926,0 -78.38087609999999,42.770403,0 -78.38029849999999,42.7704062,0 -78.379518,42.7703897,0 -78.3790856,42.7703646,0 -78.3787052,42.7703425,0 -78.37800780000001,42.7702912,0 -78.3775224,42.7702814,0 -78.3771105,42.7703097,0 -78.37667500000001,42.7703892,0 -78.3764539,42.7704443,0 -78.3761365,42.7705731,0 -78.37556910000001,42.7709782,0 -78.3754806,42.7710548,0 -78.37528500000001,42.7712114,0 -78.37468459999999,42.7717471,0 -78.3738316,42.7725653,0 -78.37348830000001,42.7728489,0 -78.3732255,42.7730072,0 -78.3729733,42.7731324,0 -78.3726944,42.7731954,0 -78.37238859999999,42.7732434,0 -78.3720292,42.7732426,0 -78.3716805,42.7732119,0 -78.37135859999999,42.7731332,0 -78.37105819999999,42.7729599,0 -78.37084369999999,42.7728339,0 -78.370672,42.7726449,0 -78.3692978,42.7710494,0 -78.3685692,42.7702034,0 -78.3683546,42.7699356,0 -78.3681668,42.7697616,0 -78.367904,42.7696206,0 -78.3675606,42.7695103,0 -78.36715289999999,42.7694473,0 -78.36677210000001,42.7694308,0 -78.3664234,42.7694473,0 -78.36601570000001,42.7695261,0 -78.3656295,42.7696521,0 -78.3652057,42.7699191,0 -78.3645137,42.7702979,0 -78.3641135,42.7704405,0 -78.363562,42.770503,0 -78.3607509,42.7705329,0 -78.3556166,42.7705876,0 -78.3525094,42.7705418,0 -78.3520232,42.7705306,0 -78.3511216,42.7705142,0 -78.3478988,42.7705008,0 -78.34494429999999,42.7704964,0 -78.3433119,42.7704775,0 -78.33705689999999,42.7704132,0 -78.33635270000001,42.7704253,0 -78.3356155,42.7704456,0 -78.3352562,42.7704617,0 -78.3347322,42.7704828,0 -78.334056,42.7705105,0 -78.33365329999999,42.770527,0 -78.3330766,42.770546,0 -78.3321028,42.7705845,0 -78.331727,42.770581,0 -78.3312633,42.7705647,0 -78.33046450000001,42.7705006,0 -78.32913240000001,42.7704034,0 -78.3288598,42.7703857,0 -78.3287582,42.7703791,0 -78.3267589,42.7701653,0 -78.3257385,42.7700944,0 -78.3253534,42.7700564,0 -78.3250196,42.7700171,0 -78.3244,42.7699379,0 -78.323708,42.7698192,0 -78.3228604,42.7696135,0 -78.3219824,42.7693685,0 -78.3210186,42.7690212,0 -78.320431,42.768753,0 -78.3200812,42.7685567,0 -78.3193368,42.7681641,0 -78.3185438,42.7676384,0 -78.3178504,42.7671007,0 -78.317359,42.76665,0 -78.31681589999999,42.7660751,0 -78.315343,42.764456,0 -78.31488400000001,42.763884,0 -78.3146263,42.7636108,0 -78.314491,42.7634674,0 -78.31425849999999,42.7632157,0 -78.3139211,42.7628162,0 -78.3138586,42.7627421,0 -78.31373859999999,42.7626001,0 -78.3136945,42.7625479,0 -78.313373,42.7621672,0 -78.31327039999999,42.7620386,0 -78.3129642,42.7616549,0 -78.31278090000001,42.7614251,0 -78.3125083,42.7610835,0 -78.31214009999999,42.7606222,0 -78.312116,42.760592,0 -78.3119298,42.7603912,0 -78.3114719,42.7598973,0 -78.31128339999999,42.7596939,0 -78.31083479999999,42.7592089,0 -78.31053180000001,42.7589256,0 -78.310034,42.758516,0 -78.309793,42.7583533,0 -78.30948650000001,42.7581692,0 -78.3091702,42.7580052,0 -78.3089957,42.7579245,0 -78.308887,42.7578743,0 -78.30876979999999,42.7578251,0 -78.3084089,42.7576912,0 -78.3079946,42.7575581,0 -78.3078761,42.7575226,0 -78.307699,42.7574712,0 -78.3071552,42.757309,0 -78.3066141,42.7571508,0 -78.3060138,42.7569741,0 -78.3056996,42.7568775,0 -78.3048498,42.7566443,0 -78.3031988,42.7561461,0 -78.30181690000001,42.7557365,0 -78.30122129999999,42.7555399,0 -78.2999801,42.7552008,0 -78.29889009999999,42.7550054,0 -78.2977571,42.754955,0 -78.2955513,42.7550243,0 -78.290755,42.7555476,0 -78.2900066,42.7556293,0 -78.28977879999999,42.7556471,0 -78.2896032,42.7556608,0 -78.2860647,42.7559349,0 -78.2821155,42.7562408,0 -78.2813034,42.7563037,0 -78.2805223,42.7562469,0 -78.2784624,42.7559318,0 -78.2770469,42.7556853,0 -78.2761106,42.7555222,0 -78.2736925,42.7550874,0 -78.27232549999999,42.7548416,0 -78.2699959,42.7544174,0 -78.2647784,42.753412,0 -78.2642737,42.7533147,0 -78.2631506,42.7530962,0 -78.2615417,42.7527832,0 -78.260395,42.7525601,0 -78.2485932,42.7502408,0 -78.2479438,42.7501102,0 -78.24473949999999,42.7494655,0 -78.2437353,42.7492512,0 -78.2427053,42.7491251,0 -78.2382849,42.7488857,0 -78.2373322,42.7487785,0 -78.2341308,42.7481734,0 -78.22681780000001,42.7466731,0 -78.2240925,42.746114,0 -78.2238998,42.7460745,0 -78.21929059999999,42.7451164,0 -78.21573720000001,42.7444042,0 -78.2129048,42.7437801,0 -78.2067765,42.7422799,0 -78.20251930000001,42.7411453,0 -78.20232849999999,42.7411162,0 -78.19662700000001,42.740246,0 -78.192162,42.739583,0 -78.19051140000001,42.7393267,0 -78.19029949999999,42.7393017,0 -78.1900854,42.7392872,0 -78.1899138,42.7392824,0 -78.18974009999999,42.7392839,0 -78.1857062,42.7394477,0 -78.1854256,42.7394588,0 -78.1762722,42.7398006,0 -78.1753858,42.7398268,0 -78.1620824,42.7397111,0 -78.1599023,42.7396543,0 -78.15934439999999,42.7396354,0 -78.1573703,42.7395472,0 -78.1559658,42.739479,0 -78.1555228,42.7394601,0 -78.1552542,42.739451,0 -78.1543748,42.7394211,0 -78.15349569999999,42.739406,0 -78.15343369999999,42.7394027,0 -78.15320749999999,42.7394017,0 -78.1523148,42.7394338,0 -78.1503786,42.7394418,0 -78.14983340000001,42.7395149,0 -78.1489558,42.7396409,0 -78.1483167,42.7397054,0 -78.1475923,42.7397406,0 -78.1472661,42.7397408,0 -78.14689540000001,42.7397288,0 -78.14668570000001,42.7397161,0 -78.1463531,42.7397161,0 -78.14598429999999,42.7397673,0 -78.1454518,42.7398343,0 -78.1450541,42.7398855,0 -78.1445726,42.7399426,0 -78.1420923,42.7400066,0 -78.1418192,42.7400213,0 -78.1414698,42.7400459,0 -78.14124990000001,42.7400813,0 -78.1410802,42.7401259,0 -78.1407952,42.7402013,0 -78.14061529999999,42.7402336,0 -78.14044629999999,42.7402523,0 -78.140293,42.7402579,0 -78.13914269999999,42.7402543,0 -78.13757409999999,42.7402522,0 -78.13735560000001,42.7402505,0 -78.13613410000001,42.7402441,0 -78.1360397,42.740244,0 -78.1359561,42.7402452,0 -78.13571109999999,42.7402473,0 -78.1347427,42.7402352,0 -78.133849,42.7402293,0 -78.1332187,42.7402246,0 -78.1329049,42.7402246,0 -78.13275830000001,42.7402231,0 -78.132583,42.7402213,0 -78.1324347,42.7402224,0 -78.1318891,42.7402266,0 -78.1306551,42.7402359,0 -78.1304343,42.7402321,0 -78.13018030000001,42.7402376,0 -78.12875099999999,42.7402343,0 -78.12853370000001,42.7402549,0 -78.12835099999999,42.7403137,0 -78.128199,42.7403922,0 -78.1280697,42.7404677,0 -78.12795439999999,42.740576,0 -78.1278579,42.7407243,0 -78.1277667,42.7409186,0 -78.12766000000001,42.7411461,0 -78.1275364,42.7415453,0 -78.1274839,42.741754,0 -78.127442,42.7419364,0 -78.1274315,42.7421114,0 -78.12748790000001,42.7426607,0 -78.1275121,42.7429714,0 -78.1275119,42.7433637,0 -78.1274877,42.7436212,0 -78.1273898,42.744061,0 -78.1272716,42.744561,0 -78.127213,42.7447838,0 -78.12714630000001,42.7449892,0 -78.1270773,42.7451613,0 -78.1269913,42.7453018,0 -78.12688540000001,42.7454491,0 -78.1267642,42.745592,0 -78.1265836,42.7457746,0 -78.1263988,42.7459268,0 -78.12625009999999,42.7460356,0 -78.1260815,42.7461388,0 -78.1258584,42.7462516,0 -78.1256475,42.7463423,0 -78.1254636,42.746407,0 -78.1253073,42.7464557,0 -78.1251364,42.7464993,0 -78.124855,42.7465538,0 -78.124465,42.7466098,0 -78.1235552,42.7465783,0 -78.1209803,42.7464585,0 -78.1190663,42.7463766,0 -78.1139326,42.7461059,0 -78.11229539999999,42.7460344,0 -78.1096033,42.7459509,0 -78.103252,42.745631,0 -78.0992505,42.7453899,0 -78.084934,42.744539,0 -78.0815454,42.7443325,0 -78.0810089,42.7442839,0 -78.0793438,42.7441831,0 -78.07881500000001,42.744153,0 -78.0741451,42.7438519,0 -78.0662229,42.7441104,0 -78.0642745,42.7440662,0 -78.0613053,42.7440142,0 -78.06079029999999,42.7440221,0 -78.0594735,42.7441176,0 -78.0578721,42.7442569,0 -78.0550083,42.7445061,0 -78.0504423,42.744944,0 -78.050315,42.7449549,0 -78.045638,42.745356,0 -78.0364063,42.7461949,0 -78.03396669999999,42.7464062,0 -78.03291849999999,42.7465007,0 -78.030841,42.7466959,0 -78.0281202,42.7469341,0 -78.02535589999999,42.7471432,0 -78.01645000000001,42.747889,0 -78.0056682,42.7486665,0 -77.9932522,42.7495388,0 -77.99088589999999,42.7496945,0 -77.9820129,42.7502551,0 -77.9640958,42.7513986,0 -77.9550407,42.7520214,0 -77.949358,42.7523925,0 -77.94585530000001,42.7526096,0 -77.9371014,42.7531678,0 -77.9301964,42.7536283,0 -77.9293672,42.7537109,0 -77.9288651,42.7537609,0 -77.9285369,42.7540454,0 -77.9282855,42.7542633,0 -77.9277191,42.7548627,0 -77.9255703,42.7572197,0 -77.92345,42.7595872,0 -77.92285029999999,42.7602529,0 -77.9218195,42.7613633,0 -77.92123960000001,42.761988,0 -77.9209894,42.7622568,0 -77.92091139999999,42.7623412,0 -77.91912139999999,42.7642782,0 -77.9182776,42.7651464,0 -77.9153639,42.7681442,0 -77.91311039999999,42.7705549,0 -77.91254170000001,42.7711069,0 -77.9118825,42.7715367,0 -77.9114732,42.7717568,0 -77.91072800000001,42.772004,0 -77.91010249999999,42.7721725,0 -77.9094005,42.7722546,0 -77.9092387,42.7722651,0 -77.90852649999999,42.7722646,0 -77.9077585,42.7722232,0 -77.9072398,42.7721812,0 -77.90657109999999,42.7721411,0 -77.9059072,42.7720817,0 -77.9050386,42.772024,0 -77.904668,42.772011,0 -77.9032933,42.7720174,0 -77.9014854,42.7720432,0 -77.9013765,42.7720448,0 -77.90100959999999,42.7720515,0 -77.898341,42.7721009,0 -77.89816949999999,42.7721079,0 -77.8977561,42.7721651,0 -77.89733940000001,42.7722246,0 -77.8967231,42.7722681,0 -77.8961056,42.7722776,0 -77.8945307,42.7723017,0 -77.8942582,42.7722636,0 -77.8940199,42.7722149,0 -77.8938637,42.7721909,0 -77.8937012,42.7721735,0 -77.8934208,42.7721638,0 -77.8928719,42.7721678,0 -77.8925105,42.7721721,0 -77.89201749999999,42.7721761,0 -77.89151459999999,42.7721775,0 -77.8910171,42.7721698,0 -77.89052100000001,42.7721384,0 -77.89006019999999,42.7720855,0 -77.8895866,42.7720132,0 -77.8863819,42.7714065,0 -77.88482070000001,42.7711928,0 -77.88407309999999,42.7710986,0 -77.8824242,42.7708907,0 -77.881317,42.77085,0 -77.880106,42.770987,0 -77.878957,42.771467,0 -77.8781563,42.7718862,0 -77.87790200000001,42.772037,0 -77.8758237,42.7730821,0 -77.8748418,42.7736629,0 -77.8745163,42.7738441,0 -77.87282,42.774868,0 -77.8721298,42.7752167,0 -77.87164180000001,42.775505,0 -77.8714415,42.7756885,0 -77.8713085,42.7759433,0 -77.8710586,42.7768054,0 -77.8710107,42.7769041,0 -77.8709109,42.776997,0 -77.8707789,42.7770503,0 -77.87070610000001,42.7770634,0 -77.8703039,42.777066,0 -77.8701001,42.7770639,0 -77.86974979999999,42.7770683,0 -77.8685701,42.7770545,0 -77.8625239,42.77702,0 -77.8614256,42.7769952,0 -77.8611057,42.7769746,0 -77.86050040000001,42.776886,0 -77.8599608,42.7767841,0 -77.8585642,42.77649,0 -77.8579889,42.7763997,0 -77.8572549,42.7763618,0 -77.854856,42.776499,0 -77.854645,42.776505,0 -77.8512954,42.7767345,0 -77.84925,42.7768686,0 -77.8461911,42.7770522,0 -77.84313210000001,42.77714,0 -77.8416718,42.7770902,0 -77.8406521,42.7770464,0 -77.8376854,42.7769236,0 -77.8366066,42.7769865,0 -77.8356775,42.7771171,0 -77.8356273,42.7771242,0 -77.8350526,42.7772835,0 -77.83483390000001,42.7773699,0 -77.83421679999999,42.7775846,0 -77.83247609999999,42.7783586,0 -77.831125,42.7789799,0 -77.8298351,42.7796329,0 -77.82756740000001,42.780905,0 -77.826803,42.7813226,0 -77.8264527,42.7814432,0 -77.8262342,42.7815184,0 -77.82567419999999,42.7816067,0 -77.825266,42.7824727,0 -77.8238516,42.7851697,0 -77.8235026,42.7858169,0 -77.82131800000001,42.789892,0 -77.82099359999999,42.790529,0 -77.8207537,42.7909529,0 -77.819661,42.7930033,0 -77.8195279,42.7932329,0 -77.8194228,42.7933545,0 -77.8193034,42.7934542,0 -77.819159,42.7935345,0 -77.81903749999999,42.7935773,0 -77.8188694,42.7936184,0 -77.8186546,42.7936373,0 -77.8180698,42.7936586,0 -77.8175857,42.7936652,0 -77.81751370000001,42.7936662,0 -77.81739760000001,42.7936579,0 -77.8172338,42.7936389,0 -77.81715629999999,42.7936237,0 -77.8170787,42.7936086,0 -77.8167979,42.7935525,0 -77.8164929,42.7934718,0 -77.8163832,42.7934429,0 -77.8161051,42.7933711,0 -77.81580630000001,42.7932802,0 -77.8150938,42.7930607,0 -77.8148425,42.7930044,0 -77.8145875,42.7929616,0 -77.8144016,42.7929399,0 -77.8136861,42.792858,0 -77.8130189,42.7927808,0 -77.81199429999999,42.7926504,0 -77.80955299999999,42.792395,0 -77.8082438,42.7922594,0 -77.8080779,42.792275,0 -77.807686,42.7923062,0 -77.8074999,42.7923243,0 -77.8073136,42.7923465,0 -77.80710430000001,42.7923873,0 -77.8068964,42.7924326,0 -77.8064147,42.7925489,0 -77.8053135,42.7928222,0 -77.8046938,42.7929722,0 -77.80139579999999,42.7937797,0 -77.801051,42.7938666,0 -77.8000055,42.79413,0 -77.7994016,42.794286,0 -77.7980829,42.7946319,0 -77.797631,42.7947495,0 -77.7971482,42.7948751,0 -77.7970662,42.7948964,0 -77.7968228,42.7949688,0 -77.7962878,42.7951311,0 -77.795236,42.7953983,0 -77.7944318,42.7956138,0 -77.79384659999999,42.7957707,0 -77.7933905,42.7958929,0 -77.792704,42.7960769,0 -77.79192930000001,42.7962846,0 -77.79150319999999,42.7963988,0 -77.791383,42.796431,0 -77.791031,42.796527,0 -77.79043299999999,42.79669,0 -77.7892372,42.7970058,0 -77.7890441,42.7970566,0 -77.78894459999999,42.7970828,0 -77.788848,42.7971082,0 -77.78862719999999,42.7971663,0 -77.78830979999999,42.7972557,0 -77.78812189999999,42.7973087,0 -77.7880076,42.7973469,0 -77.7878971,42.7973838,0 -77.78781069999999,42.7974127,0 -77.787515,42.797536,0 -77.78738559999999,42.7976028,0 -77.7870104,42.7977965,0 -77.7865989,42.7980307,0 -77.7862521,42.798228,0 -77.7857267,42.7985269,0 -77.7847137,42.7991304,0 -77.7827394,42.8003035,0 -77.7814212,42.8010842,0 -77.779747,42.8020859,0 -77.7787907,42.8026528,0 -77.7782649,42.8029855,0 -77.7768952,42.8038524,0 -77.7749259,42.8050987,0 -77.7745271,42.8053503,0 -77.77416820000001,42.8055463,0 -77.7736274,42.8058624,0 -77.7733032,42.8060527,0 -77.7720825,42.8067692,0 -77.7698704,42.8080949,0 -77.7679004,42.8092755,0 -77.7674641,42.809537,0 -77.7655796,42.8106936,0 -77.7654588,42.8107677,0 -77.76357299999999,42.8119251,0 -77.76169109999999,42.8130801,0 -77.7534327,42.8181757,0 -77.7500476,42.8202134,0 -77.7489418,42.8208694,0 -77.74814499999999,42.8212511,0 -77.7477502,42.821412,0 -77.7474823,42.8215212,0 -77.7459751,42.8221578,0 -77.7453902,42.8224048,0 -77.74464,42.8227216,0 -77.73983320000001,42.8247515,0 -77.7393708,42.8249446,0 -77.7387715,42.8251965,0 -77.737554,42.8257081,0 -77.73713290000001,42.8258835,0 -77.73579890000001,42.8264544,0 -77.73517339999999,42.8267235,0 -77.73384780000001,42.8272403,0 -77.7322818,42.8278999,0 -77.7314365,42.8282543,0 -77.73059720000001,42.8286067,0 -77.72964210000001,42.8290156,0 -77.7255571,42.8307407,0 -77.7216545,42.8323773,0 -77.72025290000001,42.8329652,0 -77.7176607,42.834061,0 -77.7170505,42.8343153,0 -77.71639999999999,42.8345763,0 -77.7159843,42.8347298,0 -77.7158373,42.8347734,0 -77.7156597,42.8348261,0 -77.7151528,42.8349186,0 -77.7140263,42.8351015,0 -77.71401210000001,42.8351036,0 -77.7134703,42.8351826,0 -77.7105526,42.835608,0 -77.7098455,42.8357167,0 -77.7090719,42.8358356,0 -77.7084718,42.8359279,0 -77.7079086,42.8360145,0 -77.7066123,42.8362208,0 -77.706103,42.8362922,0 -77.7056903,42.8363454,0 -77.705478,42.8363751,0 -77.70530239999999,42.8363821,0 -77.7051663,42.8363733,0 -77.7050837,42.8363502,0 -77.70499100000001,42.836316,0 -77.7048793,42.8362643,0 -77.7047666,42.8362218,0 -77.7044123,42.8361198,0 -77.7035497,42.8358861,0 -77.7030815,42.8357741,0 -77.7026096,42.8356633,0 -77.7023295,42.8355925,0 -77.70216050000001,42.8355492,0 -77.70127479999999,42.8353226,0 -77.70089040000001,42.8352243,0 -77.6994371,42.8348576,0 -77.6988487,42.8346721,0 -77.6983015,42.8344348,0 -77.6974895,42.8340551,0 -77.6970268,42.8338227,0 -77.6968364,42.8337271,0 -77.69662460000001,42.8335934,0 -77.6963422,42.8333949,0 -77.6960127,42.8331317,0 -77.6958312,42.8329901,0 -77.69577820000001,42.8329488,0 -77.6955646,42.8327822,0 -77.6954181,42.8326679,0 -77.69527650000001,42.8325574,0 -77.6952627,42.8325466,0 -77.6951868,42.8324874,0 -77.69515,42.8324587,0 -77.69492459999999,42.8322827,0 -77.6947443,42.832142,0 -77.6946653,42.83206,0 -77.6943508,42.8317335,0 -77.69352739999999,42.8309388,0 -77.69330890000001,42.8307279,0 -77.69286459999999,42.8303229,0 -77.69232270000001,42.829774,0 -77.6921072,42.8295064,0 -77.69176659999999,42.8290222,0 -77.6915025,42.8286934,0 -77.6911738,42.8284345,0 -77.68965110000001,42.8276746,0 -77.6890114,42.8273553,0 -77.6875833,42.8266564,0 -77.6871976,42.8264676,0 -77.6863092,42.8260328,0 -77.68514740000001,42.8256205,0 -77.68331379999999,42.8250362,0 -77.6826104,42.824792,0 -77.6816062,42.8244434,0 -77.6810016,42.8242455,0 -77.6808786,42.8242052,0 -77.6805598,42.8241009,0 -77.67914450000001,42.8236376,0 -77.6782757,42.823369,0 -77.6767905,42.8230335,0 -77.6763285,42.8229292,0 -77.67630339999999,42.8229227,0 -77.67628670000001,42.8229183,0 -77.67509699999999,42.8226079,0 -77.6745959,42.82249,0 -77.6727448,42.8220545,0 -77.6725947,42.822033,0 -77.6724349,42.8220067,0 -77.67164870000001,42.8219004,0 -77.67122449999999,42.8218564,0 -77.6702605,42.8218012,0 -77.6697724,42.8217932,0 -77.66956260000001,42.8217932,0 -77.6695093,42.8217927,0 -77.66883009999999,42.8217806,0 -77.6685804,42.8217783,0 -77.6683578,42.8217762,0 -77.6679439,42.8217722,0 -77.6677593,42.8217708,0 -77.6672032,42.8217685,0 -77.666554,42.8217652,0 -77.6660626,42.8217616,0 -77.6648039,42.8217489,0 -77.6644759,42.8217456,0 -77.6631773,42.8217325,0 -77.66212779999999,42.8217223,0 -77.6616753,42.8217189,0 -77.66132500000001,42.8217163,0 -77.65930729999999,42.8217012,0 -77.65880439999999,42.8217117,0 -77.6565696,42.8216774,0 -77.65541279999999,42.8216722,0 -77.6518099,42.8216558,0 -77.65175619999999,42.8216555,0 -77.6507531,42.8216496,0 -77.6502741,42.8216446,0 -77.6500497,42.8216423,0 -77.6496164,42.8216388,0 -77.6483569,42.8216286,0 -77.6471691,42.821619,0 -77.6446887,42.8215989,0 -77.6445248,42.8215976,0 -77.6441433,42.8215945,0 -77.6440216,42.8215934,0 -77.6439055,42.8215923,0 -77.64334289999999,42.821587,0 -77.6418687,42.8215733,0 -77.6400798,42.8215759,0 -77.6389873,42.8215581,0 -77.6358489,42.8215448,0 -77.63476060000001,42.8215402,0 -77.629744,42.821519,0 -77.62813300000001,42.821524,0 -77.624719,42.821536,0 -77.6198291,42.821535,0 -77.6197451,42.821535,0 -77.61799019999999,42.8215346,0 -77.6172157,42.8215344,0 -77.6140649,42.8215338,0 -77.6117613,42.8215333,0 -77.6113368,42.8214463,0 -77.6109057,42.8213026,0 -77.6107143,42.8211852,0 -77.61044,42.8210168,0 -77.6102832,42.8208474,0 -77.61009420000001,42.8206431,0 -77.60989170000001,42.8202474,0 -77.60989600000001,42.8160419,0 -77.60989619999999,42.8158249,0 -77.6098975,42.8145462,0 -77.6099476,42.8084855,0 -77.609916,42.8066084,0 -77.60950870000001,42.8044385,0 -77.6086926,42.8002712,0 -77.60835109999999,42.7985272,0 -77.6078711,42.7965524,0 -77.6077276,42.796294,0 -77.6075517,42.7959665,0 -77.60717030000001,42.7952565,0 -77.6070855,42.7950771,0 -77.60680840000001,42.7945507,0 -77.6067236,42.7943737,0 -77.60617670000001,42.7931673,0 -77.60612810000001,42.7930181,0 -77.6060157,42.7926733,0 -77.60589830000001,42.7921085,0 -77.6058853,42.7910985,0 -77.605878,42.7906675,0 -77.6058737,42.7900001,0 -77.6047145,42.7899957,0 -77.603984,42.7899868,0 -77.6036321,42.7899842,0 -77.6032859,42.7899662,0 -77.60297129999999,42.7899211,0 -77.60266129999999,42.7898366,0 -77.6022341,42.7896835,0 -77.6021405,42.789631,0 -77.6018199,42.7894513,0 -77.6013387,42.7889916,0 -77.60120499999999,42.7887754,0 -77.6006684,42.7873867,0 -77.60047470000001,42.7869657,0 -77.6000858,42.7864735,0 -77.599673,42.7861401,0 -77.599211,42.785895,0 -77.5987021,42.7857373,0 -77.5985192,42.785704,0 -77.59808870000001,42.7856256,0 -77.5974868,42.7856154,0 -77.5968295,42.7857017,0 -77.5960639,42.785959,0 -77.59438849999999,42.7867542,0 -77.5941315,42.7868762,0 -77.5931837,42.7873369,0 -77.5914808,42.7881667,0 -77.5894122,42.7891651,0 -77.5884128,42.7894743,0 -77.5875491,42.7896556,0 -77.58734680000001,42.7896981,0 -77.5864047,42.7897816,0 -77.5826357,42.7897711,0 -77.5781461,42.7897313,0 -77.57673130000001,42.7897188,0 -77.5758945,42.7897113,0 -77.5747631,42.7897013,0 -77.574241,42.789741,0 -77.57367910000001,42.7898019,0 -77.57336669999999,42.7898591,0 -77.5724522,42.7900267,0 -77.5719565,42.7901255,0 -77.57076619999999,42.7903627,0 -77.5697115,42.7904468,0 -77.5689184,42.7904175,0 -77.5681909,42.7903395,0 -77.5677597,42.7902786,0 -77.5676404,42.7902618,0 -77.56705839999999,42.7901796,0 -77.564449,42.789811,0 -77.56425470000001,42.7897883,0 -77.5629151,42.7896316,0 -77.56124699999999,42.7894366,0 -77.56111629999999,42.7894213,0 -77.5608996,42.789396,0 -77.5603558,42.7893186,0 -77.55999420000001,42.7892213,0 -77.5598427,42.7891806,0 -77.5589185,42.788932,0 -77.5581169,42.7888207,0 -77.5574191,42.7888134,0 -77.5569828,42.7888467,0 -77.5565005,42.7889399,0 -77.5561415,42.7890092,0 -77.5556763,42.7891162,0 -77.5546296,42.7893569,0 -77.5543089,42.7894232,0 -77.55396210000001,42.789495,0 -77.5530369,42.7895846,0 -77.5509058,42.7895748,0 -77.54936979999999,42.7895677,0 -77.545948,42.789552,0 -77.5450537,42.7895501,0 -77.54400889999999,42.789548,0 -77.5429182,42.7895457,0 -77.540885,42.7895436,0 -77.5373671,42.7895401,0 -77.53728289999999,42.78954,0 -77.5360041,42.7895387,0 -77.53415010000001,42.7895369,0 -77.5325881,42.7895353,0 -77.5318719,42.7896229,0 -77.5317914,42.7896328,0 -77.5313355,42.7896886,0 -77.530298,42.7898156,0 -77.5299162,42.7898484,0 -77.5292986,42.7899015,0 -77.5286287,42.7898784,0 -77.5286141,42.7898779,0 -77.52755620000001,42.7898414,0 -77.5263862,42.7897817,0 -77.52587029999999,42.7897779,0 -77.5251973,42.7898461,0 -77.5227462,42.7902211,0 -77.5212841,42.790479,0 -77.5208269,42.790545,0 -77.5204287,42.7905638,0 -77.51994379999999,42.7905397,0 -77.51925180000001,42.7904524,0 -77.5188493,42.7903892,0 -77.5177846,42.7902244,0 -77.5177623,42.7902207,0 -77.5173949,42.7901598,0 -77.5166837,42.7900661,0 -77.51565960000001,42.7899189,0 -77.5150952,42.7898378,0 -77.5147042,42.7897886,0 -77.5144923,42.7897644,0 -77.513161,42.7896123,0 -77.51276059999999,42.7895981,0 -77.51267,42.7895981,0 -77.5121627,42.7895951,0 -77.5112377,42.7895889,0 -77.5109716,42.7895874,0 -77.5109571,42.7895873,0 -77.5105618,42.7895844,0 -77.51015390000001,42.7895817,0 -77.5098976,42.7895795,0 -77.5097379,42.7895794,0 -77.5096398,42.7895784,0 -77.5093567,42.7895766,0 -77.50898909999999,42.7895788,0 -77.5084954,42.7895731,0 -77.5084244,42.7895734,0 -77.50793229999999,42.7895812,0 -77.507524,42.7895876,0 -77.5067468,42.7895883,0 -77.50600590000001,42.789591,0 -77.50593720000001,42.7895913,0 -77.50582,42.7895939,0 -77.50550610000001,42.7895971,0 -77.50494500000001,42.7896028,0 -77.50480659999999,42.7896042,0 -77.50339409999999,42.7896284,0 -77.5026924,42.7896314,0 -77.5016603,42.7896366,0 -77.501122,42.7896212,0 -77.5009069,42.7896039,0 -77.50067369999999,42.7895851,0 -77.50033860000001,42.7895294,0 -77.5000033,42.7894604,0 -77.4994263,42.7892831,0 -77.4989917,42.7891275,0 -77.4987368,42.7890354,0 -77.49848799999999,42.7889744,0 -77.49807560000001,42.7888928,0 -77.49770650000001,42.7888676,0 -77.4974308,42.7888807,0 -77.4970971,42.788918,0 -77.49668819999999,42.7890157,0 -77.496661,42.7890249,0 -77.4963661,42.7891251,0 -77.4960662,42.7892637,0 -77.4957869,42.7894427,0 -77.4955128,42.7896758,0 -77.4953204,42.7898817,0 -77.4952388,42.7900437,0 -77.4951745,42.7901714,0 -77.4950372,42.7905808,0 -77.4950077,42.7907846,0 -77.49502,42.7910847,0 -77.4950786,42.791509,0 -77.4950887,42.7915823,0 -77.49512300000001,42.792483,0 -77.49507149999999,42.7928609,0 -77.49496689999999,42.7932208,0 -77.4948442,42.7934094,0 -77.494573,42.7937334,0 -77.4943306,42.7939053,0 -77.4941142,42.7940422,0 -77.4938916,42.7941689,0 -77.4938605,42.7941858,0 -77.49338419999999,42.7944454,0 -77.49278839999999,42.7947882,0 -77.49241000000001,42.7950498,0 -77.49206169999999,42.7953099,0 -77.49181609999999,42.7955228,0 -77.49174189999999,42.7955918,0 -77.4915592,42.7957617,0 -77.49111449999999,42.7962641,0 -77.490719,42.796701,0 -77.4904155,42.7970282,0 -77.4901797,42.7972601,0 -77.4897746,42.7975977,0 -77.4894013,42.7978764,0 -77.48925149999999,42.7979883,0 -77.4886805,42.7983879,0 -77.488142,42.7987621,0 -77.487978,42.7988761,0 -77.4878446,42.7989688,0 -77.4875657,42.7991626,0 -77.4873082,42.7993471,0 -77.48718650000001,42.7994343,0 -77.4865945,42.7998586,0 -77.4864214,42.7999826,0 -77.4858251,42.80041,0 -77.48552720000001,42.8006235,0 -77.48535339999999,42.800748,0 -77.4853303,42.8007649,0 -77.4844228,42.8014295,0 -77.48381449999999,42.8018939,0 -77.4835092,42.802127,0 -77.4816359,42.8034404,0 -77.4815205,42.8035213,0 -77.4813401,42.8036376,0 -77.4811394,42.8037417,0 -77.4800051,42.8044495,0 -77.47835480000001,42.805465,0 -77.4777632,42.8057794,0 -77.4771702,42.8060475,0 -77.4764188,42.8063871,0 -77.4763651,42.8064082,0 -77.47461010000001,42.8070981,0 -77.47406789999999,42.8073112,0 -77.4738322,42.8074166,0 -77.4712136,42.8083821,0 -77.4689686,42.8092098,0 -77.4686095,42.8093422,0 -77.4674559,42.8097675,0 -77.46708049999999,42.8099326,0 -77.46422,42.8111906,0 -77.4636009,42.8114778,0 -77.4633115,42.811612,0 -77.4630073,42.8117531,0 -77.4627777,42.8118596,0 -77.45980830000001,42.8132369,0 -77.45851399999999,42.813996,0 -77.4564829,42.8150808,0 -77.4552808,42.8157228,0 -77.45459630000001,42.8161171,0 -77.4529618,42.8171329,0 -77.4524157,42.8175943,0 -77.45196129999999,42.818104,0 -77.4516252,42.818481,0 -77.4508347,42.8193676,0 -77.4501539,42.8199718,0 -77.4492589,42.8204933,0 -77.44828579999999,42.8208737,0 -77.4480174,42.8209452,0 -77.447204,42.821162,0 -77.4464756,42.8214065,0 -77.4463815,42.8214381,0 -77.4463068,42.8214735,0 -77.44564819999999,42.8217858,0 -77.44505169999999,42.8221727,0 -77.4449657,42.8222285,0 -77.4448285,42.8223175,0 -77.4444144,42.8226272,0 -77.4440563,42.822895,0 -77.4435374,42.8232831,0 -77.44317529999999,42.8235539,0 -77.4425931,42.8239893,0 -77.4425086,42.8240455,0 -77.4423412,42.8241569,0 -77.4417406,42.8245565,0 -77.43965609999999,42.8259434,0 -77.4386902,42.8267116,0 -77.43784100000001,42.827387,0 -77.4369373,42.8282547,0 -77.4368126,42.8283744,0 -77.43675690000001,42.8284279,0 -77.43599020000001,42.8288818,0 -77.4352238,42.8292047,0 -77.4348277,42.8293716,0 -77.4338102,42.8298003,0 -77.43237000000001,42.830356,0 -77.4314139,42.8306137,0 -77.4296296,42.8310945,0 -77.42935300000001,42.831169,0 -77.427706,42.831443,0 -77.4269764,42.8314555,0 -77.42656049999999,42.8314626,0 -77.4258559,42.8314007,0 -77.4246347,42.8312935,0 -77.4237066,42.8311558,0 -77.4227381,42.8310214,0 -77.4209013,42.830927,0 -77.4186783,42.8312354,0 -77.417614,42.8313298,0 -77.4146341,42.8311927,0 -77.4137976,42.8311959,0 -77.4119798,42.8312028,0 -77.40997729999999,42.8312104,0 -77.4063654,42.8312088,0 -77.40613930000001,42.8312098,0 -77.401961,42.8312096,0 -77.40080039999999,42.8312095,0 -77.40080260000001,42.8312415,0 -77.4009523,42.832207,0 -77.4009793,42.8324989,0 -77.4010167,42.8329025,0 -77.4010377,42.8331293,0 -77.4011399,42.8349885,0 -77.40115160000001,42.8352008,0 -77.40123749999999,42.8359939,0 -77.4011946,42.8380331,0 -77.4007502,42.8398666,0 -77.40055460000001,42.8406735,0 -77.400521,42.840812,0 -77.4003896,42.8412608,0 -77.4002711,42.8416652,0 -77.40020250000001,42.8418995,0 -77.39973329999999,42.8435015,0 -77.39932349999999,42.8449747,0 -77.3991202,42.8454338,0 -77.39880839999999,42.8459562,0 -77.3983405,42.8464996,0 -77.3950674,42.8500376,0 -77.39214800000001,42.8545269,0 -77.3916996,42.8552408,0 -77.390852,42.8565906,0 -77.3902597,42.8583335,0 -77.3900258,42.8592142,0 -77.3896494,42.8606312,0 -77.3894894,42.8612335,0 -77.38934399999999,42.8618688,0 -77.389321,42.8620472,0 -77.3892721,42.8624262,0 -77.38931340000001,42.8633331,0 -77.3893707,42.8637345,0 -77.389402,42.863954,0 -77.3894233,42.8641034,0 -77.389495,42.864602,0 -77.389538,42.864906,0 -77.38963320000001,42.8661721,0 -77.38964129999999,42.8662792,0 -77.38964060000001,42.8664198,0 -77.3896262,42.869456,0 -77.3896349,42.8712868,0 -77.3896378,42.8718751,0 -77.389653,42.875064,0 -77.3896197,42.8807214,0 -77.3896125,42.8812634,0 -77.3895875,42.8831379,0 
			</coordinates>
		</LineString>
		<atom:link rel="app" href="https://www.google.com/earth/about/versions/#earth-pro" title="Google Earth Pro 7.3.6.10201"></atom:link>
	</Placemark>
</Document>
</kml>
