<?xml version="1.0" encoding="UTF-8"?>
<kml xmlns="http://www.opengis.net/kml/2.2" xmlns:gx="http://www.google.com/kml/ext/2.2" xmlns:kml="http://www.opengis.net/kml/2.2" xmlns:atom="http://www.w3.org/2005/Atom">
<Document>
	<name>US.310.kml</name>
	<StyleMap id="msn_ylw-pushpin">
		<Pair>
			<key>normal</key>
			<styleUrl>#sn_ylw-pushpin</styleUrl>
		</Pair>
		<Pair>
			<key>highlight</key>
			<styleUrl>#sh_ylw-pushpin</styleUrl>
		</Pair>
	</StyleMap>
	<Style id="sh_ylw-pushpin">
		<IconStyle>
			<scale>1.3</scale>
			<Icon>
				<href>http://maps.google.com/mapfiles/kml/pushpin/ylw-pushpin.png</href>
			</Icon>
			<hotSpot x="20" y="2" xunits="pixels" yunits="pixels"/>
		</IconStyle>
		<BalloonStyle>
		</BalloonStyle>
		<LineStyle>
			<color>ff00ffff</color>
			<width>3</width>
		</LineStyle>
	</Style>
	<Style id="sn_ylw-pushpin">
		<IconStyle>
			<scale>1.1</scale>
			<Icon>
				<href>http://maps.google.com/mapfiles/kml/pushpin/ylw-pushpin.png</href>
			</Icon>
			<hotSpot x="20" y="2" xunits="pixels" yunits="pixels"/>
		</IconStyle>
		<BalloonStyle>
		</BalloonStyle>
		<LineStyle>
			<color>ff00ffff</color>
			<width>3</width>
		</LineStyle>
	</Style>
	<Placemark>
		<name>US.310</name>
		<description>US 310</description>
		<styleUrl>#msn_ylw-pushpin</styleUrl>
		<ExtendedData>
			<Data name="@id">
				<value>relation/451007</value>
			</Data>
			<Data name="description">
				<value>US 310</value>
			</Data>
			<Data name="is_in:state">
				<value>WY;MT</value>
			</Data>
			<Data name="network">
				<value>US:US</value>
			</Data>
			<Data name="ref">
				<value>310</value>
			</Data>
			<Data name="route">
				<value>road</value>
			</Data>
			<Data name="symbol">
				<value>https://upload.wikimedia.org/wikipedia/commons/1/11/US_310.svg</value>
			</Data>
			<Data name="type">
				<value>route</value>
			</Data>
		</ExtendedData>
		<LineString>
			<coordinates>
				-108.1332374,44.5092026,0 -108.1334321,44.5097589,0 -108.133489,44.509921,0 -108.1336829,44.5104605,0 -108.1338787,44.5108717,0 -108.1340144,44.5110967,0 -108.1341013,44.5112409,0 -108.1343446,44.5115554,0 -108.1343705,44.5115852,0 -108.1346163,44.5118682,0 -108.1349275,44.5121781,0 -108.1352225,44.5124531,0 -108.1356812,44.5127997,0 -108.1364211,44.5133386,0 -108.1368379,44.5136468,0 -108.1414399,44.5169653,0 -108.1437224,44.5186158,0 -108.1448677,44.5194458,0 -108.1459697,44.5202655,0 -108.1471288,44.5212206,0 -108.1478611,44.5218612,0 -108.1485569,44.522494,0 -108.1493256,44.5232419,0 -108.1500739,44.5240051,0 -108.1508946,44.5248355,0 -108.1531225,44.5270731,0 -108.1547302,44.5286975,0 -108.1563755,44.5303723,0 -108.1607908,44.5348706,0 -108.1619212,44.5360435,0 -108.162868,44.5370052,0 -108.1639195,44.5380797,0 -108.1648902,44.539075,0 -108.1651934,44.5393725,0 -108.1657056,44.5398961,0 -108.1684509,44.5426954,0 -108.1711102,44.5454073,0 -108.1726125,44.5469256,0 -108.1730916,44.5474252,0 -108.1733313,44.5476878,0 -108.1735328,44.5479152,0 -108.1742095,44.5487755,0 -108.1744176,44.5490755,0 -108.1746295,44.5493928,0 -108.1750487,44.5500582,0 -108.1755818,44.5509609,0 -108.1761584,44.5519465,0 -108.1769917,44.553357,0 -108.1774434,44.5541269,0 -108.1778254,44.5547776,0 -108.1783802,44.5557143,0 -108.1828237,44.5632608,0 -108.1850526,44.5670425,0 -108.1872438,44.5707723,0 -108.1879003,44.5718845,0 -108.1907934,44.576806,0 -108.1929645,44.5804763,0 -108.1938382,44.581969,0 -108.1958622,44.585402,0 -108.1968682,44.587113,0 -108.197908,44.5888707,0 -108.1997393,44.591982,0 -108.2010819,44.5942584,0 -108.2017897,44.5954524,0 -108.2021195,44.5959451,0 -108.2024762,44.5964303,0 -108.2028464,44.5968905,0 -108.2032567,44.5973833,0 -108.2036832,44.5978398,0 -108.2041472,44.5983058,0 -108.2045683,44.598703,0 -108.204976,44.5990525,0 -108.2054218,44.5994233,0 -108.2062072,44.6000189,0 -108.2066846,44.600355,0 -108.2073439,44.6007811,0 -108.2080284,44.6011972,0 -108.2087039,44.6015683,0 -108.2111532,44.6028167,0 -108.2136261,44.6040694,0 -108.2185721,44.606573,0 -108.228469,44.611578,0 -108.2290408,44.6118775,0 -108.2296041,44.6122079,0 -108.2301597,44.612543,0 -108.2333753,44.6145297,0 -108.2367644,44.6166237,0 -108.2374039,44.6170098,0 -108.237994,44.6173955,0 -108.2385814,44.6178098,0 -108.2390752,44.6181896,0 -108.2395309,44.6185582,0 -108.2400405,44.6189973,0 -108.2410035,44.6198603,0 -108.2429078,44.6215632,0 -108.2448095,44.6232642,0 -108.246714,44.6249645,0 -108.248629,44.6266679,0 -108.2506023,44.6284278,0 -108.2526603,44.6302661,0 -108.2537037,44.6311976,0 -108.2542053,44.6316423,0 -108.2547059,44.6321109,0 -108.2550073,44.6323944,0 -108.2553077,44.6327093,0 -108.255833,44.6332878,0 -108.2563671,44.6339366,0 -108.2568634,44.6346237,0 -108.2577726,44.6360667,0 -108.2595965,44.6390059,0 -108.2605165,44.6404697,0 -108.2609886,44.6412044,0 -108.2614794,44.6419239,0 -108.2624665,44.6433552,0 -108.2634601,44.6448086,0 -108.2639152,44.6454606,0 -108.2654087,44.6476347,0 -108.2662645,44.6488649,0 -108.2667714,44.6495457,0 -108.2673291,44.6501921,0 -108.2677639,44.6506658,0 -108.2682489,44.6511492,0 -108.2718515,44.6543751,0 -108.2736647,44.655993,0 -108.2754506,44.6575962,0 -108.2761431,44.6582215,0 -108.2765213,44.6585897,0 -108.2767991,44.6588893,0 -108.2770523,44.6592021,0 -108.2773367,44.6596142,0 -108.2776049,44.6600702,0 -108.2778675,44.6605577,0 -108.2782833,44.6614152,0 -108.2788655,44.6626133,0 -108.279321,44.663858,0 -108.279353,44.664132,0 -108.279641,44.664863,0 -108.27964,44.665343,0 -108.280088,44.66724,0 -108.280599,44.668863,0 -108.281303,44.670257,0 -108.281527,44.670555,0 -108.282166,44.671675,0 -108.2842917,44.6742643,0 -108.2849284,44.6750837,0 -108.2852879,44.6755514,0 -108.2864203,44.6769475,0 -108.2869895,44.6777158,0 -108.289752,44.681846,0 -108.291032,44.683926,0 -108.291064,44.684109,0 -108.29148,44.684818,0 -108.292281,44.686486,0 -108.292441,44.686715,0 -108.294393,44.690806,0 -108.29593,44.692612,0 -108.296795,44.69348,0 -108.298622,44.69508,0 -108.301216,44.697092,0 -108.302466,44.698166,0 -108.304484,44.700337,0 -108.304548,44.700566,0 -108.304868,44.701069,0 -108.305445,44.702348,0 -108.306341,44.707673,0 -108.307109,44.711124,0 -108.307141,44.711513,0 -108.307237,44.711719,0 -108.307333,44.712427,0 -108.307269,44.714507,0 -108.306916,44.717706,0 -108.3074589,44.7299146,0 -108.3073906,44.7308393,0 -108.3070877,44.7316522,0 -108.3058763,44.7337428,0 -108.305343,44.7351559,0 -108.3049307,44.7383149,0 -108.3045294,44.7413451,0 -108.304364,44.7430243,0 -108.3043204,44.7434604,0 -108.3043996,44.7441392,0 -108.3046236,44.7448409,0 -108.3048909,44.7454214,0 -108.3055309,44.7463184,0 -108.3063009,44.7472174,0 -108.3085765,44.7497341,0 -108.3092369,44.7504725,0 -108.3117839,44.7532721,0 -108.3119465,44.7534624,0 -108.3120802,44.7536031,0 -108.3122383,44.7538041,0 -108.3166703,44.7587131,0 -108.3171601,44.7592039,0 -108.3194136,44.7617439,0 -108.328987,44.77227,0 -108.331747,44.775355,0 -108.332518,44.776086,0 -108.3328485,44.776372,0 -108.3335694,44.776879,0 -108.3344328,44.7773459,0 -108.3356528,44.7778328,0 -108.336657,44.778143,0 -108.3372,44.778308,0 -108.3419006,44.7797316,0 -108.34528,44.780755,0 -108.350418,44.78231,0 -108.3512598,44.782513,0 -108.353025,44.783166,0 -108.354502,44.783714,0 -108.354753,44.783851,0 -108.357423,44.785313,0 -108.360569,44.787437,0 -108.3640572,44.7899263,0 -108.364899,44.790527,0 -108.368097,44.792809,0 -108.370333,44.794403,0 -108.370956,44.795082,0 -108.371361,44.795522,0 -108.3720237,44.7963301,0 -108.3725144,44.7971852,0 -108.3726918,44.7976122,0 -108.3727666,44.7978205,0 -108.372842,44.798073,0 -108.3729489,44.798536,0 -108.3729854,44.798778,0 -108.3730052,44.799018,0 -108.3730438,44.7994911,0 -108.3730602,44.7999802,0 -108.3730584,44.8004835,0 -108.3730574,44.8010357,0 -108.3730393,44.8028244,0 -108.3730509,44.8037512,0 -108.3730561,44.8042662,0 -108.3730547,44.8047547,0 -108.3730604,44.808009,0 -108.3730653,44.811166,0 -108.3730638,44.8134828,0 -108.3730638,44.8146833,0 -108.3730492,44.8153158,0 -108.3730583,44.8172284,0 -108.3730171,44.8258205,0 -108.373024,44.8294073,0 -108.3730331,44.830511,0 -108.3731458,44.8316137,0 -108.373291,44.8322088,0 -108.3736631,44.8329975,0 -108.3743301,44.8340297,0 -108.3755117,44.8351729,0 -108.3765468,44.8358822,0 -108.3773383,44.836313,0 -108.3779481,44.8365784,0 -108.3788597,44.8369007,0 -108.3791073,44.8369819,0 -108.3792365,44.837056,0 -108.380171,44.8373053,0 -108.380625,44.8373935,0 -108.3814544,44.8375029,0 -108.3819656,44.8375525,0 -108.3829035,44.8375798,0 -108.3832761,44.8375782,0 -108.3844265,44.8375911,0 -108.3851095,44.837597,0 -108.3872228,44.8375857,0 -108.3892978,44.8375848,0 -108.3913768,44.8375734,0 -108.3934494,44.837566,0 -108.3955361,44.8375629,0 -108.3976339,44.8375791,0 -108.3997318,44.8375635,0 -108.4018233,44.8375455,0 -108.4021898,44.837537,0 -108.4028773,44.837537,0 -108.4031998,44.8374695,0 -108.4034198,44.8373526,0 -108.4036165,44.8372012,0 -108.403644,44.8371761,0 -108.4038093,44.8370256,0 -108.4040496,44.8369026,0 -108.4042021,44.8368462,0 -108.4044323,44.8368088,0 -108.4045884,44.8368097,0 -108.4062737,44.8368192,0 -108.4063671,44.8367807,0 -108.4110206,44.8368025,0 -108.4140451,44.8368107,0 -108.4143987,44.8368303,0 -108.4157599,44.8369555,0 -108.4171138,44.8370651,0 -108.4187179,44.8372112,0 -108.4197406,44.8372686,0 -108.4211018,44.8372999,0 -108.4219333,44.8372738,0 -108.4234858,44.8371799,0 -108.4254821,44.8370632,0 -108.4260369,44.8370419,0 -108.4270616,44.8370656,0 -108.4278489,44.8371334,0 -108.428798,44.8372691,0 -108.429784,44.8375196,0 -108.4305934,44.8377596,0 -108.4309763,44.837898,0 -108.431781,44.838271,0 -108.4327336,44.8387048,0 -108.4339065,44.839255,0 -108.4347971,44.8396743,0 -108.4363462,44.8403994,0 -108.4401704,44.8422278,0 -108.4414546,44.8428589,0 -108.4417335,44.8430338,0 -108.4421555,44.8432986,0 -108.4428347,44.8438369,0 -108.4434728,44.8444699,0 -108.4439649,44.8450957,0 -108.4442928,44.8458818,0 -108.4444706,44.8466427,0 -108.4445522,44.8473966,0 -108.4446263,44.8480784,0 -108.4446195,44.8490684,0 -108.4446346,44.8499756,0 -108.4446934,44.851545,0 -108.4448772,44.8528488,0 -108.4448871,44.854913,0 -108.4449302,44.8588741,0 -108.4449705,44.8597883,0 -108.4450436,44.8603457,0 -108.4451317,44.8606882,0 -108.4452686,44.861166,0 -108.4454455,44.8615575,0 -108.4457248,44.8620533,0 -108.4460642,44.8625348,0 -108.4464071,44.8629491,0 -108.4468006,44.8633328,0 -108.4473952,44.8638469,0 -108.451707,44.8668341,0 -108.454249,44.8685847,0 -108.4562199,44.8699529,0 -108.4564437,44.8701052,0 -108.4590293,44.8718964,0 -108.4605032,44.8729254,0 -108.4611112,44.8733562,0 -108.4615425,44.8737106,0 -108.4618046,44.8740018,0 -108.4619708,44.8741864,0 -108.4622925,44.8746516,0 -108.4624622,44.8749406,0 -108.462658,44.8753853,0 -108.4627687,44.8758897,0 -108.4628297,44.8764192,0 -108.4628191,44.8773224,0 -108.4628094,44.8788647,0 -108.4627881,44.8803924,0 -108.4627784,44.8819347,0 -108.4627843,44.882839,0 -108.4628647,44.8831108,0 -108.4630633,44.8833065,0 -108.4633241,44.8834388,0 -108.4636051,44.8834968,0 -108.465002,44.8835034,0 -108.467141,44.883485,0 -108.469327,44.883507,0 -108.471481,44.883506,0 -108.4736852,44.8835312,0 -108.474775,44.883598,0 -108.476142,44.883733,0 -108.4779669,44.8839227,0 -108.4824713,44.8843913,0 -108.4833506,44.8844613,0 -108.4882551,44.8844941,0 -108.493278,44.884548,0 -108.494178,44.884616,0 -108.498679,44.885642,0 -108.499547,44.885848,0 -108.50036,44.885939,0 -108.500677,44.885938,0 -108.5086863,44.8858763,0 -108.5188204,44.8858304,0 -108.518913,44.88583,0 -108.5235511,44.8858432,0 -108.5237198,44.8858437,0 -108.5239914,44.8858445,0 -108.5245108,44.8858459,0 -108.528043,44.885856,0 -108.5304686,44.8857964,0 -108.532437,44.885899,0 -108.533636,44.886018,0 -108.5340206,44.8860877,0 -108.5358797,44.8863817,0 -108.5393996,44.8869753,0 -108.5410224,44.8872475,0 -108.5415535,44.8873273,0 -108.5434044,44.8876144,0 -108.5447171,44.8877201,0 -108.5451881,44.8877619,0 -108.5475179,44.8878154,0 -108.5477268,44.8878202,0 -108.5481754,44.8878125,0 -108.5485672,44.8878019,0 -108.5506834,44.8876187,0 -108.5543829,44.887172,0 -108.5552001,44.8870733,0 -108.556382,44.8869348,0 -108.556971,44.8868658,0 -108.5579896,44.8867464,0 -108.5593709,44.8865887,0 -108.5608113,44.8864576,0 -108.5625213,44.8863815,0 -108.5642606,44.8864158,0 -108.5663849,44.8865944,0 -108.567585,44.8867528,0 -108.568851,44.8869803,0 -108.5697827,44.8871982,0 -108.5808304,44.8901034,0 -108.584008,44.8909307,0 -108.5848161,44.8911431,0 -108.585135,44.8912269,0 -108.5893644,44.892338,0 -108.5940512,44.8935739,0 -108.5946686,44.8937738,0 -108.5955638,44.8941367,0 -108.5961971,44.8944621,0 -108.5969916,44.8949117,0 -108.5985714,44.8958066,0 -108.5989469,44.8960422,0 -108.5993332,44.8963215,0 -108.599883,44.8968022,0 -108.6002827,44.897205,0 -108.6007065,44.8977256,0 -108.6011785,44.8984609,0 -108.6014387,44.8990385,0 -108.6016238,44.8996902,0 -108.6017016,44.9000284,0 -108.6017579,44.9005736,0 -108.6017338,44.9010505,0 -108.6016588,44.9015228,0 -108.6013851,44.903158,0 -108.6012265,44.9039269,0 -108.6011863,44.9047958,0 -108.6013251,44.9057107,0 -108.6014736,44.9063216,0 -108.6017441,44.9069715,0 -108.6021972,44.9078547,0 -108.6026651,44.9084924,0 -108.6032441,44.909165,0 -108.6038831,44.9097645,0 -108.6051308,44.9106234,0 -108.6055168,44.9108417,0 -108.6110152,44.9138387,0 -108.6170158,44.9171085,0 -108.6180119,44.9177843,0 -108.6193551,44.9190566,0 -108.6197452,44.9195788,0 -108.6202231,44.9202904,0 -108.6204899,44.9209009,0 -108.6207315,44.9215429,0 -108.6208303,44.9219437,0 -108.6209069,44.92238,0 -108.6209311,44.9226212,0 -108.620896,44.924839,0 -108.620898,44.927123,0 -108.6209719,44.9296721,0 -108.620996,44.935694,0 -108.621004,44.936198,0 -108.6213045,44.9397959,0 -108.6213313,44.9402003,0 -108.621495,44.9425944,0 -108.6215768,44.9441939,0 -108.621465,44.947807,0 -108.6216263,44.9587281,0 -108.621541,44.96014,0 -108.621544,44.96238,0 -108.621639,44.964314,0 -108.6216056,44.965997,0 -108.6215715,44.9664858,0 -108.6215114,44.9670515,0 -108.6214712,44.967611,0 -108.6214359,44.9681445,0 -108.6214212,44.9686612,0 -108.6214133,44.9692043,0 -108.6214145,44.9697364,0 -108.6214157,44.9702783,0 -108.6214,44.9707981,0 -108.621386,44.971262,0 -108.621412,44.9717446,0 -108.6214587,44.973658,0 -108.621556,44.976616,0 -108.621562,44.976825,0 -108.6216822,44.9776944,0 -108.62172,44.977839,0 -108.621721,44.978182,0 -108.6221442,44.9831544,0 -108.6222059,44.9840444,0 -108.6222521,44.9845727,0 -108.6222801,44.9852878,0 -108.6224952,44.9877019,0 -108.622594,44.9889176,0 -108.622864,44.9919176,0 -108.6233355,44.994081,0 -108.6234202,44.9950132,0 -108.6232913,44.9965816,0 -108.6231526,44.997283,0 -108.6228036,44.9988714,0 -108.6225367,45.00032709999999,0 -108.6224503,45.0010068,0 -108.6224079,45.0017708,0 -108.6225218,45.00314970000001,0 -108.6227287,45.004336,0 -108.6230173,45.0053043,0 -108.623432,45.0063664,0 -108.6238547,45.0072776,0 -108.6240765,45.0077684,0 -108.6247408,45.0091982,0 -108.6249873,45.0097961,0 -108.6260259,45.0119752,0 -108.6270313,45.01407180000001,0 -108.6280257,45.0162225,0 -108.629386,45.019156,0 -108.6303838,45.0212587,0 -108.630953,45.0223067,0 -108.6316244,45.0233221,0 -108.6323575,45.0242305,0 -108.6341762,45.02625390000001,0 -108.6356183,45.02790809999999,0 -108.6368608,45.02931089999999,0 -108.639183,45.03192589999999,0 -108.6402756,45.0331284,0 -108.6434751,45.03677470000001,0 -108.6479486,45.0418252,0 -108.6513448,45.0456703,0 -108.6523845,45.0470269,0 -108.6527406,45.04756090000001,0 -108.653158,45.0483654,0 -108.6550621,45.05266520000001,0 -108.6558735,45.0545137,0 -108.6560693,45.05495909999999,0 -108.6571105,45.05728999999999,0 -108.6576322,45.058428,0 -108.6577212,45.0586222,0 -108.657868,45.0589458,0 -108.6579354,45.05909440000001,0 -108.658054,45.0593371,0 -108.6582034,45.05961129999999,0 -108.6583097,45.0597854,0 -108.6583924,45.05990169999999,0 -108.6584607,45.0599976,0 -108.6586024,45.0601805,0 -108.6587518,45.06034590000001,0 -108.6589136,45.0605069,0 -108.659177,45.0607637,0 -108.6593557,45.0609248,0 -108.6596392,45.0611663,0 -108.6598718,45.06134800000001,0 -108.6601429,45.0615309,0 -108.6604202,45.0616984,0 -108.6607745,45.0618823,0 -108.6610626,45.06202160000001,0 -108.6614123,45.0621718,0 -108.6622935,45.0625374,0 -108.6632054,45.0629091,0 -108.6649484,45.0636173,0 -108.6657895,45.06397339999999,0 -108.6661606,45.06411820000001,0 -108.6679205,45.0648701,0 -108.6709394,45.0660822,0 -108.6735005,45.0671326,0 -108.6805719,45.0700609,0 -108.6857301,45.0721662,0 -108.6874004,45.07292700000001,0 -108.7091587,45.085686,0 -108.7251415,45.0972847,0 -108.726665,45.0983939,0 -108.7272226,45.0989094,0 -108.727832,45.0995326,0 -108.7296704,45.1017505,0 -108.7305794,45.1028496,0 -108.7316204,45.1041415,0 -108.7329744,45.1056416,0 -108.7338056,45.10642109999999,0 -108.7347176,45.10722380000001,0 -108.7405139,45.1119923,0 -108.7428946,45.11398,0 -108.7461112,45.11660100000001,0 -108.7483304,45.1184462,0 -108.7501529,45.1202391,0 -108.7550695,45.12514850000001,0 -108.7558644,45.1259244,0 -108.7581228,45.12812879999999,0 -108.7587703,45.12869600000001,0 -108.7603287,45.1297273,0 -108.7614445,45.13021169999999,0 -108.7624852,45.13057499999999,0 -108.7635474,45.1308324,0 -108.7645559,45.1310443,0 -108.7660794,45.1312714,0 -108.7671952,45.1313471,0 -108.7681071,45.1313849,0 -108.7695583,45.1314473,0 -108.7706658,45.1315746,0 -108.7716421,45.13179409999999,0 -108.7725181,45.1320675,0 -108.7735359,45.1324143,0 -108.7746953,45.13293650000001,0 -108.7757218,45.1334859,0 -108.7766518,45.13419960000001,0 -108.7787501,45.1360775,0 -108.78022,45.1373263,0 -108.7814645,45.13822690000001,0 -108.782418,45.138801,0 -108.7837819,45.13952860000001,0 -108.7849943,45.1400962,0 -108.785917,45.1404973,0 -108.7867324,45.1409059,0 -108.8070593,45.1502223,0 -108.8086085,45.1509323,0 -108.810123,45.1516845,0 -108.8123099,45.1529071,0 -108.8138334,45.1538832,0 -108.8152174,45.1548062,0 -108.8173739,45.1564177,0 -108.825206,45.16219759999999,0 -108.832051,45.1672735,0 -108.8336818,45.1685064,0 -108.8344113,45.1691569,0 -108.8352374,45.1699511,0 -108.8357095,45.170473,0 -108.8369326,45.1718496,0 -108.8377373,45.1727724,0 -108.8395719,45.17485990000001,0 -108.8413958,45.1769019,0 -108.8444106,45.18032030000001,0 -108.8458268,45.1819386,0 -108.8466744,45.18291419999999,0 -108.8480047,45.1843963,0 -108.8507306,45.187506,0 -108.8533283,45.1904509,0 -108.8546888,45.1920183,0 -108.8558797,45.193349,0 -108.8564805,45.1940522,0 -108.8589007,45.19678809999999,0 -108.8615982,45.1998328,0 -108.8640229,45.2026405,0 -108.8648075,45.20344919999999,0 -108.8666193,45.2055361,0 -108.869312,45.2085766,0 -108.8720129,45.2116927,0 -108.8739256,45.2138502,0 -108.8761465,45.2163745,0 -108.8783674,45.2188836,0 -108.8810281,45.22187630000001,0 -108.8845344,45.2258449,0 -108.8859855,45.22750860000001,0 -108.887798,45.2295235,0 -108.8898043,45.2317826,0 -108.890727,45.2329009,0 -108.8932268,45.2356359,0 -108.8944821,45.2370865,0 -108.8954798,45.2382348,0 -108.896397,45.239432,0 -108.89769,45.2413247,0 -108.8995513,45.2440517,0 -108.9014334,45.2468493,0 -108.9026467,45.2486671,0 -108.9038805,45.25041190000001,0 -108.905129,45.25227799999999,0 -108.9064876,45.25427149999999,0 -108.9070348,45.25507199999999,0 -108.907421,45.2557291,0 -108.9076463,45.25618980000001,0 -108.9078931,45.2567411,0 -108.9080755,45.257368,0 -108.9082337,45.2577068,0 -108.9085154,45.2586745,0 -108.9088927,45.2605667,0 -108.9090151,45.2610162,0 -108.9091913,45.2614083,0 -108.9093308,45.2617104,0 -108.9098565,45.2626317,0 -108.9104853,45.2633819,0 -108.9107203,45.2636324,0 -108.9113478,45.26439119999999,0 -108.9117907,45.2649018,0 -108.9136009,45.26708690000001,0 -108.9149849,45.268733,0 -108.9164655,45.27046970000001,0 -108.916959,45.2711417,0 -108.917431,45.2719118,0 -108.9176778,45.2723195,0 -108.9178602,45.2728254,0 -108.9180211,45.2732859,0 -108.9180962,45.2735578,0 -108.9181473,45.2739045,0 -108.9182431,45.2745546,0 -108.9182786,45.274796,0 -108.9182894,45.2754906,0 -108.918225,45.2763361,0 -108.9181606,45.2774308,0 -108.9180426,45.279371,0 -108.9177066,45.28482790000001,0 -108.9176671,45.2853951,0 -108.9175383,45.2860896,0 -108.9174096,45.2865349,0 -108.9171736,45.28713880000001,0 -108.9168731,45.2876672,0 -108.9164869,45.2882484,0 -108.9158539,45.289056,0 -108.9151511,45.2900033,0 -108.9149741,45.2902486,0 -108.9146791,45.2906487,0 -108.9143787,45.2912336,0 -108.9142142,45.2917262,0 -108.9141481,45.2921056,0 -108.9140836,45.2924902,0 -108.9140568,45.2928827,0 -108.914089,45.29358970000001,0 -108.9140892,45.2946587,0 -108.9140849,45.2957189,0 -108.9140622,45.2967329,0 -108.9140837,45.2977055,0 -108.9141027,45.2980904,0 -108.9141158,45.2991243,0 -108.9141158,45.30142969999999,0 -108.9140729,45.30474630000001,0 -108.9140704,45.31205870000001,0 -108.9140944,45.3192478,0 -108.91403,45.3228387,0 -108.9140729,45.3263086,0 -108.9140944,45.3296425,0 -108.9141695,45.3304119,0 -108.9143552,45.3312122,0 -108.9146845,45.3319958,0 -108.9153389,45.33302909999999,0 -108.9163904,45.3348467,0 -108.9167229,45.33532189999999,0 -108.916876,45.335867,0 -108.916959,45.3362194,0 -108.9170019,45.3366643,0 -108.9170234,45.33713940000001,0 -108.9169081,45.3377743,0 -108.9167465,45.33838519999999,0 -108.9165566,45.3391415,0 -108.9161758,45.3405934,0 -108.9158968,45.341702,0 -108.9156071,45.3427426,0 -108.9154408,45.3439188,0 -108.9154269,45.3452754,0 -108.9155785,45.34639229999999,0 -108.9158647,45.34742469999999,0 -108.9162775,45.3485361,0 -108.9172438,45.3501586,0 -108.9184489,45.3519808,0 -108.9190144,45.3528596,0 -108.9194389,45.3535253,0 -108.9210481,45.3558676,0 -108.9218182,45.3570271,0 -108.9224328,45.3580449,0 -108.9227988,45.3587372,0 -108.9229859,45.3593116,0 -108.9231138,45.35998150000001,0 -108.923198,45.3607114,0 -108.9231483,45.3614391,0 -108.922994,45.3622416,0 -108.9227869,45.36290379999999,0 -108.9222328,45.3640118,0 -108.9208002,45.3665467,0 -108.9163501,45.3743076,0 -108.9145965,45.3773566,0 -108.9130063,45.3805199,0 -108.9110781,45.3843001,0 -108.9109559,45.3845186,0 -108.909924,45.3866441,0 -108.9089007,45.3886239,0 -108.9086343,45.3891387,0 -108.9081076,45.39019559999999,0 -108.9078423,45.39078689999999,0 -108.907586,45.3912773,0 -108.9073203,45.39177800000001,0 -108.9068072,45.3928252,0 -108.9062611,45.3939059,0 -108.9059803,45.39445869999999,0 -108.9057658,45.3948995,0 -108.905173,45.39604069999999,0 -108.9036358,45.398996,0 -108.9030458,45.39988530000001,0 -108.9026075,45.4004352,0 -108.9011464,45.40193899999999,0 -108.8952595,45.40788839999999,0 -108.8893731,45.41379870000001,0 -108.8871818,45.4159814,0 -108.88415,45.4190488,0 -108.8828144,45.4203057,0 -108.8811723,45.4219599,0 -108.8803981,45.42276300000001,0 -108.8781745,45.4249933,0 -108.8766382,45.4266119,0 -108.8751904,45.4279278,0 -108.874629,45.4283818,0 -108.8739329,45.4288936,0 -108.868967,45.432538,0 -108.8665531,45.4343391,0 -108.8660506,45.4348248,0 -108.8657,45.4353436,0 -108.8654717,45.43567219999999,0 -108.8651662,45.4363404,0 -108.8650334,45.4368381,0 -108.8649538,45.4374598,0 -108.8647618,45.4402667,0 -108.864654,45.4424773,0 -108.8645744,45.443786,0 -108.8644302,45.4461598,0 -108.8643543,45.4472797,0 -108.864237,45.4487595,0 -108.864136,45.4494639,0 -108.8639083,45.4503972,0 -108.8635663,45.452018,0 -108.8631694,45.4539173,0 -108.8630758,45.4547144,0 -108.8630152,45.4553577,0 -108.8629351,45.4560797,0 -108.8629072,45.4569452,0 -108.862885,45.4578485,0 -108.8629255,45.4593722,0 -108.8629233,45.46083999999999,0 -108.862942,45.46457929999999,0 -108.8629807,45.4659175,0 -108.8629664,45.4671884,0 -108.8629798,45.4706785,0 -108.863019,45.47247230000001,0 -108.8630227,45.4751992,0 -108.863024,45.4755223,0 -108.8630462,45.4777596,0 -108.8630263,45.47913700000001,0 -108.8630323,45.4819919,0 -108.8630185,45.4822151,0 -108.8630578,45.4828206,0 -108.8630479,45.4853645,0 -108.863066,45.4877151,0 -108.863073,45.48786009999999,0 -108.8630595,45.48907679999999,0 -108.863096,45.4931304,0 -108.8631306,45.4936743,0 -108.8631361,45.4973523,0 -108.8631381,45.5005019,0 -108.8632074,45.5081896,0 -108.8632064,45.5093842,0 -108.8631904,45.5119208,0 -108.863172,45.5130557,0 -108.8630834,45.5141758,0 -108.8629639,45.5154639,0 -108.8628127,45.5163042,0 -108.8627267,45.5168194,0 -108.8625855,45.517636,0 -108.8625214,45.51810759999999,0 -108.8623068,45.5193078,0 -108.8621875,45.5199545,0 -108.8620002,45.5215337,0 -108.8620396,45.5216919,0 -108.862112,45.52185,0 -108.8622897,45.52218009999999,0 -108.8621655,45.5222863,0 -108.8595101,45.523129,0 -108.8589123,45.5233495,0 -108.858545,45.5234936,0 -108.8583146,45.523584,0 -108.8577168,45.5238446,0 -108.857134,45.5241226,0 -108.8567002,45.5243609,0 -108.8562764,45.5246062,0 -108.8558551,45.5248672,0 -108.8554437,45.5251422,0 -108.8548869,45.5255544,0 -108.8543644,45.52598269999999,0 -108.8538618,45.5264292,0 -108.8533557,45.5269023,0 -108.8530219,45.5272672,0 -108.8527012,45.5276367,0 -108.8524085,45.5280177,0 -108.8521386,45.5283921,0 -108.8521289,45.5284056,0 -108.851764,45.5290034,0 -108.8514338,45.5296044,0 -108.8511729,45.53022199999999,0 -108.8509424,45.53084269999999,0 -108.8508151,45.53133470000001,0 -108.8507176,45.5318372,0 -108.85066,45.5323361,0 -108.8506309,45.53284810000001,0 -108.850641,45.5335274,0 -108.850708,45.5341939,0 -108.8508606,45.53496749999999,0 -108.8510843,45.5357087,0 -108.8513387,45.53634829999999,0 -108.851736,45.537143,0 -108.8520439,45.5376696,0 -108.8522744,45.5380191,0 -108.8525155,45.53836489999999,0 -108.8527728,45.5387012,0 -108.8530462,45.5390376,0 -108.8532873,45.539317,0 -108.8535499,45.5395964,0 -108.8538178,45.5398627,0 -108.8540965,45.5401252,0 -108.8543805,45.54037270000001,0 -108.8546753,45.5406165,0 -108.8549808,45.5408565,0 -108.8552975,45.54108910000001,0 -108.8571566,45.5424266,0 -108.8590633,45.5437463,0 -108.8595568,45.5440924,0 -108.8600179,45.5444384,0 -108.8604362,45.54479450000001,0 -108.8608198,45.5451582,0 -108.8612967,45.54566460000001,0 -108.8617138,45.54618589999999,0 -108.8620847,45.5467287,0 -108.8624186,45.5472889,0 -108.8626817,45.5478684,0 -108.8629078,45.54845229999999,0 -108.863063,45.5490491,0 -108.8631571,45.5496524,0 -108.8632057,45.5503101,0 -108.8631807,45.55098289999999,0 -108.863088,45.55165139999999,0 -108.8629142,45.5523273,0 -108.8627043,45.5529188,0 -108.862429,45.5535133,0 -108.8620947,45.5540927,0 -108.861696,45.5546684,0 -108.8582019,45.5590295,0 -108.8516681,45.5671518,0 -108.8502341,45.5689453,0 -108.8482151,45.57144769999999,0 -108.847203,45.5727027,0 -108.8467264,45.5733396,0 -108.8462713,45.5739915,0 -108.8456951,45.5749276,0 -108.8451366,45.5758662,0 -108.8440337,45.5777433,0 -108.8418931,45.58138639999999,0 -108.8414792,45.5820853,0 -108.8407286,45.5833538,0 -108.8403253,45.5839847,0 -108.8398846,45.5846124,0 -108.839443,45.585194,0 -108.8387891,45.5859935,0 -108.8384509,45.5863787,0 -108.8380924,45.586761,0 -108.8373469,45.5875058,0 -108.8365526,45.5882306,0 -108.8358708,45.5888012,0 -108.8330893,45.5911287,0 -108.8305797,45.59322879999999,0 -108.8278225,45.595536,0 -108.8266087,45.5965598,0 -108.8260898,45.5970165,0 -108.8256036,45.59749610000001,0 -108.8251711,45.5979953,0 -108.8247573,45.59852069999999,0 -108.8243637,45.5991152,0 -108.8240172,45.59972759999999,0 -108.8237361,45.60035640000001,0 -108.8235087,45.601008,0 -108.8233373,45.6016629,0 -108.8232066,45.60242819999999,0 -108.8225394,45.6062268,0 -108.822096,45.6087517,0 -108.822093,45.6087663,0 -108.8220054,45.6091949,0 -108.8218823,45.60963810000001,0 -108.8217348,45.6100785,0 -108.8215751,45.6105217,0 -108.8213699,45.61095920000001,0 -108.821147,45.6113942,0 -108.820894,45.6118292,0 -108.8206198,45.61226169999999,0 -108.8201757,45.61286989999999,0 -108.8201693,45.6128775,0 -108.8196835,45.6134569,0 -108.8191303,45.6140288,0 -108.8185201,45.61458930000001,0 -108.8151104,45.61742110000001,0 -108.8127144,45.61941239999999,0 -108.8109467,45.6208817,0 -108.8094822,45.6220693,0 -108.8087266,45.6226468,0 -108.8079571,45.6232177,0 -108.806383,45.624346,0 -108.8056061,45.6249186,0 -108.8048861,45.6255225,0 -108.8042538,45.6261162,0 -108.8036458,45.6267553,0 -108.802995,45.6274677,0 -108.8025458,45.6279211,0 -108.8021657,45.628268,0 -108.8017611,45.6285978,0 -108.8013221,45.6289077,0 -108.8008566,45.62920050000001,0 -108.8003586,45.6294748,0 -108.7997182,45.6297819,0 -108.7990364,45.6300614,0 -108.7986873,45.6301851,0 -108.7983229,45.6303002,0 -108.7979672,45.6304008,0 -108.7976053,45.6304949,0 -108.7972344,45.63058420000001,0 -108.7968634,45.6306584,0 -108.7958711,45.6308357,0 -108.7952016,45.6309541,0 -108.7943092,45.6311247,0 -108.7934128,45.6313337,0 -108.7923964,45.6316151,0 -108.7915427,45.6318823,0 -108.7905676,45.6322315,0 -108.7897515,45.6325644,0 -108.7889623,45.632917,0 -108.7881514,45.63332320000001,0 -108.7874077,45.633745,0 -108.7833044,45.6361309,0 -108.7807449,45.6376215,0 -108.7790733,45.63859149999999,0 -108.7784345,45.6389355,0 -108.7778715,45.6392125,0 -108.7772804,45.6394674,0 -108.7766115,45.6397297,0 -108.7759214,45.6399648,0 -108.7750608,45.6402273,0 -108.7743214,45.6404223,0 -108.7735779,45.6405858,0 -108.7726686,45.64074789999999,0 -108.7718571,45.6408551,0 -108.7711047,45.6409267,0 -108.7702168,45.6409786,0 -108.7693855,45.64098869999999,0 -108.7666073,45.64096850000001,0 -108.765281,45.64094770000001,0 -108.7648502,45.6409549,0 -108.7644159,45.6409745,0 -108.7640059,45.6410174,0 -108.7636172,45.64107020000001,0 -108.7631597,45.6411499,0 -108.7626483,45.64126340000001,0 -108.7622507,45.6413731,0 -108.7619712,45.6414606,0 -108.7617331,45.6415432,0 -108.7614539,45.6416534,0 -108.7609505,45.64187220000001,0 -108.7606546,45.6420252,0 -108.7603582,45.6421919,0 -108.7600845,45.6423592,0 -108.7598231,45.6425413,0 -108.759517,45.6427822,0 -108.7591282,45.6431321,0 -108.7589513,45.6433108,0 -108.7587836,45.6435078,0 -108.7585652,45.6437779,0 -108.7583245,45.6441423,0 -108.7581085,45.6445165,0 -108.7573509,45.646139,0 -108.757142,45.6463259,0 -108.7569968,45.646646,0 -108.7567815,45.6471871,0 -108.7567285,45.64735580000001,0 -108.7566252,45.64777110000001,0 -108.7565441,45.6482248,0 -108.7565086,45.6486443,0 -108.7565097,45.6489568,0 -108.7565532,45.6495011,0 -108.7566205,45.6498661,0 -108.7566922,45.6501865,0 -108.7568537,45.6506562,0 -108.7570777,45.6511634,0 -108.7573674,45.65165930000001,0 -108.7576397,45.65206149999999,0 -108.7580183,45.6525298,0 -108.7580726,45.6525854,0 -108.7584018,45.6529199,0 -108.7590317,45.653492,0 -108.7603621,45.6546619,0 -108.7610823,45.6552815,0 -108.7613919,45.6555572,0 -108.7615906,45.6557334,0 -108.7620157,45.6561086,0 -108.7633563,45.6572899,0 -108.763461,45.6573821,0 -108.7636505,45.6575443,0 -108.7649133,45.6586669,0 
			</coordinates>
		</LineString>
		<atom:link rel="app" href="https://www.google.com/earth/about/versions/#earth-pro" title="Google Earth Pro 7.3.6.10201"></atom:link>
	</Placemark>
</Document>
</kml>
