<?xml version="1.0" encoding="UTF-8"?>
<kml xmlns="http://www.opengis.net/kml/2.2" xmlns:gx="http://www.google.com/kml/ext/2.2" xmlns:kml="http://www.opengis.net/kml/2.2" xmlns:atom="http://www.w3.org/2005/Atom">
<Document>
	<name>US.31A.kml</name>
	<Placemark>
		<name>US.31A</name>
		<LineString>
			<coordinates>
				-87.0276339,35.2068294,0 -87.0255658,35.2064856,0 -87.02512419999999,35.2064016,0 -87.024568,35.2063059,0 -87.0238921,35.2062621,0 -87.0233181,35.2062621,0 -87.02257779999999,35.206319,0 -87.018034,35.206976,0 -87.014757,35.207454,0 -87.012998,35.207691,0 -87.01211499999999,35.2078434,0 -87.01127820000001,35.2080537,0 -87.01048419999999,35.208308,0 -87.00852089999999,35.2091846,0 -87.0071476,35.2097807,0 -87.00616049999999,35.2102277,0 -87.00544170000001,35.2107274,0 -87.0049267,35.2111832,0 -87.0044224,35.211753,0 -87.00284120000001,35.2136711,0 -87.00258220000001,35.2139797,0 -87.0021344,35.2145272,0 -87.001304,35.215615,0 -87.00117160000001,35.2158026,0 -87.0011088,35.2158974,0 -87.00067110000001,35.2164983,0 -86.99798509999999,35.2201852,0 -86.9976398,35.2206389,0 -86.9973629,35.2209477,0 -86.9970363,35.2212612,0 -86.9966179,35.2215373,0 -86.9961405,35.221774,0 -86.9947591,35.2222998,0 -86.99358169999999,35.2226395,0 -86.99281379999999,35.2228321,0 -86.99184630000001,35.2230361,0 -86.99120449999999,35.2231476,0 -86.9907331,35.2232574,0 -86.99009479999999,35.2234458,0 -86.9895583,35.2236912,0 -86.9890568,35.2239782,0 -86.9882238,35.2245571,0 -86.9881558,35.2245978,0 -86.98793019999999,35.2247802,0 -86.98738040000001,35.2252052,0 -86.984084,35.2277228,0 -86.9826463,35.2288117,0 -86.9784894,35.2320151,0 -86.9769946,35.2331346,0 -86.97555199999999,35.23436,0 -86.97523529999999,35.2347884,0 -86.9750798,35.2350689,0 -86.97493799999999,35.235322,0 -86.9746399,35.2360766,0 -86.9744039,35.236747,0 -86.9742751,35.2371457,0 -86.97406049999999,35.237654,0 -86.973851,35.238048,0 -86.9736207,35.23832,0 -86.973331,35.2386442,0 -86.9723288,35.2396433,0 -86.972149,35.239812,0 -86.9713622,35.2406508,0 -86.97064880000001,35.2414877,0 -86.97013920000001,35.2421361,0 -86.96920040000001,35.2432796,0 -86.967958,35.24469,0 -86.9672746,35.2453869,0 -86.9661212,35.2464646,0 -86.96525219999999,35.2472269,0 -86.9644797,35.2477658,0 -86.9641632,35.2479717,0 -86.963262,35.248401,0 -86.96302059999999,35.2485062,0 -86.9619101,35.2488741,0 -86.9615883,35.2489968,0 -86.95948540000001,35.2497328,0 -86.9588256,35.2499694,0 -86.958316,35.2501534,0 -86.9567871,35.2507097,0 -86.9526243,35.2521904,0 -86.9472975,35.2541223,0 -86.9466913,35.2543325,0 -86.944177,35.255243,0 -86.94225419999999,35.255894,0 -86.93799300000001,35.257451,0 -86.937781,35.257526,0 -86.9292677,35.2605746,0 -86.92816790000001,35.2609688,0 -86.92750700000001,35.261221,0 -86.92701460000001,35.2614813,0 -86.926642,35.261747,0 -86.92608300000001,35.262205,0 -86.92577,35.2625544,0 -86.9255126,35.2629092,0 -86.9249815,35.263794,0 -86.923737,35.266167,0 -86.923608,35.266446,0 -86.923517,35.2667461,0 -86.923402,35.267427,0 -86.9233936,35.2680688,0 -86.92346999999999,35.269478,0 -86.9234258,35.2699872,0 -86.92334,35.270539,0 -86.92304489999999,35.271323,0 -86.9227231,35.2719099,0 -86.9224387,35.2722953,0 -86.9218594,35.2729347,0 -86.9216019,35.2731493,0 -86.9213275,35.2733245,0 -86.9127561,35.2798335,0 -86.9079404,35.2834902,0 -86.9064789,35.2846016,0 -86.9062297,35.2847911,0 -86.9060016,35.2849674,0 -86.9041187,35.2863998,0 -86.9037854,35.2866469,0 -86.9027681,35.2874303,0 -86.9025522,35.2876065,0 -86.9023313,35.2878018,0 -86.9022702,35.2878634,0 -86.902173,35.2879616,0 -86.90160899999999,35.288585,0 -86.90134070000001,35.2890414,0 -86.9012553,35.2891938,0 -86.9011605,35.2893629,0 -86.9009387,35.2897526,0 -86.8993107,35.2926646,0 -86.89850029999999,35.2941029,0 -86.8982951,35.2944657,0 -86.89825260000001,35.2945409,0 -86.8981406,35.2947388,0 -86.89722,35.296371,0 -86.8969953,35.296756,0 -86.8968397,35.2969487,0 -86.8966788,35.2971938,0 -86.8962818,35.2976273,0 -86.896018,35.297882,0 -86.895319,35.298454,0 -86.89523199999999,35.298507,0 -86.89477979999999,35.2987788,0 -86.894201,35.299141,0 -86.89228540000001,35.3000397,0 -86.8916792,35.3003199,0 -86.89028980000001,35.3009678,0 -86.889191,35.301516,0 -86.88800740000001,35.3020828,0 -86.887084,35.302525,0 -86.8870026,35.3025646,0 -86.88693600000001,35.302597,0 -86.88601850000001,35.3031178,0 -86.88581000000001,35.3032614,0 -86.8854908,35.3034811,0 -86.8854245,35.3035308,0 -86.88513879999999,35.3037191,0 -86.8850138,35.30381,0 -86.8849196,35.303889,0 -86.88485350000001,35.3039428,0 -86.8843536,35.3043275,0 -86.88424980000001,35.3044255,0 -86.88390750000001,35.3047865,0 -86.8837719,35.304936,0 -86.883613,35.3051112,0 -86.88347330000001,35.3052652,0 -86.8834279,35.3053152,0 -86.8828932,35.3059782,0 -86.88280520000001,35.3060928,0 -86.882322,35.306672,0 -86.8817827,35.3073808,0 -86.881427,35.3078141,0 -86.8805988,35.3088463,0 -86.88021430000001,35.3093363,0 -86.8801474,35.3094215,0 -86.88002059999999,35.3095791,0 -86.8798346,35.3098103,0 -86.8796018,35.3100997,0 -86.87923859999999,35.3105513,0 -86.878547,35.311411,0 -86.8756394,35.3150543,0 -86.87500199999999,35.315853,0 -86.87496400000001,35.315898,0 -86.87327000000001,35.317938,0 -86.8728863,35.3184028,0 -86.872416,35.318939,0 -86.87191799999999,35.319489,0 -86.8715155,35.3199311,0 -86.870372,35.321166,0 -86.869517,35.322087,0 -86.86841250000001,35.323259,0 -86.866433,35.3254036,0 -86.863339,35.329003,0 -86.86221140000001,35.3303046,0 -86.86161300000001,35.330961,0 -86.86000319999999,35.3328695,0 -86.85996299999999,35.332925,0 -86.85897300000001,35.334105,0 -86.856791,35.336703,0 -86.856696,35.336817,0 -86.8560219,35.3375863,0 -86.8558207,35.3378073,0 -86.8549927,35.3387345,0 -86.85352899999999,35.3404942,0 -86.85280330000001,35.3413543,0 -86.852583,35.341605,0 -86.8511185,35.3433119,0 -86.84997300000001,35.344647,0 -86.849912,35.344717,0 -86.8487409,35.3460891,0 -86.848348,35.346546,0 -86.8467576,35.3484013,0 -86.845388,35.349999,0 -86.844984,35.350471,0 -86.84285439999999,35.3529343,0 -86.842187,35.3537389,0 -86.841841,35.3541918,0 -86.84152570000001,35.3546902,0 -86.8412891,35.355154,0 -86.84104170000001,35.3557668,0 -86.8408594,35.3562984,0 -86.84067159999999,35.3570815,0 -86.84054829999999,35.3580491,0 -86.8404848,35.3583961,0 -86.84041689999999,35.3590787,0 -86.8403208,35.3598468,0 -86.8402104,35.3606075,0 -86.8401755,35.3608478,0 -86.840075,35.36154,0 -86.840059,35.361704,0 -86.8400444,35.3618113,0 -86.83998579999999,35.3623371,0 -86.8398911,35.3628806,0 -86.839848,35.3631831,0 -86.83968659999999,35.3642524,0 -86.8395585,35.3650896,0 -86.8392822,35.366975,0 -86.838784,35.37042,0 -86.8387115,35.3708886,0 -86.8385866,35.3717521,0 -86.83839639999999,35.3728227,0 -86.8382289,35.3737476,0 -86.83818100000001,35.3741161,0 -86.83815319999999,35.374394,0 -86.83803829999999,35.37507,0 -86.8379116,35.3755616,0 -86.8376809,35.3763883,0 -86.837343,35.3772806,0 -86.83680649999999,35.3784003,0 -86.8363935,35.3790652,0 -86.8361682,35.3793932,0 -86.8355244,35.380233,0 -86.834705,35.381247,0 -86.8337166,35.382153,0 -86.832776,35.382851,0 -86.83179079999999,35.3835132,0 -86.83094319999999,35.3840424,0 -86.8294841,35.3847597,0 -86.8269662,35.3856889,0 -86.8267676,35.3857578,0 -86.826257,35.3859472,0 -86.8253857,35.3862991,0 -86.82482779999999,35.3865353,0 -86.82401779999999,35.3869901,0 -86.823295,35.387456,0 -86.8223816,35.3881666,0 -86.8218505,35.3886476,0 -86.8215823,35.38891,0 -86.819181,35.391039,0 -86.81630869999999,35.3936208,0 -86.8149193,35.3948452,0 -86.8123337,35.3971257,0 -86.811521,35.397831,0 -86.81126999999999,35.398101,0 -86.809847,35.3996373,0 -86.809675,35.399823,0 -86.80932799999999,35.400245,0 -86.8083318,35.4015858,0 -86.806934,35.403716,0 -86.806766,35.403854,0 -86.80627800000001,35.404789,0 -86.805847,35.4056167,0 -86.805787,35.405732,0 -86.8055821,35.4062081,0 -86.805543,35.406299,0 -86.8049463,35.4076929,0 -86.804835,35.407953,0 -86.80450759999999,35.4090133,0 -86.804248,35.409854,0 -86.80421800000001,35.409977,0 -86.804062,35.410616,0 -86.803912,35.411228,0 -86.80385699999999,35.411548,0 -86.803664,35.412677,0 -86.80354800000001,35.413358,0 -86.803477,35.41385,0 -86.80250820000001,35.4193037,0 -86.80233749999999,35.4202645,0 -86.80231550000001,35.4203888,0 -86.80212,35.421489,0 -86.8019195,35.4226789,0 -86.801868,35.422955,0 -86.8017478,35.4235838,0 -86.80155999999999,35.4246329,0 -86.8013133,35.4259574,0 -86.801265,35.4263115,0 -86.801224,35.426528,0 -86.8008301,35.4265607,0 -86.8005797,35.426612,0 -86.79954840000001,35.4268972,0 -86.79858369999999,35.4271615,0 -86.79833600000001,35.4272294,0 -86.79753669999999,35.4274218,0 -86.79536469999999,35.428024,0 -86.7952354,35.4280599,0 -86.7925369,35.4287851,0 -86.7910504,35.4291838,0 -86.79087800000001,35.42923,0 -86.7856153,35.4306739,0 -86.783945,35.43127,0 -86.7831161,35.4315576,0 -86.7818884,35.4321387,0 -86.7809894,35.432602,0 -86.78074549999999,35.4327323,0 -86.780551,35.4328425,0 -86.7801742,35.433068,0 -86.779815,35.433303,0 -86.7786627,35.4341164,0 -86.77832309999999,35.4344021,0 -86.7780958,35.4345933,0 -86.77767780000001,35.4349636,0 -86.7776028,35.4350301,0 -86.7764829,35.436191,0 -86.7754522,35.4372593,0 -86.77523960000001,35.4374978,0 -86.7750702,35.4377112,0 -86.7749395,35.4379116,0 -86.77478410000001,35.4381824,0 -86.7743622,35.438909,0 -86.77421390000001,35.4391909,0 -86.7741362,35.4393679,0 -86.7739967,35.4396761,0 -86.7738076,35.4402186,0 -86.77380239999999,35.4402491,0 -86.7737486,35.4405609,0 -86.77372339999999,35.4406862,0 -86.77366429999999,35.4409794,0 -86.7736122,35.4419131,0 -86.7736281,35.4425252,0 -86.7737458,35.4431027,0 -86.77378640000001,35.4432493,0 -86.7738998,35.4436592,0 -86.7739133,35.443705,0 -86.7740293,35.4440985,0 -86.77414949999999,35.4444179,0 -86.77453420000001,35.4453648,0 -86.7748828,35.4462545,0 -86.77501820000001,35.4465839,0 -86.77506750000001,35.4467039,0 -86.7750724,35.4467159,0 -86.7751899,35.4470017,0 -86.7752545,35.4471589,0 -86.77535039999999,35.4473923,0 -86.7753915,35.4474923,0 -86.77576910000001,35.4484628,0 -86.776121,35.4493671,0 -86.7763782,35.449999,0 -86.7766135,35.4505772,0 -86.7766646,35.4507024,0 -86.7767838,35.4509955,0 -86.77694769999999,35.4513984,0 -86.7771134,35.4518055,0 -86.7777437,35.4532908,0 -86.7778175,35.4534648,0 -86.7778766,35.453604,0 -86.77797529999999,35.4538366,0 -86.7780657,35.4540496,0 -86.7781301,35.4542155,0 -86.7782141,35.4544317,0 -86.7782761,35.4545913,0 -86.7784144,35.4549474,0 -86.7785508,35.4552985,0 -86.7787663,35.4558535,0 -86.77900030000001,35.4564068,0 -86.7794348,35.4574346,0 -86.7794504,35.4574715,0 -86.7796037,35.4578369,0 -86.77985200000001,35.4583191,0 -86.7801211,35.4586719,0 -86.7803961,35.4589648,0 -86.780644,35.459229,0 -86.780952,35.459572,0 -86.7814935,35.4601418,0 -86.781718,35.460378,0 -86.7819397,35.4606107,0 -86.7820514,35.4607279,0 -86.78218889999999,35.4608722,0 -86.7822982,35.4611488,0 -86.78229380000001,35.4612414,0 -86.78223989999999,35.4613352,0 -86.7821758,35.4614492,0 -86.7819066,35.4616156,0 -86.7818784,35.4616336,0 -86.78163499999999,35.4617892,0 -86.780839,35.462298,0 -86.7798313,35.4629278,0 -86.77867910000001,35.4636989,0 -86.7758426,35.4656089,0 -86.77512280000001,35.4661008,0 -86.77360729999999,35.4671363,0 -86.7693405,35.4700508,0 -86.7688211,35.4704025,0 -86.7684048,35.4706899,0 -86.76712929999999,35.4715706,0 -86.7658316,35.4725139,0 -86.76484360000001,35.4732827,0 -86.7640907,35.4739138,0 -86.76304399999999,35.4748739,0 -86.76247100000001,35.4754302,0 -86.76132509999999,35.4765817,0 -86.7604877,35.4774192,0 -86.7598119,35.4780892,0 -86.757862,35.4800471,0 -86.7569914,35.480922,0 -86.7565949,35.4812832,0 -86.7561462,35.481678,0 -86.7558093,35.4819306,0 -86.7554927,35.48216,0 -86.75505800000001,35.4824244,0 -86.7544144,35.4827673,0 -86.7527461,35.4836322,0 -86.74999800000001,35.485028,0 -86.736525,35.4918755,0 -86.7313071,35.4945225,0 -86.7293404,35.4954973,0 -86.7233706,35.4985563,0 -86.721244,35.499646,0 -86.7204492,35.5000496,0 -86.7190872,35.5007672,0 -86.7186494,35.5010156,0 -86.71775529999999,35.501563,0 -86.717292,35.5019055,0 -86.71712340000001,35.5020302,0 -86.7161442,35.5027541,0 -86.7155487,35.5031943,0 -86.71353550000001,35.5047032,0 -86.7130866,35.5050279,0 -86.7127634,35.5052757,0 -86.7125571,35.5054434,0 -86.7123593,35.5056704,0 -86.7122407,35.5058033,0 -86.71219379999999,35.5058815,0 -86.7120618,35.5061013,0 -86.7119261,35.5063832,0 -86.71186849999999,35.5065763,0 -86.711832,35.5067693,0 -86.7117868,35.5071932,0 -86.7117575,35.5074997,0 -86.71165000000001,35.5087672,0 -86.7115197,35.5103025,0 -86.71149629999999,35.5105786,0 -86.711429,35.511372,0 -86.7113435,35.5125092,0 -86.7112094,35.5141248,0 -86.71112359999999,35.5152928,0 -86.7110887,35.5156378,0 -86.7110565,35.516105,0 -86.7110512,35.5164739,0 -86.7110699,35.516784,0 -86.7111182,35.5169848,0 -86.7111987,35.5173407,0 -86.7113918,35.517893,0 -86.71172439999999,35.5189758,0 -86.7118263,35.5194365,0 -86.7118558,35.5198185,0 -86.7118639,35.5201853,0 -86.7118397,35.5205804,0 -86.711673,35.521933,0 -86.711409,35.524011,0 -86.711341,35.524556,0 -86.711264,35.525153,0 -86.711234,35.525395,0 -86.711144,35.526106,0 -86.710978,35.527429,0 -86.710865,35.528331,0 -86.7104155,35.5314448,0 -86.7102331,35.5322481,0 -86.7099381,35.5330535,0 -86.7098388,35.5333241,0 -86.7096806,35.5336996,0 -86.7093533,35.5344897,0 -86.7091119,35.5350747,0 -86.7087713,35.5359565,0 -86.708567,35.536614,0 -86.708541,35.536732,0 -86.7084789,35.5371264,0 -86.7084602,35.5373861,0 -86.7084065,35.5379798,0 -86.70828040000001,35.5402802,0 -86.70818319999999,35.5426869,0 -86.70801760000001,35.5451558,0 -86.70783950000001,35.5495838,0 -86.70753310000001,35.553054,0 -86.7074966,35.5534674,0 -86.7074087,35.5543366,0 -86.7073765,35.5547709,0 -86.70700909999999,35.5586463,0 -86.70676229999999,35.5617141,0 -86.70661749999999,35.56284,0 -86.70654089999999,35.5633191,0 -86.7064807,35.563523,0 -86.7062849,35.5641361,0 -86.7060596,35.5646706,0 -86.7057726,35.5652074,0 -86.7040157,35.5679608,0 -86.70293479999999,35.5696451,0 -86.7021838,35.5708189,0 -86.7002744,35.5738285,0 -86.70024600000001,35.5738748,0 -86.6995847,35.5749095,0 -86.69889809999999,35.5759697,0 -86.6983298,35.5768548,0 -86.6981371,35.5771446,0 -86.69771249999999,35.5778459,0 -86.6976374,35.5779549,0 -86.69718949999999,35.5786181,0 -86.6963607,35.5799161,0 -86.6957974,35.5808563,0 -86.6953871,35.581635,0 -86.69497939999999,35.582597,0 -86.6948319,35.583066,0 -86.69467899999999,35.5836332,0 -86.694577,35.5842069,0 -86.694484,35.584683,0 -86.6944483,35.5852801,0 -86.69442220000001,35.5861155,0 -86.6944483,35.5866281,0 -86.6945003,35.5872664,0 -86.69460650000001,35.5878387,0 -86.6947863,35.5885018,0 -86.6949257,35.5889957,0 -86.6951454,35.5896592,0 -86.6956332,35.5909618,0 -86.6961244,35.5918984,0 -86.69674929999999,35.5929939,0 -86.6969349,35.5932851,0 -86.6975549,35.5944598,0 -86.69866450000001,35.5964592,0 -86.6987287,35.5965872,0 -86.6992188,35.5975264,0 -86.69947000000001,35.598153,0 -86.69953169999999,35.5982845,0 -86.6996942,35.5989019,0 -86.69971,35.598962,0 -86.6998296,35.5993833,0 -86.6998906,35.5999141,0 -86.6999768,35.6006651,0 -86.69999420000001,35.6012539,0 -86.6999593,35.6020931,0 -86.69988170000001,35.6029895,0 -86.6998019,35.6041195,0 -86.69979530000001,35.604494,0 -86.69977780000001,35.6048418,0 -86.6997805,35.6049509,0 -86.6997537,35.6057142,0 -86.6996384,35.6087769,0 -86.699637,35.608825,0 -86.69961619999999,35.609617,0 -86.6996032,35.6101421,0 -86.6995793,35.6106989,0 -86.6995636,35.6112712,0 -86.6995562,35.6113567,0 -86.6995481,35.611444,0 -86.699534,35.6118867,0 -86.69951349999999,35.6122606,0 -86.6994972,35.6125028,0 -86.6994957,35.6125353,0 -86.69948479999999,35.6126699,0 -86.6994627,35.6129635,0 -86.69941849999999,35.6134189,0 -86.6994179,35.6134248,0 -86.6993277,35.6140908,0 -86.69920089999999,35.6148101,0 -86.69904769999999,35.6154552,0 -86.69862449999999,35.6172377,0 -86.6985188,35.6176599,0 -86.698227,35.618825,0 -86.697874,35.619795,0 -86.6977152,35.6201175,0 -86.69760719999999,35.6203021,0 -86.69750070000001,35.6204842,0 -86.69734099999999,35.620757,0 -86.697219,35.620922,0 -86.6971933,35.6209571,0 -86.696752,35.621559,0 -86.696596,35.621717,0 -86.69646,35.621855,0 -86.696369,35.621947,0 -86.695814,35.6225132,0 -86.695671,35.6226473,0 -86.69541220000001,35.6228899,0 -86.6947279,35.6235112,0 -86.6945004,35.6237201,0 -86.6943545,35.6238629,0 -86.6942701,35.6239593,0 -86.6942099,35.6240181,0 -86.69408799999999,35.62417,0 -86.6939945,35.6243274,0 -86.69392499999999,35.6244446,0 -86.693844,35.6246107,0 -86.69381079999999,35.6246788,0 -86.6937757,35.6248073,0 -86.6937492,35.6249045,0 -86.6936386,35.6253149,0 -86.6935821,35.6255248,0 -86.69350679999999,35.6258041,0 -86.69331010000001,35.6265695,0 -86.6930761,35.6274099,0 -86.6925289,35.6293748,0 -86.69247919999999,35.6295323,0 -86.6920259,35.6310062,0 -86.691824,35.631715,0 -86.69161800000001,35.632381,0 -86.6915948,35.6324562,0 -86.69137360000001,35.6332159,0 -86.691242,35.6336677,0 -86.69114159999999,35.6339636,0 -86.69101689999999,35.6344048,0 -86.69088549999999,35.6348187,0 -86.69072420000001,35.6353942,0 -86.69053270000001,35.6362237,0 -86.6904286,35.6367887,0 -86.69033949999999,35.6372726,0 -86.69028,35.6375955,0 -86.6901683,35.6384189,0 -86.6900748,35.6391089,0 -86.68999580000001,35.6397847,0 -86.68965729999999,35.6422704,0 -86.6895907,35.6427593,0 -86.68953689999999,35.6431546,0 -86.68951180000001,35.6433386,0 -86.6893985,35.644381,0 -86.6892975,35.6450872,0 -86.6892378,35.6456781,0 -86.689145,35.6463886,0 -86.6887479,35.6494297,0 -86.688714,35.6496897,0 -86.68862710000001,35.6504266,0 -86.6885738,35.6508781,0 -86.6885415,35.6511527,0 -86.6885278,35.6512685,0 -86.68852510000001,35.6513117,0 -86.6884838,35.6519849,0 -86.6884807,35.6520359,0 -86.6884325,35.6528202,0 -86.6884294,35.6533036,0 -86.68841329999999,35.6535978,0 -86.6884026,35.6538179,0 -86.6884026,35.6540119,0 -86.68837310000001,35.6551387,0 -86.68836880000001,35.6554495,0 -86.6883526,35.6556631,0 -86.6883217,35.6560688,0 -86.6882987,35.6564125,0 -86.68820820000001,35.6570075,0 -86.6881344,35.6576428,0 -86.6880244,35.6583532,0 -86.6878796,35.6593383,0 -86.6878608,35.6595715,0 -86.68747190000001,35.6621517,0 -86.68712859999999,35.664492,0 -86.68699580000001,35.6654605,0 -86.68697,35.6656524,0 -86.68685979999999,35.6664699,0 -86.686809,35.666784,0 -86.6868044,35.6668387,0 -86.6867716,35.6672312,0 -86.6867453,35.6675453,0 -86.6867324,35.6677004,0 -86.68672909999999,35.6677393,0 -86.686719,35.6678593,0 -86.68671190000001,35.6682717,0 -86.68670659999999,35.6685839,0 -86.6867074,35.6686041,0 -86.6867144,35.6687722,0 -86.68674230000001,35.6694476,0 -86.6868231,35.6701959,0 -86.6869056,35.6706889,0 -86.6869724,35.6710878,0 -86.6869976,35.6711898,0 -86.6871182,35.6716787,0 -86.6875455,35.6731781,0 -86.6875977,35.6733022,0 -86.6882019,35.6752941,0 -86.6886509,35.6767745,0 -86.68876229999999,35.6771419,0 -86.6888543,35.6774451,0 -86.6893542,35.6790933,0 -86.6900073,35.6812465,0 -86.69027029999999,35.6821136,0 -86.6903348,35.6823313,0 -86.6903658,35.6824358,0 -86.6906585,35.6834234,0 -86.6907341,35.6836811,0 -86.6907897,35.6838686,0 -86.6908506,35.6840741,0 -86.6909699,35.6844765,0 -86.69113659999999,35.6850387,0 -86.6922589,35.6886727,0 -86.6930491,35.69149,0 -86.6933653,35.6926003,0 -86.6934139,35.6928058,0 -86.6937901,35.6940649,0 -86.6938806,35.6943676,0 -86.69423999999999,35.695716,0 -86.6945659,35.6967879,0 -86.6946745,35.697145,0 -86.69471609999999,35.6973363,0 -86.69496599999999,35.6983184,0 -86.6955078,35.7008451,0 -86.6955992,35.7013997,0 -86.69567069999999,35.7017287,0 -86.6958681,35.7026144,0 -86.6960861,35.7037922,0 -86.69609610000001,35.703845,0 -86.6962777,35.7046608,0 -86.6964023,35.7052204,0 -86.6965306,35.7057965,0 -86.6965895,35.7061115,0 -86.6966486,35.7064281,0 -86.6967968,35.7071925,0 -86.69685509999999,35.7074655,0 -86.69690610000001,35.7077044,0 -86.6969919,35.7081313,0 -86.6971065,35.7086578,0 -86.69731419999999,35.7096119,0 -86.69749179999999,35.7104275,0 -86.6975758,35.7108735,0 -86.6977152,35.71202,0 -86.6977528,35.7127682,0 -86.69777790000001,35.7132681,0 -86.69782170000001,35.7141598,0 -86.69795999999999,35.7168902,0 -86.6979801,35.7172968,0 -86.69800840000001,35.7178669,0 -86.69811489999999,35.720433,0 -86.6983214,35.725339,0 -86.6983295,35.7254131,0 -86.69842060000001,35.7276929,0 -86.69846889999999,35.728529,0 -86.6984966,35.7294897,0 -86.6985478,35.730391,0 -86.69855750000001,35.7307938,0 -86.6985869,35.7314292,0 -86.6985689,35.7318273,0 -86.69854530000001,35.7325786,0 -86.6984673,35.7330991,0 -86.69830020000001,35.7341094,0 -86.6980643,35.7357463,0 -86.69802369999999,35.7366416,0 -86.698013,35.7374577,0 -86.6980035,35.7384551,0 -86.69798710000001,35.7406515,0 -86.6979788,35.741862,0 -86.6979516,35.7423888,0 -86.6978927,35.7427609,0 -86.6978735,35.7428513,0 -86.69778890000001,35.7432492,0 -86.6976729,35.7436388,0 -86.6973828,35.7444327,0 -86.69724170000001,35.7447902,0 -86.69690869999999,35.7456342,0 -86.6966508,35.7462877,0 -86.6963696,35.7469781,0 -86.6960174,35.7478793,0 -86.69534779999999,35.7495771,0 -86.69533490000001,35.749608,0 -86.69509410000001,35.7501833,0 -86.694714,35.7508886,0 -86.6942741,35.7515633,0 -86.693501,35.752749,0 -86.6931039,35.7533686,0 -86.6929052,35.7536824,0 -86.6924748,35.754362,0 -86.69229300000001,35.7546783,0 -86.6921597,35.7549447,0 -86.6920271,35.7552215,0 -86.69186500000001,35.7555598,0 -86.69175199999999,35.755828,0 -86.6913503,35.756939,0 -86.6906393,35.7587025,0 -86.6904555,35.7591774,0 -86.68991819999999,35.7605645,0 -86.6898498,35.7607745,0 -86.68981770000001,35.7608544,0 -86.6891353,35.7625544,0 -86.688676,35.763641,0 -86.68833189999999,35.7643485,0 -86.6877559,35.7653393,0 -86.687552,35.76569,0 -86.6872735,35.7660929,0 -86.686919,35.766625,0 -86.68652350000001,35.7672114,0 -86.686007,35.7679771,0 -86.68495160000001,35.7696152,0 -86.6849136,35.7696864,0 -86.68450679999999,35.7704498,0 -86.6840562,35.7714561,0 -86.6837129,35.7723949,0 -86.6833151,35.7736404,0 -86.6830958,35.7742994,0 -86.6830169,35.7745364,0 -86.6829244,35.7748238,0 -86.6828816,35.7749537,0 -86.68271129999999,35.7754547,0 -86.6826762,35.7755602,0 -86.6825742,35.7757862,0 -86.6825,35.7759503,0 -86.6824003,35.7761711,0 -86.68223,35.7765482,0 -86.6820304,35.7769902,0 -86.681988,35.777084,0 -86.6817515,35.7775162,0 -86.6814267,35.7781099,0 -86.68094290000001,35.77891,0 -86.6809087,35.7789674,0 -86.6803728,35.7798918,0 -86.67997920000001,35.7805485,0 -86.6793564,35.7815874,0 -86.67919500000001,35.7818566,0 -86.6783411,35.7832812,0 -86.6781902,35.7835331,0 -86.67732479999999,35.7849767,0 -86.6769213,35.7856429,0 -86.67679339999999,35.7858068,0 -86.6764178,35.7862954,0 -86.6763543,35.7863657,0 -86.6762346,35.7865087,0 -86.67575050000001,35.7869897,0 -86.67555,35.787189,0 -86.67514269999999,35.787566,0 -86.6750931,35.7876052,0 -86.6747238,35.7879823,0 -86.67442629999999,35.7882557,0 -86.6735893,35.7890246,0 -86.67241780000001,35.7901287,0 -86.6724036,35.7901421,0 -86.67138129999999,35.7911051,0 -86.6701881,35.7922292,0 -86.6692616,35.7931973,0 -86.66886,35.793617,0 -86.66790399999999,35.794854,0 -86.6673483,35.7956019,0 -86.665527,35.7980534,0 -86.6648411,35.7991709,0 -86.6647461,35.79933,0 -86.6642981,35.8001616,0 -86.66385440000001,35.8010906,0 -86.66343999999999,35.8022687,0 -86.66314389999999,35.8033479,0 -86.6629025,35.804306,0 -86.66280190000001,35.8047548,0 -86.662755,35.804964,0 -86.66275160000001,35.8049802,0 -86.6624789,35.8062668,0 -86.6623326,35.8070899,0 -86.6623137,35.807638,0 -86.6623184,35.8081604,0 -86.66232220000001,35.8085907,0 -86.66232460000001,35.808626,0 -86.66233920000001,35.8088398,0 -86.66240519999999,35.8098067,0 -86.662474,35.810976,0 -86.66249329999999,35.8119241,0 -86.6624719,35.8122617,0 -86.6623951,35.8131587,0 -86.6623592,35.813395,0 -86.662149,35.814792,0 -86.6620928,35.815253,0 -86.66201049999999,35.8156878,0 -86.6619814,35.8158829,0 -86.6618343,35.8168689,0 -86.6617665,35.8173232,0 -86.6616664,35.8179885,0 -86.6614816,35.8192163,0 -86.6614476,35.8194422,0 -86.66138340000001,35.819869,0 -86.6611144,35.8216158,0 -86.6611091,35.8216499,0 -86.6608825,35.8231217,0 -86.6607309,35.8241059,0 -86.6605263,35.8254343,0 -86.6603286,35.8267183,0 -86.6602941,35.8270174,0 -86.6602996,35.8272664,0 -86.6603023,35.8273871,0 -86.6603829,35.8279539,0 -86.6605431,35.8284617,0 -86.66072130000001,35.8288106,0 -86.661157,35.8295911,0 -86.66155670000001,35.8302895,0 -86.66203299999999,35.8311218,0 -86.6621117,35.8312594,0 -86.6621926,35.8314007,0 -86.6624144,35.8317934,0 -86.66299189999999,35.8328155,0 -86.6630143,35.8328541,0 -86.6637236,35.834078,0 -86.6638679,35.8343203,0 -86.66409489999999,35.8347909,0 -86.6642389,35.8351315,0 -86.66429119999999,35.835334,0 -86.6643347,35.8356962,0 -86.6643418,35.8360721,0 -86.6643301,35.8362674,0 -86.6642148,35.8369631,0 -86.66407100000001,35.837402,0 -86.663725,35.8382516,0 -86.663669,35.838389,0 -86.6634559,35.8389112,0 -86.66322099999999,35.839487,0 -86.663107,35.8397309,0 -86.66278920000001,35.8404828,0 -86.66251680000001,35.8410906,0 -86.6624521,35.8412397,0 -86.66223309999999,35.8417455,0 -86.662074,35.8421132,0 -86.6620491,35.8421707,0 -86.6617261,35.8429983,0 -86.6616705,35.8431406,0 -86.66163969999999,35.8432194,0 -86.6614931,35.843671,0 -86.6614294,35.8438988,0 -86.6611156,35.8450207,0 -86.6609835,35.8454932,0 -86.6609229,35.84571,0 -86.66067700000001,35.8465897,0 -86.66052329999999,35.8471394,0 -86.6602135,35.8483125,0 -86.660158,35.8485088,0 -86.66003790000001,35.8489339,0 -86.65997900000001,35.8491421,0 -86.6599022,35.8494249,0 -86.65969029999999,35.8502049,0 -86.6595705,35.850654,0 -86.6595501,35.8507304,0 -86.6594825,35.8509892,0 -86.65943489999999,35.8511711,0 -86.6594118,35.8512593,0 -86.65936689999999,35.85143,0 -86.6592807,35.8517576,0 -86.6592299,35.8519611,0 -86.65918859999999,35.8521733,0 -86.65917039999999,35.8522668,0 -86.6590537,35.8528659,0 -86.65900430000001,35.8532698,0 -86.65898129999999,35.8534572,0 -86.65895449999999,35.8536963,0 -86.6589512,35.8537238,0 -86.6589115,35.8540597,0 -86.6588799,35.8543268,0 -86.6588352,35.8547897,0 -86.65881330000001,35.8550168,0 -86.65880079999999,35.8551385,0 -86.6587348,35.8557839,0 -86.65868399999999,35.8563408,0 -86.65862300000001,35.8569158,0 -86.6585828,35.8574826,0 -86.658568,35.8577977,0 -86.6585487,35.8582105,0 -86.65853,35.8587605,0 -86.65853269999999,35.8591061,0 -86.65854299999999,35.8595293,0 -86.65860069999999,35.8602291,0 -86.65862,35.8604398,0 -86.658665,35.8609329,0 -86.65868070000001,35.8610549,0 -86.65868380000001,35.8610897,0 -86.6587782,35.8618032,0 -86.65880129999999,35.8619777,0 -86.6589115,35.8627872,0 -86.6589239,35.8628964,0 -86.6589745,35.8631991,0 -86.6590025,35.8634137,0 -86.6590274,35.8636043,0 -86.6590884,35.8640821,0 -86.6590934,35.8641184,0 -86.6591554,35.864568,0 -86.6592054,35.8649178,0 -86.6592146,35.8649824,0 -86.6592469,35.8652088,0 -86.6593479,35.8659726,0 -86.65935690000001,35.8660409,0 -86.6593647,35.8660998,0 -86.6594315,35.866604,0 -86.6594786,35.8669599,0 -86.6595212,35.867196,0 -86.6596696,35.8683386,0 -86.6596838,35.8684462,0 -86.6598307,35.8695628,0 -86.66004529999999,35.8711006,0 -86.66010199999999,35.8715065,0 -86.66016930000001,35.8719886,0 -86.66037470000001,35.8735514,0 -86.6604133,35.8738252,0 -86.66058719999999,35.8750575,0 -86.66072269999999,35.8760035,0 -86.6607702,35.8763775,0 -86.66080359999999,35.8766405,0 -86.6608714,35.8771377,0 -86.6609156,35.8774449,0 -86.661005,35.8779966,0 -86.6610965,35.878499,0 -86.66117610000001,35.87884,0 -86.661188,35.878891,0 -86.66128980000001,35.8792807,0 -86.6615073,35.8800251,0 -86.6617492,35.8807778,0 -86.6622194,35.882206,0 -86.662235,35.8822535,0 -86.66253380000001,35.8831659,0 -86.6628245,35.8840685,0 -86.66313959999999,35.8850352,0 -86.6634557,35.886009,0 -86.6635811,35.8863774,0 -86.66358459999999,35.8863924,0 -86.66360210000001,35.8864683,0 -86.66378159999999,35.8870114,0 -86.6640268,35.8877605,0 -86.66424000000001,35.8884349,0 -86.6644987,35.8892321,0 -86.6647105,35.8898886,0 -86.66473070000001,35.8899475,0 -86.6648522,35.8903129,0 -86.6649355,35.8905566,0 -86.6653721,35.8919186,0 -86.66578079999999,35.8931709,0 -86.6657968,35.8932206,0 -86.6659777,35.8937818,0 -86.6661814,35.8944919,0 -86.66629690000001,35.8949658,0 -86.6663676,35.8953161,0 -86.6663843,35.8953988,0 -86.66643569999999,35.8957163,0 -86.6664579,35.8958719,0 -86.6664778,35.8959768,0 -86.66648410000001,35.8960584,0 -86.66652019999999,35.8963251,0 -86.666539,35.8964793,0 -86.6665733,35.8970042,0 -86.6665783,35.8971708,0 -86.6665833,35.8973363,0 -86.6665888,35.8975183,0 -86.66658870000001,35.8980524,0 -86.66658870000001,35.8981768,0 -86.66658049999999,35.8983156,0 -86.6665689,35.898514,0 -86.6665364,35.8989504,0 -86.66650679999999,35.8991728,0 -86.66645509999999,35.8995613,0 -86.6663657,35.9001228,0 -86.66628129999999,35.9005298,0 -86.666264,35.9006135,0 -86.66620519999999,35.9008747,0 -86.66602829999999,35.9015476,0 -86.6659186,35.9019647,0 -86.6658343,35.9022181,0 -86.665817,35.9022907,0 -86.6658134,35.9023015,0 -86.6656789,35.9027017,0 -86.6655548,35.9030712,0 -86.66535759999999,35.903608,0 -86.6651462,35.9041217,0 -86.6650889,35.9042526,0 -86.66496530000001,35.904535,0 -86.664857,35.9047672,0 -86.66454179999999,35.9054449,0 -86.66404850000001,35.9064268,0 -86.6638722,35.9067955,0 -86.6634387,35.9076715,0 -86.6631764,35.9082059,0 -86.6624243,35.9097349,0 -86.66229060000001,35.9100067,0 -86.6619828,35.9106325,0 -86.6618545,35.9108932,0 -86.6614739,35.9116663,0 -86.6613795,35.9118581,0 -86.6612745,35.9120713,0 -86.66103440000001,35.9125755,0 -86.6606373,35.913372,0 -86.6606122,35.913423,0 -86.6604797,35.9136919,0 -86.6603793,35.9138959,0 -86.6598264,35.9150155,0 -86.65918050000001,35.9163359,0 -86.6589259,35.9168552,0 -86.65886740000001,35.9169745,0 -86.65886039999999,35.9169886,0 -86.6588335,35.9170427,0 -86.6585381,35.9176364,0 -86.6583491,35.9180279,0 -86.6582509,35.9182434,0 -86.6581015,35.9186556,0 -86.657971,35.919068,0 -86.6579126,35.9193229,0 -86.6578773,35.9194801,0 -86.6578166,35.9198148,0 -86.6577721,35.9202119,0 -86.6577692,35.9202524,0 -86.65774639999999,35.9205769,0 -86.6577698,35.9212727,0 -86.6578227,35.9220782,0 -86.6578475,35.9223304,0 -86.65790730000001,35.923098,0 -86.6579784,35.9240248,0 -86.65801860000001,35.9245382,0 -86.65805760000001,35.9250353,0 -86.6580883,35.9254274,0 -86.6580993,35.925599,0 -86.65812219999999,35.9259539,0 -86.65813679999999,35.9261427,0 -86.6581568,35.9264027,0 -86.65817970000001,35.9267004,0 -86.6581911,35.9268484,0 -86.6581956,35.926905,0 -86.65820789999999,35.9270584,0 -86.6582445,35.9275137,0 -86.65825220000001,35.9276101,0 -86.6582885,35.9280626,0 -86.6582932,35.9281207,0 -86.6583282,35.9285991,0 -86.65839130000001,35.9293454,0 -86.6584086,35.9295495,0 -86.65844319999999,35.9298474,0 -86.65851840000001,35.9302918,0 -86.65863830000001,35.9308926,0 -86.6587481,35.9313617,0 -86.6588485,35.9317299,0 -86.6589168,35.9319484,0 -86.65896859999999,35.9321144,0 -86.659098,35.9324949,0 -86.65938,35.9332782,0 -86.65955409999999,35.9337368,0 -86.659685,35.9340815,0 -86.6599459,35.9347787,0 -86.6600593,35.9350819,0 -86.660144,35.9353047,0 -86.660656,35.9366522,0 -86.6609756,35.9375015,0 -86.66105,35.9376777,0 -86.6610854,35.9377608,0 -86.6611001,35.9377944,0 -86.661344,35.938351,0 -86.6613748,35.9384157,0 -86.66156239999999,35.9388098,0 -86.6615929,35.9388738,0 -86.6617949,35.939268,0 -86.6618033,35.9392838,0 -86.66200619999999,35.9396641,0 -86.6622443,35.9400913,0 -86.6624546,35.9404378,0 -86.66294139999999,35.941281,0 -86.6633107,35.9419097,0 -86.6634056,35.9420717,0 -86.6634471,35.9421425,0 -86.6637097,35.9425907,0 -86.6638142,35.94277,0 -86.66383829999999,35.9428107,0 -86.66399149999999,35.9430676,0 -86.6640347,35.9431407,0 -86.664349,35.943672,0 -86.66443599999999,35.9438239,0 -86.6646362,35.9441733,0 -86.66464569999999,35.9441898,0 -86.66486690000001,35.9445652,0 -86.66493680000001,35.9446832,0 -86.6651394,35.9450251,0 -86.6651457,35.9450358,0 -86.6653448,35.9453727,0 -86.665396,35.9454592,0 -86.66554050000001,35.9457068,0 -86.66564390000001,35.9458841,0 -86.66589500000001,35.9463144,0 -86.6660703,35.9466107,0 -86.6661788,35.9467941,0 -86.6663374,35.9470622,0 -86.6663831,35.9471409,0 -86.6664956,35.9473348,0 -86.6667004,35.9476875,0 -86.6667391,35.9477542,0 -86.66696570000001,35.9481452,0 -86.6672049,35.9485561,0 -86.6674806,35.9490091,0 -86.6675098,35.9490585,0 -86.6675888,35.9491924,0 -86.6678958,35.9497133,0 -86.6680073,35.9499046,0 -86.66813380000001,35.9501217,0 -86.6683712,35.9505296,0 -86.6684053,35.9505882,0 -86.6685973,35.950918,0 -86.6686121,35.9509435,0 -86.66884779999999,35.9513452,0 -86.66895390000001,35.9515215,0 -86.6689619,35.9515351,0 -86.6693532,35.9522132,0 -86.66936750000001,35.9522379,0 -86.6697204,35.9527844,0 -86.66974380000001,35.9528218,0 -86.6698672,35.9530197,0 -86.66991640000001,35.9530986,0 -86.6700065,35.9532465,0 -86.67015960000001,35.9534979,0 -86.6701671,35.9535122,0 -86.6702009,35.9535765,0 -86.6702509,35.9536715,0 -86.6704581,35.9540656,0 -86.67075010000001,35.9546538,0 -86.6708163,35.9547962,0 -86.67081779999999,35.9547993,0 -86.6711126,35.9554333,0 -86.67128099999999,35.9557954,0 -86.67139880000001,35.9560487,0 -86.67166570000001,35.9566287,0 -86.6717833,35.9568841,0 -86.6719172,35.9571728,0 -86.6719837,35.9573181,0 -86.6720564,35.9574778,0 -86.6726666,35.9587778,0 -86.6727009,35.9588508,0 -86.67289220000001,35.9592444,0 -86.6730015,35.9594692,0 -86.67307289999999,35.959616,0 -86.6731569,35.9597849,0 -86.67344540000001,35.9603579,0 -86.67364430000001,35.9607585,0 -86.67368020000001,35.9608314,0 -86.67391019999999,35.9612989,0 -86.6741021,35.961656,0 -86.6742122,35.9618608,0 -86.67422689999999,35.9618881,0 -86.6744297,35.9622654,0 -86.674572,35.9625303,0 -86.6746151,35.9626156,0 -86.6746419,35.9626653,0 -86.67474780000001,35.9628697,0 -86.6747898,35.9629493,0 -86.6749191,35.9631929,0 -86.6749401,35.9632346,0 -86.6749942,35.9633389,0 -86.675107,35.9635569,0 -86.67530790000001,35.9639466,0 -86.6753775,35.9640817,0 -86.6754145,35.9641534,0 -86.6755478,35.9644122,0 -86.6758538,35.9650109,0 -86.6758725,35.9650506,0 -86.6759193,35.9651386,0 -86.67610929999999,35.9654927,0 -86.67618760000001,35.9656386,0 -86.67639560000001,35.9660447,0 -86.6764711,35.966189,0 -86.6765584,35.9663557,0 -86.6769225,35.9670776,0 -86.6771646,35.9675398,0 -86.67721179999999,35.9676308,0 -86.6774983,35.9682006,0 -86.6776284,35.9684906,0 -86.6776818,35.96861,0 -86.6776941,35.96864,0 -86.67781309999999,35.9689428,0 -86.6778731,35.9691001,0 -86.67791939999999,35.9692217,0 -86.6779433,35.9692913,0 -86.6780421,35.9695999,0 -86.6780543,35.9696437,0 -86.678117,35.9698677,0 -86.6781359,35.9699398,0 -86.67814749999999,35.9699861,0 -86.6781862,35.9701442,0 -86.6781948,35.9701795,0 -86.67822270000001,35.9702999,0 -86.6782484,35.9704375,0 -86.67826599999999,35.9705495,0 -86.67827370000001,35.9706178,0 -86.6783248,35.97107,0 -86.67838070000001,35.9714169,0 -86.6783959,35.9715113,0 -86.67842760000001,35.9717482,0 -86.6784375,35.9719294,0 -86.6784439,35.9722677,0 -86.67844239999999,35.9724042,0 -86.6784364,35.972832,0 -86.6784279,35.9729666,0 -86.6784097,35.9732535,0 -86.6784023,35.9733477,0 -86.67838709999999,35.9735815,0 -86.67837950000001,35.9737225,0 -86.6783705,35.9739122,0 -86.6783602,35.9741287,0 -86.67835479999999,35.9742041,0 -86.67833539999999,35.9744565,0 -86.6783095,35.9747931,0 -86.678307,35.9748232,0 -86.6782924,35.9749954,0 -86.6782465,35.9755821,0 -86.678162,35.9767403,0 -86.67815520000001,35.9769009,0 -86.678145,35.9771442,0 -86.6781539,35.9775228,0 -86.67817580000001,35.9781266,0 -86.67828369999999,35.9796862,0 -86.67834070000001,35.9804715,0 -86.67836680000001,35.9807843,0 -86.6784048,35.9812397,0 -86.67847159999999,35.9817655,0 -86.6785837,35.982401,0 -86.67859540000001,35.98245,0 -86.67862340000001,35.9825651,0 -86.6786534,35.9826858,0 -86.6786855,35.9828086,0 -86.67871820000001,35.9829263,0 -86.6787467,35.9830222,0 -86.6787824,35.9831398,0 -86.6788255,35.9832777,0 -86.6788561,35.9833722,0 -86.678895,35.9834898,0 -86.6789357,35.9836019,0 -86.6789943,35.9837622,0 -86.6790615,35.9839353,0 -86.67912440000001,35.9840851,0 -86.6791872,35.9842319,0 -86.6792464,35.9843599,0 -86.6793146,35.9845038,0 -86.6793474,35.9845724,0 -86.6794187,35.9847206,0 -86.67949470000001,35.9848716,0 -86.6797163,35.9853221,0 -86.67983289999999,35.9855539,0 -86.6799249,35.9857281,0 -86.6800382,35.9859538,0 -86.6800925,35.9860611,0 -86.68015579999999,35.9861867,0 -86.6802859,35.9864449,0 -86.68035759999999,35.986589,0 -86.6805438,35.9869712,0 -86.6805954,35.9870842,0 -86.6806749,35.9872556,0 -86.6807563,35.9874386,0 -86.6808995,35.9877567,0 -86.68102880000001,35.9880173,0 -86.6810684,35.9880917,0 -86.6811957,35.9883437,0 -86.6812803,35.9885053,0 -86.68134120000001,35.9886113,0 -86.68137110000001,35.9886564,0 -86.68150559999999,35.9888531,0 -86.6815684,35.9889509,0 -86.68161619999999,35.9890241,0 -86.6816602,35.9890905,0 -86.6817109,35.9891634,0 -86.68176269999999,35.9892373,0 -86.68184720000001,35.9893494,0 -86.68191729999999,35.9894472,0 -86.6819674,35.9895101,0 -86.68202669999999,35.9895817,0 -86.682095,35.9896656,0 -86.6821757,35.9897618,0 -86.6822499,35.9898458,0 -86.68229719999999,35.9898982,0 -86.6823409,35.9899472,0 -86.6826512,35.9902804,0 -86.6827201,35.9903544,0 -86.68289179999999,35.9905341,0 -86.6829795,35.9906282,0 -86.6830167,35.9906681,0 -86.6834652,35.9911497,0 -86.68355390000001,35.9912464,0 -86.6836955,35.9913978,0 -86.6838302,35.9915418,0 -86.6838769,35.9915917,0 -86.6838983,35.9916154,0 -86.683993,35.9917203,0 -86.68416240000001,35.991908,0 -86.68417460000001,35.9919215,0 -86.68419419999999,35.9919432,0 -86.6844967,35.9922639,0 -86.6845263,35.9922965,0 -86.68525769999999,35.9931014,0 -86.6853758,35.9932292,0 -86.6854926,35.9933506,0 -86.6855224,35.9933816,0 -86.6858912,35.9937807,0 -86.6861621,35.9940739,0 -86.6863551,35.994276,0 -86.68648210000001,35.9943949,0 -86.6865763,35.9944792,0 -86.6866727,35.9945629,0 -86.6867613,35.9946403,0 -86.68687490000001,35.9947271,0 -86.6871818,35.9949473,0 -86.6878839,35.9954509,0 -86.6884774,35.9958712,0 -86.6886722,35.9960092,0 -86.6891437,35.9963434,0 -86.6895064,35.9965898,0 -86.6898954,35.996854,0 -86.6903422,35.9971696,0 -86.69089719999999,35.9975615,0 -86.69156580000001,35.9980398,0 -86.69186670000001,35.9982544,0 -86.69234179999999,35.9985902,0 -86.6927879,35.9989178,0 -86.6931285,35.9991869,0 -86.69340339999999,35.9994212,0 -86.6935069,35.9995076,0 -86.6939218,35.9998612,0 -86.6943773,36.0002645,0 -86.6946037,36.000465,0 -86.69468809999999,36.0005429,0 -86.69492579999999,36.0007447,0 -86.6950423,36.0008436,0 -86.69547059999999,36.0012213,0 -86.6955785,36.0013195,0 -86.6958224,36.0015417,0 -86.6960977,36.0017852,0 -86.6967767,36.0023857,0 -86.69721800000001,36.0027676,0 -86.6979575,36.0034322,0 -86.6983168,36.003747,0 -86.698514,36.0039146,0 -86.6987012,36.004076,0 -86.69912840000001,36.0044485,0 -86.6993792,36.0046828,0 -86.6995951,36.0049074,0 -86.6997547,36.0051233,0 -86.6999129,36.0054097,0 -86.7001528,36.0059725,0 -86.7002876,36.0062941,0 -86.70030850000001,36.006344,0 -86.7004611,36.0066965,0 -86.700509,36.0068058,0 -86.7007512,36.0073636,0 -86.7008539,36.0076197,0 -86.7009728,36.0079472,0 -86.7010173,36.0080697,0 -86.7012354,36.0086136,0 -86.7014281,36.0090273,0 -86.70161040000001,36.0093767,0 -86.7016909,36.0095329,0 -86.7017421,36.0096248,0 -86.7018096,36.0097459,0 -86.7019672,36.0100287,0 -86.7019963,36.010075,0 -86.702095,36.0102324,0 -86.7021496,36.0103194,0 -86.7026647,36.0110866,0 -86.7028876,36.0114103,0 -86.7030985,36.0117165,0 -86.7035746,36.012385,0 -86.7045274,36.0137426,0 -86.70494069999999,36.0143523,0 -86.70518800000001,36.0147132,0 -86.70564469999999,36.0153594,0 -86.70575100000001,36.0155134,0 -86.70586950000001,36.0156838,0 -86.70598029999999,36.0158384,0 -86.7060719,36.0159617,0 -86.70636399999999,36.016342,0 -86.70650790000001,36.0165063,0 -86.70707640000001,36.0171307,0 -86.70717310000001,36.017235,0 -86.707322,36.0173919,0 -86.70770349999999,36.0177787,0 -86.70771209999999,36.0177872,0 -86.7080605,36.0181306,0 -86.7082875,36.0183537,0 -86.7086053,36.0186592,0 -86.7090954,36.0191304,0 -86.7092535,36.0192824,0 -86.70953489999999,36.0195407,0 -86.7097516,36.0197397,0 -86.71019029999999,36.0201558,0 -86.71043400000001,36.0203908,0 -86.7105588,36.0205112,0 -86.7107046,36.0206518,0 -86.7107539,36.0206993,0 -86.7112711,36.0212675,0 -86.7113394,36.0213408,0 -86.7113906,36.0213965,0 -86.7114492,36.021465,0 -86.7115828,36.0216212,0 -86.71171889999999,36.0217929,0 -86.7117992,36.0218944,0 -86.7118976,36.0220365,0 -86.7120259,36.0222217,0 -86.71203300000001,36.022232,0 -86.7122445,36.0225607,0 -86.712282,36.0226293,0 -86.7123488,36.0227486,0 -86.71239509999999,36.0228436,0 -86.71244129999999,36.0229468,0 -86.7125082,36.0230884,0 -86.712577,36.0232554,0 -86.7126334,36.0233971,0 -86.71272930000001,36.0237066,0 -86.7127417,36.0237423,0 -86.7128465,36.0240439,0 -86.71287359999999,36.0241506,0 -86.71289520000001,36.0242439,0 -86.71289969999999,36.0242635,0 -86.7129511,36.0245023,0 -86.71297939999999,36.0246645,0 -86.7129984,36.0247773,0 -86.713013,36.0248794,0 -86.71302470000001,36.0250249,0 -86.7130327,36.0251857,0 -86.713033,36.0253933,0 -86.7130331,36.0254323,0 -86.71303450000001,36.0254859,0 -86.7130296,36.0255294,0 -86.7130241,36.0255931,0 -86.7130159,36.0256884,0 -86.71300720000001,36.0257885,0 -86.71300239999999,36.0258283,0 -86.7129908,36.0259239,0 -86.71297130000001,36.026052,0 -86.712958,36.0261346,0 -86.71295480000001,36.0261534,0 -86.7129192,36.026368,0 -86.7128448,36.0268169,0 -86.71273480000001,36.0274996,0 -86.7126612,36.0279511,0 -86.7126598,36.0279619,0 -86.7125925,36.0284852,0 -86.71254190000001,36.0288787,0 -86.7125229,36.0297884,0 -86.7125289,36.030324,0 -86.71258210000001,36.0309727,0 -86.7125916,36.0311207,0 -86.712647,36.0315251,0 -86.7126765,36.0317604,0 -86.7127409,36.0322098,0 -86.7127598,36.0323206,0 -86.7127938,36.0325595,0 -86.712795,36.0325677,0 -86.712796,36.0325751,0 -86.7128933,36.033103,0 -86.7129796,36.033536,0 -86.7131515,36.034555,0 -86.71324610000001,36.0351945,0 -86.713295,36.0355824,0 -86.71331290000001,36.0358089,0 -86.71331720000001,36.0361671,0 -86.71331979999999,36.0363882,0 -86.713319,36.036471,0 -86.71331259999999,36.0365855,0 -86.7132928,36.0368577,0 -86.7132811,36.0369475,0 -86.7132706,36.0370272,0 -86.7132165,36.0373264,0 -86.7131955,36.0374445,0 -86.71314599999999,36.037723,0 -86.7130738,36.0380811,0 -86.7130016,36.0384393,0 -86.71288269999999,36.0390991,0 -86.7128639,36.039195,0 -86.712836,36.0393368,0 -86.7127782,36.0397655,0 -86.71276469999999,36.0399804,0 -86.71275559999999,36.0402766,0 -86.7127575,36.0403527,0 -86.71276279999999,36.0405682,0 -86.7127634,36.0405909,0 -86.7127715,36.0407899,0 -86.7127895,36.0411078,0 -86.7128014,36.0412146,0 -86.7128046,36.0412434,0 -86.7128913,36.0420254,0 -86.7128965,36.0420718,0 -86.71293559999999,36.0424747,0 -86.7129497,36.0425939,0 -86.7130058,36.0430676,0 -86.7130556,36.0435463,0 -86.7130757,36.0438783,0 -86.71311300000001,36.0441791,0 -86.7131234,36.0442375,0 -86.7131392,36.0444275,0 -86.7131464,36.0444893,0 -86.7131629,36.0446298,0 -86.7131704,36.0446938,0 -86.7131838,36.0447958,0 -86.71319389999999,36.0448731,0 -86.7132148,36.0450503,0 -86.7132393,36.0452326,0 -86.7132591,36.0453794,0 -86.71327839999999,36.0455464,0 -86.71336290000001,36.0462788,0 -86.7133948,36.0465547,0 -86.7134293,36.0468534,0 -86.7134489,36.0470231,0 -86.7135275,36.0477033,0 -86.7135598,36.0480275,0 -86.713595,36.0483797,0 -86.713613,36.048562,0 -86.7136206,36.0486042,0 -86.7136476,36.0487604,0 -86.71374830000001,36.0493605,0 -86.713869,36.049528,0 -86.7139689,36.0499478,0 -86.7140957,36.0503531,0 -86.7141894,36.0506844,0 -86.7144162,36.0514134,0 -86.71444630000001,36.0515101,0 -86.71447860000001,36.0516079,0 -86.71457340000001,36.051895,0 -86.7147507,36.0524975,0 -86.7147621,36.0525364,0 -86.7147633,36.0525404,0 -86.7149232,36.0530631,0 -86.71497100000001,36.0532207,0 -86.7150285,36.0534101,0 -86.715067,36.0535425,0 -86.7150968,36.0536451,0 -86.71512629999999,36.0537386,0 -86.71513520000001,36.0537668,0 -86.7152595,36.05416,0 -86.7153083,36.0543175,0 -86.7153861,36.0545894,0 -86.71560270000001,36.0553455,0 -86.7156945,36.0557036,0 -86.7157376,36.0559248,0 -86.71575850000001,36.0560121,0 -86.7159796,36.0569729,0 -86.7160408,36.0573303,0 -86.7161704,36.0580871,0 -86.7162168,36.0583358,0 -86.71626430000001,36.0585883,0 -86.7163438,36.0590112,0 -86.71651249999999,36.0600598,0 -86.7165701,36.0603647,0 -86.716596,36.0605052,0 -86.7166185,36.0606203,0 -86.7166467,36.0607709,0 -86.7166769,36.0609322,0 -86.7167036,36.061075,0 -86.716745,36.0612962,0 -86.716762,36.0614019,0 -86.71682199999999,36.0617748,0 -86.7168315,36.0618341,0 -86.7168327,36.0618417,0 -86.7168885,36.062182,0 -86.7169032,36.0622716,0 -86.71693089999999,36.0624411,0 -86.7170066,36.0628908,0 -86.71701090000001,36.0629251,0 -86.7170526,36.0631593,0 -86.71707619999999,36.0632922,0 -86.71712580000001,36.0635709,0 -86.7171527,36.0637219,0 -86.7170909,36.0639136,0 -86.71715089999999,36.0642381,0 -86.71717580000001,36.0643729,0 -86.7171876,36.0644368,0 -86.7172085,36.0645602,0 -86.7172267,36.0646671,0 -86.7172545,36.0647976,0 -86.7173169,36.0650901,0 -86.717361,36.0652616,0 -86.7174095,36.0654502,0 -86.7174498,36.0655611,0 -86.717529,36.0657792,0 -86.7175472,36.0658293,0 -86.71757599999999,36.0658967,0 -86.7176238,36.0660085,0 -86.7176418,36.0660505,0 -86.7176757,36.0661299,0 -86.7177106,36.0662035,0 -86.71773709999999,36.0662594,0 -86.7178143,36.0664223,0 -86.7179579,36.0666913,0 -86.71801379999999,36.0667885,0 -86.7180831,36.0668961,0 -86.7182234,36.0671137,0 -86.71825339999999,36.067156,0 -86.7183838,36.0673398,0 -86.7185006,36.0675045,0 -86.71855979999999,36.0675792,0 -86.7186059,36.0676374,0 -86.7187387,36.0677936,0 -86.7188558,36.0679297,0 -86.71902489999999,36.0681198,0 -86.71912380000001,36.0682149,0 -86.7193068,36.068382,0 -86.7194202,36.0684855,0 -86.7195687,36.068618,0 -86.71961640000001,36.0686606,0 -86.7196805,36.0687178,0 -86.7196977,36.0687311,0 -86.7198164,36.0688233,0 -86.71993740000001,36.0689173,0 -86.72008390000001,36.0690247,0 -86.72023950000001,36.0691256,0 -86.7205867,36.0693529,0 -86.7210899,36.0696823,0 -86.72144900000001,36.0698994,0 -86.7215435,36.0699565,0 -86.7217541,36.0700838,0 -86.7220951,36.07029,0 -86.7223394,36.0704411,0 -86.72270779999999,36.0706689,0 -86.7227299,36.0706826,0 -86.7228516,36.0707677,0 -86.7229057,36.0708055,0 -86.7230144,36.0708869,0 -86.7231343,36.0709763,0 -86.7232144,36.0710361,0 -86.7232625,36.0710744,0 -86.72338000000001,36.0711842,0 -86.723463,36.0712658,0 -86.7235159,36.0713211,0 -86.7235536,36.0713624,0 -86.72358970000001,36.0714051,0 -86.7237227,36.0715884,0 -86.72385199999999,36.0717965,0 -86.723939,36.071959,0 -86.72401670000001,36.0721441,0 -86.7240844,36.0723307,0 -86.7241456,36.0725005,0 -86.72418999999999,36.0726427,0 -86.7242202,36.0727386,0 -86.72427879999999,36.072916,0 -86.7243618,36.0731831,0 -86.7244477,36.0734698,0 -86.7244549,36.0734922,0 -86.7246164,36.0740088,0 -86.7247662,36.0745258,0 -86.7247708,36.0745409,0 -86.724822,36.0747091,0 -86.7249199,36.0750309,0 -86.7249837,36.075237,0 -86.7250236,36.0753657,0 -86.7251906,36.0759053,0 -86.725206,36.0759568,0 -86.72531069999999,36.0763074,0 -86.72532699999999,36.0763619,0 -86.7255002,36.0769416,0 -86.72552810000001,36.077013,0 -86.72553069999999,36.0770197,0 -86.7255749,36.0771328,0 -86.72563580000001,36.0772847,0 -86.7256726,36.0774004,0 -86.7258054,36.0778121,0 -86.7258813,36.0780557,0 -86.7259663,36.0783216,0 -86.72598360000001,36.0783763,0 -86.7261537,36.0789122,0 -86.72630270000001,36.0794476,0 -86.7263373,36.0795706,0 -86.72638240000001,36.0797176,0 -86.7264713,36.0800074,0 -86.7265677,36.0803354,0 -86.7265955,36.080433,0 -86.7267013,36.0808127,0 -86.7267883,36.0811102,0 -86.7268163,36.0812056,0 -86.72691330000001,36.0815358,0 -86.7270152,36.0818783,0 -86.7271004,36.0821643,0 -86.72714379999999,36.0823104,0 -86.72715530000001,36.0823476,0 -86.7272148,36.082537,0 -86.7272361,36.0826049,0 -86.7272668,36.0827046,0 -86.72730060000001,36.082814,0 -86.72732910000001,36.0829064,0 -86.72736500000001,36.083023,0 -86.7273972,36.0831274,0 -86.7274444,36.0832805,0 -86.72747750000001,36.0833878,0 -86.72757110000001,36.0836291,0 -86.7276213,36.0837692,0 -86.72766780000001,36.0838885,0 -86.72772879999999,36.0840296,0 -86.727777,36.0841403,0 -86.72783200000001,36.0842571,0 -86.72788540000001,36.0843663,0 -86.7279487,36.0844825,0 -86.7279911,36.0845585,0 -86.7281433,36.084823,0 -86.7283125,36.0850359,0 -86.72837699999999,36.085117,0 -86.7284221,36.0851673,0 -86.72847659999999,36.085228,0 -86.7285426,36.0853017,0 -86.7286266,36.0853954,0 -86.7286891,36.0854579,0 -86.72922370000001,36.0859808,0 -86.72935440000001,36.0861025,0 -86.72940490000001,36.0861481,0 -86.7298282,36.0865431,0 -86.72991089999999,36.0866193,0 -86.7300901,36.0867843,0 -86.7301605,36.0868491,0 -86.73022589999999,36.0869093,0 -86.7302917,36.086969,0 -86.73040520000001,36.087072,0 -86.73044899999999,36.0871117,0 -86.7305495,36.0872029,0 -86.73058570000001,36.0872357,0 -86.73064189999999,36.0872892,0 -86.7308601,36.087497,0 -86.73114959999999,36.0877561,0 -86.7312582,36.087854,0 -86.7313659,36.087951,0 -86.7315151,36.0880854,0 -86.7317303,36.0882849,0 -86.7328164,36.0892749,0 -86.7332699,36.0896895,0 -86.73356699999999,36.089961,0 -86.7336138,36.0900038,0 -86.73367399999999,36.0900578,0 -86.73379610000001,36.0901237,0 -86.73395120000001,36.0902589,0 -86.7339783,36.0902836,0 -86.73409169999999,36.0903869,0 -86.7344051,36.0906607,0 -86.73453720000001,36.0907825,0 -86.7346637,36.090906,0 -86.73473799999999,36.0909784,0 -86.7349115,36.091164,0 -86.7350091,36.0912856,0 -86.7350524,36.0914308,0 -86.7352633,36.0916817,0 -86.73537760000001,36.0918346,0 -86.7354574,36.0919478,0 -86.7354869,36.0919897,0 -86.73553320000001,36.092058,0 -86.7355891,36.0921405,0 -86.73566529999999,36.0922645,0 -86.7356977,36.0923172,0 -86.735764,36.0924284,0 -86.7357921,36.0924757,0 -86.7358448,36.0925678,0 -86.73586330000001,36.0926001,0 -86.73593750000001,36.0927341,0 -86.7359458,36.0927501,0 -86.73603060000001,36.0929136,0 -86.7360886,36.0930294,0 -86.7361856,36.0932231,0 -86.7362098,36.0932714,0 -86.7362299,36.0933178,0 -86.7362761,36.0934243,0 -86.7363003,36.0934705,0 -86.7364073,36.0936754,0 -86.7364604,36.0937771,0 -86.73651409999999,36.0938799,0 -86.73656769999999,36.0939827,0 -86.7365842,36.0940143,0 -86.7366907,36.0942183,0 -86.7367472,36.0943265,0 -86.7368156,36.0944574,0 -86.7368182,36.0944627,0 -86.7368716,36.0945696,0 -86.73694879999999,36.0947242,0 -86.73697799999999,36.0947826,0 -86.7370643,36.094949,0 -86.7370695,36.0949594,0 -86.73712089999999,36.0950633,0 -86.7371998,36.0952209,0 -86.7372171,36.0952554,0 -86.7372781,36.0953762,0 -86.7373312,36.0954815,0 -86.7373717,36.0955618,0 -86.7374241,36.0956655,0 -86.73745769999999,36.0957322,0 -86.737461,36.0957386,0 -86.73747710000001,36.0957706,0 -86.73754460000001,36.0959052,0 -86.7376227,36.096061,0 -86.73764199999999,36.0960994,0 -86.7376849,36.0961846,0 -86.7377067,36.096228,0 -86.7377595,36.0963378,0 -86.7378138,36.0964415,0 -86.7378464,36.0965038,0 -86.7378714,36.0965479,0 -86.7379289,36.0966495,0 -86.73795,36.0966895,0 -86.7380059,36.0967954,0 -86.7380076,36.0967987,0 -86.73803479999999,36.0968521,0 -86.7380785,36.0969371,0 -86.7381326,36.0970428,0 -86.7381893,36.0971535,0 -86.7383592,36.0974852,0 -86.7385008,36.0977616,0 -86.7385511,36.0978592,0 -86.7386355,36.098023,0 -86.73879100000001,36.0983249,0 -86.7388469,36.0984333,0 -86.73891759999999,36.0985705,0 -86.7390394,36.0988115,0 -86.7391269,36.0989833,0 -86.7391626,36.0990514,0 -86.7392191,36.0991595,0 -86.7392758,36.0992681,0 -86.7393448,36.0994001,0 -86.73945139999999,36.0996043,0 -86.7394659,36.099632,0 -86.7395068,36.0997161,0 -86.7395782,36.0998632,0 -86.73974130000001,36.1001825,0 -86.7398316,36.1003593,0 -86.739937,36.1005656,0 -86.7400591,36.1008071,0 -86.740208,36.1010922,0 -86.74037850000001,36.1014186,0 -86.7405107,36.1016805,0 -86.74059149999999,36.1018406,0 -86.74069780000001,36.1020568,0 -86.7408156,36.1022962,0 -86.74098650000001,36.1026436,0 -86.74113130000001,36.1029135,0 -86.7413676,36.1033679,0 -86.74152100000001,36.1037014,0 -86.7416841,36.1040343,0 -86.7417385,36.1041439,0 -86.7420492,36.1047315,0 -86.7421652,36.104951,0 -86.7422924,36.1051918,0 -86.74244179999999,36.1055072,0 -86.7425116,36.1056547,0 -86.74265269999999,36.1059292,0 -86.74283560000001,36.1062847,0 -86.74287579999999,36.1063628,0 -86.74291049999999,36.1064338,0 -86.74308929999999,36.1067995,0 -86.74311590000001,36.106854,0 -86.7431473,36.1069181,0 -86.74316140000001,36.106947,0 -86.7435052,36.1076151,0 -86.74366310000001,36.1079314,0 -86.743707,36.1080209,0 -86.74404610000001,36.1087128,0 -86.744152,36.108907,0 -86.74440319999999,36.1093921,0 -86.7444548,36.1094918,0 -86.74459830000001,36.1097775,0 -86.7446303,36.1098367,0 -86.74468299999999,36.1099342,0 -86.74479479999999,36.1101411,0 -86.7448301,36.1102064,0 -86.74492309999999,36.1103887,0 -86.74495659999999,36.1104544,0 -86.7449788,36.1104978,0 -86.7451349,36.1108037,0 -86.74519770000001,36.1109295,0 -86.7452558,36.1110404,0 -86.7454,36.1113153,0 -86.7455092,36.1115237,0 -86.74557350000001,36.1116464,0 -86.74578200000001,36.1120438,0 -86.7458836,36.1122375,0 -86.745957,36.1123775,0 -86.74599329999999,36.1124472,0 -86.7460487,36.1125535,0 -86.74614219999999,36.1127328,0 -86.7462122,36.1128661,0 -86.74630670000001,36.1130492,0 -86.74633799999999,36.1131093,0 -86.74652,36.1134592,0 -86.7466725,36.1137526,0 -86.7467351,36.113873,0 -86.7467972,36.1139924,0 -86.74697930000001,36.1143427,0 -86.7469917,36.1143666,0 -86.7471118,36.1145974,0 -86.7471954,36.1147681,0 -86.7473049,36.1149918,0 -86.747499,36.1153918,0 -86.74753320000001,36.115461,0 -86.7476264,36.1156546,0 -86.7477636,36.1159397,0 -86.7478285,36.1160747,0 -86.7478694,36.1161597,0 -86.7479769,36.1163841,0 -86.7480331,36.1165013,0 -86.74807029999999,36.1165767,0 -86.74810960000001,36.1166566,0 -86.748273,36.1169946,0 -86.74838819999999,36.1172331,0 -86.7484918,36.1174467,0 -86.7486371,36.1177376,0 -86.74881739999999,36.118113,0 -86.7488484,36.1181764,0 -86.7489753,36.1184357,0 -86.7492408,36.1189784,0 -86.74931359999999,36.1191171,0 -86.7495258,36.1195505,0 -86.74954099999999,36.1195816,0 -86.7496889,36.1198836,0 -86.74973749999999,36.1199829,0 -86.7498102,36.1201313,0 -86.74996830000001,36.1204542,0 -86.75002000000001,36.1205599,0 -86.7500486,36.1206423,0 -86.75007909999999,36.1207303,0 -86.750163,36.1208938,0 -86.7503887,36.1213341,0 -86.7504881,36.1215513,0 -86.75059520000001,36.121751,0 -86.75061940000001,36.1218094,0 -86.7510036,36.1226122,0 -86.7511549,36.1229125,0 -86.7511959,36.1230022,0 -86.7513125,36.1232605,0 -86.7515365,36.1237342,0 -86.7516342,36.1239684,0 -86.7517007,36.1241063,0 -86.7519343,36.1245867,0 -86.75205699999999,36.1248393,0 -86.7521661,36.1250292,0 -86.7523073,36.1253351,0 -86.75238179999999,36.1254887,0 -86.7524154,36.1255543,0 -86.7525376,36.1257925,0 -86.75257379999999,36.1258874,0 -86.75274109999999,36.1261836,0 -86.75281579999999,36.1263163,0 -86.75291369999999,36.1264902,0 -86.7530996,36.1268364,0 -86.7533028,36.1272135,0 -86.7533435,36.1272961,0 -86.75340079999999,36.1274005,0 -86.7534162,36.1274291,0 -86.753489,36.1275648,0 -86.7535037,36.127592,0 -86.75359229999999,36.1277569,0 -86.7537088,36.12799,0 -86.75383189999999,36.1282148,0 -86.753873,36.1283008,0 -86.7540712,36.1286713,0 -86.7544051,36.1293025,0 -86.7544912,36.1294705,0 -86.7545415,36.1295687,0 -86.7549712,36.1301904,0 -86.75515540000001,36.1303527,0 -86.75552620000001,36.1306793,0 -86.75591350000001,36.1310204,0 -86.7559299,36.1310348,0 -86.7559794,36.1311584,0 -86.7566229,36.1317089,0 -86.75677880000001,36.1318493,0 -86.75693579999999,36.1319775,0 -86.75755119999999,36.1325332,0 -86.7577562,36.1327518,0 -86.7578467,36.1328449,0 -86.7582721,36.133296,0 -86.7585399,36.1335943,0 -86.7586656,36.1337434,0 -86.7588066,36.1339425,0 -86.7588602,36.1340178,0 -86.7590028,36.1342143,0 -86.75918679999999,36.1344678,0 -86.7592961,36.1346303,0 -86.75945780000001,36.1348737,0 -86.7595026,36.134942,0 -86.7598665,36.1354745,0 -86.7600029,36.1356606,0 -86.7602804,36.1360564,0 -86.7603979,36.1362226,0 -86.76051990000001,36.1363772,0 -86.760668,36.1366508,0 -86.7607356,36.1369709,0 -86.7607659,36.1374492,0 -86.76079489999999,36.1379081,0 -86.7608175,36.1382657,0 -86.76091049999999,36.1388963,0 -86.7609401,36.1390968,0 -86.76096510000001,36.1392662,0 -86.76095530000001,36.1394435,0 -86.7609277,36.139488,0 -86.7608438,36.1396147,0 -86.76080760000001,36.1396665,0 -86.7608635,36.1397909,0 -86.7609386,36.1399176,0 -86.7610942,36.1400497,0 -86.7612457,36.1402447,0 -86.7613463,36.1404126,0 -86.7614603,36.1406942,0 -86.76181459999999,36.1412893,0 -86.76213389999999,36.1418389,0 -86.7624282,36.1422606,0 -86.76291089999999,36.1430007,0 -86.7630551,36.143222,0 -86.7635171,36.1439303,0 -86.7638422,36.1444288,0 -86.7640054,36.1446797,0 -86.7640767,36.1447891,0 -86.76467289999999,36.145704,0 -86.76471890000001,36.1457711,0 -86.7647558,36.1458308,0 -86.7650677,36.1463104,0 -86.765389,36.1468001,0 -86.76553749999999,36.1470264,0 -86.7655632,36.1470655,0 -86.7660518,36.1478209,0 -86.7662864,36.1481812,0 -86.7664992,36.148508,0 -86.76684469999999,36.1490385,0 -86.7674901,36.1500367,0 -86.76751350000001,36.1500729,0 -86.76759560000001,36.1501999,0 -86.7677793,36.150484,0 -86.7678334,36.1505524,0 -86.76791710000001,36.1506809,0 -86.7680455,36.150729,0 -86.76858609999999,36.15091,0 -86.76882310000001,36.1509893,0 -86.77045889999999,36.1515472,0 -86.77109799999999,36.1517648,0 -86.7711872,36.1517941,0 -86.77109799999999,36.151648,0 -86.7708461,36.1512437,0 -86.7707504,36.1510912,0 -86.7706855,36.1509864,0 -86.77064420000001,36.1509195,0 -86.77034209999999,36.1504803,0 -86.7702859,36.1503898,0 -86.77017619999999,36.1502181,0 -86.77006539999999,36.1500679,0 -86.769884,36.1498031,0 -86.769801,36.1496819,0 -86.7692885,36.1489029,0 -86.7692565,36.1488629,0 -86.7692419,36.1488401,0 -86.76881659999999,36.1481781,0 -86.7684819,36.1476571,0 -86.7679107,36.1467986,0 -86.7677628,36.1465764,0 -86.7677412,36.1465439,0 -86.7677171,36.1465082,0 -86.7673265,36.1459291,0 -86.76730980000001,36.1459044,0 -86.76670489999999,36.1450076,0 -86.7666603,36.1449429,0 -86.7666219,36.1448779,0 -86.7665762,36.1448077,0 -86.76635400000001,36.1444673,0 -86.7658964,36.143764,0 -86.7650635,36.1425007,0 -86.76499870000001,36.1424024,0 -86.764939,36.142292,0 -86.7648896,36.1422145,0 -86.7648554,36.1421623,0 -86.7647783,36.1420363,0 -86.76455609999999,36.141673,0 -86.7645126,36.1416032,0 -86.76414509999999,36.1410409,0 -86.7636974,36.1403953,0 -86.7634621,36.140085,0 -86.7633068,36.1398794,0 -86.7630738,36.1395707,0 -86.7629199,36.1393669,0 -86.7628694,36.1393001,0 -86.76273019999999,36.1391157,0 -86.76246829999999,36.1387682,0 -86.7622697,36.1385026,0 -86.7621608,36.1383566,0 -86.76211259999999,36.138292,0 -86.7619984,36.1381389,0 -86.76178229999999,36.1378493,0 -86.76141869999999,36.1373621,0 -86.7613932,36.1373279,0 -86.7612814,36.1371869,0 -86.76104840000001,36.1368928,0 -86.760705,36.1364112,0 -86.76061439999999,36.1362804,0 -86.7604475,36.1360451,0 -86.7601428,36.1356087,0 -86.7600336,36.1354581,0 -86.75961100000001,36.1348845,0 -86.75957889999999,36.1348409,0 -86.75940610000001,36.1345687,0 -86.7593045,36.1344242,0 -86.759247,36.1343509,0 -86.7591777,36.1342512,0 -86.75898220000001,36.1339701,0 -86.7589165,36.1338775,0 -86.7586675,36.1335615,0 -86.75829830000001,36.1331372,0 -86.7578863,36.1326904,0 -86.7575774,36.1323743,0 -86.7570243,36.1318886,0 -86.7568984,36.1317869,0 -86.75640989999999,36.1313431,0 -86.7563751,36.1313164,0 -86.7560922,36.1310716,0 -86.7559299,36.1310348,0 
			</coordinates>
		</LineString>
		<atom:link rel="app" href="https://www.google.com/earth/about/versions/#earth-pro" title="Google Earth Pro 7.3.6.10201"></atom:link>
	</Placemark>
</Document>
</kml>
