<?xml version="1.0" encoding="UTF-8"?>
<kml xmlns="http://www.opengis.net/kml/2.2" xmlns:gx="http://www.google.com/kml/ext/2.2" xmlns:kml="http://www.opengis.net/kml/2.2" xmlns:atom="http://www.w3.org/2005/Atom">
<Document>
	<name>US.321A.kml</name>
	<Placemark>
		<name>US.321A</name>
		<LineString>
			<coordinates>
				-81.3953439,35.7778704,0 -81.395493,35.777784,0 -81.3957731,35.7776789,0 -81.39604129999999,35.7775832,0 -81.396288,35.7775048,0 -81.39650260000001,35.7774787,0 -81.3967279,35.77747,0 -81.3969103,35.7774787,0 -81.3971785,35.7775048,0 -81.3976399,35.7776441,0 -81.3977276,35.7776776,0 -81.39873420000001,35.7780619,0 -81.3994209,35.7782969,0 -81.39976420000001,35.7784536,0 -81.3999609,35.7785744,0 -81.40016110000001,35.7786973,0 -81.40251840000001,35.7804856,0 -81.40263950000001,35.7805774,0 -81.40282190000001,35.7806818,0 -81.4030365,35.7808037,0 -81.4032564,35.7809244,0 -81.40338920000001,35.7809899,0 -81.4040869,35.7812982,0 -81.4050117,35.7817068,0 -81.405862,35.782093,0 -81.4066095,35.7824228,0 -81.4068544,35.7825274,0 -81.4079984,35.7830393,0 -81.408091,35.7830732,0 -81.4083541,35.7831673,0 -81.40857,35.783231,0 -81.4087562,35.7832725,0 -81.4089949,35.7833152,0 -81.4091193,35.7833294,0 -81.40931689999999,35.7833486,0 -81.4100431,35.7833622,0 -81.4103987,35.7833641,0 -81.4107305,35.7833659,0 -81.41107150000001,35.7833697,0 -81.4117153,35.7833796,0 -81.4119312,35.7834043,0 -81.41231569999999,35.7834637,0 -81.4126559,35.7835553,0 -81.41290309999999,35.7836401,0 -81.41345010000001,35.7838792,0 -81.41364059999999,35.7839711,0 -81.4145075,35.7843472,0 -81.4156672,35.7848502,0 -81.41612619999999,35.7850402,0 -81.41633760000001,35.7851255,0 -81.41689599999999,35.7853601,0 -81.4178509,35.7857498,0 -81.41811939999999,35.7858428,0 -81.4181557,35.7858562,0 -81.4182349,35.7859013,0 -81.4184116,35.7859639,0 -81.41872859999999,35.7860625,0 -81.4190397,35.7861354,0 -81.41963490000001,35.7862564,0 -81.42013919999999,35.7863789,0 -81.42018710000001,35.7864029,0 -81.42030440000001,35.7864598,0 -81.42064259999999,35.7866286,0 -81.42093819999999,35.7868078,0 -81.4211202,35.7869554,0 -81.42140310000001,35.7871928,0 -81.42187060000001,35.7876826,0 -81.42232679999999,35.7881492,0 -81.4227135,35.7885398,0 -81.42296469999999,35.7887904,0 -81.4236033,35.7894275,0 -81.4240424,35.789876,0 -81.4245059,35.7903327,0 -81.4254145,35.7913171,0 -81.4258739,35.7918315,0 -81.4260201,35.7920011,0 -81.4261242,35.7921218,0 -81.42628759999999,35.7923112,0 -81.4266884,35.7927283,0 -81.4276364,35.7938581,0 -81.4278928,35.7941478,0 -81.4281051,35.7943881,0 -81.4283782,35.7946583,0 -81.4289271,35.7951692,0 -81.4304276,35.7965701,0 -81.43051629999999,35.7966553,0 -81.4310557,35.7971245,0 -81.4314231,35.7974421,0 -81.43170379999999,35.7977311,0 -81.4318755,35.7978816,0 -81.43209280000001,35.798043,0 -81.4326018,35.7983706,0 -81.4331183,35.7986234,0 -81.4342997,35.7991639,0 -81.4346271,35.7993137,0 -81.4347253,35.7993608,0 -81.4351217,35.799551,0 -81.4359465,35.7999466,0 -81.4361411,35.8000402,0 -81.43784839999999,35.8008826,0 -81.438276,35.8011251,0 -81.4391153,35.8016762,0 -81.4398423,35.8022015,0 -81.4406055,35.8027525,0 -81.44122040000001,35.803206,0 -81.44156150000001,35.8034427,0 -81.4420095,35.8038304,0 -81.4420609,35.8038749,0 -81.4428004,35.8046782,0 -81.4440797,35.8060225,0 -81.444191,35.806112,0 -81.4443373,35.8062298,0 -81.4446993,35.8064795,0 -81.44474169999999,35.8065039,0 -81.444993,35.8066488,0 -81.44562380000001,35.8070122,0 -81.4457302,35.8070716,0 -81.4467252,35.8076269,0 -81.44751479999999,35.8080854,0 -81.4477156,35.808202,0 -81.4483182,35.808529,0 -81.4488269,35.8087185,0 -81.45004539999999,35.8090544,0 -81.45085229999999,35.8092669,0 -81.4515258,35.8094432,0 -81.4524517,35.8096872,0 -81.4534333,35.8099729,0 -81.4542529,35.810263,0 -81.4548016,35.8105077,0 -81.4552947,35.8107276,0 -81.45574000000001,35.8109004,0 -81.4569599,35.8114249,0 -81.4575456,35.8117001,0 -81.4580091,35.8118981,0 -81.4580491,35.8119156,0 -81.45806380000001,35.8119218,0 -81.4596219,35.8125788,0 -81.4597241,35.8126236,0 -81.459892,35.8127105,0 -81.4599054,35.8127162,0 -81.4603686,35.8129122,0 -81.4609995,35.8131793,0 -81.4612305,35.8132771,0 -81.4613062,35.8133086,0 -81.4617148,35.8134789,0 -81.4617755,35.8135042,0 -81.4623211,35.8136552,0 -81.4630258,35.8138008,0 -81.46342610000001,35.8138883,0 -81.4641855,35.8140544,0 -81.46489219999999,35.8142208,0 -81.46524359999999,35.8143036,0 -81.4655939,35.8143861,0 -81.4659608,35.8144568,0 -81.46598880000001,35.8144639,0 -81.4663098,35.8145447,0 -81.46710969999999,35.8148784,0 -81.46793769999999,35.8152687,0 -81.4686603,35.8156128,0 -81.46900239999999,35.8157894,0 -81.4693491,35.8160084,0 -81.4697065,35.8162987,0 -81.4700619,35.8166767,0 -81.47027919999999,35.8170408,0 -81.4704354,35.8173008,0 -81.4704835,35.8174459,0 -81.4704886,35.8174616,0 -81.4705653,35.8176467,0 -81.470747,35.8180991,0 -81.4710797,35.8188876,0 -81.47120409999999,35.8191826,0 -81.4715702,35.8199111,0 -81.4722108,35.8209144,0 -81.4727357,35.8217361,0 -81.47302430000001,35.8221692,0 -81.4731539,35.8224043,0 -81.47342860000001,35.8228308,0 -81.47347360000001,35.8229008,0 -81.47370960000001,35.8232672,0 -81.473766,35.8233548,0 -81.4739374,35.8236251,0 -81.4741384,35.8239394,0 -81.4746875,35.8247981,0 -81.4748359,35.8250365,0 -81.4761161,35.8270086,0 -81.47642260000001,35.827485,0 -81.47686469999999,35.8281653,0 -81.47717280000001,35.8286439,0 -81.47736519999999,35.8289433,0 -81.4777382,35.8294907,0 -81.4780208,35.8299454,0 -81.4781728,35.8302275,0 -81.4783262,35.8306344,0 -81.47840979999999,35.8309638,0 -81.4784537,35.8313846,0 -81.47845270000001,35.8319011,0 -81.4784413,35.8323908,0 -81.4784502,35.8332024,0 -81.4784494,35.8334932,0 -81.47844929999999,35.8335317,0 -81.4785208,35.8338609,0 -81.47861640000001,35.8341315,0 -81.4788032,35.8345184,0 -81.47883520000001,35.8345845,0 -81.4795439,35.8353181,0 -81.47983189999999,35.8356163,0 -81.4800528,35.8358307,0 -81.4805597,35.8362999,0 -81.48099240000001,35.836719,0 -81.48143640000001,35.8371587,0 -81.4822183,35.8379279,0 -81.48249130000001,35.8381864,0 -81.4827267,35.8383753,0 -81.48290280000001,35.8385073,0 -81.4831057,35.8386306,0 -81.483401,35.8387844,0 -81.4837023,35.8389031,0 -81.48402780000001,35.8389936,0 -81.48425210000001,35.8390439,0 -81.4845086,35.8390812,0 -81.4851778,35.8391495,0 -81.4854165,35.8391792,0 -81.4859589,35.839268,0 -81.4862852,35.8393393,0 -81.4866061,35.8394236,0 -81.4870195,35.8395502,0 -81.4873899,35.8396897,0 -81.48772649999999,35.8398404,0 -81.4880168,35.8399887,0 -81.4881575,35.8400678,0 -81.4884749,35.8402618,0 -81.4887093,35.8404222,0 -81.4889671,35.8406159,0 -81.4892825,35.8408778,0 -81.4893787,35.840972,0 -81.4904662,35.8421355,0 -81.49096419999999,35.842696,0 -81.49174170000001,35.8436701,0 -81.491912,35.8438935,0 -81.4921025,35.8441103,0 -81.4927502,35.8447917,0 -81.4927698,35.8448126,0 -81.49335309999999,35.8454352,0 -81.49341680000001,35.8454963,0 -81.4935237,35.8455989,0 -81.4936821,35.8457362,0 -81.493934,35.846001,0 -81.4941151,35.8462203,0 -81.4942899,35.8464382,0 -81.4944809,35.8467161,0 -81.49448769999999,35.846726,0 -81.4946764,35.8470093,0 -81.4946965,35.8470395,0 -81.4947164,35.8470694,0 -81.49473380000001,35.8470955,0 -81.4947514,35.8471217,0 -81.4947707,35.8471507,0 -81.4948303,35.8472404,0 -81.4948926,35.847334,0 -81.49503540000001,35.8475483,0 -81.4950716,35.8476015,0 -81.49575129999999,35.8485993,0 -81.4960837,35.8490901,0 -81.4963711,35.8495359,0 -81.4971764,35.8507443,0 -81.4974182,35.8510964,0 -81.49789490000001,35.8517907,0 -81.4982298,35.8522782,0 -81.4985411,35.8527318,0 -81.49892749999999,35.8532946,0 -81.4991792,35.8536781,0 -81.4993735,35.853974,0 -81.49988810000001,35.8547005,0 -81.49991850000001,35.8547434,0 -81.50008,35.8549817,0 -81.5002673,35.8552582,0 -81.5007793,35.8559714,0 -81.5009118,35.8561551,0 -81.5010066,35.8562864,0 -81.5010216,35.8563113,0 -81.5011732,35.8565621,0 -81.5015238,35.8569588,0 -81.5021778,35.8576387,0 -81.50225349999999,35.8577174,0 -81.5022666,35.857731,0 -81.5030198,35.8584849,0 -81.5033269,35.8587957,0 -81.503648,35.8591952,0 -81.50418259999999,35.8598865,0 -81.50528850000001,35.8614331,0 -81.50645919999999,35.8627415,0 -81.5067026,35.8630121,0 -81.5067897,35.8631081,0 -81.5070844,35.8634331,0 -81.5074587,35.8638458,0 -81.507609,35.8640116,0 -81.5076706,35.8640925,0 -81.5077244,35.8641631,0 -81.5078346,35.8643147,0 -81.5079775,35.8645151,0 -81.5080763,35.8647077,0 -81.5082012,35.8650427,0 -81.50829280000001,35.8653315,0 -81.50842249999999,35.8657345,0 -81.508588,35.866272,0 -81.508741,35.8667819,0 -81.5088568,35.8671897,0 -81.5089806,35.8675604,0 -81.5091242,35.8678565,0 -81.50926490000001,35.8680907,0 -81.5093382,35.8681864,0 -81.50945900000001,35.868344,0 -81.5096118,35.8685445,0 -81.5098244,35.8688124,0 -81.51047680000001,35.869679,0 -81.5105219,35.8697474,0 -81.51132490000001,35.870812,0 -81.51168680000001,35.871263,0 -81.5121066,35.8717861,0 -81.5122774,35.8719894,0 -81.5126523,35.8724779,0 -81.5132668,35.8732528,0 -81.5138247,35.8740092,0 -81.5144457,35.8747923,0 -81.51447899999999,35.8748349,0 -81.5145368,35.8749088,0 -81.51492450000001,35.8754046,0 -81.51598869999999,35.8767654,0 -81.5162449,35.877093,0 -81.51630160000001,35.8771656,0 -81.517179,35.8783254,0 -81.5176994,35.8789613,0 -81.5184434,35.8799163,0 -81.51879750000001,35.8803683,0 -81.5191432,35.8808539,0 -81.5192662,35.8810623,0 -81.5195784,35.8816119,0 -81.519718,35.8818724,0 -81.5198972,35.8822069,0 -81.5200978,35.8825689,0 -81.5201102,35.8825913,0 -81.5202523,35.8828449,0 -81.52049890000001,35.8833028,0 -81.5209582,35.8841556,0 -81.52098890000001,35.8842145,0 -81.5210754,35.8843806,0 -81.5211339,35.8844929,0 -81.52125119999999,35.8847181,0 -81.52193990000001,35.88594,0 -81.52221780000001,35.8864327,0 -81.5222864,35.8865505,0 -81.5225988,35.8871312,0 -81.5227874,35.8874392,0 -81.52305560000001,35.8878883,0 -81.52334089999999,35.8883392,0 -81.52371460000001,35.8888743,0 -81.52390509999999,35.8891549,0 -81.52416820000001,35.8895804,0 -81.5244429,35.8900051,0 -81.5247257,35.8904156,0 -81.525066,35.8908934,0 -81.5251914,35.8910772,0 -81.5250724,35.891434,0 -81.5250605,35.8914737,0 -81.52504570000001,35.891573,0 -81.5250259,35.8917857,0 -81.5249948,35.8920912,0 -81.5249687,35.892295,0 -81.5249367,35.8923549,0 -81.5249055,35.8925474,0 -81.52486020000001,35.8927447,0 -81.5247245,35.8931788,0 -81.5242306,35.8946363,0 -81.52392,35.8955644,0 -81.5234663,35.8968603,0 -81.5234462,35.8969164,0 -81.52326480000001,35.8975283,0 -81.52315,35.897875,0 -81.52303120000001,35.8982668,0 -81.5230143,35.8984613,0 -81.5229691,35.8986882,0 -81.5229422,35.8991986,0 -81.52295340000001,35.8994563,0 -81.5229808,35.8997694,0 -81.5230614,35.9003881,0 
			</coordinates>
		</LineString>
		<atom:link rel="app" href="https://www.google.com/earth/about/versions/#earth-pro" title="Google Earth Pro 7.3.6.10201"></atom:link>
	</Placemark>
</Document>
</kml>
