<?xml version="1.0" encoding="UTF-8"?>
<kml xmlns="http://www.opengis.net/kml/2.2" xmlns:gx="http://www.google.com/kml/ext/2.2" xmlns:kml="http://www.opengis.net/kml/2.2" xmlns:atom="http://www.w3.org/2005/Atom">
<Document>
	<name>US.311.kml</name>
	<Placemark>
		<name>US.311</name>
			<LineString>
				<coordinates>
					-80.2374626077213,36.1052874793895,0 -80.2367409764076,36.1052879189384,0 -80.2356829177488,36.10532159889,0 -80.2347421590393,36.1054213983086,0 -80.2332385136353,36.105413042254,0 -80.23231954336249,36.1053043651791,0 -80.2314275149199,36.1049692403184,0 -80.2295103828437,36.1035856300017,0 -80.2292016113369,36.1032864844601,0 -80.22891122495621,36.1027431057916,0 -80.22876588751249,36.1023024565174,0 -80.2272324424344,36.102244646862,0 -80.22559699999999,36.1022528,0 -80.22476880000001,36.1022386,0 -80.22444,36.1022439,0 -80.2240484,36.1023199,0 -80.2236249,36.1024823,0 -80.22340079999999,36.1025757,0 -80.2231927,36.1026623,0 -80.22271480000001,36.1028192,0 -80.22259099999999,36.102806,0 -80.22218599999999,36.102888,0 -80.22192099999999,36.102941,0 -80.2216928,36.1029967,0 -80.220708,36.103237,0 -80.220431,36.103337,0 -80.22008599999999,36.10349,0 -80.219782,36.103681,0 -80.21958840000001,36.1038391,0 -80.21934280000001,36.1040396,0 -80.2193146,36.1040626,0 -80.2190722,36.1043254,0 -80.2187613,36.1046625,0 -80.2186722,36.1047591,0 -80.21849090000001,36.1049558,0 -80.218475,36.104973,0 -80.2178863,36.1056136,0 -80.2178352,36.1056692,0 -80.21738209999999,36.1061623,0 -80.216548,36.10707,0 -80.21606439999999,36.1075933,0 -80.21589969999999,36.1077716,0 -80.2155861,36.1081109999999,0 -80.2152731,36.1084498,0 -80.215053,36.108688,0 -80.214547,36.109201,0 -80.21425240000001,36.1095532,0 -80.2140101,36.1097979,0 -80.2139068,36.1099037,0 -80.2137688,36.1100415,0 -80.2136957,36.1101153,0 -80.21329,36.110525,0 -80.2132434,36.1105766,0 -80.2126749,36.1112066,0 -80.212402,36.111509,0 -80.2104264,36.1136603,0 -80.2101852,36.1139145,0 -80.2099388,36.1141849000001,0 -80.2098824,36.1142769,0 -80.209823,36.1143739,0 -80.2097668,36.1144638,0 -80.20967690000001,36.1146025,0 -80.20960890000001,36.1147287,0 -80.20946410000001,36.1150426,0 -80.2093175,36.115364,0 -80.2088272,36.1164388,0 -80.20881730000001,36.1164605,0 -80.2083385,36.1175102,0 -80.2082027,36.1178066,0 -80.2076881,36.1189283,0 -80.20757209999999,36.11919,0 -80.2074561,36.1194516,0 -80.2074083,36.1195569,0 -80.20732460000001,36.1197408,0 -80.2071261,36.1201774,0 -80.2068257,36.120828,0 -80.2062233,36.1221081,0 -80.2060369,36.1224933,0 -80.2060188,36.1225307,0 -80.20590110000001,36.1227838,0 -80.2056407,36.1233436,0 -80.2053756,36.1237123,0 -80.205178,36.124085,0 -80.205111,36.1241871,0 -80.20479,36.124676,0 -80.204425,36.125232,0 -80.204188,36.125685,0 -80.204003,36.126147,0 -80.20372399999999,36.126767,0 -80.2035352,36.1271358,0 -80.203418,36.1273648,0 -80.203378,36.127443,0 -80.2033629,36.1274698,0 -80.20314310000001,36.1278606,0 -80.2028796,36.1283288,0 -80.2028013,36.1284679,0 -80.202487,36.1290264,0 -80.202337,36.129293,0 -80.20204649999999,36.1298133,0 -80.2012,36.131312,0 -80.200723,36.131858,0 -80.2002095,36.1323251000001,0 -80.199319,36.133135,0 -80.197942,36.1343877,0 -80.1975798,36.1347172,0 -80.19743459999999,36.1348493,0 -80.1970919,36.135161,0 -80.196639,36.135573,0 -80.1966151,36.1355947,0 -80.1962533,36.1359233,0 -80.195973,36.136178,0 -80.195773,36.13636,0 -80.1956266,36.1364903,0 -80.19530229999999,36.1367791,0 -80.1944343,36.1375521,0 -80.19400589999999,36.1379336,0 -80.193915,36.1380145,0 -80.193518,36.138368,0 -80.19219560000001,36.1395454,0 -80.1910955,36.1405248,0 -80.19080099999999,36.140787,0 -80.19033039999999,36.141179,0 -80.190004,36.141451,0 -80.18918600000001,36.1420369999999,0 -80.1886859,36.1423871,0 -80.1885327,36.1424944,0 -80.187258,36.143387,0 -80.18663410000001,36.1438216,0 -80.1852341,36.1447771,0 -80.1844718,36.1452974,0 -80.1840624,36.1455768000001,0 -80.1838407,36.1457281,0 -80.18366279999999,36.1458539,0 -80.1834625,36.1460007,0 -80.18328,36.1461419,0 -80.18307009999999,36.1463109,0 -80.1829286,36.1464392,0 -80.1827931,36.146573,0 -80.1826657,36.146711,0 -80.1825424,36.1468562,0 -80.18245709999999,36.1469676,0 -80.1824297,36.1470034,0 -80.18232639999999,36.1471545,0 -80.18222919999999,36.1473088,0 -80.1821417,36.1474659,0 -80.18206960000001,36.1476169,0 -80.1815843,36.1487353,0 -80.18143259999999,36.1490708,0 -80.1812793,36.149395,0 -80.1811182,36.1497211,0 -80.1810215,36.1497891,0 -80.1809403,36.1499248,0 -80.18085120000001,36.1500698,0 -80.1806911,36.1503621,0 -80.1803914,36.1509003,0 -80.1803531,36.1509674,0 -80.1801754,36.1512836,0 -80.1799839,36.1516114,0 -80.17977569999999,36.151932,0 -80.17956460000001,36.1522482,0 -80.1793795,36.1525161,0 -80.1791937,36.1527742,0 -80.178969,36.1530817,0 -80.1787401,36.1533828,0 -80.1785057,36.1536829000001,0 -80.17834120000001,36.1538876,0 -80.1782676,36.1539792,0 -80.178015,36.1542879,0 -80.1777599,36.154594,0 -80.1774999,36.1548965,0 -80.1774059,36.1550477,0 
				
					-80.1774059,36.1550477,0 -80.1771337,36.1553482,0 -80.17684939999999,36.1556471,0 -80.1765899,36.1559151,0 -80.1763077,36.1561967,0 -80.1763029,36.1562015,0 -80.1759703,36.1565242,0 -80.1758233,36.1566695,0 -80.1756338,36.1568409,0 -80.1749745,36.1574454,0 -80.1743554,36.1580131,0 -80.1728406,36.1594019,0 -80.17227250000001,36.1599158,0 -80.1715653,36.160571,0 -80.1706676,36.161394,0 -80.1689839,36.1629373,0 -80.1685274,36.1633558,0 -80.1649955,36.1665934,0 -80.1645922,36.1669631,0 -80.16404489999999,36.1674647,0 -80.1636481,36.1678284,0 -80.16076990000001,36.1704723,0 -80.158511,36.172518,0 -80.1581666,36.1728508,0 -80.15772389999999,36.1732044,0 -80.1566538,36.17402,0 -80.15610100000001,36.174079,0 -80.15590400000001,36.1740927,0 -80.15573550000001,36.1741180000001,0 -80.154483,36.174124,0 -80.15353930000001,36.1741643,0 -80.1534779,36.174167,0 -80.15298660000001,36.1741885,0 -80.1529839,36.1743983,0 -80.1529803,36.1744368,0 -80.1529805,36.1746927,0 -80.1529768,36.1748668,0 -80.15296189999999,36.1753943,0 -80.152933,36.175785,0 -80.1529322,36.1760119,0 -80.1529316,36.1762113,0 -80.1529302,36.1766089,0 -80.1529202,36.1768743,0 -80.1529148,36.1769584,0 -80.15290109999999,36.1773389,0 -80.15290210000001,36.1775244,0 -80.15291740000001,36.1777403,0 -80.15294849999999,36.1780049,0 -80.152967,36.1781498,0 -80.15298970000001,36.1783334,0 -80.1530053,36.1784619,0 -80.1530166,36.1786214,0 -80.1530315,36.1788262,0 -80.1530494,36.1791256,0 -80.1530808,36.1796967,0 -80.1531088,36.1802064,0 -80.1531172,36.180328,0 -80.15313620000001,36.1805474,0 -80.1531593,36.1806798,0 -80.153178,36.1807507,0 -80.15328700000001,36.181098,0 -80.15353,36.181447,0 -80.1537022,36.1816105,0 -80.15386599999999,36.181766,0 -80.154736,36.182385,0 -80.155109,36.182611,0 -80.155458,36.182787,0 -80.155846,36.182943,0 -80.156097,36.1830169999999,0 -80.15622500000001,36.183054,0 -80.1564158,36.1830952,0 -80.156447,36.183102,0 -80.156707,36.183158,0 -80.1567227,36.1831593,0 -80.15734399999999,36.183209,0 -80.15758599999999,36.1832429999999,0 -80.15781,36.183275,0 -80.15781800000001,36.183277,0 -80.158213,36.183392,0 -80.15875339999999,36.1836946,0 -80.1590502,36.1839542,0 -80.159319,36.184281,0 -80.15956,36.184584,0 -80.159904,36.185016,0 -80.1601252,36.1853082,0 -80.160321,36.185567,0 -80.160831,36.186525,0 -80.16112630000001,36.1871644,0 -80.16127899999999,36.187586,0 -80.1613601,36.1878997,0 -80.16139579999999,36.1881025,0 -80.1614016,36.1881444,0 -80.16144009999999,36.188424,0 -80.16148459999999,36.1888187,0 -80.1615548,36.1893844,0 -80.16157560000001,36.1896589,0 -80.16155689999999,36.1899108,0 -80.1614764,36.1902139,0 -80.16105690000001,36.1914979000001,0 -80.1610163,36.1917436,0 -80.160996,36.1920426,0 -80.16103150000001,36.1924195,0 -80.1611025,36.1927553,0 -80.161199,36.1930666,0 -80.1613064,36.1932562,0 -80.1613614,36.1933533,0 -80.1615644,36.1936482,0 -80.16180799999999,36.1939308,0 -80.16209720000001,36.1942052,0 -80.16274679999999,36.1946475,0 -80.1632876,36.1950331,0 -80.1634791,36.1951967,0 -80.1635929,36.1953074,0 -80.1637118,36.1954384,0 -80.163933,36.1957252,0 -80.1640871,36.1959719,0 -80.16444420000001,36.1965889,0 -80.1646539,36.1969787,0 -80.1649737,36.1975498,0 -80.1651699,36.1978988,0 -80.1654952,36.1984824,0 -80.16567550000001,36.1988094,0 -80.1658219,36.1990906,0 -80.1659732,36.1994387,0 -80.1660778,36.1997267,0 -80.1661642,36.2000202,0 -80.16626909999999,36.2004348,0 -80.166301,36.2005415,0 -80.1665958,36.201582,0 -80.1666812,36.2018892,0 -80.16670240000001,36.2019521,0 -80.16680049999999,36.202231,0 -80.1668985,36.2024731,0 -80.1670201,36.2027254,0 -80.167136,36.202941,0 -80.1677375,36.2038852,0 -80.1683208,36.2048104000001,0 -80.1684678,36.20505,0 -80.16865799999999,36.2053557,0 -80.1688458,36.2056685,0 -80.16894480000001,36.2058692,0 -80.1690914,36.2061782,0 -80.1692312,36.2064787,0 -80.16935580000001,36.2067389,0 -80.1695007,36.20707,0 -80.1695512,36.2072564000001,0 -80.1695793,36.2074053,0 -80.16959129999999,36.2075725,0 -80.1695831,36.207802,0 -80.169572,36.2082453,0 -80.1695512,36.2092564,0 -80.1695347,36.2094682,0 -80.16952790000001,36.2095294,0 -80.169471,36.2098419,0 -80.169453,36.2099139,0 -80.169426,36.2099869,0 -80.1693379,36.2102084,0 -80.1692053,36.2104526,0 -80.1690298,36.2106971,0 -80.16873289999999,36.2110131,0 -80.1683555,36.2114192,0 -80.1681047,36.2117153,0 -80.1680293,36.2118425,0 -80.1679542,36.2120004,0 -80.167895,36.2121971,0 -80.167841,36.21243,0 -80.16769410000001,36.2131478,0 -80.1676361,36.213465,0 -80.1675802,36.2137536,0 -80.16754760000001,36.2138918,0 -80.1675,36.2140731,0 -80.1673765,36.2144272,0 -80.1672095,36.2148312,0 -80.1670147,36.2152876,0 -80.1669297,36.2155072,0 -80.166842,36.2157482,0 -80.16675859999999,36.2161175,0 -80.16673179999999,36.2163692999999,0 -80.1667276,36.2166207,0 -80.1667406,36.216886,0 -80.1667587,36.2170919,0 -80.1668268,36.2174279,0 -80.1669658,36.217923,0 -80.1675084,36.2197654,0 -80.16763709999999,36.2202121,0 -80.167771,36.2206694,0 -80.1678895,36.2210727,0 -80.1680192,36.2214483,0 -80.1681928,36.2218612,0 -80.16846630000001,36.2224506,0 -80.1687542,36.2230690000001,0 -80.1692084,36.2240591,0 -80.16927680000001,36.2241993,0 -80.1694037,36.2244908,0 -80.1695028,36.2247424,0 -80.16953770000001,36.2248624,0 -80.16957050000001,36.2250274,0 -80.1695947,36.2252476,0 -80.16959,36.2254558,0 -80.1695752,36.2255749,0 -80.16955110000001,36.2256944,0 -80.1695263,36.2257977,0 -80.1694954,36.2258924,0 -80.1694451,36.226019,0 -80.16939619999999,36.2261158,0 -80.1693143,36.2262576,0 -80.1691213,36.2265161,0 -80.1689429,36.2267081,0 -80.1687209,36.2269261,0 -80.1685097,36.2271338,0 -80.1682562,36.2273756,0 -80.16801890000001,36.227606,0 -80.16779889999999,36.2278164,0 -80.16753540000001,36.2280707,0 -80.1673222,36.2282762,0 -80.1671901,36.2284017,0 -80.16688430000001,36.2286933,0 -80.16649940000001,36.2290654,0 -80.16631630000001,36.2292412,0 -80.1660682,36.2294743,0 -80.16591529999999,36.2296096,0 -80.1657155,36.229777,0 -80.16552609999999,36.2299279,0 -80.1652327,36.2301597,0 -80.1649048,36.230415,0 -80.1646889,36.2305864,0 -80.16436969999999,36.2308396000001,0 -80.16392380000001,36.2311901,0 -80.16371789999999,36.2313518,0 -80.1634531,36.2315606,0 -80.1630011,36.2319181,0 -80.16260819999999,36.2322297,0 -80.16138239999999,36.2331977,0 -80.156038,36.237377,0 -80.155736,36.237634,0 -80.15535199999999,36.238056,0 -80.15504300000001,36.238477,0 -80.15482900000001,36.238852,0 -80.1539533,36.2409867,0 -80.153755,36.24147,0 -80.153616,36.242022,0 -80.1534857,36.2441831,0 -80.153476,36.244344,0 -80.1534329,36.244795,0 -80.153363,36.245527,0 -80.153238,36.2461219999999,0 -80.15302699999999,36.246722,0 -80.1529156,36.2469321,0 -80.152705,36.247329,0 -80.1523691,36.2478705,0 -80.1520692,36.2483541,0 -80.1507682,36.2505046,0 -80.14882249999999,36.2536227,0 -80.1483985,36.2543444,0 -80.1482872,36.2545559,0 -80.14819060000001,36.2547614,0 -80.1480907,36.2550047,0 -80.14802570000001,36.2552026,0 -80.14791700000001,36.2555876,0 -80.147384,36.257407,0 -80.1472533,36.2579014,0 -80.147172,36.258209,0 -80.14712299999999,36.258397,0 -80.147099,36.258526,0 -80.147086,36.258583,0 -80.147009,36.259115,0 -80.14696600000001,36.259465,0 -80.14692100000001,36.259782,0 -80.146711,36.261265,0 -80.14639339999999,36.2633311,0 -80.14633499999999,36.263711,0 -80.14632539999999,36.2637636,0 -80.14620600000001,36.264418,0 -80.145926,36.265939,0 -80.145805,36.266542,0 -80.145594,36.267595,0 -80.14548259999999,36.2681423,0 -80.14543639999999,36.268369,0 -80.1453566,36.268761,0 -80.1452164,36.2694499,0 -80.1451648,36.2697036,0 -80.145161,36.269722,0 -80.1451112,36.2699754,0 -80.1450571,36.2702506,0 -80.1449829,36.2706278999999,0 -80.14487699999999,36.271167,0 -80.1447166,36.2719813,0 -80.144639,36.272375,0 -80.14446270000001,36.2733387,0 -80.1444197,36.2737402,0 -80.144417,36.273907,0 -80.14440020000001,36.2743433,0 -80.144395,36.274477,0 -80.14444399999999,36.27565,0 -80.14452199999999,36.276135,0 -80.1445291,36.2761877,0 -80.1445537,36.2763694,0 -80.144578,36.276549,0 -80.144587,36.276614,0 -80.1446126,36.2767412999999,0 -80.14462399999999,36.276798,0 -80.14472600000001,36.277303,0 -80.14534999999999,36.280654,0 -80.1455232,36.2816119,0 -80.14566600000001,36.282371,0 -80.1456714,36.2824001,0 -80.145734,36.282738,0 -80.1457839,36.2830671,0 -80.145799,36.283192,0 -80.145805,36.2833362,0 -80.1458114,36.2835472,0 -80.1458104,36.2839541,0 -80.14580979999999,36.2843251,0 -80.1458028,36.2848262,0 -80.1457886,36.2857238,0 -80.1457808,36.2858564,0 -80.1457645,36.2859589,0 -80.145748,36.286042,0 -80.145715,36.286135,0 -80.145675,36.2862250000001,0 -80.145628,36.286314,0 -80.145574,36.286399,0 -80.14551299999999,36.286482,0 -80.14544600000001,36.286561,0 -80.14537300000001,36.286637,0 -80.14529400000001,36.286708,0 -80.145208,36.286776,0 -80.14511899999999,36.286838,0 -80.14331,36.287957,0 -80.1419033,36.2890238,0 -80.14164580000001,36.2892115,0 -80.1412727,36.2895291,0 -80.141079,36.2897477,0 -80.1409068,36.2900009999999,0 -80.1408237,36.2902124,0 -80.14075200000001,36.2904752,0 -80.14072779999999,36.2906058,0 -80.140717,36.2908113,0 -80.14072,36.290933,0 -80.140727,36.2910179999999,0 -80.1407739,36.2912904,0 -80.14081,36.291454,0 -80.14084200000001,36.291554,0 -80.14086399999999,36.291619,0 -80.140885,36.291685,0 -80.1409756,36.2918943,0 -80.1410465,36.2920421,0 -80.14111384869878,36.29230421819067,0 -80.14115091544038,36.29245581394694,0 -80.14113892718946,36.29257949344443,0 -80.14109014869723,36.29269084224604,0 -80.14109776757762,36.29278343354726,0 -80.14114961371342,36.29286322357385,0 -80.14125018890444,36.29290301853389,0 -80.14140645251481,36.29291736680467,0 -80.14154957986985,36.29300011503693,0 -80.14165952681014,36.29314084454173,0 -80.14173653267351,36.293306696279,0 -80.14173327226074,36.29358392376034,0 -80.14170476815249,36.29464267450406,0 -80.14166175138993,36.29625135571988,0 -80.14161223553705,36.29801716427074,0 -80.14148372080577,36.30078119623408,0 -80.14137852815317,36.30394469957266,0 -80.14135102110137,36.30478001090809,0 -80.1414670003514,36.30530678034336,0 -80.1417602316034,36.30592721527214,0 -80.14206800673608,36.30651447209331,0 -80.14220451560332,36.30701853106143,0 -80.14214308775767,36.30758541647723,0 -80.14190526526072,36.30807155635989,0 -80.14143314066766,36.30858114181756,0 -80.14019941274577,36.30976192424093,0 -80.1398696818659,36.31011919936464,0 -80.13968325767543,36.31045385056232,0 -80.13953073013055,36.31084591823315,0 -80.13944757680073,36.31130249222643,0 -80.13930330941001,36.31220725391572,0 -80.13916389475523,36.31257772930489,0 -80.13900824496416,36.31287880944792,0 
				
					-80.13894809999999,36.3129319,0 -80.138687,36.313184,0 -80.138577,36.313276,0 -80.138459,36.313361,0 -80.13833099999999,36.313437,0 -80.138227,36.3134884,0 -80.138169,36.313517,0 -80.13785729999999,36.3136336,0 -80.137367,36.313817,0 -80.13696899999999,36.313957,0 -80.13651299999999,36.3141280000001,0 -80.13589140000001,36.3143652,0 -80.13582100000001,36.314392,0 -80.13560579999999,36.3144701,0 -80.135504,36.314507,0 -80.135344,36.314562,0 -80.13511200000001,36.314649,0 -80.134873,36.314722,0 -80.13471,36.314763,0 -80.134461,36.314811,0 -80.134184,36.314845,0 -80.1339437,36.3148648,0 -80.133905,36.314868,0 -80.13362499999999,36.314881,0 -80.13323,36.314885,0 -80.132824,36.31489,0 -80.132487,36.314899,0 -80.13180010000001,36.3149144,0 -80.13156720000001,36.3149197,0 -80.13141899999999,36.314923,0 -80.1312904,36.3149254,0 -80.131203,36.314927,0 -80.13087299999999,36.314927,0 -80.13062600000001,36.314938,0 -80.130443,36.314955,0 -80.13029899999999,36.314968,0 -80.13010800000001,36.314993,0 -80.129919,36.3150279999999,0 -80.129673,36.315092,0 -80.12946700000001,36.31516,0 -80.129256,36.315244,0 -80.129053,36.315341,0 -80.128923,36.315412,0 -80.12856600000001,36.315627,0 -80.128326,36.315788,0 -80.12800900000001,36.316016,0 -80.12776599999999,36.316174,0 -80.12756400000001,36.316295,0 -80.1275356,36.3163104,0 -80.12733,36.316422,0 -80.1270237,36.3165652,0 -80.1268022,36.316659,0 -80.12658500000001,36.316744,0 -80.12608659999999,36.3169392,0 -80.125152,36.317304,0 -80.12507220000001,36.317336,0 -80.124748,36.317466,0 -80.124442,36.317588,0 -80.124151,36.317683,0 -80.12378200000001,36.317786,0 -80.123465,36.3178600000001,0 -80.123231,36.317904,0 -80.12300999999999,36.317941,0 -80.12215999999999,36.318069,0 -80.121942,36.318106,0 -80.1214628,36.318178,0 -80.1209786,36.3182525,0 -80.120547,36.318319,0 -80.1203379,36.3183498,0 -80.1201461,36.3183779,0 -80.12003110000001,36.3183949,0 -80.11972609999999,36.3184415,0 -80.1192437,36.3185153000001,0 -80.1191042,36.3185359,0 -80.1188985,36.3185702,0 -80.1187261,36.3185989,0 -80.1184274,36.318662,0 -80.1182075,36.3187223,0 -80.11798810000001,36.3188012,0 -80.1178857,36.3188427,0 -80.11772860000001,36.3189115,0 -80.117479,36.3190306,0 -80.1162832,36.3196054,0 -80.1160943,36.3196918,0 -80.11600350000001,36.3197343,0 -80.11584550000001,36.3198106,0 -80.11569660000001,36.3198805,0 -80.115554,36.319939,0 -80.1153403,36.3200327,0 -80.11521980000001,36.3200769,0 -80.11503089999999,36.3201403,0 -80.1148232,36.3201941,0 -80.11465680000001,36.3202291,0 -80.114499,36.3202537,0 -80.11435229999999,36.3202729,0 -80.11423550000001,36.3202842,0 -80.11413880000001,36.3202906,0 -80.114002,36.320295,0 -80.11381299999999,36.320292,0 -80.11374549999999,36.3202872,0 -80.113559,36.320274,0 -80.113308,36.320243,0 -80.11327470000001,36.3202371,0 -80.1132245,36.3202282,0 -80.11313370000001,36.3202122,0 -80.11305900000001,36.320199,0 -80.112977,36.320181,0 -80.11283109999999,36.3201365,0 -80.112751,36.320112,0 -80.1124779,36.3200139,0 -80.1120931,36.3198596,0 -80.111773,36.3197249999999,0 -80.11086299999999,36.3193587,0 -80.110792,36.319327,0 -80.1101871,36.3190803,0 -80.1100156,36.3190142,0 -80.1098302,36.318945,0 -80.1096208,36.3188743,0 -80.1093947,36.3188073,0 -80.109218,36.318766,0 -80.1090602,36.3187353,0 -80.1088135,36.318704,0 -80.10866300000001,36.3186922,0 -80.1084828,36.318687,0 -80.10831,36.31869,0 -80.1081322,36.318701,0 -80.1079431,36.3187227,0 -80.107747,36.318759,0 -80.107646,36.31878,0 -80.10741179999999,36.3188417,0 -80.1071389,36.3189397,0 -80.1069847,36.319007,0 -80.106835,36.319084,0 -80.106734,36.319137,0 -80.1037005,36.3209011,0 -80.103047,36.321302,0 -80.10291700000001,36.3213911,0 -80.102704,36.321546,0 -80.10238,36.321807,0 -80.10162680000001,36.3224911,0 -80.10086200000001,36.3231749,0 -80.10049669999999,36.3235014,0 -80.0999389,36.3240004,0 -80.0994098,36.3244759,0 -80.0989242,36.3249149,0 -80.0986875,36.3251241,0 -80.09847790000001,36.3252928,0 -80.098191,36.3255072999999,0 -80.097989,36.325647,0 -80.09777579999999,36.3257885,0 -80.0974978,36.3259550000001,0 -80.0972182,36.3261134,0 -80.0969772,36.3262359,0 -80.0967407,36.3263493,0 -80.0964132,36.3265003,0 -80.0958732,36.3267516,0 -80.0950091,36.3271336,0 -80.0946373,36.327296,0 -80.0940885,36.3275384,0 -80.09385469999999,36.3276388,0 -80.093541,36.3277844,0 -80.093265,36.327896,0 -80.0930369,36.3280037,0 -80.0923769,36.3283133,0 -80.0920292,36.328493,0 -80.09171310000001,36.3286704,0 -80.0914011,36.3288471,0 -80.09084900000001,36.329155,0 -80.090064,36.329597,0 -80.0898842,36.3296999999999,0 -80.0897492,36.3297732,0 -80.08954799999999,36.329887,0 -80.08926099999999,36.33004,0 -80.088577,36.330462,0 -80.088403,36.330596,0 -80.088239,36.330739,0 -80.08778940000001,36.3311991,0 -80.0876708,36.3313077,0 -80.0875503,36.3314085,0 -80.0874324,36.3314959,0 -80.0872942,36.3315904,0 -80.08713229999999,36.3316911,0 -80.0869489,36.3317872,0 -80.0868371,36.3318403,0 -80.08670410000001,36.3318965,0 -80.0865433,36.331958,0 -80.0863272,36.3320308,0 -80.0859813,36.3321469,0 -80.084844,36.3325297,0 -80.08315829999999,36.3331022,0 -80.082149,36.333445,0 -80.081936,36.333531,0 -80.081711,36.33364,0 -80.08148540000001,36.333762,0 -80.08131520000001,36.3338683,0 -80.0812164,36.3339383,0 -80.08110979999999,36.3340215,0 -80.0809996,36.3341227,0 -80.0808564,36.3342593,0 -80.08069759999999,36.3344399,0 -80.0804945,36.3346754,0 -80.08020670000001,36.3350192,0 -80.08004010000001,36.3352159,0 -80.0798314,36.3354406,0 -80.07967120000001,36.3355987,0 -80.07951439999999,36.3357307,0 -80.07935740000001,36.3358495,0 -80.07914700000001,36.335987,0 -80.078973,36.336087,0 -80.078731,36.336199,0 -80.0784847,36.3362893,0 -80.0782761,36.3363515,0 -80.0780998,36.3363953,0 -80.0778425,36.3364527,0 -80.0776142,36.3365016,0 -80.07744030000001,36.3365384,0 -80.07682079999999,36.336667,0 -80.07507459999999,36.3370286,0 -80.07460380000001,36.3371265,0 -80.0736211,36.3373299,0 -80.0726339,36.3375367000001,0 -80.0719509,36.3376774,0 -80.0711821,36.3378344,0 -80.07054189999999,36.3379693,0 -80.0704793,36.3379829,0 -80.06981930000001,36.3381182,0 -80.0692689,36.3382304,0 -80.069033,36.3382777,0 -80.0687673,36.33832,0 -80.0685491,36.3383457,0 -80.0683796,36.3383598,0 -80.0682037,36.3383677,0 -80.0678739,36.3383698,0 -80.0676508,36.3383628,0 -80.0672761,36.3383365,0 -80.0655251,36.3382018,0 -80.0650551,36.3381648,0 -80.06495169999999,36.3381558,0 -80.0636287,36.3380676,0 -80.061201,36.3378668,0 -80.0597337,36.3377455,0 -80.05881220000001,36.3376824,0 -80.0582813,36.337646,0 -80.0578311,36.3376343,0 -80.05734080000001,36.3376708,0 -80.0572378,36.3376785,0 -80.05685510000001,36.3377321,0 -80.0564724,36.3378202,0 -80.0561349,36.337916,0 -80.05580209999999,36.3380432,0 -80.0554726,36.3381895,0 -80.0549987,36.3384359,0 -80.0541145,36.3389043,0 -80.0534526,36.339305,0 -80.05313169999999,36.3395501,0 -80.0528326,36.3398138,0 -80.0525131,36.3400956,0 -80.052465,36.340138,0 -80.051756,36.340776,0 -80.050433,36.3419649,0 -80.05007689999999,36.3422913,0 -80.04673080000001,36.3453305000001,0 -80.0459256,36.3460618,0 -80.044431,36.3473852,0 -80.0432957,36.3484152,0 -80.04316129999999,36.348527,0 -80.0430375,36.3486176,0 -80.0429089,36.3487067,0 -80.04276969999999,36.3487909,0 -80.0426456,36.3488574,0 -80.0425309,36.3489144,0 -80.0423955,36.3489745,0 -80.04222230000001,36.349042,0 -80.0420529,36.3490983,0 -80.0418925,36.3491428,0 -80.0417193,36.3491837,0 -80.0415431,36.3492184,0 -80.0413659,36.3492416,0 -80.04120690000001,36.349258,0 -80.0410262,36.349269,0 -80.040718,36.3492754,0 -80.0397833,36.3492824,0 -80.039361,36.3492872,0 -80.0383649,36.3492993,0 -80.03775469999999,36.3493015,0 -80.03740550000001,36.3493014,0 -80.036402,36.3493142,0 -80.0362023,36.3493199,0 -80.0360237,36.3493336,0 -80.03581250000001,36.3493532,0 -80.0356206,36.3493778,0 -80.0354306,36.3494089,0 -80.03524849999999,36.3494522,0 -80.0350608,36.3495083,0 -80.0348462,36.3495856,0 -80.0346315,36.3496780999999,0 -80.0344484,36.3497714000001,0 -80.0342694,36.3498783,0 -80.03404980000001,36.3500305,0 -80.03387859999999,36.3501646,0 -80.0337428,36.3502782,0 -80.033276,36.3506855,0 -80.0327379,36.351154,0 -80.03265140000001,36.3512288,0 -80.03234759999999,36.3514908,0 -80.03196320000001,36.3518247,0 -80.03168220000001,36.3520664,0 -80.0315392,36.3521958,0 -80.03135810000001,36.3523691,0 -80.03122089999999,36.3525147,0 -80.031077,36.35268,0 -80.030929,36.352854,0 -80.03076,36.353081,0 -80.030592,36.353345,0 -80.03039819999999,36.3536785000001,0 -80.0302956,36.3538962,0 -80.03023349999999,36.3540486,0 -80.0301692,36.3542214,0 -80.0301097,36.354405,0 -80.0300629,36.3545606,0 -80.03000609999999,36.3548217,0 -80.0299662,36.3550418,0 -80.0298421,36.3559253000001,0 -80.02981,36.356139,0 -80.02978,36.356346,0 -80.029657,36.357216,0 -80.029583,36.357677,0 -80.0295225,36.3580892,0 -80.02949599999999,36.3582675,0 -80.02946300000001,36.358526,0 -80.02935069999999,36.3593223,0 -80.0293001,36.3596812,0 -80.029239,36.3601145,0 -80.0290693,36.3612684,0 -80.028976,36.3619023,0 -80.028915,36.3623170000001,0 -80.028857,36.3627307,0 -80.02879489999999,36.3631727,0 -80.028578,36.364719,0 -80.0285526,36.3648367,0 -80.02853399999999,36.364923,0 -80.0285106,36.3650000999999,0 -80.028454,36.365187,0 -80.028423,36.365256,0 -80.0284077,36.3652948,0 -80.02832859999999,36.3654945,0 -80.0282753,36.3655942000001,0 -80.0281889,36.3657487,0 -80.027987,36.366051,0 -80.027686,36.366443,0 -80.02759279999999,36.3665594,0 -80.0268866,36.3674408,0 -80.025611,36.369033,0 -80.025485,36.369181,0 -80.02538800000001,36.36927,0 -80.025318,36.369328,0 -80.02510700000001,36.369522,0 -80.02498799999999,36.369609,0 -80.02486500000001,36.369689,0 -80.024716,36.369795,0 -80.024568,36.369876,0 -80.02437399999999,36.36997,0 -80.0243227,36.369993,0 -80.02414899999999,36.370071,0 -80.023928,36.370158,0 -80.023608,36.370265,0 -80.0228831,36.3704811,0 -80.022471,36.370604,0 -80.02184819999999,36.3707869,0 -80.02118400000001,36.3709819999999,0 -80.0210513,36.3710221,0 -80.0209165,36.3710708,0 -80.02056899999999,36.371168,0 -80.020157,36.371285,0 -80.0198623,36.3713737,0 -80.019419,36.371507,0 -80.01928599999999,36.3715456,0 -80.018348,36.371818,0 -80.01809849999999,36.3718951,0 -80.016982,36.37224,0 -80.016773,36.372314,0 -80.016594,36.372387,0 -80.01615099999999,36.372577,0 -80.01573500000001,36.372799,0 -80.015552,36.372909,0 -80.01549730000001,36.372944,0 -80.01484600000001,36.373361,0 -80.0145461,36.3735665,0 -80.014169,36.373825,0 -80.01234599999999,36.375047,0 -80.012101,36.375207,0 -80.01193499999999,36.375326,0 -80.0115414,36.375593,0 -80.0114169,36.3756795,0 -80.010609,36.376223,0 -80.01023499999999,36.376478,0 -80.0099738,36.3766439,0 -80.009928,36.376673,0 -80.009518,36.376956,0 -80.009213,36.377154,0 -80.0085031,36.3776597,0 -80.0083844,36.3777356,0 -80.007938,36.378021,0 -80.00787,36.378069,0 -80.00760560000001,36.378251,0 -80.00744,36.378365,0 -80.00714499999999,36.378559,0 -80.006653,36.378891,0 -80.0063294,36.3790789,0 -80.006281,36.379107,0 -80.00613300000001,36.379193,0 -80.005764,36.379385,0 -80.005673,36.379432,0 -80.005082,36.379713,0 -80.00487,36.379812,0 -80.00467500000001,36.379917,0 -80.004413,36.380034,0 -80.003922,36.38027,0 -80.0038275,36.3803115,0 -80.00370100000001,36.3803670000001,0 -80.003506,36.380467,0 -80.00347600000001,36.380481,0 -80.0033964,36.3805181,0 -80.003006,36.380693,0 -80.00273799999999,36.380821,0 -80.00246199999999,36.380959,0 -80.002152,36.381084,0 -80.002042,36.381124,0 -80.001864,36.381196,0 -80.001755,36.381235,0 -80.001464,36.381337,0 -80.001249,36.381406,0 -80.00102699999999,36.38147,0 -80.00077469999999,36.381537,0 -80.000564,36.381593,0 -80.00020000000001,36.381685,0 -80.00011430000001,36.3817067,0 -80.0000151,36.3817318,0 -79.9997335,36.381803,0 -79.99942900000001,36.38188,0 -79.998648,36.382065,0 -79.99745799999999,36.382363,0 -79.996247,36.382665,0 -79.996143,36.382685,0 -79.995856,36.38274,0 -79.995541,36.38279,0 -79.99517,36.382827,0 -79.994828,36.38285,0 -79.994679,36.382853,0 -79.9942399,36.382849,0 -79.994078,36.382838,0 -79.993965,36.3828290000001,0 -79.99391679999999,36.3828253,0 -79.993666,36.382806,0 -79.993488,36.382787,0 -79.993083,36.382739,0 -79.99285810000001,36.3827077,0 -79.992451,36.382651,0 -79.99226539999999,36.3826255,0 -79.99132400000001,36.382496,0 -79.99104699999999,36.382458,0 -79.99089549999999,36.3824373,0 -79.99023889999999,36.3823476,0 -79.989542,36.3822524,0 -79.98922829999999,36.3822096,0 -79.989158,36.3822,0 -79.988772,36.382153,0 -79.9886872,36.3821461,0 -79.98854710000001,36.3821348,0 -79.988451,36.382127,0 -79.98822560000001,36.382116,0 -79.988123,36.382111,0 -79.9878495,36.3821046,0 -79.98778299999999,36.382103,0 -79.9876771,36.3821032,0 -79.987335,36.382104,0 -79.9871825,36.3821103,0 -79.987019,36.382117,0 -79.98674,36.38214,0 -79.98633700000001,36.3821771,0 -79.98623069999999,36.3821869,0 -79.9855443,36.3822502,0 -79.9829064,36.3826017,0 -79.9823294,36.3826779,0 -79.9820169,36.3827156,0 -79.9815519,36.3827621,0 -79.9812431,36.3827915,0 -79.9807265,36.3828464,0 -79.9802244,36.3828963,0 -79.9800686,36.3829092,0 -79.9797023,36.3829489,0 -79.9793126,36.3829843,0 -79.97878110000001,36.3830162,0 -79.9780698,36.3830952,0 -79.977428,36.383165,0 -79.975802,36.383438,0 -79.974997,36.383572,0 -79.972959,36.383908,0 -79.97257999999999,36.383964,0 -79.97243,36.383991,0 -79.972283,36.384018,0 -79.9715305,36.3841839,0 -79.970641,36.38438,0 -79.9703834,36.3844344,0 -79.9701953,36.3844742,0 -79.9697146,36.3845758,0 -79.96866300000001,36.384798,0 -79.9685339,36.384825,0 -79.9683574,36.3848618,0 -79.96783000000001,36.384972,0 -79.9678134,36.3849756,0 -79.967331,36.38508,0 -79.967129,36.385117,0 -79.966668,36.385185,0 -79.966246,36.385218,0 -79.965986,36.38523,0 -79.965414,36.385243,0 -79.963455,36.385291,0 -79.963154,36.385303,0 -79.962728,36.385308,0 -79.962318,36.385319,0 -79.9617083,36.3853286,0 -79.96163,36.38533,0 -79.9615163,36.3853316,0 -79.9607116,36.3853426,0 -79.960611,36.385344,0 -79.96019320000001,36.385348,0 -79.9596561,36.3853531,0 -79.959559,36.385354,0 -79.95841900000001,36.385369,0 -79.9578941,36.3853885,0 -79.95788,36.385389,0 -79.9572422,36.385383,0 -79.956919,36.3853745,0 -79.9567529,36.3853678,0 -79.95645279999999,36.3853514,0 -79.95609880000001,36.3853251999999,0 -79.9557969,36.3852969,0 -79.95550609999999,36.3852644,0 -79.95520930000001,36.385226,0 -79.9549284,36.3851845,0 -79.9546112,36.3851318,0 -79.95435740000001,36.3850851,0 -79.9540641,36.3850259,0 -79.953819,36.3849721,0 -79.953154,36.384837,0 -79.95205799999999,36.38462,0 -79.951778,36.384552,0 -79.951606,36.384502,0 -79.95138,36.384423,0 -79.95106699999999,36.384288,0 -79.950776,36.384133,0 -79.950581,36.384011,0 -79.95033650000001,36.3838334,0 -79.95029599999999,36.383804,0 -79.94995900000001,36.383506,0 -79.949786,36.383334,0 -79.94960399999999,36.383153,0 -79.948848,36.382375,0 -79.94878129999999,36.3823028,0 -79.9486302,36.3821395,0 -79.94843,36.381923,0 -79.9482587,36.3816965,0 -79.948117,36.381509,0 -79.947722,36.380925,0 -79.94765200000001,36.380802,0 -79.947464,36.38047,0 -79.947321,36.380159,0 -79.947124,36.379671,0 -79.946951,36.3792142,0 -79.946918,36.379127,0 -79.9467169,36.3786116,0 -79.94665500000001,36.378453,0 -79.946445,36.377983,0 -79.94618199999999,36.377532,0 -79.94592400000001,36.377199,0 -79.94584999999999,36.3771031,0 -79.945708,36.376919,0 -79.945376,36.376567,0 -79.9452599,36.3764435,0 -79.94517399999999,36.376352,0 -79.9449427,36.3761512,0 -79.944633,36.37591,0 -79.9443859,36.3757514,0 -79.94427899999999,36.375689,0 -79.9442215,36.3756583,0 -79.94414089999999,36.3756157,0 -79.9439491,36.3755323000001,0 -79.94374689999999,36.3754482,0 -79.9435185,36.3753703,0 -79.94326100000001,36.3752947,0 -79.94298499999999,36.375229,0 
				
					-79.94298499999999,36.375229,0 -79.942701,36.375149,0 -79.9424248,36.3750803,0 -79.94173600000001,36.374909,0 -79.9415972,36.3748791,0 -79.941312,36.374819,0 -79.94104400000001,36.374778,0 -79.940662,36.374734,0 -79.940305,36.374713,0 -79.940166,36.374704,0 -79.939965,36.374699,0 -79.94001400000001,36.374902,0 -79.940399,36.375776,0 -79.940648,36.376334,0 -79.94086799999999,36.376825,0 -79.940974,36.37713,0 -79.941059,36.377486,0 -79.941102,36.377805,0 -79.941115,36.3783337,0 -79.941152,36.3789367,0 -79.941158,36.379574,0 -79.941151,36.381874,0 -79.941153,36.382397,0 -79.94115499999999,36.382861,0 -79.94114999999999,36.383279,0 -79.9411439,36.3850084,0 -79.941149,36.385747,0 -79.941141,36.386855,0 -79.94113900000001,36.3888230000001,0 -79.94113400000001,36.38926,0 -79.94112199999999,36.3897079999999,0 -79.941081,36.390574,0 -79.9410591,36.3907137,0 -79.9410388,36.3909576,0 -79.9410228,36.3911973,0 -79.94097309999999,36.3915983,0 -79.940797,36.3928880000001,0 -79.940659,36.39367,0 -79.940527,36.394303,0 -79.940303,36.395242,0 -79.940157,36.39583,0 -79.9398252,36.3970212,0 -79.939412,36.398505,0 -79.939041,36.399871,0 -79.938006,36.4036329999999,0 -79.937798,36.404464,0 -79.93770550000001,36.4048727,0 -79.937692,36.404944,0 -79.937594,36.405531,0 -79.937518,36.406195,0 -79.937488,36.406753,0 -79.937484,36.40682,0 -79.93747500000001,36.40729,0 -79.93749200000001,36.407927,0 -79.937527,36.408479,0 -79.937596,36.4095796,0 -79.937658,36.410568,0 -79.9377487,36.4119243,0 -79.93777900000001,36.412282,0 -79.93781,36.412937,0 -79.9377961,36.4137309,0 -79.9377774,36.4139946,0 -79.93767699999999,36.414468,0 -79.93752499999999,36.41498,0 -79.937207,36.41599,0 -79.937089,36.416381,0 -79.93704700000001,36.416579,0 -79.937054,36.41684,0 -79.937022,36.4169599999999,0 -79.93698000000001,36.417038,0 -79.9369025,36.4171524,0 -79.9367331,36.4172,0 -79.9365679,36.4172344,0 -79.9364046,36.4172607,0 -79.9362038,36.417288,0 -79.93616710000001,36.4172906,0 -79.93602,36.4173038,0 -79.9358137,36.4173134,0 -79.9355408,36.4173038,0 -79.9352923,36.4172895,0 -79.93517199999999,36.417277,0 -79.93475599999999,36.417238,0 -79.9345388,36.4172383,0 -79.934371,36.417243,0 -79.934122,36.41726,0 -79.933834,36.417295,0 -79.933605,36.417333,0 -79.9330289,36.4174299,0 -79.93282000000001,36.417465,0 -79.932383,36.417545,0 -79.932136,36.417609,0 -79.931864,36.41771,0 -79.931631,36.41782,0 -79.931382,36.417975,0 -79.93121600000001,36.418099,0 -79.93111380000001,36.4181957,0 -79.930954,36.418347,0 -79.930572,36.418749,0 -79.9300628,36.4192778,0 -79.9299417,36.4194051,0 -79.929689,36.419666,0 -79.9296428,36.4197078,0 -79.92951739999999,36.4198212,0 -79.929406,36.419922,0 -79.929338,36.4199658,0 -79.92912800000001,36.420101,0 -79.9289753,36.4201747,0 -79.92889599999999,36.420213,0 -79.92845699999999,36.420381,0 -79.927995,36.420474,0 -79.9279074,36.4204784,0 -79.927553,36.420496,0 -79.927493,36.420496,0 -79.9272522,36.4204938,0 -79.92565,36.4204820000001,0 -79.9251972,36.4204862,0 -79.9236755,36.4204753000001,0 -79.923633,36.420475,0 -79.922934,36.420465,0 -79.92230189999999,36.4204607,0 -79.92026199999999,36.4204469999999,0 -79.919597,36.420448,0 -79.91925999999999,36.420463,0 -79.91885499999999,36.4205279999999,0 -79.91814100000001,36.420711,0 -79.916856,36.4210595,0 -79.9167068,36.4211,0 -79.916076,36.421271,0 -79.91497270000001,36.4215615,0 -79.91412,36.421786,0 -79.913633,36.4219019999999,0 -79.91293,36.422101,0 -79.9127001,36.4221886,0 -79.912665,36.422202,0 -79.91242699999999,36.422337,0 -79.9123762,36.4223645,0 -79.91168399999999,36.422739,0 -79.9115803,36.4227976,0 -79.910949,36.423154,0 -79.9109327,36.4231628,0 -79.910799,36.4232352000001,0 -79.909781,36.423786,0 -79.909154,36.424135,0 -79.90875800000001,36.424355,0 -79.9082073,36.4246603,0 -79.9081521,36.4246909,0 -79.90700649999999,36.4253262,0 -79.906836,36.4254207,0 -79.90610959999999,36.4258235,0 -79.9053797,36.4262326,0 -79.90435340000001,36.4267914,0 -79.90384349999999,36.4269934,0 -79.903457,36.42709,0 -79.902871,36.427165,0 -79.902637,36.427166,0 -79.902524,36.427167,0 -79.9009971,36.427143,0 -79.900364,36.427133,0 -79.89976299999999,36.427117,0 -79.898623,36.42709,0 -79.897335,36.427059,0 -79.89640300000001,36.427049,0 -79.89612200000001,36.427054,0 -79.89554099999999,36.427109,0 -79.895115,36.42717,0 -79.89464599999999,36.427269,0 -79.894114,36.427405,0 -79.89361599999999,36.427581,0 -79.89297500000001,36.427848,0 -79.89254200000001,36.428094,0 -79.8914,36.428814,0 -79.8911504,36.4289601,0 -79.891043,36.429023,0 -79.890591,36.429295,0 -79.890164,36.429564,0 -79.889819,36.42979,0 -79.88950699999999,36.429953,0 -79.889228,36.430108,0 -79.88892800000001,36.430254,0 -79.888594,36.43037,0 -79.88750899999999,36.430723,0 -79.88662600000001,36.430981,0 -79.885193,36.43142,0 -79.88464999999999,36.431591,0 -79.884001,36.431848,0 -79.883343,36.432175,0 -79.882856,36.432473,0 -79.882436,36.432802,0 -79.8820084,36.4331746,0 -79.88176900000001,36.4334003,0 -79.88143100000001,36.433704,0 -79.88099,36.434062,0 -79.8804626,36.4344161,0 -79.880369,36.434479,0 -79.8796507,36.4349933,0 -79.87961900000001,36.435016,0 -79.87934439999999,36.4352365,0 -79.878883,36.435607,0 -79.87815999999999,36.436116,0 -79.8779275,36.436286,0 -79.877855,36.436339,0 -79.8773729,36.4366791,0 -79.876818,36.437071,0 -79.87667380000001,36.4371667,0 -79.875835,36.4376800000001,0 -79.87530099999999,36.43805,0 -79.87519880000001,36.4381166,0 -79.874498,36.438573,0 -79.87363999999999,36.43911,0 -79.873341,36.439288,0 -79.872393,36.439834,0 -79.8719377,36.4400948,0 -79.87181,36.440168,0 -79.8717587,36.4401988,0 -79.8715869,36.4403021,0 -79.871351,36.440444,0 -79.8710954,36.4406105,0 -79.87094639999999,36.4407075,0 -79.870723,36.440853,0 -79.87024580000001,36.4412036,0 -79.8701691,36.4412599,0 -79.87015,36.441274,0 -79.869704,36.44164,0 -79.869218,36.44208,0 -79.867413,36.4438892,0 -79.86705000000001,36.444253,0 -79.86699950000001,36.4443039,0 -79.8658971,36.4454151,0 -79.86578900000001,36.445524,0 -79.8655589,36.4457855,0 -79.86544499999999,36.445915,0 -79.865218,36.446213,0 -79.86477499999999,36.446854,0 -79.8647258,36.4469269,0 -79.8643926,36.4474202,0 -79.8643368,36.4475044,0 -79.8642404,36.4476176,0 -79.86412009999999,36.4477248,0 -79.8639335,36.4478951,0 -79.86375990000001,36.4480414,0 -79.8634464,36.4483054,0 -79.8626175,36.4490037000001,0 -79.86250250000001,36.4491051,0 -79.861895,36.449616,0 -79.86144299999999,36.449966,0 -79.861036,36.450202,0 -79.860603,36.450398,0 -79.859785,36.450655,0 -79.8594932,36.4507524,0 -79.8582371,36.4511230000001,0 -79.8573805,36.451382,0 -79.8566766,36.4515949,0 -79.855575,36.451928,0 -79.853964,36.452418,0 -79.8534032,36.4525888,0 -79.85259499999999,36.452835,0 -79.85192600000001,36.453034,0 -79.85144,36.453187,0 -79.85091199999999,36.453346,0 -79.8507941,36.4533778,0 -79.85057500000001,36.453437,0 -79.85027599999999,36.453531,0 -79.849958,36.453625,0 -79.84935400000001,36.453813,0 -79.848868,36.4539569999999,0 -79.848522,36.4540639999999,0 -79.84821700000001,36.454153,0 -79.84809300000001,36.454196,0 -79.8477943,36.4542975,0 -79.847784,36.454301,0 -79.847612,36.454365,0 -79.847284,36.454534,0 -79.847132,36.454601,0 -79.846603,36.454879,0 -79.846318,36.455036,0 -79.846073,36.455164,0 -79.84572919999999,36.4553612,0 -79.84568640000001,36.4553858,0 -79.84457399999999,36.455981,0 -79.843915,36.456331,0 -79.84370149999999,36.4564517,0 -79.843648,36.4564820000001,0 -79.843344,36.456641,0 -79.84320289999999,36.4567355,0 -79.8430074,36.4568455,0 -79.84285300000001,36.4569231,0 -79.8426274,36.457033,0 -79.8423844,36.4571296,0 -79.8421498,36.4572153,0 -79.8418927,36.4573042,0 -79.84086859999999,36.4576487,0 -79.84049829999999,36.4577767,0 -79.8403071,36.4578416,0 -79.83999470000001,36.4579459,0 -79.8396874,36.4580507,0 -79.8393373,36.4581704,0 -79.83893519999999,36.458316,0 -79.8386883,36.4584144,0 -79.838443,36.4585237,0 -79.8381481,36.4586674,0 -79.83794899999999,36.4587658,0 -79.8378752,36.4588035,0 -79.83767949999999,36.4589046,0 -79.83742580000001,36.4590352,0 -79.83708799999999,36.4592053,0 -79.83690420000001,36.4592928,0 -79.8367119,36.4593735,0 -79.8365055,36.4594524,0 -79.8363234,36.4595155,0 -79.8361294,36.4595749,0 -79.8359998,36.4596112,0 -79.83556780000001,36.4597286,0 -79.83519339999999,36.459832,0 -79.8348495,36.4599236,0 -79.8344644,36.4600275,0 -79.8343708,36.4600524,0 -79.8337432,36.4602182,0 -79.8331699,36.4603746,0 -79.83258720000001,36.4605326,0 -79.8320507,36.4606793,0 -79.8317966,36.4607612,0 -79.8315324,36.4608615,0 -79.83131109999999,36.4609484,0 -79.8312306,36.4609834,0 -79.8309007,36.4611371,0 -79.83057820000001,36.461279,0 -79.8301785,36.4614683,0 -79.8299063,36.4615955,0 -79.8292713,36.4618889,0 -79.828885,36.462068,0 -79.82844849999999,36.4622713,0 -79.82818570000001,36.4623921,0 -79.827855,36.462537,0 -79.8276935,36.4626191,0 -79.8273803,36.4627458,0 -79.8271785,36.4628192,0 -79.82698739999999,36.4628828,0 -79.8267359,36.4629572,0 -79.8264422,36.4630327,0 -79.8262095,36.4630845,0 -79.8259286,36.4631352,0 -79.8257522,36.4631622,0 -79.8253412,36.4632193,0 -79.82526609999999,36.4632263,0 -79.8235354,36.4634216,0 -79.8223311,36.4635569,0 -79.8216384,36.4636367,0 -79.820892,36.463733,0 -79.82055800000001,36.463785,0 -79.82010099999999,36.463874,0 -79.8199683,36.4639027,0 -79.819643,36.463979,0 -79.819219,36.464104,0 -79.818606,36.464312,0 -79.81814,36.464502,0 -79.817632,36.46474,0 -79.81742,36.464843,0 -79.817059,36.465018,0 -79.816372,36.465432,0 -79.816062,36.465622,0 -79.814904,36.4663340999999,0 -79.814711,36.4664528,0 -79.814083,36.466839,0 -79.81358,36.467154,0 -79.813411,36.467269,0 -79.813084,36.467513,0 -79.812935,36.467642,0 -79.812765,36.467801,0 -79.81161539999999,36.4689411,0 -79.81141580000001,36.4691317,0 -79.811035,36.469487,0 -79.810886,36.469633,0 -79.8101418,36.4703764,0 -79.8098689,36.4706455,0 -79.8095658,36.4709431,0 -79.8093847,36.4711173,0 -79.8093566,36.4711442,0 -79.8093049,36.4711912,0 -79.80927010000001,36.4712224,0 -79.8091203,36.4713506,0 -79.80901369999999,36.4714336,0 -79.808897,36.4715197,0 -79.80871089999999,36.4716403,0 -79.80854859999999,36.4717387,0 -79.80838559999999,36.471828,0 -79.8081809,36.4719264,0 -79.8079869,36.4720112,0 -79.8078048,36.4720792,0 -79.8075821,36.4721504,0 -79.80739320000001,36.4722053,0 -79.8071643,36.4722629,0 -79.8068778,36.4723313,0 -79.8064881,36.4724241,0 -79.8062096,36.4724899,0 -79.80593260000001,36.4725574,0 -79.8055889,36.4726351,0 -79.8053412,36.4726945,0 -79.8050636,36.4727643,0 -79.8047234,36.4728455,0 -79.80431830000001,36.4729496,0 -79.8038104,36.4730937,0 -79.803382,36.4732139999999,0 -79.8030902,36.4733108,0 -79.802396,36.473541,0 -79.8019383,36.4737037,0 -79.8012504,36.4739405,0 -79.80117490000001,36.4739665,0 -79.80070600000001,36.474131,0 -79.799755,36.474472,0 -79.799447,36.474573,0 -79.7987222,36.4748308,0 -79.797392,36.475276,0 -79.796566,36.4755631,0 -79.79592150000001,36.475787,0 -79.79563810000001,36.4758855,0 -79.79536899999999,36.475979,0 -79.794858,36.474789,0 -79.79461999999999,36.474293,0 -79.79438500000001,36.473867,0 -79.7943508,36.47381,0 -79.79418800000001,36.473539,0 -79.793108,36.471899,0 -79.7916597,36.469689,0 -79.7908908,36.4685354,0 -79.790145,36.467441,0 -79.789665,36.46671,0 -79.789005,36.46572,0 -79.78793400000001,36.464097,0 -79.78744,36.463374,0 -79.78711800000001,36.462943,0 -79.786755,36.46253,0 -79.78654299999999,36.46231,0 -79.786316,36.462089,0 -79.78616,36.461947,0 -79.7856463,36.4615255,0 -79.785586,36.461476,0 -79.78529,36.461262,0 -79.785132,36.461159,0 -79.784555,36.460801,0 -79.78447799999999,36.46076,0 -79.78403900000001,36.460523,0 -79.78351360000001,36.4602778,0 -79.7832003,36.4601513,0 -79.782923,36.460048,0 -79.782405,36.4598698,0 -79.78192420000001,36.4597313,0 -79.781367,36.4596001,0 -79.78086519999999,36.4595028,0 -79.78044970000001,36.4594437,0 -79.7800251,36.4593928,0 -79.7796196,36.4593638999999,0 -79.7792496,36.4593426,0 -79.7787586,36.4593414,0 -79.778254,36.459358,0 -79.777422,36.459429,0 -79.77665399999999,36.459548,0 -79.775863,36.4597229999999,0 -79.775312,36.459881,0 -79.775209,36.4599159999999,0 -79.77442499999999,36.460187,0 -79.77066910000001,36.4615764,0 -79.769397,36.462047,0 -79.76893200000001,36.462216,0 -79.76854299999999,36.462357,0 -79.7670724,36.4629033,0 -79.7665181,36.4631092,0 -79.765361,36.463539,0 -79.76344899999999,36.464243,0 -79.7627841,36.4644848,0 -79.76262699999999,36.464551,0 -79.76249079999999,36.4646006,0 -79.76211499999999,36.464736,0 -79.76148000000001,36.464961,0 -79.76112000000001,36.465101,0 -79.759056,36.465867,0 -79.75657750000001,36.46678,0 -79.755611,36.467136,0 -79.754752,36.467443,0 -79.75449999999999,36.4675269999999,0 -79.75405600000001,36.467674,0 -79.75340300000001,36.467867,0 -79.752638,36.468067,0 -79.752101,36.468192,0 -79.75156,36.468303,0 -79.751166,36.46837,0 -79.750542,36.468476,0 -79.75048,36.468484,0 -79.750067,36.4685410000001,0 -79.74959,36.468596,0 -79.749095,36.468646,0 -79.748599,36.468685,0 -79.7476056,36.4687554,0 -79.7452028,36.4689249,0 -79.743754,36.469029,0 -79.74288900000001,36.469108,0 -79.74234800000001,36.469174,0 -79.742048,36.469221,0 -79.74170599999999,36.469282,0 -79.741347,36.469352,0 -79.741006,36.469426,0 -79.740661,36.469508,0 -79.740297,36.469607,0 -79.739965,36.469707,0 -79.739407,36.469886,0 -79.73910600000001,36.469995,0 -79.738837,36.4701,0 -79.738285,36.470331,0 -79.738006,36.47046,0 -79.737421,36.470752,0 -79.736868,36.471064,0 -79.7347728,36.4723332,0 -79.735342,36.47297,0 -79.7356283,36.4732747,0 -79.73670319999999,36.4744795,0 -79.7368955,36.4747037,0 -79.737532,36.475463,0 -79.7378557,36.4758425,0 -79.737967,36.475973,0 -79.73808099999999,36.476117,0 -79.738275,36.476362,0 -79.7383142,36.4764235,0 -79.73835800000001,36.476492,0 -79.73844800000001,36.476635,0 -79.73860500000001,36.476911,0 -79.73868299999999,36.477065,0 -79.738741,36.477182,0 -79.73876199999999,36.477237,0 -79.73882500000001,36.477374,0 -79.738918,36.477628,0 -79.738958,36.477762,0 -79.739043,36.4781,0 -79.7390992,36.4784331,0 -79.73910100000001,36.478444,0 -79.73912300000001,36.478641,0 -79.73914000000001,36.478944,0 -79.73914360000001,36.4791943,0 -79.73915289999999,36.4798295,0 -79.7391555,36.4800077,0 -79.7391624,36.4804825,0 -79.73916699999999,36.480797,0 -79.739182,36.482566,0 -79.739189,36.482944,0 -79.73919069999999,36.4831554,0 -79.739192,36.4833083,0 -79.7391951,36.4835737,0 -79.7391968,36.4837156,0 -79.7391971,36.4837647,0 -79.7391983,36.4839462,0 -79.73919770000001,36.4840069999999,0 -79.7392073,36.4850963,0 -79.73921900000001,36.4857406,0 -79.739205,36.486176,0 -79.7392294,36.4867116,0 -79.7392332,36.4871601,0 -79.7392396,36.4873316000001,0 -79.7392414,36.4873903,0 -79.7392431,36.4874474,0 -79.73924270000001,36.4875313,0 -79.7392488,36.4879351,0 -79.73924959999999,36.4879857,0 -79.7392546,36.4881931,0 -79.7392584,36.4883484,0 -79.73926350000001,36.4884492,0 -79.7392656,36.4885966,0 -79.7392801,36.4887941,0 -79.7392825,36.4888266,0 -79.7392941,36.4889365000001,0 -79.7393165,36.4891478,0 -79.7393216,36.4892486,0 -79.73934149999999,36.4893908,0 -79.7393666,36.4895309,0 -79.73945569999999,36.4899559,0 -79.73947699999999,36.4900503,0 -79.739491,36.4900976,0 -79.73954639999999,36.490316,0 -79.7395746,36.4904102,0 -79.7396114,36.4905335,0 -79.7396858,36.4907908,0 -79.7397213,36.4908975,0 -79.73974269999999,36.4909663,0 -79.7397797,36.4910692,0 -79.7399257,36.4915398,0 -79.7399398,36.4915832,0 -79.740053,36.4919413,0 -79.74007090000001,36.4919985,0 -79.7401662,36.4923343000001,0 -79.7402747,36.4926948000001,0 -79.740365,36.4929443,0 -79.7404485,36.4931628,0 -79.7405377,36.4933928,0 -79.7406297,36.4936721,0 -79.740796,36.494171,0 -79.74102430000001,36.4948841,0 -79.74103030000001,36.4949029,0 -79.7410565,36.4949847,0 -79.74111190000001,36.4951576,0 -79.7412696,36.4956502,0 -79.7413897,36.4960254,0 -79.7415299,36.4964632,0 -79.7416135,36.4967243,0 -79.74169500000001,36.496979,0 -79.7417994,36.4973023,0 -79.74181799999999,36.49736,0 -79.74186829999999,36.4975373,0 -79.7419069,36.4976736,0 -79.742,36.498002,0 -79.7420055,36.498019,0 -79.7421669,36.4985205,0 -79.742205,36.498639,0 -79.742278,36.4988659,0 -79.7423611,36.4991244,0 -79.7424152,36.4992924,0 -79.7425104,36.4995884,0 -79.7425583,36.4997374,0 -79.7426,36.499867,0 -79.7426226,36.4999377,0 -79.74267500000001,36.5001019,0 -79.7427416,36.5003107,0 -79.7428044,36.5005075,0 -79.743036,36.50113,0 -79.7431692,36.5015858,0 -79.7432675,36.5019226,0 -79.7433109,36.502071,0 -79.743386,36.502328,0 -79.7435462,36.5028275,0 -79.743742,36.503438,0 -79.7437963,36.5035809,0 -79.7439139,36.5039306,0 -79.74393689999999,36.5039991,0 -79.7440536,36.5043463,0 
				
					-79.74408686021081,36.5044699883421,0 -79.74409844456363,36.50512771085764,0 -79.74406664281467,36.50534478585442,0 -79.74393745744342,36.50558874376342,0 -79.74379487403064,36.50586156585474,0 -79.74363906219924,36.50612481557895,0 -79.74355021053795,36.50637335558265,0 -79.74355129594606,36.50661335451181,0 -79.74364609497486,36.50687921893251,0 -79.74373326983718,36.50714974733053,0 -79.74371034091232,36.50722486550681,0 -79.74365280572664,36.50731195358001,0 -79.74264100000001,36.50759,0 -79.7425769,36.5076012,0 -79.742498,36.507615,0 -79.74224700000001,36.507642,0 -79.74218500000001,36.5076444,0 -79.74142139999999,36.5076745,0 -79.7413663,36.5076767,0 -79.74130700000001,36.507679,0 -79.741186,36.507687,0 -79.741045,36.507696,0 -79.740534,36.507797,0 -79.7403568,36.507839,0 -79.74018,36.507881,0 -79.739949,36.5079437,0 -79.739693,36.5080131,0 -79.7392952,36.5081211,0 -79.739283,36.5081244,0 -79.7392023,36.5081463,0 -79.738765,36.508265,0 -79.73818300000001,36.508429,0 -79.737804,36.508538,0 -79.736757,36.508854,0 -79.73652300000001,36.508928,0 -79.7360784,36.5090728,0 -79.73510899999999,36.509378,0 -79.73419,36.509669,0 -79.732755,36.51013,0 -79.73246450000001,36.5102229,0 -79.731313,36.5105910000001,0 -79.730031,36.510999,0 -79.729899,36.511041,0 -79.72853000000001,36.511475,0 -79.72718500000001,36.511904,0 -79.7262351,36.512203,0 -79.72573559999999,36.5123602,0 -79.7254622,36.5124463,0 -79.7252175,36.5125233,0 -79.7246608,36.5126986,0 -79.72458,36.512724,0 -79.72425370000001,36.5128288,0 -79.723534,36.51306,0 -79.723386,36.513113,0 -79.72314900000001,36.5132110000001,0 -79.722872,36.5133246,0 -79.7221083,36.513638,0 -79.7217891,36.513775,0 -79.72131229999999,36.5139671,0 -79.7207818,36.5141558,0 -79.72034189999999,36.5142663,0 -79.7199042,36.514353,0 -79.71941870000001,36.5144306,0 -79.7176216,36.514657,0 -79.7170691,36.5147475,0 -79.7165085,36.5148898,0 -79.716133,36.5150008,0 -79.714902,36.5153649,0 -79.714319,36.515539,0 -79.7133797,36.5158168,0 -79.71265219999999,36.5160322,0 -79.7089733,36.5171229,0 -79.7080169,36.5174106,0 -79.707899,36.5174461,0 -79.70734299999999,36.517619,0 -79.70674699999999,36.517787,0 -79.70544099999999,36.518179,0 -79.7024862,36.5190569,0 -79.70147299999999,36.519358,0 -79.70032759999999,36.519697,0 -79.69914199999999,36.520048,0 -79.698723,36.52016,0 -79.69841,36.520227,0 -79.69811900000001,36.520277,0 -79.697793,36.520319,0 -79.6963094,36.520464,0 -79.6961154,36.520498,0 -79.6959189,36.5205271,0 -79.69572599999999,36.520564,0 -79.69543400000001,36.520628,0 -79.695048,36.520733,0 -79.69246200000001,36.521527,0 -79.69086299999999,36.522016,0 -79.690389,36.522165,0 -79.68768799999999,36.522991,0 -79.6875,36.523057,0 -79.687304,36.523142,0 -79.687128,36.52324,0 -79.687023,36.523307,0 -79.68688299999999,36.523409,0 -79.686758,36.523499,0 -79.68615699999999,36.523937,0 -79.685895,36.524133,0 -79.685169,36.524697,0 -79.684687,36.525049,0 -79.68436699999999,36.525254,0 -79.684133,36.525393,0 -79.68373200000001,36.52561,0 -79.681512,36.526726,0 -79.680587,36.527186,0 -79.67862,36.528204,0 -79.678095,36.528522,0 -79.67780399999999,36.528722,0 -79.67751699999999,36.52894,0 -79.677329,36.529099,0 -79.67711199999999,36.529299,0 -79.6764215,36.5299432000001,0 -79.6759366,36.5304004,0 -79.6755761,36.5307309,0 -79.67522099999999,36.5310582,0 -79.6748466,36.531421,0 -79.674093,36.532173,0 -79.673756,36.532515,0 -79.67353,36.532738,0 -79.673402,36.532918,0 -79.67331799999999,36.533045,0 -79.67321800000001,36.533141,0 -79.67311100000001,36.533211,0 -79.673011,36.533241,0 -79.672883,36.533258,0 -79.672669,36.5332489999999,0 -79.6724212,36.5332278,0 -79.67208650000001,36.5331957,0 -79.669487,36.532949,0 -79.669124,36.532919,0 -79.668561,36.532855,0 -79.668353,36.53282,0 -79.668192,36.532786,0 -79.667997,36.532727,0 -79.66775699999999,36.532644,0 -79.66749799999999,36.532535,0 -79.66721699999999,36.532424,0 -79.666332,36.532057,0 -79.666175,36.5320043,0 -79.66603499999999,36.531945,0 -79.665751,36.531859,0 -79.66562399999999,36.531828,0 -79.665437,36.53179,0 -79.664748,36.531678,0 -79.66386489999999,36.5315499,0 -79.66368900000001,36.531528,0 -79.663179,36.531455,0 -79.661582,36.531225,0 -79.660149,36.531013,0 -79.65954600000001,36.53093,0 -79.659368,36.530898,0 -79.65897699999999,36.530848,0 -79.658861,36.530838,0 -79.65877999999999,36.530835,0 -79.65872299999999,36.530829,0 -79.65848099999999,36.530818,0 -79.65816599999999,36.530817,0 -79.65725500000001,36.530832,0 -79.65671500000001,36.530836,0 -79.654819,36.530863,0 -79.654246,36.530879,0 -79.653924,36.530905,0 -79.65361,36.530948,0 -79.653295,36.531011,0 -79.652162,36.531284,0 -79.651521,36.531429,0 -79.65142299999999,36.531454,0 -79.651353,36.531476,0 -79.650947,36.531562,0 -79.650682,36.531626,0 -79.650385,36.531674,0 -79.65022020000001,36.5316894,0 -79.6498982,36.5317304000001,0 -79.64921699999999,36.531807,0 -79.647538,36.532008,0 -79.647172,36.532058,0 -79.646941,36.532094,0 -79.64666699999999,36.532152,0 -79.646485,36.5322,0 -79.646198,36.532291,0 -79.645894,36.532421,0 -79.645719,36.532508,0 -79.64551899999999,36.532621,0 -79.645253,36.532793,0 -79.644289,36.533485,0 -79.643933,36.533767,0 -79.643725,36.533948,0 -79.643551,36.534116,0 -79.643361,36.534313,0 -79.6431908,36.5345259999999,0 -79.64310500000001,36.534627,0 -79.642765,36.535065,0 -79.64265899999999,36.53519,0 -79.642583,36.535268,0 -79.642376,36.535445,0 -79.64223800000001,36.535543,0 -79.642026,36.535667,0 -79.641814,36.535767,0 -79.641542,36.535861,0 -79.641381,36.535904,0 -79.641121,36.53595,0 -79.640897,36.535975,0 -79.640792,36.535981,0 -79.640682,36.535982,0 -79.64037399999999,36.535969,0 -79.64016700000001,36.535956,0 -79.63983,36.535952,0 -79.639618,36.535959,0 -79.63946799999999,36.535969,0 -79.639191,36.536002,0 -79.639096,36.536018,0 -79.638752,36.536096,0 -79.637968,36.53629,0 -79.637646,36.536373,0 -79.637449,36.53643,0 -79.63727400000001,36.536486,0 -79.63689100000001,36.536623,0 -79.636651,36.536722,0 -79.636529,36.536777,0 -79.636329,36.536883,0 -79.63618099999999,36.536976,0 -79.63601,36.537102,0 -79.635885,36.537211,0 -79.635668,36.537432,0 -79.634345,36.53894,0 -79.634122,36.539159,0 -79.634006,36.539242,0 -79.633899,36.539304,0 -79.633757,36.539376,0 -79.633456,36.539493,0 -79.63243799999999,36.539818,0 -79.63201789999999,36.5399724,0 -79.63179,36.540053,0 -79.631631,36.540121,0 -79.63128500000001,36.540288,0 -79.63024799999999,36.540833,0 -79.629541,36.541218,0 -79.628984,36.541547,0 
				
					-79.628984,36.541547,0 -79.628694,36.541713,0 -79.627652,36.542345,0 -79.627404,36.54249,0 -79.626991,36.542731,0 -79.62601600000001,36.543313,0 -79.624956,36.543945,0 -79.62454,36.544189,0 -79.622101,36.545642,0 -79.62164900000001,36.545915,0 -79.62133300000001,36.546106,0 -79.620903,36.54638,0 -79.620763,36.546473,0 -79.620409,36.5467080000001,0 -79.61894599999999,36.547701,0 -79.61879399999999,36.547808,0 -79.616939,36.549061,0 -79.616626,36.549252,0 -79.6159,36.54966,0 -79.61510699999999,36.550081,0 -79.61398699999999,36.550675,0 -79.613407,36.550975,0 -79.61309300000001,36.551123,0 -79.612949,36.551191,0 -79.61246800000001,36.551401,0 -79.612228,36.551506,0 -79.61175470000001,36.5517029,0 -79.611397,36.551835,0 -79.609497,36.552602,0 -79.608149,36.553146,0 -79.607421,36.553431,0 -79.60707499999999,36.553558,0 -79.60684999999999,36.55363,0 -79.606548,36.553712,0 -79.60624,36.553781,0 -79.605868,36.55385,0 -79.605617,36.553885,0 -79.605428,36.553905,0 -79.60498699999999,36.553937,0 -79.604671,36.553949,0 -79.60362499999999,36.553974,0 -79.603133,36.5539820000001,0 -79.602228,36.554012,0 -79.6018,36.554016,0 -79.599807,36.554067,0 -79.59929200000001,36.5540990000001,0 -79.59903199999999,36.554134,0 -79.598724,36.554194,0 -79.59854,36.554235,0 -79.59822,36.554315,0 -79.597995,36.55439,0 -79.59767600000001,36.554514,0 -79.59744999999999,36.554613,0 -79.59697,36.5548469999999,0 -79.5963613,36.5551496,0 -79.5959805,36.5553396,0 -79.595615,36.5555429999999,0 -79.595392,36.555685,0 -79.595071,36.555909,0 -79.59494599999999,36.556002,0 -79.594627,36.556277,0 -79.594373,36.55653,0 -79.594132,36.556791,0 -79.593688,36.557328,0 -79.593474,36.557599,0 -79.59325200000001,36.557866,0 -79.593019,36.558156,0 -79.592332,36.558976,0 -79.592169,36.559156,0 -79.591697,36.559651,0 -79.591425,36.559923,0 -79.591097,36.560232,0 -79.59051100000001,36.560751,0 -79.589473,36.561586,0 -79.58907499999999,36.561892,0 -79.58834400000001,36.562473,0 -79.58801099999999,36.562732,0 -79.58742599999999,36.563192,0 -79.587024,36.563515,0 -79.586724,36.563749,0 -79.586258,36.564085,0 -79.586033,36.564227,0 -79.585649,36.564446,0 -79.585403,36.56457,0 -79.585047,36.564726,0 -79.58483,36.564809,0 -79.58446000000001,36.564931,0 -79.584013,36.565062,0 -79.583782,36.565128,0 -79.583045,36.565336,0 -79.58251300000001,36.565482,0 -79.58167299999999,36.565722,0 -79.58121,36.565881,0 -79.580994,36.5659659999999,0 -79.580603,36.566145,0 -79.580394,36.566253,0 -79.58013699999999,36.566396,0 -79.579858,36.566569,0 -79.579634,36.566723,0 -79.578892,36.567244,0 -79.578571,36.567478,0 -79.5779792,36.5678868999999,0 -79.577181,36.568439,0 -79.576944,36.568585,0 -79.576842,36.568641,0 -79.576539,36.568809,0 -79.576466,36.568847,0 -79.576086,36.569017,0 -79.5758,36.569128,0 -79.57411,36.569699,0 -79.573639,36.569865,0 -79.573538,36.5699,0 -79.572661,36.570187,0 -79.572339,36.570299,0 -79.571546,36.570561,0 -79.571105,36.570715,0 -79.57083799999999,36.570801,0 -79.56796799999999,36.571774,0 -79.56761400000001,36.571887,0 -79.567234,36.572018,0 -79.56684300000001,36.572147,0 -79.56604110000001,36.5724311,0 -79.565906,36.572479,0 -79.5645395,36.5729408000001,0 -79.5636497,36.5732157,0 -79.5631138,36.5733761,0 -79.5626917,36.5734907,0 -79.56291760000001,36.5740305,0 -79.5629507,36.5741457,0 -79.56296450000001,36.5742365,0 -79.56295900000001,36.5743385,0 -79.5629342,36.5744182,0 -79.5628928,36.5745002,0 -79.5628261,36.5745784,0 -79.5627283,36.5746704,0 -79.562534,36.57479,0 -79.56232,36.574906,0 -79.561988,36.575064,0 -79.561702,36.575183,0 -79.56158499999999,36.575227,0 -79.5594321,36.57597,0 -79.556236,36.577073,0 -79.55591,36.577203,0 -79.55571,36.57729,0 -79.554188,36.577991,0 -79.5515103,36.5792322,0 -79.54995099999999,36.579954,0 -79.549555,36.580135,0 -79.548249,36.580695,0 -79.547268,36.58112,0 -79.546609,36.581405,0 -79.54558400000001,36.581849,0 -79.54533000000001,36.581962,0 -79.544792,36.582221,0 -79.544264,36.582494,0 -79.54406,36.582608,0 -79.543633,36.582867,0 -79.54327000000001,36.583108,0 -79.542946,36.5833380000001,0 -79.54252099999999,36.583658,0 -79.542162,36.583959,0 -79.541293,36.584748,0 -79.540583,36.585405,0 -79.539964,36.585989,0 -79.539795,36.586162,0 -79.539559,36.586432,0 -79.539413,36.586619,0 -79.539243,36.58686,0 -79.539086,36.587116,0 -79.538945,36.587378,0 -79.538822,36.587645,0 -79.53871599999999,36.587918,0 -79.537875,36.58996,0 -79.537713,36.590354,0 -79.537623,36.59057,0 -79.537398,36.591116,0 -79.53686999999999,36.592391,0 -79.53665700000001,36.592888,0 -79.536547,36.593128,0 -79.53639,36.593428,0 -79.536227,36.593701,0 -79.53604799999999,36.593968,0 -79.535894,36.594176,0 -79.535848,36.594232,0 -79.535571,36.5945630000001,0 -79.53533,36.59482,0 -79.53509,36.595053,0 -79.534719,36.595377,0 -79.53452299999999,36.595533,0 -79.534288,36.595708,0 -79.533732,36.596093,0 -79.533241,36.59643,0 -79.53291299999999,36.5966549999999,0 -79.532117,36.597212,0 -79.53184,36.597392,0 -79.53093200000001,36.598019,0 -79.530196,36.59852,0 -79.52852799999999,36.599664,0 -79.528109,36.599981,0 -79.527846,36.600195,0 -79.527631,36.600385,0 -79.527413,36.600591,0 -79.52725599999999,36.600766,0 -79.527135,36.600927,0 -79.52706000000001,36.601059,0 -79.526968,36.601256,0 -79.52691799999999,36.601406,0 -79.52688000000001,36.601576,0 -79.526865,36.601669,0 -79.526848,36.60185,0 -79.526847,36.601919,0 -79.526855,36.602011,0 -79.526877,36.602198,0 -79.526929,36.602392,0 -79.526976,36.60252,0 -79.527044,36.602669,0 -79.527434,36.603339,0 -79.52751499999999,36.603495,0 -79.527568,36.603624,0 -79.52761700000001,36.6037960000001,0 -79.52763899999999,36.603934,0 -79.527646,36.604107,0 -79.52762800000001,36.604333,0 -79.527612,36.604526,0 -79.52759399999999,36.604738,0 -79.52757800000001,36.6048920000001,0 
				</coordinates>
			</LineString>
		<atom:link rel="app" href="https://www.google.com/earth/about/versions/#earth-pro" title="Google Earth Pro 7.3.6.10201"></atom:link>
	</Placemark>
</Document>
</kml>
