<?xml version="1.0" encoding="UTF-8"?>
<kml xmlns="http://www.opengis.net/kml/2.2" xmlns:gx="http://www.google.com/kml/ext/2.2" xmlns:kml="http://www.opengis.net/kml/2.2" xmlns:atom="http://www.w3.org/2005/Atom">
<Document>
	<name>US.350.kml</name>
	<Placemark>
		<name>US.350</name>
		<LineString>
			<coordinates>
				-104.4111104,37.2288498,0 -104.4099694,37.2295943,0 -104.4093695,37.2299913,0 -104.4082121,37.2307707,0 -104.4061391,37.2321457,0 -104.4058305,37.2323526,0 -104.4039915,37.233585,0 -104.3935963,37.2404948,0 -104.39354,37.2405322,0 -104.386626,37.2451216,0 -104.3843548,37.2466292,0 -104.3830983,37.2474647,0 -104.3810486,37.2488172,0 -104.380942,37.2488852,0 -104.378917,37.2501389,0 -104.3766946,37.2515048,0 -104.3745849,37.2528129,0 -104.3724365,37.254143,0 -104.370295,37.2554709,0 -104.3672569,37.2573509,0 -104.3578879,37.2631317,0 -104.3576642,37.2632739,0 -104.3551524,37.2648264,0 -104.3518164,37.2668805,0 -104.3499834,37.2680092,0 -104.3468921,37.2699126,0 -104.3445483,37.2713557,0 -104.3378725,37.2754659,0 -104.3377213,37.275559,0 -104.3331536,37.2783708,0 -104.3268368,37.2822449,0 -104.3195956,37.2866856,0 -104.3192439,37.2869112,0 -104.3191356,37.2869807,0 -104.3180959,37.2876055,0 -104.3149487,37.2895377,0 -104.3147698,37.2896469,0 -104.3123101,37.291148,0 -104.3108013,37.2920624,0 -104.3037711,37.2963876,0 -104.3035387,37.2965279,0 -104.2933148,37.3027943,0 -104.2875477,37.3064332,0 -104.2867374,37.307088,0 -104.2858998,37.307852,0 -104.2853158,37.3084452,0 -104.2849428,37.3088571,0 -104.2845956,37.3092708,0 -104.2839263,37.3101637,0 -104.2835807,37.3106744,0 -104.2830505,37.311574,0 -104.282653,37.3123932,0 -104.2825048,37.3127216,0 -104.2822863,37.3132622,0 -104.2821906,37.3135168,0 -104.2820341,37.3139555,0 -104.2819038,37.3143847,0 -104.2818162,37.3147277,0 -104.2816326,37.3155244,0 -104.279178,37.3287686,0 -104.2791372,37.3289972,0 -104.2788415,37.3305158,0 -104.2787423,37.3309359,0 -104.2786444,37.3313134,0 -104.2783974,37.3320737,0 -104.2780191,37.3330537,0 -104.2777539,37.3336221,0 -104.2775338,37.3340466,0 -104.2770503,37.3348617,0 -104.27674,37.3353346,0 -104.2765348,37.3356299,0 -104.2763135,37.3359285,0 -104.2760867,37.3362155,0 -104.2758468,37.3365256,0 -104.2755893,37.3368199,0 -104.2752922,37.3371502,0 -104.2743472,37.3381016,0 -104.2588128,37.3535405,0 -104.2585758,37.3537799,0 -104.257122,37.3552217,0 -104.2559541,37.356388,0 -104.2546328,37.3576957,0 -104.2533054,37.3590211,0 -104.2522895,37.3600304,0 -104.2511534,37.3611468,0 -104.2502753,37.362012,0 -104.2498111,37.3624927,0 -104.2493647,37.3630045,0 -104.248867,37.3636805,0 -104.2485686,37.364151,0 -104.2482599,37.3647348,0 -104.2476623,37.3661109,0 -104.2469548,37.3677042,0 -104.2447269,37.3726983,0 -104.244668,37.3728224,0 -104.2438111,37.3747454,0 -104.2434071,37.3756519,0 -104.24263,37.3774141,0 -104.2408723,37.3813448,0 -104.2400345,37.3832609,0 -104.2396362,37.3841292,0 -104.2390665,37.3853885,0 -104.236123,37.3919901,0 -104.2344016,37.395873,0 -104.2313956,37.4025589,0 -104.2312718,37.4028355,0 -104.227917,37.4103303,0 -104.2215594,37.4246222,0 -104.221404,37.4249715,0 -104.2211662,37.425506,0 -104.2152815,37.4386542,0 -104.2106306,37.4490779,0 -104.2100068,37.4504508,0 -104.208366,37.4540901,0 -104.2074098,37.4562002,0 -104.2071134,37.4568081,0 -104.2069122,37.4572062,0 -104.2066708,37.4576395,0 -104.2064428,37.4580206,0 -104.2061827,37.4584241,0 -104.2059694,37.4587307,0 -104.205731,37.45905,0 -104.2054923,37.459363,0 -104.2052576,37.4596473,0 -104.2049712,37.4599824,0 -104.2046327,37.4603562,0 -104.2036855,37.4613234,0 -104.1970318,37.4678584,0 -104.1968106,37.4680754,0 -104.1902905,37.4744711,0 -104.1768327,37.4877315,0 -104.1718637,37.4926171,0 -104.1651286,37.4992548,0 -104.1642689,37.500121,0 -104.1619758,37.5023643,0 -104.1590562,37.5052304,0 -104.1572022,37.5070358,0 -104.1547428,37.5093532,0 -104.1502987,37.513481,0 -104.1492225,37.5143949,0 -104.1485249,37.5149166,0 -104.1481601,37.5151692,0 -104.1474174,37.5156355,0 -104.1465656,37.5161213,0 -104.1408169,37.519309,0 -104.139299,37.5201411,0 -104.1391409,37.5202334,0 -104.1344666,37.5228171,0 -104.1335347,37.5233937,0 -104.1331531,37.5236472,0 -104.1327877,37.5239128,0 -104.1322995,37.5242893,0 -104.1290108,37.5270302,0 -104.1258936,37.5296259,0 -104.1201095,37.5344381,0 -104.1093512,37.5433878,0 -104.1091883,37.5435284,0 -104.1074795,37.5449598,0 -104.1074551,37.5449802,0 -104.105724,37.5463872,0 -104.1049964,37.5469364,0 -104.1048067,37.54707,0 -104.1047099,37.5471382,0 -104.1046886,37.547152,0 -104.103125,37.5481624,0 -104.1017091,37.5488476,0 -104.0971404,37.5507118,0 -104.0836624,37.5561942,0 -104.0811392,37.5572406,0 -104.077028,37.5589302,0 -104.074828,37.5598027,0 -104.0592495,37.5661519,0 -104.0583034,37.5665895,0 -104.0577064,37.5668945,0 -104.0571599,37.5671906,0 -104.0566911,37.5674533,0 -104.0563073,37.5676832,0 -104.0555916,37.5681532,0 -104.0546466,37.5688569,0 -104.0539345,37.5694387,0 -104.0533252,37.5699467,0 -104.0522418,37.5708818,0 -104.0517978,37.5712746,0 -104.0514514,37.5715925,0 -104.050939,37.5720974,0 -104.0504362,37.5726281,0 -104.0499988,37.5731363,0 -104.0496985,37.5735207,0 -104.0492697,37.5740985,0 -104.0485623,37.5751279,0 -104.0476408,37.5765016,0 -104.0463444,37.5784257,0 -104.0447792,37.5807416,0 -104.0435443,37.5825827,0 -104.0427222,37.5838313,0 -104.0421384,37.5846457,0 -104.0404675,37.5871196,0 -104.0404147,37.5872151,0 -104.0379723,37.59085,0 -104.0375938,37.5914147,0 -104.0371403,37.5920128,0 -104.036745,37.5924952,0 -104.0363568,37.5929323,0 -104.0359165,37.5933888,0 -104.0329531,37.5963233,0 -104.0325616,37.5967246,0 -104.0320229,37.5972949,0 -104.0317774,37.5975727,0 -104.0315081,37.5979373,0 -104.0312107,37.5983947,0 -104.0310064,37.5987532,0 -104.0308148,37.5991671,0 -104.0306683,37.5995428,0 -104.0305198,37.5999836,0 -104.0302035,37.6010587,0 -104.0299809,37.6018781,0 -104.029474,37.6036746,0 -104.0284476,37.607301,0 -104.0282013,37.6081512,0 -104.0279582,37.6090364,0 -104.0263248,37.6147655,0 -104.0241309,37.6224146,0 -104.0233699,37.6251409,0 -104.021053,37.63327,0 -104.0194036,37.6390569,0 -104.0189449,37.6406042,0 -104.0188189,37.6409823,0 -104.0186798,37.6413378,0 -104.0183708,37.6420478,0 -104.0179398,37.6428847,0 -104.0171955,37.6441819,0 -104.0098264,37.656781,0 -104.0093946,37.6575644,0 -104.0087349,37.6587915,0 -104.003549,37.668604,0 -104.0031823,37.6692727,0 -104.0029355,37.6696889,0 -104.0027531,37.6699479,0 -104.0025573,37.6702133,0 -104.0023266,37.6704999,0 -104.0019529,37.6708941,0 -104.0015766,37.6712604,0 -104.0012344,37.6715508,0 -104.0007442,37.6719345,0 -103.9998778,37.6725925,0 -103.9992582,37.6730098,0 -103.9988345,37.6732756,0 -103.9981759,37.6736465,0 -103.9977783,37.6738215,0 -103.9970537,37.6741096,0 -103.9965105,37.6742964,0 -103.9944484,37.6748945,0 -103.993342,37.6751799,0 -103.9928045,37.6753168,0 -103.9922331,37.6754402,0 -103.9916629,37.6755472,0 -103.9908903,37.6756615,0 -103.9901483,37.6757621,0 -103.9893625,37.6758348,0 -103.9819332,37.6762208,0 -103.981634,37.6762385,0 -103.9810446,37.6762694,0 -103.9796914,37.6763407,0 -103.9791967,37.6763864,0 -103.9788306,37.6764161,0 -103.9784286,37.6764745,0 -103.9780887,37.6765332,0 -103.9776698,37.6766326,0 -103.977184,37.676763,0 -103.9765527,37.6769541,0 -103.9760794,37.6771276,0 -103.9756776,37.6772917,0 -103.9752658,37.6774886,0 -103.974128,37.6780713,0 -103.9718599,37.67928,0 -103.9714869,37.6794807,0 -103.9708952,37.6797906,0 -103.9676327,37.681492,0 -103.9637787,37.6835274,0 -103.9609756,37.6850185,0 -103.9564354,37.6874133,0 -103.9520443,37.6897393,0 -103.9510826,37.6902497,0 -103.9502177,37.6907137,0 -103.9484532,37.6916434,0 -103.9463114,37.6927861,0 -103.9458682,37.6930224,0 -103.9436707,37.6941793,0 -103.9419378,37.6950913,0 -103.9402138,37.6960051,0 -103.9380466,37.6971543,0 -103.9361297,37.6981554,0 -103.9354402,37.6985079,0 -103.9346217,37.6988975,0 -103.9331932,37.6995204,0 -103.9321958,37.6999295,0 -103.9302279,37.7007179,0 -103.9285458,37.7013843,0 -103.9265043,37.7022147,0 -103.9250799,37.7027769,0 -103.9232155,37.7035286,0 -103.9203914,37.704658,0 -103.9169018,37.7060496,0 -103.9159647,37.7064252,0 -103.9152218,37.7067193,0 -103.9147424,37.7069137,0 -103.9128341,37.7076712,0 -103.9104326,37.7086391,0 -103.9088693,37.7092601,0 -103.9055421,37.7105665,0 -103.9033313,37.7113184,0 -103.9017799,37.7118392,0 -103.9008629,37.7121575,0 -103.8992633,37.7126864,0 -103.8988937,37.7128122,0 -103.8963916,37.7136678,0 -103.8962894,37.7137021,0 -103.8942146,37.7143993,0 -103.892868,37.7148519,0 -103.8920032,37.7151595,0 -103.8913248,37.7154199,0 -103.8906152,37.7157268,0 -103.8899802,37.7160255,0 -103.8891455,37.7164583,0 -103.8883299,37.7169397,0 -103.8873859,37.7175596,0 -103.8867796,37.7179899,0 -103.8861555,37.7184907,0 -103.8857578,37.7188255,0 -103.8853505,37.7191825,0 -103.8846547,37.7198797,0 -103.8837618,37.720878,0 -103.8827464,37.7220478,0 -103.8826055,37.7221986,0 -103.8811285,37.7238441,0 -103.8804034,37.7246657,0 -103.8797593,37.725383,0 -103.8777596,37.7276148,0 -103.8755592,37.7301131,0 -103.8740269,37.7318356,0 -103.8727452,37.7332882,0 -103.8722628,37.733804,0 -103.8720474,37.7340172,0 -103.871468,37.7345453,0 -103.8705217,37.7352513,0 -103.867629,37.737443,0 -103.8665609,37.7382402,0 -103.8636762,37.7403741,0 -103.8631893,37.7407378,0 -103.8618534,37.7417356,0 -103.8608551,37.7424786,0 -103.8589448,37.7439072,0 -103.8507989,37.7500122,0 -103.8476725,37.7523355,0 -103.8426493,37.7561208,0 -103.8419582,37.7567441,0 -103.8415083,37.7571893,0 -103.8398031,37.7588385,0 -103.8395261,37.7591018,0 -103.8368697,37.7617089,0 -103.8338454,37.764657,0 -103.8309385,37.7674795,0 -103.8279765,37.7703782,0 -103.8269729,37.7713355,0 -103.826794,37.771509,0 -103.8255723,37.7727126,0 -103.8243263,37.7739218,0 -103.8226576,37.7755175,0 -103.821771,37.7763879,0 -103.8211417,37.7769948,0 -103.8203981,37.7777116,0 -103.8197419,37.7783609,0 -103.818194,37.7798676,0 -103.8166215,37.7813987,0 -103.8151386,37.7828378,0 -103.8143708,37.7835871,0 -103.8125736,37.7853432,0 -103.8110758,37.7867996,0 -103.8107552,37.7871091,0 -103.8048237,37.7928758,0 -103.8046996,37.7929965,0 -103.7981918,37.7993229,0 -103.7963475,37.8011257,0 -103.7953325,37.8021075,0 -103.794248,37.8031705,0 -103.7928443,37.8045227,0 -103.790913,37.8064016,0 -103.7889964,37.8082744,0 -103.7887389,37.8085193,0 -103.7873173,37.8098846,0 -103.7867039,37.8103946,0 -103.7856215,37.811217,0 -103.7832728,37.8129121,0 -103.7810095,37.8145581,0 -103.7791672,37.8158775,0 -103.7765432,37.8177786,0 -103.7755879,37.8184856,0 -103.7750552,37.8188557,0 -103.7745999,37.819173,0 -103.7736084,37.8198898,0 -103.772404,37.820757,0 -103.7694325,37.8228897,0 -103.76925,37.8230264,0 -103.7690598,37.8231698,0 -103.7680207,37.823959,0 -103.7665978,37.8250524,0 -103.7649575,37.8263162,0 -103.7632079,37.8276607,0 -103.7611106,37.8292636,0 -103.7609861,37.8293576,0 -103.7579803,37.8316596,0 -103.7562348,37.8329118,0 -103.7561538,37.832981,0 -103.7544254,37.8342384,0 -103.7505013,37.8370714,0 -103.7473028,37.8393794,0 -103.7464434,37.8399939,0 -103.7452238,37.8408801,0 -103.7433118,37.8422676,0 -103.739133,37.8452842,0 -103.7345167,37.848616,0 -103.7335012,37.8493585,0 -103.7327231,37.8499184,0 -103.7297229,37.8520835,0 -103.726549,37.8543825,0 -103.724191,37.8560883,0 -103.7194541,37.8594948,0 -103.7177365,37.8607495,0 -103.7058912,37.8692975,0 -103.6992664,37.8740859,0 -103.6975765,37.8752939,0 -103.6972535,37.8755278,0 -103.6948683,37.8772456,0 -103.6933399,37.8783679,0 -103.6905234,37.8803911,0 -103.6890502,37.8814204,0 -103.68555,37.883804,0 -103.6826357,37.8857858,0 -103.6794946,37.8879052,0 -103.6767351,37.8897669,0 -103.6750662,37.8909053,0 -103.6713535,37.8934113,0 -103.6682848,37.8954898,0 -103.6634405,37.8987551,0 -103.6615734,37.9000205,0 -103.6596197,37.9013444,0 -103.6534182,37.9055373,0 -103.6529286,37.9058684,0 -103.649358,37.90829,0 -103.6486668,37.9087819,0 -103.6460859,37.9106809,0 -103.6435635,37.9125797,0 -103.6414455,37.9141826,0 -103.638656,37.916294,0 -103.6299995,37.9228031,0 -103.6298852,37.9228908,0 -103.6285039,37.9239507,0 -103.6254999,37.926211,0 -103.623099,37.9280196,0 -103.6199035,37.9304267,0 -103.6172318,37.9324431,0 -103.6148115,37.934258,0 -103.6138381,37.9349934,0 -103.6136651,37.9351287,0 -103.6117784,37.9365665,0 -103.6066349,37.9404137,0 -103.6032375,37.9429617,0 -103.6006644,37.9449139,0 -103.5990426,37.9461268,0 -103.5981624,37.9468093,0 -103.5967159,37.948038,0 -103.5955207,37.9491637,0 -103.5930649,37.9516524,0 -103.5915054,37.9532224,0 -103.5899977,37.9547565,0 -103.5898948,37.9548651,0 -103.5857607,37.9590649,0 -103.5831066,37.9617779,0 -103.5810153,37.9638907,0 -103.578688,37.9662572,0 -103.5775959,37.9673652,0 -103.5771484,37.9678295,0 -103.5758241,37.9691697,0 -103.57389,37.9711447,0 -103.572812,37.9721925,0 -103.5716107,37.9732815,0 -103.5708795,37.973882,0 -103.570349,37.9743177,0 -103.5701288,37.9744985,0 -103.5692165,37.9752351,0 -103.5685127,37.9758034,0 -103.567159,37.9768938,0 -103.566051,37.9777858,0 -103.5649968,37.9786422,0 -103.564699,37.9788936,0 -103.564279,37.9792359,0 -103.5640533,37.9794375,0 -103.5638627,37.9796178,0 -103.5636739,37.9798092,0 -103.5635405,37.979956,0 -103.5634243,37.9800922,0 -103.5633024,37.9802465,0 -103.5632138,37.980363,0 -103.5631199,37.9804883,0 -103.5629835,37.9806735,0 -103.5627169,37.9810558,0 -103.5617481,37.982489,0 -103.5612731,37.9832055,0 -103.5610036,37.9836119,0 -103.5609327,37.9836885,0 -103.5608698,37.9837372,0 -103.5608172,37.9837688,0 -103.5607531,37.9838003,0 -103.5606854,37.9838179,0 -103.5605895,37.9838335,0 -103.5604909,37.9838388,0 -103.5602986,37.9838378,0 -103.5597789,37.9838416,0 -103.5587382,37.9838417,0 -103.5581215,37.9838438,0 -103.5581207,37.9839316,0 -103.5581129,37.9847709,0 -103.5581103,37.9848506,0 -103.5581087,37.9849337,0 -103.5580976,37.9855281,0 -103.5580938,37.9858869,0 -103.5580947,37.9860084,0 
			</coordinates>
		</LineString>
		<atom:link rel="app" href="https://www.google.com/earth/about/versions/#earth-pro" title="Google Earth Pro 7.3.6.10201"></atom:link>
	</Placemark>
</Document>
</kml>
