<?xml version="1.0" encoding="UTF-8"?>
<kml xmlns="http://www.opengis.net/kml/2.2" xmlns:gx="http://www.google.com/kml/ext/2.2" xmlns:kml="http://www.opengis.net/kml/2.2" xmlns:atom="http://www.w3.org/2005/Atom">
<Document>
	<name>US.331.kml</name>
	<Placemark>
		<name>US.331</name>
			<LineString>
				<coordinates>
					-86.18036319637898,30.36571335797389,0 -86.18034110000001,30.365811,0 -86.18034,30.3658537,0 -86.18033990000001,30.3660929,0 -86.1803393,30.3664938,0 -86.1803317,30.3698028,0 -86.1803243,30.3702756,0 -86.18031360000001,30.370574,0 -86.1802811,30.3709991,0 -86.1802409,30.3714183,0 -86.180199,30.371731,0 -86.1801444,30.3720699,0 -86.18003760000001,30.3727204,0 -86.17991499999999,30.3734501,0 -86.1798168,30.374006,0 -86.1797013,30.3745657,0 -86.1796816,30.3746537,0 -86.1795899,30.3750629,0 -86.17955240000001,30.3752193,0 -86.17941759999999,30.3757628,0 -86.17925150000001,30.3763802,0 -86.17905330000001,30.3771071,0 -86.17894920000001,30.3774395,0 -86.17884119999999,30.3777599,0 -86.1787188,30.378089,0 -86.17856380000001,30.3784808999999,0 -86.1784232,30.3788171,0 -86.1783152,30.3790677,0 -86.1780256,30.3797027,0 -86.17787199999999,30.3800402,0 -86.1775626,30.3807087,0 -86.17730520000001,30.3812526,0 -86.17625409999999,30.3835577,0 -86.1758494,30.3844455000001,0 -86.1757147,30.3847427,0 -86.17514920000001,30.3860019,0 -86.1746938,30.3869807,0 -86.1744405,30.3875464999999,0 -86.1743543,30.3877392,0 
				
					-86.17405530000001,30.3888179,0 -86.171763,30.39348499999999,0 -86.171488,30.394153,0 -86.1712381,30.3948488,0 -86.17111730000001,30.3951581,0 -86.17103,30.395357,0 -86.1709656,30.3955036,0 -86.16281069999999,30.4130219,0 -86.16260680000001,30.4133979,0 -86.1622433,30.4140225,0 -86.161838,30.414709,0 -86.161559,30.415261,0 -86.16109,30.416267,0 -86.16011,30.418348,0 -86.158006,30.422844,0 -86.1572826,30.4243803000001,0 -86.157003,30.424962,0 -86.1568826,30.4252095999999,0 -86.155986,30.42714,0 -86.1544253,30.430538,0 -86.1532708,30.4330516,0 -86.1527459,30.4342003,0 -86.1524691,30.4347368999999,0 -86.1521614,30.435284,0 -86.1518844,30.4357091,0 -86.1513326,30.436477,0 -86.1509123,30.4370208,0 -86.1505159,30.4375277,0 -86.1500027,30.4380802,0 -86.1495451,30.4385191,0 -86.14866240000001,30.4393244,0 -86.148454,30.439488,0 -86.1481003,30.4397656,0 -86.1476486,30.4400771,0 -86.1467303,30.4407103,0 -86.1452172,30.4415679,0 -86.14384269999999,30.4421923,0 -86.1427628,30.4426795,0 -86.14160270000001,30.4431877,0 -86.14138459999999,30.4432841,0 -86.1412148,30.4433591,0 -86.1401413,30.4438333,0 -86.1387033,30.4444686,0 -86.13863449999999,30.4444989,0 -86.1379093,30.44482199999999,0 -86.1367889,30.4453211,0 -86.13635979999999,30.4455122,0 -86.13582270000001,30.4457513,0 -86.1350936,30.4461693,0 -86.13451190000001,30.4465874,0 -86.1340924,30.4469206,0 -86.13401639999999,30.446981,0 -86.1334501,30.44752099999999,0 -86.1329216,30.4481544,0 -86.13266400000001,30.4485373,0 -86.13257470000001,30.44867,0 -86.1321872,30.4493313,0 -86.131986,30.4497937,0 -86.13183239999999,30.450228,0 -86.1316983,30.4506908,0 -86.131557,30.4512987,0 -86.1315104,30.4517242,0 -86.1314782,30.4526745,0 -86.1314577,30.4530387,0 -86.1314417,30.4535619,0 -86.1313865,30.4553585,0 -86.1313801,30.4555928,0 -86.13135320000001,30.4565716,0 -86.13127009999999,30.4596018,0 -86.1311955,30.4621141,0 -86.1311671,30.4630795,0 -86.13108010000001,30.4648094,0 -86.1309133,30.4661024,0 -86.1308513,30.4663565,0 -86.13071410000001,30.46691879999999,0 -86.130684,30.4670564,0 -86.1303908,30.4679855,0 -86.1299348,30.4692709,0 -86.12964460000001,30.4700274,0 -86.12904810000001,30.4716131,0 -86.1287909,30.4722966,0 -86.128512,30.4730381,0 -86.1280299,30.4743195,0 -86.12704669999999,30.4769455,0 -86.12672739999999,30.4776958,0 -86.1260869,30.4792006,0 -86.1257439,30.4800066,0 -86.12560449999999,30.4803235,0 -86.1252662,30.481062,0 -86.12491129999999,30.481929,0 -86.1247764,30.4822585000001,0 -86.1244437,30.4830713,0 -86.12394159999999,30.4844205,0 -86.12386189999999,30.4846283,0 -86.1234979,30.4855774,0 -86.1233641,30.4859556,0 -86.1233131,30.4861006,0 -86.12317210000001,30.4865012,0 -86.1229134,30.4871505,0 -86.1226618,30.4877821,0 -86.1226284,30.487866,0 -86.1224321,30.4883133,0 -86.12214040000001,30.4890199,0 -86.1220196,30.4893125,0 -86.1217101,30.4901473,0 -86.1215053,30.4906874,0 -86.12141920000001,30.49091689999999,0 -86.1213265,30.4911571,0 -86.121257,30.4913399,0 -86.1210564,30.4918918,0 -86.12081430000001,30.4925117000001,0 -86.1206285,30.4930077,0 -86.1205305,30.4932683,0 -86.1203862,30.4936573,0 -86.12030919999999,30.4938654,0 -86.120098,30.4944259,0 -86.1199927,30.4947082,0 -86.1197327,30.4954001,0 -86.1195268,30.4959416,0 -86.11932729999999,30.496478,0 -86.1191984,30.4968131,0 -86.1190423,30.4972201,0 -86.1189213,30.4975289,0 -86.1187465,30.4979662,0 -86.11863510000001,30.4982388,0 -86.118438,30.498712,0 -86.1180317,30.4996454,0 -86.1174704,30.5008762,0 -86.1164565,30.5030922,0 -86.1156623,30.504836,0 -86.1153619,30.5054877,0 -86.11486410000001,30.5065438,0 -86.1132647,30.5100495,0 -86.11229229999999,30.51217,0 -86.11190980000001,30.5130058,0 -86.111395,30.514129,0 -86.1100971,30.5169615,0 -86.1100069,30.5171683000001,0 -86.1099229,30.5173638,0 -86.10983520000001,30.5175743,0 -86.1097515,30.5177821,0 -86.10967100000001,30.51798640000001,0 -86.10959339999999,30.518198,0 -86.1094806,30.5185098,0 -86.1094389,30.5186334,0 -86.1093753,30.5188215,0 -86.10933989999999,30.5189356,0 -86.10927289999999,30.5191454,0 -86.1092094,30.5193545,0 -86.1091492,30.5195617,0 -86.1090908,30.5197769,0 -86.1090335,30.5199884,0 -86.108981,30.5202,0 -86.1089312,30.5204083,0 -86.1088819,30.5206255,0 -86.10883699999999,30.5208338,0 -86.10879300000001,30.5210504,0 -86.1087503,30.5212736,0 -86.1087115,30.5214909,0 -86.10867589999999,30.5217084,0 -86.10864309999999,30.5219229,0 -86.10861250000001,30.5221308,0 -86.1085837,30.52235780000001,0 -86.1085581,30.5225655,0 -86.1085358,30.5227865,0 -86.1085056,30.5231065,0 -86.108389,30.5245198,0 -86.10830970000001,30.5254488,0 -86.108222,30.5265619,0 -86.1081336,30.5276667,0 -86.10809159999999,30.5282276,0 -86.1080783,30.528437,0 -86.1080645,30.5286537,0 -86.1080511,30.5288799,0 -86.10804109999999,30.5290818,0 -86.1080233,30.52943550000001,0 -86.1080015,30.5299818,0 -86.1079955,30.5301993,0 -86.10798870000001,30.53041380000001,0 -86.10798339999999,30.5306308,0 -86.10797669999999,30.5309721,0 -86.10796809999999,30.5317161,0 -86.1079647,30.5319429,0 -86.10795709999999,30.5323702,0 -86.1079479,30.5327069,0 -86.1079275,30.5333504,0 -86.107918,30.5335707,0 -86.1079081,30.53379049999999,0 -86.1078967,30.5340116,0 -86.10788410000001,30.5342461,0 -86.1078732,30.5344462,0 -86.1078215,30.535206,0 -86.10775099999999,30.5360962,0 -86.107651,30.5372946,0 -86.1075968,30.5379519000001,0 -86.1075149,30.5389227,0 -86.1074514,30.5396815,0 -86.10736060000001,30.5407984,0 -86.10718230000001,30.5429356,0 -86.10711740000001,30.5437129,0 -86.1069724,30.5454613,0 -86.10690839999999,30.546219,0 -86.1068361,30.5470836,0 -86.1067091,30.548629,0 -86.1065364,30.5506953,0 -86.1064822,30.5513428,0 -86.106436,30.5519105,0 -86.10642009999999,30.5521068,0 -86.1063906,30.55255319999999,0 -86.1063814,30.55272069999999,0 -86.1063757,30.5528924,0 -86.10636649999999,30.5532019,0 -86.10636239999999,30.5536365,0 -86.10636890000001,30.5540626,0 -86.1063762,30.5543079,0 -86.10638729999999,30.5545187,0 -86.1064686,30.5552392,0 -86.10652589999999,30.5562202,0 -86.1068764,30.5600413,0 -86.1070488,30.5618251999999,0 -86.1072037,30.5634283,0 -86.1073,30.564471,0 -86.1077165,30.5689328,0 -86.108011,30.572088,0 -86.10816800000001,30.573773,0 -86.108215,30.5742579,0 -86.108306,30.575197,0 -86.108418,30.57652,0 -86.1085545,30.5779789,0 -86.1085653,30.5780943,0 -86.10858899999999,30.578347,0 -86.10880400000001,30.5804566,0 -86.1088153,30.5805772,0 -86.108948,30.582189,0 -86.109015,30.582768,0 -86.10906799999999,30.583407,0 -86.10928869999999,30.5857465,0 -86.10936599999999,30.58656149999999,0 -86.10947,30.587663,0 -86.1095627,30.5887031,0 -86.109618,30.589225,0 -86.109875,30.5920531,0 -86.10999959999999,30.5933523,0 -86.110079,30.59409,0 -86.11012100000001,30.594526,0 -86.11031800000001,30.59651,0 -86.11045300000001,30.597343,0 -86.110589,30.597964,0 -86.11059400000001,30.597988,0 -86.11073500000001,30.598539,0 -86.111085,30.599651,0 -86.111619,30.601301,0 -86.112087,30.602763,0 -86.112613,30.604558,0 -86.11355,30.60754,0 -86.11385799999999,30.608481,0 -86.114535,30.610565,0 -86.1147,30.61113,0 -86.11488,30.611766,0 -86.115022,30.612308,0 -86.11520899999999,30.6128350000001,0 -86.11524199999999,30.6129249999999,0 -86.1152606,30.6129802,0 -86.11535000000001,30.613246,0 -86.115708,30.614308,0 -86.115751,30.614437,0 -86.11677,30.617744,0 -86.116916,30.6182400000001,0 -86.117115,30.618917,0 -86.117361,30.62013200000001,0 -86.117394,30.620655,0 -86.11745999999999,30.621531,0 -86.11742700000001,30.623312,0 -86.117328,30.624104,0 -86.117148,30.625277,0 -86.117047,30.625884,0 -86.1169847,30.626188,0 -86.11662800000001,30.628676,0 -86.11597310000001,30.632486,0 -86.1159074,30.6328669,0 -86.1158397,30.6331691,0 -86.1158033,30.6332972,0 -86.11578110000001,30.6334407,0 -86.1154428,30.6354225,0 -86.1152939,30.6362858,0 -86.1149192,30.6389621,0 -86.1148135,30.6398103,0 -86.1146626,30.6407548,0 -86.1145228,30.6415802,0 -86.1143572,30.6428796,0 -86.1142894,30.6433742,0 -86.11426640000001,30.6434922,0 -86.11414310000001,30.6443740999999,0 -86.11411029999999,30.6445379,0 -86.11396569999999,30.6456478,0 -86.1137701,30.6468448,0 -86.1137366,30.6471968,0 -86.1136815,30.6478218,0 -86.1137061,30.648257,0 -86.11376509999999,30.6492576,0 -86.113866,30.6498639999999,0 -86.11397719999999,30.6503759,0 -86.11414859999999,30.651026,0 -86.1144007,30.6516999,0 -86.11451889999999,30.6520009,0 -86.115066,30.65308599999999,0 -86.11558290000001,30.6537791,0 -86.11637760000001,30.6549617,0 -86.11649439999999,30.6551355,0 -86.11745860000001,30.6564128,0 -86.11756819999999,30.6565951,0 -86.11827169999999,30.6574069,0 -86.118309,30.65745,0 -86.1185736,30.6579025,0 -86.11875980000001,30.658221,0 -86.11911069999999,30.6587338,0 -86.1197023,30.6595897,0 -86.1200113,30.6600565,0 -86.12012660000001,30.6602265,0 -86.1203264,30.6605181,0 -86.1205034,30.6608068,0 -86.1208527,30.661405,0 -86.1210466,30.6617778,0 -86.12110300000001,30.6618862,0 -86.1213108,30.6623077,0 -86.1214433,30.6626105,0 -86.12168269999999,30.6631662,0 -86.1218757,30.6636958,0 -86.1219997,30.66409090000001,0 -86.122236,30.6649203,0 -86.1223123,30.6652365000001,0 -86.12235579999999,30.6654536,0 -86.1224193,30.6657701,0 -86.1224412,30.66587910000001,0 -86.1225505,30.6666407,0 -86.1226198,30.6673669,0 -86.12264949999999,30.6679659,0 -86.122642,30.6684814,0 -86.1226229,30.6702195,0 -86.1226192,30.6708019,0 -86.1226127,30.6718249,0 -86.12259109999999,30.6734685,0 -86.1225738,30.6759069,0 -86.1225523,30.6775541999999,0 -86.12253560000001,30.6797356,0 -86.1225282,30.6803425,0 -86.1225069,30.6820854,0 -86.1224986,30.682345,0 -86.1225127,30.6837324,0 -86.12253870000001,30.6844353,0 -86.1225905,30.6852922,0 -86.12262749999999,30.6859633,0 -86.1226422,30.6862304,0 -86.1226645,30.6867151,0 -86.12267439999999,30.6871869,0 -86.12267249999999,30.687396,0 -86.1226747,30.6876128,0 -86.1226782,30.6880296,0 -86.1226757,30.6881238,0 -86.12267180000001,30.6882692,0 -86.122654,30.6892372,0 -86.1226425,30.6897753,0 -86.12264450000001,30.6904003,0 -86.12263950000001,30.6905966,0 -86.122625,30.6911597,0 -86.12262320000001,30.6913453,0 -86.1226175,30.6918689,0 -86.1226052,30.6930071,0 -86.12260379999999,30.6931394,0 -86.12260000000001,30.693516,0 -86.1225936,30.6938797,0 -86.1225803,30.6952213,0 -86.1225627,30.6966418,0 -86.122602,30.698535,0 -86.1226025,30.6985714,0 -86.12260620000001,30.69883189999999,0 -86.12261599999999,30.699517,0 -86.122619,30.699717,0 -86.122614,30.700203,0 -86.12261340000001,30.7002765,0 -86.122613,30.700318,0 -86.12260999999999,30.700563,0 -86.122608,30.700815,0 -86.122606,30.70102,0 -86.122604,30.7011459999999,0 -86.1226044,30.7013114,0 -86.1225893,30.7019683,0 -86.12258780000001,30.7023515,0 -86.1225852,30.702623,0 -86.1225827,30.7028844,0 -86.12258490000001,30.7035382,0 -86.122586,30.703879,0 -86.12259349999999,30.704342,0 -86.122602,30.704862,0 -86.122631,30.705152,0 -86.1226917,30.7057296,0 -86.12270410000001,30.705848,0 -86.1227312,30.7060528,0 -86.122815,30.706687,0 -86.122826,30.706769,0 -86.12287259999999,30.7075481,0 -86.1228722,30.70766130000001,0 -86.12286640000001,30.7091835,0 -86.1228653,30.70948449999999,0 -86.1228636,30.7099209,0 -86.122862,30.71034,0 -86.122862,30.7103633,0 -86.122862,30.7107384,0 -86.122862,30.711062,0 -86.122863,30.7112377,0 -86.1228685,30.7122092,0 -86.12286829999999,30.7123381,0 -86.12286690000001,30.71323,0 -86.12286640000001,30.714001,0 -86.1228674,30.714345,0 -86.12285180000001,30.71479,0 -86.1228096,30.7152432,0 -86.1227677,30.7155621,0 -86.1227138,30.7158395,0 -86.12268899999999,30.7159672000001,0 -86.12258919999999,30.7163753,0 -86.12249850000001,30.7167037,0 -86.12238499999999,30.7170623,0 -86.122304,30.7172881,0 -86.12175089999999,30.7187241,0 -86.12142350000001,30.7195759,0 -86.12139569999999,30.7196482,0 -86.12135720000001,30.7197486,0 -86.12057230000001,30.7217963,0 -86.1205264,30.7219161,0 -86.12076,30.722024,0 -86.121307,30.722325,0 -86.1216563,30.7225254,0 -86.1219303,30.7226813,0 -86.12296499999999,30.7232489999999,0 -86.123502,30.7235060000001,0 -86.123688,30.723595,0 -86.12432250000001,30.723857,0 -86.124579,30.723963,0 -86.124954,30.724118,0 -86.125675,30.724406,0 -86.1263465,30.7246845,0 -86.127083,30.72499,0 -86.127835,30.725326,0 -86.12891399999999,30.725827,0 -86.129897,30.726296,0 -86.130977,30.726809,0 -86.13209000000001,30.727355,0 -86.132448,30.727523,0 -86.133118,30.727836,0 -86.133957,30.728235,0 -86.134737,30.728606,0 -86.136027,30.729209,0 -86.137722,30.730012,0 -86.138769,30.730512,0 -86.13908499999999,30.730663,0 -86.13973799999999,30.730975,0 -86.1399907,30.731098,0 -86.14008699999999,30.7311449,0 -86.1401412,30.7311898,0 -86.14152452751426,30.73197946705514,0 -86.14263390515342,30.73247526317621,0 -86.1436600574733,30.73289884752299,0 -86.14460768396934,30.73323470771595,0 -86.14588155571396,30.73361115979482,0 -86.14687267516594,30.73384816396836,0 -86.14799972006367,30.73406649403276,0 -86.14854553792632,30.73417063048021,0 
				
					-86.14859514699978,30.73417361121112,0 -86.148607,30.7344232,0 -86.148584,30.7347586,0 -86.148448,30.736737,0 -86.148326,30.73837199999999,0 -86.14821809999999,30.7398939,0 -86.148195,30.74022,0 -86.148022,30.74265400000001,0 -86.147982,30.743187,0 -86.147915,30.74418,0 -86.14788849999999,30.7445678,0 -86.147835,30.745352,0 -86.14781000000001,30.74573,0 -86.1478,30.745874,0 -86.14778200000001,30.746331,0 -86.147778,30.746443,0 -86.14778200000001,30.747125,0 -86.147836,30.747938,0 -86.14787,30.748156,0 -86.147893,30.748305,0 -86.1479283,30.74856279999999,0 -86.14794500000001,30.748685,0 -86.147955,30.748758,0 -86.148045,30.749256,0 -86.14819799999999,30.749934,0 -86.148235,30.750083,0 -86.148268,30.750214,0 -86.148596,30.751263,0 -86.14872099999999,30.751611,0 -86.14965599999999,30.753971,0 -86.14988700000001,30.754555,0 -86.15072499999999,30.756708,0 -86.15078200000001,30.756855,0 -86.151602,30.758912,0 -86.152525,30.761227,0 -86.152985,30.762443,0 -86.153903,30.764872,0 -86.153997,30.76512,0 -86.15493499999999,30.767529,0 -86.155238,30.76831,0 -86.15545299999999,30.7688640000001,0 -86.155872,30.769966,0 -86.156053,30.770404,0 -86.156497,30.77133,0 -86.15672000000001,30.77173,0 -86.15739499999999,30.772833,0 -86.157963,30.773617,0 -86.1581304,30.7738171,0 -86.158424,30.774168,0 -86.159041,30.774847,0 -86.15997900000001,30.775779,0 -86.160842,30.7765,0 -86.161632,30.777072,0 -86.162363,30.777571,0 -86.166421,30.779878,0 -86.16879,30.781206,0 -86.17000899999999,30.781887,0 -86.17028000000001,30.782038,0 -86.17167000000001,30.782824,0 -86.17343700000001,30.783819,0 -86.17413000000001,30.784209,0 -86.1772198,30.7859520999999,0 -86.17762190000001,30.786179,0 -86.1783767,30.7865919,0 -86.1814104,30.7882996,0 -86.181541,30.7883731,0 -86.18211220000001,30.7886938,0 -86.18237449999999,30.7888411,0 -86.18318499999999,30.7893155,0 -86.1835712,30.7895551,0 -86.1840567,30.7898708,0 -86.1845529,30.7902372,0 -86.18519929999999,30.7907464,0 -86.18574750000001,30.791217,0 -86.1861229,30.7915838,0 -86.186249,30.791707,0 -86.186764,30.7922082999999,0 -86.187527,30.79306800000001,0 -86.1883706,30.7941509,0 -86.18862,30.794471,0 -86.191391,30.797989,0 -86.19218100000001,30.798985,0 -86.19251,30.799395,0 -86.192796,30.799754,0 -86.192959,30.799959,0 -86.193054,30.800078,0 -86.193324,30.800419,0 -86.19425219999999,30.8015434,0 -86.1945195,30.80188,0 -86.1947905,30.8022359,0 -86.19761099999999,30.805804,0 -86.20045,30.809379,0 -86.2012328,30.8103932,0 -86.20174470000001,30.8111668,0 -86.20222099999999,30.811889,0 -86.20341809999999,30.8137998,0 -86.2036094,30.81406610000001,0 -86.2038706,30.8144122,0 -86.20423049999999,30.8148271,0 -86.2045605,30.8151377,0 -86.20482079999999,30.8153608,0 -86.2050873,30.815605,0 -86.20562990000001,30.815992,0 -86.20596829999999,30.8162059,0 -86.2063028,30.8164042,0 -86.2088136,30.8178202,0 -86.2094388,30.8181751,0 -86.215785,30.821757,0 -86.216281,30.822044,0 -86.2167998,30.8222437,0 -86.2172291,30.8223945,0 -86.2176324,30.8224867,0 -86.2180487,30.82256629999999,0 -86.21845,30.8226219,0 -86.2190018,30.8226914,0 -86.220268,30.822831,0 -86.22069999999999,30.822893,0 -86.22145860000001,30.8229897,0 -86.2219142,30.8230671,0 -86.22220249999999,30.8231201,0 -86.223111,30.823317,0 -86.223654,30.82348,0 -86.224205,30.823656,0 -86.22510200000001,30.823989,0 -86.22594100000001,30.824392,0 -86.22672300000001,30.824823,0 -86.227841,30.825614,0 -86.22868099999999,30.82634,0 -86.229274,30.826969,0 -86.229375,30.827095,0 -86.22975099999999,30.827562,0 -86.2298083,30.82765,0 -86.2299096,30.8278056,0 -86.230294,30.82839600000001,0 -86.231939,30.831438,0 -86.232868,30.833203,0 -86.23357,30.834549,0 -86.23419699999999,30.835539,0 -86.235792,30.838037,0 -86.236158,30.83861,0 -86.23815999999999,30.841661,0 -86.240048,30.844539,0 -86.240213,30.844797,0 -86.244219,30.851034,0 -86.245422,30.852916,0 -86.246719,30.854943,0 -86.247319,30.855881,0 -86.2492183,30.8587689,0 -86.2494482,30.8591107,0 -86.2502228,30.8602691,0 -86.2549784,30.8676526,0 -86.255273,30.86811,0 -86.255889,30.869061,0 -86.256433,30.869839,0 -86.25763600000001,30.871325,0 -86.25879,30.872457,0 -86.26088300000001,30.874098,0 -86.264262,30.876582,0 -86.2684,30.879673,0 -86.27314699999999,30.88314,0 -86.27472899999999,30.8843,0 -86.275353,30.884787,0 -86.27718299999999,30.886398,0 -86.277974,30.887289,0 -86.278716,30.888264,0 -86.279144,30.888914,0 -86.279721,30.8898610000001,0 -86.28036400000001,30.891317,0 -86.28061099999999,30.891995,0 -86.28085799999999,30.89273,0 -86.28111800000001,30.893904,0 -86.28128700000001,30.894879,0 -86.281289,30.894898,0 -86.281369,30.89567,0 -86.281369,30.89755,0 -86.281346,30.900916,0 -86.28131999999999,30.904603,0 -86.281221,30.911811,0 -86.281193,30.913542,0 -86.28108899999999,30.919966,0 -86.28099,30.920927,0 -86.28085799999999,30.922016,0 -86.28069189999999,30.9226325,0 -86.2805621,30.9230982,0 -86.280281,30.92398,0 -86.27995199999999,30.925436,0 -86.27976200000001,30.926549,0 -86.279741,30.926999,0 -86.279787,30.928277,0 -86.27993499999999,30.929493,0 -86.280314,30.930948,0 -86.281023,30.933761,0 -86.281402,30.935372,0 -86.281471,30.935656,0 -86.282067,30.938122,0 -86.2828207,30.9410481,0 -86.282875,30.941259,0 -86.28366,30.944093,0 -86.283992,30.944897,0 -86.284814,30.946425,0 -86.284997,30.9467091,0 -86.285464,30.947434,0 -86.28605,30.94822,0 -86.286824,30.949124,0 -86.287747,30.950015,0 -86.288731,30.95091,0 -86.288819,30.95099,0 -86.28947700000001,30.951579,0 -86.292197,30.954015,0 -86.292923,30.954778,0 -86.293845,30.955824,0 -86.294876,30.957079,0 -86.2955315,30.957851,0 -86.296091,30.95851,0 -86.29691800000001,30.959485,0 -86.29749200000001,30.960161,0 -86.297538,30.960223,0 -86.29834,30.961314,0 -86.298585,30.96171,0 -86.298833,30.96211,0 -86.29937200000001,30.963021,0 -86.29990599999999,30.964016,0 -86.30031200000001,30.964949,0 -86.30049099999999,30.965426,0 -86.30065829999999,30.9658719,0 -86.300944,30.9667673,0 -86.3009694,30.966847,0 -86.3013377,30.96799409999999,0 -86.3014268,30.9682714,0 -86.3017311,30.96925389999999,0 -86.301891,30.96977,0 -86.302869,30.972789,0 -86.30314300000001,30.9736426,0 -86.303421,30.9745085,0 -86.3035247,30.9748058,0 -86.30370569999999,30.9752881,0 -86.30385389999999,30.9756067,0 -86.3040206,30.9759487,0 -86.30420030000001,30.9762908,0 -86.30467899999999,30.977147,0 -86.30583900000001,30.97913,0 -86.30620999999999,30.979801,0 -86.306498,30.980275,0 -86.307249,30.981596,0 -86.308188,30.983222,0 -86.308815,30.984459,0 -86.30903499999999,30.985129,0 -86.309151,30.985539,0 -86.309184,30.985746,0 -86.309241,30.985949,0 -86.30935700000001,30.986811,0 -86.30935700000001,30.987334,0 -86.309331,30.988277,0 -86.309325,30.988505,0 -86.30921600000001,30.991073,0 -86.309121,30.993999,0 
				
					-86.309121,30.993999,0 -86.309117,30.994244,0 -86.3091,30.994502,0 -86.309072,30.995169,0 -86.309048,30.995772,0 -86.308955,30.996541,0 -86.308808,30.997484,0 -86.308757,30.997886,0 -86.3086299,30.99857220000001,0 -86.308503,30.999257,0 -86.30941900000001,30.99937,0 -86.310389,30.999486,0 -86.31119700000001,30.99958,0 -86.31130039999999,30.9995929,0 -86.31231699999999,30.99972,0 -86.313068,30.999811,0 -86.313237,30.999827,0 -86.314181,30.9999369999999,0 -86.314229,30.999944,0 -86.314491,30.999938,0 -86.31525000000001,31.000026,0 -86.316074,31.000128,0 -86.31659500000001,31.000191,0 -86.316773,31.00022,0 -86.31684300000001,31.000237,0 -86.317002,31.000285,0 -86.31715699999999,31.000344,0 -86.317908,31.000653,0 -86.31823,31.00079,0 -86.31877900000001,31.001014,0 -86.319576,31.00135,0 -86.320916,31.001901,0 -86.321155,31.00198,0 -86.321352,31.002031,0 -86.32204299999999,31.002246,0 -86.322604,31.002407,0 -86.322844,31.002481,0 -86.322998,31.002541,0 -86.32311900000001,31.002599,0 -86.323364,31.002725,0 -86.32379899999999,31.002959,0 -86.3238882,31.0030042,0 -86.323947,31.003034,0 -86.3241135,31.0031239,0 -86.3245635,31.003367,0 -86.324669,31.003424,0 -86.325002,31.003599,0 -86.326047,31.004154,0 -86.326228,31.004304,0 -86.3265351,31.0044582,0 -86.326674,31.004528,0 -86.3267522,31.0045726,0 -86.327281,31.004874,0 -86.327457,31.00498,0 -86.3275905,31.0050679,0 -86.327691,31.00513400000001,0 -86.3277559,31.0051890999999,0 -86.32793700000001,31.005343,0 -86.328192,31.005544,0 -86.32853129999999,31.0058223,0 -86.328615,31.005891,0 -86.3286983,31.0059436,0 -86.32883200000001,31.0060279999999,0 -86.328971,31.00611,0 -86.329262,31.006268,0 -86.329564,31.0064284,0 -86.3296426,31.0064701,0 -86.329579,31.0065846,0 -86.3295353,31.00666319999999,0 -86.329393,31.006998,0 -86.32921899999999,31.00741,0 -86.32909600000001,31.007731,0 -86.32900600000001,31.008088,0 -86.328683,31.008957,0 -86.328484,31.009488,0 -86.328177,31.010305,0 -86.327957,31.010891,0 -86.3278208,31.0112721,0 -86.32763799999999,31.011637,0 -86.32743499999999,31.012186,0 -86.327384,31.012338,0 -86.32733,31.01248,0 -86.32728299999999,31.012618,0 -86.32725600000001,31.012724,0 -86.327197,31.013003,0 -86.327168,31.013181,0 -86.327023,31.0143814,0 -86.3269232,31.015639,0 -86.3269143,31.0157708,0 -86.3268382,31.01673,0 -86.3268285,31.0168813,0 -86.3267388,31.0181319,0 -86.326655,31.0195,0 -86.326532,31.02111,0 -86.326526,31.021299,0 -86.326291,31.024375,0 -86.326234,31.025033,0 -86.32621,31.025253,0 -86.32615199999999,31.025691,0 -86.32607299999999,31.026786,0 -86.326036,31.027226,0 -86.32592099999999,31.028763,0 -86.32584799999999,31.02964100000001,0 -86.325816,31.029857,0 -86.325766,31.030072,0 -86.325692,31.03028,0 -86.325656,31.030364,0 -86.325587,31.030478,0 -86.32545,31.030742,0 -86.325366,31.030874,0 -86.325069,31.031123,0 -86.324704,31.031362,0 -86.324268,31.031599,0 -86.324107,31.031683,0 -86.32195299999999,31.03281,0 -86.320583,31.033533,0 -86.320139,31.03378,0 -86.31971,31.034042,0 -86.319311,31.03432,0 -86.318926,31.03462,0 -86.31855899999999,31.034939,0 -86.318512,31.034986,0 -86.318218,31.035278,0 -86.3180177,31.0354718,0 -86.31773269999999,31.0358073,0 -86.3175265,31.0360758,0 -86.3172734,31.0364428,0 -86.3170239,31.0368645000001,0 -86.3165304,31.0377424,0 -86.3160543,31.0385955,0 -86.3152114,31.0401061,0 -86.3148681,31.0407185,0 -86.3134866,31.0431984,0 -86.3132782,31.0436199,0 -86.3131334,31.0439416,0 -86.31299989999999,31.0442869,0 -86.3126781,31.0451619,0 -86.3118935,31.0473352,0 -86.3117333,31.0477729,0 -86.3115509,31.0482842,0 -86.31111799999999,31.049494,0 -86.310016,31.052523,0 -86.309912,31.052809,0 -86.30961499999999,31.053645,0 -86.309022,31.055261,0 -86.30898000000001,31.05538,0 -86.308746,31.056045,0 -86.308493,31.056742,0 -86.307897,31.058389,0 -86.307603,31.059185,0 -86.30588899999999,31.06392,0 -86.304593,31.067481,0 -86.304512,31.067703,0 -86.304232,31.06848400000001,0 -86.303945,31.069265,0 -86.303237,31.071223,0 -86.303066,31.071693,0 -86.302908,31.072167,0 -86.302241,31.074003,0 -86.301053,31.077277,0 -86.298293,31.084877,0 -86.29665300000001,31.089394,0 -86.29657,31.08965,0 -86.296487,31.089864,0 -86.2962765,31.09042000000001,0 -86.2955565,31.0923539,0 -86.2954948,31.0925392,0 -86.2954208,31.0927772,0 -86.295361,31.092927,0 -86.29517300000001,31.093477,0 -86.295035,31.093856,0 -86.29492399999999,31.094197,0 -86.294695,31.094857,0 -86.294628,31.095091,0 -86.294517,31.095587,0 -86.294455,31.095983,0 -86.294417,31.096381,0 -86.294417,31.096387,0 -86.294394,31.09678,0 -86.29439000000001,31.096967,0 -86.29439600000001,31.097176,0 -86.294411,31.09737700000001,0 -86.294455,31.097798,0 -86.29451299999999,31.098162,0 -86.294518,31.098187,0 -86.29458700000001,31.09852,0 -86.29470999999999,31.098924,0 -86.294844,31.099301,0 -86.29500899999999,31.099686,0 -86.295284,31.100293,0 -86.295604,31.100959,0 -86.295693,31.101153,0 -86.29625299999999,31.102383,0 -86.29640000000001,31.102716,0 -86.296655,31.10322,0 -86.296897,31.103764,0 -86.29702,31.104012,0 -86.297282,31.104589,0 -86.29742400000001,31.104986,0 -86.29749200000001,31.105199,0 -86.297606,31.105611,0 -86.297656,31.105823,0 -86.297703,31.106065,0 -86.297743,31.106346,0 -86.297769,31.106601,0 -86.297788,31.106864,0 -86.297783,31.107084,0 -86.29779000000001,31.107263,0 -86.29779000000001,31.107509,0 -86.297799,31.107603,0 -86.297804,31.107899,0 -86.297782,31.108298,0 -86.297764,31.108887,0 -86.297764,31.10917600000001,0 -86.29775600000001,31.10945,0 -86.297755,31.109486,0 -86.297755,31.109867,0 -86.29772800000001,31.1106959999999,0 -86.29768900000001,31.112389,0 -86.29768,31.113054,0 -86.297662,31.11358999999999,0 -86.297619,31.1159719999999,0 -86.29760899999999,31.116516,0 -86.297591,31.116915,0 -86.29760400000001,31.117203,0 -86.29760400000001,31.117411,0 -86.29760899999999,31.11758,0 -86.297595,31.117726,0 -86.29752000000001,31.11807599999999,0 -86.297454,31.118293,0 -86.297343,31.118697,0 -86.29716999999999,31.11922,0 -86.29700699999999,31.119672,0 -86.296789,31.120279,0 -86.29666,31.120656,0 -86.296592,31.120838,0 -86.296558,31.120931,0 -86.296425,31.121334,0 -86.29627499999999,31.121733,0 -86.296177,31.121964,0 -86.296009,31.12242,0 -86.29591600000001,31.122695,0 -86.295849,31.122921,0 -86.295698,31.123524,0 -86.29561,31.124012,0 -86.295468,31.125129,0 -86.295282,31.126751,0 -86.295153,31.1278189999999,0 -86.29508199999999,31.128369,0 -86.294945,31.129561,0 -86.294781,31.130851,0 -86.294697,31.131556,0 -86.294652,31.131893,0 -86.294572,31.132637,0 -86.294515,31.133076,0 -86.294448,31.133675,0 -86.294375,31.134222,0 -86.29436,31.134331,0 -86.29393399999999,31.137894,0 -86.293819,31.138992,0 -86.293769,31.139425,0 -86.29372100000001,31.139814,0 -86.293646,31.140328,0 -86.29355700000001,31.140997,0 -86.29347300000001,31.141755,0 -86.29338,31.142509,0 -86.29318499999999,31.144184,0 -86.29310099999999,31.144796,0 -86.29303,31.145448,0 -86.292906,31.146511,0 -86.292799,31.147256,0 -86.292751,31.147717,0 -86.292649,31.148519,0 -86.292405,31.15056,0 -86.292378,31.150819,0 -86.29223399999999,31.152006,0 -86.29217800000001,31.152465,0 -86.29214899999999,31.152751,0 -86.29209,31.153288,0 -86.291715,31.156312,0 -86.291499,31.158228,0 -86.29145800000001,31.158501,0 -86.29140599999999,31.158921,0 -86.291275,31.160067,0 -86.291169,31.160903,0 -86.291156,31.161005,0 -86.29109800000001,31.161502,0 -86.29096,31.162606,0 -86.29086700000001,31.163402,0 -86.290723,31.164487,0 -86.290601,31.165588,0 -86.29050100000001,31.166394,0 -86.29042099999999,31.167081,0 -86.290172,31.16908400000001,0 -86.290111,31.169649,0 -86.290064,31.170014,0 -86.289861,31.171719,0 -86.289832,31.171935,0 -86.289813,31.172073,0 -86.289779,31.172371,0 -86.289669,31.173229,0 -86.28951499999999,31.17453,0 -86.28947100000001,31.174864,0 -86.289259,31.176643,0 -86.28923,31.176885,0 -86.289181,31.177232,0 -86.28904799999999,31.17829,0 -86.289035,31.17839,0 -86.288791,31.180488,0 -86.288616,31.181754,0 -86.288533,31.182347,0 -86.288478,31.182787,0 -86.28836200000001,31.183793,0 -86.288352,31.183883,0 -86.288324,31.184186,0 -86.288304,31.18439100000001,0 -86.288051,31.186439,0 -86.28745000000001,31.191398,0 -86.28727600000001,31.192803,0 -86.287164,31.193752,0 -86.28699400000001,31.1951280000001,0 -86.286931,31.195588,0 -86.28684800000001,31.196045,0 -86.286766,31.196471,0 -86.28515,31.204864,0 -86.28472600000001,31.20704,0 -86.284184,31.209866,0 -86.28416199999999,31.210036,0 -86.284099,31.210301,0 -86.28391999999999,31.211226,0 -86.283897,31.211367,0 -86.283822,31.211749,0 -86.283361,31.214126,0 -86.28321099999999,31.214916,0 -86.283162,31.215205,0 -86.283118,31.215416,0 -86.28309299999999,31.215507,0 -86.28307599999999,31.21557,0 -86.2830373,31.2157749,0 -86.283018,31.215877,0 -86.282971,31.216167,0 -86.28289049999999,31.2165791,0 -86.282769,31.217201,0 -86.282589,31.21812,0 -86.282447,31.218882,0 -86.2822,31.220181,0 -86.282118,31.220554,0 -86.282032,31.220859,0 -86.282003,31.220936,0 -86.281847,31.221283,0 -86.2817,31.221548,0 -86.28152900000001,31.221805,0 -86.280716,31.222931,0 -86.280509,31.223214,0 -86.280035,31.22386300000001,0 -86.279813,31.224177,0 -86.278908,31.225425,0 -86.278734,31.225649,0 -86.278623,31.225818,0 -86.276526,31.2287,0 -86.275575,31.23001199999999,0 -86.27544399999999,31.2301919999999,0 -86.275167,31.230573,0 -86.274936,31.230881,0 -86.274529,31.23144599999999,0 -86.274405,31.231624,0 -86.274141,31.231979,0 -86.273989,31.232174,0 -86.273917,31.2322820000001,0 -86.273641,31.232662,0 -86.273374,31.23303,0 -86.27314800000001,31.233353,0 -86.272327,31.234484,0 -86.271867,31.235112,0 -86.271697,31.235345,0 -86.271405,31.235753,0 -86.27121,31.236038,0 -86.271052,31.236296,0 -86.271021,31.236352,0 -86.270904,31.236561,0 -86.27083399999999,31.236695,0 -86.270775,31.236831,0 -86.27064799999999,31.237098,0 -86.27047399999999,31.237511,0 -86.270213,31.238157,0 -86.2698,31.23917700000001,0 -86.269689,31.239425,0 -86.269616,31.23959,0 -86.26944899999999,31.24001,0 -86.269251,31.240483,0 -86.26910100000001,31.240843,0 -86.268969,31.241115,0 -86.268897,31.241248,0 -86.26873999999999,31.241509,0 -86.268569,31.241765,0 -86.268475,31.241892,0 -86.268377,31.242015,0 -86.268272,31.242137,0 -86.268057,31.242375,0 -86.265703,31.244822,0 -86.26428799999999,31.246292,0 -86.2641,31.246469,0 -86.263699,31.2469150000001,0 -86.263553,31.247067,0 -86.2621503,31.2485156,0 -86.26163699999999,31.249044,0 -86.261509,31.249178,0 -86.26115799999999,31.249537,0 -86.260959,31.249753,0 -86.2607297,31.2499914,0 -86.2603745,31.2499931,0 -86.2592198,31.2500008,0 -86.2559885,31.2500179,0 -86.25501300000001,31.250023,0 -86.25451700000001,31.25003,0 -86.253516,31.250031,0 -86.253406,31.250032,0 -86.252521,31.250042,0 -86.25154499999999,31.250041,0 -86.251063,31.250046,0 -86.2478189,31.2500678,0 -86.2471,31.250064,0 -86.245698,31.250074,0 -86.245232,31.25009,0 -86.244674,31.250125,0 -86.244489,31.250145,0 -86.243673,31.25026,0 -86.243407,31.250305,0 -86.243227,31.250337,0 -86.24272000000001,31.250454,0 -86.24256,31.250497,0 -86.24223000000001,31.2505780000001,0 -86.241906,31.25066899999999,0 -86.241585,31.250774,0 -86.24126699999999,31.250896,0 -86.241108,31.250953,0 -86.24102999999999,31.250986,0 -86.24059699999999,31.251144,0 -86.240165,31.251338,0 -86.240084,31.251382,0 -86.240011,31.251414,0 -86.239789,31.251523,0 -86.239301,31.2518,0 -86.239208,31.251842,0 -86.238479,31.252297,0 -86.23827,31.252439,0 -86.237809,31.252784,0 -86.237672,31.252891,0 -86.237589,31.252943,0 -86.237398,31.25310500000001,0 -86.237077,31.253394,0 -86.236766,31.253713,0 -86.236532,31.253952,0 -86.236133,31.254408,0 -86.235749,31.254898,0 -86.2341497,31.2570744,0 -86.234089,31.257157,0 -86.23401800000001,31.257239,0 -86.23358500000001,31.257843,0 -86.2332834,31.2582561999999,0 -86.232742,31.258998,0 -86.232624,31.259162,0 -86.23253,31.259283,0 -86.232125,31.259865,0 -86.23188399999999,31.260175,0 -86.22927900000001,31.263724,0 -86.2289183,31.2642002,0 -86.22875759999999,31.2644304000001,0 -86.2280085,31.2655033,0 -86.22656499999999,31.26745,0 -86.226271,31.267899,0 -86.22608099999999,31.268208,0 -86.225909,31.268488,0 -86.22579399999999,31.268693,0 -86.225341,31.269532,0 -86.225228,31.269751,0 -86.225121,31.269972,0 -86.224808,31.270654,0 -86.224625,31.271126,0 -86.22438200000001,31.271772,0 -86.224255,31.2721439999999,0 -86.224155,31.272434,0 -86.223952,31.273102,0 -86.2238,31.273694,0 -86.223725,31.274033,0 -86.223468,31.275407,0 -86.2230911,31.2773923,0 -86.222466,31.280856,0 -86.222128,31.282495,0 -86.222114,31.2826020000001,0 -86.22205820000001,31.2829101,0 -86.22203829999999,31.2830252,0 -86.22202799999999,31.283077,0 -86.2219666,31.2834528,0 -86.22173600000001,31.284664,0 -86.221524,31.285796,0 -86.22130799999999,31.286955,0 -86.221232,31.287502,0 -86.22118500000001,31.288057,0 -86.221163,31.28862,0 -86.22116699999999,31.289267,0 -86.22116699999999,31.2895089999999,0 -86.22117799999999,31.289673,0 -86.22121199999999,31.290003,0 -86.221239,31.290169,0 -86.221272,31.290416,0 -86.221367,31.290989,0 -86.22149400000001,31.291566,0 -86.22165800000001,31.292165,0 -86.221856,31.29277,0 -86.221988,31.293117,0 -86.222171,31.293536,0 -86.222396,31.29403,0 -86.222443,31.294125,0 -86.222553,31.294355,0 -86.22264,31.29451,0 -86.22295099999999,31.295031,0 -86.223175,31.295382,0 -86.223355,31.295648,0 -86.223535,31.2959,0 -86.223771,31.296209,0 -86.223966,31.296452,0 -86.224116,31.2966397,0 -86.2242832,31.296836,0 -86.2244754,31.297058,0 -86.2245997,31.2972037,0 -86.2248896,31.2974869,0 -86.2251581,31.2977389,0 -86.22537699999999,31.297954,0 -86.225489,31.298062,0 -86.22560199999999,31.298162,0 -86.225909,31.298418,0 -86.226648,31.298993,0 -86.22733100000001,31.299463,0 -86.227367,31.299488,0 -86.22797799999999,31.299863,0 -86.22821500000001,31.299999,0 -86.2283,31.300056,0 -86.228447,31.300145,0 -86.229246,31.300573,0 -86.23275700000001,31.302512,0 -86.23333700000001,31.302819,0 -86.2338599,31.3030866,0 -86.2341241,31.3032055,0 -86.2345809,31.3034056,0 -86.2347314,31.3034639,0 -86.2348152,31.3034963,0 -86.23482660000001,31.3035007,0 -86.235394,31.303717,0 -86.235945,31.303912,0 -86.236526,31.304098,0 -86.23915100000001,31.304871,0 -86.239344,31.304937,0 -86.239898,31.305098,0 -86.240089,31.305144,0 -86.240572,31.305286,0 -86.242437,31.305836,0 -86.242727,31.305927,0 -86.24292199999999,31.305998,0 -86.243207,31.306091,0 -86.243492,31.306174,0 -86.243675,31.306238,0 -86.24474600000001,31.306639,0 -86.24500500000001,31.306745,0 -86.24584,31.307112,0 -86.246172,31.307264,0 -86.24633,31.307349,0 -86.24664799999999,31.307504,0 -86.247513,31.307947,0 -86.248369,31.308424,0 -86.2486093,31.3085545,0 -86.24878630000001,31.3086499,0 -86.24896149999999,31.308742,0 -86.24920899999999,31.3088809,0 -86.24960799999999,31.309106,0 -86.250063,31.309383,0 -86.25053,31.309648,0 -86.25099899999999,31.309921,0 -86.25242799999999,31.310717,0 -86.253091,31.311096,0 -86.253927,31.311565,0 -86.25425199999999,31.311764,0 -86.25490499999999,31.312118,0 -86.254949,31.31214200000001,0 -86.256406,31.31297,0 -86.257121,31.313399,0 -86.25731500000001,31.313522,0 -86.25751700000001,31.313646,0 -86.2577158,31.3137904,0 -86.257937,31.313951,0 -86.258357,31.314283,0 -86.25855900000001,31.314455,0 -86.25868699999999,31.314584,0 -86.25912700000001,31.315001,0 -86.25970700000001,31.315624,0 -86.25998,31.315946,0 -86.260086,31.316078,0 -86.260549,31.31679099999999,0 -86.260794,31.317193,0 -86.260991,31.317545,0 -86.261185,31.317916,0 -86.261349,31.318254,0 -86.261475,31.318532,0 -86.26162600000001,31.318911,0 -86.261706,31.319141,0 -86.26214400000001,31.320474,0 -86.262495,31.321544,0 -86.262912,31.322826,0 -86.263543,31.324734,0 -86.26365300000001,31.325011,0 -86.26377599999999,31.325288,0 -86.26392300000001,31.325553,0 -86.264101,31.325839,0 -86.26432800000001,31.326124,0 -86.2648174,31.3266873,0 -86.26564399999999,31.3275785,0 -86.266193,31.328214,0 -86.266509,31.328653,0 -86.266716,31.328996,0 -86.26675400000001,31.329077,0 -86.26687699999999,31.329368,0 -86.26706299999999,31.329879,0 -86.26715799999999,31.330139,0 -86.267672,31.331633,0 -86.267922,31.332336,0 -86.26840900000001,31.333745,0 -86.268624,31.334358,0 -86.268728,31.334654,0 -86.268925,31.335216,0 -86.269654,31.337316,0 -86.27036080000001,31.339343,0 -86.2706767,31.340249,0 -86.270895,31.340888,0 -86.270962,31.341121,0 -86.272215,31.344725,0 -86.27252,31.345604,0 -86.27282,31.346467,0 -86.273557,31.348574,0 -86.273793,31.349282,0 -86.273994,31.349998,0 -86.27408,31.350358,0 -86.274154,31.35072,0 -86.274248,31.351221,0 -86.274265,31.351347,0 -86.274299,31.351561,0 -86.274344,31.351899,0 -86.274378,31.352268,0 -86.27440300000001,31.352649,0 -86.274428,31.353389,0 -86.274438,31.354129,0 -86.274438,31.354239,0 -86.27443700000001,31.354355,0 -86.27444199999999,31.35443,0 -86.27449900000001,31.358118,0 -86.27451000000001,31.35844,0 -86.274503,31.358604,0 -86.27449799999999,31.358867,0 -86.274507,31.359167,0 -86.274514,31.359966,0 -86.274517,31.360167,0 -86.27453199999999,31.361097,0 -86.274536,31.361799,0 -86.274552,31.362459,0 -86.27456100000001,31.363051,0 -86.274548,31.363786,0 -86.27452599999999,31.364374,0 -86.274485,31.365031,0 -86.274415,31.365839,0 -86.274389,31.366202,0 -86.27432399999999,31.366934,0 -86.274297,31.367304,0 -86.2742276,31.3681126000001,0 -86.27418729999999,31.3685809,0 -86.2741429,31.3690983,0 -86.27414,31.369132,0 -86.274113,31.369501,0 -86.274103,31.369733,0 -86.274038,31.370467,0 -86.27397000000001,31.370981,0 -86.273912,31.371347,0 -86.273877,31.371513,0 -86.27379000000001,31.371928,0 -86.273704,31.372286,0 -86.273534,31.372939,0 -86.27348000000001,31.373146,0 -86.27343,31.373296,0 -86.273278,31.37381999999999,0 -86.273186,31.374182,0 -86.273087,31.374535,0 -86.272925,31.37515730000001,0 -86.27271399999999,31.375968,0 -86.272228,31.377778,0 -86.271976,31.378719,0 -86.271857,31.3791,0 -86.271823,31.379173,0 -86.271807,31.379247,0 -86.27161099999999,31.379727,0 -86.271519,31.379933,0 -86.27135800000001,31.380275,0 -86.271192,31.380594,0 -86.27099800000001,31.380933,0 -86.270752,31.38132,0 -86.269464,31.38321,0 -86.269049,31.383818,0 -86.26840199999999,31.384767,0 -86.26817200000001,31.385111,0 -86.266518,31.387528,0 -86.26608899999999,31.38817,0 -86.265925,31.388428,0 -86.265648,31.388891,0 -86.265452,31.389244,0 -86.265378,31.38941,0 -86.265208,31.389752,0 -86.26504799999999,31.390093,0 -86.26489599999999,31.390437,0 -86.264618,31.391129,0 -86.26438400000001,31.391734,0 -86.26381000000001,31.39322,0 -86.263672,31.393566,0 -86.263136,31.39496400000001,0 -86.262997,31.395314,0 -86.262975,31.395382,0 -86.262899,31.395538,0 -86.262817,31.395748,0 -86.262793,31.395823,0 -86.262655,31.396171,0 -86.262119,31.397564,0 -86.26188500000001,31.39827,0 -86.26176100000001,31.398743,0 -86.261706,31.399076,0 -86.261675,31.399216,0 -86.261607,31.399655,0 -86.261583,31.399875,0 -86.26155199999999,31.400313,0 -86.261523,31.401508,0 -86.26148499999999,31.403974,0 -86.261426,31.407725,0 -86.26140100000001,31.408941,0 -86.261403,31.409077,0 -86.26138899999999,31.409738,0 -86.261347,31.4128180000001,0 -86.26132,31.414188,0 -86.261234,31.41958,0 -86.26123200000001,31.420068,0 -86.26123200000001,31.4200939999999,0 -86.26120400000001,31.421425,0 -86.261145,31.425092,0 -86.26113100000001,31.425271,0 -86.261133,31.425562,0 -86.261089,31.427986,0 -86.26106799999999,31.429149,0 -86.261065,31.429665,0 -86.261056,31.430172,0 -86.261002,31.433111,0 -86.26098500000001,31.434177,0 -86.26097900000001,31.434569,0 -86.260983,31.434703,0 -86.26096099999999,31.435626,0 -86.26095599999999,31.435807,0 -86.260929,31.436247,0 -86.26085,31.43691,0 -86.26078200000001,31.437271,0 -86.260661,31.437775,0 -86.259975,31.440064,0 -86.25981899999999,31.44056,0 -86.25962,31.4412179999999,0 -86.25926200000001,31.442401,0 -86.257947,31.446782,0 -86.257819,31.44728,0 -86.257735,31.447782,0 -86.257682,31.448287,0 -86.257668,31.448794,0 -86.257698,31.449308,0 -86.25776,31.449812,0 -86.25785999999999,31.450316,0 -86.257912,31.450525,0 -86.25798500000001,31.45077,0 -86.25802400000001,31.4509,0 -86.25812000000001,31.451144,0 -86.258381,31.45174799999999,0 -86.25844600000001,31.451908,0 -86.258578,31.452218,0 -86.258681,31.452447,0 -86.258881,31.452872,0 -86.259916,31.455185,0 -86.260126,31.45562200000001,0 -86.26083300000001,31.457199,0 -86.26146900000001,31.458604,0 -86.262525,31.460961,0 -86.262658,31.461282,0 -86.26286899999999,31.461738,0 -86.263283,31.462664,0 -86.263668,31.463611,0 -86.26396,31.464595,0 -86.264141,31.465613,0 -86.264208,31.466639,0 -86.264172,31.467663,0 -86.264109,31.469195,0 -86.263969,31.472246,0 -86.263912,31.473775,0 -86.263818,31.475803,0 -86.263807,31.476311,0 -86.263817,31.476823,0 -86.263884,31.477596,0 -86.263943,31.47804199999999,0 -86.263989,31.47844,0 -86.264156,31.479095,0 -86.265298,31.483029,0 -86.265754,31.484579,0 -86.265917,31.4851,0 -86.26679,31.488096,0 -86.266914,31.488585,0 -86.26695599999999,31.4888,0 -86.266987,31.489019,0 -86.266999,31.489238,0 -86.266993,31.489461,0 -86.26698,31.489652,0 -86.266924,31.490116,0 -86.266864,31.490448,0 -86.266769,31.490635,0 -86.266682,31.49083600000001,0 -86.266617,31.490966,0 -86.26637599999999,31.491378,0 -86.266238,31.491587,0 -86.26603,31.4918869999999,0 -86.264321,31.49425,0 -86.26400099999999,31.494688,0 -86.263031,31.496018,0 -86.262381,31.496897,0 -86.262157,31.497188,0 -86.261926,31.497471,0 -86.26168699999999,31.497744,0 -86.261442,31.498015,0 -86.26119300000001,31.498279,0 -86.26093400000001,31.498541,0 -86.26066899999999,31.498794,0 -86.26034199999999,31.499086,0 -86.260176,31.499226,0 -86.259975,31.499408,0 -86.259271,31.499973,0 -86.258681,31.500403,0 -86.258072,31.500812,0 -86.257139,31.501403,0 -86.25670100000001,31.501671,0 -86.25632299999999,31.501907,0 -86.254665,31.50294,0 -86.253429,31.503721,0 -86.25063299999999,31.505473,0 -86.25021700000001,31.505734,0 -86.24989100000001,31.505935,0 -86.247158,31.507648,0 -86.246639,31.5079739999999,0 -86.24601800000001,31.508366,0 -86.245711,31.508566,0 -86.245521,31.508697,0 -86.245114,31.508977,0 -86.244818,31.509194,0 -86.244529,31.509415,0 -86.244247,31.509643,0 -86.243966,31.509877,0 -86.243695,31.510117,0 -86.243427,31.510361,0 -86.243166,31.51061,0 -86.242904,31.51087,0 -86.24265,31.51113399999999,0 -86.242406,31.511401,0 -86.242164,31.511677,0 -86.24193099999999,31.511953,0 -86.241704,31.51224,0 -86.241482,31.51253000000001,0 -86.241271,31.512823,0 -86.241066,31.513121,0 -86.24086800000001,31.513423,0 -86.240826,31.51349,0 -86.240675,31.513733,0 -86.240492,31.514048,0 -86.240314,31.514367,0 -86.240143,31.514689,0 -86.239983,31.515014,0 -86.239829,31.515343,0 -86.239683,31.515675,0 -86.23956,31.515988,0 -86.23943300000001,31.516309,0 -86.239149,31.517028,0 -86.238726,31.5180299999999,0 -86.23741200000001,31.521422,0 -86.237155,31.522101,0 -86.236626,31.523454,0 -86.236266,31.52439,0 -86.23599400000001,31.525163,0 -86.235392,31.526732,0 -86.235286,31.526966,0 -86.23518900000001,31.52723,0 -86.235118,31.52743,0 -86.234809,31.528246,0 -86.234021,31.530278,0 -86.23349,31.53163,0 -86.233232,31.5323110000001,0 -86.233115,31.53265499999999,0 -86.233026,31.533007,0 -86.23297100000001,31.533363,0 -86.232929,31.533721,0 -86.232911,31.534082,0 -86.232927,31.534443,0 -86.233064,31.536623,0 -86.233126,31.537712,0 -86.233221,31.538803,0 -86.23328100000001,31.539207,0 -86.233379,31.539658,0 -86.233462,31.539925,0 -86.23356200000001,31.540212,0 -86.2337,31.540548,0 -86.23385,31.54088,0 -86.234016,31.5412000000001,0 -86.23419699999999,31.54151299999999,0 -86.234335,31.541736,0 -86.23459200000001,31.542122,0 -86.234813,31.542412,0 -86.235046,31.542693,0 -86.235291,31.542966,0 -86.235546,31.543224,0 -86.23581799999999,31.543474,0 -86.236098,31.543708,0 -86.237542,31.54484,0 -86.237829,31.545074,0 -86.238096,31.545322,0 -86.238347,31.545593,0 -86.238581,31.545881,0 -86.238792,31.546183,0 -86.238983,31.546499,0 -86.23914600000001,31.546828,0 -86.23929,31.547166,0 -86.239633,31.548026,0 -86.23969700000001,31.548186,0 -86.23994,31.54887,0 -86.24006900000001,31.5492120000001,0 -86.241005,31.551574,0 -86.24128899999999,31.552241,0 -86.241575,31.552858,0 -86.241754,31.55323,0 -86.242634,31.554839,0 -86.242981,31.5554843,0 -86.24338659999999,31.5562623,0 -86.24386440000001,31.5571956,0 -86.2443062,31.5581465,0 -86.24536139999999,31.5605349,0 -86.2455539,31.5609951,0 -86.2457442,31.5614259,0 -86.2459149,31.5618123,0 -86.24622100000001,31.562473,0 -86.24650699999999,31.563139,0 -86.24659800000001,31.56334,0 -86.24680600000001,31.563804,0 -86.247096,31.564471,0 -86.2475673,31.5655386,0 -86.24762370000001,31.5656663,0 -86.247654,31.565735,0 -86.248418,31.567465,0 -86.248728,31.568127,0 -86.24885329999999,31.5683702000001,0 -86.248897,31.568455,0 -86.249071,31.568773,0 -86.249251,31.569087,0 -86.24935499999999,31.56926,0 -86.249438,31.569397,0 -86.2496074,31.5696655,0 -86.24982230000001,31.5699749,0 -86.25006380000001,31.5703179,0 -86.25026099999999,31.570591,0 -86.250483,31.57088,0 -86.25071699999999,31.571161,0 -86.250956,31.571439,0 -86.25145000000001,31.571986,0 -86.2521689,31.5727682,0 -86.253308,31.57402,0 -86.25335699999999,31.5740719999999,0 -86.2539404,31.5747071,0 -86.254677,31.575517,0 -86.2549222,31.5757925,0 -86.2551526,31.5760785,0 -86.25535600000001,31.576374,0 -86.25554579999999,31.5766845,0 -86.25563459999999,31.5768459,0 -86.2557058,31.5770049,0 -86.2557868,31.577171,0 -86.2558532,31.5773358,0 -86.2559476,31.5775999,0 -86.2560265,31.577869,0 -86.25616290000001,31.578407,0 -86.2561887,31.5785141,0 -86.2562994,31.5789435,0 -86.256424,31.5794266,0 -86.2565197,31.579798,0 -86.25656650000001,31.5799862,0 -86.2567505,31.5807265,0 -86.2567919,31.5809011,0 -86.2568138,31.5809933,0 -86.25684099999999,31.581103,0 -86.256861,31.581177,0 -86.256888,31.581278,0 -86.2569416,31.5815019,0 -86.257014,31.581769,0 -86.25702579999999,31.58183,0 -86.257034,31.5819374,0 -86.25712129999999,31.5822711,0 -86.2571477,31.5823721,0 -86.2571784,31.5824622,0 -86.25719290000001,31.5825045,0 -86.2572028,31.5825336,0 -86.25726830000001,31.5827881,0 -86.25730419999999,31.5829274,0 -86.2573221,31.582991,0 -86.2573489,31.5831049,0 -86.257373,31.5832078,0 -86.25739729999999,31.5833088,0 -86.2574187,31.5834171,0 -86.2574279,31.5835034999999,0 -86.2574316,31.5835380000001,0 -86.25743540000001,31.5836651,0 -86.25730900000001,31.5845782,0 -86.2571719,31.5854914,0 -86.2568991,31.5872743,0 -86.25681299999999,31.587655,0 -86.256727,31.587961,0 -86.25658300000001,31.588293,0 -86.2561614,31.5891750000001,0 -86.25593859999999,31.589641,0 -86.255911,31.5896996,0 -86.2558033,31.589991,0 -86.2557166,31.5903409,0 -86.2555445,31.591427,0 -86.2554402,31.592095,0 -86.2553363,31.5927945,0 -86.25531669999999,31.5931301,0 -86.2553176,31.5932805,0 -86.2553346,31.5934289,0 -86.2553583,31.5935759,0 -86.2553887,31.5937238,0 -86.2554373,31.5938609,0 -86.2554876,31.5940077,0 -86.25555730000001,31.5941691,0 -86.25562239999999,31.5942981,0 -86.2556889,31.5944104,0 -86.25577509999999,31.5945402,0 -86.2559845,31.5948012,0 -86.2563464,31.5951948,0 -86.25674359999999,31.5956611,0 -86.25716269999999,31.5961356,0 -86.2588693,31.5981237,0 -86.2591019,31.5984296,0 -86.2592946,31.5987365,0 -86.2600873,31.6000871,0 -86.26087200000001,31.6014366,0 -86.26109270000001,31.6017864,0 -86.26129109999999,31.6020706,0 -86.2619516,31.6029299,0 -86.26276,31.6039623,0 -86.2635367,31.6049955,0 -86.2636467,31.6050716,0 -86.264042,31.605707,0 -86.26417499999999,31.605963,0 -86.264296,31.606224,0 -86.26440700000001,31.60649099999999,0 -86.2644945,31.6067087,0 -86.2645794,31.60694,0 -86.26467409999999,31.6072693,0 -86.2647918,31.6077726,0 -86.2648681,31.6082055,0 -86.2649065,31.608497,0 -86.26493000000001,31.6088045999999,0 -86.2649376,31.6090468,0 -86.26496400000001,31.609723,0 -86.264978,31.609998,0 -86.265018,31.612328,0 -86.265023,31.612404,0 -86.265021,31.6124720000001,0 -86.265044,31.61370000000001,0 -86.265117,31.617168,0 -86.265163,31.61937,0 -86.26517800000001,31.619654,0 -86.26519399999999,31.6198530000001,0 -86.26519999999999,31.62008,0 -86.265203,31.621013,0 -86.26522199999999,31.621961,0 -86.265255,31.623635,0 -86.265263,31.624243,0 -86.265276,31.624862,0 -86.265299,31.625992,0 -86.26531199999999,31.626288,0 -86.2653181,31.6269031,0 -86.265322,31.627303,0 -86.26534700000001,31.628486,0 -86.2653754,31.6298276,0 -86.265384,31.630234,0 -86.26542600000001,31.632011,0 -86.265446,31.633336,0 -86.265477,31.634704,0 -86.265489,31.635722,0 -86.26547600000001,31.636228,0 -86.265435,31.636951,0 -86.26539699999999,31.63742,0 -86.265388,31.637526,0 -86.26531199999999,31.638243,0 -86.265197,31.639399,0 -86.26512,31.64012,0 -86.265064,31.640701,0 -86.264883,31.642479,0 -86.26473059999999,31.6439494,0 -86.264396,31.647177,0 -86.26430999999999,31.648054,0 -86.264276,31.648494,0 -86.26425,31.649001,0 -86.26424799999999,31.649291,0 -86.26427,31.650012,0 -86.264307,31.650341,0 -86.26434999999999,31.650863,0 -86.264404,31.651414,0 -86.264612,31.653145,0 -86.264634,31.653438,0 -86.26471100000001,31.654007,0 -86.26475499999999,31.654385,0 -86.26481099999999,31.654872,0 -86.26486060000001,31.6553882,0 -86.264867,31.655455,0 -86.26490699999999,31.655736,0 -86.26494099999999,31.656027,0 -86.265005,31.6565800000001,0 -86.265107,31.657464,0 -86.26514299999999,31.6577608,0 -86.26517699999999,31.658041,0 -86.265266,31.658767,0 -86.265291,31.659065,0 -86.265399,31.6599269999999,0 -86.26554299999999,31.661146,0 -86.265686,31.6623,0 -86.265719,31.662605,0 -86.26584099999999,31.663733,0 -86.26590400000001,31.664382,0 -86.26597,31.665394,0 -86.265987,31.665828,0 -86.26599400000001,31.666697,0 -86.265979,31.667424,0 -86.265969,31.6675760000001,0 -86.26594799999999,31.668636,0 -86.26593750000001,31.669152,0 -86.26593099999999,31.669473,0 -86.265929,31.669863,0 -86.265916,31.670186,0 -86.265929,31.670517,0 -86.265914,31.670921,0 -86.265911,31.671208,0 -86.265924,31.672375,0 -86.265934,31.673121,0 -86.26594900000001,31.67369,0 -86.265964,31.674183,0 -86.265968,31.674334,0 -86.265967,31.674627,0 -86.26597700000001,31.675199,0 -86.265992,31.675605,0 -86.265995,31.67571,0 -86.266032,31.67728,0 -86.26603900000001,31.677463,0 -86.266059,31.678478,0 -86.266068,31.679202,0 -86.266136,31.681547,0 -86.266133,31.681709,0 -86.266167,31.682512,0 -86.26615200000001,31.683657,0 -86.26615200000001,31.684553,0 -86.266188,31.68608499999999,0 -86.266203,31.686742,0 -86.26622999999999,31.688197,0 -86.266231,31.6882115,0 -86.2662687,31.6887399,0 -86.2662648,31.6889577,0 -86.26625900000001,31.689653,0 -86.26627569999999,31.6910682,0 -86.266262,31.691586,0 -86.26626400000001,31.6918636,0 -86.26626400000001,31.691972,0 -86.26624099999999,31.69256,0 -86.26624200000001,31.692907,0 -86.26622399999999,31.694509,0 -86.266217,31.695037,0 -86.266221,31.695449,0 -86.266227,31.695974,0 -86.2662177,31.6974541,0 -86.266216,31.697729,0 -86.2662,31.697919,0 -86.2661829,31.6981239,0 -86.26617299999999,31.698243,0 -86.266108,31.698674,0 -86.266043,31.6990310000001,0 -86.265962,31.699384,0 -86.265863,31.69973600000001,0 -86.26568,31.70031,0 -86.265586,31.70059,0 -86.26545400000001,31.700985,0 -86.264895,31.702714,0 -86.264807,31.702956,0 -86.2646055,31.7036059,0 -86.264562,31.703746,0 -86.26452449999999,31.703857,0 -86.264359,31.704347,0 -86.264329,31.704436,0 -86.2642817,31.704583,0 -86.2641831,31.7048895,0 -86.264106,31.705129,0 -86.264031,31.705375,0 -86.264,31.705476,0 -86.26391,31.705828,0 -86.263846,31.706186,0 -86.2637958,31.706493,0 -86.26378800000001,31.706541,0 -86.263746,31.706899,0 -86.263734,31.707039,0 -86.263712,31.707453,0 -86.263715,31.70833,0 -86.263722,31.708554,0 -86.263733,31.709758,0 -86.26373700000001,31.710437,0 -86.26374300000001,31.710605,0 -86.263746,31.711232,0 -86.263749,31.711387,0 -86.263755,31.7119466,0 -86.2637577,31.712204,0 -86.26375899999999,31.712325,0 -86.26376,31.712498,0 -86.26376399999999,31.713402,0 -86.263762,31.713845,0 -86.26376500000001,31.71409,0 -86.263774,31.714499,0 -86.263773,31.714835,0 -86.2637869,31.7151517,0 -86.263778,31.715582,0 -86.26378099999999,31.7158,0 -86.26377599999999,31.716115,0 -86.26378699999999,31.716347,0 -86.264056,31.716341,0 -86.264415,31.716343,0 -86.26475499999999,31.716338,0 -86.265139,31.716328,0 -86.265744,31.71632,0 -86.26612900000001,31.716316,0 -86.266464,31.716307,0 -86.26716399999999,31.716306,0 -86.267912,31.716309,0 -86.268196,31.716309,0 -86.268653,31.716303,0 -86.269391,31.716307,0 -86.270589,31.716301,0 -86.271109,31.716298,0 -86.27134599999999,31.716301,0 -86.271692,31.7163,0 -86.272049,31.716293,0 -86.27278200000001,31.7162989999999,0 -86.27318200000001,31.716309,0 -86.273387,31.716331,0 -86.273578,31.716365,0 -86.273718,31.716402,0 -86.273859,31.716446,0 -86.273999,31.716498,0 -86.27413199999999,31.716558,0 -86.27437399999999,31.71670900000001,0 -86.274551,31.71684699999989,0 -86.274709,31.716984,0 -86.274824,31.717099,0 -86.275002,31.717341,0 -86.27507799999999,31.717465,0 -86.2752091,31.7177495,0 -86.27523100000001,31.717797,0 -86.27555049999999,31.7186491,0 -86.275738,31.719149,0 -86.27589,31.71957,0 -86.276054,31.719957,0 -86.27654200000001,31.721241,0 -86.27663699999999,31.721503,0 -86.27684600000001,31.722055,0 -86.276968,31.722362,0 -86.27697999999999,31.722392,0 -86.277151,31.722794,0 -86.2772387,31.7229762,0 -86.2773208,31.7231249,0 -86.277384,31.723244,0 -86.27752700000001,31.723478,0 -86.277654,31.723679,0 -86.27804980000001,31.7242514,0 -86.2793916,31.726002,0 -86.279822,31.726581,0 -86.28004,31.726858,0 -86.28025100000001,31.727147,0 -86.280472,31.727435,0 -86.280708,31.727709,0 -86.28092700000001,31.728,0 -86.281261,31.7283935,0 -86.28173099999999,31.728928,0 -86.2819099,31.7291234,0 -86.282078,31.729307,0 -86.28263320000001,31.7298956,0 -86.282726,31.729994,0 -86.283011,31.730291,0 -86.2831997,31.7305018,0 -86.28367160000001,31.7310291,0 -86.28395620000001,31.7313351,0 -86.28423050000001,31.7316538,0 -86.2851146,31.7326368,0 -86.2853483,31.7328897,0 -86.2866989,31.7343422,0 -86.2869755,31.7346466,0 -86.287201,31.734872,0 -86.287289,31.734984,0 -86.28737599999999,31.735107,0 -86.28748899999999,31.735284,0 -86.287592,31.73547,0 -86.28765300000001,31.735601,0 -86.28767999999999,31.735669,0 -86.287761,31.73587,0 -86.28780500000001,31.736006,0 -86.287836,31.736144,0 -86.28786100000001,31.736286,0 -86.287879,31.736428,0 -86.287888,31.736596,0 -86.28789500000001,31.736718,0 -86.287898,31.737011,0 -86.28788299999999,31.737961,0 -86.2878899,31.738503,0 -86.287908,31.739932,0 -86.287926,31.742992,0 -86.287933,31.743211,0 -86.28794499999999,31.74416,0 -86.287948,31.745298,0 -86.287949,31.745637,0 -86.28794929999999,31.7456746,0 -86.287955,31.746312,0 -86.28797,31.746667,0 -86.287977,31.747447,0 -86.28798999999999,31.747734,0 -86.28801199999999,31.748022,0 -86.288066,31.748455,0 -86.28814,31.748883,0 -86.28823199999999,31.749306,0 -86.288347,31.749724,0 -86.288948,31.75182,0 -86.289422,31.753549,0 -86.28952200000001,31.753935,0 -86.289576,31.754103,0 -86.28963899999999,31.7543699999999,0 -86.289661,31.7544990000001,0 -86.289817,31.755129,0 -86.290318,31.757079,0 -86.290463,31.757751,0 -86.29059100000001,31.758426,0 -86.290918,31.760497,0 -86.29112600000001,31.761876,0 -86.29127,31.762765,0 -86.29131750000001,31.7630471,0 -86.291321,31.763068,0 -86.291493,31.76432,0 -86.291568,31.764972,0 -86.29167700000001,31.766287,0 -86.291758,31.767162,0 -86.29177799999999,31.767398,0 -86.291819,31.767903,0 -86.291883,31.768672,0 -86.291932,31.769324,0 -86.291982,31.769752,0 -86.292042,31.770036,0 -86.292084,31.770175,0 -86.29213300000001,31.770313,0 -86.292188,31.770447,0 -86.292249,31.770576,0 -86.292317,31.770704,0 -86.29239,31.77083,0 -86.292469,31.77095,0 -86.29258799999999,31.7711,0 -86.292759,31.771289,0 -86.293012,31.771566,0 -86.293194,31.771748,0 -86.293323,31.771877,0 -86.29337099999999,31.77193,0 -86.293477,31.772028,0 -86.293772,31.772331,0 -86.294445,31.772998,0 -86.294551,31.773119,0 -86.294684,31.773237,0 -86.295157,31.77372,0 -86.296302,31.774929,0 -86.297398,31.776105,0 -86.29844900000001,31.77724,0 -86.298573,31.7774,0 -86.29864999999999,31.777478,0 -86.298762,31.777592,0 -86.29980500000001,31.778702,0 -86.30085200000001,31.779825,0 -86.301907,31.780974,0 -86.302244,31.781383,0 -86.30253999999999,31.781804,0 -86.302812,31.782245,0 -86.303044,31.782675,0 -86.303265,31.783205,0 -86.303436,31.783677,0 -86.3037949,31.7847288,0 -86.303927,31.785116,0 -86.303977,31.785258,0 -86.304142,31.785727,0 -86.30417300000001,31.785875,0 -86.304261,31.786154,0 -86.30429100000001,31.786222,0 -86.304441,31.786667,0 -86.304832,31.787788,0 -86.305505,31.789775,0 -86.305564,31.789964,0 -86.305589,31.790025,0 -86.30584500000001,31.7907980000001,0 -86.305952,31.791145,0 -86.306051,31.791493,0 -86.306141,31.791842,0 -86.30622200000001,31.792192,0 -86.306297,31.79254999999999,0 -86.30636199999999,31.79290900000001,0 -86.306454,31.79363,0 -86.30651,31.794355,0 -86.306557,31.79508,0 -86.30693890000001,31.8013798,0 -86.306997,31.802338,0 -86.307011,31.802534,0 -86.30704799999999,31.803066,0 -86.30710999999999,31.804038,0 -86.30721200000001,31.805637,0 -86.30727899999999,31.80668,0 -86.307282,31.80673,0 -86.307316,31.807397,0 -86.307337,31.8077,0 -86.30738599999999,31.808253,0 -86.307483,31.808758,0 -86.307621,31.809247,0 -86.307802,31.809727,0 -86.30812400000001,31.810409,0 -86.309555,31.813445,0 -86.309763,31.813891,0 -86.310196,31.814822,0 -86.310614,31.815757,0 -86.31077999999999,31.81624,0 -86.310913,31.816744,0 -86.311019,31.817244,0 -86.31105700000001,31.817452,0 -86.311076,31.817667,0 -86.31108,31.817864,0 -86.311076,31.818334,0 -86.311087,31.818826,0 -86.311074,31.820358,0 -86.311069,31.82495,0 -86.311055,31.829549,0 -86.311059,31.83137,0 -86.311058,31.831966,0 -86.311035,31.832475,0 -86.310958,31.832981,0 -86.3109529,31.8329993,0 -86.310822,31.833474,0 -86.310773,31.833612,0 -86.31073499999999,31.833703,0 -86.310655,31.83393,0 -86.31043699999999,31.83437899999999,0 -86.310159,31.8348,0 -86.309837,31.835203,0 -86.309473,31.835572,0 -86.309083,31.835905,0 -86.308672,31.836206,0 -86.307834,31.836802,0 -86.307436,31.837126,0 -86.307057,31.837472,0 -86.306366,31.838223,0 -86.30577099999999,31.839046,0 -86.30407,31.841593,0 -86.30265300000001,31.843702,0 -86.30211199999999,31.84457,0 -86.301665,31.845488,0 -86.30093599999999,31.84738,0 -86.300704,31.847835,0 -86.300422,31.848262,0 -86.30009800000001,31.848663,0 -86.29974300000001,31.849031,0 -86.29935500000001,31.849366,0 -86.29894,31.849663,0 -86.29851739999999,31.8499426,0 -86.2978217,31.8504029,0 -86.296812,31.851071,0 -86.295964,31.851628,0 -86.29579,31.8517519999999,0 -86.29552,31.851926,0 -86.295064,31.852234,0 -86.293783,31.85307,0 -86.292931,31.853641,0 -86.292526,31.85395,0 -86.292165,31.854295,0 -86.29181699999999,31.854667,0 -86.29151299999999,31.855069,0 -86.29125000000001,31.855508,0 -86.29104,31.855974,0 -86.29079400000001,31.856685,0 -86.29074,31.857028,0 -86.290694,31.857517,0 -86.290707,31.858018,0 -86.290767,31.858525,0 -86.290829,31.858988,0 -86.291175,31.861553,0 -86.29173299999999,31.865599,0 -86.291814,31.866135,0 -86.291832,31.866292,0 -86.29185099999999,31.866453,0 -86.292053,31.86796,0 -86.29220100000001,31.868962,0 -86.29239699999999,31.869965,0 -86.292669,31.870949,0 -86.293729,31.874146,0 -86.29443139999999,31.8762652,0 -86.2949686,31.8778861000001,0 -86.29508,31.8782220000001,0 -86.29557,31.879668,0 -86.2960459,31.8810967,0 -86.296054,31.881121,0 -86.296156,31.881472,0 -86.29656199999999,31.882707,0 -86.296705,31.883112,0 -86.29676499999999,31.883325,0 -86.2975351,31.8856457,0 -86.29771599999999,31.886191,0 -86.297781,31.88636,0 -86.2977899,31.8863913,0 -86.297819,31.886494,0 -86.298276,31.887876,0 -86.298393,31.888217,0 -86.29873499999999,31.889247,0 -86.29885899999999,31.88959,0 -86.29900000000001,31.889929,0 -86.29916,31.890255,0 -86.29934900000001,31.89057,0 -86.299544,31.890846,0 -86.29956,31.890869,0 -86.29979400000001,31.891148,0 -86.30004,31.89141499999999,0 -86.30030499999999,31.891666,0 -86.300588,31.891896,0 -86.30088499999999,31.89211,0 -86.301194,31.892305,0 -86.30151600000001,31.892486,0 -86.30340099999999,31.893497,0 -86.30408300000001,31.893862,0 -86.305363,31.894556,0 -86.305995,31.894913,0 -86.30662,31.895288,0 -86.30723500000001,31.895665,0 -86.30847300000001,31.896439,0 -86.31031,31.897596,0 -86.31062,31.897787,0 -86.310754,31.8978639999999,0 -86.31277900000001,31.899137,0 -86.313298,31.899467,0 -86.31339699999999,31.899521,0 -86.3137,31.899721,0 -86.313992,31.89993,0 -86.314273,31.900153,0 -86.314474,31.900337,0 -86.3147,31.900545,0 -86.314875,31.9007372,0 -86.31503600000001,31.900931,0 -86.315338,31.901342,0 -86.315586,31.901794,0 -86.315781,31.902269,0 -86.315798,31.902321,0 -86.31611599999999,31.903311,0 -86.316153,31.903455,0 -86.316945,31.90604,0 -86.317087,31.90653,0 -86.31720199999999,31.907028,0 -86.317269,31.90753,0 -86.317308,31.908038,0 -86.317306,31.908548,0 -86.31726,31.909054,0 -86.317178,31.909557,0 -86.316999,31.910335,0 -86.31697800000001,31.910419,0 -86.316957,31.910478,0 -86.316272,31.913109,0 -86.31545199999999,31.916202,0 -86.315409,31.916387,0 -86.31534000000001,31.916644,0 -86.315305,31.916762,0 -86.314269,31.920708,0 -86.314195,31.920974,0 -86.313771,31.922606,0 -86.313402,31.924085,0 -86.313357,31.924223,0 -86.313327,31.92435,0 -86.313311,31.924466,0 -86.31330699999999,31.924737,0 -86.313318,31.925008,0 -86.31331900000001,31.925149,0 -86.313333,31.925363,0 -86.313356,31.925578,0 -86.313379,31.92572,0 -86.313513,31.92635900000001,0 -86.313529,31.926434,0 -86.313569,31.926643,0 -86.313613,31.926845,0 -86.313676,31.927143,0 -86.31383700000001,31.92785900000001,0 -86.313907,31.928222,0 -86.31402,31.928737,0 -86.314278,31.929932,0 -86.314425,31.930639,0 -86.31466,31.931707,0 -86.314734,31.932061,0 -86.314849,31.932563,0 -86.314913,31.932865,0 -86.315258,31.93448,0 -86.315293,31.934639,0 -86.31552000000001,31.935687,0 -86.315701,31.936483,0 -86.315766,31.936767,0 -86.315834,31.937117,0 -86.316068,31.938183,0 -86.316151,31.938544,0 -86.31622400000001,31.938903,0 -86.31629100000001,31.939266,0 -86.31632,31.939485,0 -86.316338,31.939706,0 -86.316345,31.939926,0 -86.316333,31.940218,0 -86.31630800000001,31.94051,0 -86.316276,31.940726,0 -86.316198,31.941084,0 -86.316092,31.941432,0 -86.315532,31.943145,0 -86.315341,31.943712,0 -86.314852,31.945237,0 -86.314733,31.945583,0 -86.314519,31.946085,0 -86.314421,31.946318,0 -86.314267,31.946647,0 -86.313942,31.947298,0 -86.313852,31.947496,0 -86.313773,31.9477,0 -86.313732,31.947832,0 -86.313709,31.947908,0 -86.313642,31.948192,0 -86.31360100000001,31.948555,0 -86.31359,31.948771,0 -86.31359399999999,31.948986,0 -86.313626,31.949347,0 -86.313869,31.95114999999999,0 -86.3138794,31.9512439,0 -86.313909,31.95151,0 -86.31392820000001,31.9517339,0 -86.31394,31.951872,0 -86.313965,31.952234,0 -86.31397800000001,31.952599,0 -86.313984,31.952966,0 -86.31397699999999,31.953547,0 -86.313971,31.953736,0 -86.313954,31.954881,0 -86.31393,31.955393,0 -86.31384199999999,31.955893,0 -86.313695,31.956376,0 -86.31350399999999,31.95684,0 -86.313405,31.957024,0 -86.31332399999999,31.957213,0 -86.31318400000001,31.957401,0 -86.313016,31.957641,0 -86.31269899999999,31.958036,0 -86.312005,31.958778,0 -86.311814,31.958999,0 -86.31164699999999,31.959237,0 -86.31150700000001,31.9594960000001,0 -86.311423,31.959774,0 -86.31138300000001,31.960062,0 -86.311397,31.960215,0 -86.31141100000001,31.960358,0 -86.311476,31.960646,0 -86.311584,31.960916,0 -86.311691,31.961129,0 -86.311905,31.961555,0 -86.311915,31.961576,0 -86.31205300000001,31.961838,0 -86.312141,31.962038,0 -86.31227199999999,31.962281,0 -86.312352,31.962391,0 -86.312592,31.962858,0 -86.312591,31.963098,0 -86.312567,31.963421,0 -86.312544,31.963515,0 -86.312533,31.963662,0 -86.31250300000001,31.96382,0 -86.312439,31.964033,0 -86.312394,31.964118,0 -86.312195,31.964491,0 -86.312001,31.964715,0 -86.311808,31.964911,0 -86.31149499999999,31.965148,0 -86.31137,31.965213,0 -86.311171,31.965308,0 -86.310829,31.965438,0 -86.310475,31.96553,0 -86.30904700000001,31.965866,0 -86.30726300000001,31.96628,0 -86.306552,31.966441,0 -86.305483,31.966698,0 -86.305133,31.966797,0 -86.30478599999999,31.966908,0 -86.30444799999999,31.967044,0 -86.30412099999999,31.967201,0 -86.303805,31.96738,0 -86.303673,31.967467,0 -86.30350300000001,31.96758,0 -86.302908,31.968,0 -86.30249499999999,31.968297,0 -86.302396,31.968366,0 -86.30236600000001,31.968387,0 -86.302317,31.96842,0 -86.302278,31.968443,0 -86.302251,31.968463,0 -86.301485,31.969023,0 -86.30063699999999,31.969612,0 -86.30024299999999,31.969892,0 -86.299295,31.970585,0 -86.29823500000001,31.97136,0 -86.29802100000001,31.971522,0 -86.297809,31.971694,0 -86.297577,31.971897,0 -86.297381,31.972081,0 -86.297132,31.97232899999999,0 -86.296898,31.972575,0 -86.296679,31.972817,0 -86.296468,31.973065,0 -86.29616799999999,31.973447,0 -86.29585899999999,31.9738750000001,0 -86.29483,31.9753639999999,0 -86.294293,31.976156,0 -86.293466,31.977358,0 -86.29310700000001,31.97790699999999,0 -86.29290899999999,31.978233,0 -86.292708,31.978608,0 -86.2924953,31.9790789,0 -86.29230099999999,31.979534,0 -86.29213799999999,31.97999,0 -86.292036,31.980338,0 -86.29192399999999,31.980799,0 -86.291839,31.981226,0 -86.291765,31.981703,0 -86.291719,31.98202,0 -86.291709,31.982561,0 -86.291712,31.982895,0 -86.29177799999999,31.984383,0 -86.291811,31.984874,0 -86.291828,31.985128,0 -86.29185099999999,31.985568,0 -86.292089,31.989904,0 -86.29212800000001,31.990606,0 -86.292222,31.992376,0 -86.29244,31.996111,0 -86.292474,31.996892,0 -86.29263899999999,31.999708,0 -86.292659,32.000224,0 -86.292663,32.0006,0 -86.292648,32.000985,0 -86.292624,32.001334,0 -86.292563,32.001863,0 -86.29252200000001,32.002122,0 -86.29247100000001,32.002381,0 -86.29237000000001,32.002797,0 -86.292225,32.00329,0 -86.291808,32.004559,0 -86.291546,32.005387,0 -86.29134999999999,32.005955,0 -86.29121600000001,32.006313,0 -86.290924,32.007022,0 -86.290721,32.007472,0 -86.290584,32.007742,0 -86.29044399999999,32.007998,0 -86.289517,32.00959,0 -86.288466,32.011383,0 -86.287863,32.012411,0 -86.28742,32.013194,0 -86.287199,32.013638,0 -86.28711199999999,32.013849,0 -86.287009,32.014175,0 -86.286951,32.014389,0 -86.286874,32.014742,0 -86.286813,32.015099,0 -86.28677999999999,32.015383,0 -86.28676299999999,32.015656,0 -86.28676299999999,32.015936,0 -86.28677999999999,32.016171,0 -86.286796,32.016361,0 -86.286833,32.016612,0 -86.28688200000001,32.016865,0 -86.28694,32.01711,0 -86.287013,32.017364,0 -86.28708899999999,32.017595,0 -86.28716300000001,32.017792,0 -86.287263,32.0180259999999,0 -86.28742099999999,32.018358,0 -86.287775,32.019032,0 -86.28839499999999,32.020184,0 -86.288872,32.021093,0 -86.28916099999999,32.021627,0 -86.289486,32.022227,0 -86.29005600000001,32.0233,0 -86.29058999999999,32.024347,0 -86.290823,32.024862,0 -86.29120500000001,32.025796,0 -86.291348,32.026214,0 -86.291523,32.026781,0 -86.292323,32.029615,0 -86.29249729999999,32.0302685,0 -86.292592,32.030571,0 -86.292744,32.031014,0 -86.292868,32.031323,0 -86.29301,32.031626,0 -86.293164,32.03191,0 -86.293334,32.032187,0 -86.293572,32.032544,0 -86.293834,32.032905,0 -86.293919,32.03304,0 -86.294858,32.034298,0 -86.29569499999999,32.035431,0 -86.29598799999999,32.035809,0 -86.296295,32.036234,0 -86.29706400000001,32.037273,0 -86.29714300000001,32.037377,0 -86.297479,32.037821,0 -86.29857800000001,32.039304,0 -86.29934900000001,32.04034,0 -86.299954,32.041153,0 -86.30059300000001,32.042011,0 -86.301013,32.042592,0 -86.301194,32.042854,0 -86.301417,32.0432100000001,0 -86.301582,32.043501,0 -86.301754,32.043838,0 -86.30190399999999,32.044172,0 -86.30207900000001,32.044615,0 -86.302222,32.045046,0 -86.302329,32.045442,0 -86.30242699999999,32.045904,0 -86.302492,32.04629,0 -86.30261,32.047078,0 -86.302807,32.048392,0 -86.302976,32.049446,0 -86.30305199999999,32.0499950000001,0 -86.30313099999999,32.05057,0 -86.303181,32.05099,0 -86.303196,32.051236,0 -86.303207,32.051772,0 -86.30320399999999,32.052031,0 -86.303191,32.052279,0 -86.303149,32.052731,0 -86.30304,32.053631,0 -86.303032,32.053697,0 -86.30294000000001,32.054592,0 -86.302903,32.055011,0 -86.302893,32.055172,0 -86.302874,32.055492,0 -86.30287,32.056219,0 -86.302859,32.056634,0 -86.302854,32.056803,0 -86.302854,32.056845,0 -86.30285000000001,32.057383,0 -86.30283799999999,32.058745,0 -86.302837,32.05883,0 -86.302801,32.059897,0 -86.302725,32.061467,0 -86.30260699999999,32.063691,0 -86.30254499999999,32.064667,0 -86.302509,32.065488,0 -86.302471,32.066159,0 -86.30241700000001,32.06709,0 -86.302367,32.068058,0 -86.302201,32.071235,0 -86.302198,32.07143,0 -86.30217399999999,32.071661,0 -86.30214700000001,32.07204,0 -86.302049,32.073943,0 -86.301946,32.075938,0 -86.301931,32.076152,0 -86.30189,32.076498,0 -86.30182600000001,32.076852,0 -86.30178100000001,32.07703,0 -86.301751,32.077151,0 -86.30165100000001,32.077455,0 -86.30157,32.077661,0 -86.301489,32.077843,0 -86.301389,32.0780420000001,0 -86.30128999999999,32.078217,0 -86.301177,32.078401,0 -86.301146,32.078453,0 -86.30104799999999,32.0786,0 -86.300916,32.078773,0 -86.300753,32.078968,0 -86.30044100000001,32.079299,0 -86.30011500000001,32.079605,0 -86.29979,32.07988,0 -86.29970899999999,32.079946,0 -86.299128,32.080419,0 -86.29883770000001,32.0806574,0 -86.298787,32.080699,0 -86.29812200000001,32.081243,0 -86.29672600000001,32.0824,0 -86.29624099999999,32.082804,0 -86.29494,32.083868,0 -86.29482,32.083965,0 -86.29211100000001,32.086205,0 -86.291236,32.086911,0 -86.289959,32.087978,0 -86.289767,32.088107,0 -86.28968500000001,32.088197,0 -86.288554,32.089129,0 -86.287852,32.089697,0 -86.28766400000001,32.089855,0 -86.286844,32.090542,0 -86.286759,32.090609,0 -86.286295,32.090977,0 -86.28555,32.091597,0 -86.284904,32.092126,0 -86.28184899999999,32.0946389,0 -86.2812302,32.0950972,0 -86.2805225,32.095583,0 -86.27947589999999,32.0963102,0 -86.2789444,32.0967107,0 -86.2783386,32.0972054,0 -86.27801959999999,32.0974658,0 -86.2772489,32.0981377,0 -86.27683829999999,32.0985274,0 -86.27650920000001,32.0988782,0 -86.2761447,32.0993249,0 -86.27577789999999,32.0998347,0 -86.2755284,32.1002278,0 -86.2753165,32.1006141,0 -86.27509120000001,32.1011072,0 -86.27483669999999,32.1017837,0 -86.2747323,32.102097,0 -86.2746368,32.1024013,0 -86.27453559999999,32.1028404,0 -86.2744647,32.1034015,0 -86.27441880000001,32.1040104,0 -86.2744148,32.1046061,0 -86.2744635,32.1051606,0 -86.2745216,32.1056765,0 -86.2746015,32.1063855,0 -86.27470649999999,32.107147,0 -86.27473999999999,32.1074291,0 -86.2747641,32.1078245,0 -86.274764,32.1082094,0 -86.27475339999999,32.108547,0 -86.2747452,32.1088047,0 -86.2747435,32.1090256,0 -86.2746968,32.1094331,0 -86.27457219999999,32.1100777,0 -86.27435680000001,32.1109059,0 -86.2741628,32.1117703,0 -86.27410380000001,32.1120086,0 -86.2740313,32.1123838,0 -86.2739797,32.1127939,0 -86.27396,32.1131869,0 -86.2739618,32.1135047,0 -86.27398119999999,32.113791,0 -86.2740031,32.1140296,0 -86.2740527,32.1143189,0 -86.2741082,32.1146295,0 -86.27412820000001,32.1147412,0 -86.2742725,32.1154212,0 -86.27436470000001,32.1158979,0 -86.274421,32.1161569,0 -86.27446930000001,32.1164704,0 -86.27449609999999,32.1168203,0 -86.27451259999999,32.1171738,0 -86.27450399999999,32.1177812,0 -86.274469,32.1181056,0 -86.2744249,32.1184544,0 -86.27436590000001,32.1188021,0 -86.2742866,32.119131,0 -86.27404799999999,32.1199905999999,0 -86.2735443,32.1216311,0 -86.2733793,32.1221768,0 -86.2732895,32.1225255,0 -86.27321360000001,32.1229442,0 -86.2731587,32.1233541,0 -86.2731517,32.1234752,0 -86.2731357,32.1237558,0 -86.273141,32.1242908,0 -86.2731696,32.1246043,0 -86.2732321,32.1250638,0 -86.27333299999999,32.1255824,0 -86.2734329,32.1259676,0 -86.273498,32.1262034,0 -86.2735752,32.1264307,0 -86.2736708,32.1267233,0 -86.2738205,32.1271319,0 -86.2741077,32.1279154,0 -86.2745444,32.1290576,0 -86.2748155,32.1299265,0 -86.275048,32.1308919,0 -86.2750655,32.1309874,0 -86.27513190000001,32.131349,0 -86.27516350000001,32.1315233,0 -86.2751746,32.1316102,0 -86.2752562,32.1322459,0 -86.2753215,32.1330416,0 -86.2753682,32.1335989,0 -86.2754068,32.1341618,0 -86.2754137,32.1343897,0 -86.2754209,32.1346264,0 -86.27541859999999,32.1350931,0 -86.2753986,32.1355729,0 -86.2753586,32.1361321,0 -86.2753313,32.136417,0 -86.2752851,32.1368232,0 -86.2752357,32.1371384,0 -86.2751201,32.1377356,0 -86.2749625,32.1384009,0 -86.27474599999999,32.13904,0 -86.274497,32.139752,0 -86.274193,32.140693,0 -86.273869,32.141665,0 -86.273748,32.142021,0 -86.27316999999999,32.1437249,0 -86.273135,32.143828,0 -86.27279679999999,32.1448644,0 -86.272657,32.145293,0 -86.2721123,32.1469003,0 -86.2720187,32.1471762,0 -86.27197099999999,32.147317,0 -86.27148099999999,32.1487630000001,0 -86.2713969,32.1490772,0 -86.271219,32.14972,0 -86.27120410000001,32.1497785,0 -86.271153,32.150032,0 -86.271119,32.150249,0 -86.27110500000001,32.150393,0 -86.27108800000001,32.150571,0 -86.2710853,32.1508631,0 -86.27106499999999,32.151725,0 -86.27106999999999,32.152448,0 -86.27108200000001,32.154232,0 -86.27109,32.155608,0 -86.2710958,32.1562155,0 -86.271112,32.157584,0 -86.27111069999999,32.1581056,0 -86.27110999999999,32.158378,0 -86.27111600000001,32.159287,0 -86.27112200000001,32.1601920000001,0 -86.27113900000001,32.160907,0 -86.271146,32.161474,0 -86.27113799999999,32.161609,0 -86.271128,32.161758,0 -86.271142,32.162002,0 -86.271181,32.163389,0 -86.271224,32.164361,0 -86.271244,32.1648,0 -86.271259,32.165354,0 -86.27128690000001,32.1658983,0 -86.2712921,32.1659996,0 -86.2712411,32.1668169,0 -86.2711767,32.1672483,0 -86.2710802,32.167766,0 -86.27097689999999,32.1681831,0 -86.270077,32.1709537,0 -86.2695835,32.1724249,0 -86.2691334,32.1738834,0 -86.2689773,32.1744954,0 -86.2688545,32.1752365,0 -86.2688003,32.1761119,0 -86.2687842,32.176457,0 -86.26884320000001,32.1772697,0 -86.2689349,32.1780198,0 -86.2691801,32.178982,0 -86.2693694,32.1795544,0 -86.2695674,32.1800757,0 -86.26985759999999,32.1806986,0 -86.27019559999999,32.1814114,0 -86.2707261,32.1824502,0 -86.2711504,32.1832048,0 -86.2714531,32.1836738,0 -86.2721277,32.1846175,0 -86.2726279,32.1852424,0 -86.2731831,32.1858667,0 -86.27389119999999,32.1866203,0 -86.27506339999999,32.1878711,0 -86.2760263,32.1888789,0 -86.2767746,32.1896938,0 -86.27790109999999,32.1908765,0 -86.278797,32.1918412,0 -86.27951849999999,32.1926038,0 -86.2799155,32.1930238,0 -86.2811627,32.1943584,0 -86.2823563,32.1956272,0 -86.28347479999999,32.196812,0 -86.2842794,32.1976768,0 -86.2850466,32.1985302,0 -86.28539259999999,32.1989728,0 -86.2859129,32.1996968,0 -86.2864493,32.2005616,0 -86.2867095,32.2010155,0 -86.2870314,32.2016578,0 -86.2873264,32.2023274,0 -86.28788470000001,32.2035788,0 -86.28856330000001,32.2050991,0 -86.28880959999999,32.2056573,0 -86.2894754,32.2071615,0 -86.29017760000001,32.2087406,0 -86.2907898,32.2101871,0 -86.2912731,32.2114573,0 -86.2916458,32.2126114,0 -86.2919591,32.2136413,0 -86.2920283,32.2138978,0 -86.2924443,32.2155654,0 -86.292693,32.216788,0 -86.2928576,32.2177542,0 -86.2929729,32.2186788,0 -86.29306269999999,32.2194877,0 -86.2931328,32.2203512,0 -86.29315800000001,32.2207331,0 -86.29321349999999,32.2221594,0 -86.2932393,32.2232356,0 -86.2932673,32.2248491,0 -86.2933433,32.2286874,0 -86.2933771,32.2307098,0 -86.2934066,32.2316284,0 -86.2934465,32.2325091,0 -86.2934858,32.2335693,0 -86.2935446,32.234333,0 -86.2936231,32.2350848000001,0 -86.2937045,32.2356944,0 -86.29381100000001,32.2362968,0 -86.2939848,32.2371766,0 -86.29417549999999,32.2379854,0 -86.29437179999999,32.2387087,0 -86.29453719999999,32.2392447,0 -86.2947867,32.2400083,0 -86.29505589999999,32.2407412,0 -86.2954716,32.2417235,0 -86.2957584,32.2423546,0 -86.2961153,32.2430555,0 -86.2966225,32.2440327,0 -86.2970392,32.2447391,0 -86.29752689999999,32.2455272,0 -86.29825649999999,32.2467178,0 -86.29897819999999,32.2478659,0 -86.3005426,32.2503936,0 -86.3009392,32.2510408,0 -86.30115720000001,32.2514802,0 -86.3013357,32.2519295,0 -86.30144110000001,32.2523198,0 -86.3015022,32.2526136,0 -86.30194899999999,32.2551625,0 -86.3021404,32.2563809,0 -86.3021555,32.2564773,0 -86.302446,32.2582238,0 -86.3025248,32.258891,0 -86.302553,32.2593001,0 -86.3025908,32.2602118,0 -86.3025523,32.2615274,0 -86.3025068,32.2632511,0 -86.3024838,32.2645809,0 -86.30248779999999,32.2648769999999,0 -86.3025068,32.2662786,0 -86.3025274,32.2674242,0 -86.30253399999999,32.268268,0 -86.302558,32.26905,0 -86.302573,32.269199,0 -86.302587,32.269336,0 -86.302594,32.269405,0 -86.3026017,32.2694492,0 -86.30265799999999,32.269771,0 -86.30274,32.270122,0 -86.302888,32.270649,0 -86.30299100000001,32.27095,0 -86.303117,32.271258,0 -86.303166,32.271361,0 -86.303271,32.2715645,0 -86.303406,32.271827,0 -86.303808,32.272487,0 -86.30429700000001,32.273282,0 -86.305784,32.275702,0 -86.306027,32.276103,0 -86.306257,32.2765,0 -86.306403,32.276789,0 -86.306533,32.277094,0 -86.306641,32.277392,0 -86.3068214,32.2779486,0 -86.30689099999999,32.278252,0 -86.306957,32.278592,0 -86.30700899999999,32.27897,0 -86.307039,32.279359,0 -86.307057,32.280408,0 -86.30710620000001,32.2843558,0 -86.307121,32.285539,0 -86.3071235,32.2857511,0 -86.30712699999999,32.286042,0 -86.30717199999999,32.2886466,0 -86.3071734,32.288912,0 -86.307192,32.290059,0 -86.30720119999999,32.2904839,0 -86.307205,32.2906572,0 -86.3072078,32.2912379,0 -86.3072118,32.291391,0 -86.30721699999999,32.2915857,0 -86.3072219,32.2917712,0 -86.3072274,32.2925422,0 -86.307233,32.2933201,0 -86.3072344,32.2936327,0 -86.3072389,32.2938318,0 -86.3072504,32.294412,0 -86.3072561,32.2949959,0 -86.3072719,32.2959977,0 -86.3072403,32.2972467,0 -86.3071994,32.2975828,0 -86.3071216,32.2980406,0 -86.3070948,32.2982581,0 -86.30708629999999,32.2985294,0 -86.30709899999999,32.2988797,0 -86.3071443,32.2992526,0 -86.307215,32.2996458,0 -86.3072531,32.2998538,0 -86.3072998,32.3002064,0 -86.3073309,32.3006629,0 -86.3073535,32.3022167,0 -86.3074132,32.3066501,0 -86.3074392,32.3089403,0 -86.3074718,32.3111186,0 -86.30748920000001,32.3122834,0 -86.3074932,32.3129915,0 -86.30756719999999,32.3171067,0 -86.3075912,32.3179078,0 -86.3076432,32.3191161,0 -86.3077176,32.3195701,0 -86.3077426,32.321209,0 -86.307754,32.321731,0 -86.307768,32.322522,0 -86.307811,32.324894,0 -86.3078285,32.3256575,0 -86.3078324,32.3258274,0 -86.30783700000001,32.3260262,0 -86.3078421,32.3262505,0 -86.307846,32.326421,0 -86.3078443,32.3266694,0 -86.3078431,32.3268421,0 
				</coordinates>
			</LineString>
		<atom:link rel="app" href="https://www.google.com/earth/about/versions/#earth-pro" title="Google Earth Pro 7.3.6.10201"></atom:link>
	</Placemark>
</Document>
</kml>
