<?xml version="1.0" encoding="UTF-8"?>
<kml xmlns="http://www.opengis.net/kml/2.2" xmlns:gx="http://www.google.com/kml/ext/2.2" xmlns:kml="http://www.opengis.net/kml/2.2" xmlns:atom="http://www.w3.org/2005/Atom">
<Document>
	<name>US.425.kml</name>
	<Placemark>
		<name>US.425</name>
		<LineString>
			<coordinates>
				-91.39012270000002,31.529845,0 -91.3903287,31.5302217,0 -91.39053579999999,31.5305909,0 -91.3907648,31.5310384,0 -91.3910478,31.5315126,0 -91.3911016,31.5315949,0 -91.39115939999999,31.5316831,0 -91.39120200000001,31.5317483,0 -91.391372,31.5319346,0 -91.3917714,31.5323135,0 -91.39239069999999,31.5328582,0 -91.39291299999999,31.533377,0 -91.39324559999999,31.5338024,0 -91.393579,31.5343317,0 -91.3937863,31.5346606,0 -91.39391910000001,31.5348554,0 -91.3942031,31.5353638,0 -91.394555,31.5361088,0 -91.39480039999999,31.5367053,0 -91.3950389,31.5373515,0 -91.39525689999999,31.5378241,0 -91.39549590000001,31.5381907,0 -91.3958135,31.53849,0 -91.39626250000001,31.5388537,0 -91.3966959,31.5391650999999,0 -91.39680859999999,31.5392310000001,0 -91.39733219999999,31.5395368,0 -91.3978262,31.5397732,0 -91.39830689999999,31.5399851,0 -91.39902790000001,31.5402347,0 -91.39971099999998,31.540466,0 -91.40048700000001,31.5408009,0 -91.40104159999999,31.5410894,0 -91.4011284,31.5411348,0 -91.40115059999999,31.5411461,0 -91.40183480000002,31.5416008,0 -91.4024024,31.5420141,0 -91.40285299999999,31.5424833,0 -91.4029099,31.5425457,0 -91.40357880000001,31.5432389,0 -91.4045251,31.5446433,0 -91.40488279999998,31.5450847,0 -91.40493329999998,31.5451471,0 -91.4054027,31.5456253,0 -91.40589419999999,31.5461806,0 -91.4084541,31.5486474,0 -91.4084716,31.5486643,0 -91.40913379999999,31.5492927,0 -91.4097493,31.5498768,0 -91.4098271,31.5499506,0 -91.4102951,31.5504249,0 -91.4106491,31.5507527,0 -91.4107826,31.5508764,0 -91.4110931,31.5511892,0 -91.4113438,31.5514324999999,0 -91.41142630000002,31.5515135,0 -91.411616,31.5516974,0 -91.4117797,31.5518560999999,0 -91.41191480000001,31.5519498,0 -91.41201270000001,31.5520321,0 -91.4123173,31.55239449999999,0 -91.412414,31.5524893,0 -91.41272050000001,31.5527901,0 -91.4131738,31.5532289,0 -91.41377559999999,31.5537898,0 -91.41404100000001,31.5540441,0 -91.4140755,31.5540764,0 -91.4142597,31.5542489,0 -91.41455760000001,31.5545278,0 -91.41513259999999,31.5550611,0 -91.4155432,31.5554543,0 -91.41607380000002,31.5559355,0 -91.42066629999998,31.5603127,0 -91.42509980000001,31.5646455,0 -91.42569349999999,31.5652071,0 -91.42592670000001,31.5654061,0 -91.4266117,31.5659488,0 -91.42736849999999,31.566468,0 -91.4276809,31.5666621000001,0 -91.4278699,31.5667677,0 -91.42806000000002,31.5668667,0 -91.4281975,31.5669267,0 -91.4283944,31.5670086,0 -91.4289148,31.5672194,0 -91.4293438,31.5673529,0 -91.42947249999999,31.56735309999999,0 -91.4301686,31.567578,0 -91.4302678,31.5676077,0 -91.43054789999998,31.5676997,0 -91.4309203,31.5678203,0 -91.4316393,31.5680337,0 -91.4325228,31.5683232,0 -91.4327303,31.568384,0 -91.4347653,31.5690358,0 -91.43508629999999,31.5691325,0 -91.43522900000001,31.569177,0 -91.43533050000002,31.5692109,0 -91.43538989999999,31.569229,0 -91.43543440000001,31.5692434,0 -91.43571209999999,31.5693368,0 -91.43598710000001,31.569414,0 -91.436329,31.5695268,0 -91.4368594,31.5696914,0 -91.43754499999999,31.5698995,0 -91.43771870000002,31.5699522,0 -91.4377794,31.5699725,0 -91.43812610000001,31.5700791,0 -91.4383271,31.5701431,0 -91.43852490000002,31.5702062,0 -91.43862410000001,31.5702378,0 -91.43894279999999,31.5703441,0 -91.4395136,31.57052029999999,0 -91.4403002,31.5707719,0 -91.4410264,31.5710005,0 -91.44124479999999,31.57105960000001,0 -91.44163550000002,31.571188,0 -91.44187380000001,31.5712524,0 -91.4421849,31.5713365,0 -91.44252539999999,31.5714285,0 -91.44274179999999,31.571487,0 -91.44362710000001,31.5716934,0 -91.44426230000001,31.5718302,0 -91.44458059999998,31.5718883,0 -91.44479060000002,31.5719226,0 -91.444946,31.5719485,0 -91.44532839999999,31.5720084,0 -91.44621290000001,31.57214,0 -91.44653630000001,31.5721985,0 -91.44667750000001,31.5722241,0 -91.44723000000002,31.5723017,0 -91.44736159999999,31.5723232,0 -91.44833010000001,31.5724692,0 -91.44940990000001,31.5726369,0 -91.45149630000002,31.5729602,0 -91.45151439999999,31.5729635,0 -91.45280510000001,31.5731966,0 -91.45341109999998,31.5733061,0 -91.4539269,31.5733831000001,0 -91.4541569,31.5734237,0 -91.4545256,31.5734967,0 -91.45500850000001,31.5735768000001,0 -91.45546120000002,31.5736588,0 -91.4563248,31.573793,0 -91.4573054,31.5739468,0 -91.45813469999999,31.5740732,0 -91.45822440000001,31.5740869,0 -91.4599901,31.5743565,0 -91.4605523,31.574441,0 -91.4622385,31.5746945,0 -91.46345749999999,31.5748683999999,0 -91.46380119999999,31.5749249,0 -91.46383930000002,31.5749298,0 -91.46461980000001,31.5750311000001,0 -91.46476719999998,31.5750545,0 -91.4651379,31.5751135,0 -91.46574769999999,31.5752174,0 -91.46666859999999,31.5753525,0 -91.4674672,31.575466,0 -91.46836060000001,31.5755934,0 -91.46946130000001,31.5757797,0 -91.46967029999999,31.5758151,0 -91.46980929999998,31.5758387000001,0 -91.47061199999999,31.5759759999999,0 -91.4710736,31.5759876,0 -91.4715339,31.5760588,0 -91.47221139999999,31.5761633,0 -91.47284630000001,31.5762641,0 -91.4734627,31.5763953,0 -91.47379820000002,31.5764829,0 -91.4740011,31.576537,0 -91.47411909999998,31.5765727,0 -91.4747921,31.5767887,0 -91.4749994,31.5768607,0 -91.4753235,31.5769631,0 -91.47714379999999,31.5775481,0 -91.4781701,31.577879,0 -91.4785303,31.5779983,0 -91.4794428,31.5782921,0 -91.48083020000001,31.578742,0 -91.4812457,31.5788745,0 -91.4819322,31.5790954,0 -91.48328669999998,31.5795297,0 -91.48396869999999,31.5797543,0 -91.487488,31.5808874,0 -91.48808929999998,31.5810971,0 -91.4887626,31.5813626,0 -91.4888921,31.5814123,0 -91.48911079999999,31.5815176,0 -91.48962739999999,31.5817707,0 -91.4897759,31.58185659999999,0 -91.4905624,31.582288,0 -91.49124999999999,31.5826748,0 -91.4916923,31.5829171,0 -91.4921343,31.5831667,0 -91.49305369999999,31.5836817,0 -91.493588,31.5839803,0 -91.49474139999998,31.5846221,0 -91.49495980000002,31.5847462,0 -91.4953538,31.5849686,0 -91.4961983,31.5854384,0 -91.497096,31.5859676,0 -91.4974742,31.5862153,0 -91.4979136,31.5865319,0 -91.4984644,31.5869735,0 -91.49884110000001,31.5872781,0 -91.49939369999998,31.5877322,0 -91.5000924,31.5883102,0 -91.5008775,31.5889562,0 -91.5030617,31.590747,0 -91.50433409999998,31.5917927,0 -91.5048287,31.5921993,0 -91.5052656,31.592566,0 -91.50566910000002,31.5929057,0 -91.5071574,31.594206,0 -91.508702,31.5955511,0 -91.50946439999998,31.5962208,0 -91.5113147,31.5978363,0 -91.5129084,31.5992287,0 -91.5140433,31.6002139,0 -91.51418150000002,31.600337,0 -91.51502799999999,31.601075,0 -91.5153858,31.6013869,0 -91.51666880000001,31.6025175,0 -91.51676219999999,31.602599,0 -91.51716740000001,31.6029524,0 -91.51768939999999,31.6034024,0 -91.5184284,31.6040492999999,0 -91.5187928,31.6043686,0 -91.51927229999998,31.6047864,0 -91.51954520000001,31.6050015,0 -91.51993709999999,31.6052966,0 -91.5201756,31.6054584,0 -91.52042799999998,31.6056233,0 -91.5207003,31.6057807,0 -91.52110709999999,31.606005,0 -91.52189960000001,31.6064071,0 -91.52253929999999,31.6067297,0 -91.52336389999999,31.6071493,0 -91.52493100000001,31.6079505,0 -91.52538940000001,31.608171,0 -91.52613839999998,31.6085494,0 -91.5271564,31.6090666,0 -91.5282718,31.6096286,0 -91.5298373,31.61042520000001,0 -91.5309955,31.6110116,0 -91.53218990000001,31.6116068,0 -91.53253890000001,31.6117709,0 -91.5328456,31.61190149999999,0 -91.53324190000001,31.6120543,0 -91.53365629999999,31.6121948,0 -91.53420610000001,31.6123595,0 -91.53465269999998,31.61249400000001,0 -91.5358729,31.6128636,0 -91.53736840000001,31.613314,0 -91.5391132,31.6138405,0 -91.54026929999999,31.6141877,0 -91.54117589999998,31.614465,0 -91.5424264,31.6148394,0 -91.54391579999999,31.6152853,0 -91.5448652,31.6155742,0 -91.54582550000001,31.615862,0 -91.54669749999999,31.6161202,0 -91.54761159999998,31.6163927,0 -91.5484111,31.6166363,0 -91.54935959999999,31.61692710000001,0 -91.549826,31.6170627,0 -91.55017470000001,31.6171719,0 -91.55046420000001,31.6172793,0 -91.55070859999999,31.6174004,0 -91.5508844,31.6175032999999,0 -91.55105709999999,31.617621,0 -91.55161680000001,31.6181194,0 -91.55227749999999,31.618716,0 -91.553122,31.619453,0 -91.55345650000001,31.6197877,0 -91.55368240000001,31.6199888,0 -91.55383380000001,31.6201381,0 -91.55426970000001,31.6205243,0 -91.55456270000001,31.6207979,0 -91.554761,31.620982,0 -91.55501900000002,31.621275,0 -91.555122,31.621442,0 -91.5552112,31.6216724000001,0 -91.5552469,31.6218177000001,0 -91.5552747,31.6220914,0 -91.5552208,31.62242,0 -91.555195,31.623561,0 -91.55515800000001,31.624682,0 -91.555138,31.625024,0 -91.555097,31.62571399999999,0 -91.55509000000001,31.626255,0 -91.55508299999998,31.626744,0 -91.55506300000002,31.627223,0 -91.55503899999998,31.627789,0 -91.55501599999999,31.628291,0 -91.55499399999999,31.628819,0 -91.5549884,31.6290127,0 -91.5549817,31.6292455,0 -91.5549742,31.6295075,0 -91.554967,31.6297590000001,0 -91.554964,31.629883,0 -91.55493930000002,31.6308026,0 -91.554936,31.630925,0 -91.554903,31.631969,0 -91.55486399999999,31.633019,0 -91.55482799999999,31.634042,0 -91.554794,31.635008,0 -91.55479099999999,31.63548,0 -91.554776,31.635996,0 -91.554744,31.6367506,0 -91.55473590000001,31.636985,0 -91.55472509999998,31.6373009,0 -91.55470579999999,31.637991,0 -91.55467110000001,31.6389729,0 -91.5546427,31.6397946,0 -91.55461590000002,31.6406086,0 -91.55459739999999,31.6412208,0 -91.55458539999998,31.6413836,0 -91.5545554,31.6421964,0 -91.55454089999999,31.6427425,0 -91.5545291,31.6430029,0 -91.55451050000001,31.64369020000001,0 -91.55447840000001,31.6441385,0 -91.55444369999999,31.644468,0 -91.55441660000001,31.6447403,0 -91.5543681,31.6450126,0 -91.5543205,31.6452667,0 -91.55420920000002,31.6457872,0 -91.5540799,31.6462762,0 -91.5539507,31.6466967,0 -91.55384720000002,31.6470409,0 -91.55370689999999,31.6474064,0 -91.55360569999999,31.6476757,0 -91.5532738,31.648454,0 -91.5531831,31.6486462,0 -91.5526471,31.6497119,0 -91.55220509999999,31.6505524,0 -91.55170740000001,31.6514715,0 -91.55157529999998,31.6517154,0 -91.55128980000001,31.65228,0 -91.55106350000001,31.6527138,0 -91.55048600000001,31.6538207,0 -91.5504873,31.6539501,0 -91.55031700000001,31.654285,0 -91.55017399999998,31.654556,0 -91.55005700000001,31.654778,0 -91.54983300000001,31.655233,0 -91.54946099999999,31.655953,0 -91.54899399999999,31.656856,0 -91.547932,31.658854,0 -91.547363,31.659957,0 -91.54634900000002,31.661922,0 -91.54458,31.66527,0 -91.54299099999999,31.668276,0 -91.542703,31.668822,0 -91.54197800000001,31.670317,0 -91.54157499999999,31.6713,0 -91.54118600000001,31.672492,0 -91.541011,31.673297,0 -91.54088099999998,31.674072,0 -91.54076100000002,31.675275,0 -91.54075200000001,31.675482,0 -91.540728,31.676047,0 -91.54064200000001,31.677322,0 -91.54061799999999,31.67792,0 -91.540564,31.679267,0 -91.540449,31.6813579999999,0 -91.540361,31.683365,0 -91.540322,31.68434999999999,0 -91.54027699999999,31.685085,0 -91.54021700000001,31.68605,0 -91.540143,31.687526,0 -91.54013,31.687793,0 -91.54006299999999,31.6893730000001,0 -91.5399614,31.6911432,0 -91.539911,31.692016,0 -91.539828,31.693583,0 -91.53968599999999,31.696298,0 -91.539512,31.699672,0 -91.53945300000001,31.700739,0 -91.539374,31.702431,0 -91.539272,31.704603,0 -91.53909199999998,31.707967,0 -91.53888400000001,31.710321,0 -91.538811,31.711147,0 -91.53878039999998,31.7116143,0 -91.53885,31.7123086,0 -91.53886379999999,31.7124472,0 -91.53897600000001,31.7130428,0 -91.5392013,31.7138825,0 -91.53950169999999,31.7145943,0 -91.5396377,31.7148723,0 -91.5399147,31.7154385999999,0 -91.5401615,31.71578540000001,0 -91.5407682,31.7166912,0 -91.54210399999999,31.7186032,0 -91.54358449999999,31.7207661,0 -91.54433539999999,31.7218487,0 -91.54434089999999,31.7218567,0 -91.544753,31.722481,0 -91.5449144,31.7227022,0 -91.54620970000001,31.7244769,0 -91.546341,31.7246760000001,0 -91.54643400000002,31.724806,0 -91.546521,31.724935,0 -91.54660100000001,31.725062,0 -91.54667399999998,31.725188,0 -91.54680200000001,31.72543,0 -91.54685600000001,31.725544,0 -91.54698100000002,31.725842,0 -91.547011,31.72592,0 -91.547037,31.725984,0 -91.54705460000001,31.7260691,0 -91.54718200000002,31.7266449999999,0 -91.54720399999999,31.72718800000001,0 -91.54715689999999,31.7277538,0 -91.5470286,31.7282197,0 -91.54689689999998,31.7286213,0 -91.5466251,31.7291489,0 -91.54510099999999,31.731473,0 -91.54389209999999,31.7334152999999,0 -91.54248200000001,31.7355831,0 -91.5418367,31.7366553,0 -91.5414997,31.7371781,0 -91.5413649,31.7374222,0 -91.54130120000001,31.7375468000001,0 -91.5412422,31.7376719,0 -91.5411876,31.7377998,0 -91.54113630000001,31.7379277,0 -91.54108720000001,31.7380566,0 -91.5410411,31.7381863,0 -91.5409983,31.7383162,0 -91.54096060000001,31.7384464,0 -91.54092810000002,31.7385773,0 -91.5408992,31.7387099,0 -91.5408764,31.7388461,0 -91.540857,31.7389819,0 -91.54084090000001,31.7391173,0 -91.5408268,31.7392536,0 -91.54081480000001,31.7395219,0 -91.5408201,31.7397845,0 -91.5408278,31.7399224,0 -91.5408396,31.7400563,0 -91.54085569999999,31.7401903,0 -91.54087440000001,31.7403239999999,0 -91.5409267,31.7405886,0 -91.5409576,31.7407195,0 -91.5409935,31.7408495,0 -91.541031,31.7409804,0 -91.54107429999999,31.7411104,0 -91.54112240000001,31.7412378,0 -91.541174,31.7413631999999,0 -91.54126869999999,31.7415719,0 -91.5413975,31.7418238,0 -91.54154490000001,31.7420729,0 -91.54168609999999,31.7422888,0 -91.54184170000001,31.7424998,0 -91.54200969999999,31.7427025,0 -91.542185,31.7428984,0 -91.5428368,31.7435968,0 -91.5478487,31.7489686,0 -91.5484608,31.7496245,0 -91.55015760000001,31.75144,0 -91.55145120000002,31.7528296,0 -91.55273109999999,31.7542006,0 -91.55452940000001,31.7561271,0 -91.55476270000001,31.7563767,0 -91.55525900000001,31.756916,0 -91.557264,31.759091,0 -91.55917700000001,31.761072,0 -91.559618,31.7615860000001,0 -91.56047840000001,31.7625021,0 -91.561187,31.763259,0 -91.56179000000002,31.7639,0 -91.5623818,31.764525,0 -91.56253800000002,31.76469,0 -91.563751,31.765989,0 -91.5650277,31.7673576,0 -91.56605999999999,31.76848,0 -91.56704999999999,31.76955,0 -91.56781909999999,31.770378,0 -91.56817640000001,31.7707562,0 -91.56852000000001,31.77112,0 -91.56873999999999,31.77138,0 -91.56887,31.77154,0 -91.56919000000001,31.77199,0 -91.56939,31.77231,0 -91.569565,31.7726226,0 -91.56967,31.77281,0 -91.56982000000001,31.7731,0 -91.5705471,31.7745631,0 -91.570644,31.774758,0 -91.57173999999999,31.77696,0 -91.57235000000001,31.77821,0 -91.5725393,31.778566,0 -91.57281,31.77911,0 -91.5743138,31.7821109,0 -91.5748308,31.7831426,0 -91.57505,31.78358,0 -91.57543,31.78433,0 -91.57604000000001,31.78556,0 -91.576528,31.7865272,0 -91.57701,31.7875,0 -91.57713000000001,31.78774,0 -91.57718,31.78783,0 -91.57741000000001,31.78831,0 -91.57775000000001,31.78898,0 -91.578332,31.7901579,0 -91.57859000000001,31.79065,0 -91.57890999999999,31.79127,0 -91.57951,31.7925,0 -91.57982,31.79315,0 -91.57991000000001,31.79331000000001,0 -91.58048770000001,31.7944929,0 -91.58073999999999,31.79498,0 -91.58118999999999,31.79586,0 -91.58229,31.79808,0 -91.58264769999998,31.7988008,0 -91.58326,31.80004,0 -91.58360999999999,31.80072,0 -91.58449,31.80249999999999,0 -91.58579999999999,31.80514,0 -91.58590569999998,31.8053568,0 -91.58619000000002,31.80594,0 -91.5870089,31.8075521,0 -91.58735999999999,31.8082200000001,0 -91.58772999999999,31.80898,0 -91.58804000000001,31.80958,0 -91.58921290000001,31.8118835,0 -91.58951999999999,31.81253,0 -91.589732,31.812983,0 -91.58982,31.81317,0 -91.58987179999998,31.8132713,0 -91.59029,31.81409,0 -91.590782,31.81508,0 -91.591903,31.817319,0 -91.59213999999999,31.817819,0 -91.592292,31.818099,0 -91.59249800000002,31.818569,0 -91.59268899999999,31.818939,0 -91.592842,31.81933,0 -91.592872,31.819389,0 -91.59310899999998,31.820079,0 -91.59323799999999,31.82043,0 -91.59339900000001,31.82088,0 -91.593658,31.82154999999999,0 -91.59380000000002,31.82185,0 -91.59395000000001,31.82217,0 -91.59456,31.82341,0 -91.5948147,31.8239133,0 -91.5949,31.82405,0 -91.59498499999999,31.824231,0 -91.59531000000001,31.82492,0 -91.59558999999999,31.82545,0 -91.59566439999999,31.8256058,0 -91.59572200000001,31.8256830000001,0 -91.59580999999999,31.82584,0 -91.59608000000001,31.82625,0 -91.59632000000001,31.82657,0 -91.59702999999999,31.82735,0 -91.59721,31.82753,0 -91.597374,31.827672,0 -91.5974463,31.8277354,0 -91.59752,31.8278,0 -91.59789000000001,31.8281,0 -91.59822,31.82834,0 -91.59862,31.8286,0 -91.59952,31.8291,0 -91.6016157,31.8302146,0 -91.60218999999999,31.83052,0 -91.60547,31.83224999999999,0 -91.60643479999999,31.8327612,0 -91.60815000000001,31.83367,0 -91.6088,31.83401,0 -91.60969999999999,31.83449,0 -91.61134,31.83536,0 -91.61190999999999,31.83567,0 -91.61218,31.83581,0 -91.61231060000001,31.8358812,0 -91.61262000000001,31.83605,0 -91.61348999999998,31.8365,0 -91.61386,31.8367,0 -91.61389,31.83672,0 -91.61413,31.83685,0 -91.61448000000001,31.83702,0 -91.61503000000002,31.83732,0 -91.61530999999999,31.83746,0 -91.616749,31.8382275,0 -91.61681000000002,31.83826,0 -91.6201873,31.8400271,0 -91.62120999999999,31.84059,0 -91.62243000000001,31.84123,0 -91.62327000000001,31.84166,0 -91.62398000000002,31.84205,0 -91.62425999999999,31.8422,0 -91.62463,31.84239,0 -91.62554000000002,31.84287,0 -91.62584,31.84303,0 -91.62751,31.84391,0 -91.628862,31.8446284,0 -91.62958,31.84501,0 -91.62993000000002,31.84519999999999,0 -91.63021999999998,31.84535,0 -91.63120000000002,31.84587,0 -91.63181999999999,31.84617,0 -91.6324,31.84642,0 -91.632834,31.84658,0 -91.63305000000001,31.84666,0 -91.63359,31.84683,0 -91.63409999999999,31.8469599999999,0 -91.63484,31.84713,0 -91.6352,31.84722,0 -91.63560999999999,31.84731,0 -91.635812,31.847358,0 -91.63590800000001,31.847382,0 -91.63600600000001,31.847405,0 -91.63611,31.84743,0 -91.6427,31.84894,0 -91.643068,31.849031,0 -91.64346999999999,31.84913,0 -91.643687,31.849179,0 -91.64435,31.84933,0 -91.6447,31.8494,0 -91.64503000000001,31.84945,0 -91.64532999999999,31.84948,0 -91.64585,31.8495,0 -91.64606999999999,31.8495,0 -91.64637,31.84949,0 -91.64671999999999,31.84946,0 -91.64699000000002,31.84942,0 -91.64750999999998,31.84933,0 -91.64784,31.84925,0 -91.65092989999999,31.8482746,0 -91.65203,31.84793,0 -91.65342219999999,31.847505,0 -91.6546761,31.8470981,0 -91.6553119,31.8469087,0 -91.6560289,31.8467777,0 -91.6566193,31.8467615,0 -91.6573137,31.846854,0 -91.6576318,31.8469699,0 -91.65777820000001,31.8470233,0 -91.6580652,31.8471968,0 -91.65854460000001,31.8474865,0 -91.6586422,31.8475455,0 -91.6587821,31.8476929,0 -91.6591574,31.8480883,0 -91.65998689999999,31.8492492,0 -91.66045480000001,31.8499039,0 -91.6621607,31.8522856999999,0 -91.66263789999999,31.8530097,0 -91.66320859999999,31.8542573,0 -91.66329310000002,31.8544894,0 -91.66355969999999,31.8556686,0 -91.6635866,31.8560354,0 -91.66360050000002,31.8563567,0 -91.66356480000002,31.8573891,0 -91.6635797,31.8591451,0 -91.66353149999999,31.8601119,0 -91.6634897,31.8606619,0 -91.66333709999999,31.8646325,0 -91.663313,31.8658651,0 -91.663206,31.8687137,0 -91.66311399999998,31.8713861,0 -91.6630579,31.872879,0 -91.66291819999999,31.8768105999999,0 -91.66276690000001,31.8814549,0 -91.6627486,31.8817264,0 -91.662629,31.8849264999999,0 -91.6624372,31.8905355999999,0 -91.6623415,31.8937282,0 -91.6623166,31.8945231,0 -91.6621966,31.8983523000001,0 -91.66215529999999,31.8991222,0 -91.6621061,31.90067549999999,0 -91.6620266,31.9031884,0 -91.661867,31.9071645,0 -91.6618546,31.9074665,0 -91.6617621,31.9097269,0 -91.66154269999998,31.9160546,0 -91.6614636,31.9183284,0 -91.6612916,31.9232754,0 -91.66121579999999,31.9253561,0 -91.66103699999999,31.9287629,0 -91.66096109999999,31.9308125,0 -91.6609014,31.9324259,0 -91.6608497,31.9327247,0 -91.6606876,31.9336606,0 -91.66048330000001,31.93451659999999,0 -91.660332,31.9351503,0 -91.65874970000002,31.9394347,0 -91.6581434,31.9410762,0 -91.65749929999998,31.9427656,0 -91.6566014,31.9451523,0 -91.656435,31.9457188999999,0 -91.65631689999999,31.9461213,0 -91.65607130000001,31.9472391,0 -91.6559749,31.9477505,0 -91.655844,31.949447,0 -91.65584370000002,31.9494957,0 -91.65584299999999,31.9495972,0 -91.65584200000001,31.949761,0 -91.65586399999999,31.950661,0 -91.65590599999999,31.951131,0 -91.655986,31.951736,0 -91.656114,31.952403,0 -91.656325,31.953669,0 -91.65642,31.95433,0 -91.65646899999999,31.954669,0 -91.656589,31.955606,0 -91.656631,31.956153,0 -91.656634,31.95632,0 -91.65663899999998,31.956558,0 -91.656628,31.957,0 -91.656594,31.957642,0 -91.656536,31.958497,0 -91.65646099999999,31.959394,0 -91.656317,31.961328,0 -91.65623299999999,31.962706,0 -91.656093,31.964552,0 -91.65600300000001,31.965692,0 -91.655911,31.967128,0 -91.65584200000001,31.967894,0 -91.65582999999999,31.968002,0 -91.655788,31.9684,0 -91.65574800000002,31.968769,0 -91.65570200000001,31.969194,0 -91.65557800000002,31.970367,0 -91.65547500000001,31.971108,0 -91.655446,31.971619,0 -91.65534100000001,31.972882,0 -91.655297,31.973413,0 -91.655238,31.97412,0 -91.65514,31.975296,0 -91.65504399999999,31.976509,0 -91.654945,31.977714,0 -91.65488000000002,31.978571,0 -91.654866,31.97877099999999,0 -91.6548188,31.979539,0 -91.65476940000002,31.9801185,0 -91.6547418,31.9804226,0 -91.65468020000002,31.9813001,0 -91.6545678,31.9827361,0 -91.6543944,31.9849462,0 -91.6543149,31.9856587000001,0 -91.6542714,31.98624999999999,0 -91.6542505,31.9864521,0 -91.65430800000001,31.987075,0 -91.65432800000001,31.987314,0 -91.654303,31.988144,0 -91.654207,31.989212,0 -91.654144,31.989922,0 -91.654135,31.990047,0 -91.65412499999999,31.990184,0 -91.654021,31.991599,0 -91.65393899999999,31.992725,0 -91.65370299999999,31.995747,0 -91.653589,31.997572,0 -91.653426,31.999763,0 -91.65324199999999,32.001761,0 -91.65321,32.0022,0 -91.65302699999999,32.004753,0 -91.65298100000001,32.005355,0 -91.65284800000001,32.006977,0 -91.65283700000001,32.00712,0 -91.65272600000002,32.00853,0 -91.652574,32.010525,0 -91.652311,32.013978,0 -91.652275,32.014181,0 -91.65226699999999,32.014311,0 -91.652181,32.015752,0 -91.652021,32.017733,0 -91.651933,32.018997,0 -91.651803,32.020572,0 -91.651703,32.021994,0 -91.65147,32.02496,0 -91.65134299999998,32.0267,0 -91.651011,32.0310690000001,0 -91.651017,32.031919,0 -91.65106400000001,32.032292,0 -91.65115799999998,32.032868,0 -91.65124400000001,32.033256,0 -91.65136099999999,32.033603,0 -91.65149399999999,32.033959,0 -91.651753,32.034588,0 -91.65213900000001,32.035449,0 -91.65217250000002,32.0355312,0 -91.652295,32.035832,0 -91.652514,32.036369,0 -91.65300300000001,32.037433,0 -91.65356299999999,32.038739,0 -91.653756,32.039189,0 -91.654628,32.041139,0 -91.65535599999998,32.04307,0 -91.65551000000001,32.043383,0 -91.655565,32.043509,0 -91.65603400000002,32.04459,0 -91.65627000000002,32.045141,0 -91.65665,32.046028,0 -91.65676000000001,32.046306,0 -91.65681499999998,32.046447,0 -91.65722599999999,32.047493,0 -91.657464,32.048178,0 -91.657613,32.048661,0 -91.65781499999999,32.049318,0 -91.657916,32.049645,0 -91.658322,32.050627,0 -91.65839099999999,32.05078,0 -91.65877000000002,32.051651,0 -91.65881899999999,32.051764,0 -91.65943900000001,32.0531959999999,0 -91.659769,32.053891,0 -91.660111,32.054456,0 -91.66020199999998,32.054564,0 -91.660521,32.054955,0 -91.660731,32.055206,0 -91.660995,32.055424,0 -91.66189299999999,32.056168,0 -91.662245,32.056458,0 -91.66328900000002,32.057319,0 -91.663386,32.0574,0 -91.66359800000001,32.057584,0 -91.66441899999998,32.058297,0 -91.66520300000001,32.058853,0 -91.665892,32.059247,0 -91.66653599999999,32.059494,0 -91.667131,32.059669,0 -91.667861,32.059831,0 -91.66905399999999,32.059976,0 -91.670844,32.060077,0 -91.671581,32.060236,0 -91.672597,32.060614,0 -91.67342199999999,32.060947,0 -91.674342,32.061332,0 -91.676816,32.062337,0 -91.67749700000002,32.062614,0 -91.678172,32.062978,0 -91.678625,32.063271,0 -91.679194,32.063724,0 -91.679733,32.064275,0 -91.68021199999998,32.064872,0 -91.68061700000001,32.065372,0 -91.68195799999999,32.067047,0 -91.68290600000002,32.068216,0 -91.68329900000002,32.068708,0 -91.68428099999998,32.069936,0 -91.68449,32.070193,0 -91.685497,32.07143,0 -91.685866,32.071911,0 -91.686267,32.072432,0 -91.686994,32.073296,0 -91.6876,32.074033,0 -91.689088,32.075862,0 -91.690134,32.07718,0 -91.69073299999999,32.077934,0 -91.691214,32.078514,0 -91.691889,32.0793,0 -91.69265300000001,32.08024,0 -91.69334600000001,32.081091,0 -91.69374999999998,32.081594,0 -91.6947,32.082749,0 -91.695145,32.083294,0 -91.69626599999998,32.084729,0 -91.69651500000001,32.085044,0 -91.69715800000002,32.085817,0 -91.69767299999999,32.086463,0 -91.698072,32.086934,0 -91.699675,32.088921,0 -91.700733,32.090243,0 -91.70312800000001,32.093218,0 -91.703594,32.093842,0 -91.703795,32.094163,0 -91.70418100000001,32.094766,0 -91.704606,32.095503,0 -91.70486699999998,32.096021,0 -91.70508599999999,32.0965,0 -91.70530599999999,32.097028,0 -91.70546299999999,32.097503,0 -91.705484,32.097571,0 -91.70569999999998,32.098188,0 -91.70585,32.09875,0 -91.70601099999999,32.099533,0 -91.70615599999998,32.10051,0 -91.70622800000001,32.101578,0 -91.70622299999999,32.103274,0 -91.70622299999999,32.103319,0 -91.70620299999999,32.1057,0 -91.70619999999998,32.107256,0 -91.706191,32.108398,0 -91.70618699999999,32.108854,0 -91.70615599999998,32.111362,0 -91.70615599999998,32.112313,0 -91.70614999999998,32.112685,0 -91.706153,32.113411,0 -91.70614999999998,32.115215,0 -91.706135,32.116692,0 -91.706125,32.119129,0 -91.70611599999999,32.121511,0 -91.70611100000002,32.124436,0 -91.706092,32.124981,0 -91.706079,32.127077,0 -91.70608299999999,32.130614,0 -91.706056,32.131847,0 -91.70605399999999,32.132838,0 -91.706053,32.133232,0 -91.70602700000001,32.135633,0 -91.706022,32.13592,0 -91.70602100000001,32.138227,0 -91.70601699999999,32.140442,0 -91.705997,32.141686,0 -91.705997,32.142243,0 -91.70599200000001,32.143116,0 -91.70598599999998,32.14425,0 -91.705975,32.144942,0 -91.70589989999999,32.1462236,0 -91.70579400000001,32.147736,0 -91.70578100000002,32.148178,0 -91.70574600000002,32.148345,0 -91.70571500000001,32.148488,0 -91.70571700000001,32.149099,0 -91.705856,32.149853,0 -91.705978,32.150331,0 -91.70617799999998,32.150775,0 -91.70619999999998,32.150813,0 -91.70629,32.150972,0 -91.706481,32.151308,0 -91.706773,32.1517080000001,0 -91.70693900000001,32.151936,0 -91.70738900000001,32.152378,0 -91.707786,32.15271,0 -91.70805200000001,32.152914,0 -91.708321,32.153084,0 -91.70884099999999,32.153382,0 -91.709148,32.153534,0 -91.71007400000001,32.153947,0 -91.71141819999998,32.1545527,0 -91.71220940000001,32.1549031,0 -91.7132823,32.1553847,0 -91.71350799999999,32.155486,0 -91.71415,32.155906,0 -91.71441900000002,32.15614,0 -91.71485300000001,32.156519,0 -91.715447,32.157136,0 -91.71547300000002,32.157171,0 -91.715701,32.157483,0 -91.716061,32.157975,0 -91.716538,32.158655,0 -91.71660300000001,32.1587504,0 -91.716831,32.159072,0 -91.717243,32.159633,0 -91.717628,32.160158,0 -91.7177599,32.1603365,0 -91.71807100000001,32.160781,0 -91.718994,32.162073,0 -91.71946699999999,32.162726,0 -91.720114,32.163649,0 -91.720493,32.1641639999999,0 -91.721127,32.165038,0 -91.721711,32.165847,0 -91.722393,32.166764,0 -91.72271190000001,32.1671809,0 -91.7230943,32.1676809,0 -91.72319579999998,32.1678177,0 -91.7236205,32.1683899,0 -91.7241018,32.1691096,0 -91.724525,32.170019,0 -91.72474399999999,32.170569,0 -91.72483099999999,32.170954,0 -91.72488300000001,32.171188,0 -91.72490929999999,32.1713239,0 -91.72505599999998,32.172083,0 -91.72508399999998,32.17228,0 -91.725149,32.172744,0 -91.725179,32.172959,0 -91.72530400000001,32.173682,0 -91.725476,32.174664,0 -91.725622,32.17561,0 -91.725767,32.176544,0 -91.725886,32.177239,0 -91.725928,32.177483,0 -91.726034,32.178112,0 -91.726259,32.179409,0 -91.72647699999999,32.180695,0 -91.72648359999999,32.1807343,0 -91.72661479999999,32.1815099,0 -91.726654,32.1817423,0 -91.72673849999998,32.1822423,0 -91.726822,32.182736,0 -91.7269362,32.1834723999999,0 -91.7269774,32.1837381,0 -91.727003,32.183903,0 -91.7270796,32.1843549,0 -91.7271693,32.1848834,0 -91.72722499999999,32.185212,0 -91.72737599999999,32.185585,0 -91.727429,32.185991,0 -91.72763400000001,32.187191,0 -91.727756,32.188057,0 -91.72801699999999,32.189543,0 -91.72821,32.190815,0 -91.72833199999999,32.191623,0 -91.728375,32.191896,0 -91.728567,32.192939,0 -91.72867199999999,32.193635,0 -91.728793,32.19444,0 -91.728853,32.194812,0 -91.728897,32.195086,0 -91.729378,32.197902,0 -91.72943100000001,32.19822,0 -91.72985970000001,32.2006557,0 -91.730075,32.202188,0 -91.73045500000001,32.204461,0 -91.73047700000001,32.204594,0 -91.73073599999999,32.206111,0 -91.731061,32.208031,0 -91.731089,32.208205,0 -91.73143899999999,32.210403,0 -91.731903,32.213228,0 -91.731988,32.213755,0 -91.732242,32.215336,0 -91.73282,32.218776,0 -91.732956,32.219631,0 -91.733014,32.219994,0 -91.733239,32.221153,0 -91.73354399999999,32.222285,0 -91.73397399999999,32.223495,0 -91.734497,32.224794,0 -91.73487900000002,32.2258360000001,0 -91.73505599999999,32.226318,0 -91.73551999999999,32.227535,0 -91.73590299999999,32.228547,0 -91.73655600000001,32.230207,0 -91.73677900000001,32.230812,0 -91.737352,32.232365,0 -91.737561,32.232933,0 -91.73873800000001,32.236024,0 -91.73902699999999,32.236779,0 -91.739476,32.237932,0 -91.73991400000001,32.239054,0 -91.74006200000001,32.239438,0 -91.74018599999999,32.239767,0 -91.74054700000001,32.240719,0 -91.74073799999999,32.241196,0 -91.74096199999998,32.241752,0 -91.74105300000001,32.241978,0 -91.74109699999998,32.2421170000001,0 -91.7411362,32.2422544,0 -91.74114609999999,32.2423865,0 -91.74154299999999,32.243437,0 -91.741711,32.2438834,0 -91.742306,32.245464,0 -91.742683,32.246434,0 -91.74287200000001,32.24692,0 -91.74317899999998,32.247715,0 -91.74363200000001,32.248917,0 -91.74404199999999,32.250003,0 -91.744401,32.250904,0 -91.74493099999999,32.252336,0 -91.74552400000002,32.2539370000001,0 -91.746287,32.255951,0 -91.746442,32.256355,0 -91.74649700000001,32.256498,0 -91.746646,32.256884,0 -91.746819,32.257334,0 -91.747274,32.258527,0 -91.74761700000001,32.259425,0 -91.74808399999999,32.260618,0 -91.74838600000001,32.261389,0 -91.7485417,32.2617892,0 -91.74954200000001,32.264533,0 -91.749756,32.26493,0 -91.75000599999998,32.265528,0 -91.750173,32.265991,0 -91.75083600000001,32.267761,0 -91.751109,32.268451,0 -91.75135800000001,32.269081,0 -91.751825,32.270358,0 -91.75322199999999,32.274,0 -91.7539,32.275799,0 -91.754975,32.278624,0 -91.755263,32.2793840000001,0 -91.75623299999998,32.281958,0 -91.75725799999998,32.284592,0 -91.75764599999999,32.285645,0 -91.757806,32.286081,0 -91.75805000000001,32.286687,0 -91.758206,32.287072,0 -91.758397,32.28743,0 -91.758419,32.287472,0 -91.758708,32.287936,0 -91.75901899999998,32.288375,0 -91.75926099999998,32.288674,0 -91.759625,32.289081,0 -91.759942,32.289389,0 -91.76028600000001,32.289693,0 -91.76114400000002,32.290346,0 -91.76201899999998,32.290853,0 -91.76239700000001,32.291044,0 -91.762458,32.291071,0 -91.76302200000001,32.291322,0 -91.76331759999999,32.2914609,0 -91.7642805,32.2918856,0 -91.764747,32.292082,0 -91.7665101,32.2928645,0 -91.76772800000001,32.293405,0 -91.76861100000001,32.293805,0 -91.76975800000001,32.294317,0 -91.770667,32.294705,0 -91.77133600000002,32.295017,0 -91.77170599999999,32.295214,0 -91.771936,32.295372,0 -91.772322,32.295647,0 -91.772769,32.296031,0 -91.772986,32.296256,0 -91.773117,32.296391,0 -91.773464,32.296802,0 -91.77376699999999,32.297247,0 -91.773788,32.297286,0 -91.77397999999999,32.297642,0 -91.774011,32.2977,0 -91.774134,32.297987,0 -91.77420600000001,32.298156,0 -91.77425799999999,32.298356,0 -91.77431800000001,32.29858,0 -91.77436800000001,32.298898,0 -91.77441499999999,32.29932,0 -91.77448200000001,32.300069,0 -91.77448800000001,32.300663,0 -91.77457199999999,32.301499,0 -91.774644,32.302383,0 -91.77473299999998,32.303195,0 -91.77477000000002,32.303533,0 -91.774958,32.305261,0 -91.77503400000002,32.306041,0 -91.775122,32.3069870000001,0 -91.775209,32.307958,0 -91.77533200000001,32.308906,0 -91.775353,32.309069,0 -91.77543300000001,32.309863,0 -91.775756,32.313025,0 -91.77579799999999,32.313543,0 -91.77582200000001,32.313839,0 -91.77586599999999,32.314276,0 -91.775899,32.314605,0 -91.77598100000002,32.3155,0 -91.776011,32.315761,0 -91.77608500000001,32.316021,0 -91.77622100000001,32.317101,0 -91.776329,32.317724,0 -91.776366,32.317937,0 -91.77644600000002,32.318533,0 -91.77655900000002,32.319401,0 -91.776574,32.319519,0 -91.77669800000001,32.320504,0 -91.77695600000001,32.323031,0 -91.77713300000001,32.324861,0 -91.77734299999999,32.32685,0 -91.777558,32.329082,0 -91.777704,32.330475,0 -91.777737,32.330789,0 -91.777798,32.331386,0 -91.778053,32.333844,0 -91.778266,32.336095,0 -91.778319,32.3366469999999,0 -91.778486,32.337978,0 -91.778542,32.338672,0 -91.778567,32.339069,0 -91.77857500000002,32.339308,0 -91.77857500000002,32.339547,0 -91.77855300000002,32.34,0 -91.77837400000001,32.341451,0 -91.778322,32.341878,0 -91.778094,32.343631,0 -91.77788399999999,32.345111,0 -91.77762199999999,32.347257,0 -91.777542,32.347726,0 -91.777351,32.348846,0 -91.77717000000001,32.349928,0 -91.777036,32.350744,0 -91.776779,32.351967,0 -91.776689,32.352389,0 -91.77659400000002,32.3528729,0 -91.77650699999998,32.353296,0 -91.776391,32.353842,0 -91.77626600000001,32.354419,0 -91.776161,32.354903,0 -91.775942,32.355786,0 -91.775644,32.35685,0 -91.775413,32.357708,0 -91.77486399999999,32.359719,0 -91.77453300000001,32.360908,0 -91.77425799999999,32.361933,0 -91.77393699999999,32.363078,0 -91.77312000000001,32.365989,0 -91.77293099999999,32.366658,0 -91.772642,32.367544,0 -91.771986,32.369957,0 -91.771828,32.370506,0 -91.771136,32.372892,0 -91.770833,32.373967,0 -91.77062200000002,32.374775,0 -91.770578,32.374986,0 -91.76998099999999,32.377281,0 -91.769898,32.377709,0 -91.769803,32.3782,0 -91.7697,32.379658,0 -91.769622,32.382424,0 -91.76959400000001,32.386121,0 -91.769589,32.386753,0 -91.76959099999999,32.38839,0 -91.76959290000002,32.3896345,0 -91.7695937,32.3901305,0 -91.76959400000001,32.390337,0 -91.76959700000002,32.392308,0 -91.76954000000002,32.395775,0 -91.76952499999999,32.396723,0 -91.76950300000001,32.398164,0 -91.76945000000001,32.398874,0 -91.769417,32.39907,0 -91.769367,32.399372,0 -91.76911900000002,32.4004750000001,0 -91.76852500000001,32.402655,0 -91.767883,32.405006,0 -91.767667,32.4058,0 -91.767183,32.407581,0 -91.76668200000002,32.40934,0 -91.76644400000001,32.410175,0 -91.76616199999999,32.411161,0 -91.765911,32.412042,0 -91.76497000000001,32.4154460000001,0 -91.76488600000002,32.415746,0 -91.764218,32.418141,0 -91.76385499999999,32.4194410000001,0 -91.763661,32.420136,0 -91.763497,32.420744,0 -91.76285,32.423147,0 -91.76263299999999,32.424069,0 -91.76252500000001,32.424813,0 -91.762461,32.4256240000001,0 -91.76238300000001,32.4284686,0 -91.76237339999999,32.4288488,0 -91.76236900000001,32.429025,0 -91.76232299999999,32.430287,0 -91.76226399999999,32.4319,0 -91.762218,32.432498,0 -91.76218900000001,32.432872,0 -91.762139,32.4333439999999,0 -91.762002,32.434359,0 -91.76192,32.43497,0 -91.76178400000001,32.435933,0 -91.761562,32.437495,0 -91.761486,32.438031,0 -91.76139000000001,32.438654,0 -91.76123800000002,32.439636,0 -91.76117000000001,32.440075,0 -91.760897,32.441842,0 -91.76031500000001,32.445934,0 -91.75982019999999,32.4494661,0 -91.759815,32.449503,0 -91.759681,32.45046,0 -91.75953,32.451946,0 -91.759411,32.453119,0 -91.7593677,32.45379,0 -91.759288,32.4545888000001,0 -91.75915699999999,32.455389,0 -91.75913200000001,32.455565,0 -91.7591224,32.4556505,0 -91.759092,32.455922,0 -91.759077,32.456052,0 -91.75876689999998,32.458253,0 -91.75874399999999,32.4584046,0 -91.7587363,32.458483,0 -91.75869199999998,32.4587436,0 -91.7586531,32.4590044,0 -91.75862850000001,32.4592948,0 -91.75861740000001,32.4595252,0 -91.75864340000001,32.4597349,0 -91.75867150000001,32.4598415,0 -91.75871739999999,32.4598623,0 -91.7587506,32.4598877,0 -91.7587772,32.4599154,0 -91.75880119999999,32.4599488,0 -91.7588106,32.4600258,0 -91.7588054,32.460067,0 -91.75879800000001,32.4600999,0 -91.75877049999998,32.460155,0 -91.758715,32.4602035,0 -91.75871519999998,32.4603241,0 -91.75874270000001,32.4604519,0 -91.759074,32.461073,0 -91.75912,32.461159,0 -91.75922899999999,32.461329,0 -91.7592642,32.461394,0 -91.75945,32.461737,0 -91.75963,32.4620596,0 -91.75971999999999,32.462221,0 -91.759793,32.462345,0 -91.75987000000002,32.462505,0 -91.759974,32.462752,0 -91.760071,32.46304,0 -91.76007799999999,32.463085,0 -91.76012059999998,32.463476,0 -91.760127,32.463535,0 -91.760133,32.463954,0 -91.76010100000001,32.464329,0 -91.760064,32.464768,0 -91.759986,32.465519,0 -91.75987699999999,32.466554,0 -91.75982500000001,32.467039,0 -91.75971300000002,32.468012,0 -91.759601,32.468987,0 -91.75949000000001,32.469963,0 -91.75941,32.470661,0 -91.7593,32.471618,0 -91.759221,32.472307,0 -91.759108,32.473295,0 -91.75901399999999,32.474114,0 -91.75903209999998,32.4742631,0 -91.75893600000002,32.475051,0 -91.7588245,32.4763052,0 -91.758813,32.4763925,0 -91.75869299999999,32.477302,0 -91.75868250000001,32.4774812,0 -91.75866119999999,32.4776513,0 -91.7586503,32.4777463,0 -91.75856900000001,32.478658,0 -91.75855299999999,32.4788,0 -91.758492,32.479081,0 -91.758439,32.479267,0 -91.75838600000002,32.479402,0 -91.75836400000001,32.479481,0 -91.75831099999999,32.479669,0 -91.75820700000001,32.480553,0 -91.75805800000001,32.481822,0 -91.75797400000002,32.4824920000001,0 -91.75794399999999,32.482728,0 -91.75781099999999,32.483142,0 -91.75769699999999,32.483325,0 -91.757065,32.484228,0 -91.75689269999999,32.48466,0 -91.75676349999999,32.4850472,0 -91.756755,32.4851643,0 -91.756683,32.485867,0 -91.756637,32.48621,0 -91.75661100000001,32.486406,0 -91.75654299999999,32.48668,0 -91.756536,32.486708,0 -91.7564271,32.4869286,0 -91.756378,32.487028,0 -91.7562571,32.4872863,0 -91.75619029999999,32.4874291,0 -91.75609999999999,32.487622,0 -91.75603100000001,32.487903,0 -91.75600799999999,32.488163,0 -91.756011,32.488478,0 -91.75601899999998,32.488562,0 -91.756073,32.489099,0 -91.756103,32.489392,0 -91.756508,32.492503,0 -91.75663199999998,32.493727,0 -91.756683,32.494236,0 -91.756694,32.494394,0 -91.756727,32.494897,0 -91.75673999999999,32.4950839999999,0 -91.756765,32.495465,0 -91.756806,32.496069,0 -91.75681299999999,32.496239,0 -91.75683100000001,32.496654,0 -91.756867,32.497478,0 -91.756961,32.499637,0 -91.75696800000001,32.499958,0 -91.75700000000001,32.500453,0 -91.75700000000001,32.500517,0 -91.75705000000001,32.501136,0 -91.757131,32.501969,0 -91.757228,32.502814,0 -91.757238,32.502966,0 -91.75725799999998,32.503258,0 -91.75728700000001,32.503864,0 -91.75730900000001,32.504317,0 -91.75735899999999,32.505422,0 -91.757372,32.505722,0 -91.757425,32.506653,0 -91.75747200000001,32.507835,0 -91.757486,32.50822,0 -91.75750619999999,32.5088203,0 -91.75751800000002,32.509172,0 -91.75752800000001,32.509464,0 -91.75759600000001,32.510781,0 -91.757639,32.511664,0 -91.757696,32.512836,0 -91.757743,32.51381,0 -91.757769,32.514694,0 -91.7577995,32.5154589,0 -91.757812,32.515774,0 -91.757822,32.51603,0 -91.75787399999999,32.517139,0 -91.75797199999998,32.519408,0 -91.7580718,32.521457,0 -91.75809399999999,32.5219237,0 -91.758183,32.524317,0 -91.75821600000002,32.525342,0 -91.75831699999999,32.527324,0 -91.75834999999999,32.527941,0 -91.75835800000002,32.528247,0 -91.75837700000001,32.5287,0 -91.758425,32.529905,0 -91.758539,32.53248,0 -91.758639,32.534675,0 -91.758774,32.537909,0 -91.75880499999998,32.538635,0 -91.7589,32.54063,0 -91.75891300000001,32.541013,0 -91.758944,32.541922,0 -91.75901899999998,32.543356,0 -91.75906900000001,32.544539,0 -91.75910600000002,32.545558,0 -91.759173,32.547142,0 -91.759214,32.547886,0 -91.759294,32.549611,0 -91.75934200000002,32.550835,0 -91.75937400000001,32.551417,0 -91.75938300000001,32.551592,0 -91.75941400000002,32.552543,0 -91.75946399999999,32.553407,0 -91.75956100000001,32.555732,0 -91.759602,32.556786,0 -91.75961299999999,32.557053,0 -91.75963499999999,32.557519,0 -91.75966589999999,32.5581151,0 -91.75968139999999,32.5586948,0 -91.7597858,32.5606427,0 -91.75990179999999,32.562919,0 -91.7600623,32.5653075,0 -91.76031749999999,32.5668213,0 -91.76122000000001,32.570616,0 -91.76219199999998,32.574259,0 -91.76263760000001,32.5759503,0 -91.76394519999999,32.5809218,0 -91.7642661,32.5821364,0 -91.76467100000001,32.5836142,0 -91.7651662,32.5855527,0 -91.765304,32.5860607,0 -91.76608,32.5890666,0 -91.7666765,32.5913016,0 -91.76691669999998,32.5922017,0 -91.76774980000002,32.5953932,0 -91.7689003,32.5997688,0 -91.7691418,32.6006869,0 -91.7693848,32.6016107,0 -91.7700035,32.6039993,0 -91.77044530000001,32.6056276,0 -91.77057680000001,32.6060074,0 -91.77071770000002,32.6063397,0 -91.7708961,32.6066601,0 -91.7711027,32.6069884,0 -91.77132099999999,32.607277,0 -91.7716616,32.6076965,0 -91.7739297,32.6102322,0 -91.77692100000002,32.613624,0 -91.77769319999999,32.6144589,0 -91.77875160000002,32.6155385,0 -91.779599,32.6163970000001,0 -91.7797644,32.6166334,0 -91.7799045,32.6169243,0 -91.77996039999999,32.6171291,0 -91.7799917,32.6178799999999,0 -91.7799764,32.6184192,0 -91.77993069999999,32.618598,0 -91.77986,32.6187427,0 -91.77974610000001,32.6189175,0 -91.77957370000001,32.6191246,0 -91.77916939999999,32.6194896,0 -91.77834359999999,32.620105,0 -91.7763233,32.6215059999999,0 -91.7754686,32.6221743,0 -91.7748939,32.622602,0 -91.77459399999999,32.6228223,0 -91.77439250000002,32.6229324,0 -91.77409400000002,32.6230516,0 -91.7739117,32.6231279,0 -91.77340529999998,32.623321,0 -91.77324160000001,32.6234103,0 -91.7731697,32.623502,0 -91.77310999999999,32.6236514,0 -91.773037,32.6238813,0 -91.77294830000001,32.6243881,0 -91.7728719,32.6249049,0 -91.7727835,32.6253337000001,0 -91.77239729999999,32.6272525,0 -91.7718619,32.6300206,0 -91.77158129999998,32.6314244,0 -91.7714131,32.6322782,0 -91.77114679999998,32.6337065,0 -91.7709945,32.6345047,0 -91.7708643,32.6351871,0 -91.7691997,32.6438516,0 -91.76823950000001,32.6488801,0 -91.7679468,32.650433,0 -91.7676215,32.6521365,0 -91.76612370000001,32.6597498,0 -91.7659374,32.6607622,0 -91.76518860000002,32.6645902,0 -91.7647703,32.6667345,0 -91.76471409999999,32.6671493,0 -91.76469299999999,32.6674657,0 -91.7646859,32.6677645,0 -91.7647035,32.668109,0 -91.7647281,32.6683972,0 -91.7647336,32.6684303,0 -91.7647844,32.6687382,0 -91.76487219999999,32.6690565000001,0 -91.76498119999999,32.6694061,0 -91.76517459999999,32.6698771,0 -91.7654136,32.6703657,0 -91.76571590000002,32.6709809,0 -91.76668960000001,32.6731252,0 -91.767115,32.6741165,0 -91.76752270000001,32.6751289,0 -91.76870030000001,32.6780078,0 -91.7687863,32.678212,0 -91.7692387,32.6792853,0 -91.7695342,32.6800071,0 -91.77046849999999,32.6822894,0 -91.77066529999999,32.6827464,0 -91.77086920000001,32.6831365,0 -91.77119260000001,32.6835935,0 -91.77137820000002,32.6838432,0 -91.77197649999999,32.6846481,0 -91.77287989999999,32.6859276,0 -91.77311899999999,32.686353,0 -91.77348810000001,32.6869927,0 -91.77375870000002,32.6874603,0 -91.77409269999998,32.6878997,0 -91.7754109,32.6894921,0 -91.77609989999999,32.6904377,0 -91.77689780000001,32.6915871,0 -91.77773089999999,32.692705,0 -91.77816679999999,32.6933341999999,0 -91.77837769999999,32.6936435,0 -91.778564,32.6940126,0 -91.7787644,32.6944977,0 -91.7790983,32.6953203,0 -91.77927409999999,32.6956964,0 -91.7794147,32.6959847,0 -91.77956590000001,32.6962659,0 -91.7799139,32.6968108,0 -91.7802654,32.6972642,0 -91.78119599999999,32.698301,0 -91.78286320000001,32.7001573,0 -91.783176,32.7006248,0 -91.78334120000001,32.7009306,0 -91.78347479999999,32.7012751,0 -91.7836295,32.701827,0 -91.78370330000001,32.7021152,0 -91.7839669,32.7031909,0 -91.78403369999998,32.7035846,0 -91.78406179999999,32.703901,0 -91.78401610000002,32.704249,0 -91.783745,32.7055171,0 -91.78361889999999,32.7061085,0 -91.7834629,32.7068107,0 -91.7833564,32.7072972,0 -91.7833131,32.7075146,0 -91.7832367,32.7078802,0 -91.78311619999999,32.7084567,0 -91.78301780000001,32.7089383,0 -91.7828315,32.7098557,0 -91.7828315,32.7101334,0 -91.7828456,32.7103408,0 -91.78289479999999,32.7107099,0 -91.7830038,32.711072,0 -91.78322170000001,32.7114868,0 -91.78379119999998,32.7125414,0 -91.784172,32.713216,0 -91.78466650000001,32.7140846,0 -91.78519730000001,32.7150723,0 -91.7854644,32.7155856,0 -91.7855804,32.7158773,0 -91.7856578,32.7162288,0 -91.78569640000001,32.7164714,0 -91.78571049999999,32.7167737,0 -91.78565999999999,32.7175690000001,0 -91.785257,32.722268,0 -91.78497230000001,32.7254809,0 -91.7848422,32.7270733,0 -91.7847684,32.7276603,0 -91.7846911,32.7281349,0 -91.78467349999998,32.7282122,0 -91.7842095,32.7299698,0 -91.7838119,32.7314584,0 -91.78374119999998,32.7317233,0 -91.7831233,32.734037,0 -91.78301430000002,32.734631,0 -91.78301780000001,32.7350247,0 -91.78306349999998,32.7353973,0 -91.783169,32.7357524,0 -91.78362239999998,32.7371936,0 -91.7836963,32.7375908,0 -91.78374899999999,32.7379599,0 -91.7837595,32.7383818,0 -91.78376660000001,32.7388844,0 -91.78369979999999,32.746291,0 -91.7836963,32.7472401,0 -91.78368570000001,32.7477252,0 -91.78370330000001,32.7480521,0 -91.78375250000001,32.7484072,0 -91.78383340000001,32.7486532,0 -91.78398449999999,32.7490118,0 -91.78415680000001,32.749293,0 -91.78443799999998,32.7496621,0 -91.7848176,32.7501085,0 -91.786058,32.751593,0 -91.786287,32.7518732,0 -91.786438,32.752097,0 -91.7865858,32.7523688,0 -91.7867334,32.7527379,0 -91.7868318,32.753107,0 -91.7868529,32.7534796,0 -91.7868283,32.7538663,0 -91.78672989999998,32.7545764,0 -91.7864979,32.7560458,0 -91.7863749,32.7568121,0 -91.7863151,32.7572726,0 -91.78629050000001,32.757828,0 -91.7862624,32.7586259,0 -91.7861358,32.7637125,0 -91.78613230000001,32.7640675,0 -91.786171,32.76431,0 -91.7862624,32.7646018,0 -91.7865436,32.7653013,0 -91.7871482,32.7667531,0 -91.78768959999999,32.7680643,0 -91.7880727,32.7690099000001,0 -91.78846599999999,32.769898,0 -91.7889234,32.7709714,0 -91.78909920000001,32.771453,0 -91.78974239999998,32.7729505,0 -91.78998850000001,32.7734988,0 -91.7901643,32.7738996,0 -91.79030839999999,32.7741491,0 -91.79041700000001,32.7742884,0 -91.7905768,32.7744249,0 -91.7906318,32.7744479,0 -91.79086729999999,32.7745675,0 -91.791611,32.7749463,0 -91.79223639999998,32.7752823,0 -91.79239830000002,32.7753526,0 -91.792552,32.7754385,0 -91.79276969999998,32.7754855,0 -91.7931608,32.7756719,0 -91.79418029999999,32.7761796,0 -91.79485840000001,32.7765074,0 -91.79518779999999,32.7767306,0 -91.79619289999999,32.7772004,0 -91.7991986,32.7786659,0 -91.7993324,32.7787071,0 -91.799735,32.7789259,0 -91.80104830000001,32.7795631,0 -91.8028005,32.7804148,0 -91.80316460000002,32.7805741,0 -91.8035904,32.7807041,0 -91.80398049999999,32.7807854,0 -91.8044486,32.7808309,0 -91.804868,32.7808374,0 -91.80519630000001,32.7808081,0 -91.80551490000001,32.7807496,0 -91.80582699999999,32.7806684,0 -91.80617809999998,32.7805643,0 -91.8064219,32.7804603,0 -91.8068055,32.7802523,0 -91.80717279999999,32.780015,0 -91.80799199999998,32.7794136,0 -91.80801700000001,32.7793956,0 -91.80835930000001,32.7791501999999,0 -91.80932810000002,32.7784546,0 -91.81149630000002,32.7768942,0 -91.8124744,32.7762563,0 -91.813986,32.7752704,0 -91.8153837,32.7743764,0 -91.8159536,32.7740567,0 -91.8164846,32.7737372,0 -91.8170018,32.7735119,0 -91.81734659999999,32.7733809,0 -91.8177443,32.7732522,0 -91.8182845,32.7731212,0 -91.81875340000001,32.7730476,0 -91.8191143,32.7730085,0 -91.81952800000001,32.7729832,0 -91.82003599999999,32.7729915000001,0 -91.82046820000001,32.7730283,0 -91.83012940000002,32.7741891,0 -91.8305845,32.7742396,0 -91.83109020000002,32.7742833,0 -91.83164650000001,32.7742902,0 -91.83206490000001,32.7742856,0 -91.8327177,32.7742396,0 -91.83336589999999,32.7741546,0 -91.83380940000001,32.7740681,0 -91.8340875,32.7740138,0 -91.835522,32.7736305,0 -91.8370243,32.7732085,0 -91.8378483,32.773003,0 -91.8383218,32.7728995,0 -91.8389066,32.7728093,0 -91.83931250000002,32.7727616,0 -91.83945439999998,32.7727517,0 -91.8396348,32.7727391,0 -91.8397745,32.7727294,0 -91.83994679999999,32.7727284,0 -91.8404992,32.7727251,0 -91.84346930000001,32.7727786,0 -91.84463649999999,32.7727944,0 -91.84657159999999,32.772826,0 -91.8480113,32.7728537,0 -91.84969760000001,32.7728746,0 -91.8501986,32.772885,0 -91.8512806,32.7728983,0 -91.8526889,32.7729255,0 -91.8555877,32.7729667,0 -91.86288349999998,32.7731747,0 -91.86416889999998,32.7732252,0 -91.8647912,32.773241,0 -91.8653494,32.7732577,0 -91.8666154,32.7733221999999,0 -91.86721070000002,32.7733187,0 -91.8684973,32.7733597,0 -91.87010349999998,32.7734093,0 -91.87145079999999,32.7734358,0 -91.8739037,32.7734164,0 -91.8752408,32.7733635,0 -91.8758814,32.7733869,0 -91.876356,32.7734552,0 -91.87686909999999,32.773562,0 -91.87733129999999,32.7737153,0 -91.877782,32.7738905,0 -91.87881849999999,32.7743231,0 -91.8793933,32.7745644000001,0 -91.87974509999999,32.7747121,0 -91.8813881,32.7753934,0 -91.8845273,32.7766845,0 -91.88550909999999,32.7770936,0 -91.88642129999999,32.7774376,0 -91.8865954,32.7775033,0 -91.8869059,32.7776029999999,0 -91.8877078,32.7778556,0 -91.8883787,32.778048,0 -91.88855530000001,32.7780986,0 -91.88949050000001,32.7783572,0 -91.88979419999998,32.7784411,0 -91.8901692,32.7785448,0 -91.8931414,32.7793543,0 -91.89432119999999,32.7796895,0 -91.89461319999999,32.7797724,0 -91.8954123,32.7799994,0 -91.8959558,32.7801538,0 -91.89629619999999,32.7802505,0 -91.89711029999999,32.78046,0 -91.8984188,32.7808272,0 -91.9000771,32.7812776,0 -91.90037359999999,32.7813222,0 -91.9006799,32.7813154,0 -91.90092300000001,32.7812899,0 -91.9012328,32.7811994,0 -91.90156239999999,32.7810443,0 -91.902823,32.7803845,0 -91.90301530000001,32.7802763,0 -91.90379040000001,32.779859,0 -91.90386820000001,32.779815,0 -91.90421690000001,32.7794283,0 -91.90428650000001,32.7793074,0 -91.90435220000001,32.7791655,0 -91.904448,32.7788814,0 -91.9044868,32.7786963,0 -91.90455579999998,32.7785003,0 -91.90466979999999,32.7783274,0 -91.9047891,32.7782289,0 -91.904842,32.7781853,0 -91.90520620000001,32.7779817,0 -91.9060468,32.7776001,0 -91.9066864,32.7774052,0 -91.90711520000001,32.7773242,0 -91.91025920000001,32.7772697,0 -91.91107850000002,32.7772867,0 -91.9111517,32.7772927,0 -91.91137740000001,32.7772933,0 -91.91185020000002,32.7772898,0 -91.9121308,32.7773003,0 -91.9123984,32.7773012,0 -91.9126168,32.7773019,0 -91.91328579999998,32.7773042,0 -91.91444509999998,32.7772917,0 -91.9144429,32.7775426,0 -91.9144388,32.7780301,0 -91.9144367,32.7782693,0 -91.9144526,32.7792629,0 -91.9144557,32.7798661,0 -91.91445770000001,32.780256,0 -91.91431330000002,32.7816620000001,0 -91.9142647,32.782147,0 -91.9141525,32.7828229,0 -91.91408260000001,32.7833561,0 -91.91395110000001,32.7843016,0 -91.91371339999999,32.7857091,0 -91.91347740000002,32.7865028,0 -91.9133401,32.7868474,0 -91.91326840000001,32.7870273,0 -91.9131149,32.7874124,0 -91.9127089,32.7884226,0 -91.91231630000001,32.7894022,0 -91.9121592,32.7897578,0 -91.9114823,32.7914018,0 -91.91142240000001,32.7915261,0 -91.9109727,32.7924597,0 -91.91069950000001,32.7931387,0 -91.9104329,32.7936728,0 -91.91026149999999,32.7939682,0 -91.91012229999998,32.7941788,0 -91.90991369999999,32.7944353,0 -91.909566,32.794896,0 -91.9092607,32.7952511,0 -91.9091677,32.7953558,0 -91.90807030000001,32.7965793,0 -91.90730249999999,32.7975226,0 -91.90644339999999,32.7984815,0 -91.9061999,32.798778,0 -91.9048526,32.8003258,0 -91.90450800000001,32.8007306,0 -91.90345739999999,32.8019499,0 -91.90255640000001,32.8029891,0 -91.90095599999999,32.8048352,0 -91.8987968,32.8073439,0 -91.89737219999999,32.8089889,0 -91.89723499999999,32.8091608000001,0 -91.89683410000001,32.8096245,0 -91.89645590000001,32.8101272,0 -91.8960883,32.8106842,0 -91.89573609999999,32.8112601,0 -91.89529709999999,32.8121021,0 -91.8948594,32.8130364,0 -91.89460820000001,32.8136103,0 -91.8934309,32.8162418,0 -91.892618,32.8180441,0 -91.8925103,32.8182921,0 -91.89226619999999,32.81877,0 -91.89203550000001,32.8191622,0 -91.891829,32.8195026,0 -91.891609,32.8198136,0 -91.891255,32.8202757,0 -91.8909894,32.8205755,0 -91.8906667,32.8209168,0 -91.89035380000001,32.8212269,0 -91.88984689999999,32.8216822,0 -91.8894895,32.8219649,0 -91.8888958,32.8224333,0 -91.888527,32.8227242000001,0 -91.88587470000002,32.8248164,0 -91.88454290000001,32.8258589,0 -91.88192930000001,32.8279328,0 -91.88000779999999,32.8294624,0 -91.87961889999998,32.829778,0 -91.8793005,32.8300486,0 -91.87906369999999,32.8302761,0 -91.8788732,32.8304969,0 -91.8786568,32.8307406000001,0 -91.8784476,32.8310471,0 -91.878243,32.8313805,0 -91.8780211,32.8318202,0 -91.87786819999999,32.8322168,0 -91.87776289999999,32.8325546,0 -91.87769679999998,32.8328554,0 -91.877651,32.8331882,0 -91.87759929999999,32.8334641,0 -91.8776295,32.8337719,0 -91.8776402,32.8340694,0 -91.8776805,32.8344007,0 -91.87804180000002,32.8365245,0 -91.87812839999998,32.8372268000001,0 -91.87817320000002,32.8376345,0 -91.8781901,32.8381603,0 -91.87814830000001,32.8388686,0 -91.87809999999999,32.8393057,0 -91.8780189,32.8398246,0 -91.8779272,32.8402105,0 -91.8777869,32.8407174,0 -91.8775303,32.8415242,0 -91.87711010000001,32.8428308,0 -91.8759304,32.8465525,0 -91.874942,32.8496052,0 -91.8733388,32.8546402,0 -91.87270770000002,32.8566059,0 -91.87242070000001,32.8575003,0 -91.8721704,32.8584127,0 -91.8720264,32.8590257,0 -91.871903,32.8595843,0 -91.8718274,32.8599659,0 -91.87129160000001,32.8630949,0 -91.87110539999999,32.8642633,0 -91.8705243,32.8675712,0 -91.87047630000001,32.8681793,0 -91.8701867,32.8692336,0 -91.8699828,32.8697923,0 -91.869736,32.870378,0 -91.869613,32.870628,0 -91.86931269999999,32.8712385999999,0 -91.8690438,32.8716803,0 -91.86858930000001,32.8724193,0 -91.86782599999999,32.8736388,0 -91.8670509,32.8748476,0 -91.86670529999999,32.8753881,0 -91.86624809999999,32.8761495,0 -91.8660362,32.8766045,0 -91.86588059999998,32.8769717,0 -91.86568560000001,32.877518,0 -91.8652417,32.8791968,0 -91.86497220000001,32.8805195,0 -91.8646986,32.8817719,0 -91.8645047,32.882495,0 -91.86426409999999,32.8832,0 -91.8640896,32.8837087,0 -91.8637708,32.8844433,0 -91.86249959999999,32.8874453,0 -91.86159499999999,32.8895694,0 -91.8613211,32.8903509,0 -91.8612376,32.8907083,0 -91.8611468,32.8912857,0 -91.8611248,32.8921164,0 -91.861155,32.8924864,0 -91.8612442,32.892955,0 -91.86184470000001,32.8952724,0 -91.8623999,32.8973019,0 -91.86296760000002,32.8995215,0 -91.86302070000001,32.8998526,0 -91.8630564,32.9001626,0 -91.8630732,32.9004382,0 -91.86308560000001,32.9008528,0 -91.8630651,32.9012473,0 -91.8629873,32.9017851,0 -91.8625212,32.9038796,0 -91.8624004,32.9043933,0 -91.86229849999998,32.904827,0 -91.8621867,32.9053027,0 -91.8620327,32.9059635,0 -91.8616677,32.9075008,0 -91.86124460000002,32.9092956,0 -91.86046870000001,32.9125583,0 -91.86017099999999,32.913817,0 -91.85997040000001,32.9146561,0 -91.8595969,32.916251,0 -91.8590018,32.9187792,0 -91.85873870000002,32.9198829,0 -91.85841000000001,32.9212937,0 -91.85783960000001,32.9236978,0 -91.8574405,32.9253809,0 -91.85683429999999,32.927934,0 -91.8561335,32.930946,0 -91.8558178,32.9322677,0 -91.8550611,32.9354723,0 -91.8542058,32.9391111,0 -91.8538544,32.940617,0 -91.8534513,32.9423097,0 -91.8532072,32.9433361,0 -91.8530896,32.9439432,0 -91.85306320000001,32.9443311,0 -91.85304170000001,32.944761,0 -91.85307659999999,32.9453688,0 -91.853149,32.9459135,0 -91.85321069999999,32.9461903,0 -91.85328500000001,32.9465099,0 -91.8538571,32.9483894,0 -91.85432840000001,32.9499446000001,0 -91.85488170000001,32.9517633000001,0 -91.8554281,32.953575,0 -91.85585269999999,32.954975,0 -91.85699720000001,32.9587366,0 -91.8580271,32.9621542,0 -91.85880229999999,32.9647061,0 -91.8591813,32.9660744999999,0 -91.8594173,32.9671096,0 -91.8595809,32.9679782,0 -91.8597419,32.9689616,0 -91.85980089999998,32.9694162,0 -91.8598921,32.9702893,0 -91.85994249999999,32.9709546000001,0 -91.85998060000001,32.9717339,0 -91.85998859999999,32.972157,0 -91.85997520000001,32.9732776,0 -91.859943,32.9741731,0 -91.8597625,32.9760856,0 -91.85963989999999,32.9772445,0 -91.8593953,32.9793692,0 -91.8590315,32.9825648,0 -91.8588275,32.984462,0 -91.85859999999998,32.9864153,0 -91.85835520000002,32.9885909,0 -91.8581028,32.990828,0 -91.857859,32.9930026,0 -91.85745129999998,32.9966245,0 -91.85733860000002,32.9976278,0 -91.85726540000002,32.9982711,0 -91.85699529999998,33.0011455,0 -91.8568971,33.0020087,0 -91.8568107,33.0026709999999,0 -91.85672079999999,33.0035466,0 -91.85665720000001,33.0039742000001,0 -91.85658400000001,33.0044601,0 -91.85652099999999,33.0048419000001,0 -91.8564255,33.0054079,0 -91.8563113,33.0061944,0 -91.85622899999998,33.0069471,0 -91.85612209999999,33.0076097,0 -91.8560318,33.0079885,0 -91.8558221,33.0093259,0 -91.8556999,33.0103528,0 -91.85536049999999,33.0134558000001,0 -91.8551944,33.0145717,0 -91.8551422,33.0152249,0 -91.85489029999999,33.0162843,0 -91.85428039999999,33.017734,0 -91.852818,33.021033,0 -91.85253709999999,33.0217365,0 -91.85239970000001,33.0224837,0 -91.85237739999999,33.0232401,0 -91.85255890000001,33.02635,0 -91.8527033,33.028916,0 -91.8529487,33.0332769,0 -91.8529748,33.0344345,0 -91.85292990000001,33.0348412,0 -91.85288489999999,33.0352916,0 -91.852743,33.035648,0 -91.852509,33.0361474,0 -91.8519534,33.0368015,0 -91.851248,33.037481,0 -91.84973359999999,33.0389374,0 -91.8490968,33.0395177,0 -91.8484775,33.0401012,0 -91.84581600000001,33.0426286,0 -91.8453119,33.0432247,0 -91.84499719999998,33.0437661,0 -91.84487840000001,33.0440851,0 -91.84482670000001,33.0443357,0 -91.84478660000001,33.0445295,0 -91.8447379,33.0448564,0 -91.84472649999999,33.0451826,0 -91.8447429,33.0455,0 -91.84477069999998,33.0457193,0 -91.84480120000002,33.0458876,0 -91.8448412,33.046057,0 -91.8449359,33.0463821,0 -91.8451565,33.0470674,0 -91.8455015,33.0481389,0 -91.8456431,33.048601,0 -91.8460279,33.049785,0 -91.84639749999999,33.0509725,0 -91.8464639,33.0512578,0 -91.84652220000001,33.051579,0 -91.84654540000001,33.0519459,0 -91.84654900000001,33.053628,0 -91.84654930000001,33.0538117,0 -91.8465516,33.0543121,0 -91.84656680000001,33.0615663,0 -91.8465212,33.0657354,0 -91.8465233,33.0693601,0 -91.84633800000002,33.070127,0 -91.8459579,33.0707701,0 -91.8456225,33.0712049,0 -91.8452609,33.0715741,0 -91.8428971,33.0732977,0 -91.8424043,33.0736558,0 -91.84041430000001,33.0751404,0 -91.83920359999999,33.0760753,0 -91.8388775,33.0764318,0 -91.83861659999999,33.0767883,0 -91.8384047,33.0772003999999,0 -91.838252,33.0776868,0 -91.8381634,33.0780688,0 -91.8381366,33.0784307,0 -91.83812589999999,33.0788307,0 -91.83806420000001,33.0814063,0 -91.8379832,33.0832459,0 -91.83784920000001,33.0904482,0 -91.83785349999999,33.0911204,0 -91.8377801,33.0942803,0 -91.8377718,33.096411,0 -91.8377504,33.0969683,0 -91.8376726,33.0974648,0 -91.8374714,33.0980625,0 -91.8372193,33.0985569,0 -91.8369173,33.0989893,0 -91.8366113,33.0993381999999,0 -91.8361728,33.0997644,0 -91.82974699999998,33.105409,0 -91.82942600000001,33.105706,0 -91.82784099999999,33.107173,0 -91.8275471,33.1075469,0 -91.82732230000001,33.1080076,0 -91.827161,33.108456,0 -91.82704199999999,33.1089807999999,0 -91.8269806,33.1095828999999,0 -91.8270308,33.1105938,0 -91.82702600000002,33.114893,0 -91.8269008,33.1184404,0 -91.8268633,33.1189525,0 -91.82674530000001,33.1195366,0 -91.826638,33.1200218,0 -91.82508230000001,33.1241147,0 -91.82487850000001,33.1246404,0 -91.82468,33.125157,0 -91.8244976,33.1256422,0 -91.82414889999998,33.1265452,0 -91.82374120000001,33.1274258,0 -91.82317740000001,33.128606,0 -91.82259980000001,33.1297015,0 -91.822371,33.1301338,0 -91.82185320000001,33.1311034,0 -91.82135060000002,33.1320388,0 -91.8208806,33.1329157,0 -91.820527,33.133581,0 -91.8203496,33.133919,0 -91.8201744,33.1342569,0 -91.816332,33.1415919999999,0 -91.816033,33.142371,0 -91.81592370000001,33.1429639,0 -91.815924,33.143493,0 -91.8160511,33.1442797,0 -91.8172344,33.1484868,0 -91.817543,33.149584,0 -91.8180189,33.1512492,0 -91.8181604,33.1519129,0 -91.8182879,33.1526004,0 -91.81832,33.153527,0 -91.81837400000001,33.155402,0 -91.8183923,33.1560341,0 -91.81846299999999,33.15847,0 -91.81846899999999,33.158693,0 -91.81847,33.1593337,0 -91.8185237,33.1609485,0 -91.81854300000001,33.1627446000001,0 -91.8185094,33.1633731,0 -91.8183633,33.1642266,0 -91.81824120000002,33.1648332,0 -91.8180079,33.1657456,0 -91.817723,33.1666406,0 -91.8168774,33.1689863,0 -91.81659500000002,33.1697135,0 -91.81648620000001,33.1700746,0 -91.8163134,33.1705375,0 -91.8134254,33.1781401,0 -91.8121111,33.1817094,0 -91.81164440000002,33.1828229,0 -91.81110799999999,33.1837567,0 -91.8101049,33.1852921,0 -91.8091017,33.1865896,0 -91.8069613,33.1895526,0 -91.8051667,33.1921087,0 -91.80479589999999,33.19266,0 -91.80336320000002,33.1947192,0 -91.80272600000001,33.195635,0 -91.8005079,33.1987103,0 -91.7989656,33.2009299,0 -91.798732,33.201334,0 -91.79853919999999,33.2017312,0 -91.7983943,33.2020948,0 -91.79831919999999,33.2023551,0 -91.7982468,33.2026626,0 -91.79820020000001,33.2029751,0 -91.79816809999998,33.2033706,0 -91.79816099999999,33.2039665,0 -91.7981395,33.2054253,0 -91.79814009999998,33.2060351,0 -91.7981341,33.2061744,0 -91.79812829999999,33.2063096,0 -91.79809779999999,33.2070223,0 -91.79809659999999,33.2076134,0 -91.7980939,33.2079719,0 -91.79807510000001,33.2095546,0 -91.79806710000001,33.2103782,0 -91.79802730000002,33.2132183,0 -91.79799819999999,33.2141676,0 -91.79798210000001,33.2155338,0 -91.797991,33.216816,0 -91.7978603,33.2202927,0 -91.7978493,33.2205866,0 -91.7977369,33.2225005,0 -91.79767630000001,33.2237277,0 -91.7976251,33.2242554,0 -91.7975785,33.2251652,0 -91.79754939999999,33.225734,0 -91.7975347,33.2264214,0 -91.7975228,33.2269793,0 -91.79750490000001,33.2278161,0 -91.79746659999999,33.2296081,0 -91.79741799999999,33.230496,0 -91.7974098,33.2316899,0 -91.79738639999999,33.2324986,0 -91.7973461,33.2333759,0 -91.7972685,33.2342745,0 -91.79717649999999,33.235107,0 -91.797162,33.2352274,0 -91.7969463,33.2370177,0 -91.7967213,33.2387672,0 -91.79664069999998,33.2393952,0 -91.79643950000001,33.2410848,0 -91.79623710000001,33.2424170000001,0 -91.7961755,33.2429489,0 -91.7961707,33.2431663,0 -91.79616870000001,33.2434513,0 -91.79623960000002,33.2436819,0 -91.7963008,33.2438958,0 -91.79642080000001,33.2441628,0 -91.796561,33.2443922,0 -91.796713,33.24461,0 -91.7973878,33.2453257,0 -91.80270400000001,33.250119,0 -91.8064157,33.2535313,0 -91.80765969999999,33.2546328,0 -91.80811509999998,33.2551495,0 -91.80848909999999,33.2557547,0 -91.80974500000001,33.2584559,0 -91.809906,33.2587888,0 -91.810503,33.260153,0 -91.81292569999999,33.2669629,0 -91.8142486,33.27068,0 -91.8145275,33.2714636,0 -91.8145746,33.271596,0 -91.8148831,33.2724626,0 -91.814975,33.2727209,0 -91.8151927,33.2733385,0 -91.81544930000001,33.2740663,0 -91.8155404,33.2743196,0 -91.8170463,33.2785076,0 -91.81719010000002,33.2789316,0 -91.81729589999999,33.2792693,0 -91.8178406,33.2807986,0 -91.8185811,33.282891,0 -91.81881239999998,33.2835881,0 -91.8190638,33.2842904,0 -91.82085999999998,33.2893373,0 -91.8214997,33.2911081,0 -91.82252750000001,33.2939718,0 -91.82331720000001,33.2961723,0 -91.82357380000001,33.2968722,0 -91.8259588,33.3035563,0 -91.82671759999999,33.3056908,0 -91.827136,33.3068676,0 -91.82808009999999,33.3095216,0 -91.82826439999999,33.3100342,0 -91.82880299999999,33.3115424,0 -91.8289015,33.3118182,0 -91.8289491,33.3119514,0 -91.8294856,33.3134532,0 -91.8301836,33.3153971,0 -91.83062839999999,33.3166628999999,0 -91.83085710000002,33.3172931,0 -91.83105150000002,33.3178412,0 -91.83119889999999,33.318254,0 -91.8313113,33.3185705,0 -91.8313959,33.3188133,0 -91.83162509999998,33.3194518,0 -91.831718,33.3197185,0 -91.8319365,33.3203293,0 -91.8320926,33.3207553,0 -91.83222670000001,33.3211295,0 -91.83235350000001,33.3214724,0 -91.8332094,33.3237938,0 -91.83357719999999,33.3248483,0 -91.8343857,33.3270815,0 -91.8353793,33.3299263,0 -91.83715100000001,33.3348526,0 -91.83748479999998,33.3358035,0 -91.8376803,33.3363251,0 -91.8378716,33.3368642,0 -91.83799779999998,33.3372386,0 -91.8383906,33.3383627,0 -91.838497,33.3386573,0 -91.83895329999999,33.3399337,0 -91.83908879999998,33.3403153,0 -91.8393489,33.3410294,0 -91.83951220000002,33.3414794,0 -91.8397272,33.3420688,0 -91.83984379999998,33.342318,0 -91.8399549,33.3425405,0 -91.8400891,33.3427894,0 -91.84022609999998,33.3430278,0 -91.84081639999999,33.3439424,0 -91.84202650000002,33.3458335,0 -91.84227189999999,33.3462184,0 -91.84271409999999,33.3469093000001,0 -91.8429379,33.3472524,0 -91.84362419999999,33.3483348,0 -91.8447554,33.3500758,0 -91.84546210000001,33.3511944999999,0 -91.8457034,33.3515701,0 -91.8458663,33.3518246,0 -91.8459649,33.3519766,0 -91.8465023,33.3528146,0 -91.84680530000001,33.3532994,0 -91.8470049,33.3536044,0 -91.84718930000001,33.3538954000001,0 -91.84740990000002,33.3542266,0 -91.84760130000001,33.3545004,0 -91.847758,33.354707,0 -91.8481838,33.3552642,0 -91.84855909999999,33.3557093,0 -91.8489335,33.3561192,0 -91.8491485,33.3563769,0 -91.84992990000001,33.3573038,0 -91.8503702,33.3577581,0 -91.8505969,33.3580235,0 -91.8508071,33.3582708,0 -91.85100320000001,33.3586166,0 -91.8511276,33.3589025,0 -91.8512288,33.3593184,0 -91.8512655,33.3595926,0 -91.8512762,33.359883,0 -91.85124190000001,33.3630977,0 -91.8512151,33.3643656,0 -91.8512017,33.3670291,0 -91.8511807,33.3684876,0 -91.85117679999999,33.368958,0 -91.85110780000001,33.3729629,0 -91.851038,33.375102,0 -91.85096559999998,33.3766767,0 -91.8508422,33.3791292,0 -91.85082610000002,33.3793622000001,0 -91.85081540000002,33.3800274,0 -91.85068130000001,33.3830555,0 -91.85059010000002,33.3848741,0 -91.850448,33.3885694,0 -91.85040499999998,33.3899086,0 -91.85031649999999,33.3917315,0 -91.8502414,33.3943494,0 -91.8502307,33.3956505,0 -91.8502495,33.3983197,0 -91.8502575,33.4019451,0 -91.8501931,33.4037655,0 -91.8500859,33.4071197,0 -91.85002419999999,33.40864,0 -91.8499571,33.4107066,0 -91.84987130000002,33.413194,0 -91.8497946,33.4160164,0 -91.8497823,33.4163554,0 -91.849737,33.417689,0 -91.84972670000001,33.418031,0 -91.8496889,33.4186702,0 -91.8496299,33.4213746,0 -91.84958160000001,33.4249228,0 -91.84958160000001,33.4270047,0 -91.8495736,33.4276606,0 -91.8495709,33.4294693,0 -91.84955480000001,33.4316115,0 -91.84954140000002,33.4327598,0 -91.849536,33.4378027,0 -91.8496111,33.4438637,0 -91.8496165,33.4446515,0 -91.84962449999999,33.4466233,0 -91.8496379,33.4481966,0 -91.8496272,33.44915,0 -91.84960840000001,33.4493805,0 -91.84953059999999,33.44979,0 -91.84941530000002,33.450213,0 -91.84925170000001,33.4506785,0 -91.84899420000001,33.4511708,0 -91.84865360000001,33.4516833,0 -91.8482715,33.4521243,0 -91.8471783,33.4532274,0 -91.84511969999998,33.4552471,0 -91.84447469999999,33.4558793,0 -91.8415833,33.4587033,0 -91.84114870000001,33.4591419,0 -91.8407437,33.4595962,0 -91.84039499999999,33.4601443999999,0 -91.84013219999999,33.4606635,0 -91.8399009,33.4612633,0 -91.83974360000001,33.4616278,0 -91.83830289999999,33.4651656,0 -91.83695640000002,33.4684548,0 -91.8365836,33.4693587,0 -91.83638779999998,33.469889,0 -91.8362939,33.4703029,0 -91.83623489999999,33.4705378,0 -91.8361706,33.4709428,0 -91.83610349999999,33.4715514,0 -91.83601969999999,33.4725201,0 -91.83598240000001,33.4730563,0 -91.83562070000001,33.4769388,0 -91.8354544,33.4785139,0 -91.8353176,33.4802164,0 -91.83513790000001,33.4821492,0 -91.83497970000001,33.4839076,0 -91.8348563,33.4847577,0 -91.8347088,33.485346,0 -91.8345881,33.4857688,0 -91.8342394,33.4867754999999,0 -91.83343979999999,33.4889961,0 -91.83106389999999,33.4955343,0 -91.83089930000001,33.4960607,0 -91.82950289999999,33.499943,0 -91.8291782,33.5008605,0 -91.82893020000002,33.5013832,0 -91.8285492,33.5020619,0 -91.8281319,33.5027445,0 -91.8270701,33.5044946,0 -91.82648620000002,33.5055079,0 -91.82604200000002,33.5062054,0 -91.8245888,33.5086327,0 -91.8229151,33.5113968,0 -91.8184626,33.5187967,0 -91.81815949999999,33.5193177,0 -91.8180737,33.5194518000001,0 -91.81700570000001,33.521203,0 -91.81547900000001,33.5234555,0 -91.8139072,33.5256873,0 -91.81358070000002,33.526133,0 -91.8133673,33.5264263,0 -91.81146059999999,33.5290918,0 -91.8112479,33.5294567,0 -91.8103424,33.5311478,0 -91.80937200000001,33.5330362,0 -91.8093264,33.5331302,0 -91.80759089999999,33.5362657,0 -91.80561340000001,33.5400571,0 -91.8037001,33.5436717,0 -91.80336729999999,33.5442756,0 -91.80196669999999,33.546804,0 -91.80148149999999,33.5478307,0 -91.8013555,33.5481839,0 -91.8012509,33.5485483,0 -91.801165,33.5489886,0 -91.80114089999999,33.5493105,0 -91.80113550000002,33.5495899,0 -91.80110070000001,33.5523819,0 -91.8010578,33.5564679,0 -91.801047,33.5579901,0 -91.8010175,33.5623217,0 -91.80098,33.5642572,0 -91.80093170000001,33.5679963,0 -91.800921,33.570915,0 -91.8008968,33.5733241,0 -91.80087,33.5756683,0 -91.80087,33.5765153,0 -91.80085390000001,33.5771522,0 -91.80085390000001,33.5778561,0 -91.8008485,33.5782583,0 -91.80082439999998,33.5798516,0 -91.80080030000001,33.5828861,0 -91.80078949999999,33.5834515,0 -91.80078949999999,33.5842559,0 -91.8007734,33.5855183,0 -91.80075739999999,33.5869729,0 -91.8007547,33.5888141,0 -91.8007439,33.5897637,0 -91.8007439,33.5899648,0 -91.80074130000001,33.5904273,0 -91.8007332,33.590863,0 -91.80072519999999,33.59135,0 -91.8007278,33.5916718,0 -91.80072509999998,33.5918655000001,0 -91.8007131,33.5927286,0 -91.8007076,33.5935437,0 -91.80070499999999,33.5939228,0 -91.80069900000001,33.5941775,0 -91.80061890000002,33.5975239,0 -91.80060880000002,33.5981236,0 -91.8005895,33.5992711,0 -91.8005723,33.6002916,0 -91.800561,33.6023461,0 -91.8005776,33.6051725,0 -91.80057549999999,33.6054423,0 -91.8005734,33.6057008,0 -91.80057120000001,33.6059807,0 -91.8005562,33.6078822,0 -91.8005347,33.6106343,0 -91.800528,33.6114485,0 -91.80051600000002,33.6117769,0 -91.8005077,33.6134409,0 -91.8004972,33.6139,0 -91.8004918,33.6146148,0 -91.8004864,33.6162387,0 -91.80052670000002,33.6166653,0 -91.8005562,33.6169602,0 -91.80068489999999,33.6175387,0 -91.8008593,33.6181663,0 -91.80112750000001,33.6187582,0 -91.8013904,33.6193948,0 -91.801613,33.6198326,0 -91.8018651,33.6203575,0 -91.8021736,33.6210208,0 -91.80244709999999,33.6216953,0 -91.8025947,33.6222223999999,0 -91.80270200000001,33.6226958999999,0 -91.8027422,33.6230131,0 -91.802769,33.6234263,0 -91.802769,33.6239958,0 -91.8027556,33.6244715,0 -91.8027208,33.6247941,0 -91.8027027,33.6249942,0 -91.80269070000001,33.6251132,0 -91.8026885,33.6251349,0 -91.802621,33.6258211,0 -91.80257640000001,33.6262749,0 -91.8025562,33.6264794,0 -91.80252780000001,33.6267683,0 -91.8025222,33.6268255,0 -91.80250819999999,33.6269638,0 -91.80249090000001,33.6271348,0 -91.80247130000001,33.6273281,0 -91.80239349999999,33.6280651,0 -91.80234249999999,33.6285006,0 -91.8022916,33.629079,0 -91.80228350000002,33.6291773,0 -91.8022326,33.6296396,0 -91.80215889999999,33.6300412,0 -91.80214200000002,33.6302252,0 -91.80211700000001,33.6304974,0 -91.8019615,33.6321891,0 -91.8019302,33.6325295,0 -91.8017711,33.6342608,0 -91.8016952,33.6351896,0 -91.80168420000001,33.6353251,0 -91.80163239999999,33.635771,0 -91.8015876,33.6362581,0 -91.80155790000001,33.6365816,0 -91.8014507,33.6377476,0 -91.80134109999999,33.6388897,0 -91.80126200000001,33.6396607,0 -91.8012343,33.6399236,0 -91.8011576,33.6407478,0 -91.80106639999998,33.641679,0 -91.80101449999999,33.6422208999999,0 -91.80095589999999,33.6430652,0 -91.8009453,33.6436814,0 -91.8009581,33.6445294,0 -91.80100170000001,33.6452841,0 -91.80104590000001,33.6458399,0 -91.8011001,33.6462670000001,0 -91.80116049999999,33.646698,0 -91.80124739999999,33.6471856,0 -91.80140710000001,33.6479667,0 -91.8014843,33.6482859,0 -91.80158419999998,33.6486568,0 -91.80162579999998,33.6488352999999,0 -91.8017741,33.6493946,0 -91.8019365,33.6500067,0 -91.80207899999999,33.6505939,0 -91.8021816,33.6510664,0 -91.8022462,33.6514873,0 -91.80230400000001,33.6518223,0 -91.8023701,33.65236,0 -91.80241119999998,33.6528619,0 -91.80252609999999,33.6538515,0 -91.8025981,33.6547314,0 -91.8026189,33.6549092,0 -91.80271140000001,33.6558587,0 -91.80277459999999,33.6563758,0 -91.80285599999999,33.6572804,0 -91.8029566,33.6583831,0 -91.8030144,33.6589806,0 -91.80306779999999,33.6601304,0 -91.80315520000001,33.6609203,0 -91.8032063,33.6615944,0 -91.8032803,33.6622346,0 -91.80337129999998,33.6632206,0 -91.80343620000001,33.6639184,0 -91.80352550000002,33.6647871,0 -91.8036142,33.6657716,0 -91.8037087,33.666793,0 -91.80380779999999,33.6677321,0 -91.80385339999999,33.668164,0 -91.80392560000001,33.6688679,0 -91.8039617,33.6692194,0 -91.80399439999998,33.669512,0 -91.80405580000001,33.6702739,0 -91.80415380000001,33.6711976,0 -91.80433629999999,33.673189,0 -91.80442170000001,33.6739833,0 -91.8044912,33.6747454,0 -91.80457389999999,33.6755802,0 -91.8046635,33.676594,0 -91.80476880000001,33.6776165,0 -91.8047648,33.6776805,0 -91.8051727,33.681833,0 -91.80535229999998,33.6835314,0 -91.80551579999998,33.6852158,0 -91.8055969,33.6860516,0 -91.80567530000002,33.686917,0 -91.8057362,33.6875888,0 -91.8057529,33.6877734,0 -91.80585349999998,33.6888998,0 -91.8058657,33.6890238,0 -91.80618269999999,33.692251,0 -91.80637009999998,33.6942257,0 -91.80641989999999,33.6947204,0 -91.8065667,33.6962083,0 -91.8067606,33.6976271,0 -91.80682969999998,33.6983733,0 -91.806905,33.6991491,0 -91.80694270000001,33.6994718,0 -91.80697299999999,33.6998199,0 -91.8070398,33.700509,0 -91.80709229999999,33.700989,0 -91.80720359999998,33.7021079,0 -91.80723930000001,33.7025588,0 -91.807327,33.7034279,0 -91.8074354,33.7046135,0 -91.8075013,33.7052982,0 -91.80764499999999,33.7066925,0 -91.80772919999998,33.7075364,0 -91.8078034,33.7081456,0 -91.8078457,33.708437,0 -91.8078979,33.70868,0 -91.80798919999999,33.7090383,0 -91.80809379999999,33.7093621000001,0 -91.80822460000002,33.709723,0 -91.8083587,33.7100398,0 -91.80859429999998,33.7105035,0 -91.80873200000001,33.7107368,0 -91.80901589999999,33.7111828,0 -91.8093772,33.7117255,0 -91.8096487,33.7121286999999,0 -91.809797,33.7123505,0 -91.81024499999999,33.7130362,0 -91.81058660000001,33.7135588,0 -91.810694,33.7137572,0 -91.810773,33.7139045,0 -91.81087969999999,33.7141247,0 -91.8109482,33.7142994,0 -91.81105749999999,33.7146251,0 -91.81115029999999,33.7149729,0 -91.81119750000001,33.7152566,0 -91.8112297,33.715521,0 -91.81124389999999,33.7157512,0 -91.81124480000001,33.7159662,0 -91.81124199999999,33.7161609,0 -91.81123359999999,33.7163304,0 -91.8111988,33.7166051999999,0 -91.8111442,33.7168815,0 -91.81103,33.7173699,0 -91.81092820000001,33.7177252,0 -91.81076259999999,33.7183343,0 -91.8105443,33.7191649,0 -91.8104313,33.7195961,0 -91.8103806,33.7198355,0 -91.81034510000001,33.7200496,0 -91.81030629999999,33.7203434,0 -91.8102908,33.720549,0 -91.81028280000001,33.7207387,0 -91.81027400000002,33.721114,0 -91.81029410000001,33.7214686,0 -91.81032999999999,33.7218659,0 -91.8103806,33.7222386,0 -91.81048029999999,33.7226717,0 -91.81053110000001,33.7228604,0 -91.8105686,33.7230047,0 -91.81066869999999,33.7233032,0 -91.81091719999999,33.7238938,0 -91.81111319999999,33.7243683,0 -91.81129970000001,33.7248048,0 -91.81196629999999,33.7263251,0 -91.812669,33.7278822,0 -91.8130767,33.7288057,0 -91.8135166,33.7296088,0 -91.8143481,33.7309606,0 -91.815421,33.732638,0 -91.8173039,33.7355556,0 -91.81772770000001,33.7362292,0 -91.81894,33.7381653,0 -91.81984660000001,33.7395527,0 -91.82133260000001,33.741908,0 -91.82172160000002,33.7425408,0 -91.8222629,33.743387,0 -91.8231332,33.7447182,0 -91.8233335,33.744939,0 -91.8236715,33.7453427,0 -91.82399599999999,33.7457174,0 -91.82468,33.7464712,0 -91.82548729999999,33.7473667,0 -91.8259877,33.7479419,0 -91.82684930000001,33.7489143,0 -91.82713680000001,33.7492888,0 -91.8272016,33.7493871,0 -91.8274469,33.7497892,0 -91.8276302,33.7501093,0 -91.82785170000001,33.7505907,0 -91.8281782,33.7515324000001,0 -91.82833340000002,33.7522032,0 -91.8284309,33.7532016,0 -91.82837070000001,33.7544863999999,0 -91.8282044,33.7562169,0 -91.82813469999999,33.7571223000001,0 -91.82804350000001,33.757943,0 -91.82793079999999,33.7592319,0 -91.82780270000001,33.7601509,0 -91.8278049,33.7602333,0 -91.8277805,33.7605253,0 -91.8277341,33.7610744,0 -91.82770720000001,33.7612423,0 -91.827663,33.7615595,0 -91.8275932,33.7622388,0 -91.82753490000002,33.7631447,0 -91.82752239999999,33.7644398,0 -91.8275981,33.7659715,0 -91.8276035,33.7661654,0 -91.8276156,33.7665338,0 -91.8276599,33.7679917,0 -91.8277162,33.7685124,0 -91.8278021,33.7704432,0 -91.82783430000001,33.7711389,0 -91.82790940000001,33.7722359,0 -91.82800589999999,33.7728579,0 -91.82821509999999,33.773558,0 -91.8284673,33.7741957,0 -91.82872740000001,33.7747441,0 -91.82901440000001,33.7751945,0 -91.82966619999999,33.776229,0 -91.8300819,33.7768622,0 -91.83049500000001,33.7774976,0 -91.83113339999998,33.7785186,0 -91.8317878,33.7794461,0 -91.8320453,33.7797872,0 -91.83225720000002,33.7800904,0 -91.8328044,33.7807659,0 -91.83551610000001,33.7842392,0 -91.8374151,33.786707,0 -91.83781479999999,33.7872799,0 -91.838142,33.7878305,0 -91.8384531,33.7884859,0 -91.83868649999999,33.7892349,0 -91.8388367,33.7898746,0 -91.8389145,33.7904676,0 -91.83903119999999,33.7916666,0 -91.83904219999999,33.7917660000001,0 -91.83926409999998,33.794515,0 -91.83929869999999,33.7949745,0 -91.83938789999999,33.7955709,0 -91.8394899,33.7961015,0 -91.83969930000001,33.79673,0 -91.83996500000001,33.7973266,0 -91.84038550000001,33.7980412,0 -91.8407893,33.7987819,0 -91.84117689999999,33.7994517,0 -91.8415576,33.8000904,0 -91.84177939999999,33.8004111,0 -91.8420167,33.8007011,0 -91.8424986,33.8012544,0 -91.8426134,33.8013794,0 -91.8427361,33.8015076,0 -91.84302630000001,33.8018316,0 -91.8443651,33.8032904,0 -91.8448537,33.8039062,0 -91.84512509999999,33.8043053,0 -91.8456528,33.8052653,0 -91.84583960000001,33.8056873,0 -91.846084,33.8064422,0 -91.8462557,33.8071687,0 -91.84634150000001,33.8078396,0 -91.84636829999999,33.8084146,0 -91.8464611,33.8102866,0 -91.8466373,33.8149191,0 -91.84684040000002,33.8207872,0 -91.84706570000002,33.8271622,0 -91.8471569,33.8295953,0 -91.84717030000002,33.829856,0 -91.84726949999998,33.8320841,0 -91.84729640000002,33.83351,0 -91.84737949999999,33.8349047,0 -91.84743450000001,33.8363039,0 -91.8475297,33.8390575,0 -91.84762360000001,33.841448,0 -91.84775770000002,33.8449857,0 -91.84780600000001,33.8459413,0 -91.8479507,33.8492779,0 -91.84796179999999,33.8496457000001,0 -91.8479708,33.8500113,0 -91.8480715,33.8524392,0 -91.84821899999999,33.8561324,0 -91.84828609999998,33.8579989,0 -91.84833970000001,33.8590524,0 -91.84839870000002,33.8598142,0 -91.84846580000001,33.8604312,0 -91.84864279999998,33.8624223,0 -91.8487662,33.8639168,0 -91.84881179999999,33.8646317,0 -91.84888960000001,33.8655605,0 -91.8489862,33.866458,0 -91.84904779999999,33.866899,0 -91.849182,33.8676183,0 -91.84935900000001,33.8682909,0 -91.84950380000001,33.8687898,0 -91.8496808,33.8692998,0 -91.8499142,33.8699278,0 -91.8501717,33.8705135,0 -91.8512151,33.8728074,0 -91.8515611,33.8736002,0 -91.8517542,33.8740344,0 -91.85193390000001,33.8744776,0 -91.85219410000002,33.875208,0 -91.8527117,33.8767423,0 -91.85294779999998,33.8775373,0 -91.8530658,33.8781340999999,0 -91.8531141,33.8785305,0 -91.8531516,33.8790404,0 -91.85313820000002,33.8795704,0 -91.85306850000001,33.8802028,0 -91.8529585,33.8807885,0 -91.8524998,33.8828504,0 -91.8517461,33.8862439,0 -91.85162810000001,33.8868807,0 -91.8516308,33.8873238,0 -91.8515968,33.8905132,0 -91.8516431,33.8942805,0 -91.8516166,33.8964334,0 -91.8515699,33.9009679,0 -91.8515986,33.9046917,0 -91.85159590000001,33.9049922,0 -91.85159590000001,33.905266,0 -91.8516094,33.9055399,0 -91.8516029,33.9061149,0 -91.8515314,33.9067045,0 -91.85139220000001,33.9074062,0 -91.8512054,33.9080091,0 -91.85100259999999,33.9085153,0 -91.8507091,33.9090772,0 -91.8502745,33.9097427,0 -91.8499999,33.9101055,0 -91.84842260000001,33.9120235,0 -91.8480045,33.912563,0 -91.8476182,33.9131239,0 -91.8473339,33.9136359,0 -91.847069,33.9141535,0 -91.84675850000001,33.914916,0 -91.84643899999999,33.915611,0 -91.8460575,33.9165875,0 -91.84584389999999,33.9170737,0 -91.84574979999998,33.917321,0 -91.84565829999998,33.9175176,0 -91.84536229999999,33.9182643,0 -91.84489120000001,33.9193561,0 -91.84468400000002,33.919906,0 -91.84446130000001,33.9204714,0 -91.8441904,33.9211613,0 -91.84395429999998,33.9218446,0 -91.84387649999998,33.9222007,0 -91.84383630000002,33.9225457,0 -91.84380950000002,33.9229619,0 -91.84380950000002,33.9234382,0 -91.84379880000002,33.9242817,0 -91.8437934,33.9249271999999,0 -91.84378890000001,33.9258216,0 -91.84379199999998,33.926779,0 -91.8437842,33.9271449,0 -91.8437328,33.9295682,0 -91.84373479999999,33.9306172,0 -91.8437127,33.9323348,0 -91.8436652,33.9336937,0 -91.8436652,33.933934,0 -91.8436653,33.9350698,0 -91.8436629,33.9356264,0 -91.84366799999999,33.9359848,0 -91.84365119999998,33.9365098,0 -91.84364879999998,33.9374042,0 -91.84363579999999,33.9381429,0 -91.84363459999999,33.9387954,0 -91.8436403,33.9393261,0 -91.8436086,33.9404364,0 -91.8435952,33.9417142,0 -91.84359019999999,33.9425531,0 -91.84358770000001,33.9437904,0 -91.84357590000002,33.944413,0 -91.8435719,33.9446247,0 -91.8435796,33.9453947,0 -91.84357319999999,33.9456558,0 -91.8435654,33.9467326,0 -91.8435241,33.9498344,0 -91.84351409999999,33.950367,0 -91.84350800000001,33.9513199,0 -91.84349130000001,33.9527644,0 -91.84349640000001,33.9535053,0 -91.8434436,33.9541194,0 -91.84332539999998,33.9547499,0 -91.84312930000002,33.9554201,0 -91.8429517,33.9560004,0 -91.84282419999998,33.9564351,0 -91.8426683,33.9569669,0 -91.84259590000001,33.9571969,0 -91.8422906,33.958247,0 -91.84217200000001,33.9587327,0 -91.8420891,33.9590531,0 -91.8419165,33.9596356,0 -91.84169249999999,33.9604378,0 -91.84150259999998,33.9611017,0 -91.84115079999999,33.9623787,0 -91.8408483,33.9634528,0 -91.84070890000001,33.9639088,0 -91.84051570000001,33.9645183,0 -91.8403173,33.9650166,0 -91.8400705,33.9654994,0 -91.83980759999999,33.9659354,0 -91.83944289999999,33.9664337,0 -91.8391317,33.9668163000001,0 -91.83873689999999,33.9672299,0 -91.83726359999999,33.9686793,0 -91.83579140000001,33.9701331,0 -91.8357062,33.9702114,0 -91.83569900000002,33.9702163,0 -91.8318494,33.9740023,0 -91.8311144,33.9747125,0 -91.830381,33.9754326,0 -91.82770730000001,33.9780624,0 -91.8260508,33.9796919,0 -91.8206392,33.9850045,0 -91.81898140000001,33.9866298,0 -91.8183664,33.9872378,0 -91.8173614,33.9882918,0 -91.8169888,33.9887891,0 -91.8167088,33.9892354,0 -91.8162001,33.99023,0 -91.8157661,33.9912075,0 -91.8154543,33.9919482,0 -91.8151939,33.9925872,0 -91.8148041,33.9937532,0 -91.81456879999999,33.9947293,0 -91.81444380000001,33.9955896000001,0 -91.81436600000001,33.996384,0 -91.81433209999999,33.9971045,0 -91.81433920000001,33.9986151,0 -91.8143566,33.9993579,0 -91.8143501,34.0002824,0 -91.81442189999999,34.0030849,0 -91.8144544,34.0046203,0 -91.81448349999999,34.0062185000001,0 -91.8144913,34.0065101,0 -91.8144942,34.0075681,0 -91.814503,34.0081913,0 -91.8145193,34.0109624,0 -91.8145499,34.0123604,0 -91.81454729999999,34.0137389,0 -91.8146137,34.0143122,0 -91.81465660000001,34.0149681,0 -91.8147022,34.0155239,0 -91.814772,34.0162109,0 -91.8148138,34.0166742,0 -91.81488040000002,34.0183458,0 -91.8149133,34.0195125,0 -91.8149544,34.0204327,0 -91.81496079999999,34.0209645,0 -91.8149571,34.0227358,0 -91.8149758,34.0244497,0 -91.8149892,34.0247676,0 -91.81501869999998,34.0250922,0 -91.8150778,34.0254145,0 -91.81516360000001,34.0257324,0 -91.81526820000001,34.0260502999999,0 -91.81539429999999,34.0263548,0 -91.8155391,34.0266483,0 -91.81570809999999,34.026955,0 -91.81589880000001,34.027233,0 -91.81611599999999,34.0275643,0 -91.8180978,34.0298292,0 -91.818527,34.0304205,0 -91.81880059999999,34.0309139,0 -91.8189454,34.0313007,0 -91.81913849999999,34.0318119,0 -91.81922439999998,34.0323543,0 -91.81926189999999,34.0327855,0 -91.81930480000001,34.0339103,0 -91.81941209999999,34.0373644,0 -91.8194604,34.0392358,0 -91.81948380000001,34.0397666,0 -91.8195784,34.0427475,0 -91.81971249999998,34.0479036,0 -91.8198091,34.0500348,0 -91.81997539999999,34.0561794,0 -91.82001289999999,34.0570683,0 -91.82001289999999,34.0573261,0 -91.8203133,34.066583,0 -91.82038040000002,34.0670474,0 -91.8204716,34.0674018,0 -91.82060570000002,34.0678117,0 -91.82071569999999,34.068105,0 -91.82090880000001,34.068465,0 -91.8211867,34.0688751,0 -91.82140230000002,34.0691804,0 -91.82168699999998,34.069509,0 -91.8220326,34.0698425,0 -91.82237600000001,34.0701114000001,0 -91.82266300000001,34.0703246,0 -91.82312700000001,34.0706024,0 -91.825254,34.071711,0 -91.827461,34.0728504,0 -91.8326165,34.0755408,0 -91.83991819999999,34.0793217,0 -91.84188860000002,34.0803892,0 -91.84195629999999,34.0804256,0 -91.8438524,34.0814618,0 -91.8442403,34.0816545,0 -91.84446640000002,34.0817578,0 -91.8449816,34.0819728,0 -91.8461765,34.0823919,0 -91.8494882,34.0836246,0 -91.85064920000001,34.0840692,0 -91.85205190000001,34.0846275,0 -91.8527922,34.0849162,0 -91.85360489999999,34.0852272,0 -91.85608400000001,34.086158,0 -91.85822899999998,34.0869777,0 -91.8584731,34.087071,0 -91.86043650000001,34.0878462,0 -91.86087910000001,34.0880795,0 -91.86118750000001,34.088275,0 -91.8615657,34.0885171,0 -91.8618393,34.0887303,0 -91.86263580000002,34.0894466,0 -91.8641835,34.090885,0 -91.86669139999999,34.0932062000001,0 -91.866834,34.093316,0 -91.86739,34.093865,0 -91.867637,34.094188,0 -91.867763,34.094374,0 -91.86803099999999,34.094814,0 -91.868297,34.09532,0 -91.8683755,34.095499,0 -91.868472,34.095719,0 -91.86852100000002,34.09583,0 -91.86868799999999,34.096161,0 -91.8687948,34.096422,0 -91.868911,34.096706,0 -91.86909799999999,34.097066,0 -91.86912140000001,34.097111,0 -91.86923,34.09732,0 -91.86943290000001,34.0977426,0 -91.8694576,34.0977939,0 -91.8697343,34.0983226,0 -91.86976180000002,34.0983752,0 -91.86986899999999,34.0986374,0 -91.869975,34.098916,0 -91.87032960000002,34.0996871,0 -91.87038080000001,34.0997984,0 -91.87097750000001,34.1010963,0 -91.87103940000002,34.1012309,0 -91.87119300000001,34.101565,0 -91.871438,34.102075,0 -91.8716233,34.1025176,0 -91.8716822,34.1026701,0 -91.87183900000001,34.103167,0 -91.87196590000001,34.1037773,0 -91.87197500000001,34.103821,0 -91.8719712,34.1043438,0 -91.87196900000001,34.104639,0 -91.8719528,34.104863,0 -91.87190990000002,34.1054548,0 -91.87187120000002,34.1059886,0 -91.871847,34.1063218,0 -91.871684,34.108571,0 -91.87170999999999,34.109196,0 -91.87184000000001,34.1097950000001,0 -91.872131,34.111203,0 -91.8722609,34.1118179,0 -91.872416,34.112581,0 -91.87281299999999,34.114339,0 -91.872912,34.114627,0 -91.87311200000002,34.115092,0 -91.87339599999999,34.11551,0 -91.87390499999999,34.116093,0 -91.874584,34.116792,0 -91.875181,34.117458,0 -91.87560950000001,34.1178281,0 -91.876108,34.118177,0 -91.8767277,34.1185097,0 -91.87677300000001,34.118534,0 -91.87725799999998,34.118679,0 -91.877656,34.118804,0 -91.87912500000002,34.11912,0 -91.879687,34.119297,0 -91.88024200000001,34.119567,0 -91.8807127,34.1199027,0 -91.88074640000001,34.1199268,0 -91.88081400000002,34.119975,0 -91.88105300000001,34.120189,0 -91.881629,34.120854,0 -91.88263240000001,34.1221364,0 -91.88271899999999,34.122247,0 -91.8830885,34.1227214,0 -91.88321590000001,34.122885,0 -91.885015,34.125195,0 -91.88548399999999,34.1258012,0 -91.88657489999999,34.1272147,0 -91.88706709999998,34.1278471,0 -91.88789970000002,34.1289234,0 -91.887986,34.1290248,0 -91.888611,34.129828,0 -91.88892199999998,34.130231,0 -91.88949100000001,34.13081,0 -91.890086,34.131278,0 -91.891571,34.132207,0 -91.893119,34.133176,0 -91.89434899999999,34.133909,0 -91.895061,34.134218,0 -91.89562299999999,34.134384,0 -91.89566499999999,34.134395,0 -91.89619999999999,34.1345319999999,0 -91.896765,34.134602,0 -91.8975264,34.1346938,0 -91.899196,34.134895,0 -91.89996249999999,34.135003,0 -91.90000499999999,34.135009,0 -91.900021,34.135011,0 -91.90070800000001,34.135155,0 -91.90079420000001,34.1351775,0 -91.90136699999999,34.135327,0 -91.9021235,34.1355586000001,0 -91.90239900000002,34.135643,0 -91.90273300000001,34.135798,0 -91.90299099999999,34.135912,0 -91.903395,34.13609,0 -91.904295,34.13652,0 -91.905091,34.137005,0 -91.905787,34.137502,0 -91.9074181,34.1386799,0 -91.9078767,34.1390684,0 -91.90818790000002,34.1394169,0 -91.90849629999998,34.1398254,0 -91.9086921,34.1402028,0 -91.908807,34.140452,0 -91.908901,34.140769,0 -91.908951,34.141008,0 -91.90900329999999,34.1414415,0 -91.90901490000002,34.1416276,0 -91.90902800000002,34.144236,0 -91.90902800000002,34.144303,0 -91.909059,34.147095,0 -91.90911060000002,34.1507071,0 -91.909132,34.1510889,0 -91.9091901,34.1513056,0 -91.9091981,34.1513276,0 -91.90936270000002,34.1517681,0 -91.90959599999999,34.1521776,0 -91.9097167,34.1523596,0 -91.9100574,34.1527403,0 -91.9109157,34.1535704,0 -91.912747,34.15535,0 -91.91553,34.1581,0 -91.91565900000001,34.158261,0 -91.915941,34.158643,0 -91.916106,34.158866,0 -91.916301,34.1592270000001,0 -91.916448,34.159578,0 -91.91664400000001,34.160122,0 -91.916751,34.160606,0 -91.916808,34.16107,0 -91.9168432,34.1657183,0 -91.91688820000002,34.1708402,0 -91.91692199999999,34.1730859,0 -91.91695350000001,34.1740867,0 -91.9169584,34.174649,0 -91.91696880000001,34.1750539,0 -91.91699280000002,34.1765655,0 -91.9170328,34.1768611,0 -91.91711890000002,34.177279,0 -91.91722229999999,34.1776454,0 -91.9173404,34.1779645,0 -91.91753730000001,34.1783344,0 -91.91775849999999,34.1787136,0 -91.918119,34.179213,0 -91.91849749999999,34.1796389,0 -91.919078,34.180292,0 -91.91969589999999,34.1809867,0 -91.92054419999999,34.1819404,0 -91.920687,34.182101,0 -91.921012,34.18253,0 -91.9210491,34.1825986,0 -91.92121400000002,34.182904,0 -91.921368,34.1833,0 -91.92141200000002,34.183593,0 -91.92142799999999,34.183753,0 -91.92146099999999,34.184076,0 -91.92146099999999,34.184093,0 -91.9214674,34.1850872,0 -91.921468,34.185182,0 -91.92146700000001,34.185269,0 -91.921464,34.185637,0 -91.9214679,34.18712,0 -91.92146900000002,34.187543,0 -91.921499,34.188683,0 -91.9215049,34.1893072,0 -91.9215104,34.1898846,0 -91.921515,34.190371,0 -91.92151829999999,34.190797,0 -91.9215208,34.1911277,0 -91.92152310000002,34.1914234,0 -91.9215275,34.1919937000001,0 -91.92153080000001,34.1924203,0 -91.9215358,34.1930634,0 -91.9215411,34.1937476,0 -91.92160040000002,34.1942789,0 -91.92169079999999,34.1944273,0 -91.9218841,34.1945735,0 -91.9222985,34.1947295,0 -91.92577199999999,34.194831,0 -91.92829500000001,34.1948287,0 -91.9295235,34.1948348,0 -91.93023590000001,34.1948366,0 -91.93158990000001,34.1948426,0 -91.932182,34.194848,0 -91.9324668,34.1948523,0 -91.9330339,34.1948481,0 -91.9342374,34.1948392,0 -91.935689,34.194843,0 -91.93724760000001,34.1948523,0 -91.9375496,34.1948541,0 -91.937708,34.194855,0 -91.93834399999999,34.1948426000001,0 -91.93857800000001,34.194838,0 -91.9388544,34.1948324,0 -91.9389151,34.1948312,0 -91.93912099999999,34.194827,0 -91.9398628,34.1948198,0 -91.941292,34.194806,0 -91.94187729999999,34.1947982,0 -91.94271739999999,34.1947871,0 -91.94313099999999,34.1947816,0 -91.94374550000001,34.1947734,0 -91.9445963,34.1947615,0 -91.944821,34.194756,0 -91.94504000000001,34.1947574,0 -91.94520790000001,34.1947584,0 -91.9464083,34.1947474,0 -91.94710199999999,34.194741,0 -91.947315,34.194737,0 -91.94733479999999,34.1947366,0 -91.94821,34.194721,0 -91.950749,34.194675,0 -91.952749,34.194648,0 -91.9544927,34.1945953000001,0 -91.9551963,34.1946232,0 -91.9556166,34.1946552,0 -91.9559883,34.1946892,0 -91.95635519999999,34.1947629,0 -91.95646640000001,34.1947958,0 -91.95670749999999,34.1948672,0 -91.9571521,34.1950349,0 -91.95761299999999,34.19531,0 -91.95776659999999,34.1954126,0 -91.9580076,34.1955736,0 -91.95809800000001,34.195634,0 -91.95832,34.195801,0 -91.95841829999999,34.1958752,0 -91.958748,34.196124,0 -91.95905440000001,34.1963551,0 -91.95905859999999,34.1963583,0 -91.959208,34.196471,0 -91.9594475,34.1966512,0 -91.9595762,34.1967488,0 -91.95995509999999,34.1970358,0 -91.96093900000001,34.197759,0 -91.962076,34.198603,0 -91.96252200000001,34.198957,0 
			</coordinates>
		</LineString>
		<atom:link rel="app" href="https://www.google.com/earth/about/versions/#earth-pro" title="Google Earth Pro 7.3.6.10201"></atom:link>
	</Placemark>
</Document>
</kml>
