<?xml version="1.0" encoding="UTF-8"?>
<kml xmlns="http://www.opengis.net/kml/2.2" xmlns:gx="http://www.google.com/kml/ext/2.2" xmlns:kml="http://www.opengis.net/kml/2.2" xmlns:atom="http://www.w3.org/2005/Atom">
<Document>
	<name>US.49W.kml</name>
	<Placemark>
		<name>US.49W</name>
		<LineString>
			<coordinates>
				-90.38768679999998,32.8875089,0 -90.38751449999999,32.8878086,0 -90.38741460000001,32.8879431,0 -90.3872918,32.8880366,0 -90.3871553,32.8881115,0 -90.38699970000002,32.8881512,0 -90.3868434,32.8881596,0 -90.38668850000001,32.8881461,0 -90.38653979999999,32.8881071,0 -90.3864025,32.8880456,0 -90.38626979999999,32.8879527,0 -90.3861814,32.8878413,0 -90.38611040000001,32.8877356,0 -90.3860693,32.887612,0 -90.38605630000001,32.8874903,0 -90.3860777,32.8873744,0 -90.3861158,32.8872687,0 -90.3861936,32.8871362,0 -90.3862843,32.8870375,0 -90.38640479999999,32.8869472,0 -90.3865215,32.8868883,0 -90.38668319999998,32.8868486,0 -90.3868365,32.8868262,0 -90.38767009999998,32.8868614,0 -90.3888048,32.8869176,0 -90.38985280000001,32.8869654,0 -90.39060809999999,32.8870159,0 -90.39272320000002,32.8875041,0 -90.3944168,32.8879865,0 -90.3960865,32.8884601,0 -90.39733489999999,32.8888081,0 -90.3978518,32.8889522,0 -90.3994374,32.8894056,0 -90.4010229,32.889849,0 -90.4027591,32.8903387,0 -90.4044803,32.8908222,0 -90.4051501,32.8910389,0 -90.40569600000001,32.8912518,0 -90.406133,32.8914522,0 -90.40672959999999,32.8917628,0 -90.4072487,32.8920809,0 -90.40774979999999,32.8924391,0 -90.4081863,32.8928404,0 -90.409098,32.8936958,0 -90.4093306,32.8939813,0 -90.4095521,32.894275,0 -90.4097886,32.8946484,0 -90.40989449999999,32.8948079,0 -90.41014880000002,32.8952663,0 -90.4104076,32.8958449,0 -90.41060000000002,32.8963972,0 -90.4107267,32.8968882,0 -90.41076350000002,32.8971861,0 -90.41082120000002,32.8979707,0 -90.4108641,32.8995561,0 -90.41094990000001,32.9017181,0 -90.41107069999998,32.9040528,0 -90.4111645,32.9069065,0 -90.411422,32.911302,0 -90.41163659999999,32.9149408,0 -90.4118941,32.9192278,0 -90.4121075,32.922546,0 -90.4122895,32.9281122,0 -90.4126602,32.9329115,0 -90.4128644,32.936227,0 -90.412998,32.9373519,0 -90.41318130000001,32.9383871,0 -90.41344290000001,32.9394863,0 -90.4137255,32.940475,0 -90.41399469999999,32.9412586,0 -90.41445109999999,32.9423626,0 -90.41473659999998,32.9429945,0 -90.41507009999998,32.9436695,0 -90.41559400000001,32.9446189,0 -90.41605299999999,32.945369,0 -90.416693,32.9463026,0 -90.41720329999998,32.9469824,0 -90.4178055,32.9477211,0 -90.41847509999999,32.9484847,0 -90.419404,32.9494273,0 -90.4202708,32.9502317,0 -90.42108899999999,32.9509206,0 -90.42220149999999,32.9517725,0 -90.42321680000001,32.9525452,0 -90.4283148,32.9564014,0 -90.4317288,32.9589792,0 -90.43639400000001,32.9625238,0 -90.4426876,32.9672927,0 -90.44691299999998,32.9704762,0 -90.449397,32.97235,0 -90.4534817,32.9754615,0 -90.45758899999998,32.978547,0 -90.45881909999999,32.9795279,0 -90.45976489999998,32.9803243,0 -90.46035500000001,32.9808618,0 -90.4610763,32.9815486,0 -90.4619337,32.9824191,0 -90.46273590000001,32.9833018,0 -90.46389400000001,32.984644,0 -90.465225,32.986463,0 -90.46633100000001,32.988253,0 -90.467106,32.989728,0 -90.467657,32.990859,0 -90.467978,32.991518,0 -90.468182,32.992027,0 -90.46833599999999,32.99241,0 -90.468597,32.993128,0 -90.469106,32.994703,0 -90.46941900000002,32.995931,0 -90.469764,32.99756,0 -90.469909,32.99875,0 -90.47005800000001,32.999978,0 -90.470057,33.000245,0 -90.4701,33.001253,0 -90.47010800000001,33.002228,0 -90.47009300000001,33.002612,0 -90.47007499999999,33.003069,0 -90.47000300000001,33.004086,0 -90.46986699999999,33.005633,0 -90.46969199999999,33.007222,0 -90.4694551,33.0092748,0 -90.46912500000001,33.012136,0 -90.468853,33.014694,0 -90.46861400000002,33.016742,0 -90.468403,33.018742,0 -90.46811400000001,33.021133,0 -90.46796399999998,33.022852,0 -90.46785000000001,33.0245,0 -90.467744,33.026503,0 -90.46766700000002,33.028244,0 -90.467428,33.032575,0 -90.467269,33.036053,0 -90.46719400000001,33.037433,0 -90.46716799999999,33.037992,0 -90.46708600000001,33.039758,0 -90.46700300000001,33.041333,0 -90.466883,33.043362,0 -90.46688199999998,33.044491,0 -90.466933,33.045861,0 -90.46700300000001,33.046853,0 -90.467094,33.047691,0 -90.467292,33.048944,0 -90.46750700000001,33.050013,0 -90.46759400000001,33.050444,0 -90.467833,33.051367,0 -90.46792499999999,33.051719,0 -90.46809440000001,33.0523234,0 -90.46844750000001,33.0535082,0 -90.46862299999999,33.0540702,0 -90.4688986,33.0548916,0 -90.4691492,33.0556135,0 -90.469478,33.056531,0 -90.46956299999999,33.056812,0 -90.469628,33.057025,0 -90.47104400000001,33.061503,0 -90.47185600000002,33.063997,0 -90.473386,33.068803,0 -90.473817,33.070117,0 -90.473994,33.070628,0 -90.474192,33.071081,0 -90.47454399999999,33.071841,0 -90.47495000000001,33.072572,0 -90.475342,33.073244,0 -90.47573100000001,33.0738,0 -90.47606099999999,33.074239,0 -90.476686,33.075021,0 -90.4775875,33.0759745,0 -90.47772500000001,33.07612,0 -90.47828100000001,33.076707,0 -90.4785863,33.0770298,0 -90.47934400000001,33.077831,0 -90.48134399999999,33.079925,0 -90.482906,33.081547,0 -90.48406100000001,33.082831,0 -90.4851,33.083944,0 -90.486131,33.085219,0 -90.48733300000001,33.086678,0 -90.48779400000001,33.087238,0 -90.489453,33.089399,0 -90.489938,33.090044,0 -90.490678,33.091028,0 -90.49205800000001,33.09283,0 -90.493325,33.094458,0 -90.49364699999998,33.094844,0 -90.49431299999999,33.095626,0 -90.49490900000001,33.09632,0 -90.495356,33.096842,0 -90.49687649999998,33.0986514,0 -90.497353,33.0992384,0 -90.49813899999999,33.100189,0 -90.498418,33.100557,0 -90.4987751,33.1010602,0 -90.49935979999998,33.1018277,0 -90.49993360000001,33.1025864,0 -90.50068229999999,33.1035693,0 -90.5009412,33.1039271,0 -90.5027492,33.1062893,0 -90.503964,33.107903,0 -90.50532870000001,33.1097024,0 -90.506407,33.111116,0 -90.50792800000001,33.113132,0 -90.51119700000001,33.117435,0 -90.51169399999999,33.118102,0 -90.512947,33.119756,0 -90.513828,33.120942,0 -90.51538600000001,33.122981,0 -90.51608899999999,33.123933,0 -90.51648900000002,33.124474,0 -90.51674199999998,33.124867,0 -90.51683300000001,33.124981,0 -90.51722200000002,33.125653,0 -90.51776700000001,33.126852,0 -90.51805,33.127608,0 -90.518303,33.128461,0 -90.51848099999998,33.129322,0 -90.518592,33.130181,0 -90.51865300000001,33.131228,0 -90.51863100000001,33.132011,0 -90.51858300000001,33.132631,0 -90.51834199999999,33.134028,0 -90.51810300000001,33.134869,0 -90.51785,33.135621,0 -90.517572,33.136322,0 -90.517225,33.136986,0 -90.516786,33.137752,0 -90.516403,33.138336,0 -90.516319,33.138464,0 -90.515928,33.139007,0 -90.51544199999999,33.139646,0 -90.51525599999999,33.139933,0 -90.51486700000001,33.140461,0 -90.51278000000001,33.143293,0 -90.510947,33.145781,0 -90.51019400000001,33.146822,0 -90.51012900000001,33.146909,0 -90.51009259999999,33.1469578,0 -90.50812799999999,33.149594,0 -90.50685,33.151339,0 -90.506519,33.151781,0 -90.50582799999999,33.152738,0 -90.5050387,33.1538038,0 -90.5047354,33.1542193,0 -90.50423000000001,33.154991,0 -90.50373100000002,33.155797,0 -90.50349199999999,33.156163,0 -90.50332400000001,33.156509,0 -90.50279399999999,33.157224,0 -90.502194,33.158018,0 -90.5012236,33.1593633,0 -90.500364,33.160555,0 -90.50010399999999,33.16095,0 -90.50004800000001,33.161057,0 -90.499658,33.161942,0 -90.499539,33.162303,0 -90.499481,33.162484,0 -90.49932200000002,33.162999,0 -90.4992489,33.163386,0 -90.49918510000001,33.1638095,0 -90.4991448,33.1641957,0 -90.498925,33.165906,0 -90.498828,33.166769,0 -90.49877249999999,33.1672251,0 -90.49871400000001,33.167668,0 -90.49865899999999,33.1681047,0 -90.49860800000002,33.168494,0 -90.49846099999999,33.169642,0 -90.4984383,33.1698804,0 -90.49843479999998,33.1699025,0 -90.49839800000001,33.17016,0 -90.498276,33.171172,0 -90.49825000000001,33.171388,0 -90.498189,33.171914,0 -90.498158,33.172161,0 -90.498132,33.172379,0 -90.49810600000001,33.172607,0 -90.498076,33.172849,0 -90.49807199999999,33.17288,0 -90.49801099999999,33.173381,0 -90.497919,33.174061,0 -90.49784389999999,33.1747028,0 -90.4978222,33.1748793,0 -90.49749540000001,33.1775391,0 -90.49743899999999,33.17803,0 -90.4973729,33.1785408,0 -90.497336,33.178961,0 -90.497286,33.179409,0 -90.497283,33.1794395,0 -90.49724099999999,33.180417,0 -90.497062,33.182415,0 -90.49706,33.182436,0 -90.497058,33.182457,0 -90.496897,33.183767,0 -90.4968787,33.1839093,0 -90.49676900000001,33.184761,0 -90.496692,33.18533,0 -90.496658,33.185581,0 -90.4966129,33.186056,0 -90.4966146,33.1863025,0 -90.49664199999999,33.186608,0 -90.49670599999999,33.186974,0 -90.49679399999999,33.187308,0 -90.496931,33.187772,0 -90.49709989999999,33.1881447,0 -90.497283,33.188558,0 -90.497478,33.188842,0 -90.49774699999999,33.189208,0 -90.498042,33.189521,0 -90.498394,33.189872,0 -90.4990135,33.1903317,0 -90.50005,33.190997,0 -90.500356,33.191203,0 -90.50091699999999,33.191578,0 -90.501214,33.191767,0 -90.5019774,33.1922686,0 -90.503303,33.193108,0 -90.50441400000001,33.193844,0 -90.50978600000001,33.197372,0 -90.51007400000002,33.19756,0 -90.513139,33.199561,0 -90.51514400000001,33.200899,0 -90.51683300000001,33.201994,0 -90.519592,33.203789,0 -90.520394,33.204319,0 -90.52193299999999,33.205339,0 -90.525632,33.2077614,0 -90.526928,33.20861,0 -90.52876699999999,33.209808,0 -90.529831,33.2105,0 -90.530631,33.211031,0 -90.531244,33.211436,0 -90.532111,33.211996,0 -90.532483,33.212235,0 -90.535656,33.214336,0 -90.53656100000001,33.214939,0 -90.53783899999999,33.215758,0 -90.540008,33.217185,0 -90.540706,33.217655,0 -90.540997,33.217852,0 -90.545164,33.220571,0 -90.545756,33.220975,0 -90.54594699999998,33.221106,0 -90.547383,33.222017,0 -90.54815600000001,33.222529,0 -90.54892499999998,33.223039,0 -90.55013099999999,33.223802,0 -90.55090599999998,33.224272,0 -90.55186399999999,33.224842,0 -90.553872,33.225907,0 -90.55490599999999,33.226436,0 -90.55549499999999,33.226715,0 -90.556225,33.227061,0 -90.557789,33.227772,0 -90.56045600000002,33.228958,0 -90.560844,33.229135,0 -90.561188,33.229292,0 -90.56188099999999,33.229608,0 -90.56401700000001,33.230565,0 -90.56770800000001,33.232219,0 -90.571583,33.233947,0 -90.572514,33.234433,0 -90.572709,33.234555,0 -90.57319200000002,33.234856,0 -90.57339999999999,33.235011,0 -90.57399400000001,33.235458,0 -90.57459200000001,33.236027,0 -90.57510600000001,33.236589,0 -90.575486,33.237119,0 -90.57580299999998,33.237617,0 -90.575975,33.237966,0 -90.576167,33.238397,0 -90.57638900000001,33.238964,0 -90.57659200000001,33.239581,0 -90.576622,33.239744,0 -90.57671100000002,33.240536,0 -90.576731,33.240881,0 -90.576736,33.241616,0 -90.576731,33.241985,0 -90.576725,33.24214,0 -90.57671100000002,33.242489,0 -90.576725,33.242769,0 -90.57677200000001,33.243136,0 -90.576869,33.243792,0 -90.57691699999999,33.244017,0 -90.577039,33.244436,0 -90.57728299999999,33.245131,0 -90.57737199999998,33.245328,0 -90.57745300000002,33.245506,0 -90.57753099999999,33.245652,0 -90.577794,33.246066,0 -90.57813300000001,33.246527,0 -90.578497,33.24695,0 -90.57896700000001,33.247389,0 -90.57941899999999,33.247763,0 -90.57987499999999,33.248168,0 -90.580106,33.248353,0 -90.580594,33.248775,0 -90.58106399999998,33.249197,0 -90.58136179999998,33.2495271,0 -90.58171710000001,33.2499637,0 -90.5819692,33.2503354,0 -90.58224299999999,33.2507933,0 -90.5824875,33.2512725,0 -90.58273920000001,33.2517718,0 -90.58315800000001,33.252556,0 -90.58430730000002,33.2548112,0 -90.5845734,33.2553397,0 -90.584917,33.256008,0 -90.58556400000001,33.257267,0 -90.58587330000002,33.257842,0 -90.585948,33.258015,0 -90.58609740000001,33.2583031,0 -90.58644200000001,33.258969,0 -90.586775,33.259603,0 -90.58735600000001,33.260793,0 -90.587711,33.261442,0 -90.58798899999998,33.262014,0 -90.588289,33.262675,0 -90.58846900000002,33.263131,0 -90.58856099999998,33.263439,0 -90.5887824,33.264109,0 -90.5889657,33.2647947,0 -90.58909180000001,33.2653761,0 -90.58917080000001,33.2658595,0 -90.5892624,33.266575,0 -90.58930700000001,33.2671393,0 -90.58932499999999,33.267643,0 -90.589321,33.2681199,0 -90.58930829999998,33.2685064,0 -90.58929449999999,33.2687341,0 -90.5892522,33.2692008,0 -90.58917809999998,33.2699109,0 -90.5891373,33.2702335,0 -90.58908419999999,33.2706511,0 -90.58902960000002,33.2711763,0 -90.5889507,33.27183,0 -90.58884699999999,33.272575,0 -90.58880790000002,33.2728952,0 -90.5887853,33.2731715,0 -90.58877450000001,33.2734892,0 -90.58877989999999,33.2738558,0 -90.5888097,33.2743203,0 -90.58886099999999,33.274653,0 -90.58894700000002,33.275146,0 -90.58913900000002,33.275756,0 -90.589625,33.277203,0 -90.58982,33.277723,0 -90.590125,33.278533,0 -90.590236,33.278911,0 -90.59038099999999,33.279508,0 -90.590417,33.279933,0 -90.590433,33.280949,0 -90.590419,33.281596,0 -90.590419,33.28313,0 -90.590408,33.285227,0 -90.59040299999999,33.285674,0 -90.590411,33.286842,0 -90.59040000000002,33.288586,0 -90.59040299999999,33.290405,0 -90.59038099999999,33.293174,0 -90.590374,33.295147,0 -90.59036900000001,33.295935,0 -90.59036900000001,33.298781,0 -90.59034700000001,33.299925,0 -90.59033599999999,33.300472,0 -90.59034200000001,33.301941,0 -90.59033599999999,33.303638,0 -90.59032920000001,33.3055156,0 -90.59032500000001,33.306672,0 -90.59032199999999,33.307039,0 -90.590317,33.307522,0 -90.59027799999998,33.311872,0 -90.590194,33.313682,0 -90.59013600000002,33.314467,0 -90.590103,33.314928,0 -90.59006100000001,33.316681,0 -90.59006400000001,33.318364,0 -90.590047,33.319263,0 -90.590047,33.319419,0 -90.590039,33.321803,0 -90.59003599999998,33.323147,0 -90.59,33.327897,0 -90.58997250000002,33.329404,0 -90.589972,33.329434,0 -90.589956,33.33193,0 -90.589933,33.333475,0 -90.589917,33.335093,0 -90.58992499999999,33.335731,0 -90.58992499999999,33.336378,0 -90.589928,33.337156,0 -90.589928,33.338692,0 -90.58992200000002,33.339374,0 -90.58992200000002,33.339519,0 -90.589956,33.340189,0 -90.58996300000001,33.340975,0 -90.589969,33.341746,0 -90.589961,33.342135,0 -90.58992499999999,33.342458,0 -90.58983099999999,33.343181,0 -90.58977199999998,33.343434,0 -90.58976699999999,33.343456,0 -90.58966099999999,33.343822,0 -90.58955899999999,33.344095,0 -90.58949200000001,33.344271,0 -90.58925299999999,33.344766,0 -90.58911099999999,33.345014,0 -90.58886699999999,33.345346,0 -90.58834999999999,33.345964,0 -90.58748300000001,33.346983,0 -90.58712800000001,33.347375,0 -90.586764,33.347775,0 -90.586314,33.348308,0 -90.585364,33.349364,0 -90.585178,33.349569,0 -90.584436,33.350425,0 -90.584181,33.350703,0 -90.58362200000001,33.351357,0 -90.583561,33.35143,0 -90.58335000000001,33.351756,0 -90.583144,33.35215,0 -90.582983,33.352497,0 -90.5828089,33.3529627,0 -90.58269369999999,33.3533433,0 -90.58262790000001,33.3536321,0 -90.58257300000001,33.3539187,0 -90.58253970000001,33.3541879,0 -90.5825172,33.3545076,0 -90.58251540000002,33.3547979,0 -90.5825334,33.3551544,0 -90.58257119999999,33.355506,0 -90.58267939999999,33.3560722,0 -90.58273610000001,33.3562662,0 -90.5827819,33.3564156,0 -90.5828297,33.3565565,0 -90.582857,33.3566305,0 -90.5830204,33.3570174,0 -90.58341899999999,33.357764,0 -90.58343100000002,33.357779,0 -90.583472,33.357833,0 -90.583663,33.3581065,0 -90.58374010000001,33.358204,0 -90.58388749999999,33.3583905,0 -90.58418899999999,33.358731,0 -90.58435299999999,33.3589,0 -90.58466900000001,33.359197,0 -90.58521399999999,33.359622,0 -90.58568300000002,33.360019,0 -90.58620000000001,33.360431,0 -90.58658899999999,33.360756,0 -90.58730600000001,33.361334,0 -90.587603,33.361575,0 -90.588019,33.361994,0 -90.58855800000001,33.362586,0 -90.58863100000001,33.362678,0 -90.58871100000002,33.362775,0 -90.58890300000002,33.363056,0 -90.588981,33.363191,0 -90.589203,33.363581,0 -90.589342,33.363847,0 -90.58945799999999,33.364069,0 -90.58961700000002,33.364424,0 -90.58974999999998,33.364761,0 -90.58989699999999,33.365236,0 -90.58996399999998,33.365578,0 -90.590003,33.365861,0 -90.59011699999999,33.366486,0 -90.59013600000002,33.366733,0 -90.59013899999999,33.367489,0 -90.590125,33.368022,0 -90.59012800000001,33.36825,0 -90.590142,33.369086,0 -90.590147,33.369633,0 -90.59014999999999,33.369925,0 -90.590153,33.370528,0 -90.590144,33.371167,0 -90.59016099999999,33.371699,0 -90.59016099999999,33.372953,0 -90.590153,33.3733,0 -90.59015599999998,33.373635,0 -90.590194,33.374447,0 -90.59029999999998,33.375014,0 -90.590453,33.375714,0 -90.59061400000002,33.376106,0 -90.59085600000002,33.376617,0 -90.591081,33.377011,0 -90.591317,33.377394,0 -90.59144999999999,33.377561,0 -90.59165299999999,33.377858,0 -90.59176100000001,33.378,0 -90.591956,33.378206,0 -90.592439,33.378678,0 -90.59282199999998,33.378999,0 -90.59325200000002,33.379365,0 -90.593439,33.379525,0 -90.594239,33.380169,0 -90.59724699999998,33.382655,0 -90.599417,33.384433,0 -90.599906,33.38485,0 -90.60055800000001,33.385389,0 -90.601114,33.385832,0 -90.60205799999999,33.386617,0 -90.60403600000001,33.388239,0 -90.606261,33.390081,0 -90.607433,33.39103,0 -90.60805999999999,33.39155,0 -90.60866900000001,33.392052,0 -90.612133,33.394917,0 -90.61307499999999,33.395705,0 -90.61415600000001,33.396592,0 -90.61610299999998,33.398189,0 -90.617001,33.398943,0 -90.617469,33.399335,0 -90.61823099999999,33.399954,0 -90.61874700000001,33.400371,0 -90.62073099999999,33.402008,0 -90.6212649,33.4024554,0 -90.62170039999999,33.4028092,0 -90.62217799999999,33.403204,0 -90.624465,33.405088,0 -90.62499699999999,33.405506,0 -90.62519699999999,33.405676,0 -90.62572500000002,33.406128,0 -90.62796399999999,33.407964,0 -90.62861700000001,33.408521,0 -90.62908899999999,33.408942,0 -90.62965299999999,33.409422,0 -90.630297,33.410069,0 -90.63079999999999,33.410663,0 -90.63112499999998,33.411067,0 -90.63161100000001,33.411783,0 -90.632042,33.412483,0 -90.63226400000001,33.412919,0 -90.632469,33.413358,0 -90.63265800000001,33.413808,0 -90.632825,33.414257,0 -90.632972,33.414752,0 -90.633111,33.415286,0 -90.633217,33.415742,0 -90.633281,33.416136,0 -90.633336,33.416625,0 -90.633503,33.4179703,0 -90.633566,33.418414,0 -90.63364349999999,33.4191262,0 -90.633686,33.419344,0 -90.63372270000002,33.4196741,0 -90.633906,33.421325,0 -90.633956,33.422067,0 -90.63395,33.422708,0 -90.63392899999999,33.423175,0 -90.6338974,33.4238768,0 -90.633881,33.424242,0 -90.63384800000001,33.42485,0 -90.633847,33.424872,0 -90.633797,33.425781,0 -90.633717,33.427726,0 -90.6336831,33.4285594,0 -90.633661,33.429102,0 -90.63355599999998,33.430768,0 -90.63346400000002,33.432639,0 -90.6332664,33.4350322,0 -90.63322599999998,33.43528,0 -90.633145,33.435492,0 -90.633092,33.4363,0 -90.633079,33.436568,0 -90.63303000000002,33.437562,0 -90.63300800000002,33.438091,0 -90.63298500000001,33.438605,0 -90.63297999999999,33.43873,0 -90.632966,33.439044,0 -90.63275299999999,33.442894,0 -90.632633,33.445461,0 -90.6326249,33.4455189,0 -90.63261620000002,33.4457193,0 -90.63257199999998,33.446736,0 -90.632531,33.447764,0 -90.63250140000001,33.4484922,0 -90.632481,33.448994,0 -90.632453,33.449458,0 -90.6324517,33.4494794,0 -90.63235229999999,33.451181,0 -90.63233800000002,33.451425,0 -90.6323139,33.4518895,0 -90.632267,33.452793,0 -90.63223799999999,33.453482,0 -90.632206,33.454258,0 -90.6321959,33.4544702,0 -90.63217860000002,33.4548354,0 -90.63217800000001,33.454847,0 -90.63217800000001,33.4549367,0 -90.63217800000001,33.4550055,0 -90.63217800000001,33.455072,0 -90.63220410000001,33.4553171,0 -90.63222200000001,33.455486,0 -90.63222690000001,33.4554984,0 -90.6322989,33.4556816,0 -90.63230470000002,33.4556964,0 -90.63232419999999,33.455746,0 -90.6324864,33.4565967,0 -90.6325628,33.4570423,0 -90.6325915,33.4572568,0 -90.6326157,33.4575282,0 -90.6326193,33.4577794,0 -90.63261900000001,33.4579,0 -90.63261,33.458013,0 -90.6326043,33.4580879,0 -90.632564,33.458622,0 -90.63233199999999,33.459317,0 -90.6321456,33.4595461,0 -90.632003,33.459792,0 -90.63182900000001,33.460041,0 -90.63174700000002,33.460158,0 -90.63126900000002,33.460639,0 -90.631164,33.460724,0 -90.63080600000001,33.461019,0 -90.6307305,33.461077,0 -90.63039999999999,33.461331,0 -90.630031,33.46163,0 -90.62974400000002,33.46185,0 -90.62954809999999,33.4620093,0 -90.629108,33.462367,0 -90.6280161,33.4632013,0 -90.628006,33.463209,0 -90.62778539999999,33.4633827,0 -90.62744600000001,33.46365,0 -90.6272038,33.4638439,0 -90.62690069999999,33.4640865,0 -90.626075,33.464736,0 -90.62521700000001,33.465425,0 -90.6246419,33.4658759,0 -90.62218300000001,33.467807,0 -90.6215504,33.4683024,0 -90.62125240000002,33.4685347,0 -90.6211333,33.4686277,0 -90.62075400000001,33.4689243,0 -90.6189827,33.4703097,0 -90.61793,33.471134,0 -90.6175571,33.4714276,0 -90.61487600000001,33.473539,0 -90.61314400000001,33.474902,0 -90.61148300000001,33.476183,0 -90.609781,33.477533,0 -90.60811099999999,33.478838,0 -90.607828,33.479058,0 -90.607606,33.479233,0 -90.60694700000001,33.479746,0 -90.605908,33.480556,0 -90.605186,33.481153,0 -90.60446400000001,33.481792,0 -90.603942,33.482281,0 -90.603072,33.483122,0 -90.6026,33.483614,0 -90.601569,33.484764,0 -90.600983,33.485486,0 -90.59968600000002,33.48713,0 -90.59931400000001,33.487586,0 -90.59864399999999,33.488483,0 -90.59804199999999,33.489433,0 -90.59760300000001,33.490242,0 -90.59716569999999,33.4911824,0 -90.596692,33.4921959,0 -90.595136,33.495393,0 -90.594722,33.496178,0 -90.594003,33.497528,0 -90.59313899999999,33.499153,0 -90.592754,33.499872,0 -90.59151700000001,33.502183,0 -90.59068600000002,33.503753,0 -90.588314,33.508228,0 -90.58813599999999,33.508561,0 -90.58663899999999,33.511364,0 -90.586384,33.511831,0 -90.585658,33.513157,0 -90.585386,33.513603,0 -90.58511100000001,33.514018,0 -90.584881,33.514339,0 -90.584389,33.514981,0 -90.58410799999999,33.515318,0 -90.58365000000001,33.515833,0 -90.583169,33.516343,0 -90.582758,33.516728,0 -90.58222499999999,33.517194,0 -90.581808,33.517536,0 -90.58055299999999,33.518467,0 -90.580022,33.518803,0 -90.579628,33.519042,0 -90.57919699999999,33.519286,0 -90.578675,33.519564,0 -90.57768899999999,33.520038,0 -90.57701400000001,33.520319,0 -90.576086,33.520683,0 -90.57363100000001,33.521625,0 -90.57256099999998,33.522031,0 -90.57070299999999,33.52275,0 -90.564786,33.525005,0 -90.561539,33.526258,0 -90.55924400000001,33.527141,0 -90.554322,33.529027,0 -90.54974500000002,33.530774,0 -90.546356,33.532066,0 -90.54413599999999,33.53293,0 -90.539125,33.534844,0 -90.53832300000002,33.535147,0 -90.53616700000001,33.535966,0 -90.535967,33.536042,0 -90.53571700000001,33.536144,0 -90.535353,33.536292,0 -90.53506400000001,33.536437,0 -90.534925,33.536507,0 -90.53480799999998,33.536566,0 -90.53440000000001,33.536828,0 -90.53406099999999,33.537086,0 -90.533608,33.537525,0 -90.53333599999999,33.537844,0 -90.53312199999999,33.538164,0 -90.532878,33.538642,0 -90.53283300000001,33.538733,0 -90.532678,33.539271,0 -90.53211300000001,33.5423237,0 -90.53145600000001,33.545941,0 -90.53127499999999,33.546917,0 -90.531206,33.547289,0 -90.529976,33.553961,0 -90.529158,33.5584,0 -90.528719,33.56075,0 -90.52809699999999,33.564172,0 -90.527984,33.564772,0 -90.527886,33.565289,0 -90.527079,33.569676,0 -90.526375,33.573508,0 -90.525353,33.579019,0 -90.52462300000001,33.582964,0 -90.523422,33.58945,0 -90.523067,33.591436,0 -90.52306200000001,33.591462,0 -90.52264699999999,33.593603,0 -90.52236400000001,33.595117,0 -90.521958,33.597386,0 -90.52131,33.600908,0 -90.52081700000001,33.603511,0 -90.52059999999999,33.604703,0 -90.52029199999998,33.606356,0 -90.52013599999999,33.607297,0 -90.52007199999998,33.607906,0 -90.52005600000001,33.608189,0 -90.520017,33.608831,0 -90.520011,33.609178,0 -90.520031,33.609944,0 -90.52005600000001,33.610233,0 -90.520117,33.610747,0 -90.520183,33.6112,0 -90.520472,33.612789,0 -90.521039,33.616039,0 -90.52113900000001,33.616756,0 -90.52116900000001,33.617144,0 -90.52119399999999,33.617692,0 -90.52118900000001,33.618414,0 -90.52116100000001,33.619053,0 -90.521086,33.619925,0 -90.52090799999999,33.621597,0 -90.52078899999998,33.622825,0 -90.52067800000002,33.623978,0 -90.52064,33.624368,0 -90.52055599999998,33.624981,0 -90.520481,33.625978,0 -90.52037199999999,33.626964,0 -90.52014200000001,33.629467,0 -90.51994999999999,33.631403,0 -90.519797,33.632806,0 -90.51962800000001,33.634536,0 -90.51958099999999,33.635078,0 -90.519486,33.636142,0 -90.519431,33.636859,0 -90.519419,33.637022,0 -90.5194,33.637322,0 -90.51943600000001,33.639061,0 -90.51958099999999,33.640056,0 -90.51992799999999,33.641656,0 -90.52007500000001,33.6422,0 -90.520309,33.643168,0 -90.520347,33.643369,0 -90.520403,33.643664,0 -90.520544,33.6443,0 -90.52121000000001,33.647142,0 -90.52138599999999,33.647894,0 -90.52161700000001,33.648831,0 -90.52181400000001,33.649717,0 -90.52204600000002,33.650693,0 -90.52206700000001,33.650781,0 -90.52260800000001,33.653022,0 -90.52274199999998,33.653639,0 -90.52290199999999,33.654312,0 -90.52307199999998,33.655031,0 -90.52334200000001,33.656225,0 -90.52357500000001,33.657164,0 -90.52377799999999,33.658008,0 -90.52383599999999,33.65825,0 -90.524064,33.659225,0 -90.524413,33.660735,0 -90.525008,33.663314,0 -90.52501500000001,33.663341,0 -90.52523100000001,33.664206,0 -90.52549599999999,33.665356,0 -90.525761,33.666508,0 -90.525903,33.667042,0 -90.52604999999998,33.667606,0 -90.52628599999998,33.668336,0 -90.52657799999999,33.669111,0 -90.52685,33.669783,0 -90.527073,33.670262,0 -90.527175,33.670481,0 -90.527344,33.670811,0 -90.52738100000001,33.670877,0 -90.527522,33.671125,0 -90.52781899999999,33.671644,0 -90.52821900000002,33.672328,0 -90.528606,33.672917,0 -90.528728,33.673086,0 -90.52928300000001,33.673853,0 -90.52960299999999,33.674253,0 -90.530878,33.675739,0 -90.532422,33.677558,0 -90.533511,33.678864,0 -90.533753,33.679136,0 -90.53433900000002,33.6798,0 -90.534989,33.680581,0 -90.53593600000002,33.681692,0 -90.53708399999999,33.683064,0 -90.537556,33.683589,0 -90.53812200000002,33.684267,0 -90.53844900000001,33.68465,0 -90.538781,33.685039,0 -90.539247,33.685611,0 -90.539986,33.686572,0 -90.54045299999999,33.687217,0 -90.540903,33.687892,0 -90.541372,33.688636,0 -90.54157800000002,33.688981,0 -90.54176699999999,33.689297,0 -90.542089,33.689872,0 -90.54239299999999,33.690479,0 -90.542782,33.691268,0 -90.54306899999999,33.691908,0 -90.543172,33.692158,0 -90.54344399999998,33.692817,0 -90.54380800000001,33.6938,0 -90.54399399999998,33.694333,0 -90.544383,33.695394,0 -90.544911,33.696858,0 -90.54525,33.697883,0 -90.545744,33.699217,0 -90.54605100000001,33.700073,0 -90.547939,33.705331,0 -90.54819999999999,33.706047,0 -90.548472,33.706836,0 -90.548872,33.707986,0 -90.54904999999999,33.7087,0 -90.549147,33.7093,0 -90.54921099999999,33.709781,0 -90.549244,33.710269,0 -90.54923899999999,33.710378,0 -90.54922399999998,33.710602,0 -90.54920300000001,33.710933,0 -90.549008,33.712247,0 -90.54876100000001,33.713186,0 -90.548517,33.714397,0 -90.548131,33.715967,0 -90.54796399999999,33.716664,0 -90.54771700000001,33.717671,0 -90.547636,33.718,0 -90.547436,33.718903,0 -90.547178,33.720406,0 -90.54714199999998,33.720658,0 -90.54713,33.720747,0 -90.54701900000001,33.721561,0 -90.54699399999998,33.721931,0 -90.54693899999999,33.7227,0 -90.54692150000001,33.7231677,0 -90.546914,33.723361,0 -90.546914,33.724422,0 -90.54689999999998,33.725136,0 -90.54688299999999,33.725814,0 -90.54687800000001,33.726894,0 -90.546881,33.727994,0 -90.546869,33.728819,0 -90.546864,33.729128,0 -90.546853,33.730214,0 -90.54683600000001,33.731667,0 -90.546825,33.732292,0 -90.54682759999999,33.7335213,0 -90.54681389999999,33.7348218,0 -90.5468127,33.7353214,0 -90.5468125,33.7354188,0 -90.54680999999999,33.7358246,0 -90.54680979999999,33.7358652,0 -90.54680810000002,33.7361204,0 -90.546806,33.736564,0 -90.54676739999998,33.7371819,0 -90.54673600000001,33.73765,0 -90.54668599999998,33.738111,0 -90.54664200000001,33.738431,0 -90.54661400000001,33.738628,0 -90.546353,33.739825,0 -90.546233,33.740253,0 -90.54617500000001,33.740467,0 -90.54600000000001,33.740981,0 -90.545958,33.741106,0 -90.545181,33.742961,0 -90.54499199999999,33.74339,0 -90.54442799999998,33.744769,0 -90.54424200000001,33.7452,0 -90.54412499999999,33.745467,0 -90.543744,33.746358,0 -90.54369699999999,33.746478,0 -90.54329199999999,33.747511,0 -90.542964,33.748264,0 -90.542658,33.749011,0 -90.542225,33.750006,0 -90.54207599999998,33.750441,0 -90.54122770000001,33.7524234,0 -90.54096200000001,33.753083,0 -90.5405818,33.7539614,0 -90.53978299999999,33.755895,0 -90.538703,33.758475,0 -90.537403,33.761531,0 -90.53691870000002,33.7627033,0 -90.536901,33.762746,0 -90.536697,33.763278,0 -90.53645,33.764,0 -90.536219,33.764825,0 -90.536011,33.765953,0 -90.535933,33.766508,0 -90.5357798,33.7681821,0 -90.53557499999999,33.770083,0 -90.535453,33.771122,0 -90.53537900000001,33.771872,0 -90.53500600000001,33.775626,0 -90.534992,33.775773,0 -90.53488299999999,33.776867,0 -90.53441460000002,33.7812908,0 -90.5343251,33.7821636,0 -90.53428009999999,33.7825536,0 -90.53420269999998,33.783357,0 -90.53404880000001,33.7848558,0 -90.53403729999999,33.784968,0 -90.533906,33.786297,0 -90.53380810000002,33.7872077,0 -90.5337657,33.7876021,0 -90.5337006,33.7882081,0 -90.533564,33.789592,0 -90.53350930000001,33.7900483,0 -90.53347389999999,33.790311,0 -90.53341829999999,33.7906259,0 -90.5333507,33.7909626,0 -90.53326420000002,33.7913779,0 -90.5331623,33.7917773,0 -90.53299920000001,33.7923548,0 -90.532714,33.793358,0 -90.53268799999999,33.793448,0 -90.532353,33.794606,0 -90.532203,33.7951293,0 -90.53196210000002,33.7959691,0 -90.5316835,33.7969506,0 -90.531586,33.797269,0 -90.5314723,33.7976022,0 -90.5313512,33.7978943,0 -90.531246,33.7981343,0 -90.531181,33.798253,0 -90.5309417,33.7987161,0 -90.5306264,33.7992111,0 -90.53036389999998,33.7995532,0 -90.5301614,33.7998073,0 -90.52982360000001,33.8001974,0 -90.52945389999999,33.8005838,0 -90.5292357,33.8008187,0 -90.5284355,33.8016544,0 -90.52778369999999,33.802341,0 -90.5271377,33.8030266,0 -90.52708280000002,33.8030848,0 -90.5268829,33.803293,0 -90.52673110000001,33.803453,0 -90.52638720000002,33.8038206,0 -90.526228,33.804005,0 -90.525931,33.8043653,0 -90.5257386,33.8046188,0 -90.52555250000002,33.8048827,0 -90.5254796,33.8049861,0 -90.52530659999999,33.8052492,0 -90.5251323,33.8055332,0 -90.5249331,33.8058947,0 -90.52477479999999,33.8062135,0 -90.52459260000001,33.8066153,0 -90.52439579999999,33.807134,0 -90.524286,33.807453,0 -90.52414759999999,33.80795,0 -90.5240606,33.808329,0 -90.5238324,33.8095125,0 -90.52368080000001,33.8103022,0 -90.523529,33.8110798,0 -90.52333900000001,33.8120446,0 -90.52329020000001,33.8123178,0 -90.52324779999999,33.8125549,0 -90.52323620000001,33.812614,0 -90.52316949999998,33.8129542,0 -90.5231545,33.8130309,0 -90.5231253,33.8131798,0 -90.52311589999999,33.813228,0 -90.52308329999998,33.813397,0 -90.52305119999998,33.8135632,0 -90.52298020000001,33.8139316,0 -90.5229594,33.8140394,0 -90.5229398,33.8141416,0 -90.5228803,33.8144517,0 -90.5228261,33.8147341,0 -90.5227886,33.8149312,0 -90.52274749999999,33.8151502,0 -90.5226479,33.8156479,0 -90.52262159999999,33.8157807,0 -90.52256989999999,33.8160417,0 -90.522428,33.8167742,0 -90.5223751,33.8170505,0 -90.52227790000002,33.8175579,0 -90.5220485,33.8187552,0 -90.5219414,33.8193145,0 -90.52185540000001,33.8197583,0 -90.52169989999999,33.8205604,0 -90.52160379999999,33.8210565,0 -90.52154520000001,33.8213825,0 -90.5215006,33.8216115,0 -90.52147699999999,33.8217327,0 -90.52143950000001,33.8219282,0 -90.52140090000002,33.8221291,0 -90.521349,33.8223997,0 -90.521315,33.822575,0 -90.5211389,33.8234995,0 -90.5209784,33.8243423,0 -90.520917,33.824665,0 -90.520875,33.8248758,0 -90.52066780000001,33.8259155,0 -90.52054059999999,33.8265854,0 -90.5203202,33.8277434,0 -90.519898,33.82992,0 -90.51947760000002,33.8321083,0 -90.5192869,33.833121,0 -90.51914720000001,33.833839,0 -90.51879090000001,33.8356762,0 -90.51848700000001,33.837331,0 -90.51815300000001,33.839003,0 -90.51685000000001,33.845783,0 -90.516401,33.848089,0 -90.51633699999999,33.848428,0 -90.515478,33.852942,0 -90.51515999999998,33.85454,0 -90.515086,33.854911,0 -90.51476700000001,33.856239,0 -90.51455599999998,33.856992,0 -90.514275,33.858044,0 -90.51362800000001,33.860247,0 -90.513246,33.861596,0 -90.51291099999999,33.862758,0 -90.51235,33.864817,0 -90.51090500000001,33.869879,0 -90.5108,33.870242,0 -90.51002200000001,33.872933,0 -90.50975099999998,33.87381,0 -90.50954899999999,33.874529,0 -90.509406,33.874981,0 -90.5091036,33.8761019,0 -90.50883249999998,33.8770639,0 -90.50872199999999,33.877508,0 -90.5078003,33.8807101,0 -90.507456,33.881946,0 -90.506764,33.884372,0 -90.506186,33.886439,0 -90.50574700000001,33.887978,0 -90.504575,33.892153,0 -90.50447200000001,33.892519,0 -90.50405600000001,33.894097,0 -90.503683,33.895356,0 -90.50294700000001,33.897933,0 -90.502683,33.898894,0 -90.50263399999999,33.899069,0 -90.5009,33.905211,0 -90.50073100000002,33.905811,0 -90.500299,33.90738,0 -90.500102,33.908027,0 -90.49998100000001,33.908425,0 -90.499657,33.90964,0 -90.498542,33.913533,0 -90.49813099999999,33.915069,0 -90.498053,33.915356,0 -90.49785439999999,33.916063,0 -90.497381,33.917736,0 -90.49724699999999,33.918203,0 -90.4970337,33.9189626,0 -90.496808,33.919731,0 -90.49662549999999,33.9203277,0 -90.49559709999998,33.9236897,0 -90.49531399999999,33.924653,0 -90.49433489999998,33.9281332,0 -90.4942525,33.9284257,0 -90.49387969999999,33.9297484,0 -90.49366899999998,33.9304958,0 -90.4934411,33.9313056,0 -90.49311,33.9324812,0 -90.4928633,33.9333556,0 -90.49246840000001,33.9347522,0 -90.49229220000001,33.9353765,0 -90.49218690000001,33.9357492,0 -90.4921397,33.9359163,0 -90.4916004,33.9378355,0 -90.49108540000002,33.9396605,0 -90.4905244,33.9416649,0 -90.4904245,33.9420271,0 -90.49032390000001,33.942357,0 -90.4901569,33.9428448,0 -90.490072,33.943067,0 -90.489542,33.944317,0 -90.48904400000001,33.945236,0 -90.48843100000001,33.946158,0 -90.488378,33.946235,0 -90.486925,33.948364,0 -90.48570600000001,33.950181,0 -90.48418599999999,33.9524,0 -90.48228799999998,33.955206,0 -90.48208299999999,33.95551,0 -90.48073099999999,33.957508,0 -90.48061400000002,33.957676,0 -90.479544,33.959217,0 -90.478792,33.960334,0 -90.478494,33.960783,0 -90.477906,33.961658,0 -90.47705000000001,33.962928,0 -90.476358,33.963936,0 -90.475106,33.965778,0 -90.474739,33.966319,0 -90.4737432,33.9677834,0 -90.47348100000001,33.968169,0 -90.472453,33.969528,0 -90.47069999999998,33.971425,0 -90.468917,33.973228,0 -90.467714,33.974439,0 -90.46679699999999,33.975371,0 -90.45910000000001,33.983194,0 -90.458656,33.983642,0 -90.45763900000001,33.984667,0 -90.45711300000001,33.985204,0 -90.45659000000001,33.985738,0 -90.454044,33.988339,0 -90.453442,33.988958,0 -90.450931,33.9915,0 -90.44977159999999,33.9926705,0 -90.4497339,33.9927162,0 -90.4480355,33.9944563,0 -90.4476196,33.9948807,0 -90.44428769999999,33.9982638,0 -90.4431613,33.9994317,0 -90.4423955,34.0001515,0 -90.4416191,34.0008005,0 -90.4408789,34.0013487,0 -90.4401216,34.0018597,0 -90.43940059999998,34.0022948,0 -90.43870099999999,34.0026873,0 -90.4378712,34.0030923,0 -90.43715159999999,34.0034185,0 -90.4331512,34.0051139,0 -90.4292446,34.0068303,0 -90.42874909999999,34.0071054,0 -90.4283465,34.0073951,0 -90.42797920000001,34.0077106,0 -90.42749259999999,34.0082753,0 -90.4270502,34.0090015,0 -90.42682890000002,34.0095663,0 -90.4267201,34.0103347,0 -90.4267006,34.0104721,0 -90.4267095,34.0111139,0 
			</coordinates>
		</LineString>
		<atom:link rel="app" href="https://www.google.com/earth/about/versions/#earth-pro" title="Google Earth Pro 7.3.6.10201"></atom:link>
	</Placemark>
</Document>
</kml>
