<?xml version="1.0" encoding="UTF-8"?>
<kml xmlns="http://www.opengis.net/kml/2.2" xmlns:gx="http://www.google.com/kml/ext/2.2" xmlns:kml="http://www.opengis.net/kml/2.2" xmlns:atom="http://www.w3.org/2005/Atom">
<Document>
	<name>US.412A.kml</name>
	<Placemark>
		<name>US.412A</name>
		<LineString>
			<tessellate>1</tessellate>
			<coordinates>
				-95.26377157338159,36.17601770520331,0 -95.26183214696951,36.17598008638772,0 -95.26019025776283,36.17649600234812,0 -95.25862528718602,36.17738121288524,0 -95.2566379055757,36.17866401301698,0 -95.2536872948743,36.18059002748245,0 -95.25214125545543,36.18154267527606,0 -95.25041880012333,36.18248795379001,0 -95.24911294647245,36.183165423554,0 -95.2476461673819,36.18388645116443,0 -95.24677141587743,36.18419711454141,0 -95.24610484606447,36.1844921706785,0 -95.24543910470689,36.1848540489914,0 -95.24506097392489,36.18523876612525,0 -95.24440780730659,36.18614281572567,0 -95.24384365342638,36.18695805227986,0 -95.24335294374787,36.1875720328103,0 -95.24307214115854,36.18775637429982,0 -95.24254911555967,36.18790325073545,0 -95.24195415086845,36.1879979601534,0 -95.24120728137194,36.18805961717071,0 -95.24059786501395,36.18796634589869,0 -95.23942656183343,36.18765015370879,0 -95.23819841425816,36.18737897931963,0 -95.23718528495282,36.18717972215003,0 -95.23673711320193,36.18713768352542,0 -95.23629294780072,36.18721886196614,0 -95.23598335588618,36.18737257889821,0 -95.23561445101436,36.18763168275588,0 -95.2353756403859,36.18795043444982,0 -95.23502210060353,36.18846548216968,0 -95.2340456428643,36.19002538788168,0 -95.23363067628691,36.19054057135904,0 -95.23323146532093,36.19083102225594,0 -95.23281229432735,36.19099335442204,0 -95.2323921056162,36.19109830300838,0 -95.23154344991443,36.19111328096139,0 -95.23037970373565,36.19111869661558,0 -95.2296074731606,36.19113184458219,0 -95.22899830720141,36.19130616894936,0 -95.2284820821823,36.19147197268605,0 -95.22805468481278,36.19151875507092,0 -95.22765701245039,36.19148177737796,0 -95.2272853169291,36.19136054654455,0 -95.22686749888231,36.19120307970751,0 -95.22635716003096,36.19108985139949,0 -95.22590492463952,36.19105714268527,0 -95.21896091338061,36.19108248948649,0 -95.21046159638826,36.1910825049167,0 -95.20924124317848,36.19102837279236,0 -95.20866229615723,36.19088114209046,0 -95.20824943383087,36.19056996424191,0 -95.20785152122627,36.19018991643185,0 -95.20750293545576,36.1899593187846,0 -95.20701570250688,36.18969851798436,0 -95.20643681713743,36.18962379202325,0 -95.20587160610327,36.18969791941081,0 -95.20521615795113,36.18996063962287,0 -95.20377208202132,36.19073269290753,0 -95.20324143317879,36.19093684455784,0 -95.20275037994207,36.19104261724378,0 -95.18809807346805,36.19095921406996,0 -95.17883794962883,36.19092120908559,0 -95.17787339267882,36.19110286484806,0 -95.1769648442783,36.19162774457491,0 -95.17574506279841,36.19239852686702,0 -95.1745993958252,36.19313726932529,0 -95.17374301843965,36.19383201353389,0 -95.17329079085839,36.19440432362284,0 -95.17267604966554,36.19536560357187,0 -95.17238230330425,36.19620609756065,0 -95.17231662311534,36.19704745254248,0 -95.17226939912048,36.1988696805743,0 -95.17215003630034,36.19936761143209,0 -95.17181924086037,36.19975541477243,0 -95.171145321216,36.19995356477853,0 -95.17026152848578,36.20005677166694,0 -95.16726823910055,36.20003818182217,0 -95.15779931013086,36.19997665106308,0 -95.15675527734153,36.19995177987771,0 -95.15597178541236,36.19981512526677,0 -95.15499607780229,36.1994525736436,0 -95.15426016576133,36.19912886742359,0 -95.15356677277883,36.19867413236449,0 -95.1529209232267,36.19831387454287,0 -95.1524853578486,36.19816178438581,0 -95.15171046149912,36.19804464369287,0 -95.1496759792369,36.19831737266915,0 -95.14802344673069,36.19844141345066,0 -95.14719833951348,36.19851266893066,0 -95.14668898760564,36.19855737663135,0 -95.14636054519937,36.19856217149125,0 -95.14598266514351,36.19853379884432,0 -95.145506300169,36.19848778376333,0 -95.14522255448911,36.19850599901147,0 -95.14486163988822,36.1986398300248,0 -95.14464311605718,36.198795999549,0 -95.14428906305426,36.19918428502491,0 -95.14386696663338,36.19967973485141,0 -95.14351199066382,36.20004252520904,0 -95.14321327442158,36.20026213812876,0 -95.14294319369502,36.20035686154633,0 -95.14259925187505,36.20048465957055,0 -95.14224554213462,36.20053904706712,0 -95.14087236173106,36.20064258454965,0 -95.1387361266035,36.2008106689316,0 -95.13690431809822,36.20105440107025,0 -95.13571638282097,36.20127852652665,0 -95.13509442863716,36.20146643701045,0 -95.13430499134643,36.20184253221924,0 -95.13075818386457,36.20378620747044,0 -95.12894062789985,36.20475113533958,0 -95.12829402119991,36.20502806073085,0 -95.12778549571225,36.20514593826622,0 -95.1272776540373,36.20518357818894,0 -95.12628656398537,36.20521849325311,0 -95.12164504245115,36.20523698855425,0 -95.12035254852265,36.20522928254653,0 -95.11967971087667,36.20538909043729,0 -95.11915101748168,36.2056839755364,0 -95.11876883025293,36.20608859444144,0 -95.11861702782497,36.20652081195658,0 -95.11857805563608,36.2071240001886,0 -95.11858271284348,36.20913970781184,0 -95.11859738845322,36.21137727063513,0 -95.1185135686225,36.21180680800257,0 -95.11832230316723,36.21237768032729,0 -95.11805533733765,36.21282619288239,0 -95.11775843589403,36.21319303792637,0 -95.11727362156455,36.21362968226981,0 -95.11641099700591,36.21440253376255,0 -95.11224027628531,36.21809808025167,0 -95.11146302717393,36.21875772742028,0 -95.1109237217897,36.21916729045754,0 -95.1101102153047,36.21953078422602,0 -95.10937342630669,36.21970056492374,0 -95.10834193895049,36.21972799221091,0 -95.09814163964995,36.21967227853263,0 -95.0888383536217,36.21960171475367,0 -95.08808056219532,36.21968598277883,0 -95.08726015644756,36.21992606746776,0 -95.0861696833943,36.22041696525599,0 -95.08542866559702,36.22080695792928,0 -95.08349178811852,36.22168844862813,0 -95.08278141758232,36.22183044001657,0 -95.08219489807146,36.22178405263335,0 -95.08156302878878,36.22162709219831,0 -95.08112137011085,36.22143547328433,0 -95.08076979292215,36.22120767744655,0 -95.08023673348626,36.22071569911392,0 -95.07973430774027,36.22003727504961,0 -95.07920459571498,36.21923870258554,0 -95.0788581959779,36.21891144622271,0 -95.0784189301488,36.21875819356522,0 -95.0778407408846,36.21870841443713,0 -95.07695934265286,36.21873772298765,0 -95.07617611946888,36.21873805453951,0 -95.07566701216453,36.21867256872643,0 -95.07529690794199,36.21861096607517,0 -95.07496980664062,36.21861487166606,0 -95.07463617104163,36.21865937907494,0 -95.07419372620237,36.21882243185948,0 -95.07358730839528,36.21914126874672,0 -95.07304556255237,36.2193689706526,0 -95.07256148409667,36.21951046406613,0 -95.07198476988108,36.21957270554437,0 -95.06834854297259,36.21960029274461,0 -95.06156946849907,36.21962797991887,0 -95.04887900808252,36.21964413652388,0 -95.00306586032154,36.21962226874928,0 -94.98284158916763,36.21969240847228,0 -94.98053799464627,36.21960546868428,0 -94.97942714720577,36.21954976240845,0 -94.97841479553026,36.21907388433382,0 -94.97769845832748,36.21853143948441,0 -94.97720047430731,36.21801926061991,0 -94.97682109615849,36.21720379351455,0 -94.97667580067383,36.21632145280243,0 -94.97645188840583,36.21455181808565,0 -94.97637259091718,36.21380795821637,0 -94.97616849481204,36.21309818723828,0 -94.97551097507913,36.21221700705979,0 -94.97140115071549,36.2057670416513,0 -94.97109050884558,36.20534170356228,0 -94.97063741571783,36.205141742935,0 -94.96979538689082,36.20516371488328,0 -94.94694625504243,36.20510206945087,0 -94.92239609365537,36.20506772280218,0 -94.9081494494921,36.20502937785745,0 -94.8767385431464,36.20508508323523,0 -94.86787709481158,36.20518411272735,0 -94.83880294147875,36.20517737016517,0 -94.82235297545286,36.20519206121385,0 -94.79204137691764,36.20517646398628,0 -94.77960233445437,36.20521880692535,0 -94.77540278291539,36.20521164114,0 -94.77464222637211,36.20529323185583,0 -94.77363733319289,36.20550159116813,0 -94.77216135191871,36.20587666032323,0 -94.77075451524719,36.20630947603952,0 -94.76980249861319,36.20647357142914,0 -94.76897359447214,36.20652672711519,0 -94.76824459473451,36.20650841935731,0 -94.76737293123627,36.2064401113432,0 -94.76653515187594,36.20624482789325,0 -94.7617068555333,36.20513751222415,0 -94.75720671803798,36.20414344472744,0 -94.75675968362914,36.20404747432436,0 -94.75619751042893,36.20395455395447,0 -94.75543487612485,36.20385860602656,0 -94.75448520746819,36.20382391832956,0 -94.75316422607268,36.20383917439133,0 -94.7485060339766,36.20390934296814,0 -94.74785704148945,36.20388378953882,0 -94.74720763618876,36.20380870769075,0 -94.74084526784034,36.20303073213335,0 -94.73851119851247,36.2027063826474,0 -94.73741389031228,36.2024953122053,0 -94.73671588514851,36.2022641075166,0 -94.73581142033467,36.20194755849953,0 -94.73520468684291,36.20165490562187,0 -94.73331667557589,36.20057474168787,0 -94.72647402714088,36.19667288702156,0 -94.72503764989396,36.19590959651084,0 -94.72404862717345,36.19549705912522,0 -94.72291893832136,36.19518095750537,0 -94.72172701291248,36.19493544423828,0 -94.71945598856945,36.19453278991086,0 -94.71768698013517,36.19418343391182,0 -94.71691678402725,36.19395500452637,0 -94.71621149720475,36.19366503937884,0 -94.7156200570959,36.19334715301106,0 -94.71494772889152,36.19292521562963,0 -94.71443026141166,36.19255639838747,0 -94.71403690991733,36.1922276786221,0 -94.71342783032429,36.19157876385688,0 -94.71313699927309,36.1912728673634,0 -94.71265564116055,36.19077204305896,0 -94.71202542250086,36.19015969678652,0 -94.71165697375218,36.18980967246863,0 
			</coordinates>
		</LineString>
		<atom:link rel="app" href="https://www.google.com/earth/about/versions/#earth-pro" title="Google Earth Pro 7.3.6.10201"></atom:link>
	</Placemark>
</Document>
</kml>
