<?xml version="1.0" encoding="UTF-8"?>
<kml xmlns="http://www.opengis.net/kml/2.2" xmlns:gx="http://www.google.com/kml/ext/2.2" xmlns:kml="http://www.opengis.net/kml/2.2" xmlns:atom="http://www.w3.org/2005/Atom">
<Document>
	<name>US.40A.E.kml</name>
	<Placemark>
		<name>US.40A.E</name>
		<LineString>
			<coordinates>
				-77.72271901957886,39.64314721623141,0 -77.7254259677716,39.63978864884901,0 -77.7239665121141,39.63940470463854,0 -77.72273985708794,39.63908787928399,0 -77.72224303112914,39.63899565715585,0 -77.72186509182868,39.6388690629824,0 -77.72016803276695,39.6380495411719,0 -77.71851927994767,39.63725008661059,0 -77.71378265897199,39.62251227425445,0 -77.71186476345108,39.61650992429364,0 -77.71156844835723,39.61541251794735,0 -77.71158000621041,39.61524641547641,0 -77.71164284047452,39.61511419452651,0 -77.71165471569431,39.61495472922287,0 -77.71156219218325,39.61484700859132,0 -77.7114090124923,39.61475783043464,0 -77.71127397776765,39.61458172075829,0 -77.71094672116166,39.61395354529085,0 -77.71066886621564,39.61345431062615,0 -77.71028429187756,39.61279951832707,0 -77.71002406753787,39.61224402315798,0 -77.71067137095031,39.61021806199706,0 -77.70772958556113,39.60955415963653,0 -77.70533310291952,39.60903808117378,0 -77.70511372956837,39.60897000624259,0 -77.70532039708627,39.60835919282848,0 -77.70514505858256,39.60583942916482,0 -77.70512025412822,39.60526741961019,0 -77.7033385842706,39.601319630441,0 -77.7004704878797,39.59559016716486,0 -77.69758949929603,39.58799147507349,0 -77.69693544317718,39.58665006251998,0 -77.6938864476187,39.5818182420242,0 -77.69329817168872,39.58086454128227,0 -77.69316945879831,39.58007685777671,0 -77.69302220567845,39.57873440462352,0 -77.69285760714361,39.57818445545546,0 -77.69197748064732,39.57589803463034,0 -77.69071970987535,39.57299619029671,0 -77.69023513385967,39.57216479737566,0 -77.68973180711052,39.57170800688903,0 -77.68948594717625,39.57128874301851,0 -77.68934593453795,39.57067917563869,0 -77.68939707574708,39.57016590547422,0 -77.68967419083801,39.56945797554529,0 -77.69009552943442,39.56860478221615,0 -77.69014703993447,39.56802030451031,0 -77.69009062844611,39.56743557077451,0 -77.68967288110164,39.56677389624542,0 -77.68533027404902,39.56120800025889,0 -77.6828968882289,39.55783681007149,0 -77.68235138320271,39.55673811172524,0 -77.68066638668807,39.55321445139629,0 -77.67972533522227,39.55101837726882,0 -77.6794247022104,39.55036282948963,0 -77.67677791307398,39.54598850206746,0 -77.67106742117485,39.53754047277113,0 -77.66766021777471,39.53246714156393,0 -77.66477988075344,39.52792019543934,0 -77.66039618564837,39.52071793272489,0 -77.65641671429324,39.51384713222128,0 -77.65318529297103,39.50841184225857,0 -77.65122645340327,39.50479352532668,0 -77.65014179789556,39.50246519605919,0 -77.64992965928752,39.50205724958633,0 -77.64960744462793,39.50169096751554,0 -77.64530759558554,39.49768062923637,0 -77.64496741965547,39.49733429193945,0 -77.6419112729327,39.49442332965662,0 -77.64153425102471,39.49407171348509,0 -77.64115769388351,39.49373074729915,0 -77.63936627647419,39.49230059641921,0 -77.63829598747928,39.4914413674893,0 -77.63771400398895,39.49102719159548,0 -77.6375342193318,39.49093204991211,0 -77.63705765906114,39.49076965976146,0 -77.6363341244865,39.49054339822746,0 -77.63575993847149,39.49045773726785,0 -77.63547615379893,39.49043780236435,0 -77.63521181446599,39.49037239096916,0 -77.63499250222846,39.49025820813157,0 -77.63472825299429,39.48998758935804,0 -77.63437731449439,39.48963119432841,0 -77.63407658685396,39.4894089918576,0 -77.63386707713217,39.48925992642592,0 -77.63315266281063,39.48892013637451,0 -77.63253759773606,39.48855388966481,0 -77.63207548547636,39.48819697215654,0 -77.63173410517027,39.48791394348615,0 -77.63135065734633,39.48769201831415,0 -77.63093783642434,39.48750498528196,0 -77.63014986608046,39.48726009263043,0 -77.62961360987167,39.48716986890781,0 -77.62892577206205,39.48715065928907,0 -77.62806016950083,39.48710675375406,0 -77.62733687087773,39.48701516511778,0 -77.62664132279237,39.48687423246541,0 -77.6261299626691,39.48668607473935,0 -77.62581589679309,39.48649130266861,0 -77.62551802966541,39.48621729948243,0 -77.62521811566982,39.48595613274934,0 -77.62490426036179,39.48567340876967,0 -77.62464792818626,39.4855338987602,0 -77.62431492865474,39.48548362854826,0 -77.62392357569388,39.48540975881682,0 -77.62350637360545,39.48532253059923,0 -77.62307677736973,39.48521719036984,0 -77.62245182431789,39.4850675579221,0 -77.62189537102843,39.48497420405711,0 -77.62159976504047,39.48498708307032,0 -77.62125582317655,39.48499599455563,0 -77.62092392570085,39.48499852187571,0 -77.62065412371052,39.48489523699941,0 -77.62035344455616,39.48474711119331,0 -77.61992462114388,39.48452337095723,0 -77.61945259108839,39.48430302339673,0 -77.6190945290532,39.48416086137048,0 -77.61859359651397,39.48398895099803,0 -77.61829584515756,39.48394196656075,0 -77.6178160963053,39.48389604902071,0 -77.617268540113,39.48389187085195,0 -77.61689555536717,39.48392406656075,0 -77.61661817218047,39.48396238731133,0 -77.61644204409734,39.48394181039897,0 -77.61629455872043,39.48385985178403,0 -77.61615789319329,39.48371574641374,0 -77.61595378288484,39.48347436276519,0 -77.61579412623836,39.48332089092188,0 -77.61570292516276,39.48315650070361,0 -77.61564996886084,39.48280205027488,0 -77.61553230752011,39.48228389097535,0 -77.61542120042687,39.48186086252682,0 -77.61534872909328,39.48156211595109,0 -77.6153496428901,39.4814289458438,0 -77.61542515922019,39.48105217331775,0 -77.61546124423138,39.48080235581528,0 -77.61535085680957,39.48041748583545,0 -77.61522217646939,39.48011207135849,0 -77.61496461653245,39.47973003497782,0 -77.61481892164785,39.47953026125246,0 -77.61458963508311,39.47931378866133,0 -77.61431915464384,39.47915141843455,0 -77.61398892169939,39.47904290370993,0 -77.61369307415001,39.47896486586799,0 -77.61350310630267,39.47894490544509,0 -77.6133376987105,39.47893536858958,0 -77.61291723316316,39.47894196859472,0 -77.61255216101702,39.4790018773536,0 -77.61223405712964,39.47902143291761,0 -77.61204734694876,39.47896389172701,0 -77.61180202209948,39.47872152123669,0 -77.61114816858682,39.47814594863168,0 -77.61078487629503,39.47791041952193,0 -77.61046351837548,39.47773458719416,0 -77.61009043119117,39.47758998198516,0 -77.60966123021673,39.47753000730253,0 -77.60904398634598,39.47742492989501,0 -77.60870292022408,39.47731050265023,0 -77.60841037153018,39.47716767369506,0 -77.60819236226037,39.47696959849192,0 -77.60795430501685,39.47668327149447,0 -77.60768470344837,39.47640227985818,0 -77.60680573498388,39.47576841458043,0 -77.60090091741246,39.47169806432106,0 -77.60067665242443,39.47154896023587,0 -77.60002939679282,39.47117440164241,0 -77.59251812248918,39.4667134417311,0 -77.58872494644918,39.4644370394284,0 -77.58814164512656,39.46402394908434,0 -77.58758010053994,39.46354973725381,0 -77.58633123133075,39.46239863185538,0 -77.58438589295704,39.46090858738264,0 -77.58354339700446,39.4603512717947,0 -77.5824687989266,39.45965500110839,0 -77.58158132065249,39.45907026184754,0 -77.5807989529258,39.45861571697504,0 -77.57970408201756,39.4581698447377,0 -77.57929288147226,39.45801524200704,0 -77.5787277236407,39.45786600107301,0 -77.57841946148746,39.45772720826489,0 -77.57801444132419,39.45750798664117,0 -77.57763989417387,39.45734108429542,0 -77.57672067800932,39.45696289731858,0 -77.57644143673903,39.45686108249662,0 -77.57596972808047,39.45672447323903,0 -77.57549259965312,39.456640209032,0 -77.57498613439265,39.45652266966681,0 -77.57450619296324,39.45641470686439,0 -77.57403784475834,39.45624411605297,0 -77.57285041431371,39.45583701251122,0 -77.57196529501238,39.45552735986545,0 -77.57150023914696,39.4553375379538,0 -77.57113916460615,39.45507962765774,0 -77.56993734402064,39.45426914135895,0 -77.56914183270992,39.45370305209116,0 -77.56889870115205,39.45355694300067,0 -77.56611880676473,39.45206987771998,0 -77.56231981295846,39.45008553609188,0 -77.56053403926207,39.44910339561421,0 -77.55958434469608,39.44859600367342,0 -77.55852282754276,39.4480579592242,0 -77.55748730016111,39.44734830388806,0 -77.5545146888843,39.44536716984707,0 -77.55308532855065,39.44446689728,0 -77.55263009170325,39.44420417202403,0 -77.55228510723541,39.44408841915861,0 -77.55184962720615,39.44403054638037,0 -77.55043933240408,39.44399587512217,0 -77.54848422957714,39.4439384525365,0 -77.54657038386212,39.44385703379107,0 -77.54502901448369,39.44380769425069,0 -77.54417210104072,39.44373407365274,0 -77.54368881261122,39.44361095883804,0 -77.54278367204768,39.44338088026882,0 -77.54086693027268,39.44292209536142,0 -77.54031987251429,39.44276074382309,0 -77.53963828790461,39.44248229657774,0 -77.53660216587558,39.44136955532473,0 -77.53385136486285,39.44029788556693,0 -77.53167319439343,39.43947722689958,0 -77.52698053755913,39.43760292290311,0 -77.51340791132019,39.43250465755714,0 -77.51068841862687,39.43153737979492,0 -77.50877313370879,39.43076268854642,0 -77.50726284713176,39.42985905268581,0 -77.50629212117138,39.42918673646491,0 -77.50578434770475,39.42855756066504,0 -77.50558871142402,39.42811187867778,0 -77.50552641317951,39.42752976572777,0 -77.50562671579961,39.426670938019,0 -77.50565782400892,39.4261828486652,0 -77.50557661932194,39.42587955243058,0 -77.50548817399834,39.42567510923443,0 -77.5052388223002,39.42535944279511,0 -77.50487364788492,39.42503036868322,0 -77.50452056144461,39.42477715001274,0 -77.50416630416761,39.42454626367989,0 -77.50377893210221,39.42434354686066,0 -77.50337811366774,39.42420598781692,0 -77.50295057927332,39.42416326832484,0 -77.50248030680595,39.42416848357252,0 -77.50190334773302,39.42430832500558,0 -77.50126480349215,39.42441539474839,0 -77.50078208130616,39.424453944791,0 -77.50034245764273,39.42436597460738,0 -77.50000606592877,39.42420968957256,0 -77.49972342217504,39.42398771615692,0 -77.49950707634186,39.4236660808642,0 -77.49923401010899,39.42315269043129,0 -77.4990030379157,39.42274619777444,0 -77.49871203187236,39.42247116744956,0 -77.49847260259006,39.42232554730865,0 -77.49801695731011,39.4221241143204,0 -77.49744247924708,39.42201691220637,0 -77.49665429252714,39.4220426724876,0 -77.49583187261527,39.42221134281142,0 -77.49521414061635,39.42241663070347,0 -77.49481042165571,39.42270403317531,0 -77.49432388271043,39.42305809264845,0 -77.49393656474496,39.42318384894347,0 -77.49356708185104,39.42325802524708,0 -77.49325427812096,39.42326516672441,0 -77.49286761750849,39.42320287433277,0 -77.49146064576928,39.42294156362566,0 -77.4903037857294,39.42271250536263,0 -77.48843419649067,39.42235566244916,0 -77.484418324654,39.42155908990902,0 -77.48269363606097,39.42131755161549,0 -77.48043211771595,39.42091771074567,0 -77.47956488854111,39.42076512667539,0 -77.47851130071169,39.42077467141804,0 -77.4758346649253,39.42079964564686,0 -77.47472019796245,39.42082599113505,0 -77.47295732298575,39.42063981420846,0 -77.46822159167111,39.42015058869402,0 -77.4651553026054,39.41987596886394,0 -77.4631809430398,39.41968729952249,0 -77.46255438338558,39.41969956451963,0 -77.46229822917242,39.41977814070757,0 -77.46206733973997,39.41986394454603,0 -77.46117162114606,39.41965747216683,0 
			</coordinates>
		</LineString>
		<atom:link rel="app" href="https://www.google.com/earth/about/versions/#earth-pro" title="Google Earth Pro 7.3.6.10201"></atom:link>
	</Placemark>
</Document>
</kml>
