<?xml version="1.0" encoding="UTF-8"?>
<kml xmlns="http://www.opengis.net/kml/2.2" xmlns:gx="http://www.google.com/kml/ext/2.2" xmlns:kml="http://www.opengis.net/kml/2.2" xmlns:atom="http://www.w3.org/2005/Atom">
<Document>
	<name>US.49E.kml</name>
	<StyleMap id="msn_ylw-pushpin">
		<Pair>
			<key>normal</key>
			<styleUrl>#sn_ylw-pushpin</styleUrl>
		</Pair>
		<Pair>
			<key>highlight</key>
			<styleUrl>#sh_ylw-pushpin</styleUrl>
		</Pair>
	</StyleMap>
	<Style id="sh_ylw-pushpin">
		<IconStyle>
			<scale>1.2</scale>
		</IconStyle>
		<BalloonStyle>
		</BalloonStyle>
		<LineStyle>
			<color>ff0000ff</color>
			<width>3</width>
		</LineStyle>
	</Style>
	<Style id="sn_ylw-pushpin">
		<BalloonStyle>
		</BalloonStyle>
		<LineStyle>
			<color>ff0000ff</color>
			<width>3</width>
		</LineStyle>
	</Style>
	<Placemark>
		<name>US.49E</name>
		<styleUrl>#msn_ylw-pushpin</styleUrl>
		<LineString>
			<coordinates>
				-90.38768679999998,32.8875089,0 -90.38723489999998,32.8885727,0 -90.38682919999999,32.8895811,0 -90.38659120000001,32.8901727,0 -90.3859643,32.8920136,0 -90.3856787,32.8929089,0 -90.3855226,32.893398,0 -90.38542990000001,32.8939241,0 -90.3853134,32.8944349,0 -90.38511669999998,32.895183,0 -90.3840711,32.9002991,0 -90.38349049999999,32.9031432,0 -90.38340980000001,32.9035251,0 -90.38321809999999,32.9044414,0 -90.3829558,32.905802,0 -90.3827129,32.9070098,0 -90.38255100000001,32.9078144,0 -90.382283,32.9090982,0 -90.3822133,32.9094394,0 -90.3821599,32.909701,0 -90.3820283,32.9103497,0 -90.3805711,32.9175301,0 -90.380256,32.9190368,0 -90.3799976,32.9201007,0 -90.3797502,32.9208986,0 -90.3794862,32.9216242,0 -90.37917209999999,32.9224081,0 -90.3789275,32.922961,0 -90.3786913,32.9234089,0 -90.37837719999999,32.9240038,0 -90.3780409,32.9245871,0 -90.37746279999999,32.9255645,0 -90.37550030000001,32.9289227,0 -90.37512690000001,32.929566,0 -90.37278070000001,32.9334858,0 -90.37210139999999,32.9345125,0 -90.3715943,32.9352137,0 -90.3707574,32.9362645,0 -90.3692265,32.9380846,0 -90.3663007,32.9415685,0 -90.3643383,32.9439198,0 -90.36240219999999,32.9462497,0 -90.3581945,32.9509595,0 -90.35620520000001,32.9530719,0 -90.3546908,32.9545962,0 -90.3530104,32.9561149,0 -90.35146949999999,32.9573521,0 -90.3508698,32.957788,0 -90.34976499999999,32.958591,0 -90.34786219999999,32.9598382,0 -90.3466123,32.960588,0 -90.3458837,32.9609942,0 -90.34449330000001,32.9617204,0 -90.343362,32.9622716,0 -90.331923,32.967162,0 -90.3304182,32.967752,0 -90.32953499999999,32.968163,0 -90.3292218,32.968311,0 -90.32678300000002,32.9693121,0 -90.32519619999999,32.9700662,0 -90.32489710000002,32.9702233,0 -90.3228068,32.9714205,0 -90.321583,32.9722367,0 -90.3177278,32.975281,0 -90.3171921,32.975795,0 -90.31689129999999,32.9762074,0 -90.31663810000001,32.9767368,0 -90.31652069999998,32.9772785,0 -90.3165097,32.9780264,0 -90.31650880000001,32.984963,0 -90.3165097,32.9902073,0 -90.31652800000002,32.9938878,0 -90.3165317,32.9947186,0 -90.31660880000001,32.9953125,0 -90.3167042,32.9957033,0 -90.31688029999998,32.9961495,0 -90.3171481,32.9966264,0 -90.31748199999998,32.997088,0 -90.31800660000002,32.997725,0 -90.3185203,32.9983281,0 -90.31877340000001,32.998645,0 -90.31908429999999,32.9990103,0 -90.31938110000002,32.9993632,0 -90.319723,32.9997728,0 -90.3200179,33.0001887,0 -90.32029230000001,33.0006593,0 -90.32065299999999,33.0013761,0 -90.32088779999999,33.0020063,0 -90.32141620000002,33.0036045,0 -90.32169139999999,33.0044007,0 -90.32209039999999,33.0055545,0 -90.3224343,33.0066006,0 -90.3231498,33.0088274,0 -90.3234891,33.0098196,0 -90.32466110000001,33.0133741,0 -90.3254858,33.015855,0 -90.32682930000001,33.0198491,0 -90.3270907,33.0207373,0 -90.3272375,33.0217102,0 -90.32758920000002,33.0248875,0 -90.3276429,33.0253042,0 -90.32776,33.0265108,0 -90.3278885,33.0271004,0 -90.32804150000001,33.0276623,0 -90.3283545,33.0284213,0 -90.32849220000001,33.0287071,0 -90.3286531,33.0289611,0 -90.328851,33.0292951,0 -90.32920059999999,33.0298268,0 -90.32954479999999,33.0303495,0 -90.33005159999999,33.0311243,0 -90.3302576,33.0314367,0 -90.3305774,33.0319037,0 -90.33143389999999,33.033192,0 -90.3318838,33.0338669,0 -90.3322118,33.0343486,0 -90.3323717,33.034619,0 -90.3325234,33.034928,0 -90.3326319,33.0352052,0 -90.3327213,33.0354801,0 -90.3327999,33.0358505,0 -90.3328514,33.0361936,0 -90.33286769999999,33.0365367,0 -90.33286489999999,33.0367571,0 -90.33281890000001,33.0371229,0 -90.3327647,33.0374069,0 -90.33264,33.0378181,0 -90.33249910000001,33.0381567,0 -90.3323256,33.0385043,0 -90.3321115,33.0388542,0 -90.33205409999999,33.0389425,0 -90.3308742,33.0405012,0 -90.33056449999999,33.0409077,0 -90.3303027,33.0412938,0 -90.32616509999998,33.046877,0 -90.32598089999999,33.0471291,0 -90.3245187,33.0491267,0 -90.32413529999999,33.0498041,0 -90.3238759,33.0504027,0 -90.3236692,33.0511273,0 -90.32326319999999,33.0530146,0 -90.32312039999999,33.0538558,0 -90.32309029999999,33.0544827,0 -90.32313539999998,33.0551632,0 -90.323267,33.056121,0 -90.324203,33.0628847,0 -90.32469539999998,33.066435,0 -90.32489460000001,33.0678997,0 -90.3250204,33.0687325,0 -90.3250589,33.0690874,0 -90.3250723,33.0695222,0 -90.32506060000001,33.0698463,0 -90.32501709999998,33.0702082,0 -90.32495350000001,33.0705574,0 -90.32485970000002,33.0709277,0 -90.32472919999999,33.0713023,0 -90.3241342,33.0727789,0 -90.3239133,33.0733245,0 -90.32375089999999,33.0737916,0 -90.3236722,33.0741913,0 -90.32361280000001,33.0746878,0 -90.3235651,33.075406,0 -90.32354890000001,33.0759761,0 -90.3235865,33.0769934,0 -90.32368419999999,33.0781651,0 -90.3237979,33.0792824,0 -90.32380730000001,33.0798179,0 -90.3237087,33.0807352,0 -90.32349720000001,33.0816486,0 -90.3232816,33.0822476,0 -90.3228529,33.0831243,0 -90.32247220000001,33.083711,0 -90.3219745,33.0843526,0 -90.32146590000001,33.0848746,0 -90.32079229999998,33.0854635,0 -90.31183000000001,33.092863,0 -90.3081928,33.0958486,0 -90.30626339999999,33.0974518,0 -90.3010931,33.1017146,0 -90.29676499999999,33.1052862,0 -90.29547030000001,33.1063289,0 -90.2946881,33.1068335,0 -90.2935062,33.1074645,0 -90.29261700000001,33.107874,0 -90.2917329,33.108192,0 -90.2905368,33.1085187,0 -90.28937190000001,33.108719,0 -90.28774420000001,33.1089543,0 -90.28558700000002,33.1092266,0 -90.2845919,33.1092796,0 -90.28371660000002,33.1092545,0 -90.2827281,33.109196,0 -90.28166969999999,33.1091458,0 -90.2806746,33.109196,0 -90.2797793,33.1093326,0 -90.2791436,33.1094859,0 -90.27844469999998,33.1097061,0 -90.2741085,33.1113236,0 -90.27214069999999,33.1120589,0 -90.27089680000002,33.112592,0 -90.26979849999998,33.1132019,0 -90.2688374,33.1138953,0 -90.268072,33.1145504,0 -90.26745620000001,33.1152055,0 -90.2670652,33.115662,0 -90.2663787,33.1166237,0 -90.26596269999999,33.1173067,0 -90.261636,33.1250697,0 -90.2608372,33.1264912,0 -90.2592966,33.1292557,0 -90.25902689999998,33.1297312,0 -90.2578821,33.1317991,0 -90.2569661,33.1334313,0 -90.25596299999999,33.135186,0 -90.25486600000002,33.137161,0 -90.250085,33.145766,0 -90.2481812,33.1493076,0 -90.2478157,33.1499729,0 -90.2469505,33.1515771,0 -90.2458824,33.1536094,0 -90.24500999999999,33.15526,0 -90.24410899999998,33.156902,0 -90.24227279999999,33.1603222,0 -90.2411377,33.1624432,0 -90.2405438,33.1634496,0 -90.2398445,33.1644199,0 -90.23909250000001,33.16533,0 -90.2380101,33.1664205,0 -90.2370713,33.1672103,0 -90.2332273,33.1699281,0 -90.23018500000001,33.172045,0 -90.22777960000001,33.1737192,0 -90.22759000000001,33.1738512,0 -90.22712780000001,33.1741953,0 -90.2264057,33.174739,0 -90.22605209999999,33.1749993,0 -90.225641,33.17532,0 -90.22531080000002,33.1755699,0 -90.2247228,33.1759928,0 -90.22452529999998,33.1761213,0 -90.22406640000001,33.1764205,0 -90.22295399999999,33.1770355,0 -90.22237669999998,33.1773124,0 -90.221148,33.1778886,0 -90.220826,33.1780883,0 -90.2202296,33.1784791,0 -90.21957860000001,33.1790339,0 -90.2197592,33.1792246,0 -90.2198806,33.1793529,0 -90.2201745,33.1796934,0 -90.22046210000001,33.1800821,0 -90.22069,33.1804636,0 -90.2209307,33.1810073,0 -90.2211373,33.1816188,0 -90.22138869999999,33.18238,0 -90.22245580000001,33.1856014,0 -90.2229505,33.1871318,0 -90.2233525,33.188324,0 -90.22358149999999,33.1890125,0 -90.224131,33.1907063,0 -90.22481089999999,33.1927479,0 -90.2252041,33.1940754,0 -90.22538079999998,33.1949316,0 -90.2255107,33.1957795,0 -90.22557409999999,33.1965938,0 -90.2255941,33.1974249,0 -90.2255941,33.198638,0 -90.2256107,33.2000185,0 -90.22562069999999,33.2018702,0 -90.22567479999999,33.2093744,0 -90.2256795,33.2120448,0 -90.22562110000001,33.2130065,0 -90.22549720000001,33.2139142,0 -90.225359,33.2146109,0 -90.22516419999999,33.2153798,0 -90.2248953,33.2161896,0 -90.22462940000001,33.2169019,0 -90.2241215,33.2181566,0 -90.2239453,33.2185815,0 -90.2230429,33.2208729,0 -90.22090900000002,33.2261643,0 -90.22074469999998,33.2265579,0 -90.22056169999999,33.2270078,0 -90.21993430000001,33.2285916,0 -90.21967289999999,33.2293381,0 -90.2195832,33.2299223,0 -90.219572,33.2304658,0 -90.2196131,33.2310437,0 -90.21975500000002,33.2316653,0 -90.21997540000001,33.2322089,0 -90.2202212,33.2326965,0 -90.22036839999998,33.23293,0 -90.22091519999999,33.2336228,0 -90.2236547,33.2361291,0 -90.22392659999998,33.236379,0 -90.22440159999998,33.2368163,0 -90.22494829999999,33.2373411,0 -90.22539949999999,33.2379108,0 -90.22565160000001,33.2382721,0 -90.22581769999999,33.238563,0 -90.22610450000002,33.2391652,0 -90.22630469999999,33.2397624,0 -90.22645109999999,33.2404171,0 -90.2265228,33.2410917,0 -90.22674519999998,33.2439576,0 -90.2269086,33.2460189,0 -90.22708600000001,33.2482559,0 -90.22724469999999,33.2501453,0 -90.2279169,33.2584679,0 -90.22800280000001,33.2596451,0 -90.22801399999999,33.2606194,0 -90.22793179999999,33.2615656,0 -90.22783099999999,33.2622775,0 -90.227648,33.2632643,0 -90.227465,33.2639606,0 -90.2271439,33.2649349,0 -90.22672559999998,33.2659028,0 -90.2232152,33.2740459,0 -90.2227451,33.2751305,0 -90.22227450000001,33.2764125,0 -90.2220501,33.2772326,0 -90.2219317,33.277811,0 -90.22175849999999,33.2789724,0 -90.22168379999999,33.2800214,0 -90.2217107,33.2812077,0 -90.2218033,33.2821543,0 -90.2219527,33.2830184,0 -90.2221737,33.2839575,0 -90.22246949999999,33.2850614,0 -90.2228997,33.2867172,0 -90.2248034,33.2939936,0 -90.2250066,33.2947553,0 -90.2252366,33.2956418,0 -90.2261973,33.299274,0 -90.22733690000001,33.3036637,0 -90.22791949999998,33.3058578,0 -90.22831909999999,33.307384,0 -90.22858050000001,33.3083952,0 -90.23040290000002,33.3153984,0 -90.2306008,33.3161068,0 -90.2311797,33.3181508,0 -90.23156299999999,33.3193475,0 -90.2318283,33.3200924,0 -90.232151,33.3209672,0 -90.2322418,33.3211988,0 -90.2331047,33.323241,0 -90.23421379999999,33.3255345,0 -90.23497570000001,33.3270541,0 -90.2361595,33.3294099,0 -90.23662999999999,33.3303303,0 -90.2373769,33.331828,0 -90.23776530000001,33.3327391,0 -90.23805659999999,33.3336158,0 -90.23826939999999,33.3344988,0 -90.2383628,33.3350635,0 -90.238433,33.3359109,0 -90.23843680000002,33.3367502,0 -90.23837330000001,33.3375021,0 -90.23823509999998,33.338435,0 -90.2380409,33.3391869,0 -90.2377309,33.3401696,0 -90.23741349999999,33.3409215,0 -90.2372604,33.3412147,0 -90.2368384,33.3419697,0 -90.23638740000001,33.3426378,0 -90.2358586,33.3433091,0 -90.2353478,33.3438807,0 -90.23481899999999,33.3444123,0 -90.23409899999999,33.3450537,0 -90.2322915,33.346611,0 -90.2312268,33.347524,0 -90.2310165,33.3477117,0 -90.22960639999999,33.3489276,0 -90.22856700000001,33.349836,0 -90.22727999999999,33.35096,0 -90.22601999999999,33.35205,0 -90.22489399999999,33.353011,0 -90.22328040000001,33.3544919,0 -90.22247,33.3553247,0 -90.2217754,33.3560921,0 -90.2212526,33.3566941,0 -90.220789,33.357275,0 -90.218857,33.359603,0 -90.218197,33.360408,0 -90.21743100000002,33.361344,0 -90.21674400000001,33.362203,0 -90.21611700000001,33.363217,0 -90.21560599999999,33.364319,0 -90.21537500000001,33.364953,0 -90.215119,33.36605,0 -90.215076,33.366307,0 -90.21485800000001,33.367589,0 -90.21387,33.373596,0 -90.21361899999999,33.375019,0 -90.21351699999998,33.375698,0 -90.21338900000001,33.376452,0 -90.21311900000001,33.378161,0 -90.21284699999998,33.379711,0 -90.212619,33.380952,0 -90.212436,33.381774,0 -90.21211699999999,33.383006,0 -90.21194199999999,33.383597,0 -90.211839,33.383896,0 -90.21154199999998,33.384743,0 -90.211253,33.385559,0 -90.210336,33.38815,0 -90.209317,33.391039,0 -90.208581,33.393085,0 -90.208269,33.393986,0 -90.208119,33.39441,0 -90.207956,33.394886,0 -90.207753,33.39546,0 -90.20771100000002,33.395578,0 -90.206569,33.39885,0 -90.20593099999999,33.400622,0 -90.2055441,33.4017339,0 -90.20518299999999,33.402772,0 -90.20485309999999,33.4036931,0 -90.204775,33.403911,0 -90.20455800000001,33.404649,0 -90.204436,33.405116,0 -90.204269,33.405963,0 -90.204178,33.406594,0 -90.20410800000001,33.407397,0 -90.204092,33.407856,0 -90.204097,33.408067,0 -90.20410769999999,33.4083481,0 -90.2041222,33.4087247,0 -90.2041294,33.4089153,0 -90.204131,33.40898,0 -90.20414199999999,33.409118,0 -90.2041899,33.4097561,0 -90.20425,33.410442,0 -90.204442,33.412343,0 -90.20459700000001,33.414053,0 -90.20475,33.415483,0 -90.20489699999999,33.417172,0 -90.20535600000001,33.421833,0 -90.205389,33.422196,0 -90.205692,33.425389,0 -90.20588099999999,33.427386,0 -90.206067,33.429144,0 -90.206294,33.431596,0 -90.206739,33.4362,0 -90.20675549999999,33.4363705,0 -90.20698899999999,33.438781,0 -90.207144,33.440406,0 -90.20721899999999,33.441243,0 -90.207506,33.444069,0 -90.20763899999999,33.445486,0 -90.20765400000002,33.445653,0 -90.20767399999998,33.44586,0 -90.20813899999999,33.450594,0 -90.208292,33.4525,0 -90.20842499999999,33.453671,0 -90.208533,33.454864,0 -90.208653,33.456041,0 -90.208853,33.457842,0 -90.2088605,33.4579311,0 -90.208933,33.458792,0 -90.20906100000001,33.460177,0 -90.20917009999999,33.4613567,0 -90.20927799999998,33.462367,0 -90.209333,33.462899,0 -90.209464,33.464008,0 -90.20949399999999,33.464267,0 -90.20963299999998,33.465905,0 -90.20966900000001,33.466347,0 -90.2097085,33.4668195,0 -90.20975799999999,33.467413,0 -90.20978100000001,33.467686,0 -90.209844,33.468369,0 -90.209908,33.469061,0 -90.209936,33.46935,0 -90.209964,33.470264,0 -90.20992500000001,33.470944,0 -90.209811,33.471814,0 -90.20970799999999,33.472239,0 -90.209619,33.472603,0 -90.209361,33.473308,0 -90.20927799999998,33.473483,0 -90.20905,33.473972,0 -90.20861400000001,33.474803,0 -90.208083,33.475581,0 -90.20770800000001,33.476069,0 -90.207461,33.476353,0 -90.20733220000001,33.4764829,0 -90.2071,33.476717,0 -90.2063,33.477561,0 -90.205225,33.478673,0 -90.205111,33.478792,0 -90.204075,33.479886,0 -90.20304400000002,33.480908,0 -90.201836,33.482189,0 -90.201015,33.48303,0 -90.199647,33.484436,0 -90.198778,33.485339,0 -90.19856699999998,33.48556,0 -90.19714199999999,33.487014,0 -90.19684999999998,33.487311,0 -90.19603600000001,33.488172,0 -90.19484199999999,33.489403,0 -90.19466399999999,33.489586,0 -90.19407200000002,33.490194,0 -90.193747,33.490527,0 -90.19252730000001,33.491818,0 -90.191817,33.49255,0 -90.19097199999999,33.493389,0 -90.190061,33.494332,0 -90.189108,33.495319,0 -90.18718899999999,33.497292,0 -90.18647499999999,33.497992,0 -90.18618979999999,33.4982875,0 -90.18604980000001,33.4984325,0 -90.18594699999998,33.498539,0 -90.18551600000001,33.498984,0 -90.18503450000001,33.4994842,0 -90.184517,33.500019,0 -90.183961,33.500678,0 -90.18311699999998,33.501559,0 -90.182964,33.501772,0 -90.18276100000001,33.502172,0 -90.182725,33.502464,0 -90.18278299999999,33.502853,0 -90.182906,33.503489,0 -90.18302,33.503812,0 -90.18310399999999,33.503962,0 -90.183166,33.504036,0 -90.18325690000002,33.5041109,0 -90.18340669999999,33.5041974,0 -90.18346729999999,33.5042324,0 -90.1843362,33.5044925,0 -90.186947,33.50522,0 -90.188586,33.505696,0 -90.18970400000002,33.50603,0 -90.19189699999998,33.506681,0 -90.19307299999998,33.507019,0 -90.194486,33.507424,0 -90.195786,33.507832,0 -90.19644710000001,33.5080182,0 -90.199369,33.508881,0 -90.199584,33.508953,0 -90.200294,33.509194,0 -90.200958,33.509528,0 -90.20144999999999,33.509814,0 -90.202269,33.510497,0 -90.202744,33.511028,0 -90.203078,33.51153,0 -90.20325199999999,33.511845,0 -90.20330300000001,33.511936,0 -90.203503,33.512461,0 -90.203658,33.513064,0 -90.20369700000001,33.513357,0 -90.2037237,33.5140787,0 -90.2037096,33.5147092,0 -90.2036454,33.5149332,0 -90.20364849999999,33.5151836,0 -90.2036555,33.5161473,0 -90.2036554,33.5162978,0 -90.20365450000001,33.516541,0 -90.203653,33.5171422,0 -90.20365210000001,33.51773,0 -90.2037084,33.5179178,0 -90.20369790000001,33.5183514,0 -90.203695,33.5205368,0 -90.2037077,33.5210379,0 -90.203716,33.5215254,0 -90.20371780000001,33.5217679,0 -90.20373050000001,33.5220351,0 -90.2037694,33.5223224,0 -90.20382040000001,33.522588,0 -90.20388269999998,33.52283,0 -90.2039525,33.5230268,0 -90.2040725,33.523318,0 -90.2041758,33.5235293,0 -90.20432400000001,33.5237831,0 -90.20448690000002,33.5240246,0 -90.2046807,33.52427,0 -90.2048705,33.5244841,0 -90.20510919999998,33.5247273,0 -90.2053674,33.5249459,0 -90.2056269,33.5251387,0 -90.20589109999999,33.5253131,0 -90.20618540000001,33.5254803,0 -90.20655619999999,33.5256625,0 -90.20685330000001,33.5257844,0 -90.2071785,33.525899,0 -90.2075292,33.5259968,0 -90.2079114,33.5260778,0 -90.20836069999999,33.5261438,0 -90.2088998,33.5262114,0 -90.209497,33.5262878,0 -90.21281080000001,33.5267098,0 -90.21630959999999,33.5271556,0 -90.21795899999999,33.527366,0 -90.2190976,33.5275159,0 -90.21972930000001,33.5276045,0 -90.221436,33.527881,0 -90.2233118,33.528254,0 -90.225584,33.5287008,0 -90.22677640000001,33.5289351,0 -90.22940800000001,33.529439,0 -90.23026,33.529612,0 -90.23195800000001,33.529958,0 -90.233633,33.530289,0 -90.235125,33.530578,0 -90.23604730000001,33.5307437,0 -90.2372058,33.530928,0 -90.23785719999999,33.5310155,0 -90.2383773,33.5310785,0 -90.23901789999999,33.5311437,0 -90.23925800000001,33.5311657,0 -90.23962269999998,33.5311977,0 -90.2400142,33.5312256,0 -90.2404542,33.531255,0 -90.2405174,33.5312752,0 -90.240565,33.5312984,0 -90.2406057,33.5313349,0 -90.2406455,33.5313915,0 -90.2408875,33.5318042,0 -90.24153900000002,33.532839,0 -90.242081,33.533868,0 -90.24266900000001,33.534911,0 -90.2428381,33.5352987,0 -90.24297000000001,33.535601,0 -90.243128,33.535868,0 -90.243557,33.536593,0 -90.24499400000001,33.539164,0 -90.24595099999999,33.540801,0 -90.24781300000001,33.543985,0 -90.24875600000001,33.545608,0 -90.24979399999999,33.547378,0 -90.24994599999999,33.547645,0 -90.25083600000001,33.549208,0 -90.25291799999999,33.552778,0 -90.253739,33.554183,0 -90.254198,33.554996,0 -90.25451099999999,33.55555,0 -90.25488849999999,33.556174,0 -90.255067,33.556469,0 -90.2561232,33.5583002,0 -90.2563729,33.5587403,0 -90.25756699999999,33.560756,0 -90.258489,33.562359,0 -90.258994,33.563194,0 -90.26072200000002,33.566153,0 -90.26270999999998,33.569601,0 -90.26276799999999,33.569697,0 -90.26313099999999,33.570319,0 -90.266684,33.57641,0 -90.26687200000001,33.576731,0 -90.269069,33.58052,0 -90.269553,33.581367,0 -90.27113100000001,33.584046,0 -90.27135800000001,33.584431,0 -90.27258,33.586548,0 -90.27309200000001,33.587475,0 -90.274417,33.590097,0 -90.27534200000001,33.592317,0 -90.275897,33.593814,0 -90.27713400000002,33.597525,0 -90.277209,33.597753,0 -90.277447,33.598474,0 -90.27912999999999,33.60363,0 -90.279572,33.604839,0 -90.27962800000002,33.605033,0 -90.27982600000001,33.605741,0 -90.28062500000001,33.608139,0 -90.282381,33.613481,0 -90.28293600000002,33.615156,0 -90.283649,33.617372,0 -90.28427499999999,33.619228,0 -90.284763,33.620733,0 -90.28550300000001,33.623014,0 -90.28581399999999,33.623919,0 -90.28616100000001,33.624986,0 -90.28645,33.625914,0 -90.287076,33.627783,0 -90.28709600000001,33.627842,0 -90.28783300000001,33.630111,0 -90.288369,33.631714,0 -90.288894,33.633372,0 -90.28948100000001,33.635108,0 -90.29009099999999,33.636958,0 -90.290589,33.638467,0 -90.29085329999999,33.6392806,0 -90.291325,33.640733,0 -90.29166599999999,33.64178,0 -90.29200599999999,33.642828,0 -90.292236,33.643531,0 -90.292422,33.644081,0 -90.29283299999999,33.645275,0 -90.293661,33.647814,0 -90.29389399999999,33.648547,0 -90.294775,33.65125,0 -90.294966,33.651827,0 -90.296111,33.655281,0 -90.29678899999999,33.657389,0 -90.29772199999999,33.660147,0 -90.29858299999999,33.662842,0 -90.2989678,33.6639705,0 -90.299144,33.664469,0 -90.29976400000001,33.666372,0 -90.300681,33.669153,0 -90.301106,33.670479,0 -90.30129700000001,33.671158,0 -90.30135300000001,33.671311,0 -90.301633,33.672086,0 -90.302172,33.673744,0 -90.302341,33.674237,0 -90.30247800000001,33.674636,0 -90.302986,33.676203,0 -90.30314300000001,33.676663,0 -90.303411,33.677453,0 -90.303568,33.677935,0 -90.303828,33.678736,0 -90.30391200000001,33.678991,0 -90.30503899999999,33.682419,0 -90.30530800000001,33.683267,0 -90.305903,33.685036,0 -90.30613599999998,33.685728,0 -90.306608,33.687219,0 -90.30670799999999,33.687498,0 -90.30682899999999,33.687833,0 -90.30687500000001,33.687961,0 -90.307536,33.690019,0 -90.30889999999998,33.694133,0 -90.309611,33.696306,0 -90.309719,33.696609,0 -90.309822,33.696997,0 -90.31005000000002,33.697644,0 -90.310553,33.699203,0 -90.31095599999999,33.700375,0 -90.311089,33.700806,0 -90.311308,33.701503,0 -90.31168600000001,33.702592,0 -90.312172,33.704081,0 -90.312569,33.7053,0 -90.31328300000001,33.707447,0 -90.313562,33.708332,0 -90.31399400000001,33.709844,0 -90.31423299999999,33.71085,0 -90.314376,33.711492,0 -90.314542,33.712275,0 -90.31465799999998,33.712886,0 -90.314858,33.714219,0 -90.315089,33.716072,0 -90.315119,33.716319,0 -90.31523300000001,33.717914,0 -90.315275,33.718589,0 -90.315372,33.719456,0 -90.315619,33.722567,0 -90.315647,33.722914,0 -90.315697,33.723833,0 -90.31574999999999,33.725083,0 -90.31575100000001,33.725132,0 -90.31577170000001,33.7261645,0 -90.315781,33.726628,0 -90.315783,33.726758,0 -90.3157661,33.7271502,0 -90.31575860000001,33.7273255,0 -90.31575799999999,33.727339,0 -90.31571699999999,33.728242,0 -90.31566699999999,33.728836,0 -90.315639,33.729168,0 -90.315617,33.729436,0 -90.31559199999998,33.729753,0 -90.3155283,33.7304936,0 -90.3154864,33.7308437,0 -90.315398,33.7315043,0 -90.31527800000001,33.7322879,0 -90.315237,33.7325556,0 -90.3152059,33.7326863,0 -90.315006,33.733828,0 -90.3149574,33.7341047,0 -90.314847,33.7346724,0 -90.31467689999999,33.7355615,0 -90.3144736,33.7366619,0 -90.31442499999999,33.7368879,0 -90.31419800000002,33.7380911,0 -90.31398830000001,33.7391726,0 -90.3134189,33.7422478,0 -90.3131791,33.7435536,0 -90.3130293,33.7443011,0 -90.31289700000001,33.744946,0 -90.312819,33.745394,0 -90.31273599999999,33.745947,0 -90.312676,33.746297,0 -90.31262299999999,33.746522,0 -90.31252200000002,33.74695,0 -90.312325,33.747647,0 -90.3121,33.7483,0 -90.311993,33.748558,0 -90.311819,33.748934,0 -90.31140600000001,33.74976,0 -90.31128299999999,33.749981,0 -90.310253,33.752025,0 -90.30971100000001,33.753064,0 -90.30828099999999,33.755864,0 -90.30800300000001,33.756394,0 -90.30771399999999,33.756942,0 -90.305725,33.760819,0 -90.305269,33.761681,0 -90.30512,33.761986,0 -90.304992,33.76225,0 -90.30473900000001,33.762797,0 -90.304553,33.763258,0 -90.304194,33.764208,0 -90.30400600000002,33.764753,0 -90.303825,33.765325,0 -90.303669,33.765906,0 -90.30352499999999,33.766506,0 -90.303325,33.767439,0 -90.30322200000001,33.768014,0 -90.3032,33.768228,0 -90.30316399999998,33.768542,0 -90.303106,33.768931,0 -90.30309200000001,33.76918,0 -90.30305000000001,33.769933,0 -90.303056,33.770333,0 -90.30300800000001,33.773739,0 -90.302986,33.775359,0 -90.30293899999999,33.779208,0 -90.30293500000001,33.780427,0 -90.302933,33.780922,0 -90.30293,33.781861,0 -90.30283299999999,33.788639,0 -90.302756,33.794831,0 -90.30275199999998,33.795077,0 -90.302744,33.795675,0 -90.30273800000001,33.796083,0 -90.302722,33.797078,0 -90.30271999999999,33.797214,0 -90.302713,33.79768,0 -90.302705,33.798266,0 -90.30269200000001,33.799194,0 -90.302678,33.801975,0 -90.302639,33.805683,0 -90.302633,33.806589,0 -90.30256899999999,33.808222,0 -90.30256899999999,33.8098,0 -90.30230400000001,33.8192,0 -90.30229599999998,33.82071,0 -90.30228200000001,33.823371,0 -90.30227499999999,33.824876,0 -90.302357,33.828219,0 -90.30246699999999,33.828585,0 -90.30265799999998,33.829958,0 -90.30279900000001,33.830562,0 -90.30317360000001,33.8311612,0 -90.30407390000001,33.8332735,0 -90.30451619999999,33.8343021,0 -90.30533120000001,33.8361887,0 -90.3060893,33.8379414,0 -90.3069094,33.839846,0 -90.30769069999998,33.8416852,0 -90.30808930000002,33.8426074,0 -90.30863020000001,33.8438553,0 -90.3088928,33.8444544,0 -90.3109024,33.8490574,0 -90.31254250000001,33.851985,0 -90.31783219999998,33.8601345,0 -90.3181453,33.8606005,0 -90.31823799999999,33.860726,0 -90.3183482,33.8609052,0 -90.3188426,33.8616715,0 -90.3193898,33.8625219,0 -90.32009239999999,33.8635937,0 -90.32141540000001,33.8656421,0 -90.32179000000001,33.8662823,0 -90.32210430000001,33.8669037,0 -90.3223113,33.8673394,0 -90.322739,33.868418,0 -90.3229551,33.8690903,0 -90.323182,33.8700194,0 -90.32329249999999,33.8705553,0 -90.32335910000002,33.870983,0 -90.32346630000001,33.8720633,0 -90.32348260000001,33.8726912,0 -90.32347789999999,33.8732328,0 -90.32343750000001,33.8739959,0 -90.3233242,33.8748851,0 -90.32315010000001,33.8758118,0 -90.32271520000002,33.8772748,0 -90.3224855,33.8779001,0 -90.31938939999999,33.8860616,0 -90.31848580000002,33.8884321,0 -90.3166856,33.8932014,0 -90.3164508,33.8938426,0 -90.31624410000001,33.8943394,0 -90.3160798,33.8949141,0 -90.3159706,33.8955434,0 -90.31594800000001,33.8960806,0 -90.31596690000001,33.8966459,0 -90.31605070000001,33.8972093,0 -90.3162201,33.8978572,0 -90.3164372,33.898373,0 -90.31668839999999,33.8988725,0 -90.3169412,33.8992711,0 -90.31882919999998,33.9013587,0 -90.319757,33.9023247,0 -90.32231379999999,33.9049965,0 -90.3257971,33.9086472,0 -90.3265086,33.9093683,0 -90.3296766,33.9126895,0 -90.3300622,33.9130996,0 -90.3303205,33.9133924,0 -90.33046210000001,33.9135339,0 -90.33097430000001,33.9141878,0 -90.33169820000001,33.9153668,0 -90.33207109999998,33.9163106,0 -90.3322993,33.9169677,0 -90.33255610000001,33.9178091,0 -90.33330249999999,33.9203326,0 -90.333927,33.9224052,0 -90.33469220000001,33.9249464,0 -90.3353594,33.9271712,0 -90.33568579999998,33.9282892,0 -90.3359871,33.929321,0 -90.3363519,33.9304471,0 -90.33670189999998,33.931357,0 -90.3371911,33.9324381,0 -90.33769009999999,33.9333951,0 -90.33812260000001,33.9341384,0 -90.3385595,33.9348303,0 -90.33889099999999,33.9352863,0 -90.3390517,33.9355072,0 -90.33939549999999,33.9359505,0 -90.3396834,33.9363218,0 -90.33995940000001,33.936646,0 -90.3402873,33.9370272,0 -90.34083930000001,33.9376281,0 -90.34133569999999,33.9381353,0 -90.34178220000001,33.9385625,0 -90.34202300000001,33.9387777,0 -90.3423009,33.9390236,0 -90.34269359999999,33.9393632,0 -90.3440662,33.9405066,0 -90.34552410000001,33.9417422,0 -90.34618169999999,33.9422939,0 -90.3487623,33.9444533,0 -90.34902770000001,33.9446744,0 -90.34929109999999,33.9449025,0 -90.3510038,33.9463424,0 -90.3514476,33.946738,0 -90.35219900000001,33.94735,0 -90.3541017,33.948957,0 -90.36271369999999,33.9561655,0 -90.3649411,33.9579744,0 -90.3658911,33.9586953,0 -90.3692558,33.9612377,0 -90.37153540000001,33.9629589,0 -90.3719589,33.9632786,0 -90.37253219999999,33.9637115,0 -90.37432840000001,33.9650676,0 -90.3748001,33.9654223,0 -90.37552359999999,33.9659663,0 -90.37637719999999,33.9666203,0 -90.3798996,33.9694415,0 -90.38033210000002,33.9698047,0 -90.38147859999999,33.9707673,0 -90.3838037,33.9727195,0 -90.38395259999999,33.9728446,0 -90.3882009,33.9764114,0 -90.38847199999999,33.976639,0 -90.398611,33.9851494,0 -90.40114689999999,33.9872779,0 -90.4018185,33.9878416,0 -90.4057237,33.9911191,0 -90.40757840000001,33.9926757,0 -90.408168,33.9931706,0 -90.40995529999999,33.9946706,0 -90.41579040000001,33.9995675,0 -90.416284,33.9999817,0 -90.41739920000001,34.0009193,0 -90.41838240000001,34.0017432,0 -90.4201851,34.00325,0 -90.42359930000001,34.0061188,0 -90.42404170000002,34.0065296,0 -90.42451069999998,34.0070284,0 -90.4251477,34.0078096,0 -90.42561229999998,34.0085247,0 -90.42632740000001,34.0099587,0 -90.42647940000001,34.0104184,0 -90.4267095,34.0111139,0 
			</coordinates>
		</LineString>
		<atom:link rel="app" href="https://www.google.com/earth/about/versions/#earth-pro" title="Google Earth Pro 7.3.6.10201"></atom:link>
	</Placemark>
</Document>
</kml>
