<?xml version="1.0" encoding="UTF-8"?>
<kml xmlns="http://www.opengis.net/kml/2.2" xmlns:gx="http://www.google.com/kml/ext/2.2" xmlns:kml="http://www.opengis.net/kml/2.2" xmlns:atom="http://www.w3.org/2005/Atom">
<Document>
	<name>US.45W.kml</name>
	<Placemark>
		<name>US.45W</name>
		<LineString>
			<coordinates>
				-88.90023410000001,36.498274,0 -88.9012812,36.4977047,0 -88.9015823,36.497541,0 -88.9028923,36.4968607,0 -88.9030709,36.4967689,0 -88.9035615,36.4965015000001,0 -88.9047513,36.4959064,0 -88.9049965,36.4957933,0 -88.905182,36.4957171,0 -88.9053474,36.4956525,0 -88.90554849999999,36.4955753,0 -88.9057275,36.4955133,0 -88.90585470000001,36.4954736,0 -88.9060259,36.4954277,0 -88.906249,36.4953714,0 -88.9065111,36.4953172,0 -88.90673940000001,36.4952692,0 -88.9069081,36.49524,0 -88.90710780000001,36.4952108,0 -88.90727390000001,36.4951921,0 -88.9075256,36.4951711999999,0 -88.9078329,36.4951481,0 -88.908109,36.4951331,0 -88.908439,36.4951264,0 -88.90885830000001,36.495121,0 -88.9096076,36.4951114,0 -88.9108447,36.4951047,0 -88.9111145,36.4950964,0 -88.9113387,36.4950813,0 -88.9115608,36.495063,0 -88.9117351,36.495048,0 -88.91200910000001,36.4950163,0 -88.9122934,36.4949798,0 -88.9129078,36.4948863,0 -88.9132482,36.4948296,0 -88.91349940000001,36.4947795,0 -88.9137111,36.4947328,0 -88.9139332,36.4946828,0 -88.9141781,36.4946177,0 -88.91443339999999,36.4945393,0 -88.9146077,36.4944825,0 -88.9147904,36.4944191,0 -88.9149793,36.4943507,0 -88.91533630000001,36.4942105,0 -88.9167937,36.4935893,0 -88.91815579999999,36.4929375000001,0 -88.9203061,36.4919467,0 -88.9229622,36.4907526,0 -88.9249925,36.4898217,0 -88.9269676,36.4889117,0 -88.92841730000001,36.4882651,0 -88.92988320000001,36.4876184,0 -88.9325264,36.4864138,0 -88.9348712,36.4853395,0 -88.9394765,36.483243,0 -88.94133480000001,36.4824033000001,0 -88.94382880000001,36.4812586,0 -88.9447768,36.4808308,0 -88.94523700000001,36.4806228,0 -88.9455428,36.4804905,0 -88.94579469999999,36.4803878,0 -88.9461072,36.480269,0 -88.946591,36.480088,0 -88.9475451,36.4797476,0 -88.9506864,36.4786238000001,0 -88.9530535,36.4777798,0 -88.95610069999999,36.4766776,0 -88.9578332,36.4760741,0 -88.95900570000001,36.4756446,0 -88.9594134,36.4754864,0 -88.95971110000001,36.4753657,0 -88.9599777,36.4752464,0 -88.9602615,36.4751098,0 -88.9604916,36.4749957,0 -88.9607324,36.4748712,0 -88.96091699999999,36.474773,0 -88.96127,36.4745703,0 -88.9619817,36.4741502,0 -88.96572999999999,36.471919,0 -88.9707408,36.4689007,0 -88.9739088,36.4670045,0 -88.9744317,36.4666915,0 -88.975562,36.4660113,0 -88.9764271,36.465558,0 -88.97724530000001,36.4651894,0 -88.97789179999999,36.4650244,0 -88.978504,36.4649315,0 -88.979134,36.4648945,0 -88.9796649,36.4649058,0 -88.9803373,36.4650083,0 -88.9809461,36.4651449,0 -88.9814557,36.4651962,0 -88.9817884,36.4651791,0 -88.9821706,36.4651279,0 -88.98263780000001,36.465014,0 -88.9830573,36.4648289,0 -88.98328619999999,36.4646852,0 -88.9834472,36.464555,0 -88.9835602,36.4644562,0 -88.98367159999999,36.4643389,0 -88.9837641,36.4642181,0 -88.9839133,36.4639899,0 -88.9840104,36.4638431,0 -88.98406199999999,36.463694,0 -88.98413309999999,36.4635348,0 -88.9841655,36.4633968,0 -88.98420230000001,36.4632388,0 -88.98421980000001,36.4630739,0 -88.9842135,36.4629085,0 -88.9841572,36.4624219,0 -88.9841325,36.462216,0 -88.98413499999999,36.4620301,0 -88.98416520000001,36.4618301,0 -88.9842057,36.4616391,0 -88.9842877,36.4614161,0 -88.9843922,36.4611752,0 -88.98448430000001,36.4610221,0 -88.9846089,36.4608526,0 -88.98480170000001,36.4606443,0 -88.98499270000001,36.4604785,0 -88.9852339,36.4602895,0 -88.9858947,36.4598029,0 -88.9868817,36.4593542,0 -88.98748260000001,36.4591557,0 -88.9887823,36.4589081,0 -88.98991719999999,36.4588164,0 -88.99035720000001,36.4588061000001,0 -88.9918989,36.4587399,0 -88.9923117,36.4587187,0 -88.992673,36.458691,0 -88.99301269999999,36.458653,0 -88.99323630000001,36.4586288,0 -88.99348999999999,36.4585907,0 -88.99372649999999,36.458544,0 -88.9939308,36.4584956,0 -88.99421030000001,36.4584299,0 -88.9943974,36.458378,0 -88.9946296,36.4583071,0 -88.99485110000001,36.4582293,0 -88.9950274,36.4581635999999,0 -88.99522519999999,36.4580856999999,0 -88.9954209,36.4579976,0 -88.9956617,36.4578782,0 -88.9958445,36.4577866,0 -88.9960057,36.4577001,0 -88.99619490000001,36.4575842,0 -88.99635619999999,36.4574786999999,0 -88.996539,36.4573542,0 -88.9966981,36.4572314,0 -88.996855,36.4571052,0 -88.9970356,36.4569478,0 -88.9972507,36.4567507,0 -88.9973926,36.4566071,0 -88.9975323,36.4564636000001,0 -88.9977172,36.456263,0 -88.99782690000001,36.4561453999999,0 -88.99879660000001,36.4550351,0 -89.00099059999999,36.4525347,0 -89.0032314,36.4499789,0 -89.0041184,36.4489519,0 -89.0051733,36.447752,0 -89.0057893,36.4470369,0 -89.00636710000001,36.4463883,0 -89.0065788,36.4461667,0 -89.0067636,36.445983,0 -89.0069752,36.4457884,0 -89.0071634,36.4456397,0 -89.0074254,36.4454289,0 -89.0077211,36.4452208000001,0 -89.0078888,36.4451172,0 -89.0080904,36.4449896,0 -89.0082651,36.444888,0 -89.0084935,36.4447669,0 -89.00872200000001,36.4446501,0 -89.0089531,36.4445507,0 -89.00918369999999,36.4444531,0 -89.0093933,36.444371,0 -89.0096648,36.444278,0 -89.009912,36.444198,0 -89.0101378,36.444131,0 -89.0103797,36.4440661,0 -89.0106834,36.4439948,0 -89.01094139999999,36.443945,0 -89.011229,36.4438996,0 -89.01152999999999,36.4438629,0 -89.0118176,36.4438326,0 -89.0122181,36.4438067,0 -89.0124469,36.4438003,0 -89.0127,36.4438027,0 -89.0131166,36.4438134,0 -89.01333870000001,36.4438235,0 -89.0135946,36.4438917,0 -89.0137052,36.4439274,0 -89.0138,36.4439661,0 -89.0138907,36.4440153,0 -89.013943,36.4440533,0 -89.0140024,36.4440977,0 -89.0140478,36.4441398,0 -89.0140919,36.4441911,0 -89.0141249,36.4442407,0 -89.0141502,36.4442877,0 -89.0141711,36.4443417,0 -89.01418769999999,36.4444001,0 -89.0141976,36.4444595,0 -89.0142031,36.4445418,0 -89.0141965,36.4446224,0 -89.01418,36.4446862,0 -89.0141579,36.444742,0 -89.0141282,36.4448004,0 -89.01408859999999,36.4448562,0 -89.01403790000001,36.4449129,0 -89.0139939,36.4449598,0 -89.0139422,36.4450014000001,0 -89.0138893,36.4450378,0 -89.013831,36.4450705,0 -89.0137671,36.4450997,0 -89.01369010000001,36.4451281,0 -89.0136152,36.4451476,0 -89.0135513,36.44516,0 -89.0134875,36.4451679,0 -89.0134192,36.4451715,0 -89.01333339999999,36.4451715,0 -89.0132618,36.4451662,0 -89.0131804,36.4451493,0 -89.0130868,36.4451219,0 -89.0130229,36.4450953,0 -89.0129635,36.4450643,0 -89.01291500000001,36.4450395000001,0 -89.0128545,36.4449997,0 -89.0128005,36.4449598,0 -89.0127488,36.4449067,0 -89.0126894,36.4448279,0 -89.0126453,36.4447401999999,0 -89.01260240000001,36.4446251,0 -89.0124892,36.4443919,0 -89.0124469,36.4440165,0 -89.01237759999999,36.4433928,0 -89.0123486,36.4431548,0 -89.0123797,36.442842,0 -89.0122978,36.4419709,0 -89.01227369999999,36.4417143,0 -89.0121977,36.4410328000001,0 -89.0121693,36.440893,0 -89.01211170000001,36.4403026,0 -89.01208010000001,36.4400432,0 -89.0120513,36.439807,0 -89.0120211,36.4396264,0 -89.01199080000001,36.4394307,0 -89.0119491,36.439242,0 -89.011903,36.4390255,0 -89.0118411,36.4388024,0 -89.0117643,36.4382757,0 -89.0116941,36.4380156,0 -89.01165930000001,36.4378967,0 -89.01163409999999,36.4378041,0 -89.0116233,36.4377433,0 -89.01161980000001,36.4376825,0 -89.01161980000001,36.4376232,0 -89.0116269,36.4375711,0 -89.0116431,36.4375103,0 -89.0116665,36.4374495,0 -89.0116989,36.4373988999999,0 -89.0117403,36.4373439,0 -89.01179070000001,36.4372918,0 -89.01183380000001,36.4372498,0 -89.0118932,36.4372035,0 -89.0119619,36.4371632,0 -89.01200799999999,36.4371378,0 -89.012067,36.4371123,0 -89.01212889999999,36.4370913999999,0 -89.0121936,36.4370752,0 -89.01225410000001,36.4370637,0 -89.0123275,36.4370567,0 -89.0123923,36.4370532,0 -89.0124613,36.4370544,0 -89.0125146,36.4370579,0 -89.01258660000001,36.4370706,0 -89.0126556,36.4370857,0 -89.0127391,36.4371123,0 -89.0128024,36.4371412,0 -89.0128643,36.4371748,0 -89.012919,36.4372107,0 -89.0129651,36.4372478,0 -89.0130169,36.4372918,0 -89.01305429999999,36.4373334,0 -89.01308880000001,36.4373832,0 -89.0131219,36.4374387999999,0 -89.01316079999999,36.4375060000001,0 -89.0132213,36.4376449,0 -89.01327879999999,36.4377954,0 -89.0133609,36.4380305,0 -89.0135884,36.4385606,0 -89.01363720000001,36.4386742,0 -89.0137972,36.4388043,0 -89.01430190000001,36.43855,0 -89.01479430000001,36.4383019,0 -89.019368,36.4359935,0 -89.0223725,36.4344723,0 -89.0261275,36.4325957,0 -89.0295366,36.4308738,0 -89.0297029,36.4307848,0 -89.0372629,36.426979,0 -89.037845,36.4266902,0 -89.0385952,36.426318,0 -89.0387351,36.4262486,0 -89.03993730000001,36.4256521,0 -89.0400509,36.4246173,0 -89.04018910000001,36.4232365,0 -89.0403384,36.4219053,0 -89.0404391,36.4210387,0 -89.0405152,36.4203561,0 -89.0406108,36.4194992,0 -89.0407354,36.4183855,0 -89.0407414,36.4183312,0 -89.0407474,36.4182776,0 -89.0407989,36.4178173,0 -89.0408966,36.4170055,0 -89.0409768,36.4163391,0 -89.0411862,36.4145883,0 -89.04134670000001,36.4132592,0 -89.0427598,36.4133591,0 -89.04330969999999,36.413398,0 -89.04381410000001,36.4134353,0 -89.04422169999999,36.4134654,0 -89.0450452,36.4135263,0 -89.0457688,36.4135798,0 -89.04642370000001,36.4136282,0 -89.0465875,36.4136403,0 -89.04781730000001,36.4137412,0 -89.049025,36.4138234,0 -89.0492844,36.413841,0 -89.0504364,36.4139036,0 -89.0505308,36.4139125,0 -89.0513897,36.4139932,0 -89.0518695,36.4140368,0 -89.05205239999999,36.4140653,0 -89.0521567,36.4140818,0 -89.05226949999999,36.4140996,0 -89.0524679,36.4141309,0 -89.05294859999999,36.4142069,0 -89.05351829999999,36.4142938,0 -89.053782,36.4143349,0 -89.05430339999999,36.4143702,0 -89.05559959999999,36.4143876,0 -89.0561416,36.4143807,0 -89.0565046,36.4143761,0 -89.0568593,36.4143871,0 -89.0579894,36.4144684,0 -89.0580083,36.4138128,0 -89.05801889999999,36.4134453,0 -89.0580303,36.4133507,0 -89.0580841,36.4129057,0 -89.0582094,36.4120743,0 -89.0583006,36.4114508,0 -89.0603898,36.398398,0 -89.0604072,36.3982824,0 -89.0609211,36.3950978,0 -89.0616193,36.3906443,0 -89.0623992,36.3857834,0 -89.0625926,36.384583,0 -89.0626261,36.3843514,0 -89.06305759999999,36.3816212,0 -89.0634689,36.3789696,0 -89.0638884,36.3763834,0 -89.0640557,36.3753697,0 -89.0650517,36.3691441,0 -89.06523110000001,36.3679423,0 -89.06538,36.367079,0 -89.06559439999999,36.3657231,0 -89.0657061,36.3650164,0 -89.0658751,36.3639475,0 -89.0659958,36.3632435,0 -89.06616750000001,36.3621095,0 -89.0667468,36.358539,0 -89.0670338,36.3566835,0 -89.0673503,36.354612,0 -89.0674442,36.3540719,0 -89.0677151,36.3523632,0 -89.0683454,36.348397,0 -89.068493,36.3474615,0 -89.0685225,36.3472606,0 -89.06855899999999,36.3470090000001,0 -89.06862099999999,36.346665,0 -89.06905620000001,36.3439444,0 -89.0692207,36.3429632,0 -89.06946859999999,36.3413638,0 -89.069593,36.3405579999999,0 -89.06998539999999,36.3381803,0 -89.0703019,36.3361935,0 -89.0706031,36.3342838,0 -89.07090100000001,36.332406,0 -89.0709148,36.3323187,0 -89.0709272,36.3322407,0 -89.0717695,36.3269351,0 -89.0717897,36.3268109,0 -89.07181,36.3266856,0 -89.07212389999999,36.3247144,0 -89.07237790000001,36.3230978,0 -89.0734769,36.3161569,0 -89.0748744,36.3073407,0 -89.07536500000001,36.3042391,0 -89.0754633,36.3035517,0 -89.0755389,36.3028534,0 -89.075557,36.3021783,0 -89.07555619999999,36.3020726,0 -89.0755606,36.3019821,0 -89.0755412,36.3014116,0 -89.0755091,36.3009206,0 -89.0754163,36.300159,0 -89.0753235,36.29957,0 -89.0751581,36.2988301,0 -89.074878,36.2979011,0 -89.0746484,36.29727,0 -89.07446659999999,36.296821,0 -89.07426649999999,36.2963895,0 -89.073986,36.2958298,0 -89.0736249,36.2951890000001,0 -89.0734494,36.2948993,0 -89.07256700000001,36.2935701,0 -89.0724689,36.2934391,0 -89.07111999999999,36.29145,0 -89.070701,36.290825,0 -89.0673566,36.285877,0 -89.0664082,36.2844731,0 -89.06446339999999,36.2815932,0 -89.0635003,36.2801769,0 -89.06184639999999,36.2777267,0 -89.0612927,36.2769147,0 -89.0609832,36.2764718,0 -89.0606339,36.2759373,0 -89.0602502,36.2753277,0 -89.05989270000001,36.2747617,0 -89.0597037,36.2744936,0 -89.0593738,36.2740613,0 -89.05881290000001,36.2732243,0 -89.0584489,36.2726951,0 -89.05799620000001,36.2720126,0 -89.0572688,36.2709613,0 -89.0554235,36.2682283,0 -89.0545834,36.2669785,0 -89.0544199,36.266737,0 -89.0533101,36.2650936,0 -89.05186380000001,36.2629576,0 -89.0513017,36.2620964,0 -89.0505941,36.261063,0 -89.05011469999999,36.2603559,0 -89.0494597,36.2593781,0 -89.04863039999999,36.2581608,0 -89.0467129,36.2553311,0 -89.0457761,36.2539516,0 -89.04422340000001,36.2516524,0 -89.0437141,36.250889,0 -89.04315200000001,36.2500633,0 -89.0430602,36.2499219,0 -89.042976,36.2497892,0 -89.04288459999999,36.2496695000001,0 -89.0393169,36.2443893,0 -89.0375064,36.2417088,0 -89.03601190000001,36.2394978,0 -89.03504049999999,36.2380633,0 -89.0343615,36.2370613,0 -89.0342958,36.2369708,0 -89.0342708,36.2369256,0 -89.0332624,36.2354373,0 -89.0312488,36.2324508,0 -89.03057250000001,36.2314416,0 -89.0290668,36.2292247,0 -89.0279814,36.2276084,0 -89.0278734,36.227458,0 -89.0261825,36.2249556000001,0 -89.0256706,36.2241936,0 -89.0244691,36.2224092,0 -89.0239689,36.2216693,0 -89.0232847,36.22065,0 -89.0229899,36.2202206,0 -89.0229279,36.2201233,0 -89.0213033,36.2177232,0 -89.0197628,36.2154181,0 -89.0197081,36.2153366,0 -89.0196869,36.2153011,0 -89.01949620000001,36.214995,0 -89.0190465,36.2142529,0 -89.01800179999999,36.2124765,0 -89.01728490000001,36.2112540000001,0 -89.01698500000001,36.2107518,0 -89.0158058,36.2087163,0 -89.01554299999999,36.2082909999999,0 -89.01485479999999,36.2071268,0 -89.01424969999999,36.2060918,0 -89.0140802,36.2058063,0 -89.0140425,36.2057415,0 -89.01400940000001,36.2056844,0 -89.0136811,36.2051336,0 -89.0133309,36.2045289,0 -89.01329079999999,36.2044628,0 -89.01326640000001,36.2044225,0 -89.0132126,36.2043319,0 -89.01284339999999,36.2037099,0 -89.01278790000001,36.2036146,0 -89.01258559999999,36.2032717000001,0 -89.0123127,36.2028086,0 -89.0120201,36.2023129,0 -89.0114832,36.2014038,0 -89.0108802,36.200381,0 -89.0098277,36.1985727999999,0 -89.009648,36.1982633,0 -89.009546,36.1979516,0 -89.00944680000001,36.1976486,0 -89.0093985,36.1973412,0 -89.009371,36.1970236,0 -89.0093711,36.195636,0 -89.0093432,36.194114,0 -89.0093395,36.1933925,0 -89.0092935,36.1898435,0 -89.00927780000001,36.1886372,0 -89.0092573,36.1880433,0 -89.0092605,36.1878076,0 -89.0092456,36.1864573,0 -89.0092295,36.1860979,0 -89.0091518,36.1856,0 -89.00901709999999,36.1850982,0 -89.0088138,36.1845826,0 -89.00828540000001,36.1833421,0 -89.00807349999999,36.1828268,0 -89.00632280000001,36.1786544,0 -89.0057769,36.1773391,0 -89.00522890000001,36.1760442,0 -89.0046392,36.1746274,0 -89.00425629999999,36.1737383,0 -89.00366270000001,36.1722992,0 -89.0028794,36.1704351,0 -89.00248790000001,36.1695058999999,0 -89.002129,36.1686193,0 -89.0020651,36.168452,0 -89.001773,36.1677969,0 -89.0014911,36.1671189,0 -89.0012864,36.1666388,0 -89.0010918,36.1661708,0 -89.0007226,36.1653039,0 -89.00042999999999,36.1645812,0 -89.00007909999999,36.1637225,0 -88.9997377,36.1629186,0 -88.99925349999999,36.1617452,0 -88.99894690000001,36.1610496,0 -88.9984211,36.1594306,0 -88.9980645,36.1582923,0 -88.99786810000001,36.1575725,0 -88.9976403,36.1565133,0 -88.9975185,36.1561866,0 -88.9972946,36.1557966,0 -88.99717200000001,36.1555208,0 -88.99693329999999,36.1544329,0 -88.9964824,36.1522324,0 -88.9960456,36.1502784,0 -88.9958218,36.1491239,0 -88.9957629,36.1485562,0 -88.9957943,36.1479505,0 -88.9958846,36.1474208,0 -88.9960731,36.1468531,0 -88.9962575,36.146482,0 -88.9963363,36.1463234,0 -88.99659939999999,36.1458699,0 -88.9969608,36.1453846,0 -88.99822159999999,36.1440334,0 -88.999337,36.142806,0 -89.00040540000001,36.1416705,0 -89.0014305,36.1405952,0 -89.00195290000001,36.1400179,0 -89.0024635,36.1394056999999,0 -89.0030016,36.1386762,0 -89.0034043,36.1380493000001,0 -89.00365360000001,36.1376611,0 -89.00408950000001,36.1368586,0 -89.0045059,36.1360244,0 -89.0048515,36.1350981,0 -89.0050122,36.1345808,0 -89.0051225,36.1342258,0 -89.0052443,36.1337531,0 -89.0053425,36.1331726,0 -89.0056556,36.1309656,0 -89.0058609,36.1295182,0 -89.00603049999999,36.1282321,0 -89.00604060000001,36.1281555,0 -89.00616340000001,36.1272246,0 -89.0062812,36.1261205000001,0 -89.00632830000001,36.1255146,0 -89.0063401,36.124658,0 -89.0063165,36.1238522,0 -89.0062301,36.1230559,0 -89.0061084,36.1222627,0 -89.00596299999999,36.1215394,0 -89.0057942,36.1208794,0 -89.00557809999999,36.1201656,0 -89.0050243,36.1186236,0 -89.00411699999999,36.1162345,0 -89.003766,36.115264,0 -89.0035161,36.1144767,0 -89.0032961,36.1138294,0 -89.00305659999999,36.1130298,0 -89.0028894,36.1123281,0 -89.0027973,36.1119415,0 -89.0022357,36.1093332,0 -89.0019568,36.1080322,0 -89.0018073,36.1073098,0 -89.0015562,36.1060965,0 -89.0014266,36.1054968,0 -89.0013402,36.1050208,0 -89.001293,36.1044591,0 -89.00129699999999,36.1037832,0 -89.0013873,36.1030152,0 -89.00148160000001,36.1024979,0 -89.00164650000001,36.1020092,0 -89.0020079,36.1011207,0 -89.00310760000001,36.0987469,0 -89.00361700000001,36.0976644,0 -89.0039246,36.0970109,0 -89.0041956,36.0964238,0 -89.00450189999999,36.0956462,0 -89.0047258,36.0949416,0 -89.0049379,36.0941387,0 -89.0051107,36.0933294,0 -89.0053515,36.0915191,0 -89.0056134,36.0895501,0 -89.00591590000001,36.0872481,0 -89.0062223,36.084985,0 -89.0062812,36.0843756,0 -89.0062969,36.0838328,0 -89.0062655,36.0833725,0 -89.0061948,36.082798,0 -89.00577060000001,36.0804903,0 -89.0056606,36.0798428,0 -89.0056222,36.0795533,0 -89.0055899,36.0793095,0 -89.0055624,36.0788016,0 -89.0055624,36.0782238,0 -89.0055978,36.0777,0 -89.005641,36.0772683,0 -89.0057352,36.0767255,0 -89.00609230000001,36.0752596,0 -89.00639510000001,36.0740018,0 -89.00646039999999,36.073745,0 -89.0068978,36.0720270999999,0 -89.00707060000001,36.071297,0 -89.0071963,36.0706843,0 -89.0072474,36.0701509,0 -89.0072435,36.0695159,0 -89.00717280000001,36.0688429,0 -89.00704229999999,36.0682269,0 -89.0068625,36.0676936,0 -89.006615,36.0671412,0 -89.006344,36.0666364,0 -89.0058923,36.0660014,0 -89.0052074,36.0651471,0 -89.00498109999999,36.0648648,0 -89.0045137,36.0642393,0 -89.003956,36.0634424,0 -89.0031905,36.0621874,0 -89.002978,36.061839,0 -89.0019953,36.0601636,0 -89.0012105,36.0588258,0 -89.000806,36.0582193,0 -89.00037,36.0576796,0 -88.9998476,36.0571779,0 -88.9987125,36.0562316,0 -88.99752220000001,36.0552617,0 -88.9971965,36.0549964,0 -88.9951416,36.0532067,0 -88.9948909,36.0529896,0 -88.99189079999999,36.0503583,0 -88.98945000000001,36.0481948,0 -88.98825309999999,36.0471339,0 -88.9868476,36.0458978,0 -88.9853859,36.0446124,0 -88.9849024,36.0441908,0 -88.9836342,36.0430848,0 -88.98354809999999,36.0430106,0 -88.9811187,36.0409175,0 -88.9807591,36.0406076,0 -88.9787599,36.0388418,0 -88.97818650000001,36.03834,0 -88.9778463,36.0379631,0 -88.9776877,36.0377874,0 -88.9772124,36.0371649,0 -88.97698219999999,36.0367719,0 -88.97675289999999,36.0363804,0 -88.9764112,36.0356657,0 -88.9761755,36.0349225,0 -88.9761377,36.0347259,0 -88.9760027,36.0340237,0 -88.9758456,36.0325213,0 -88.9757905,36.0320296,0 -88.9755706,36.030066,0 -88.9753755,36.0281758,0 -88.9752093,36.0265656,0 -88.975038,36.0248063,0 -88.9748676,36.0237225999999,0 -88.97466729999999,36.0229158,0 -88.97441980000001,36.0222169,0 -88.9740231,36.0214608,0 -88.9735448,36.020756,0 -88.9735165,36.0207143,0 -88.97296660000001,36.0200726,0 -88.9722714,36.0194118,0 -88.9703516,36.0177909,0 -88.9696752,36.0172198,0 -88.96753390000001,36.0153905,0 -88.9665998,36.0145925,0 -88.9635127,36.0120001,0 -88.9632391,36.0117671,0 -88.9602525,36.0092232,0 -88.9596557,36.0087149,0 -88.9588426,36.0080318,0 -88.95817889999999,36.0075552,0 -88.95746800000001,36.007139,0 -88.95684060000001,36.006848,0 -88.9565724,36.0067236,0 -88.95584580000001,36.0064495000001,0 -88.9551093,36.0062231,0 -88.95426980000001,36.0060325,0 -88.95338599999999,36.0058975,0 -88.9522863,36.0057863,0 -88.9489971,36.0057863,0 -88.94855250000001,36.0057863,0 -88.9479786,36.0057931,0 -88.94734029999999,36.0057953,0 -88.9466524,36.0057932,0 -88.9466268,36.0057931,0 -88.94332230000001,36.0058083,0 -88.9358872,36.0058257,0 -88.9354688,36.0058061,0 -88.93506379999999,36.0057606,0 -88.93457290000001,36.0056456,0 -88.9342381,36.0055127,0 -88.9339265,36.0053852,0 -88.9337093,36.0052485,0 -88.9335334,36.0051205,0 -88.9333043,36.0049382,0 -88.93309499999999,36.0047321,0 -88.9329053,36.0045018,0 -88.93275439999999,36.0042481999999,0 -88.93260960000001,36.0039119,0 -88.932491,36.003567,0 -88.9323699,36.0031454,0 -88.9322341,36.0026968,0 -88.93211340000001,36.0023409,0 -88.9319905,36.0019262,0 -88.9316369,36.0007482,0 -88.931605,36.0006417,0 -88.9314723,36.0001999,0 -88.9314251,36.0000426,0 -88.9313506,35.9997708,0 -88.931226,35.9993161,0 -88.93121789999999,35.9992866,0 -88.9311941,35.9991821000001,0 -88.93105920000001,35.9985674,0 -88.93102949999999,35.9983323,0 -88.93094670000001,35.9975183,0 -88.9309342,35.997331,0 -88.9308905,35.9966743,0 -88.9308625,35.996253,0 -88.9305174,35.9894399,0 -88.93038970000001,35.9865958,0 -88.93031329999999,35.9846643,0 -88.9303032,35.9841532,0 -88.9302905,35.9829795,0 -88.930249,35.9809917,0 -88.9302362,35.9803789,0 -88.9302074,35.9796756,0 -88.9302029,35.9795645,0 -88.930105,35.9785459,0 -88.9299522,35.9773971,0 -88.9298644,35.9767031,0 -88.929726,35.9756248,0 -88.929591,35.9747096,0 -88.9295132,35.9740503,0 -88.92945810000001,35.9734878,0 -88.9294177,35.9730898,0 -88.9294127,35.9726446,0 -88.92944970000001,35.9721455,0 -88.9294713,35.9720136,0 -88.92953180000001,35.971645,0 -88.9295336,35.9716338,0 -88.92973360000001,35.9708727,0 -88.9299113,35.9702266,0 -88.92998559999999,35.9699564,0 -88.9300082,35.9698744,0 -88.9300897,35.9695780999999,0 -88.9301045,35.9695281,0 -88.93033010000001,35.9687594,0 -88.9304384,35.9683884,0 -88.9304861,35.9682028,0 -88.93052280000001,35.9680802,0 -88.9305671,35.9679322,0 -88.93062159999999,35.9677503,0 -88.9306242,35.9677412,0 -88.9307043,35.9674655,0 -88.9307573,35.9672829,0 -88.93080639999999,35.9671078,0 -88.93086030000001,35.9669222,0 -88.93101160000001,35.9664016,0 -88.9310345,35.9663254,0 -88.9312066,35.9657534,0 -88.93123490000001,35.965636,0 -88.93138190000001,35.9651508,0 -88.931741,35.9639879,0 -88.9319278,35.9634552,0 -88.9319689,35.9633522,0 -88.9320577,35.9631324,0 -88.9321743,35.9628485,0 -88.9325771,35.9619724,0 -88.933374,35.960218,0 -88.9336754,35.959554,0 -88.9337249,35.9594396,0 -88.934269,35.9582752,0 -88.9347063,35.9573079,0 -88.93535869999999,35.9558759,0 -88.9359468,35.9545865,0 -88.9364453,35.9534571,0 -88.9368573,35.9522663,0 -88.9370208,35.9516719,0 -88.9371739,35.9510548,0 -88.9372709,35.9503924,0 -88.9373671,35.9496652,0 -88.9373727,35.9494979,0 -88.9373755,35.949416,0 -88.93743139999999,35.9477544,0 -88.937466,35.9468086000001,0 -88.93750180000001,35.9454479,0 -88.9375483,35.9440856,0 -88.93759470000001,35.9435583,0 -88.9376524,35.9432961,0 -88.9377533,35.9430119,0 -88.93783519999999,35.9428185,0 -88.9379955,35.9425615,0 -88.9381647,35.9423436,0 -88.93835300000001,35.9421605,0 -88.94014369999999,35.9406012,0 -88.9406173,35.9400388,0 -88.940799,35.9397526,0 -88.9409807,35.939371,0 -88.94107390000001,35.9389298,0 -88.9410805,35.9382807,0 -88.94102479999999,35.938085,0 -88.9406173,35.9366521,0 -88.9399202,35.9340841,0 -88.9397238,35.9333209,0 -88.93961090000001,35.9327921,0 -88.9395323,35.9321839,0 -88.93924269999999,35.926984,0 -88.9389789,35.9220145000001,0 -88.9387933,35.9182962,0 -88.9387236,35.9170763,0 -88.93867849999999,35.9163457,0 -88.9385793,35.9155237,0 -88.9384575,35.9148187,0 -88.9382725,35.9140624,0 -88.9378756,35.9129774,0 -88.937614,35.9121591,0 -88.93740200000001,35.9114502999999,0 -88.93726650000001,35.9109348,0 -88.9369238,35.9096309,0 -88.9366555,35.9085997,0 -88.936148,35.9066496,0 -88.9359048,35.9057069,0 -88.93568329999999,35.9048483,0 -88.9354714,35.904165,0 -88.9348924,35.9025871,0 -88.9342011,35.9006135,0 -88.9339954,35.9001458,0 -88.9337211,35.8996635,0 -88.9333891,35.8992338,0 -88.9329489,35.8987924,0 -88.93249059999999,35.8984387,0 -88.9317544,35.897968,0 -88.9300223,35.8969186,0 -88.92949900000001,35.8965795,0 -88.9290407,35.8962258,0 -88.9286113,35.8958107,0 -88.928319,35.8954306,0 -88.928135,35.8951354,0 -88.9279509,35.8947437,0 -88.9277958,35.8942847,0 -88.9276947,35.8936591,0 -88.927655,35.8929458,0 -88.9276187,35.8912222,0 -88.9275901,35.8898674,0 -88.9275584,35.887813,0 -88.9275251,35.8856516,0 -88.9274875,35.8840565,0 -88.9274602,35.8829003,0 -88.9274497,35.8821493,0 -88.92744209999999,35.881608,0 -88.9274205,35.8810905,0 -88.92735519999999,35.8806154,0 -88.9272689,35.8802630999999,0 -88.927074,35.8796754,0 -88.92629820000001,35.8774908,0 -88.92618469999999,35.8771713,0 -88.9261705,35.8771312,0 -88.9258435,35.8762105,0 -88.9251591,35.8742829,0 -88.9246382,35.8728156,0 -88.9242397,35.8716987,0 -88.9233175,35.8691136,0 -88.9230649,35.8683954,0 -88.92229620000001,35.8662096999999,0 -88.9219746,35.8653008,0 -88.92156369999999,35.8641392,0 -88.92122449999999,35.8632034,0 -88.92086,35.8622529,0 -88.9204775,35.8611737,0 -88.91992430000001,35.8597151,0 -88.9188329,35.8567691,0 -88.91866280000001,35.8563099,0 -88.91845290000001,35.8557432,0 -88.9183249,35.8553978,0 -88.91828529999999,35.855291,0 -88.9180827,35.854744,0 -88.91796979999999,35.8544065,0 -88.9179357,35.8543046,0 -88.9178436,35.8540293,0 -88.9165314,35.8501062,0 -88.9153969,35.8468956,0 -88.91530109999999,35.8466164,0 -88.9150856,35.8460097,0 -88.9149401,35.8453905,0 -88.9148455,35.844764,0 -88.91482689999999,35.8442182,0 -88.9148089,35.8436907,0 -88.91483119999999,35.8432093,0 -88.9148431,35.8429526,0 -88.9148896,35.8419477,0 -88.91492719999999,35.8411342,0 -88.9149834,35.8399189,0 -88.9150447,35.8385945,0 -88.9150673,35.8381062,0 -88.9150757,35.8379242,0 -88.9151128,35.8372522000001,0 -88.91512229999999,35.8371301,0 -88.91443219999999,35.8371042,0 -88.9139749,35.8370829,0 -88.91368540000001,35.8370666,0 -88.91339189999999,35.83705,0 -88.9130198,35.8370155,0 -88.9126437,35.8369735,0 -88.91233680000001,35.8369279,0 -88.9114993,35.8368261,0 -88.91102069999999,35.8367871,0 -88.9104239,35.8367575,0 -88.9098228,35.8367443,0 -88.9082039,35.8367086,0 -88.9039547,35.8366051,0 -88.9028162,35.8365848,0 -88.9005265,35.836536,0 -88.9001663,35.8365216,0 -88.89982809999999,35.8364958,0 -88.89945470000001,35.8364513,0 -88.8991414,35.836397,0 -88.898786,35.8363226,0 -88.8984134,35.8362216,0 -88.89815590000001,35.8361354,0 -88.89791289999999,35.8360498,0 -88.8976263,35.8359311,0 -88.89729850000001,35.8357884,0 -88.8966808,35.8354987,0 -88.8961843,35.8352504,0 -88.89601829999999,35.8351744,0 -88.89552070000001,35.8349352,0 -88.8952099,35.8348131,0 -88.8949391,35.8347255,0 -88.89472550000001,35.8346734,0 -88.8944584,35.8346261,0 -88.8941306,35.8345887,0 -88.8937628,35.8345818,0 -88.8934884,35.8345966,0 -88.8929397,35.8346704,0 -88.89088750000001,35.8349661,0 -88.89044920000001,35.8349976,0 -88.89016030000001,35.8350084,0 -88.8897645,35.8349868,0 -88.8894938,35.8349573,0 -88.889268,35.8349138999999,0 -88.8889839,35.8348441,0 -88.8887399,35.8347663,0 -88.8884813,35.8346728,0 -88.88824219999999,35.8345577,0 -88.8880467,35.8344533,0 -88.8878148,35.8343146,0 -88.88761820000001,35.8341689,0 -88.8873839,35.8339711,0 -88.8871702,35.8337644,0 -88.88687969999999,35.8333692,0 -88.88677319999999,35.8331876,0 -88.8866773,35.8329997,0 -88.8865911,35.8327772,0 -88.88650610000001,35.832476,0 -88.8864564,35.832168,0 -88.88646,35.8319052000001,0 -88.88648430000001,35.8315932,0 -88.88653890000001,35.8313265,0 -88.8866251,35.8310135,0 -88.8868549,35.830338,0 -88.8905476,35.8200247,0 -88.890987,35.8188125,0 -88.8911109,35.8184335,0 -88.8912153,35.8180732,0 -88.8912881,35.8177336,0 -88.8913427,35.8173664,0 -88.89137789999999,35.8169194,0 -88.8913767,35.8165414,0 -88.89134679999999,35.8162225,0 -88.89092549999999,35.813437,0 -88.8906842,35.8119177,0 -88.89051809999999,35.8107855,0 -88.89046829999999,35.8101938,0 -88.89045969999999,35.8097844,0 -88.8904641,35.8095952,0 -88.89046829999999,35.8094169,0 -88.89050779999999,35.8090674,0 -88.8905747,35.8087263,0 -88.8907313,35.8080895,0 -88.8908898,35.8074448,0 -88.8909736,35.8070323000001,0 -88.89100999999999,35.8067389,0 -88.89101119999999,35.8064357,0 -88.89099419999999,35.8061334,0 -88.890925,35.8057583,0 -88.8908522,35.8055417,0 -88.89073809999999,35.8052611,0 -88.8905766,35.8049529,0 -88.8904091,35.8047117,0 -88.8901712,35.8044305,0 -88.8899746,35.8042248,0 -88.88975480000001,35.8040298,0 -88.8894914,35.80383,0 -88.8892462,35.8036645,0 -88.88701229999999,35.8023214,0 -88.886472,35.801976,0 -88.8852389,35.8012564,0 -88.8845862,35.8008441,0 -88.883819,35.8002907,0 -88.8827773,35.7994024999999,0 -88.8801923,35.7971743,0 -88.8789692,35.796125,0 -88.8781431,35.7954758,0 -88.8777151,35.7951187,0 -88.8748489,35.7927216,0 -88.87456830000001,35.7924869,0 -88.87239750000001,35.7905988,0 -88.8705999,35.7890242,0 -88.8676035,35.7865225,0 -88.8650128,35.7843711,0 -88.86364380000001,35.7831537,0 -88.8614518,35.7812559,0 -88.85940960000001,35.7794435,0 -88.8570679,35.7774426,0 -88.85555170000001,35.776056,0 -88.8553884,35.7759066,0 -88.8528622,35.7735962,0 -88.8527445,35.7734857,0 -88.8526057,35.7733554,0 -88.8524637,35.7732221,0 -88.8520011,35.7727878,0 -88.8498836,35.7708874,0 -88.84899710000001,35.7701151,0 -88.8483185,35.7694949,0 -88.8475232,35.7687941,0 -88.84712570000001,35.7684133,0 -88.8468124,35.7680802999999,0 -88.8465978,35.7677974,0 -88.8464838,35.7676276,0 -88.8463859,35.7674633,0 -88.8461834,35.766978,0 -88.846107,35.7667353,0 -88.8460211,35.7663436,0 -88.846001,35.7661064,0 -88.8459769,35.7656537,0 -88.8459343,35.7641103,0 -88.84589699999999,35.7626056,0 -88.84582589999999,35.7619308,0 -88.84566580000001,35.7609547,0 
			</coordinates>
		</LineString>
		<atom:link rel="app" href="https://www.google.com/earth/about/versions/#earth-pro" title="Google Earth Pro 7.3.6.10201"></atom:link>
	</Placemark>
</Document>
</kml>
