<?xml version="1.0" encoding="UTF-8"?>
<kml xmlns="http://www.opengis.net/kml/2.2" xmlns:gx="http://www.google.com/kml/ext/2.2" xmlns:kml="http://www.opengis.net/kml/2.2" xmlns:atom="http://www.w3.org/2005/Atom">
<Document>
	<name>US.491.kml</name>
	<Placemark>
		<name>US.491</name>
			<LineString>
				<coordinates>
					-108.7597496891868,35.526931002133,0 -108.7597915994036,35.5277828769128,0 -108.7597979132319,35.52882203145501,0 -108.7597564639074,35.52956177378808,0 -108.7597192516837,35.52981737561656,0 -108.7597022,35.5298839,0 -108.759659,35.5300977,0 -108.759627,35.5302501,0 -108.75954,35.5306089,0 -108.7594168,35.5310322,0 -108.7593615,35.5313053,0 -108.7591797,35.5322199,0 -108.758927,35.53354,0 -108.7587983,35.5346254,0 -108.7587592,35.5349878,0 -108.75869,35.5357582,0 -108.758672,35.5363967,0 -108.7586184,35.5379156,0 -108.7586324,35.5389651,0 -108.7586772,35.5401353,0 -108.7586777,35.5401642,0 -108.7586791,35.5408458,0 -108.758702,35.5414286,0 -108.7586903,35.5418506,0 -108.7586986,35.5423108,0 -108.7586897,35.5428527,0 -108.7587066,35.5442531,0 -108.7587113,35.5451784,0 -108.7587356,35.5461304,0 -108.7587503,35.5486934,0 -108.758801,35.5523521,0 -108.7588049,35.5524949,0 -108.7588265,35.5532787,0 -108.7588925,35.5539307,0 -108.7590341,35.5546997,0 -108.759419,35.5562097,0 -108.7595708,35.5568465,0 -108.7596692,35.5574771,0 -108.759739,35.5581044,0 -108.7597937,35.558802,0 -108.7597068,35.5619984,0 -108.7595298,35.566214,0 -108.7594748,35.5676318,0 -108.7594195,35.5688126,0 -108.7593189,35.5697071,0 -108.7591639,35.5705623,0 -108.7585395,35.5734212,0 -108.7579835,35.5757712,0 -108.7576785,35.5769305,0 -108.7575763,35.5776309,0 -108.7575664,35.5782863,0 -108.7576241,35.5788303,0 -108.7578129,35.5795066,0 -108.7580814,35.5801141,0 -108.7584767,35.5807487,0 -108.758978,35.5813069,0 -108.7595558,35.5818538,0 -108.7602937,35.5823318,0 -108.7610576,35.5828178,0 -108.7627594,35.5837985,0 -108.7643886,35.5847884,0 -108.7667827,35.5862209,0 -108.767765,35.5868159,0 -108.7686096,35.587325,0 -108.7693716,35.5878459,0 -108.7700148,35.5883371,0 -108.7706988,35.5889433,0 -108.7712634,35.58954,0 -108.7718036,35.5901737,0 -108.772222,35.5907883,0 -108.7726586,35.5914728,0 -108.7729848,35.5921489,0 -108.7733458,35.5930942,0 -108.773555,35.5938606,0 -108.7739397,35.5956901,0 -108.7739487,35.5957303,0 -108.7745373,35.5983527,0 -108.7754117,35.6022517,0 -108.7757142,35.603462,0 -108.7760499,35.6049785,0 -108.776395,35.6063799,0 -108.7764104,35.6064515,0 -108.7767522,35.6080399,0 -108.7767571,35.6080599,0 -108.7771696,35.6097547,0 -108.7776492,35.6118023,0 -108.7780611,35.6136375,0 -108.7783975,35.6151307,0 -108.7787955,35.6167155,0 -108.7790096,35.6174594,0 -108.7792204,35.6184415,0 -108.7795546,35.6199346,0 -108.7799585,35.6216512,0 -108.7801791,35.6225909,0 -108.7806089,35.6245187,0 -108.7809804,35.6260522,0 -108.7811305,35.6270777,0 -108.7811745,35.6274579,0 -108.7811898,35.6279563,0 -108.7811774,35.6283147,0 -108.7811257,35.6287747,0 -108.7810404,35.6291959,0 -108.7809375,35.629584,0 -108.7807735,35.6301876,0 -108.7804593,35.630967,0 -108.7797763,35.6323152,0 -108.7790258,35.6338524,0 -108.7777905,35.6362779,0 -108.777103,35.6376278,0 -108.7770668,35.637696,0 -108.7757319,35.6402151,0 -108.7745996,35.64251,0 -108.7735012,35.6447471,0 -108.7731014,35.6455614,0 -108.7726309,35.646512,0 -108.7724807,35.6468128,0 -108.7722822,35.6472138,0 -108.7721213,35.6475146,0 -108.7719121,35.6478502,0 -108.7717603,35.6481029,0 -108.771558,35.6484213,0 -108.7714132,35.6486523,0 -108.770918,35.6493191,0 -108.7705372,35.6498116,0 -108.7694391,35.6511414,0 -108.769246,35.6514073,0 -108.7690314,35.6517298,0 -108.7688329,35.6520524,0 -108.7686612,35.652388,0 -108.7684987,35.6527191,0 -108.7683646,35.6530547,0 -108.7682466,35.6533991,0 -108.7681661,35.6537304,0 -108.7680803,35.654127,0 -108.7680227,35.654432,0 -108.7679837,35.6547329,0 -108.7679531,35.65506,0 -108.7679462,35.6553431,0 -108.7679478,35.6556921,0 -108.7679799,35.6560364,0 -108.7680159,35.6563369,0 -108.7680695,35.6566508,0 -108.76815,35.6569777,0 -108.7682589,35.6573266,0 -108.7683914,35.6577012,0 -108.7688101,35.6587306,0 -108.7699326,35.6614193,0 -108.7706698,35.6631631,0 -108.7720714,35.6665793,0 -108.7725609,35.667779,0 -108.7726792,35.6680962,0 -108.7728026,35.6684448,0 -108.7728978,35.6687595,0 -108.7729852,35.6690369,0 -108.7730598,35.6693071,0 -108.7731389,35.6696256,0 -108.7732033,35.669922,0 -108.7732623,35.6702575,0 -108.7733106,35.6705365,0 -108.7733658,35.6709289,0 -108.7734071,35.6712991,0 -108.7734447,35.6717175,0 -108.7734661,35.6721097,0 -108.7735949,35.6752473,0 -108.7736707,35.6767323,0 -108.7738201,35.6813283,0 -108.773863,35.6824243,0 -108.7739741,35.6849906,0 -108.774031,35.6863066,0 -108.7741598,35.6899055,0 -108.7742014,35.6909882,0 -108.7742942,35.6934344,0 -108.7743191,35.6940921,0 -108.7744317,35.6970372,0 -108.7745913,35.7006705,0 -108.7746303,35.7018147,0 -108.7747159,35.7042016,0 -108.7748285,35.7067847,0 -108.7748571,35.7075838,0 -108.7748609,35.7082327,0 -108.7748555,35.7086029,0 -108.7748502,35.7089209,0 -108.774834,35.7092095,0 -108.7747981,35.7095701,0 -108.7746839,35.7102102,0 -108.7743459,35.7119308,0 -108.7739847,35.7137642,0 -108.7736863,35.7152789,0 -108.7736287,35.7156071,0 -108.7735842,35.7159422,0 -108.7735482,35.7163345,0 -108.7735321,35.7167134,0 -108.7735268,35.7174799,0 -108.7735393,35.7177671,0 -108.7736754,35.7208812,0 -108.7738754,35.725058,0 -108.7739177,35.726029,0 -108.7740847,35.7298701,0 -108.7741061,35.7303622,0 -108.7742456,35.733737,0 -108.7743582,35.7364324,0 -108.7744319,35.7378161,0 -108.7745445,35.7404009,0 -108.7745717,35.7409738,0 -108.7746034,35.7416442,0 -108.7746318,35.7419187,0 -108.7747069,35.7425936,0 -108.7747335,35.7431663,0 -108.7748194,35.7441394,0 -108.7751305,35.7492943,0 -108.7752539,35.7526553,0 -108.7751788,35.7540353,0 -108.7747389,35.7571,0 -108.7743366,35.7595726,0 -108.7738323,35.7629201,0 -108.7732852,35.7662282,0 -108.7729427,35.7684516,0 -108.7726253,35.7705591,0 -108.7720198,35.7745143,0 -108.7715373,35.777668,0 -108.7714237,35.778415,0 -108.7706244,35.7836503,0 -108.7699485,35.7879802,0 -108.7699145,35.7881913,0 -108.7692001,35.7926885,0 -108.7689722,35.7942984,0 -108.768842,35.7951354,0 -108.7687495,35.7957343,0 -108.7681387,35.7995797,0 -108.7678295,35.801508,0 -108.7676189,35.8028032,0 -108.7675071,35.8034931,0 -108.7671483,35.8060066,0 -108.7668693,35.8077969,0 -108.7666762,35.8086561,0 -108.7665635,35.8090882,0 -108.7662746,35.8101994,0 -108.7656677,35.8125518,0 -108.7651661,35.8143223,0 -108.7651493,35.8143857,0 -108.7647015,35.8160886,0 -108.7645787,35.8166148,0 -108.7641683,35.8181958,0 -108.7640664,35.8186918,0 -108.7635702,35.8204144,0 -108.7631571,35.8220325,0 -108.7630158,35.8225635,0 -108.762871,35.8231078,0 -108.7627419,35.8235928,0 -108.7624946,35.8244726,0 -108.762434,35.8247063,0 -108.7621245,35.8258992,0 -108.7615258,35.8281883,0 -108.7613619,35.8288533,0 -108.7611482,35.8297201,0 -108.7608743,35.830773,0 -108.7603945,35.832621,0 -108.7598634,35.8346368,0 -108.7592626,35.8368678,0 -108.7592425,35.8369314,0 -108.7586537,35.8387965,0 -108.7582608,35.8401271,0 -108.7581251,35.8406517,0 -108.7579295,35.8414144,0 -108.757807,35.84187,0 -108.7575513,35.8428212,0 -108.7574984,35.843027,0 -108.75749,35.8430581,0 -108.7569746,35.845065,0 -108.7568414,35.8455471,0 -108.7564328,35.8470392,0 -108.7562764,35.8476453,0 -108.7559554,35.8488894,0 -108.7557211,35.849841,0 -108.7554672,35.8508721,0 -108.7553558,35.8512685,0 -108.7552139,35.8517736,0 -108.7551159,35.8521222,0 -108.7547699,35.8533744,0 -108.7546036,35.8538896,0 -108.7544051,35.8543766,0 -108.7541905,35.8547527,0 -108.7539679,35.8551027,0 -108.7536165,35.8555614,0 -108.7532544,35.8559679,0 -108.7526616,35.8564984,0 -108.7518919,35.8570157,0 -108.7513715,35.8573136,0 -108.7508941,35.8575396,0 -108.7500331,35.8578657,0 -108.7492043,35.8580896,0 -108.7483916,35.8583135,0 -108.7478218,35.8584603,0 -108.7477819,35.8584744,0 -108.7458569,35.8589939,0 -108.7442476,35.8594265,0 -108.7423459,35.8599678,0 -108.739551,35.8608134,0 -108.7369224,35.8615286,0 -108.735715,35.861851,0 -108.7328374,35.862635,0 -108.7308767,35.8631502,0 -108.7290689,35.8636675,0 -108.7282643,35.8639262,0 -108.7275792,35.8641911,0 -108.7269741,35.8644479,0 -108.7257376,35.864987,0 -108.7245387,35.8655152,0 -108.7216392,35.8667932,0 -108.7201506,35.8674497,0 -108.7184125,35.86823,0 -108.7169132,35.8688842,0 -108.7155077,35.8695124,0 -108.7125465,35.8708143,0 -108.7099343,35.8719841,0 -108.7082014,35.8727422,0 -108.7059912,35.8737202,0 -108.7039822,35.8746135,0 -108.7030113,35.8750352,0 -108.7027243,35.8751677,0 -108.7003988,35.876187,0 -108.6978909,35.8773041,0 -108.6960241,35.8781387,0 -108.694219,35.8789341,0 -108.6923066,35.8797817,0 -108.6912417,35.8802468,0 -108.690362,35.8806097,0 -108.6892476,35.8810187,0 -108.6884308,35.8812682,0 -108.6873104,35.881555,0 -108.6848822,35.8820831,0 -108.6827767,35.8825438,0 -108.6793086,35.8833001,0 -108.6778629,35.8836196,0 -108.676782,35.8838825,0 -108.6757032,35.8842021,0 -108.6749012,35.8844731,0 -108.6740761,35.8848056,0 -108.6729915,35.8853052,0 -108.6712056,35.8861534,0 -108.6680514,35.887642,0 -108.6675766,35.8878788,0 -108.6670133,35.8881852,0 -108.6666754,35.8884069,0 -108.666485,35.8885525,0 -108.665632,35.8892761,0 -108.6643553,35.8904038,0 -108.6635238,35.891147,0 -108.6614558,35.8929744,0 -108.660737,35.8936067,0 -108.6600718,35.8942043,0 -108.658964,35.8951734,0 -108.6581835,35.8958752,0 -108.6573279,35.8966335,0 -108.6567754,35.8971506,0 -108.6563864,35.8975808,0 -108.6561021,35.8979263,0 -108.6556596,35.8985607,0 -108.655335,35.8991452,0 -108.655166,35.8995102,0 -108.6549836,35.8999687,0 -108.6548603,35.9003815,0 -108.6547535,35.900828,0 -108.6546376,35.901533,0 -108.6545867,35.9025715,0 -108.6545196,35.9041532,0 -108.6544445,35.9058782,0 -108.6544102,35.9063986,0 -108.6543533,35.9076401,0 -108.6542943,35.9091521,0 -108.6540878,35.9134839,0 -108.6539912,35.9154998,0 -108.6539215,35.9169508,0 -108.6537042,35.9215428,0 -108.6536077,35.9236932,0 -108.6534843,35.9262323,0 -108.6534387,35.9276897,0 -108.6533475,35.9306934,0 -108.6532402,35.9332192,0 -108.6532322,35.9334038,0 -108.6531597,35.9348698,0 -108.6528754,35.939667,0 -108.6528727,35.9403445,0 -108.6529076,35.9410677,0 -108.6529532,35.9420948,0 -108.6528781,35.9441773,0 -108.6527708,35.9465833,0 -108.652758,35.9468884,0 -108.6527386,35.9473845,0 -108.6526474,35.9490131,0 -108.6525562,35.9511757,0 -108.6524892,35.9524133,0 -108.6524355,35.953588,0 -108.6523363,35.9556984,0 -108.6522859,35.9569892,0 -108.6522022,35.958434,0 -108.6521673,35.9591353,0 -108.6521056,35.9605334,0 -108.6519796,35.96308,0 -108.651875,35.9656417,0 -108.6518267,35.9664667,0 -108.6517891,35.9672938,0 -108.6517435,35.9684855,0 -108.6516711,35.9698054,0 -108.6516207,35.9710222,0 -108.6515826,35.9718285,0 -108.6515563,35.972559,0 -108.6515451,35.9729334,0 -108.6515451,35.9733263,0 -108.651588,35.9743748,0 -108.6517248,35.9755708,0 -108.6518696,35.9764412,0 -108.6519688,35.9768992,0 -108.652111,35.9774896,0 -108.6523103,35.9781973,0 -108.6529532,35.9804806,0 -108.6533985,35.9820954,0 -108.6537713,35.9834498,0 -108.6541307,35.9847498,0 -108.6548737,35.9874237,0 -108.655268,35.988843,0 -108.6554852,35.989633,0 -108.6559707,35.991393,0 -108.6573049,35.9962144,0 -108.6574473,35.996729,0 -108.6587629,36.0014621,0 -108.6598867,36.0055154,0 -108.660171,36.0065439,0 -108.6605009,36.0077676,0 -108.660745,36.0086095,0 -108.6610347,36.0094817,0 -108.6612654,36.0101347,0 -108.6614397,36.0105752,0 -108.6619091,36.0117815,0 -108.6626065,36.0135346,0 -108.6637336,36.0163604,0 -108.6639881,36.0170185,0 -108.6644411,36.0181621,0 -108.6650178,36.0196157,0 -108.6654243,36.0206594,0 -108.6659271,36.0218978,0 -108.6664608,36.0232341,0 -108.6670133,36.0246073,0 -108.6675712,36.0260347,0 -108.6678958,36.0269327,0 -108.6683495,36.0279997,0 -108.6687641,36.0290548,0 -108.6690787,36.0298503,0 -108.6694059,36.0306767,0 -108.6699745,36.0320975,0 -108.6704975,36.0334206,0 -108.6710501,36.0348066,0 -108.6715584,36.0361325,0 -108.6716445,36.0363403,0 -108.6720889,36.037452,0 -108.6725763,36.0386434,0 -108.6730859,36.0399144,0 -108.6732654,36.0404413,0 -108.673515,36.0410509,0 -108.6738514,36.0419066,0 -108.6742097,36.0428098,0 -108.674494,36.0435081,0 -108.6748078,36.0442932,0 -108.6750801,36.0450075,0 -108.6754041,36.0458389,0 -108.6757606,36.0467276,0 -108.6760073,36.0473609,0 -108.67636,36.048221,0 -108.6767675,36.0492042,0 -108.6772165,36.0503893,0 -108.6778468,36.0519831,0 -108.6781874,36.0529221,0 -108.6785629,36.0540172,0 -108.6788338,36.0548932,0 -108.6791042,36.0559009,0 -108.6795435,36.0574448,0 -108.6799094,36.0587118,0 -108.6803144,36.0600995,0 -108.6807543,36.0615327,0 -108.6811284,36.0627197,0 -108.6813095,36.0632977,0 -108.6814034,36.0635557,0 -108.6818272,36.0645552,0 -108.6819802,36.06496,0 -108.6824146,36.0660382,0 -108.6836082,36.0691343,0 -108.6839275,36.0699027,0 -108.6842015,36.0705849,0 -108.6845751,36.0715451,0 -108.6849595,36.0725215,0 -108.6853617,36.0735252,0 -108.6858335,36.0746755,0 -108.6864449,36.0761288,0 -108.6870866,36.0778436,0 -108.687786,36.0796145,0 -108.6886709,36.0818299,0 -108.6890668,36.0828394,0 -108.6895131,36.0839821,0 -108.6900464,36.085337,0 -108.6906476,36.0868559,0 -108.6915223,36.0888998,0 -108.691817,36.0894987,0 -108.6921439,36.0901276,0 -108.6925067,36.0907733,0 -108.6928433,36.0913337,0 -108.6938675,36.0931165,0 -108.6949323,36.0949523,0 -108.6957652,36.0963655,0 -108.6966818,36.0979218,0 -108.697396,36.0991469,0 -108.6985976,36.1012194,0 -108.6994059,36.1026116,0 -108.7003444,36.1042156,0 -108.7008603,36.1051111,0 -108.7014372,36.1061009,0 -108.7020138,36.1071007,0 -108.7025298,36.1079896,0 -108.7037701,36.1101355,0 -108.7041236,36.1107851,0 -108.7043921,36.1114285,0 -108.7045903,36.1119857,0 -108.704696,36.1123293,0 -108.7048639,36.1130701,0 -108.7049519,36.1136832,0 -108.7050228,36.1145109,0 -108.70512,36.1159231,0 -108.7052173,36.1172889,0 -108.7053309,36.118844,0 -108.7053888,36.1195857,0 -108.7055226,36.1212409,0 -108.7054953,36.1238889,0 -108.705683,36.1270303,0 -108.7058869,36.1298467,0 -108.705988,36.1318577,0 -108.7061873,36.133863,0 -108.7064072,36.1369391,0 -108.7065521,36.1386373,0 -108.706713,36.1406561,0 -108.706794,36.1419909,0 -108.70696,36.1429868,0 -108.7072277,36.1455253,0 -108.707784,36.1482834,0 -108.7080645,36.1494755,0 -108.7107429,36.1604411,0 -108.7112296,36.1623828,0 -108.7120449,36.1657349,0 -108.7122059,36.1670341,0 -108.7122595,36.1684112,0 -108.712021,36.1725819,0 -108.711581,36.1794944,0 -108.7113352,36.1831795,0 -108.7109909,36.1887133,0 -108.7099504,36.2054849,0 -108.7097275,36.2090738,0 -108.7089527,36.2214918,0 -108.7085772,36.2275248,0 -108.7082791,36.2320887,0 -108.7076032,36.2430009,0 -108.707217,36.2489799,0 -108.7071743,36.2500795,0 -108.7066564,36.2572995,0 -108.706563,36.2591976,0 -108.7058335,36.2661529,0 -108.705262,36.2709551,0 -108.7051936,36.2716463,0 -108.7051039,36.2725539,0 -108.7050825,36.2755899,0 -108.704983,36.2825184,0 -108.7050717,36.2857696,0 -108.7051222,36.2864,0 -108.7051653,36.2867828,0 -108.7053292,36.2887704,0 -108.7058442,36.2932499,0 -108.7060139,36.2947341,0 -108.706612,36.2999491,0 -108.7071633,36.3051046,0 -108.7073857,36.3070388,0 -108.708086,36.3134477,0 -108.7083226,36.3152724,0 -108.7084835,36.3171224,0 -108.7087195,36.3188686,0 -108.7087732,36.3195515,0 -108.7089663,36.3213063,0 -108.7091272,36.3220843,0 -108.7093525,36.3232686,0 -108.7096959,36.3248072,0 -108.7101894,36.3268731,0 -108.7106507,36.3288697,0 -108.711155,36.3307713,0 -108.7115734,36.3325172,0 -108.7120998,36.3346811,0 -108.7123244,36.3355681,0 -108.7126057,36.3367588,0 -108.7128501,36.3378584,0 -108.7132149,36.3395178,0 -108.7136441,36.3413499,0 -108.7138908,36.3424734,0 -108.7140947,36.3433289,0 -108.7143522,36.3443659,0 -108.7144702,36.3449104,0 -108.7146633,36.3455585,0 -108.7148779,36.3463017,0 -108.7151032,36.3468979,0 -108.7155967,36.3481336,0 -108.7160044,36.3491015,0 -108.7169164,36.3511235,0 -108.7177103,36.3529813,0 -108.7182846,36.354313,0 -108.719384,36.3567831,0 -108.7198132,36.3577681,0 -108.7203496,36.358995,0 -108.7205534,36.3594789,0 -108.7208753,36.360291,0 -108.7211006,36.3609304,0 -108.7212508,36.3613624,0 -108.721401,36.3620363,0 -108.7215405,36.3626756,0 -108.7216156,36.3632459,0 -108.7216907,36.3638766,0 -108.7217229,36.3644122,0 -108.7217336,36.3647837,0 -108.7217229,36.3654662,0 -108.72168,36.3659414,0 -108.7216156,36.3665116,0 -108.7213152,36.3684813,0 -108.7210255,36.3704337,0 -108.7207466,36.3723083,0 -108.7204354,36.3742434,0 -108.720135,36.3762043,0 -108.7198024,36.3785106,0 -108.7195235,36.3802296,0 -108.7193625,36.381387,0 -108.7192445,36.382389,0 -108.7191694,36.38327,0 -108.7191802,36.3844533,0 -108.7192767,36.3860253,0 -108.719384,36.3881673,0 -108.7194913,36.3901969,0 -108.7196093,36.3922179,0 -108.7197273,36.3941524,0 -108.7198453,36.3963201,0 -108.720009,36.3987704,0 -108.7200385,36.3996621,0 -108.7201565,36.4016569,0 -108.7202638,36.4034185,0 -108.7202745,36.4035999,0 -108.7204032,36.4056723,0 -108.7205105,36.4077187,0 -108.7206286,36.4097392,0 -108.7207466,36.411846,0 -108.7208366,36.4134755,0 -108.7209397,36.4154378,0 -108.7211006,36.4176567,0 -108.7211435,36.4184941,0 -108.7211987,36.4198342,0 -108.7212186,36.4203158,0 -108.7213581,36.4223187,0 -108.7214439,36.4243043,0 -108.7216049,36.4262294,0 -108.7217122,36.4283616,0 -108.7218173,36.429765,0 -108.7218409,36.4300794,0 -108.7218624,36.4307959,0 -108.7218409,36.4315814,0 -108.7218195,36.4323756,0 -108.7217444,36.4339207,0 -108.7215444,36.4369116,0 -108.7215083,36.4375632,0 -108.7213903,36.4399109,0 -108.7213415,36.4404525,0 -108.7211884,36.4412586,0 -108.7211658,36.4424532,0 -108.7214837,36.447318,0 -108.7215802,36.4485176,0 -108.7216687,36.4500861,0 -108.721776,36.4521098,0 -108.7218887,36.4528196,0 -108.7222266,36.4547289,0 -108.7223956,36.4556825,0 -108.7224868,36.4564591,0 -108.7227891,36.4594123,0 -108.7229834,36.4604897,0 -108.7233139,36.462327,0 -108.7233879,36.4627978,0 -108.7235503,36.464222,0 -108.7236359,36.465478,0 -108.7237083,36.4666532,0 -108.7239052,36.469679,0 -108.7240888,36.472663,0 -108.7241534,36.4737778,0 -108.7243351,36.4767489,0 -108.7244515,36.4785793,0 -108.7246505,36.481775,0 -108.724845,36.4848488,0 -108.7250309,36.4878679,0 -108.72522,36.4908736,0 -108.7253348,36.4927092,0 -108.7254225,36.4939006,0 -108.7254213,36.4941159,0 -108.7255217,36.4957435,0 -108.7256473,36.4976199,0 -108.7257484,36.4994023,0 -108.725868,36.5012369,0 -108.726059,36.5042263,0 -108.7262419,36.5072447,0 -108.7263116,36.5082348,0 -108.7264256,36.5102371,0 -108.7265537,36.5121477,0 -108.726571,36.5131938,0 -108.7265322,36.5142342,0 -108.7264392,36.5149399,0 -108.7263227,36.5155214,0 -108.726111,36.5164223,0 -108.7253134,36.5192297,0 -108.7244856,36.5220486,0 -108.7234322,36.5256824,0 -108.7225584,36.5286822,0 -108.7217894,36.5313217,0 -108.7217315,36.5315631,0 -108.7211758,36.5334491,0 -108.7202221,36.536752,0 -108.7193334,36.5397844,0 -108.7182122,36.5436565,0 -108.7179745,36.5444894,0 -108.7171322,36.5473856,0 -108.7160681,36.5510553,0 -108.7152458,36.553898,0 -108.7142903,36.5571793,0 -108.7134344,36.5601053,0 -108.712707,36.5626418,0 -108.7121265,36.564678,0 -108.7113771,36.5672095,0 -108.7105301,36.5700629,0 -108.7104969,36.5701781,0 -108.7097047,36.5729338,0 -108.7088993,36.5759129,0 -108.7082157,36.5788017,0 -108.7075067,36.581207,0 -108.7066496,36.584174,0 -108.7060902,36.5861252,0 -108.7054248,36.588365,0 -108.7047671,36.5906184,0 -108.7043417,36.5920729,0 -108.7041359,36.5928867,0 -108.7040292,36.5933829,0 -108.7038903,36.5942486,0 -108.7038203,36.5950064,0 -108.7038056,36.5956545,0 -108.7038071,36.5964447,0 -108.7038404,36.597368,0 -108.7038943,36.5986717,0 -108.7040252,36.6016383,0 -108.7041596,36.6046188,0 -108.7042725,36.6075728,0 -108.7044229,36.6107935,0 -108.7045514,36.6137735,0 -108.7046381,36.6158222,0 -108.7046542,36.6168618,0 -108.7047633,36.6189233,0 -108.7049275,36.6224633,0 -108.7049943,36.6241719,0 -108.7051402,36.6275192,0 -108.7053145,36.6318827,0 -108.7055047,36.6357953,0 -108.7055701,36.6373743,0 -108.705678,36.6399589,0 -108.7057681,36.6417276,0 -108.7059075,36.6446839,0 -108.7060245,36.6476397,0 -108.706128,36.6499905,0 -108.7062627,36.6529722,0 -108.7063898,36.6558939,0 -108.7065505,36.6592992,0 -108.7067074,36.6639077,0 -108.7067898,36.6655663,0 -108.7068649,36.6672772,0 -108.7069212,36.6681117,0 -108.7070386,36.671023,0 -108.7071483,36.6734765,0 -108.7073039,36.6764113,0 -108.7074892,36.6816576,0 -108.7076046,36.6840792,0 -108.7077956,36.6878343,0 -108.707868,36.6901643,0 -108.7080238,36.6936705,0 -108.7081153,36.6955248,0 -108.7082328,36.6984488,0 -108.7083561,36.7013006,0 -108.7084911,36.7042953,0 -108.7084937,36.7044712,0 -108.7086278,36.7073826,0 -108.7086917,36.7091974,0 -108.7088239,36.7117222,0 -108.7089556,36.7148735,0 -108.7090422,36.7167574,0 -108.7090243,36.7174456,0 -108.7089384,36.7181577,0 -108.7088578,36.7186438,0 -108.7085326,36.7201542,0 -108.7081782,36.7218153,0 -108.7072216,36.7266507,0 -108.7063235,36.7307674,0 -108.7057704,36.7334009,0 -108.7050706,36.7366923,0 -108.7035565,36.7438737,0 -108.7031134,36.7460579,0 -108.7025094,36.7490349,0 -108.7019354,36.7517417,0 -108.7015516,36.753525,0 -108.7012241,36.7551389,0 -108.7006879,36.7575562,0 -108.7002933,36.7593948,0 -108.7000718,36.7605161,0 -108.6998425,36.7616178,0 -108.6993377,36.764071,0 -108.6991046,36.7652006,0 -108.6986234,36.7673997,0 -108.6981881,36.7695967,0 -108.6975668,36.7725083,0 -108.6974338,36.7731552,0 -108.6972643,36.77398,0 -108.6970754,36.774903,0 -108.6968485,36.7760288,0 -108.6967707,36.7764023,0 -108.6966053,36.7772017,0 -108.6965047,36.7776449,0 -108.6963362,36.7781,0 -108.696127,36.7784987,0 -108.6958687,36.7788259,0 -108.6956141,36.7790596,0 -108.6955463,36.7791218,0 -108.6951322,36.7794249,0 -108.6947843,36.7796442,0 -108.6933397,36.7803916,0 -108.690485,36.7819278,0 -108.6893636,36.7825399,0 -108.6889971,36.78274,0 -108.6884164,36.7830733,0 -108.6866674,36.783991,0 -108.6862887,36.7841995,0 -108.6857458,36.784498,0 -108.6853478,36.7846871,0 -108.6849723,36.7848522,0 -108.6849924,36.7850076,0 -108.6850063,36.7850874,0 -108.6850157,36.7851241,0 -108.6850391,36.7852207,0 -108.6850713,36.7853539,0 -108.685143,36.7856676,0 -108.6853513,36.7864687,0 -108.685424,36.7866814,0 -108.6855037,36.7868859,0 -108.6857445,36.7873499,0 -108.6859639,36.7877006,0 -108.686532,36.7886702,0 -108.6867352,36.7890127,0 -108.6870863,36.7896044,0 -108.6873787,36.7900963,0 -108.687642,36.7905314,0 -108.6880293,36.7912036,0 -108.6885095,36.7919958,0 -108.6890897,36.7929576,0 -108.6896775,36.7939345,0 -108.689978,36.7944597,0 -108.6901955,36.7949517,0 -108.6903713,36.7954797,0 -108.6904527,36.7958868,0 -108.6904692,36.7959694,0 -108.6904924,36.7963992,0 -108.6904608,36.7969884,0 -108.6903723,36.7980616,0 -108.6901713,36.8004378,0 -108.6900029,36.8022947,0 -108.6899232,36.8033023,0 -108.6898143,36.8046749,0 -108.6896879,36.8061373,0 -108.6896813,36.8062138,0 -108.689485,36.8082773,0 -108.6893741,36.8095861,0 -108.6893017,36.8104877,0 -108.6891147,36.8126981,0 -108.6890566,36.813438,0 -108.6890246,36.8138105,0 -108.689075,36.8142715,0 -108.6890852,36.8147114,0 -108.6890978,36.8151406,0 -108.6891241,36.8154004,0 -108.6891574,36.8157025,0 -108.6892957,36.8164546,0 -108.6893575,36.8167387,0 -108.6894185,36.8169943,0 -108.689495,36.8172616,0 -108.6895718,36.8174961,0 -108.6898827,36.8184423,0 -108.6902369,36.8195203,0 -108.6906761,36.8208466,0 -108.6911134,36.8221683,0 -108.6913675,36.8229676,0 -108.6915913,36.8236476,0 -108.6918224,36.8243481,0 -108.6918648,36.8245044,0 -108.6926205,36.8267894,0 -108.6928009,36.8273524,0 -108.6934656,36.8293496,0 -108.6938517,36.8305327,0 -108.6942796,36.8318584,0 -108.6950386,36.8341323,0 -108.695406,36.8352484,0 -108.6957525,36.8363032,0 -108.6964628,36.838412,0 -108.6967108,36.8391754,0 -108.697059,36.8402329,0 -108.6972289,36.8407401,0 -108.6976035,36.841878,0 -108.6980152,36.8431248,0 -108.6983654,36.8441976,0 -108.6988217,36.8455711,0 -108.7000856,36.8494099,0 -108.7011955,36.8527426,0 -108.7018615,36.8547951,0 -108.7024037,36.8564196,0 -108.7030962,36.8585071,0 -108.703561,36.8599207,0 -108.7035964,36.8600303,0 -108.7037213,36.8603991,0 -108.7042019,36.8618621,0 -108.7047654,36.8635556,0 -108.7052848,36.8651277,0 -108.706203,36.8679034,0 -108.7071,36.8706481,0 -108.7075681,36.8720374,0 -108.708502,36.8748699,0 -108.7090596,36.8765589,0 -108.7097681,36.878704,0 -108.7104257,36.8806858,0 -108.7113526,36.8834944,0 -108.7118676,36.8850493,0 -108.7125439,36.8870835,0 -108.7130368,36.8885871,0 -108.7137939,36.8908697,0 -108.7144975,36.8930128,0 -108.7151283,36.8949191,0 -108.7159373,36.8973593,0 -108.7167119,36.8996911,0 -108.7170997,36.9008671,0 -108.7171245,36.9009423,0 -108.7174968,36.9020714,0 -108.7180548,36.9037744,0 -108.7191618,36.9071263,0 -108.7200894,36.9099271,0 -108.7209191,36.9124368,0 -108.7221477,36.916127,0 -108.7236436,36.9206448,0 -108.724494,36.9232207,0 -108.7252706,36.9255863,0 -108.725318,36.9257346,0 -108.72579,36.9271254,0 -108.7264622,36.9291481,0 -108.7270487,36.9309252,0 -108.7277692,36.9331116,0 -108.7291598,36.9373178,0 -108.7306255,36.9417512,0 -108.7319528,36.9457623,0 -108.7333873,36.950074,0 -108.7334559,36.9503044,0 -108.73437,36.9528103,0 -108.7348827,36.9542076,0 -108.7349832,36.954467,0 -108.7355177,36.9559373,0 -108.7362755,36.9579869,0 -108.7371987,36.9604929,0 -108.7380127,36.9627301,0 -108.7388262,36.9649173,0 -108.7399387,36.9679438,0 -108.7404361,36.9693037,0 -108.7409405,36.9706792,0 -108.7409674,36.9707526,0 -108.742038,36.9736603,0 -108.7425918,36.975169,0 -108.7430563,36.9764071,0 -108.7440852,36.9792059,0 -108.7449596,36.9815977,0 -108.7458004,36.98389,0 -108.7464594,36.9856772,0 -108.7469293,36.986955,0 -108.7476331,36.9888716,0 -108.7482846,36.9906426,0 -108.7488749,36.9922689,0 -108.7489642,36.9925262,0 -108.7490501,36.9928095,0 -108.7491292,36.9930693,0 -108.7491932,36.9933276,0 -108.7493396,36.9939161,0 -108.7494068,36.9942577,0 -108.7494741,36.9946385,0 -108.7495188,36.9949106,0 -108.7495617,36.9952201,0 -108.7496273,36.9957444,0 -108.749668,36.9963288,0 -108.7497065,36.9971685,0 -108.7497065,36.9974483,0 -108.7496884,36.9979954,0 -108.7496598,36.9985482,0 -108.7496237,36.9989272,0 -108.7495789,36.9993202,0 -108.7494289,37.0002953,0 -108.7483023,37.0071226,0 -108.7482613,37.0073475,0 -108.7480365,37.0086947,0 -108.7462778,37.0193283,0 -108.7461171,37.0201717,0 -108.7458936,37.0211679,0 -108.7456205,37.0222077,0 -108.7453425,37.023102,0 -108.7448247,37.02454,0 -108.7445534,37.0252292,0 -108.7439634,37.0267804,0 -108.7438417,37.027105,0 -108.7416415,37.0327675,0 -108.7400187,37.0369962,0 -108.7399712,37.0371515,0 -108.739795,37.0377272,0 -108.7396196,37.0383951,0 -108.7394462,37.0392863,0 -108.7393682,37.0399811,0 -108.739311,37.0408784,0 -108.7392434,37.0421915,0 -108.7392183,37.0427726,0 -108.7391773,37.043417,0 -108.7391147,37.0440163,0 -108.7389949,37.0447924,0 -108.7388492,37.0454741,0 -108.738687,37.0461502,0 -108.7381955,37.048159,0 -108.737934,37.0492547,0 -108.7376455,37.0504079,0 -108.7358158,37.0577898,0 -108.7357005,37.0583942,0 -108.7356473,37.0588423,0 -108.7356268,37.0591794,0 -108.7356525,37.0598765,0 -108.7357159,37.0603663,0 -108.7358087,37.0608387,0 -108.7359938,37.0614371,0 -108.7362469,37.0621043,0 -108.7374018,37.0650519,0 -108.7378465,37.0661816,0 -108.7386492,37.0682431,0 -108.7389158,37.0689212,0 -108.7392379,37.0697534,0 -108.7393843,37.0701935,0 -108.7394797,37.070586,0 -108.7395605,37.0710464,0 -108.7396269,37.0716739,0 -108.7396219,37.0722662,0 -108.7395775,37.0727643,0 -108.7395127,37.0731697,0 -108.7393824,37.0736904,0 -108.7392496,37.0741024,0 -108.7390299,37.0746442,0 -108.7388062,37.0750994,0 -108.7366182,37.0792975,0 -108.7365198,37.0794865,0 -108.7361235,37.0802539,0 -108.7343562,37.0836408,0 -108.7338612,37.0846603,0 -108.7336258,37.0852509,0 -108.7334573,37.0857541,0 -108.7331837,37.0866953,0 -108.7330151,37.087478,0 -108.7329236,37.0880328,0 -108.7329058,37.0881095,0 -108.7327503,37.0892844,0 -108.7326168,37.0906383,0 -108.7326028,37.0908659,0 -108.732598,37.090994,0 -108.7324757,37.0920422,0 -108.7323412,37.0934321,0 -108.7322194,37.0944659,0 -108.7319541,37.0957022,0 -108.7316113,37.096807,0 -108.7313859,37.0974069,0 -108.731199,37.097845,0 -108.7249369,37.1115181,0 -108.7231053,37.1155178,0 -108.7226172,37.1167545,0 -108.7224595,37.1172753,0 -108.7223845,37.117581,0 -108.7222133,37.1182787,0 -108.7199329,37.1284559,0 -108.7197487,37.1293045,0 -108.7193457,37.131156,0 -108.7191784,37.1317266,0 -108.7189324,37.1324272,0 -108.7186378,37.1331784,0 -108.7164074,37.1388137,0 -108.7160556,37.1397052,0 -108.7158665,37.1401043,0 -108.7156616,37.1404728,0 -108.7154505,37.1408268,0 -108.7150853,37.1413405,0 -108.7148231,37.1416541,0 -108.7144357,37.1420792,0 -108.7134126,37.1430488,0 -108.7072396,37.1488036,0 -108.7066508,37.1493841,0 -108.7062072,37.1498931,0 -108.7058929,37.1503389,0 -108.7056088,37.1508054,0 -108.7053781,37.1512528,0 -108.7051811,37.15173,0 -108.7048193,37.1527064,0 -108.7016078,37.1609255,0 -108.7014382,37.1613669,0 -108.6940141,37.1804984,0 -108.6927734,37.183714,0 -108.6918564,37.1860479,0 -108.6912238,37.1876832,0 -108.6904468,37.1896689,0 -108.6900152,37.1907828,0 -108.6891924,37.1928938,0 -108.6888619,37.193759,0 -108.6879943,37.1959977,0 -108.687679,37.1968113,0 -108.6873538,37.1976505,0 -108.6871115,37.1982862,0 -108.6871115,37.1982862,0 -108.6867349,37.1990764,0 -108.6865257,37.1996084,0 -108.6864424,37.1998401,0 -108.6861891,37.2005132,0 -108.6859678,37.2010751,0 -108.6857331,37.2017053,0 -108.6856171,37.2020215,0 -108.6855584,37.2021657,0 -108.6854052,37.2025428,0 -108.6851976,37.2030881,0 -108.6850163,37.2035358,0 -108.6849186,37.2038063,0 -108.6848613,37.2039865,0 -108.6845647,37.204793,0 -108.6838726,37.2066027,0 -108.6837582,37.2069073,0 -108.6831229,37.2085991,0 -108.6828088,37.2093369,0 -108.6824382,37.210217,0 -108.6822285,37.2106704,0 -108.68206,37.2110239,0 -108.6817056,37.2116672,0 -108.6813759,37.2121997,0 -108.6812029,37.2124526,0 -108.6807333,37.2131409,0 -108.6802866,37.2137236,0 -108.6797093,37.2143892,0 -108.6789472,37.2152181,0 -108.677876,37.2163849,0 -108.6775809,37.2167058,0 -108.6761747,37.2182348,0 -108.6702993,37.2247521,0 -108.6671803,37.2283013,0 -108.6670558,37.2284401,0 -108.6650794,37.2306631,0 -108.6641741,37.2316678,0 -108.6636909,37.2322416,0 -108.6576644,37.239077,0 -108.6575068,37.2392557,0 -108.6564951,37.2404089,0 -108.6527618,37.2446623,0 -108.6512007,37.2463998,0 -108.647814,37.2502399,0 -108.64759,37.2504896,0 -108.6460318,37.25225,0 -108.6450723,37.2533468,0 -108.6446668,37.253828,0 -108.6442005,37.2544591,0 -108.6437315,37.2551927,0 -108.6425551,37.257206,0 -108.6421734,37.2578581,0 -108.6409333,37.2599383,0 -108.6402661,37.2610646,0 -108.6389174,37.2633194,0 -108.6382189,37.26449,0 -108.6357592,37.2686124,0 -108.6350879,37.2697233,0 -108.633201,37.2728495,0 -108.6326903,37.2737107,0 -108.6320727,37.2747606,0 -108.6312988,37.2760517,0 -108.6270708,37.2831001,0 -108.6269543,37.2832986,0 -108.6253558,37.2859663,0 -108.6241937,37.2878969,0 -108.6241813,37.2879176,0 -108.6230329,37.2898336,0 -108.6214768,37.2924298,0 -108.6197979,37.2952223,0 -108.6183937,37.297558,0 -108.6182447,37.2978081,0 -108.6161447,37.301332,0 -108.6160122,37.3015459,0 -108.6155444,37.3023122,0 -108.6138837,37.3051156,0 -108.6127981,37.3069011,0 -108.6120534,37.3081668,0 -108.6112986,37.309464,0 -108.6111836,37.3095389,0 -108.6108389,37.3100711,0 -108.6105378,37.3105976,0 -108.6098937,37.3117313,0 -108.6097246,37.3120781,0 -108.6096111,37.3124023,0 -108.609445,37.31311,0 -108.6094021,37.3135666,0 -108.6093961,37.3145229,0 -108.6094035,37.3149642,0 -108.6094118,37.3154665,0 -108.609409,37.3161647,0 -108.6094154,37.3165287,0 -108.6094472,37.3165984,0 -108.6093971,37.3176916,0 -108.6094031,37.3184625,0 -108.6094006,37.3192387,0 -108.6093788,37.3197001,0 -108.609356,37.319995,0 -108.6093116,37.3203113,0 -108.6092653,37.3205472,0 -108.6092028,37.3208688,0 -108.6091027,37.3213025,0 -108.6089392,37.3219385,0 -108.6086723,37.3229631,0 -108.6084494,37.3238187,0 -108.6076339,37.3269303,0 -108.6074281,37.3277637,0 -108.607176,37.3286189,0 -108.6070809,37.3288824,0 -108.6070004,37.3290777,0 -108.6068559,37.3294049,0 -108.6067049,37.3296989,0 -108.6065265,37.3300183,0 -108.6063097,37.3303654,0 -108.6055346,37.3314481,0 -108.605156,37.3319886,0 -108.604624,37.3327257,0 -108.6040968,37.3335068,0 -108.6020919,37.3362889,0 -108.6018682,37.3366596,0 -108.6009919,37.3379604,0 -108.6000518,37.3392772,0 -108.5986098,37.3413285,0 -108.5985683,37.3413847,0 -108.598347,37.3416841,0 -108.5983131,37.3417335,0 -108.5981992,37.3418993,0 -108.5977794,37.3424761,0 -108.5972418,37.3432551,0 -108.5969165,37.343697,0 -108.5966736,37.3440342,0 -108.5960024,37.3448956,0 -108.5954286,37.345607,0 -108.5952236,37.3458889,0 -108.5951591,37.3459852,0 -108.5948787,37.3464024,0 -108.5944971,37.3470275,0 -108.5940631,37.3476277,0 -108.5936394,37.3482095,0 -108.5930697,37.3490081,0 -108.5926149,37.3496455,0 -108.5922469,37.3501595,0 -108.5910434,37.3518406,0 -108.5906121,37.3524472,0 -108.5902812,37.3529229,0 -108.5899755,37.3533762,0 -108.5895822,37.3539747,0 -108.5894214,37.3543308,0 -108.5893118,37.3546751,0 -108.5892488,37.3550013,0 -108.5892264,37.3552374,0 -108.5892057,37.3554856,0 -108.5892178,37.3557463,0 -108.5892563,37.3559909,0 -108.5893696,37.3564235,0 -108.589453,37.3566429,0 -108.5896474,37.3570386,0 -108.5896786,37.3570883,0 -108.5899297,37.3574882,0 -108.590104,37.3577066,0 -108.5902597,37.3578655,0 -108.5906102,37.3581718,0 -108.5910039,37.3584691,0 -108.591046,37.3585824,0 -108.5911959,37.3586804,0 -108.5915937,37.3589405,0 -108.5917657,37.3590525,0 -108.5921301,37.3592904,0 -108.5929189,37.3598342,0 -108.5932047,37.3600479,0 -108.5934143,37.3602022,0 -108.5938232,37.360508,0 -108.5941225,37.3607441,0 -108.594572,37.36111,0 -108.5952572,37.3617866,0 -108.595852,37.3624729,0 -108.5963571,37.3630478,0 -108.5967899,37.3635802,0 -108.5972819,37.3641445,0 -108.5979796,37.3649684,0 -108.5984583,37.3655345,0 -108.5989061,37.3660428,0 -108.5993212,37.3664747,0 -108.5996506,37.3668214,0 -108.600031,37.3671928,0 -108.600408,37.3675261,0 -108.6011517,37.3681996,0 -108.602193,37.3691279,0 -108.6034903,37.3703058,0 -108.6040402,37.3708044,0 -108.6044501,37.371169,0 -108.6047913,37.3714944,0 -108.6051018,37.3718189,0 -108.605389,37.3721696,0 -108.6056382,37.372526,0 -108.6058816,37.37291,0 -108.606083,37.3733258,0 -108.6062823,37.3737855,0 -108.6064598,37.3742122,0 -108.6074386,37.3767719,0 -108.6080672,37.3784157,0 -108.608577,37.379703,0 -108.6090724,37.3809638,0 -108.6096023,37.3822787,0 -108.6110362,37.3858827,0 -108.6114083,37.3868134,0 -108.6116371,37.3872558,0 -108.6118364,37.3875922,0 -108.6120816,37.3879684,0 -108.6123271,37.3883035,0 -108.6125652,37.3885884,0 -108.6138604,37.3900023,0 -108.6148662,37.3910808,0 -108.6153854,37.3916456,0 -108.6161701,37.3924976,0 -108.6173414,37.3937581,0 -108.6198345,37.3964712,0 -108.6235064,37.4004541,0 -108.623813,37.400767,0 -108.6256849,37.4028244,0 -108.627216,37.4044567,0 -108.6274812,37.4047565,0 -108.6281837,37.4055644,0 -108.62877,37.4063685,0 -108.6291739,37.406931,0 -108.6295452,37.4075684,0 -108.6323927,37.4132943,0 -108.6373554,37.4232965,0 -108.639088,37.426788,0 -108.639546,37.427726,0 -108.6407641,37.4301973,0 -108.6414025,37.4314924,0 -108.6414759,37.4316412,0 -108.642742,37.4342096,0 -108.6432833,37.4353077,0 -108.6448284,37.438458,0 -108.6452415,37.4392506,0 -108.6459472,37.4406395,0 -108.6462539,37.4413166,0 -108.6463675,37.441606,0 -108.6467038,37.4424973,0 -108.6471531,37.443658,0 -108.6491755,37.4488827,0 -108.649579,37.4498961,0 -108.6525741,37.4577147,0 -108.6535728,37.4603117,0 -108.6546501,37.4631132,0 -108.6556473,37.4658082,0 -108.6574203,37.4703222,0 -108.6576514,37.4709325,0 -108.6579259,37.4716574,0 -108.658159,37.4723002,0 -108.658485,37.4731622,0 -108.6615635,37.4811383,0 -108.6617704,37.4816938,0 -108.6622366,37.4829453,0 -108.6624999,37.4836049,0 -108.6626708,37.4840766,0 -108.6630469,37.4851439,0 -108.6634628,37.4862003,0 -108.6639385,37.4874666,0 -108.6643612,37.4885108,0 -108.6647203,37.4894807,0 -108.6648827,37.4898874,0 -108.6653277,37.4911159,0 -108.6657649,37.492198,0 -108.6661544,37.4932044,0 -108.666524,37.494187,0 -108.6668905,37.4951381,0 -108.66712,37.4956603,0 -108.6673918,37.4961468,0 -108.6677068,37.4966185,0 -108.6679958,37.4969943,0 -108.6684578,37.4975294,0 -108.6688681,37.4979169,0 -108.6693383,37.4983129,0 -108.6700933,37.4988832,0 -108.6705816,37.499231,0 -108.6710506,37.4995706,0 -108.6716998,37.5000164,0 -108.6722855,37.500416,0 -108.6730529,37.5009359,0 -108.6738945,37.5015006,0 -108.6754805,37.5026002,0 -108.6769548,37.5036242,0 -108.6785328,37.5047285,0 -108.6800672,37.5057773,0 -108.6815809,37.5068194,0 -108.683146,37.5079031,0 -108.6867005,37.5103596,0 -108.6937214,37.5151977,0 -108.6964704,37.5171018,0 -108.7013894,37.5204906,0 -108.7148896,37.5297906,0 -108.7195147,37.5330167,0 -108.7358851,37.544292,0 -108.7365378,37.5447515,0 -108.7370126,37.5451155,0 -108.7373208,37.5453742,0 -108.7376004,37.5456324,0 -108.7377504,37.5457875,0 -108.73799,37.5460291,0 -108.7381725,37.5462387,0 -108.7384272,37.5465582,0 -108.738751,37.5470036,0 -108.7395907,37.5483136,0 -108.7400579,37.549031,0 -108.7403795,37.5495327,0 -108.7411462,37.5507316,0 -108.7420043,37.5520577,0 -108.742835,37.5533867,0 -108.7436495,37.5546755,0 -108.7445243,37.556042,0 -108.7453754,37.5573897,0 -108.7458199,37.558088,0 -108.7464061,37.5590171,0 -108.7469207,37.559818,0 -108.7472729,37.5603725,0 -108.7480022,37.5615212,0 -108.7485331,37.5623516,0 -108.7493114,37.5635686,0 -108.7498308,37.5643937,0 -108.7503381,37.5651792,0 -108.7509558,37.5661615,0 -108.7516305,37.5672014,0 -108.7520912,37.5679542,0 -108.7526785,37.5688547,0 -108.7534232,37.5700476,0 -108.7541629,37.5712145,0 -108.7550233,37.5725717,0 -108.7558904,37.5739594,0 -108.7567621,37.5753413,0 -108.7573566,37.5762705,0 -108.7579731,37.577249,0 -108.7587808,37.578513,0 -108.7595895,37.579752,0 -108.7603389,37.5809215,0 -108.7610404,37.5820236,0 -108.7618751,37.5833551,0 -108.7627624,37.584747,0 -108.7634855,37.5858961,0 -108.7643383,37.5872246,0 -108.7650625,37.5883465,0 -108.7656892,37.5893594,0 -108.7660148,37.589865,0 -108.7662832,37.5902945,0 -108.7678041,37.5926633,0 -108.7686699,37.5940478,0 -108.7692459,37.5949252,0 -108.7704288,37.5968088,0 -108.7715611,37.5985873,0 -108.7719603,37.5992245,0 -108.7737672,37.6020798,0 -108.7738954,37.6022826,0 -108.774004,37.6024541,0 -108.7753862,37.6046066,0 -108.7761701,37.6058551,0 -108.7771079,37.6073565,0 -108.778143,37.6088907,0 -108.7788387,37.6100645,0 -108.7797716,37.6115226,0 -108.7821346,37.6152567,0 -108.7834725,37.6173663,0 -108.785528,37.6206044,0 -108.7864669,37.6220905,0 -108.7876216,37.6239125,0 -108.7882794,37.6249109,0 -108.7888153,37.6256291,0 -108.7897565,37.6267421,0 -108.7929855,37.6304095,0 -108.7931362,37.6305822,0 -108.7942713,37.6319098,0 -108.7955193,37.6333048,0 -108.7987712,37.6370325,0 -108.8000496,37.6384762,0 -108.8028272,37.641662,0 -108.804256,37.6432886,0 -108.8069467,37.6463171,0 -108.8074327,37.6469487,0 -108.807776,37.6474336,0 -108.8080092,37.6478465,0 -108.8081757,37.6482297,0 -108.8083028,37.6486101,0 -108.8083926,37.6490021,0 -108.8084417,37.6494615,0 -108.8084592,37.6498637,0 -108.8084063,37.6529499,0 -108.8084053,37.653009,0 -108.8084024,37.6536018,0 -108.8083881,37.6564892,0 -108.8083733,37.6585852,0 -108.8083512,37.6602794,0 -108.8083366,37.6608202,0 -108.8083304,37.6621552,0 -108.8083012,37.6655553,0 -108.8082875,37.6669466,0 -108.8082701,37.668025,0 -108.8082585,37.6693454,0 -108.8082748,37.6697573,0 -108.8082917,37.67011,0 -108.8083381,37.6704695,0 -108.8084106,37.6708704,0 -108.8085091,37.6712352,0 -108.8086461,37.6716054,0 -108.8088268,37.6719911,0 -108.8091017,37.6724347,0 -108.8093137,37.6727298,0 -108.8096676,37.6731282,0 -108.8099333,37.6733843,0 -108.8102194,37.6736256,0 -108.8105447,37.6738724,0 -108.8108988,37.6741018,0 -108.8111842,37.6742658,0 -108.8115386,37.6744394,0 -108.8118495,37.6745751,0 -108.8123834,37.6747682,0 -108.8130093,37.6749568,0 -108.8135126,37.675091,0 -108.8140302,37.6752126,0 -108.814511,37.675318,0 -108.8156547,37.6755866,0 -108.8161409,37.6757197,0 -108.8166163,37.6758899,0 -108.8170574,37.6760669,0 -108.8174011,37.6762305,0 -108.8177731,37.6764303,0 -108.8181666,37.676661,0 -108.8185022,37.6768839,0 -108.8188833,37.6771752,0 -108.8192139,37.6774629,0 -108.8195914,37.6778119,0 -108.8198898,37.678138,0 -108.8201624,37.6784914,0 -108.8205484,37.679048,0 -108.8210032,37.6797549,0 -108.8214054,37.6803714,0 -108.8222088,37.6816518,0 -108.8229919,37.6829893,0 -108.8236971,37.6843163,0 -108.8243926,37.6856336,0 -108.8249467,37.6866617,0 -108.8251196,37.6869968,0 -108.8252832,37.6872725,0 -108.8254656,37.6875405,0 -108.8256869,37.6878291,0 -108.8259292,37.6881132,0 -108.8262268,37.6884019,0 -108.826565,37.6886888,0 -108.8270434,37.689024,0 -108.8282394,37.6897308,0 -108.829746,37.6906286,0 -108.8302459,37.6909703,0 -108.8306971,37.6913187,0 -108.8309927,37.6915751,0 -108.8313316,37.6918959,0 -108.8316419,37.6922193,0 -108.8319627,37.6926148,0 -108.8322273,37.69298,0 -108.8325254,37.6934414,0 -108.8336843,37.6953385,0 -108.834446,37.6965734,0 -108.8348227,37.6971977,0 -108.835747,37.6987692,0 -108.8359409,37.699078,0 -108.8364655,37.6999249,0 -108.8371752,37.7011297,0 -108.8379628,37.7024086,0 -108.8387705,37.7037457,0 -108.8392784,37.7045868,0 -108.8399794,37.7057505,0 -108.840741,37.7069621,0 -108.841534,37.7083218,0 -108.8419897,37.7090832,0 -108.8423839,37.7096632,0 -108.8426329,37.7099697,0 -108.8429384,37.7103167,0 -108.8432977,37.7106743,0 -108.8437731,37.711082,0 -108.8444464,37.7115973,0 -108.8452791,37.7121775,0 -108.8472553,37.7135762,0 -108.8502808,37.715715,0 -108.8509138,37.7162242,0 -108.851479,37.716692,0 -108.85196,37.717066,0 -108.8531239,37.7180659,0 -108.8538213,37.7187958,0 -108.854508,37.7195681,0 -108.8562031,37.7216048,0 -108.8573395,37.7229155,0 -108.859378,37.7253047,0 -108.8613851,37.7276893,0 -108.8632412,37.7298871,0 -108.8698609,37.7377188,0 -108.8714953,37.739608,0 -108.8748284,37.7435984,0 -108.8775964,37.7468986,0 -108.8797297,37.7493574,0 -108.8811462,37.7510698,0 -108.8818716,37.7519313,0 -108.8828408,37.7530372,0 -108.8850166,37.7554923,0 -108.8860098,37.7564813,0 -108.8864736,37.7568927,0 -108.8869977,37.7572829,0 -108.8875644,37.7576279,0 -108.8882658,37.7579867,0 -108.8890812,37.758346,0 -108.8902211,37.758723,0 -108.8932746,37.7596997,0 -108.8938219,37.759872,0 -108.8951262,37.7602627,0 -108.8998001,37.7617497,0 -108.9022415,37.7625558,0 -108.9029219,37.7627701,0 -108.9040821,37.7631352,0 -108.9046594,37.7633206,0 -108.9052032,37.7634953,0 -108.9072082,37.7641306,0 -108.9073931,37.7641904,0 -108.9085996,37.7645803,0 -108.9095576,37.7648899,0 -108.9100466,37.7650474,0 -108.9113806,37.7654635,0 -108.912725,37.7658814,0 -108.913267,37.7660499,0 -108.9142685,37.7663609,0 -108.9165703,37.7670762,0 -108.9182471,37.767646,0 -108.921977,37.768868,0 -108.9377329,37.7738631,0 -108.9405346,37.7747513,0 -108.944355,37.775943,0 -108.947879,37.77708,0 -108.9589275,37.7805834,0 -108.9634567,37.7820432,0 -108.9642013,37.7823726,0 -108.9648804,37.7827211,0 -108.9656455,37.7832033,0 -108.9665038,37.7838894,0 -108.975237,37.7920462,0 -108.9762605,37.7927902,0 -108.9770425,37.7932233,0 -108.977181,37.7933,0 -108.9880878,37.7981976,0 -108.989787,37.798949,0 -108.995342,37.8014815,0 -109.000664,37.803861,0 -109.0042971,37.8054586,0 -109.0053593,37.8058532,0 -109.0067733,37.8063037,0 -109.0135688,37.8081864,0 -109.0136344,37.8082046,0 -109.0151327,37.8086272,0 -109.02251,37.810753,0 -109.023647,37.811103,0 -109.0351119,37.8143782,0 -109.0400399,37.8158943,0 -109.0405823,37.8160566,0 -109.040892,37.8161493,0 -109.0419707,37.8164723,0 -109.0420621,37.8164986,0 -109.0621012,37.8222623,0 -109.0631606,37.8225672,0 -109.0648409,37.82305,0 -109.0814077,37.8278078,0 -109.0995525,37.8330192,0 -109.1152162,37.8375035,0 -109.1168373,37.8379675,0 -109.1176984,37.8382139,0 -109.1192519,37.8386638,0 -109.1203165,37.838972,0 -109.1248419,37.8402819,0 -109.1343107,37.8430054,0 -109.1360789,37.8435137,0 -109.1377474,37.8439275,0 -109.1385255,37.8441203,0 -109.1638478,37.8499432,0 -109.1726141,37.8519612,0 -109.1845653,37.8547148,0 -109.1909563,37.8561886,0 -109.1920924,37.8564482,0 -109.1922807,37.8564913,0 -109.1984292,37.8579143,0 -109.2002355,37.8583275,0 -109.2027316,37.8588971,0 -109.2070052,37.8598795,0 -109.2092682,37.8604042,0 -109.2160839,37.8619655,0 -109.2272944,37.8645333,0 -109.2330671,37.8658616,0 -109.2456143,37.8687485,0 -109.2557724,37.8710594,0 -109.2582928,37.871645,0 -109.2608612,37.8722417,0 -109.2623623,37.8725361,0 -109.2638709,37.8727427,0 -109.2647016,37.8728082,0 -109.2656132,37.8728513,0 -109.2685277,37.8728623,0 -109.2759723,37.8728466,0 -109.2778186,37.8728482,0 -109.2801396,37.8728503,0 -109.2812518,37.8728533,0 -109.2833952,37.8728574,0 -109.2924022,37.8728365,0 -109.3004536,37.8728151,0 -109.3055461,37.8728016,0 -109.3089898,37.8727924,0 -109.3101189,37.8727963,0 -109.3110551,37.8727996,0 -109.3137628,37.872809,0 -109.3151388,37.8728138,0 -109.3189293,37.8728053,0 -109.3213762,37.8728013,0 -109.3234982,37.8727978,0 -109.324323,37.8727955,0 -109.3245765,37.8727948,0 -109.326626,37.872789,0 -109.3296315,37.8727806,0 -109.3339244,37.8727796,0 -109.3346314,37.8727794,0 -109.3354227,37.8727694,0 -109.3357568,37.8727652,0 -109.3365178,37.8727279,0 -109.3366902,37.8727159,0 -109.3374342,37.8726645,0 -109.338011,37.8726294,0 -109.3380839,37.872625,0 -109.3382176,37.8726169,0 -109.3383339,37.8726147,0 -109.3384942,37.8726118,0 -109.3392119,37.8725985,0 -109.3404017,37.8726034,0 -109.3410704,37.8726061,0 -109.3413232,37.8726072,0 -109.3415915,37.8726083,0 -109.3422805,37.8726111,0 -109.3426703,37.8726157,0 -109.342898,37.8726136,0 
				</coordinates>
			</LineString>
		<atom:link rel="app" href="https://www.google.com/earth/about/versions/#earth-pro" title="Google Earth Pro 7.3.6.10201"></atom:link>
	</Placemark>
</Document>
</kml>
