<?xml version="1.0" encoding="UTF-8"?>
<kml xmlns="http://www.opengis.net/kml/2.2" xmlns:gx="http://www.google.com/kml/ext/2.2" xmlns:kml="http://www.opengis.net/kml/2.2" xmlns:atom="http://www.w3.org/2005/Atom">
<Document>
	<name>US.422.E.kml</name>
	<Placemark>
		<name>US.422.E</name>
			<LineString>
				<coordinates>
					-76.6901929,40.2637645,0 -76.6879113,40.2653883,0 -76.6874681,40.2656977,0 -76.6872771,40.2658386,0 -76.68668839999999,40.2662445,0 -76.6864161,40.2664322,0 -76.6841642,40.2680042,0 -76.6836546,40.2683562,0 -76.6833736,40.2685436,0 -76.6826961,40.269032,0 -76.6821463,40.2694133,0 -76.6816235,40.2697587,0 -76.68100990000001,40.2701245,0 -76.6804447,40.2704389,0 -76.6797256,40.2708031,0 -76.6791645,40.2710686,0 -76.67853820000001,40.2713498,0 -76.67789740000001,40.2716134,0 -76.67717159999999,40.2718767,0 -76.676571,40.272093,0 -76.6757325,40.2723799,0 -76.6755457,40.2724438,0 -76.67543310000001,40.2724888,0 -76.67525089999999,40.2725534,0 -76.6709585,40.274075,0 -76.67029359999999,40.2743083,0 -76.6695812,40.2745682,0 -76.66921379999999,40.2747147,0 -76.6687355,40.2749194,0 -76.66840240000001,40.2750673,0 -76.6678217,40.2753716,0 -76.6674165,40.2755967,0 -76.6667889,40.2760019,0 -76.6663854,40.2762984,0 -76.6661628,40.2764714,0 -76.6658935,40.276695,0 -76.6656086,40.2769596,0 -76.6653834,40.2771847,0 -76.664884,40.2777147,0 -76.66480319999999,40.2778005,0 -76.6647665,40.2778395,0 -76.6643632,40.2782773000001,0 -76.6642942,40.2783548,0 -76.6632848,40.2794883,0 -76.6630893,40.2797167,0 -76.66287819999999,40.2799635,0 -76.66232359999999,40.2805922,0 -76.6620894,40.2808022,0 -76.66190570000001,40.2809621,0 -76.661683,40.2811299,0 -76.6615087,40.2812363,0 -76.6613066,40.2813543,0 -76.66095420000001,40.2815145,0 -76.6604292,40.2817147,0 -76.66019590000001,40.2818279,0 -76.66001121188664,40.28189750461952,0 -76.65581255525565,40.2834628477082,0 -76.6521083133532,40.28490877837024,0 
				
					-76.6520098,40.2849389,0 -76.6516778,40.2850271,0 -76.6515551,40.2850737,0 -76.651445,40.2851155,0 -76.65110490000001,40.2852351,0 -76.6507409,40.2853673,0 -76.6507021,40.2853814,0 -76.6505688,40.2854298,0 -76.6504259,40.2854771000001,0 -76.6501026,40.2855841,0 -76.64989629999999,40.2856743,0 -76.6497482,40.2857343,0 -76.64872800000001,40.2861193999999,0 -76.64861929999999,40.2861592,0 -76.6477261,40.2864841,0 -76.645675,40.2873098,0 -76.6455879,40.2873425,0 -76.64552519999999,40.2873669,0 -76.64468840000001,40.2876928,0 -76.6440264,40.2879506000001,0 -76.6434699,40.2881673,0 -76.6433188,40.2882262,0 -76.6426324,40.2884935,0 -76.64195549999999,40.2887454,0 -76.64173769999999,40.2888237,0 -76.6415755,40.2888856,0 -76.6409917,40.2891085,0 -76.6408251,40.2891781,0 -76.63990459999999,40.2895386,0 -76.6395316,40.2896805999999,0 -76.63911760000001,40.2898382,0 -76.6379561,40.2902803,0 -76.6364827,40.2908427,0 -76.6343507,40.2916564,0 -76.6339669,40.2918029,0 -76.6333937,40.2920214,0 -76.6323611,40.292406,0 -76.6317348,40.2926437,0 -76.63120600000001,40.2928444,0 -76.6309055,40.2929571,0 -76.6301026,40.2932632,0 -76.6293919,40.2935333,0 -76.6259622,40.2948179,0 -76.62533019999999,40.2950546,0 -76.6249182,40.2952089,0 -76.6247564,40.2952664,0 -76.62469,40.29529,0 -76.6241162,40.2955106999999,0 -76.6234551,40.2957649,0 -76.62281539999999,40.2960109,0 -76.6219771,40.2963212,0 -76.62070420000001,40.2967922,0 -76.61918060000001,40.2973866,0 -76.618596,40.2976146,0 -76.61702150000001,40.2982569,0 -76.6155919,40.2988297,0 -76.61508739999999,40.2990395,0 -76.6144484,40.2992931,0 -76.6131549,40.299801,0 -76.6130208,40.2998589,0 -76.6125918,40.3000210999999,0 -76.6124753,40.3000632,0 -76.61207779999999,40.3002068,0 -76.6117684,40.3003185,0 -76.6114276,40.3004416,0 -76.61113640000001,40.3005468,0 -76.6110228,40.3005878,0 -76.60993240000001,40.3009837,0 -76.6096996,40.3010875,0 -76.60859670000001,40.301579,0 -76.608417,40.3016588,0 -76.608321,40.3017006,0 -76.60801619999999,40.3018331,0 -76.60789920000001,40.301884,0 -76.6077999,40.3019272,0 -76.6077253,40.3019597,0 -76.6076862,40.3019782,0 -76.6074113,40.3021085,0 -76.607336,40.3021442,0 -76.6065413,40.3024903,0 -76.6063037,40.3025938,0 -76.6061629,40.3026551,0 -76.6061181,40.3026746,0 -76.6058738,40.3027809,0 -76.6058158,40.3028062,0 -76.60561490000001,40.3028937,0 -76.6050147,40.303155,0 -76.60484510000001,40.3032288,0 -76.6040873,40.3035587000001,0 -76.6036537,40.3037475,0 -76.6036247,40.3037608,0 -76.60301440000001,40.304017,0 -76.6022172,40.3043518,0 -76.6014761,40.3046953,0 -76.6011365,40.3048553999999,0 -76.6007511,40.3050449,0 -76.6005686,40.3051313,0 -76.5999616,40.3054359,0 -76.59980779999999,40.305518,0 -76.5996763,40.3055888,0 -76.5993622,40.3057579,0 -76.5990491,40.3059265,0 -76.5989019,40.3060058,0 -76.59832160000001,40.3063183,0 -76.5977455,40.3065999,0 -76.59721159999999,40.3068591,0 -76.5965238,40.3071864,0 -76.5962206,40.3073296,0 -76.59574120000001,40.3075560999999,0 -76.59509799999999,40.3078769,0 -76.5945004,40.308175,0 -76.59430860000001,40.3082642,0 -76.59384489999999,40.3084798,0 -76.5932691,40.3087852,0 -76.592673,40.3090773,0 -76.5920947,40.3093595000001,0 -76.5915696,40.3096138,0 -76.5909994,40.3098887,0 -76.59040899999999,40.3101559,0 -76.58989680000001,40.3103922,0 -76.58981439999999,40.3104302,0 -76.5892552,40.3107083,0 -76.5886253,40.3109997,0 -76.5874505,40.3115724,0 -76.5870319,40.3117811,0 -76.58647860000001,40.3120387,0 -76.586287,40.3121279,0 -76.58570210000001,40.3124002,0 -76.5849779,40.3127437,0 -76.58488180000001,40.3127894,0 -76.5848089,40.3128239,0 -76.5841715,40.3131263,0 -76.583823,40.313296,0 -76.58243400000001,40.3139618,0 -76.5817758,40.3142814,0 -76.58142650000001,40.314444,0 -76.58078690000001,40.3147476,0 -76.58048960000001,40.3148877,0 -76.5798394,40.3151964,0 -76.57917260000001,40.3155164,0 -76.5788214,40.3156805,0 -76.5786313,40.3157704,0 -76.5780599,40.3160437,0 -76.57800109999999,40.3160719,0 -76.5773871,40.3163622,0 -76.5772036,40.3164528,0 -76.57670520000001,40.3166839,0 -76.57642250000001,40.3167978,0 -76.5760872,40.3169167,0 -76.5758301,40.3170004,0 -76.57551359999999,40.3170906,0 -76.5752141,40.317174,0 -76.5737677,40.3175603,0 -76.57252939999999,40.3178976,0 -76.5718535,40.3180873,0 -76.5715781,40.3181637000001,0 -76.57138089999999,40.3182175,0 -76.5694953,40.3187225,0 -76.5687994,40.3188833,0 -76.5657302,40.319366,0 -76.5643977,40.3195741,0 -76.5634786,40.3197098,0 -76.5621429,40.319907,0 -76.5575585,40.3206596,0 -76.5570148,40.3207672,0 -76.55629879999999,40.3209292,0 -76.5551832,40.3211883,0 -76.55497560000001,40.3212329,0 -76.55364489999999,40.3215255,0 -76.55311570000001,40.3216343,0 -76.5522211,40.3218151,0 -76.5512239,40.3220167,0 -76.5404636,40.3241877,0 -76.5392628,40.3244504,0 -76.5389586,40.324517,0 -76.53705410000001,40.3249336,0 -76.5365066,40.3250619,0 -76.5360318,40.3251688,0 -76.5359433,40.3251887,0 -76.5349148,40.3254142,0 -76.5343438,40.3255393,0 -76.5292043,40.326666,0 -76.5290413,40.3267017,0 -76.5270142,40.3271461,0 -76.5266515,40.3272186,0 -76.5265646,40.327236,0 -76.5260244,40.3273656,0 -76.5257613,40.3274272,0 -76.5254975,40.3274879,0 -76.52539280000001,40.3275141,0 -76.5243875,40.3277551,0 -76.5242964,40.3277755,0 -76.52349100000001,40.3279105,0 -76.5227017,40.3280445,0 -76.5219237,40.3281823000001,0 -76.5211281,40.3283135,0 -76.5203516,40.3284549,0 -76.5195611,40.328592,0 -76.51877020000001,40.328729,0 -76.5180146,40.3288601,0 -76.5179424,40.3288725,0 -76.5172283,40.3289999,0 -76.5171319,40.329016,0 -76.5163415,40.3291473,0 -76.5160752,40.3291915,0 -76.51574119999999,40.329247,0 -76.5155202,40.3292837,0 -76.51525119999999,40.3293376,0 -76.5147128,40.3294454,0 -76.5139447,40.3295867,0 -76.5131679,40.3297296,0 -76.5128418,40.3297896,0 -76.5123315,40.3298834,0 -76.5112736,40.3300781,0 -76.5104934,40.3302214,0 -76.5097306,40.3303619,0 -76.5091254,40.3304732,0 -76.5082493,40.3306344,0 -76.5076128,40.3307516,0 -76.50746530000001,40.3307786,0 -76.5073269,40.3308041,0 -76.5069781,40.3308682,0 -76.5057616,40.3311004,0 -76.50499910000001,40.3312459,0 -76.5035046,40.3316037,0 -76.5029244,40.3317426,0 -76.50211299999999,40.3319498999999,0 -76.50132000000001,40.3321484,0 -76.5005147,40.3323421,0 -76.4997398,40.3325371,0 -76.49913309999999,40.3326819,0 -76.4988311,40.332754,0 -76.4986531,40.3327964,0 -76.4982146,40.3329011,0 -76.49805619999999,40.3329389,0 -76.4978472,40.332993,0 -76.4973471,40.3331226,0 -76.49646540000001,40.333351,0 -76.4964208,40.3333625,0 -76.4956478,40.3335625,0 -76.4949007,40.3337364,0 -76.49434909999999,40.3338642,0 -76.4937255,40.3340091,0 -76.4935048,40.3340604,0 -76.4931472,40.3341435,0 -76.49261,40.3342683000001,0 -76.4919878,40.3344127999999,0 -76.49182860000001,40.3344498,0 -76.49132969999999,40.3345479999999,0 -76.4909143,40.3346331,0 -76.4906125,40.3346949,0 -76.49013770000001,40.3347922,0 -76.4896734,40.334876,0 -76.4893223,40.3349394,0 -76.4892364,40.3349563,0 -76.4878119,40.3352372,0 -76.48777370000001,40.3352447,0 -76.48744550000001,40.3352992,0 -76.4867503,40.3354148,0 -76.48671760000001,40.3354202,0 -76.4863793,40.335472,0 -76.4859324,40.3355472,0 -76.4850874,40.3356893,0 -76.484886,40.3357202,0 -76.48414870000001,40.3358425,0 -76.4840011,40.3358669,0 -76.48338409999999,40.3359626,0 -76.4831142,40.3360044,0 -76.4821056,40.3361616,0 -76.4810023,40.3363094,0 -76.4808197,40.3363338000001,0 -76.4805904,40.3363705,0 -76.47899889999999,40.3366253000001,0 -76.4772846,40.3369145,0 -76.4764316,40.3370658,0 -76.47554649999999,40.3372171,0 -76.47382450000001,40.3375096,0 -76.4729602,40.3376527,0 -76.4720885,40.3377998,0 -76.4712267,40.33794,0 -76.4703705,40.3380792,0 -76.4694854,40.3382232,0 -76.4686346,40.3383724,0 -76.46776269999999,40.3385051,0 -76.4671582,40.3386271,0 -76.46622410000001,40.3387829,0 -76.46531090000001,40.3389403,0 -76.4643507,40.3391123,0 -76.4632672,40.3392934,0 -76.4621708,40.3394682,0 -76.4619891,40.3394943,0 -76.46160829999999,40.339551,0 -76.4612913,40.3395908,0 -76.46112359999999,40.3396062,0 -76.4610708,40.3396111,0 -76.46066500000001,40.339641,0 -76.46061039999999,40.3396447,0 -76.46013120000001,40.3396775,0 -76.4598012,40.3396962,0 -76.4591763,40.3397152,0 -76.4587713,40.3397243,0 -76.4582635,40.339727,0 -76.45816499999999,40.3397288,0 -76.45721829999999,40.3397136,0 -76.45656630000001,40.3396824,0 -76.4559783,40.339638,0 -76.4548168,40.3395132,0 -76.4544068,40.3394702000001,0 -76.4539702,40.3394289,0 -76.4535061,40.3393894,0 -76.45339679999999,40.3393801,0 -76.4530123,40.3393369,0 -76.45259950000001,40.3392906000001,0 -76.452136,40.3392386,0 -76.4521091,40.3392356,0 -76.4518339,40.3392047,0 -76.45082309999999,40.3390992,0 -76.4505703,40.3390724,0 -76.4501358,40.3390202,0 -76.44969279999999,40.3389742,0 -76.4496395,40.3389687,0 -76.4493951,40.3389433,0 -76.44901350000001,40.3389048,0 -76.4488937,40.3388927,0 -76.44881410000001,40.338884,0 -76.44862209999999,40.3388631,0 -76.44858139999999,40.3388586,0 -76.448217,40.3388185,0 -76.4480698,40.3388023,0 -76.4475922,40.3387497,0 -76.4470926,40.3386947,0 -76.44679429999999,40.3386618,0 -76.4464164,40.3386202,0 -76.446275,40.3386046,0 -76.4455373,40.3385266,0 -76.4448136,40.3384581999999,0 -76.4437811,40.3383605,0 -76.4431635,40.3383111,0 -76.44308340000001,40.3383046,0 -76.4425746,40.3382843,0 -76.44249309999999,40.3382829,0 -76.4422342,40.3382784,0 -76.4414713,40.3382651,0 -76.4412571,40.3382614,0 -76.4407695,40.3382519,0 -76.44024949999999,40.338246,0 -76.4401671,40.3382433,0 -76.4394621,40.3382469,0 -76.4380792,40.3382456,0 -76.43762479999999,40.3382621,0 -76.4369669,40.3383166,0 -76.43460519999999,40.3385121,0 -76.43451,40.3385174,0 -76.4338631,40.3385654,0 -76.4324936,40.3386789,0 -76.4321745,40.3387067,0 -76.4317088,40.3387432,0 -76.4310054,40.3387923999999,0 -76.4309351,40.3383006,0 -76.4308939,40.3379856,0 -76.43082389999999,40.3374605,0 -76.4307735,40.3370983,0 -76.4307336,40.3368265,0 -76.4307101,40.3366432,0 -76.43063669999999,40.3361153,0 -76.4304886,40.3361708000001,0 -76.4300798,40.3362017,0 -76.42980970000001,40.336222,0 -76.4295497,40.3362423,0 -76.4285478,40.3363071,0 -76.42809149999999,40.3363472,0 -76.4275951,40.3363763,0 -76.4267536,40.3364543,0 -76.42591539999999,40.3365279,0 -76.4250515,40.3365858,0 -76.42417930000001,40.3366609,0 -76.4240157,40.3366710000001,0 -76.42375079999999,40.3366872,0 -76.4233399,40.3367125,0 -76.42267,40.3367574,0 -76.4216188,40.3368422,0 -76.4207949,40.3368917,0 -76.41994029999999,40.3369663,0 -76.41911,40.3370149,0 -76.4183512,40.3370714,0 -76.4180434,40.3370943,0 -76.4174809,40.3371362,0 -76.4162974,40.3372307,0 -76.41584020000001,40.3372676,0 -76.415381,40.3373128,0 -76.4150162,40.3373385,0 -76.41419620000001,40.3374086,0 -76.4123822,40.337551,0 -76.41186279999999,40.3375898,0 -76.41177159999999,40.3375952000001,0 -76.4117171,40.3375985,0 -76.409813,40.3378325,0 -76.40885129999999,40.3379441,0 -76.40819329999999,40.3380204,0 -76.406572,40.3382244,0 -76.40522009999999,40.3383741,0 -76.4042707,40.3384884,0 -76.40422,40.3384974,0 -76.40364959999999,40.3385649,0 -76.40294590000001,40.3386328,0 -76.4022277,40.3387021,0 -76.401526,40.338781,0 -76.4008218,40.3388602,0 -76.40079110000001,40.3388643,0 -76.40040380000001,40.3388964,0 -76.3999793,40.3389316,0 -76.3994872,40.3389778,0 -76.39918470000001,40.3390103,0 -76.3987018,40.3390622,0 -76.39797350000001,40.3391404,0 -76.3976473,40.3391798,0 -76.39747250000001,40.3392182999999,0 -76.3972814,40.3392932,0 -76.397116,40.3394005999999,0 -76.39701909999999,40.3394903,0 -76.39694179999999,40.3395744,0 -76.3968686,40.3396768,0 -76.396817,40.3398253,0 -76.39678910000001,40.3400458,0 -76.3968824,40.3406003,0 -76.3969524,40.3409498,0 -76.397001,40.3412446,0 -76.39708880000001,40.3418271,0 -76.3971528,40.3423449,0 -76.397166,40.3424937,0 -76.39714499999999,40.3426315,0 -76.3971128,40.3427214,0 -76.39702699999999,40.3428359,0 -76.39701599999999,40.342846,0 -76.3969197,40.3429341,0 -76.3968449,40.34299,0 -76.39668639999999,40.3430685,0 -76.39624209999999,40.3432887,0 -76.3962257,40.3432968,0 -76.396027,40.3433952,0 -76.3956491,40.3435825,0 -76.3938923,40.3444934999999,0 -76.3931486,40.3448659,0 -76.3923927,40.3452443,0 -76.3901697,40.3464434999999,0 -76.3891684,40.3469549,0 -76.3868154,40.3481257,0 -76.3867836,40.3481415,0 -76.3866252,40.3482127999999,0 -76.3862865,40.3483651,0 -76.38567860000001,40.3486371,0 -76.385583,40.3486758,0 -76.3851332,40.348858,0 -76.3848765,40.348962,0 -76.384032,40.3492998,0 -76.38399680000001,40.3493155,0 -76.3839241,40.3493479,0 -76.38254740000001,40.3499147,0 -76.3816997,40.35028,0 -76.3801157,40.3508867,0 -76.3799855,40.3509366,0 -76.3797587,40.3510521,0 -76.3790723,40.3514015,0 -76.3789994,40.3514386,0 -76.3781858,40.3518527,0 -76.3777642,40.3520636,0 -76.3769794,40.3524561,0 -76.3769387,40.3524794,0 -76.37662880000001,40.3526564999999,0 -76.376143,40.352934,0 -76.3757956,40.3531129,0 -76.3750714,40.3534809,0 -76.3746823,40.3536649,0 -76.37416899999999,40.3539403,0 -76.37393520000001,40.3540413,0 -76.37292840000001,40.3545052,0 -76.3726498,40.3546336,0 -76.37189890000001,40.3549625,0 -76.3717571,40.3550246,0 -76.3713077,40.3552215,0 -76.368675,40.356409,0 -76.3681321,40.3566298,0 -76.36804789999999,40.3566641,0 -76.36595749999999,40.3575292,0 -76.36469630000001,40.3580316,0 -76.3642921,40.3581857,0 -76.36368280000001,40.3584617,0 -76.3635676,40.3585094,0 -76.36190550000001,40.3591971,0 -76.3605305,40.359766,0 -76.3599447,40.3600084,0 -76.35911710000001,40.3603373,0 -76.3587698,40.360484,0 -76.3575034,40.3610039,0 -76.3574263,40.3610356,0 -76.3573554,40.3610647,0 -76.3565347,40.3614096,0 -76.35384809999999,40.3625386000001,0 -76.3533571,40.362745,0 -76.35284849999999,40.3629587,0 -76.35103530000001,40.3636158,0 -76.3498115,40.3640168,0 -76.34874499999999,40.3643324,0 -76.3483368,40.3644516,0 -76.3476857,40.3646417,0 -76.3443741,40.3656085,0 -76.3435796,40.3658405,0 -76.3433594,40.3659048,0 -76.3423835,40.3661897,0 -76.34195630000001,40.3663144,0 -76.3413687,40.3664859,0 -76.3411212,40.3665582,0 -76.3407211,40.366685,0 -76.3397231,40.3670013,0 -76.3389947,40.3672321000001,0 -76.33891180000001,40.3672571,0 -76.3385555,40.3673643000001,0 -76.33801149999999,40.3675279,0 -76.3374951,40.3676934,0 -76.3369842,40.3678671,0 -76.3364679,40.3680572,0 -76.33596489999999,40.3682544,0 -76.3355928,40.3684092,0 -76.3352999,40.3685373,0 -76.3347468,40.3687793,0 -76.3343737,40.3689653,0 -76.33416939999999,40.3690672,0 -76.3340012,40.3691500999999,0 -76.33329070000001,40.3695001,0 -76.3313259,40.3704516,0 -76.3308272,40.3706862,0 -76.33032559999999,40.3709089,0 -76.3298187,40.3711296,0 -76.3293104,40.3713452,0 -76.3287981,40.3715537,0 -76.3282858,40.371759,0 -76.3277648,40.3719542,0 -76.3272357,40.3721478,0 -76.32668719999999,40.3723419,0 -76.3251697,40.3728556,0 -76.32487980000001,40.3729534,0 -76.3247379,40.3730013,0 -76.32437419999999,40.3731241,0 -76.3239299,40.3732727,0 -76.31920030000001,40.3748683,0 -76.3189345,40.374958,0 -76.31837969999999,40.3751453,0 -76.31728579999999,40.375515,0 -76.31690690000001,40.375643,0 -76.31534600000001,40.3761699,0 -76.31499959999999,40.3762868,0 -76.31466,40.3764015,0 -76.3141255,40.3765819,0 -76.3133338,40.3768491,0 -76.3128068,40.377027,0 -76.3127607,40.3770425,0 -76.31249,40.3771338999999,0 -76.31218610000001,40.3772371,0 -76.312129,40.3772565,0 -76.31200459999999,40.3772988,0 -76.3117343,40.3773906,0 -76.31148349999999,40.3774419,0 -76.3107428,40.3776848,0 -76.3101838,40.3778593,0 -76.310034,40.3779061,0 -76.30983019999999,40.3779698,0 -76.3092623,40.3781545,0 -76.3084042,40.3784337000001,0 -76.30826949999999,40.3784773,0 -76.30774359999999,40.3786474,0 -76.30744730000001,40.3787433,0 -76.3072493,40.3788036000001,0 -76.30717490000001,40.3788262,0 -76.3068196,40.37893,0 -76.3065651,40.3790016,0 -76.3064001,40.379048,0 -76.30610470000001,40.3791311,0 -76.3060361,40.3791504,0 -76.3059494,40.3791748,0 -76.3056819,40.3792441,0 -76.3055559,40.379277,0 -76.30525230000001,40.3793562,0 -76.3048758,40.3794499999999,0 -76.3045163,40.3795395,0 -76.304293,40.3795952,0 -76.3039682,40.3796761,0 -76.30332439999999,40.3798186,0 -76.3020337,40.380098,0 -76.3019607,40.3801129,0 -76.3014452,40.3802296,0 -76.301186,40.3802867,0 -76.3008525,40.3803569,0 -76.3004342,40.3804947,0 -76.29816080000001,40.3809564,0 -76.2977636,40.3810321,0 -76.2965153,40.381288,0 -76.29643350000001,40.3813048,0 -76.2961378,40.3813646,0 -76.2959534,40.3814018,0 -76.29534889999999,40.381524,0 -76.2951241,40.3815694,0 -76.29494800000001,40.381605,0 -76.29228550000001,40.382143,0 -76.2915658,40.3822884,0 -76.2905238,40.3825023,0 -76.2883679,40.3829449,0 -76.2878043,40.383059,0 -76.28584840000001,40.3834606,0 -76.2834916,40.3839269,0 -76.2830548,40.3839984,0 -76.282635,40.3840628,0 -76.28215350000001,40.3841274000001,0 -76.28171039999999,40.3841783,0 -76.2813912,40.3842086,0 -76.2813086,40.3842165,0 -76.281266,40.3842205,0 -76.2808246,40.3842543,0 -76.28041589999999,40.3842818,0 -76.2800495,40.3843022,0 -76.2798926,40.3843089,0 -76.2796549,40.384319,0 -76.2794207,40.3843237,0 -76.2792718,40.3843267,0 -76.2788072,40.3843262999999,0 -76.27676080000001,40.3843245,0 -76.2692785,40.3843158,0 -76.26842619999999,40.3843147999999,0 -76.26792570000001,40.3842724,0 -76.2675484,40.3842678,0 -76.2668401,40.3842635,0 -76.26588630000001,40.3842609,0 -76.265102,40.3842587,0 -76.26444480000001,40.3843099,0 -76.26160369999999,40.3843051,0 -76.2612682,40.3843045,0 -76.25846300000001,40.3843,0 -76.256906,40.384296,0 -76.25685799999999,40.384296,0 -76.252162,40.384284,0 -76.2519456,40.3842813,0 -76.251347,40.3842802,0 -76.2507051,40.3842527,0 -76.250259,40.384222,0 -76.24969400000001,40.384182,0 -76.249481,40.384167,0 -76.248582,40.384076,0 -76.2480645,40.3840316,0 -76.2480178,40.384027,0 -76.24775820000001,40.3840011,0 -76.245828,40.3838092,0 -76.245715,40.383798,0 -76.2444529,40.3836766,0 -76.243303,40.383566,0 -76.24305200000001,40.383542,0 -76.241989,40.383407,0 -76.241736,40.383369,0 -76.239683,40.382987,0 -76.234319,40.3819689,0 -76.23321300000001,40.381759,0 -76.23209439999999,40.3815303,0 -76.23169540000001,40.3814487,0 -76.231281,40.381364,0 -76.23115900000001,40.381339,0 -76.22926080000001,40.3809439,0 -76.2274223,40.3805865,0 -76.2272789,40.3805595,0 -76.2268163,40.3804668,0 -76.22512709999999,40.3801331,0 -76.22386400000001,40.3798836,0 -76.2232743,40.3797661,0 -76.22314,40.379739,0 -76.2225219,40.3796185,0 -76.2221716,40.3795502,0 -76.221959,40.3795088,0 -76.22114759999999,40.3793506,0 -76.2207768,40.3792854,0 -76.21974899999999,40.379078,0 -76.218058,40.378773,0 -76.2155291,40.3783651,0 -76.214518,40.378202,0 -76.2135378,40.378033,0 -76.21283,40.377911,0 -76.211904,40.377733,0 -76.21122,40.377588,0 -76.21058600000001,40.37744,0 -76.21015199999999,40.3773309999999,0 -76.20972,40.377217,0 -76.208944,40.376989,0 -76.208399,40.376828,0 -76.207112,40.37638,0 -76.206084,40.376027,0 -76.205501,40.3758131,0 -76.20512770000001,40.3756762,0 -76.20457399999999,40.375473,0 -76.20439,40.375408,0 -76.203884,40.375229,0 -76.20297549999999,40.3749131,0 -76.197811,40.373117,0 -76.19629999999999,40.372579,0 -76.19481399999999,40.372035,0 -76.194523,40.371933,0 -76.193945,40.371722,0 -76.1934461,40.3715433,0 -76.19298379999999,40.3713906,0 -76.1928738,40.3713543,0 -76.1924882,40.371227,0 -76.1905941,40.3705698,0 -76.19040769999999,40.3704641,0 -76.1903105,40.3704329,0 -76.18992609999999,40.3702872,0 -76.18949569999999,40.370135,0 -76.18892769999999,40.3699339,0 -76.1887505,40.3698712,0 -76.1880852,40.3696325,0 -76.1871987,40.3693314,0 -76.18670609999999,40.3691641,0 -76.18645650000001,40.3690793,0 -76.1857272,40.3688227,0 -76.18436250000001,40.3683474,0 -76.1840634,40.3682268000001,0 -76.1836007,40.3680358,0 -76.18323460000001,40.3678677,0 -76.1827243,40.3675973,0 -76.1823,40.3673518,0 -76.1818011,40.3670361,0 -76.1814914,40.3668059,0 -76.18115899999999,40.366554,0 -76.1808106,40.3662684,0 -76.18052,40.3660209,0 -76.18030280000001,40.3658082,0 -76.17975920000001,40.3652708,0 -76.1791206,40.3645647,0 -76.1785907,40.3639525,0 -76.1783022,40.3636715,0 -76.1778067,40.3632043,0 -76.177393,40.3628655,0 -76.1769906,40.3625489,0 -76.1766492,40.3623122,0 -76.1763028,40.3620923,0 -76.17505730000001,40.3613293,0 -76.1743981,40.3609923,0 -76.1739426,40.360799,0 -76.17370289999999,40.3607071,0 -76.1734977,40.3606317,0 -76.1731664,40.3605174,0 -76.1727879,40.3603966,0 -76.17238140000001,40.3602902,0 -76.1719464,40.3601872000001,0 -76.17145499999999,40.3600767,0 -76.1713286,40.3600751,0 -76.1710513,40.3600125,0 -76.1703716,40.3598605,0 -76.16835469999999,40.3594046,0 -76.166974,40.3590974,0 -76.1665141,40.3589918,0 -76.1659612,40.3588652,0 -76.1653673,40.3587328,0 -76.1643718,40.358535,0 -76.1639899,40.3584483,0 -76.1634028,40.3583178,0 -76.16291870000001,40.3582115,0 -76.1628161,40.3581865,0 -76.1617191,40.357939,0 -76.1591756,40.3573677,0 -76.1582762,40.3571617,0 -76.158074,40.3571196,0 -76.157269,40.3569381,0 -76.15602560000001,40.3566954,0 -76.15509059999999,40.3565622,0 -76.1537222,40.3564037,0 -76.1530996,40.3563328,0 -76.1511617,40.3561208,0 -76.1489249,40.3558740999999,0 -76.14850199999999,40.3558147,0 -76.1480973,40.3557429,0 -76.1477908,40.3556804,0 -76.1475193,40.3556193,0 -76.1462939,40.3552757,0 -76.14537129999999,40.3550153,0 -76.1431204,40.3543724,0 -76.1401228,40.3535162,0 -76.13830470000001,40.353015,0 -76.13658239999999,40.3524572,0 -76.1360444,40.3522832,0 -76.134748,40.3518746,0 -76.13355129999999,40.3514754,0 -76.1330682,40.3513141,0 -76.1325442,40.3511428,0 -76.13142310000001,40.3507453,0 -76.1303875,40.3503754,0 -76.130182,40.350302,0 -76.1293129,40.3499985,0 -76.12918139999999,40.3499533,0 -76.1284038,40.3496875999999,0 -76.1275344,40.3493933,0 -76.1273157,40.3493193,0 -76.12699720000001,40.3492082,0 -76.1257884,40.3487868,0 -76.125754,40.3487737,0 -76.1248157,40.3484261,0 -76.124031,40.348119,0 -76.123682,40.347981,0 -76.123053,40.347712,0 -76.12260999999999,40.347506,0 -76.122117,40.347255,0 -76.12166999999999,40.347014,0 -76.12144000000001,40.346884,0 -76.1213908,40.3468548,0 -76.120991,40.346618,0 -76.12093,40.3465779,0 -76.120728,40.346445,0 -76.1205126,40.3463076,0 -76.120383,40.346225,0 -76.1197578,40.3458062,0 -76.11932299999999,40.3454890000001,0 -76.118652,40.345005,0 -76.11767500000001,40.3443,0 -76.117068,40.34388,0 -76.1169498,40.3438018,0 -76.1169479,40.3438001,0 -76.1164825,40.3434657,0 -76.115942,40.3430757,0 -76.1153453,40.3426453000001,0 -76.114907,40.342329,0 -76.11480299999999,40.342253,0 -76.114688,40.342171,0 -76.1141564,40.3417869,0 -76.11401530000001,40.3416849,0 -76.11396000000001,40.341645,0 -76.1138492,40.3415688000001,0 -76.11344750000001,40.3412928,0 -76.112921,40.340931,0 -76.11093099999999,40.339673,0 -76.1088073,40.3385131,0 -76.1078456,40.3380137,0 -76.1069639,40.3375894,0 -76.10626480000001,40.337274,0 -76.10477,40.336664,0 -76.1034447,40.3361595,0 -76.102299,40.3357631,0 -76.101343,40.3354552000001,0 -76.1007553,40.335266,0 -76.09869380000001,40.3346802,0 -76.0967002,40.3341137,0 -76.0956643,40.3338187,0 -76.0931109,40.3330874,0 -76.09213509999999,40.332788,0 -76.0911918,40.3324983,0 -76.0909904,40.3324364,0 -76.0908733,40.3324004,0 -76.0898425,40.3320819,0 -76.087881,40.331464,0 -76.085909,40.330937,0 -76.08546320000001,40.3308195,0 -76.084095,40.330459,0 -76.083934,40.330416,0 -76.083724,40.330364,0 -76.082544,40.330102,0 -76.081817,40.329941,0 -76.08169100000001,40.329908,0 -76.08149899999999,40.329879,0 -76.0797073,40.3295821,0 -76.0784488,40.3293939,0 -76.07746040000001,40.3292374,0 -76.0771628,40.3291861,0 -76.07567,40.328978,0 -76.0746345,40.3288144,0 -76.07390719999999,40.3286948,0 -76.073774,40.328673,0 -76.073402,40.328613,0 -76.0732854,40.3285944,0 -76.072811,40.328519,0 -76.072114,40.328396,0 -76.071496,40.3282749999999,0 -76.07078509999999,40.3281239,0 -76.06979800000001,40.3279151,0 -76.06961099999999,40.327878,0 -76.069343,40.327825,0 -76.0690601,40.3277643,0 -76.0680086,40.327532,0 -76.0675183,40.3274261,0 -76.06736979999999,40.3273936,0 -76.0667499,40.3272607,0 -76.0658428,40.3270829,0 -76.0656171,40.3270386,0 -76.0652659,40.3269703,0 -76.06389110000001,40.326703,0 -76.06349489999999,40.3266386,0 -76.06283019999999,40.3265447,0 -76.06179109999999,40.3264314,0 -76.0613347,40.3263939,0 -76.060462,40.326329,0 -76.06017,40.326317,0 -76.05968,40.326307,0 -76.05934499999999,40.326305,0 -76.05925999999999,40.3263069,0 -76.05870899999999,40.326319,0 -76.05828700000001,40.326335,0 -76.057703,40.326365,0 -76.056974,40.32642,0 -76.055909,40.326521,0 -76.0553139,40.3265773,0 -76.0548,40.326626,0 -76.05374,40.326714,0 -76.05327080000001,40.3267435,0 -76.0531167,40.3267532,0 -76.05296,40.326763,0 -76.05241100000001,40.3267924,0 -76.05201340000001,40.3268126,0 -76.0519006,40.3268173,0 -76.0515401,40.3268321,0 -76.050608,40.326858,0 -76.04916299999999,40.3268549,0 -76.0489324,40.3268543999999,0 -76.04884490000001,40.3268542,0 -76.04878309999999,40.3268535,0 -76.0486798,40.3268538,0 -76.0485777,40.3268532,0 -76.048526,40.3268526,0 -76.04823089999999,40.3268489,0 -76.0477001,40.3268395,0 -76.04710900000001,40.3268289999999,0 -76.045948,40.3268,0 -76.0457629,40.3267962,0 -76.0456501,40.3267939,0 -76.04548370000001,40.3267905,0 -76.0445409,40.3267711,0 -76.04395599999999,40.326759,0 -76.04362949999999,40.3267524,0 -76.0431598,40.326743,0 -76.042514,40.32673,0 -76.04138500000001,40.3267077,0 -76.04101679999999,40.3267004999999,0 -76.04034249999999,40.3266872,0 -76.03969429999999,40.3266745,0 -76.03963880000001,40.3266734,0 -76.03954589999999,40.3266716,0 -76.0394656,40.32667,0 -76.039366,40.326668,0 -76.03831889999999,40.326625,0 -76.038076,40.326615,0 -76.03762330000001,40.3265937,0 -76.0373093,40.326579,0 -76.0369601,40.326556,0 -76.0363593,40.3265182,0 -76.036046,40.3264947999999,0 -76.035928,40.326486,0 -76.0358318,40.3264798,0 -76.0354858,40.3264573,0 -76.0349478,40.3264224,0 -76.03480709999999,40.326414,0 -76.03464200000001,40.326402,0 -76.03378290000001,40.3263452,0 -76.0332512,40.32631,0 -76.03205699999999,40.326231,0 -76.031918,40.326217,0 -76.0314346,40.3261503,0 -76.0308452,40.326069,0 -76.0307588,40.3260573,0 -76.0304065,40.3260095,0 -76.03003339999999,40.3259589,0 -76.0297575,40.3259204,0 -76.02936,40.325865,0 -76.0292963,40.3258561,0 -76.0284587,40.3257395,0 -76.027902,40.325662,0 -76.0278181,40.3256509,0 -76.02742670000001,40.3255993,0 -76.0273019,40.3255827,0 -76.0270179,40.3255467,0 -76.0264868,40.3254558,0 -76.0263918,40.3254403,0 -76.02631529999999,40.3254254,0 -76.0256383,40.3253052,0 -76.0254877,40.3252782,0 -76.0251768,40.3252224,0 -76.0244211,40.3250891,0 -76.02432450000001,40.3250752,0 -76.02408370000001,40.3250441,0 -76.0238947,40.3250322,0 -76.0237202,40.3250357,0 -76.0235665,40.3250443,0 -76.0234335,40.3250634,0 -76.02290309999999,40.3251406,0 -76.02230830000001,40.3252305,0 -76.0219002,40.3252922000001,0 -76.0218383,40.325301,0 -76.02153869999999,40.3253487,0 -76.02109799999999,40.3254153,0 -76.0208722,40.3254308,0 -76.02056930000001,40.3254493,0 -76.0204916,40.3254508,0 -76.0204391,40.3254518,0 -76.02028869999999,40.3254548,0 -76.0200643,40.3254593,0 -76.0198855,40.3254655,0 -76.0198554,40.3254665,0 -76.01958759999999,40.3254785,0 -76.0192828,40.3254911,0 -76.0190829,40.3254962,0 -76.01892049999999,40.3255016,0 -76.0187936,40.3255069,0 -76.0186751,40.3255119,0 -76.01840989999999,40.3255179,0 -76.018351,40.3255177,0 -76.01816820000001,40.3255172,0 -76.0176893,40.3255098,0 -76.0176141,40.3255076,0 -76.01705370000001,40.3254941,0 -76.0170049,40.325493,0 -76.0169447,40.3254916,0 -76.0167417,40.325487,0 -76.01665,40.3254849,0 -76.01647629999999,40.3254808,0 -76.0163945,40.3254789,0 -76.01615099999999,40.3254734,0 -76.0158232,40.3254613,0 -76.0155802,40.3254524,0 -76.01521030000001,40.3254459,0 -76.01504180000001,40.3254428,0 -76.01458030000001,40.3254313,0 -76.0139848,40.3254231,0 -76.01275649999999,40.3254571,0 -76.0120407,40.3254818,0 -76.0118561,40.3254887,0 -76.0116993,40.3254946,0 -76.0099405,40.3255588,0 -76.0096319,40.3255714,0 -76.0094794,40.3255777,0 -76.009293,40.3255854,0 -76.0091805,40.32559,0 -76.0087836,40.3256063,0 -76.0084667,40.3256193,0 -76.0077934,40.3256469,0 -76.00764909999999,40.3256528,0 -76.0074394,40.3256615,0 -76.00705120000001,40.3256775,0 -76.0067497,40.3256903,0 -76.0065364,40.3256992,0 -76.00633689999999,40.3257075,0 -76.006047,40.3257195,0 -76.00497970000001,40.3257639999999,0 -76.00433769999999,40.3258057,0 -76.00397340000001,40.3258297,0 -76.0038725,40.3258360000001,0 -76.0038089,40.3258418,0 -76.0033363,40.325885,0 -76.003075,40.3259089,0 -76.0030142,40.3259145,0 -76.00216450000001,40.3260192,0 -76.00194190000001,40.3260481,0 -76.0016162,40.3260903,0 -76.0013062,40.3261305,0 -76.00089920000001,40.3261869,0 -76.00058009999999,40.3262311,0 -76.0004565,40.3262482,0 -76.0004058,40.3262548,0 -76.0000864,40.3262967,0 -75.9996067,40.3263595,0 -75.9988005,40.3264658,0 -75.9987453,40.3264730999999,0 -75.9984652,40.32651,0 -75.99722060000001,40.326667,0 -75.9960877,40.3268241000001,0 -75.99551460000001,40.3269013,0 -75.9946917,40.3270122,0 -75.99418420000001,40.3270806,0 -75.9940964,40.3270924,0 -75.99402360000001,40.3271015,0 -75.9921753,40.3272533,0 -75.99175320000001,40.3272887,0 -75.99137570000001,40.3273199,0 -75.9911915,40.3273351,0 -75.9911616,40.3273376,0 -75.9909803,40.3273525,0 -75.98969870000001,40.3274584,0 -75.9895997,40.3274676,0 -75.9895303,40.3274848,0 -75.98943559999999,40.3275117,0 -75.98787230000001,40.3276196,0 -75.9877156,40.3276304,0 -75.9874456,40.3276491,0 -75.9873091,40.3276585,0 -75.9867711,40.3276956,0 -75.9863617,40.327752,0 -75.9860114,40.3278059,0 -75.98558,40.3278722,0 -75.9847967,40.3280016,0 -75.9834877,40.3282178,0 -75.9833799,40.328231,0 -75.9827244,40.3283179,0 -75.9821864,40.3283893,0 -75.9817346,40.3284492,0 -75.98065250000001,40.3285937,0 -75.98041069999999,40.3286291,0 -75.9801525,40.3286977,0 -75.97954319999999,40.3289203,0 -75.9792903,40.3290065,0 -75.9789282,40.329159,0 -75.9785159,40.3293585,0 -75.97741480000001,40.3299287,0 -75.97682,40.3302367,0 -75.9766675,40.3303119,0 -75.9763038,40.330481,0 -75.97556059999999,40.3307821,0 -75.97443629999999,40.3311781999999,0 -75.97360999999999,40.3314384000001,0 -75.9724736,40.3317963,0 -75.9712454,40.33217,0 -75.97014059999999,40.3325253,0 -75.969847,40.3326742,0 -75.9693187,40.332962,0 -75.96910560000001,40.3331066,0 -75.9687314,40.3333605,0 -75.9686365,40.3334396,0 -75.96814860000001,40.333966,0 -75.9676544,40.3345941,0 -75.96739030000001,40.3351795,0 -75.96718559999999,40.335901,0 -75.9671721,40.3365245000001,0 -75.9672502,40.3371434,0 -75.9673906,40.3375795,0 -75.9676542,40.3384989,0 -75.96830559999999,40.3407713,0 -75.9683598,40.3413711,0 -75.9683009,40.3419141,0 -75.96818039999999,40.3424643,0 -75.96799179999999,40.3429259,0 -75.96779600000001,40.3432518,0 -75.9675015,40.3436527,0 -75.96735870000001,40.3438217,0 -75.9670653,40.3441447,0 -75.9662412,40.3449631,0 -75.96505929999999,40.3461285,0 -75.9649354,40.3462506,0 -75.96466270000001,40.3465794,0 -75.9640306,40.3475289,0 -75.96384430000001,40.347758,0 -75.9636527,40.3479674,0 -75.9633769,40.3482193,0 -75.9629973,40.3485189,0 -75.9626056,40.3488036,0 -75.96249659999999,40.3488884,0 -75.9624578,40.3489338,0 -75.9624189,40.3489851,0 -75.96237739999999,40.3490582,0 -75.9623412,40.3491372,0 -75.9623153,40.3492379,0 -75.96230749999999,40.349301,0 -75.96230749999999,40.3493919,0 -75.9623256,40.349461,0 -75.9623464,40.349534,0 -75.96237739999999,40.3495952,0 -75.96240450000001,40.3496373,0 -75.9624536,40.3496961,0 -75.9625715,40.3498202,0 -75.9633091,40.3505598,0 -75.9634922,40.3507806,0 -75.9637487,40.3511008,0 -75.9638242,40.3512673,0 -75.9638849,40.3515348,0 -75.9638401,40.3519129,0 -75.9637085,40.3521552,0 -75.9635569,40.3523283,0 -75.9633008,40.3525096,0 -75.9631436,40.3525907,0 -75.9629983,40.3526477,0 -75.9628712,40.3526869,0 -75.9627442,40.3527171,0 -75.96266,40.3527339000001,0 -75.9625317,40.352745,0 -75.9624182,40.3527506,0 -75.9622936,40.3527478,0 -75.9621763,40.352745,0 -75.9620664,40.3527283,0 -75.96192720000001,40.3527059,0 -75.96181,40.352678,0 -75.9611725,40.3524547,0 -75.9610847,40.3524234,0 -75.9597399,40.3519437,0 -75.9588548,40.3514906,0 -75.9585199,40.351263,0 -75.9583062,40.3510923,0 -75.95784039999999,40.3506355,0 -75.9575504,40.350304,0 -75.95714169999999,40.3498262,0 -75.95670610000001,40.3493435,0 -75.9564872,40.3491281,0 -75.9561592,40.348847,0 -75.9549703,40.3479106,0 -75.95433540000001,40.3473747,0 -75.953816,40.3468985,0 -75.9532985,40.3464072,0 -75.95326799999999,40.3463715,0 -75.9531313,40.346211,0 -75.952979,40.3460139,0 -75.9527611,40.3456425,0 -75.95254559999999,40.3452273,0 -75.9523202,40.3448148,0 -75.9521067,40.3444011,0 -75.95189619999999,40.3439919,0 -75.9515693,40.3433711,0 -75.9513616,40.3429691,0 -75.9511893,40.342672,0 -75.95105169999999,40.3424623,0 -75.9508325,40.3421821,0 -75.950568,40.3419057,0 -75.9501439,40.3415364,0 -75.9497752,40.3412755,0 -75.9491953,40.3409599,0 -75.948696,40.3407443,0 -75.9480769,40.3405308,0 -75.9459942,40.339814,0 -75.9453749,40.3395936,0 -75.94488459999999,40.3393971,0 -75.9441887,40.3390711,0 -75.9430284,40.3384911,0 -75.9419149,40.337946,0 -75.941536,40.337725,0 -75.94124770000001,40.3375227,0 -75.9412013,40.3374864,0 -75.94078589999999,40.3371434,0 -75.9405194,40.3368651,0 -75.9403047,40.3366137,0 -75.94021650000001,40.3365075,0 -75.9401026,40.3363495,0 -75.93999410000001,40.3361741,0 -75.939825,40.3358409,0 -75.9397051,40.3355815,0 -75.9395906,40.3352705,0 -75.93951130000001,40.3350338,0 -75.9394877,40.3348279,0 -75.93944949999999,40.334446,0 -75.9394482,40.3341921,0 -75.93946390000001,40.333954,0 -75.9394765,40.3338221,0 -75.93956540000001,40.3332677,0 -75.93963189999999,40.3329648,0 -75.9396735,40.3327756,0 -75.93974040000001,40.332347,0 -75.93978,40.3322015,0 -75.9397973,40.3319589,0 -75.9397891,40.3317431,0 -75.93976290000001,40.3315308,0 -75.9397228,40.3313005,0 -75.93960490000001,40.3308254,0 -75.93947439999999,40.3303395,0 -75.9393448,40.3299591000001,0 -75.93927499999999,40.3297677,0 -75.9391971,40.3296119,0 -75.9391342,40.3294407,0 -75.9390397,40.3292512,0 -75.9388932,40.3290018000001,0 -75.93876419999999,40.3287995,0 -75.9386203,40.3286139,0 -75.9384445,40.3284222,0 -75.93831230000001,40.3282809,0 -75.9376109,40.3276934,0 -75.9368999,40.3271191,0 -75.9362931,40.326646,0 -75.9345919,40.3253128,0 -75.9341857,40.3250421,0 -75.9336667,40.3247598,0 -75.9332646,40.3245399,0 -75.9329539,40.3243829,0 -75.9326028,40.3242262,0 -75.9317775,40.323934,0 -75.93093,40.3236778,0 -75.92972210000001,40.3234293,0 -75.9289649,40.3232964,0 -75.9280432,40.3231348,0 -75.9273632,40.3230206,0 -75.92679649999999,40.3228845,0 -75.9262765,40.3227122,0 -75.9259399,40.322586,0 -75.9258535,40.3225453,0 -75.92568230000001,40.3224634,0 -75.92552379999999,40.3223777,0 -75.92536629999999,40.3222885,0 -75.9252415,40.3222096,0 -75.925066,40.3220932,0 -75.92492,40.3219925,0 -75.92469819999999,40.3218129,0 -75.9245737,40.3217095,0 -75.9244528,40.3215935,0 -75.92404310000001,40.3211039,0 -75.9237218,40.3205962,0 -75.9236217,40.3203804,0 -75.9235482,40.3201741,0 -75.9235001,40.3200258,0 -75.92343150000001,40.3197625,0 -75.92339939999999,40.3195762,0 -75.92337740000001,40.3193694,0 -75.9233727,40.3192089,0 -75.9234163,40.3186639,0 -75.923562,40.3177783,0 -75.923652,40.3172856,0 -75.92369890000001,40.3169799,0 -75.9237425,40.3164828,0 -75.9237222,40.3160908,0 -75.9236982,40.3156649,0 -75.9236262,40.3153869,0 -75.9234558,40.314983,0 -75.9233298,40.3147391,0 -75.9231877,40.3145104,0 -75.92294099999999,40.3141794,0 -75.9227556,40.313984,0 -75.92240339999999,40.3136553,0 -75.9221756,40.3134729,0 -75.9218813,40.313274,0 -75.9215279,40.3130721,0 -75.9212832,40.3129549000001,0 -75.9210126,40.3128265,0 -75.9207234,40.3127179,0 -75.9205029,40.3126535,0 -75.9202782,40.3125901,0 -75.9186754,40.312196,0 -75.9133932,40.3108133,0 -75.9104679,40.3100511,0 -75.9085585,40.3095648000001,0 -75.9079029,40.3093819,0 -75.907005,40.3091328,0 -75.9048592,40.3085634,0 -75.90435309999999,40.3084512000001,0 -75.9035561,40.3082326,0 -75.899393,40.3070822,0 -75.89842179999999,40.3068114,0 -75.898079,40.3067159,0 -75.89620530000001,40.3061935,0 -75.8940937,40.305592,0 -75.89364670000001,40.30546,0 -75.8930562,40.305319,0 -75.8927982,40.3052678,0 -75.8924348,40.3052079,0 -75.8920395,40.305168,0 -75.8916674,40.3051436,0 -75.8913534,40.3051348,0 -75.8909493,40.3051348,0 -75.8905307,40.3051569,0 -75.8900946,40.3051991,0 -75.88972219999999,40.3052397,0 -75.88895359999999,40.3053311000001,0 -75.88715240000001,40.3055311999999,0 -75.8868562,40.305569,0 -75.8805977,40.3062848,0 -75.879311,40.3064307,0 -75.8769097,40.306703,0 -75.8761106,40.3067935,0 -75.8756977,40.3068403,0 -75.87433350000001,40.3069948,0 -75.8710854,40.307367,0 -75.8685062,40.3076542,0 -75.86620120000001,40.3079139,0 -75.8656347,40.3079713,0 -75.8653274,40.3079897,0 -75.86503810000001,40.3079897,0 -75.8646344,40.3079598,0 -75.86436019999999,40.3079231,0 -75.86408299999999,40.3078656,0 -75.86379669999999,40.3077806,0 -75.8634141,40.3076404,0 -75.8631917,40.307534,0 -75.8630138,40.3074489999999,0 -75.8618136,40.3068542,0 -75.8605704,40.3062489,0 -75.8603292,40.3061204,0 -75.86017510000001,40.3060383,0 -75.8600106,40.3059546,0 -75.8596678,40.3057844,0 -75.85913069999999,40.3055147,0 -75.8584603,40.3051821,0 -75.8582389,40.3050616,0 -75.8577512,40.3047891,0 -75.8573008,40.3045514,0 -75.85718319999999,40.3044953,0 -75.8570871,40.3044443,0 -75.8568538,40.3043152,0 -75.8564575,40.3041062,0 -75.856183,40.3039629,0 -75.8558298,40.3037523,0 -75.8555058,40.3035901,0 -75.85527279999999,40.3034656,0 -75.8550106,40.3033515,0 -75.854885,40.3032842,0 -75.85477330000001,40.3032208000001,0 -75.8546516,40.3031518,0 -75.8542704,40.3028987,0 -75.85407669999999,40.3027839,0 -75.8531626,40.3021121,0 -75.8524364,40.3015848,0 -75.85229820000001,40.3014839,0 -75.85144080000001,40.3009054,0 -75.8512322,40.3007298,0 -75.8506446,40.3002998,0 -75.85046199999999,40.3001875,0 -75.8503381,40.3001036,0 -75.85020179999999,40.3000298,0 -75.85003759999999,40.2999429,0 -75.84983219999999,40.2998408,0 -75.8496597,40.299768,0 -75.8494929,40.2997044999999,0 -75.8493354,40.2996405,0 -75.84915669999999,40.2995929,0 -75.84890590000001,40.2995183,0 -75.8482751,40.2993591,0 -75.848212,40.2993456,0 -75.8480021,40.2992957,0 -75.8477942,40.2992404,0 -75.847328,40.2991392,0 -75.8467095,40.298985,0 -75.8465279,40.298932,0 -75.8461643,40.2988259,0 -75.845894,40.2987474,0 -75.8458337,40.2987298,0 -75.8454768,40.298611,0 -75.84530239999999,40.2985476,0 -75.8451281,40.2984841,0 -75.8445385,40.2982326,0 -75.84437699999999,40.2981653,0 -75.8441448,40.2980647,0 -75.843585,40.2978360999999,0 -75.84338459999999,40.2977574,0 -75.84317470000001,40.2976673,0 -75.842702,40.2974741,0 -75.84245989999999,40.2973723,0 -75.84221359999999,40.2972708,0 -75.8419289,40.2971554,0 -75.84177800000001,40.2970971,0 -75.8417036,40.2970695,0 -75.8416177,40.2970342,0 -75.841314,40.2969089,0 -75.8411631,40.2968486,0 -75.840977,40.2967735,0 -75.8408859,40.2967348,0 -75.8404275,40.2965842,0 -75.83997859999999,40.2964335,0 -75.8398772,40.2964068,0 -75.8394413,40.2962838,0 -75.8387395,40.2960631,0 -75.83762040000001,40.2957053,0 -75.8369228,40.2954804,0 -75.8366029,40.2953725000001,0 -75.8362965,40.2952691,0 -75.835937,40.2951433,0 -75.83561539999999,40.2950329000001,0 -75.83531790000001,40.2949228,0 -75.83479060000001,40.294725,0 -75.8343308,40.2945399,0 -75.8336802,40.294276,0 -75.83305679999999,40.2940241,0 -75.8329305,40.2939739,0 -75.8326301,40.2938520000001,0 -75.8323268,40.2937305999999,0 -75.8317102,40.293482,0 -75.8310403,40.2931988,0 -75.83014009999999,40.2928435,0 -75.8297992,40.292709,0 -75.8289989,40.292367,0 -75.8288611,40.2922957,0 -75.8284103,40.2920624,0 -75.827951,40.2918346,0 -75.82786249999999,40.2917896,0 -75.8275482,40.2916282,0 -75.82723300000001,40.2914666,0 -75.8265974,40.2911402,0 -75.8254487,40.2905447,0 -75.8253227,40.2904794,0 -75.8251315,40.2903792,0 -75.8250673,40.2903452,0 -75.82495179999999,40.290284,0 -75.82485869999999,40.2902347,0 -75.8245656,40.2900795,0 -75.82419950000001,40.289883,0 -75.82381700000001,40.2896870000001,0 -75.82354549999999,40.2895594,0 -75.8232445,40.289436,0 -75.82298900000001,40.2893439,0 -75.82260239999999,40.2892384,0 -75.8217619,40.2890269,0 -75.82115539999999,40.2888555,0 -75.8202311,40.28859,0 -75.81974700000001,40.288457,0 -75.8194422,40.2883799,0 -75.8183791,40.2880918,0 -75.8178896,40.2879701000001,0 -75.81735449999999,40.2878366,0 -75.8166561,40.2876466,0 -75.8153952,40.2873035,0 -75.81532129999999,40.2872834,0 -75.8151001,40.28723,0 -75.81486599999999,40.2871644,0 -75.8146777,40.2871095,0 -75.81433939999999,40.2870318,0 -75.8140191,40.2869378,0 -75.81348180000001,40.2867758,0 -75.81227199999999,40.286411,0 -75.81059999999999,40.285966,0 -75.809676,40.2857168,0 -75.809354,40.28563,0 -75.80895889999999,40.2855157,0 -75.80846200000001,40.285372,0 -75.80791600000001,40.285204,0 -75.80748,40.285051,0 -75.80564,40.2843763,0 -75.8035679,40.2836165,0 -75.802683,40.283292,0 -75.7969607,40.2812244,0 -75.7960762,40.2809131,0 -75.795711,40.2807659,0 -75.79388400000001,40.2800971,0 -75.7935962,40.2799862,0 -75.79091320000001,40.2790663,0 -75.790102,40.2786826,0 -75.78878090000001,40.2780354,0 -75.7881228,40.277713,0 -75.788077,40.2776906,0 -75.7877474,40.2775291,0 -75.785014,40.2761896,0 -75.7848716,40.2761172,0 -75.7845288,40.2759537,0 -75.7844132,40.2758965,0 -75.7843287,40.2758547,0 -75.78390419999999,40.2756389,0 -75.7830065,40.2752145,0 -75.7818607,40.274603,0 -75.78166349999999,40.2745017,0 -75.78071009999999,40.2740157,0 -75.78054280000001,40.2739411,0 -75.78040009999999,40.2738767,0 -75.7801554,40.2737752999999,0 -75.7797764,40.2736148,0 -75.7794753,40.2734977,0 -75.7790801,40.2733691,0 -75.778633,40.2732237,0 -75.7775662,40.2729113,0 -75.7769452,40.2727064,0 -75.7766428,40.2726126,0 -75.7736441,40.2716749,0 -75.77307829999999,40.2714968,0 -75.77231399999999,40.2712596,0 -75.76987219999999,40.2705019,0 -75.76965939999999,40.2704383,0 -75.769526,40.2703985,0 -75.76922399999999,40.2703045,0 -75.76907679999999,40.2702587,0 -75.76890899999999,40.2702065,0 -75.7686614,40.2701295,0 -75.768134,40.2699654,0 -75.7677092,40.2698333,0 -75.7675405,40.2697808,0 -75.7670743,40.269635,0 -75.76691340000001,40.269585,0 -75.76649690000001,40.269454,0 -75.76542430000001,40.2691166,0 -75.7652508,40.269062,0 -75.7647522,40.2689097,0 -75.7643971,40.2688012,0 -75.7641046,40.2687118,0 -75.76339,40.26849,0 -75.76310549999999,40.2684017,0 -75.7624319,40.2681917,0 -75.7606548,40.2676378,0 -75.75868920000001,40.2670153,0 -75.7582353,40.2668716,0 -75.7580797,40.2668223000001,0 -75.7580323,40.2668084,0 -75.75682639999999,40.2664435,0 -75.7565422,40.2663555,0 -75.75494519999999,40.2658653,0 -75.7546162,40.265765,0 -75.75326560000001,40.2653751,0 -75.75240789999999,40.2651185,0 -75.7520916,40.2650245,0 -75.7517766,40.2649379,0 -75.75156680000001,40.2648879,0 -75.7512773,40.2648285,0 -75.7509278,40.2647567,0 -75.75075270000001,40.2647293,0 -75.75028570000001,40.2646563,0 -75.7475032,40.2643593,0 -75.74614099999999,40.2642158,0 -75.74525269999999,40.2641599,0 -75.7447792,40.2641301,0 -75.7443225,40.2641052,0 -75.7437462,40.2640737,0 -75.7436036,40.2640673,0 -75.74329710000001,40.2640464,0 -75.7428692,40.2640181,0 -75.74222690000001,40.2639831,0 -75.7418536,40.2639636,0 -75.7410258,40.2639203,0 -75.7409153,40.2639145,0 -75.73998229999999,40.2638559999999,0 -75.7390621,40.2638004,0 -75.7386825,40.2637775,0 -75.738651,40.2637756,0 -75.73837880000001,40.2637559,0 -75.73833019999999,40.2637516,0 -75.73814160000001,40.2637348,0 -75.7376692,40.263689,0 -75.7372187,40.2636349000001,0 -75.7370327,40.2636072,0 -75.7369283,40.2635910999999,0 -75.7367965,40.2635707,0 -75.7365228,40.2635270999999,0 -75.7361547,40.2634636,0 -75.7360734,40.2634488,0 -75.7355893,40.263346,0 -75.7350723,40.2632241,0 -75.73473060000001,40.2631331,0 -75.7341569,40.2629732,0 -75.7337428,40.2628472,0 -75.7335629,40.2627888,0 -75.7330176,40.262596,0 -75.7329376,40.2625666,0 -75.7326224,40.2624388,0 -75.7321821,40.2622602,0 -75.7321407,40.2622434,0 -75.73189790000001,40.2621418,0 -75.7316867,40.2620534,0 -75.7312422,40.2618397,0 -75.7309534,40.2616976,0 -75.7308072,40.2616257,0 -75.73038219999999,40.2614007,0 -75.7299682,40.2611637,0 -75.7298572,40.2610945,0 -75.7295506,40.2609033,0 -75.7292631,40.2607247,0 -75.7287917,40.2603787,0 -75.72842470000001,40.2600997,0 -75.728049,40.2598164,0 -75.72770800000001,40.2595194,0 -75.72738099999999,40.2592134,0 -75.727222,40.2590574,0 -75.727135,40.2589629,0 -75.72702150000001,40.2588395,0 -75.72698,40.2587944,0 -75.7267374,40.2585594,0 -75.7266764,40.2585028,0 -75.7262929,40.2580814,0 -75.7257195,40.2574812,0 -75.7256677,40.257427,0 -75.7250684,40.2567995,0 -75.72490019999999,40.2566324,0 -75.72439970000001,40.2562337000001,0 -75.7243632,40.2562136,0 -75.7242586,40.2561449,0 -75.7241697,40.2560985,0 -75.72380250000001,40.255907,0 -75.7236443,40.2558455,0 -75.72344579999999,40.2557792,0 -75.7232751,40.2557319,0 -75.72314,40.2556956,0 -75.7228693,40.2556335,0 -75.7223211,40.2555312,0 -75.7218787,40.2554537,0 -75.7217229,40.2554263,0 -75.7212062,40.2552695,0 -75.7210422,40.2552144,0 -75.72089510000001,40.2551431,0 -75.72078620000001,40.2550832,0 -75.72066599999999,40.2550121,0 -75.7205489,40.2549253,0 -75.7204642,40.254849,0 -75.7203679,40.2547436,0 -75.72027509999999,40.2546395,0 -75.72012890000001,40.2544303,0 -75.72002809999999,40.2542729,0 -75.71961880000001,40.2536252,0 -75.7194396,40.2533476,0 -75.7189868,40.2526734,0 -75.7185374,40.2519865,0 -75.7184354,40.2518564,0 -75.7182646,40.2516441,0 -75.71813830000001,40.2515098,0 -75.717967,40.2513305,0 -75.7177557,40.2511126,0 -75.7175945,40.2509453,0 -75.7174584,40.2508262999999,0 -75.71709439999999,40.2505232,0 -75.7166965,40.2502167,0 -75.71639810000001,40.2499863,0 -75.7162064,40.2498565,0 -75.7160344,40.2497474,0 -75.715791,40.2496037,0 -75.7155375,40.2494697,0 -75.7151813,40.2492908,0 -75.71495040000001,40.2491787,0 -75.7147236,40.2490757,0 -75.71439770000001,40.248945,0 -75.7141414,40.2488377,0 -75.7139001,40.2487519,0 -75.7133158,40.2485664,0 -75.7120355,40.2481768,0 -75.71060009999999,40.2477512,0 -75.70936279999999,40.2473691,0 -75.7000287,40.2442627,0 -75.6988654,40.2438745,0 -75.69859649999999,40.2437739,0 -75.698301,40.2436555,0 -75.6980303,40.2435358,0 -75.6978123,40.2434388,0 -75.6975769,40.2433256,0 -75.6973407,40.2432068,0 -75.6971253,40.2430862,0 -75.6968787,40.2429453,0 -75.69666049999999,40.2428176,0 -75.6964907,40.2427119,0 -75.69639789999999,40.2426454,0 -75.6959993,40.2423712,0 -75.69492510000001,40.2416081,0 -75.6937866,40.2409035,0 -75.69264800000001,40.2401989,0 -75.69211110000001,40.2399276000001,0 -75.6914706,40.2397052000001,0 -75.6911025,40.2396077,0 -75.69074689999999,40.2395161,0 -75.6904332,40.2394428,0 -75.6900158,40.2393733,0 -75.6894794,40.2393036,0 -75.6889408,40.2392901,0 -75.6882451,40.2393015,0 -75.68781180000001,40.2393432,0 -75.6875289,40.2393741,0 -75.68718749999999,40.2394312,0 -75.68688450000001,40.2394943,0 -75.6862548,40.2396464,0 -75.68569100000001,40.2398578,0 -75.6852504,40.2400345,0 -75.6851004,40.2400947,0 -75.6848085,40.240216,0 -75.6842999,40.2405146,0 -75.68365989999999,40.2409353,0 -75.6825597,40.2417979,0 -75.681895,40.2421895,0 -75.6814002,40.2424273,0 -75.68098620000001,40.2426243,0 -75.68048140000001,40.2428006999999,0 -75.67999260000001,40.2429624,0 -75.6797404,40.2430327,0 -75.6794699,40.2430941,0 -75.679227,40.2431466,0 -75.6789697,40.2431951,0 -75.67875789999999,40.2432339,0 -75.67846849999999,40.243272,0 -75.6782187,40.2432855,0 -75.6779861,40.2433061,0 -75.6777271,40.2433124,0 -75.6774636,40.2433158,0 -75.6771687,40.243311,0 -75.67683460000001,40.2432919,0 -75.6764764,40.2432582,0 -75.67614930000001,40.2432194,0 -75.6726542,40.2426645,0 -75.6698832,40.2422315,0 -75.66797099999999,40.2419208,0 -75.66544759999999,40.2414425,0 -75.663585,40.2409184000001,0 -75.662036,40.2404575999999,0 -75.66163899999999,40.2403395,0 -75.6614524,40.2402840000001,0 -75.6590704,40.2395753,0 -75.6589993,40.2395541,0 -75.6586595,40.239453,0 -75.6584005,40.2393683,0 -75.6577085,40.239162,0 -75.6559444,40.2387905,0 -75.65574789999999,40.2387569,0 -75.6535894,40.2383651,0 -75.6527988,40.2382237,0 -75.6519052,40.2380608,0 -75.6517015,40.2380191,0 -75.6512062,40.2379085,0 -75.65079040000001,40.2378077000001,0 -75.65028839999999,40.237665,0 -75.6487449,40.2371904,0 -75.6484179,40.2370936,0 -75.64662250000001,40.2365349,0 -75.6455263,40.2361486,0 -75.6419042,40.2346677,0 -75.6409429,40.2343205,0 -75.639732,40.2340142,0 -75.6337417,40.2324989,0 -75.631439,40.2319215,0 -75.6302226,40.2315684,0 -75.629119,40.2313655,0 -75.6287038,40.2313169999999,0 -75.6282592,40.231291,0 -75.6280094,40.2312886,0 -75.6271989,40.2313781999999,0 -75.6266389,40.2314615,0 -75.6221204,40.232353,0 -75.61963280000001,40.2328471,0 -75.6191566,40.2329486,0 -75.6187441,40.2330474,0 -75.618427,40.2331318,0 -75.6179697,40.233279,0 -75.6175368,40.2334459,0 -75.6171739,40.2336118,0 -75.61685869999999,40.233775,0 -75.61655880000001,40.2339468,0 -75.61623899999999,40.2341509,0 -75.6158958,40.2343934,0 -75.61564420000001,40.2345998,0 -75.6154241,40.2347983,0 -75.61507570000001,40.2351186,0 -75.6143107,40.235811,0 -75.6132594,40.2367824,0 -75.6123353,40.2376069,0 -75.6117684,40.2381353,0 -75.6106946,40.2390845,0 -75.61012049999999,40.2394959,0 -75.6097218,40.2397368,0 -75.6095596,40.2398225,0 -75.60911249999999,40.2400503,0 -75.60867260000001,40.2402457,0 -75.6077007,40.2405712,0 -75.6072889,40.2406879,0 -75.6066498,40.2408262,0 -75.605683,40.2409537,0 -75.6023277,40.2410429,0 -75.5972036,40.2411346,0 -75.59576730000001,40.2411571,0 -75.59529689999999,40.2411625,0 -75.59490769999999,40.2411944,0 -75.5943712,40.2412525,0 -75.5936416,40.2414491,0 -75.59260310000001,40.241816,0 -75.5910324,40.2424515,0 -75.58977059999999,40.2429298,0 -75.58886080000001,40.2431329,0 -75.5881227,40.2431984,0 -75.5871528,40.2431329,0 -75.5863804,40.2430273,0 -75.58516849999999,40.2428615,0 -75.5818828,40.2424122,0 -75.5811795,40.2422959,0 -75.580454,40.2421869,0 -75.57940720000001,40.2420257,0 -75.57864360000001,40.2419136,0 -75.57640600000001,40.2416127,0 -75.5758551,40.2415109,0 -75.5754278,40.2414185,0 -75.5750752,40.2413301,0 -75.5749785,40.2413059,0 -75.57450679999999,40.2411697,0 -75.5741239,40.2410514,0 -75.5736194,40.2408746,0 -75.5732375,40.2407289,0 -75.57282720000001,40.2405612,0 -75.5724641,40.240401,0 -75.5722829,40.2403115,0 -75.5718959,40.2401171,0 -75.5714097,40.2398649,0 -75.5592664,40.2330624,0 -75.5557474,40.2311097,0 -75.5537303,40.2299695,0 -75.5525784,40.2293106,0 -75.5520566,40.2289403999999,0 -75.5512901,40.2282823,0 -75.5510881,40.2280355,0 -75.5508181,40.227709,0 -75.5504344,40.2271124,0 -75.5500523,40.2265123,0 -75.5499547,40.226359,0 -75.546626,40.2210101000001,0 -75.5454707,40.2190017,0 -75.544723,40.21778,0 -75.5443099,40.2171049,0 -75.5429559,40.2148923,0 -75.5422418,40.213848,0 -75.5417897,40.2131868,0 -75.5403209,40.2110383,0 -75.53777169999999,40.2073938,0 -75.53577180000001,40.204562,0 -75.5350938,40.2035787,0 -75.5337462,40.2016055,0 -75.533036,40.2005958,0 -75.5325982,40.2001008,0 -75.5321106,40.1995964,0 -75.53133440000001,40.1989242000001,0 -75.5301156,40.1981179,0 -75.52974519999999,40.1978757,0 -75.529156,40.1975664,0 -75.5288487,40.1974135,0 -75.5282187,40.1970951,0 -75.5261089,40.1960458,0 -75.5258068,40.195888,0 -75.5254803,40.1957089,0 -75.5251169,40.1954921,0 -75.5247449,40.1952618,0 -75.5244301,40.1950558,0 -75.5241438,40.1948531,0 -75.5238074,40.1945975,0 -75.5231946,40.1941072,0 -75.5227234,40.1936879,0 -75.5222632,40.1932512,0 -75.5215626,40.1925539,0 -75.52112,40.192044,0 -75.521038,40.1919369,0 -75.5205677,40.1913228,0 -75.5199817,40.190471,0 -75.51929250000001,40.1892865,0 -75.5190575,40.1888258,0 -75.5188258,40.1882749,0 -75.5186229,40.1877522,0 -75.5179507,40.1857901,0 -75.5179449,40.1857749,0 -75.5177687,40.185205,0 -75.517591,40.1846745,0 -75.5174028,40.1841073,0 -75.5169649,40.1829731,0 -75.51669149999999,40.1823975,0 -75.51638389999999,40.1818192,0 -75.5156703,40.1806573,0 -75.5148978,40.1796343000001,0 -75.5141339,40.1787752,0 -75.5136696,40.1783470999999,0 -75.51332910000001,40.1780331,0 -75.51288940000001,40.1776276,0 -75.5114732,40.1764996,0 -75.51000550000001,40.1755158999999,0 -75.5081601,40.174565,0 -75.5071535,40.1741639999999,0 -75.50674480000001,40.1740012,0 -75.50634909999999,40.1738436,0 -75.50201,40.1721296,0 -75.4995255,40.1711481,0 -75.4980664,40.1704464,0 -75.49740540000001,40.1700568,0 -75.4969267,40.1697747,0 -75.49101109999999,40.1662881,0 -75.4900155,40.165829,0 -75.48764660000001,40.1646352,0 -75.48568059999999,40.163773,0 -75.48072569999999,40.1617257,0 -75.4802184,40.1615308,0 -75.4795506,40.1612581,0 -75.47878590000001,40.160932,0 -75.47712079999999,40.1602301,0 -75.4759786,40.1597148,0 -75.47424549999999,40.1588132,0 -75.46809500000001,40.1556758,0 -75.4676099,40.1554283,0 -75.46701849999999,40.1551266000001,0 -75.4654135,40.1542606,0 -75.46375690000001,40.1531979,0 -75.4622463,40.1521482,0 -75.4596628,40.1500883,0 -75.4577831,40.1485006000001,0 -75.4576014,40.1483348,0 -75.45645020000001,40.1472839,0 -75.45558219999999,40.1464265,0 -75.4545624,40.145428,0 -75.45375319999999,40.1445529,0 -75.4529721,40.1437328,0 -75.4520366,40.1427026,0 -75.45167240000001,40.1423133,0 -75.45130399999999,40.141879,0 -75.450895,40.1413969,0 -75.45019120000001,40.140544,0 -75.4491956,40.1392776,0 -75.44872599999999,40.1386672,0 -75.44835930000001,40.1381558,0 -75.4479707,40.1375076,0 -75.44770750000001,40.137019,0 -75.4474704,40.1365414,0 -75.4472815,40.1361148,0 -75.44712699999999,40.1357277,0 -75.4469897,40.1351699,0 -75.4469132,40.134838,0 -75.4468816,40.1344717,0 -75.4468909,40.1340878,0 -75.44691880000001,40.1338038,0 -75.4470491,40.1332198999999,0 -75.4471152,40.1330081000001,0 -75.44717850000001,40.1328534999999,0 -75.4474532,40.1322563,0 -75.44767640000001,40.1319085,0 -75.448054,40.1313573,0 -75.4489724,40.1301367,0 -75.44971049999999,40.1291654,0 -75.4500109,40.128752,0 -75.45020839999999,40.1284238999999,0 -75.4502942,40.1282401,0 -75.4504144,40.1279776,0 -75.45050019999999,40.1277348000001,0 -75.450586,40.127492,0 -75.4506461,40.1271507,0 -75.450689,40.1268159999999,0 -75.4506976,40.1265797,0 -75.450689,40.1261794,0 -75.4506633,40.1257134,0 -75.4505774,40.1245912,0 -75.45056030000001,40.1240924,0 -75.4505688,40.1236724,0 -75.4505774,40.1234623,0 -75.4506118,40.1232129,0 -75.4506547,40.1230095,0 -75.4506976,40.1227995,0 -75.4507748,40.1225894,0 -75.45086070000001,40.1223597,0 -75.4509465,40.122176,0 -75.45107520000001,40.1219068999999,0 -75.45150839999999,40.1212352,0 -75.45169319999999,40.1209486,0 -75.4531009,40.1188614,0 -75.4538562,40.117634,0 -75.4539829,40.1173605,0 -75.4540021,40.117319,0 -75.45409650000001,40.1170433,0 -75.4541823,40.1167873,0 -75.4542167,40.1165642,0 -75.4542596,40.116295,0 -75.4542424,40.1159603,0 -75.4542338,40.1156452,0 -75.4541823,40.1154089,0 -75.45411369999999,40.1151267,0 -75.4538218,40.1144768,0 -75.45366730000001,40.114234,0 -75.4534871,40.1140042,0 -75.45320390000001,40.1137089,0 -75.4526803,40.1132559,0 -75.4522683,40.1130328,0 -75.4518563,40.1128096,0 -75.4513242,40.1125995000001,0 -75.4507491,40.1124354,0 -75.4501654,40.112337,0 -75.44959900000001,40.1122976,0 -75.44893810000001,40.112291,0 -75.44828579999999,40.1123041,0 -75.4475734,40.112396,0 -75.446288,40.112647,0 -75.44015760000001,40.1139255,0 -75.4362094,40.1147656999999,0 -75.4340207,40.1152186,0 -75.4307589,40.1159198,0 -75.4288117,40.1163193,0 -75.42829500000001,40.1164253,0 -75.4279554,40.1164819,0 -75.4275756,40.1165278,0 -75.4274602,40.116537,0 -75.4272323,40.1165552999999,0 -75.4269056,40.1165754,0 -75.42665650000001,40.116577,0 -75.4263139,40.1165701,0 -75.42603560000001,40.1165532,0 -75.4257473,40.1165286,0 -75.42546969999999,40.1164942,0 -75.4251941,40.1164501,0 -75.42491510000001,40.1163953,0 -75.42452369999999,40.1163020999999,0 -75.4243767,40.1162609,0 -75.42411180000001,40.1161789,0 -75.4238536,40.1160891,0 -75.4235975,40.1159907,0 -75.42335540000001,40.115885,0 -75.4231127,40.1157691,0 -75.422878,40.1156456000001,0 -75.422656,40.1155158,0 -75.42245079999999,40.1153897,0 -75.422247,40.1152517,0 -75.4220608,40.1151157,0 -75.4219099,40.1149998,0 -75.4217554,40.1148709,0 -75.4216007,40.1147332,0 -75.42147199999999,40.1146119,0 -75.4213372,40.1144771,0 -75.42120250000001,40.114338,0 -75.421072,40.1141887,0 -75.42095930000001,40.114052,0 -75.4208625,40.1139275,0 -75.4207613,40.1137915,0 -75.42067350000001,40.1136598,0 -75.420585,40.1135167,0 -75.42049179999999,40.1133504,0 -75.4204127,40.1131865,0 -75.4203474,40.1130368,0 -75.4202882,40.1128812,0 -75.42022830000001,40.1126934,0 -75.4201592,40.1124343999999,0 -75.42013439999999,40.1123291,0 -75.4201142,40.1122191,0 -75.42009400000001,40.1121139,0 -75.4200625,40.1119136,0 -75.41999800000001,40.1114703,0 -75.4199587,40.1111488,0 -75.41993069999999,40.1109051,0 -75.4199098,40.1107303,0 -75.41987109999999,40.1103494,0 -75.41986850000001,40.1103105,0 -75.4198645,40.1102451,0 -75.419855,40.1101336,0 -75.4198452,40.110019,0 -75.4198391,40.1099153,0 -75.41983,40.1098048,0 -75.4198238,40.109691,0 -75.4198174,40.1095890000001,0 -75.41979980000001,40.1093093,0 -75.41978899999999,40.1089999,0 -75.4197736,40.1085195,0 -75.4197686,40.1083786,0 -75.41975739999999,40.1080512,0 -75.41974260000001,40.1076041,0 -75.41971359999999,40.1068314,0 -75.4197018,40.1062723,0 -75.4197023,40.1059373,0 -75.4197049,40.1053965,0 -75.41970550000001,40.105271,0 -75.41971220000001,40.1050509,0 -75.41971529999999,40.1048276,0 -75.41971890000001,40.1046143,0 -75.41972,40.1045023,0 -75.4197178,40.1043902,0 -75.4197102,40.1042787,0 -75.4197025,40.1041711,0 -75.4196949,40.1040579,0 -75.4196828,40.1039544,0 -75.4196658,40.1038411,0 -75.4196443,40.1037295,0 -75.4196285,40.1036606999999,0 -75.41956620000001,40.1034067,0 -75.4195373,40.1032997,0 -75.4194973,40.1031899,0 -75.41945870000001,40.1030792,0 -75.4194184,40.102977,0 -75.4193738,40.1028699,0 -75.4193271,40.1027706,0 -75.41927920000001,40.1026585,0 -75.4192259,40.1025576,0 -75.4190744,40.1022479000001,0 -75.41892129999999,40.1019371,0 -75.41876790000001,40.1016266,0 -75.41865869999999,40.1014046,0 -75.4184269,40.1009261,0 -75.4184099,40.1008909,0 -75.41832220000001,40.1006927999999,0 -75.4182813,40.1005862,0 -75.41822639999999,40.1004009,0 -75.4181936,40.1002744,0 -75.4181772,40.1002002,0 -75.41814340000001,40.1000548,0 -75.41811970000001,40.0999325,0 -75.4180808,40.0997248,0 -75.4180554,40.0995022,0 -75.4180393,40.0992821,0 -75.4180319,40.0990606,0 -75.41802869999999,40.0982155,0 -75.4180266,40.0976386999999,0 -75.4180156,40.097213,0 -75.4179875,40.0961281,0 -75.417936,40.0955306000001,0 -75.4178416,40.0949659,0 -75.41773430000001,40.094559,0 -75.4175259,40.0940792,0 -75.41728620000001,40.093623,0 -75.4166142,40.0926613,0 -75.41570059999999,40.0914718,0 -75.4156358,40.0913874000001,0 -75.41514650000001,40.0907702,0 -75.41491480000001,40.0904419,0 -75.4146353,40.0900838,0 -75.41443409999999,40.0897918,0 -75.41381610000001,40.0888528,0 -75.4132668,40.0881042,0 -75.4121596,40.0865611,0 -75.4114043,40.0855958,0 -75.40962759999999,40.0833828,0 -75.408529,40.081938,0 
				</coordinates>
			</LineString>
		<atom:link rel="app" href="https://www.google.com/earth/about/versions/#earth-pro" title="Google Earth Pro 7.3.6.10201"></atom:link>
	</Placemark>
</Document>
</kml>
