<?xml version="1.0" encoding="UTF-8"?>
<kml xmlns="http://www.opengis.net/kml/2.2" xmlns:gx="http://www.google.com/kml/ext/2.2" xmlns:kml="http://www.opengis.net/kml/2.2" xmlns:atom="http://www.w3.org/2005/Atom">
<Document>
	<name>US.49.S.kml</name>
	<Placemark>
		<name>US.49.S</name>
		<LineString>
			<coordinates>
				-89.0927681,30.3656517,0 -89.0928054,30.3658048,0 -89.09282570000001,30.365873,0 -89.0928351,30.365905,0 -89.0928818,30.3660628,0 -89.0929215,30.3662793,0 -89.0929402,30.3663639,0 -89.0929498,30.3664589,0 -89.0929558,30.3666458,0 -89.0929558,30.3669386,0 -89.0929558,30.3670423,0 -89.09295640000001,30.3671371,0 -89.0929572,30.3672416000001,0 -89.0929574,30.3672715,0 -89.0929635,30.3680923,0 -89.0929641,30.3681811,0 -89.0929656,30.3682805,0 -89.092966,30.3683094,0 -89.09298269999999,30.3694141,0 -89.0929828,30.3694987,0 -89.0929819,30.3695421,0 -89.0929829,30.3698342,0 -89.0929872,30.3700899,0 -89.09299849999999,30.3707628,0 -89.0930063,30.3712239,0 -89.0930079,30.3713218,0 -89.0930092,30.3714154,0 -89.0930099,30.3714595,0 -89.09301360000001,30.3717197,0 -89.0930228,30.37236,0 -89.09303319999999,30.3733178,0 -89.0930346,30.373451,0 -89.0930372,30.3736118,0 -89.0930377,30.373644,0 -89.09303970000001,30.3737723,0 -89.0930427,30.3739576,0 -89.0930522,30.374552,0 -89.0930537,30.3746758,0 -89.0930649,30.375603,0 -89.0930819,30.3766989,0 -89.09310000000001,30.3778903,0 -89.09311289999999,30.3790679000001,0 -89.0931147,30.37922650000001,0 -89.0931169,30.3794236,0 -89.0931176,30.3794679,0 -89.0931289,30.3801852,0 -89.0931291,30.380195,0 -89.093131,30.3803156000001,0 -89.0931325,30.3804222,0 -89.0931331,30.3804678,0 -89.0931348,30.3805892,0 -89.09313969999999,30.3809379,0 -89.0931422,30.3811176,0 -89.0931456,30.38136190000001,0 -89.0931508,30.3817317,0 -89.0931539,30.3819559,0 -89.0931593,30.382343,0 -89.09316459999999,30.3827238,0 -89.0931848,30.383949,0 -89.0931921,30.3840563,0 -89.09319170000001,30.3841616,0 -89.0931927,30.3841856,0 -89.09319600000001,30.384269,0 -89.0932036,30.3844566,0 -89.0932127,30.3846826,0 -89.0932146,30.384729,0 -89.0932167,30.3848822,0 -89.0932196,30.3850859,0 -89.0932227,30.3853099,0 -89.0932257,30.3857705,0 -89.0932311,30.3866099,0 -89.09323310000001,30.3879261,0 -89.09323740000001,30.3890502,0 -89.09323929999999,30.3896158,0 -89.09324119999999,30.3901594,0 -89.0932449,30.3912216,0 -89.09324549999999,30.3913861,0 -89.09324789999999,30.3919894,0 -89.0932514,30.392869,0 -89.0932531,30.393923,0 -89.0932476,30.3948880000001,0 -89.0932332,30.395461,0 -89.0932043,30.3960645,0 -89.0931921,30.3962192,0 -89.09316579999999,30.3965507,0 -89.0931025,30.3971889,0 -89.09304160000001,30.3977364000001,0 -89.09298630000001,30.3982334,0 -89.0929634,30.398498,0 -89.09292499999999,30.3990476,0 -89.092894,30.399708,0 -89.0929,30.40118,0 -89.09290300000001,30.40209,0 -89.092915,30.403093,0 -89.09292600000001,30.404014,0 -89.09292790000001,30.4041583,0 -89.09294,30.405101,0 -89.09295,30.405959,0 -89.092974,30.407869,0 -89.092986,30.408815,0 -89.0929883,30.4089602,0 -89.093003,30.409888,0 -89.09305070000001,30.4128976,0 -89.093057,30.413298,0 -89.09306239999999,30.4136313,0 -89.093084,30.41498,0 -89.0930896,30.4155726,0 -89.093092,30.415824,0 -89.0930925,30.4158692,0 -89.0930951,30.4161268,0 -89.09310000000001,30.4166,0 -89.09309399999999,30.4169576,0 -89.09309349999999,30.4169858,0 -89.0930621,30.4173892,0 -89.092997,30.4178338,0 -89.0929156,30.4182244,0 -89.0927142,30.419063,0 -89.09263919999999,30.4194536,0 -89.0925826,30.4196909,0 -89.092535,30.419981,0 -89.0925148,30.4201394,0 -89.092489,30.4206029,0 -89.0924809,30.4207495,0 -89.0924856,30.4214224,0 -89.09248599999999,30.4214758,0 -89.0924914,30.4219327,0 -89.0924974,30.4224374,0 -89.09250160000001,30.4227879,0 -89.09250350000001,30.422948,0 -89.0925069,30.4232304,0 -89.09251020000001,30.4235113,0 -89.0925118,30.4236447,0 -89.09252119999999,30.4244293000001,0 -89.0925252,30.4247672,0 -89.0925268,30.4249005,0 -89.0925295,30.4251223,0 -89.09253,30.425162,0 -89.0925316,30.4252362,0 -89.0925354,30.4254033000001,0 -89.0925392,30.425577,0 -89.0925532,30.4262055,0 -89.092561,30.426555,0 -89.092568,30.426979,0 -89.0925688,30.4272443,0 -89.0925697,30.4275385,0 -89.09257529999999,30.4277083,0 -89.0925979,30.4283886,0 -89.0925991,30.4285002,0 -89.0926,30.428759,0 -89.092608,30.428996,0 -89.0926221,30.4291469,0 -89.09263919999999,30.4295008,0 -89.09266100000001,30.429671,0 -89.09267699999999,30.4298015,0 -89.09273709999999,30.4301334,0 -89.0927969,30.4303731000001,0 -89.092873,30.430639,0 -89.0929653,30.4309148,0 -89.0930449,30.4311299,0 -89.0932042,30.4315188,0 -89.09357900000001,30.4322533,0 -89.093976,30.432856,0 -89.0943292,30.4333253,0 -89.09513080000001,30.4342668,0 -89.0960082,30.4353096,0 -89.09615239999999,30.43549429999999,0 -89.0965875,30.4361335,0 -89.0967225,30.4363788,0 -89.0969058,30.4367497,0 -89.0970585,30.437101,0 -89.09707210000001,30.4371381,0 -89.0971904,30.437461,0 -89.09723049999999,30.4375754,0 -89.09724660000001,30.4376317,0 -89.0973412,30.4379625,0 -89.0974035,30.4381804,0 -89.09742799999999,30.438272,0 -89.0975894,30.438875,0 -89.0978118,30.439682,0 -89.0979545,30.4402835,0 -89.098056,30.4406938,0 -89.0981373,30.4410712,0 -89.0982245,30.4414761,0 -89.09830909999999,30.4419754,0 -89.0984239,30.4427043,0 -89.09850900000001,30.4432028,0 -89.0985484,30.4434945,0 -89.098603,30.4438412,0 -89.0986262,30.4439875,0 -89.09875890000001,30.4448347,0 -89.0987745,30.4449258,0 -89.09893,30.4459048,0 -89.0989756,30.4461923,0 -89.0990492,30.4466618,0 -89.0991511,30.4473121,0 -89.0992091,30.447682,0 -89.0992828,30.448152,0 -89.09931899999999,30.448383,0 -89.0995188,30.4495052,0 -89.09960390000001,30.4500579,0 -89.09967880000001,30.4505447,0 -89.0997749,30.4511692,0 -89.09990120000001,30.4519896,0 -89.09993780000001,30.4522272,0 -89.1000435,30.452914,0 -89.10008209999999,30.4531517,0 -89.100115,30.4533543,0 -89.1001394,30.4535045,0 -89.1001741,30.4537182,0 -89.1002285,30.4540535,0 -89.1002886,30.454453,0 -89.1003453,30.4548297,0 -89.1003814,30.4550698,0 -89.1004042,30.4552216,0 -89.1004327,30.4554106,0 -89.1005021,30.455872,0 -89.1005375,30.4560929,0 -89.10065899999999,30.4568510000001,0 -89.1007195,30.4572263,0 -89.10074659999999,30.4573942,0 -89.100891,30.458289,0 -89.1010423,30.4592439,0 -89.1011482,30.4599694,0 -89.1011554,30.4600189,0 -89.1013763,30.4614766,0 -89.1014457,30.4619348,0 -89.10145,30.461963,0 -89.1015125,30.4623593,0 -89.1015754,30.4627587,0 -89.1016675,30.4633435,0 -89.1017164,30.463654,0 -89.10172300000001,30.463696,0 -89.1017781,30.464046,0 -89.10180250000001,30.4642009,0 -89.1018414,30.4644486,0 -89.10185,30.464503,0 -89.1018651,30.464599,0 -89.1019143,30.4649132,0 -89.1019261,30.4649884,0 -89.1020716,30.4659167,0 -89.10220510000001,30.4667688,0 -89.1023536,30.4677165,0 -89.10237480000001,30.4678513,0 -89.102445,30.4682994,0 -89.1024977,30.4686353,0 -89.10250499999999,30.468682,0 -89.1026,30.469284,0 -89.1026277,30.4694614,0 -89.102681,30.469803,0 -89.1027016,30.4699396,0 -89.1027733,30.4704148,0 -89.1027938,30.4705328,0 -89.1028321,30.47073960000001,0 -89.10284969999999,30.4708699,0 -89.1029001,30.4712441,0 -89.102935,30.4715026,0 -89.1029594,30.4716834,0 -89.1030081,30.4720157,0 -89.1030487,30.4723549,0 -89.10308000000001,30.4726449,0 -89.103123,30.473135,0 -89.1031581,30.4736753,0 -89.1031941,30.474995,0 -89.10319819999999,30.4759616,0 -89.1032055,30.4764306,0 -89.10320249999999,30.4765892,0 -89.1031979,30.4771396,0 -89.1031826,30.4779983,0 -89.1031886,30.4782906,0 -89.1031799,30.4784174,0 -89.1031687,30.4785803,0 -89.10317379999999,30.4789034,0 -89.1031734,30.4792284,0 -89.103179,30.479764,0 -89.103206,30.480274,0 -89.1032604,30.4808847,0 -89.10336719999999,30.4820273,0 -89.1033731,30.482141,0 -89.103427,30.482597,0 -89.103638,30.483755,0 -89.103703,30.484105,0 -89.103909,30.485223,0 -89.10408529999999,30.4861191,0 -89.10431939999999,30.4873086,0 -89.104615,30.488865,0 -89.105108,30.491374,0 -89.105465,30.493192,0 -89.105898,30.49547,0 -89.10607,30.496332,0 -89.10611160000001,30.4965464,0 -89.106561,30.498861,0 -89.1067086,30.4996712,0 -89.106784,30.500085,0 -89.1068053,30.5001908,0 -89.1068968,30.5006466,0 -89.1070489,30.5014036,0 -89.107214,30.502225,0 -89.10767199999999,30.5046070000001,0 -89.107922,30.5059,0 -89.107992,30.506296,0 -89.1081597,30.507299,0 -89.1082153,30.5077401,0 -89.1082744,30.5082592,0 -89.10831520000001,30.508741,0 -89.1083424,30.5090942,0 -89.1083679,30.5094595,0 -89.108375,30.5095799,0 -89.1083782,30.5097033,0 -89.1083928,30.5102665,0 -89.1084098,30.5111083,0 -89.10842719999999,30.5119713,0 -89.10845550000001,30.5131402,0 -89.1084719,30.513818,0 -89.1084754,30.5145683,0 -89.10847870000001,30.5151354,0 -89.1084958,30.5157614,0 -89.108509,30.516247,0 -89.10851289999999,30.5164741,0 -89.1085156,30.5166298,0 -89.108532,30.517576,0 -89.1085349,30.5176866,0 -89.10854999999999,30.518268,0 -89.10862849999999,30.52039,0 -89.10864479999999,30.5211606,0 -89.10865130000001,30.5218308,0 -89.10869460000001,30.5234215,0 -89.1087057,30.524802,0 -89.10872089999999,30.5252004,0 -89.1087478,30.5255986,0 -89.1087747,30.525869,0 -89.1088032,30.526093,0 -89.108831,30.526261,0 -89.1088961,30.5265975,0 -89.1089521,30.5268458,0 -89.1090093,30.5270599,0 -89.1090627,30.5272645,0 -89.109144,30.527529,0 -89.10923579999999,30.5277857,0 -89.1093594,30.5281186,0 -89.10946869999999,30.5283899,0 -89.1096086,30.5286936,0 -89.10974210000001,30.528942,0 -89.111144,30.531551,0 -89.111688,30.532567,0 -89.11220299999999,30.533493,0 -89.112499,30.534057,0 -89.114036,30.536905,0 -89.114811,30.538332,0 -89.114919,30.538531,0 -89.11527700000001,30.539189,0 -89.115657,30.539889,0 -89.117079,30.54253,0 -89.117898,30.544035,0 -89.11834899999999,30.544905,0 -89.118622,30.545459,0 -89.11880499999999,30.545861,0 -89.118953,30.546187,0 -89.11922800000001,30.546842,0 -89.119353,30.547173,0 -89.119514,30.547599,0 -89.119866,30.548542,0 -89.120092,30.549238,0 -89.12032000000001,30.550012,0 -89.12054259999999,30.5508268000001,0 -89.1205822,30.5510058,0 -89.1208599,30.5522621,0 -89.12131100000001,30.554553,0 -89.1213547,30.5547866,0 -89.121437,30.555227,0 -89.12147539999999,30.555415,0 -89.1215947,30.5559997,0 -89.1216964,30.5564979,0 -89.12202240000001,30.5580951,0 -89.1223,30.55949,0 -89.12251929999999,30.5606208,0 -89.1228924,30.5624871,0 -89.12317,30.563844,0 -89.12330900000001,30.564646,0 -89.123541,30.565842,0 -89.123993,30.568097,0 -89.12426499999999,30.569457,0 -89.124466,30.57053,0 -89.124743,30.571888,0 -89.12497,30.5730259999999,0 -89.125289,30.574662,0 -89.125681,30.576623,0 -89.12572400000001,30.576844,0 -89.12595899999999,30.578049,0 -89.12621900000001,30.579356,0 -89.12639299999999,30.580266,0 -89.12649500000001,30.580754,0 -89.126521,30.58088100000001,0 -89.1267665,30.5821249,0 -89.12697199999999,30.58316599999999,0 -89.127178,30.584195,0 -89.12735000000001,30.585132,0 -89.127404,30.585401,0 -89.127454,30.585795,0 -89.127494,30.586253,0 -89.127544,30.586837,0 -89.127557,30.587411,0 -89.12756,30.588363,0 -89.127557,30.58864,0 -89.127555,30.588925,0 -89.12755,30.5894290000001,0 -89.1275498,30.589596,0 -89.127548,30.590858,0 -89.127537,30.59146700000001,0 -89.127531,30.592301,0 -89.12752500000001,30.592861,0 -89.127523,30.592997,0 -89.12751799999999,30.594317,0 -89.127504,30.595614,0 -89.1274999,30.5964435,0 -89.127495,30.59745300000001,0 -89.127483,30.598667,0 -89.1274743,30.5995134,0 -89.127467,30.600215,0 -89.127478,30.600797,0 -89.127511,30.601383,0 -89.127555,30.601892,0 -89.127619,30.60236,0 -89.12779,30.6033120000001,0 -89.127855,30.603631,0 -89.12798100000001,30.604064,0 -89.12813,30.604539,0 -89.128282,30.604991,0 -89.128364,30.6052,0 -89.128837,30.606485,0 -89.12924599999999,30.607621,0 -89.129633,30.608693,0 -89.130366,30.610676,0 -89.131516,30.613789,0 -89.13177,30.614479,0 -89.132575,30.6166413,0 -89.1327141,30.6170185,0 -89.133059,30.617993,0 -89.13323,30.618452,0 -89.133392,30.618902,0 -89.133582,30.619412,0 -89.133763,30.619922,0 -89.1339045,30.6203409,0 -89.134002,30.62075099999999,0 -89.13405299999999,30.62101,0 -89.134095,30.6212527,0 -89.13412839999999,30.6215689,0 -89.13414299999999,30.6218727,0 -89.13414210000001,30.6220655,0 -89.13413199999999,30.6223059,0 -89.134113,30.62260970000001,0 -89.1340663,30.6230479,0 -89.13397399999999,30.623507,0 -89.1339,30.623804,0 -89.133483,30.62534,0 -89.13319199999999,30.626377,0 -89.13289,30.62747999999999,0 -89.132471,30.629006,0 -89.13223600000001,30.629874,0 -89.13181400000001,30.63139,0 -89.13148700000001,30.6326014,0 -89.1314476,30.6327472,0 -89.131214,30.633637,0 -89.131158,30.633894,0 -89.13111499999999,30.634203,0 -89.131077,30.634523,0 -89.131056,30.634948,0 -89.13104800000001,30.635295,0 -89.13108250000001,30.6357769,0 -89.13118799999999,30.636436,0 -89.131246,30.636695,0 -89.131531,30.637728,0 -89.1319013,30.6390813,0 -89.1331,30.64322,0 -89.133419,30.644362,0 -89.133629,30.64527,0 -89.133702,30.645743,0 -89.133832,30.646432,0 -89.133875,30.646779,0 -89.133931,30.647384,0 -89.133968,30.647902,0 -89.133996,30.648676,0 -89.13399699999999,30.649943,0 -89.133987,30.6505930000001,0 -89.133965,30.651273,0 -89.134,30.653055,0 -89.134001,30.653134,0 -89.13403099999999,30.6550849999999,0 -89.13406329999999,30.6563772,0 -89.134064,30.657187,0 -89.134073,30.658034,0 -89.1341106,30.6593092,0 -89.13411000000001,30.660444,0 -89.134114,30.66065,0 -89.134142,30.662124,0 -89.134187,30.665325,0 -89.13420499999999,30.666138,0 -89.13422,30.667561,0 -89.1342406,30.6688696,0 -89.134244,30.6690840000001,0 -89.134248,30.669262,0 -89.13425119999999,30.6694233,0 -89.134281,30.670944,0 -89.134291,30.672046,0 -89.13430700000001,30.672906,0 -89.13435,30.675159,0 -89.134351,30.675253,0 -89.134378,30.676956,0 -89.1344239,30.6794909,0 -89.134514,30.6853746,0 -89.1345429,30.6867961,0 -89.1346238,30.692355,0 -89.13464879999999,30.6939186,0 -89.13466819999999,30.6951601,0 -89.1347023,30.697539,0 -89.1347237,30.6987064,0 -89.1347494,30.7005149,0 -89.13478069999999,30.7024915,0 -89.13483309999999,30.7056491,0 -89.1348366,30.706172,0 -89.13484320000001,30.7066499,0 -89.1348753,30.7086559,0 -89.1348859,30.7093165,0 -89.1348964,30.7099723,0 -89.1349149,30.7111589,0 -89.1349147,30.7116526,0 -89.1349238,30.7120245,0 -89.1349372,30.7125853,0 -89.1349381,30.7131335,0 -89.1349462,30.7134081,0 -89.1349951,30.71646700000001,0 -89.135029,30.7188258,0 -89.1350745,30.7217394,0 -89.1351974,30.7291433,0 -89.13521830000001,30.7335739,0 -89.1352734,30.7360081,0 -89.1353288,30.7387639,0 -89.1354169,30.7446788,0 -89.13546599999999,30.747901,0 -89.13550410000001,30.750199,0 -89.1355404,30.7513965,0 -89.1355365,30.7521441,0 -89.13556920000001,30.7533443,0 -89.1356095,30.7557246,0 -89.13561300000001,30.7559071,0 -89.1356263,30.756601,0 -89.135668,30.7602114999999,0 -89.13572499999999,30.7638888,0 -89.135825,30.7701567,0 -89.1358932,30.7745968,0 -89.13590050000001,30.7749461,0 -89.13589690000001,30.7759793,0 -89.13594519999999,30.778397,0 -89.1359563,30.7791353,0 -89.13597230000001,30.7798911,0 -89.13599429999999,30.7806179,0 -89.1360231,30.7833028,0 -89.1360518,30.7850468,0 -89.1360804,30.7867414,0 -89.1360833,30.7870584,0 -89.1361003,30.787294,0 -89.1361117,30.7881749,0 -89.1361161,30.7885883,0 -89.1361162,30.7886068,0 -89.1361077,30.789067,0 -89.1361094,30.7891458,0 -89.1361308,30.7901118,0 -89.1361488,30.7916976,0 -89.1361745,30.7935169,0 -89.13623509999999,30.7966142,0 -89.1362457,30.7973297,0 -89.13633590000001,30.8027552000001,0 -89.13641440000001,30.8079014,0 -89.13642299999999,30.8084676,0 -89.13649239999999,30.8130125,0 -89.136516,30.8144063,0 -89.13657069999999,30.8178621,0 -89.13658030000001,30.818301,0 -89.1365893,30.818706,0 -89.136595,30.8192584,0 -89.1366244,30.821109,0 -89.1366611,30.8234952,0 -89.1366761,30.8248322,0 -89.13668989999999,30.826064,0 -89.1367137,30.8268498,0 -89.1367379,30.8278141,0 -89.13679569999999,30.8293924,0 -89.13688860000001,30.8308299,0 -89.13691970000001,30.8313588,0 -89.13700009999999,30.8325301,0 -89.137051,30.8330524,0 -89.1371232,30.8338683,0 -89.1371881,30.8344838,0 -89.1372554,30.8349036,0 -89.13730169999999,30.8351377,0 -89.1374813,30.8357978,0 -89.1375876,30.8361158,0 -89.1377402,30.8364962,0 -89.1379117,30.8368795,0 -89.13804829999999,30.8371531,0 -89.1380996,30.8372388,0 -89.1383275,30.8376265,0 -89.1384865,30.8378866,0 -89.1387093,30.8381981,0 -89.13895460000001,30.8385159,0 -89.1392187,30.8388312,0 -89.13946079999999,30.8390882,0 -89.1397247,30.8393527,0 -89.1399979,30.8396064,0 -89.14024499999999,30.8398232,0 -89.1405244,30.8400468,0 -89.1408212,30.8402647,0 -89.1411399,30.8404866,0 -89.141464,30.8406935,0 -89.1417689,30.8408707,0 -89.14216620000001,30.8410812,0 -89.14483799999999,30.8424983,0 -89.1461697,30.8431983,0 -89.1468416,30.84353,0 -89.1475494,30.8438928,0 -89.14770540000001,30.84397909999999,0 -89.1485903,30.8444401,0 -89.1486811,30.8444874,0 -89.1495221,30.8449278,0 -89.149654,30.8449969,0 -89.15013039999999,30.8452647,0 -89.15045050000001,30.845462,0 -89.15075779999999,30.845666,0 -89.1509789,30.8458167,0 -89.15118409999999,30.8459698,0 -89.1515433,30.8462471,0 -89.151734,30.8464028,0 -89.1519284,30.8465717,0 -89.15223140000001,30.8468392,0 -89.1525561,30.8471539,0 -89.1528337,30.847462,0 -89.1531435,30.8478097,0 -89.1536941,30.848528,0 -89.1540071,30.8489887,0 -89.15427699999999,30.8493989,0 -89.1546548,30.8499781,0 -89.1556489,30.8513806,0 -89.1561051,30.8520577,0 -89.1572547,30.8538261,0 -89.1580069,30.8549177,0 -89.1583565,30.8554471,0 -89.1587754,30.8560503999999,0 -89.1591255,30.8565845,0 -89.1593003,30.8568449,0 -89.16056260000001,30.8587471,0 -89.1609158,30.8592715,0 -89.1623476,30.8614004,0 -89.16388809999999,30.8636854,0 -89.1641372,30.8640835,0 -89.16432450000001,30.8644062,0 -89.1643983,30.864537,0 -89.1644615,30.8646589,0 -89.1645285,30.8647969999999,0 -89.1645977,30.8649333,0 -89.1647507,30.8652549,0 -89.16481659999999,30.8654148,0 -89.1648775,30.8655678,0 -89.164953,30.8657616,0 -89.1650187,30.8659554,0 -89.16513500000001,30.866307,0 -89.16523220000001,30.8666374,0 -89.1653218,30.866991,0 -89.16539849999999,30.8673851,0 -89.16543729999999,30.8675915,0 -89.1654563,30.8677914,0 -89.1654934,30.8680497,0 -89.1655193,30.8682733,0 -89.1655296,30.8685005999999,0 -89.16554170000001,30.8686943,0 -89.1655483,30.8689097,0 -89.1655466,30.8691739,0 -89.1655358,30.86946439999999,0 -89.1655071,30.86992,0 -89.16543230000001,30.8705289,0 -89.1653498,30.8709767,0 -89.1651426,30.8720239,0 -89.16496100000001,30.8730219,0 -89.16467280000001,30.8744588,0 -89.16446759999999,30.875544,0 -89.1643096,30.8763648,0 -89.1642197,30.8769259,0 -89.16415139999999,30.8775176,0 -89.16411650000001,30.8780276,0 -89.16409830000001,30.8785492,0 -89.1640969,30.8787901,0 -89.1641114,30.8794204,0 -89.1641527,30.8800924,0 -89.1642058,30.8807611,0 -89.1643234,30.8823355,0 -89.1643883,30.8831041,0 -89.1644079,30.8834137,0 -89.1644307,30.8837392,0 -89.1644977,30.8845596,0 -89.1645649,30.8852512,0 -89.164677,30.8861265,0 -89.1647311,30.8865015,0 -89.1647986,30.8868771,0 -89.16498660000001,30.8878597,0 -89.1651304,30.8885538,0 -89.1653606,30.8894322,0 -89.165544,30.8901476,0 -89.1657495,30.8909139,0 -89.16592180000001,30.891609,0 -89.1661939,30.8925878,0 -89.1666085,30.8941104,0 -89.16666530000001,30.8943231,0 -89.1668573,30.8950413,0 -89.167419,30.8971928,0 -89.1681257,30.8998523,0 -89.1688363,30.9025913,0 -89.1699351,30.9067115,0 -89.170151,30.9073985,0 -89.1704256,30.9081791,0 -89.1706981,30.9089255,0 -89.17135690000001,30.9105069,0 -89.1721814,30.912487,0 -89.172991,30.9144394,0 -89.1740432,30.9169904,0 -89.17487010000001,30.918972,0 -89.17581629999999,30.9212511,0 -89.17724200000001,30.9247025,0 -89.1777474,30.925953,0 -89.17893650000001,30.9287847,0 -89.17902049999999,30.9289846,0 -89.17938820000001,30.9298643,0 -89.18153220000001,30.9350091,0 -89.1836438,30.9401501,0 -89.18579750000001,30.9452961,0 -89.186803,30.9476769,0 -89.1872309,30.9487325,0 -89.18771839999999,30.9499458,0 -89.1879316,30.9504769,0 -89.18818419999999,30.9510757,0 -89.1884878,30.9518012,0 -89.19010969999999,30.9556772000001,0 -89.1938145,30.9646039,0 -89.1963964,30.97082410000001,0 -89.1985347,30.9759577,0 -89.2005896,30.980918,0 -89.2008955,30.98188080000009,0 -89.20109100000001,30.9826491,0 -89.2012555,30.9836617,0 -89.20130690000001,30.9841297,0 -89.2013441,30.9848531,0 -89.20132959999999,30.9863162,0 -89.201325,30.987578,0 -89.2013834,30.9907109,0 -89.2014456,30.9940432,0 -89.201521,30.9986146,0 -89.2015324,30.99913069999999,0 -89.201561,30.999856,0 -89.2015622,31.0005405,0 -89.20156799999999,31.000711,0 -89.20156609999999,31.0016495,0 -89.2016055,31.0029223,0 -89.201694,31.0040236,0 -89.20179349999999,31.0049968,0 -89.2019277,31.0062514,0 -89.2019931,31.0074541,0 -89.20205869999999,31.0086027,0 -89.2020996,31.0102049,0 -89.2021214,31.0119293,0 -89.20219280000001,31.0175602,0 -89.202286,31.023204,0 -89.20232110000001,31.0252236,0 -89.20237969999999,31.0296426,0 -89.2023808,31.0297253,0 -89.20238139999999,31.0298104,0 -89.20247759999999,31.0363856,0 -89.2025119,31.0379125,0 -89.2025501,31.0422266,0 -89.20258699999999,31.046387,0 -89.2027102,31.0471387,0 -89.2027626,31.0474219,0 -89.20282210000001,31.0476991,0 -89.20289769999999,31.0479747,0 -89.20298390000001,31.0482472999999,0 -89.20311390000001,31.0486038,0 -89.20339199999999,31.0492784,0 -89.2039219,31.0505414,0 -89.2042244,31.0512646,0 -89.2043912,31.0516538,0 -89.2052504,31.0537304,0 -89.2055871,31.0545389,0 -89.2058778,31.055237,0 -89.2059816,31.0554897,0 -89.20607149999999,31.0557306,0 -89.20624650000001,31.0562318,0 -89.2063819,31.0566728,0 -89.2065115,31.0571411,0 -89.20662230000001,31.0576048,0 -89.20680160000001,31.0584587,0 -89.206988,31.0593572,0 -89.2072768,31.060725,0 -89.20750580000001,31.0618311,0 -89.2076654,31.0625725,0 -89.20777080000001,31.0630736,0 -89.2082759,31.0654754,0 -89.2085877,31.0669526,0 -89.2089239,31.0685529,0 -89.2093196,31.0704316,0 -89.2094391,31.0710012,0 -89.2094835,31.0712133,0 -89.2096799,31.0721514,0 -89.2100088,31.073723,0 -89.2102166,31.0747028,0 -89.2106263,31.0766478,0 -89.21140080000001,31.0803867,0 -89.2114613,31.0806687,0 -89.21155039999999,31.081058,0 -89.2115833,31.0812101,0 -89.21159369999999,31.0812605,0 -89.212087,31.083649,0 -89.21292769999999,31.087669,0 -89.21358499999999,31.0907939,0 -89.2136192,31.0909573,0 -89.2138534,31.0920764,0 -89.2142827,31.0941276,0 -89.2143832,31.0946076,0 -89.214738,31.0963027,0 -89.2148576,31.096809,0 -89.2151334,31.0981624,0 -89.21541759999999,31.0995031,0 -89.215678,31.1006234,0 -89.21612949999999,31.1022042,0 -89.2163773,31.1029424,0 -89.21664269999999,31.1036745,0 -89.2169761,31.104516,0 -89.21732729999999,31.1053424,0 -89.22322320000001,31.11928929999999,0 -89.22512020000001,31.1238045,0 -89.2266242,31.1273489,0 -89.2266862,31.1274933,0 -89.22987740000001,31.1350663,0 -89.23120470000001,31.138199,0 -89.2322216,31.140612,0 -89.2349523,31.1470763,0 -89.23532590000001,31.1479188,0 -89.23538790000001,31.1480673,0 -89.2359811,31.1494725,0 -89.2369784,31.1518347,0 -89.2384531,31.1553186,0 -89.2389845,31.156595,0 -89.2392124,31.1571229,0 -89.23933030000001,31.1574167,0 -89.2403092,31.1597203,0 -89.24051040000001,31.1601933,0 -89.24125770000001,31.1620137,0 -89.24256320000001,31.1650626,0 -89.2435955,31.16751229999999,0 -89.2436605,31.167665,0 -89.24397620000001,31.168415,0 -89.244123,31.168751,0 -89.2443921,31.1693874,0 -89.2458422,31.1728321,0 -89.24666000000001,31.17475779999999,0 -89.2470127,31.1755931,0 -89.25152060000001,31.1862618,0 -89.2515531,31.1863708,0 -89.25160200000001,31.1864596,0 -89.2521577,31.1877769,0 -89.2522074,31.1878794,0 -89.2522579,31.1880098,0 -89.25234330000001,31.1882148,0 -89.25310159999999,31.1900102,0 -89.2531374,31.1900866,0 -89.253294,31.1904590000001,0 -89.254077,31.19231,0 -89.25453880000001,31.1933976,0 -89.254795,31.19396,0 -89.2549527,31.1943532,0 -89.256376,31.197901,0 -89.2567952,31.1988874,0 -89.2589641,31.2039882,0 -89.25929189999999,31.2047771,0 -89.2595068,31.2052943,0 -89.2605753,31.2078333,0 -89.2607268,31.2082068,0 -89.2609782,31.2087958,0 -89.26116140000001,31.2092412,0 -89.26177269999999,31.2106946,0 -89.2620165,31.2112741,0 -89.2621084,31.2114927,0 -89.26257080000001,31.2125927,0 -89.2627475,31.2130213,0 -89.26296600000001,31.2135402,0 -89.26333289999999,31.2144279,0 -89.26411469999999,31.2162784,0 -89.2641752,31.2164225,0 -89.2644367,31.2170452,0 -89.264723,31.2177432,0 -89.2651647,31.2187974,0 -89.2654282,31.2194264,0 -89.26600550000001,31.2208042,0 -89.266212,31.2213018,0 -89.2668445,31.2228074,0 -89.2668668,31.2228607,0 -89.26696130000001,31.2230868000001,0 -89.2670883,31.2233905,0 -89.2672647,31.2238186,0 -89.2677068,31.2248706,0 -89.26822749999999,31.2261055,0 -89.2684206,31.2265824,0 -89.26937529999999,31.2288481,0 -89.2701239,31.2306379,0 -89.2703231,31.2311164,0 -89.27065229999999,31.231904,0 -89.2708251,31.2323214,0 -89.2709421,31.23259759999999,0 -89.2714663,31.2338456,0 -89.272142,31.2354549,0 -89.2723754,31.2360108,0 -89.27243300000001,31.2361502,0 -89.2739272,31.239708,0 -89.27461889999999,31.2413696,0 -89.2748842,31.2419888,0 -89.2752139,31.2427722,0 -89.27538130000001,31.2431697,0 -89.275775,31.2441292,0 -89.2759295,31.2444634,0 -89.2761955,31.2451261,0 -89.27633160000001,31.2454572,0 -89.2765606,31.2460073,0 -89.2767649,31.2464764,0 -89.2768449,31.2466613,0 -89.2774761,31.2481761,0 -89.2775582,31.2483851,0 -89.2777518,31.2488781,0 -89.27800209999999,31.2495152,0 -89.2784707,31.2507786,0 -89.279015,31.2521146,0 -89.2795302,31.2533823,0 -89.2799751,31.2544113,0 -89.2804118,31.2554752,0 -89.2818125,31.2588244,0 -89.2821021,31.2594726,0 -89.2824952,31.260439,0 -89.2829065,31.2614327,0 -89.2834478,31.2627227,0 -89.2839906,31.2639941,0 -89.2850231,31.2664708,0 -89.2850705,31.2665848,0 -89.2854911,31.2675958,0 -89.28567889999999,31.2680473,0 -89.2859418,31.2686793,0 -89.2866717,31.2704158,0 -89.2868716,31.2708669,0 -89.2874513,31.272237,0 -89.28798500000001,31.2735774,0 -89.2882145,31.2741244,0 -89.28837300000001,31.2744924,0 -89.2884268,31.2746174,0 -89.2885911,31.2749965,0 -89.28887020000001,31.2755558,0 -89.2891334,31.2760416,0 -89.28943409999999,31.2765415999999,0 -89.2895331,31.2766846,0 -89.2897328,31.2769729,0 -89.2899467,31.2772818,0 -89.2904851,31.2779229,0 -89.2908189,31.2783686,0 -89.29195009999999,31.2795545,0 -89.29257870000001,31.2802108,0 -89.2929985,31.2806491,0 -89.2941526,31.2818726,0 -89.2946019,31.2823488,0 -89.29484600000001,31.2826075,0 -89.29500280000001,31.2827737,0 -89.2953263,31.2831166,0 -89.2954453,31.2832399,0 -89.29564619999999,31.283448,0 -89.29753909999999,31.2854088,0 -89.2979017,31.2857803,0 -89.29796760000001,31.2858478,0 -89.2983313,31.2862305,0 -89.2987588,31.2866846,0 -89.2992217,31.2872733,0 -89.30004700000001,31.2881355,0 -89.3008931,31.2890055,0 -89.3012641,31.2894037,0 -89.3016087,31.2897993,0 -89.30244020000001,31.2907618,0 -89.3027974,31.2912244,0 -89.303111,31.2916548,0 -89.3032877,31.2919001,0 -89.3035156,31.2922245,0 -89.30375069999999,31.2925545,0 -89.3040613,31.2929906,0 -89.30449900000001,31.2936094,0 -89.30479269999999,31.2940245,0 -89.3051409,31.2945194,0 -89.3054667,31.2950186,0 -89.306152,31.2959892,0 -89.30683399999999,31.2969637,0 -89.3073126,31.2976404,0 -89.307486,31.2978876,0 -89.3075101,31.2979219,0 -89.3075319,31.2979519,0 -89.3077802,31.2982945,0 -89.3080564,31.2986618,0 -89.308271,31.2989284,0 -89.30845309999999,31.2991476,0 -89.3090105,31.2998021,0 -89.3095345,31.3004169,0 -89.3102039,31.3011744000001,0 -89.3108728,31.3018586,0 -89.3114635,31.3024253000001,0 -89.3126882,31.3036175,0 -89.31335199999999,31.3042674,0 -89.3137651,31.3046675,0 -89.3140222,31.3049166,0 -89.31431190000001,31.305214,0 -89.3160926,31.3069249,0 -89.3164278,31.3072549,0 -89.3166444,31.3074622,0 -89.3171277,31.3079137,0 -89.3180711,31.3088179,0 -89.3185806,31.3093076,0 -89.3188212,31.309542,0 -89.3189647,31.3096818,0 -89.3202869,31.3109814,0 -89.3205201,31.3112053,0 -89.3206058,31.3112877,0 -89.32066039999999,31.3113402,0 -89.3208832,31.3115583,0 -89.3213937,31.3120427,0 -89.3221841,31.3128063,0 -89.3230106,31.3135782,0 -89.3238621,31.3144040000001,0 -89.3244854,31.3150069,0 -89.3245909,31.315109,0 -89.3264451,31.3169014,0 -89.3266315,31.3170821,0 -89.3268838,31.3173266,0 -89.32725430000001,31.317746,0 -89.3275452,31.3181285,0 -89.3278043,31.3185052,0 -89.3280225,31.3188664,0 -89.3282277,31.3192721,0 -89.32845210000001,31.3197566,0 -89.32860890000001,31.3202012,0 -89.32872260000001,31.3205906,0 -89.3288084,31.3209785,0 -89.3288227,31.3210431,0 -89.3288862,31.3214449000001,0 -89.3289122,31.3216839,0 -89.32892940000001,31.3219498,0 -89.3289345,31.3228462,0 -89.3289345,31.3230227,0 -89.3289345,31.3234269,0 -89.32894,31.3243996,0 -89.32893989999999,31.3245859,0 -89.3289398,31.3246561,0 -89.3289407,31.3247426,0 -89.32894109999999,31.3247978,0 -89.3289424,31.3249884,0 -89.3289544,31.3266058,0 -89.3289573,31.327795,0 -89.32896049999999,31.3290561,0 -89.3289628,31.3298914,0 -89.3289635,31.3301406,0 -89.3289771,31.3318205,0 -89.3289817,31.3326534,0 -89.32898849999999,31.334486,0 -89.32897920000001,31.33554699999999,0 -89.32898710000001,31.3358276,0 -89.328965,31.3376385,0 -89.32897560000001,31.339116,0 -89.32898,31.3409822,0 -89.32899310000001,31.341289,0 -89.32902110000001,31.3415958,0 -89.3290803,31.34195220000001,0 -89.3291511,31.3423044,0 -89.3292184,31.3425616,0 -89.3292963,31.3428208,0 -89.32939399999999,31.3431037,0 -89.329616,31.3436266,0 -89.3298549,31.3440784,0 -89.32999890000001,31.3443186,0 -89.33014129999999,31.3445408,0 -89.33023799999999,31.3446863,0 -89.330337,31.3448257,0 -89.3305125,31.3450631,0 -89.3307188,31.3452783999999,0 -89.3307956,31.3453678,0 -89.3309525,31.345538,0 -89.3310728,31.3456597,0 -89.3311921,31.3457797,0 -89.3313167,31.3459004,0 -89.331447,31.3460144,0 -89.331642,31.3461807,0 -89.3318271,31.3463296,0 -89.33199759999999,31.3464617,0 -89.33215850000001,31.3465773,0 -89.33230949999999,31.3466788,0 -89.33238350000001,31.3467288,0 -89.3324308,31.3467607,0 -89.3325115,31.3468246999999,0 -89.3326654,31.3469134,0 -89.3330507,31.3471347000001,0 -89.3334153,31.347322,0 -89.3340884,31.3476629,0 -89.3349496,31.3480878,0 -89.3351993,31.3482129,0 -89.3356981,31.3484902,0 -89.3360481,31.3487009,0 -89.3363176,31.3488552,0 -89.33683929999999,31.3491557,0 -89.3369502,31.3492261,0 -89.3370749,31.3493008,0 -89.3376186,31.3496438,0 -89.3379721,31.349869,0 -89.33849429999999,31.3502161,0 -89.3390902,31.3506072,0 -89.3393256,31.3507786,0 -89.3394114,31.3508418,0 -89.3394981,31.3509056,0 -89.3399273,31.3512215,0 -89.34033580000001,31.351538,0 -89.3414863,31.3524715,0 -89.3417075,31.352661,0 -89.34201950000001,31.3529374,0 -89.3422442,31.3531394,0 -89.3424181,31.3532906,0 -89.342783,31.3536276,0 -89.3434851,31.3542631,0 -89.3436785,31.3544305,0 -89.34475310000001,31.3553946,0 -89.3459208,31.3564398,0 -89.3470102,31.357428,0 -89.3476445,31.3580143,0 -89.34807379999999,31.3584303,0 -89.3482382,31.3586005,0 -89.3486116,31.3588835,0 -89.3488969,31.3591715,0 -89.34914430000001,31.3594161,0 -89.34935489999999,31.3596416,0 -89.3496262,31.3599284,0 -89.34964789999999,31.3599513,0 -89.3498238,31.3601373,0 -89.3499269,31.3602462,0 -89.34996870000001,31.3602905,0 -89.350183,31.360517,0 -89.3505267,31.360902,0 -89.3506369,31.3610249,0 -89.35080499999999,31.3612156,0 -89.3510038,31.3614471,0 -89.35120070000001,31.361682,0 -89.3516418,31.3622061,0 -89.3516624,31.3622305,0 -89.3520209,31.3626546,0 -89.3522176,31.36288709999999,0 -89.35286480000001,31.3636506,0 -89.353539,31.3644426999999,0 -89.353582,31.3644932,0 -89.3539973,31.3650036,0 -89.35432969999999,31.3653977,0 -89.35450729999999,31.3656185,0 -89.3549462,31.3661285,0 -89.3550386,31.3662405,0 -89.35520270000001,31.3664395,0 -89.35541550000001,31.3666879,0 -89.35558930000001,31.3668907999999,0 -89.35579130000001,31.3672033,0 -89.3559382,31.3673753,0 -89.3564162,31.3679349,0 -89.3569519,31.3685842,0 -89.35707189999999,31.3687297,0 -89.3573002,31.3690008,0 -89.3574959,31.36922059999999,0 -89.3576927,31.3694462,0 -89.3581326,31.3699824,0 -89.3586514,31.3705556,0 -89.3590482,31.3710177,0 -89.3611121,31.3733815,0 -89.3615932,31.3739203,0 -89.3619095,31.3742746,0 -89.3621243,31.3745147,0 -89.36262360000001,31.3750775,0 -89.36293209999999,31.3754252,0 -89.3633507,31.3758761,0 -89.3635314,31.3760783,0 -89.36370049999999,31.3762675,0 -89.3639099,31.3765018,0 -89.3640065,31.3766098,0 -89.36405449999999,31.3766661,0 -89.36460099999999,31.377297,0 -89.3650774,31.3778543,0 -89.36521209999999,31.3780118,0 -89.36528029999999,31.3780947,0 -89.3654992,31.3783607,0 -89.3656232,31.3785067,0 -89.3656915,31.378587,0 -89.3658444,31.3787669,0 -89.3661611,31.379138,0 -89.3670451,31.3801543000001,0 -89.3673026,31.3804635,0 -89.3682216,31.381564,0 -89.3686381,31.3820394,0 -89.3691925,31.3826389,0 -89.3696193,31.3830864,0 -89.37005190000001,31.3835222,0 -89.3700891,31.3835604,0 -89.3704652,31.383928,0 -89.3708549,31.3842874,0 -89.3710976,31.3845178,0 -89.3714188,31.3848079,0 -89.3724258,31.3857174,0 -89.3726937,31.3859581,0 -89.37290969999999,31.386155,0 -89.3733573,31.3865614,0 -89.3737187,31.3868925,0 -89.374049,31.3871951,0 -89.37464919999999,31.3877366,0 -89.3755898,31.3886015,0 -89.3761684,31.3891277,0 -89.3763549,31.3892935,0 -89.37697780000001,31.3898474,0 -89.377128,31.389981,0 -89.377517,31.3903268,0 -89.3776426,31.3904366,0 -89.3780009,31.3907593,0 -89.3790791,31.3917579,0 -89.37943629999999,31.3920887,0 -89.37956920000001,31.3922118,0 -89.3796996,31.3923326,0 -89.3800651,31.3926711,0 -89.3805153,31.3930883,0 -89.3808877,31.3934334,0 -89.3811687,31.3936938,0 -89.3814759,31.3939785,0 -89.3824169,31.3948712999999,0 -89.38302160000001,31.395444,0 -89.3830486,31.3954695,0 -89.3834181,31.3958195,0 -89.3835856,31.3959765,0 -89.3839543,31.3963236,0 -89.38495039999999,31.3972515,0 -89.38541650000001,31.3976814,0 -89.3855726,31.39782539999999,0 -89.3860562,31.3982715,0 -89.38653170000001,31.3987079,0 -89.38668560000001,31.3988492,0 -89.3872437,31.3993614,0 -89.38782999999999,31.3998935,0 -89.3898178,31.4016829,0 -89.390624,31.4024086,0 -89.39120079999999,31.4029279,0 -89.391575,31.4032668,0 -89.3927858,31.4043654,0 -89.3929218,31.4044883,0 -89.393394,31.4049147,0 -89.3938845,31.4053557,0 -89.3941832,31.4056243,0 -89.3943732,31.4057951,0 -89.3947465,31.4061308,0 -89.39559610000001,31.4068971,0 -89.39622300000001,31.4074625,0 -89.3975025,31.4086169,0 -89.39776190000001,31.4088509,0 -89.3985054,31.4095217,0 -89.40017659999999,31.4110337,0 -89.4004439,31.4112756,0 -89.4009337,31.4117187,0 -89.40124539999999,31.4120007,0 -89.40183589999999,31.4125329,0 -89.40245090000001,31.4130871,0 -89.4037873,31.4142915,0 -89.4044844,31.4149198,0 -89.4049997,31.4153842,0 -89.4058794,31.41617859999999,0 -89.40627019999999,31.4165314,0 -89.406322,31.4165782,0 -89.4066821,31.4169033,0 -89.4069698,31.4171628,0 -89.40755559999999,31.4176913,0 -89.4083232,31.4184038000001,0 -89.40901460000001,31.4190771,0 -89.4093172,31.4193865,0 -89.4094083,31.4194807,0 -89.4095561,31.419638,0 -89.4100297,31.4201363,0 -89.410218,31.4203503,0 -89.41049339999999,31.4206666,0 -89.4107637,31.420985,0 -89.4111257,31.4214157,0 -89.41144869999999,31.4218195,0 -89.4119314,31.4224448,0 -89.4141355,31.4254946,0 -89.4145482,31.4260603,0 -89.41661550000001,31.4289666,0 -89.4169059,31.4293749,0 -89.4181282,31.4310697,0 -89.418414,31.431466,0 -89.419342,31.4327495,0 -89.4196075,31.4331181,0 -89.419932,31.4335686,0 -89.4204132,31.4342425,0 -89.4208072,31.4347901,0 -89.42207310000001,31.4365703,0 -89.42306720000001,31.4379466,0 -89.4233545,31.4383387,0 -89.4238893,31.4390922,0 -89.4244221,31.4398399,0 -89.425062,31.440744,0 -89.4254121,31.4412311,0 -89.42657,31.44284,0 -89.42684300000001,31.443224,0 -89.4269623,31.4433918,0 -89.4272831,31.443843,0 -89.42741700000001,31.444032,0 -89.4280571,31.4449172,0 -89.42871,31.445829,0 -89.42912870000001,31.4463983,0 -89.429579,31.447021,0 -89.42980129999999,31.4473188,0 -89.430029,31.447609,0 -89.4302512,31.4478857,0 -89.4305219,31.4482246,0 -89.4306725,31.4484126,0 -89.4308903,31.4486734,0 -89.4312013,31.4490391,0 -89.43142469999999,31.4492897,0 -89.4318526,31.4497513,0 -89.4320546,31.449962,0 -89.4323085,31.4502299,0 -89.43263570000001,31.4505729,0 -89.4332031,31.4511709,0 -89.433796,31.451773,0 -89.4341629,31.4521623,0 -89.4345115,31.4525371,0 -89.4358981,31.4539559,0 -89.43646699999999,31.4545535,0 -89.43681460000001,31.454916,0 -89.437191,31.4553109,0 -89.4382337,31.4564174,0 -89.4388316,31.4570347,0 -89.439138,31.4573516,0 -89.4394405,31.4576567,0 -89.439661,31.4578684,0 -89.439795,31.458006,0 -89.44005199999999,31.458282,0 -89.4408012,31.4590415,0 -89.4409217,31.4591656,0 -89.44128739999999,31.4595419,0 -89.44155619999999,31.4598236,0 -89.4419572,31.4602451,0 -89.44262759999999,31.4609313,0 -89.4434409,31.4617631,0 -89.4443897,31.4627686,0 -89.444593,31.4629888,0 -89.4461007,31.4645526,0 -89.4464588,31.464924,0 -89.4474455,31.4659650000001,0 -89.4479276,31.4664689,0 -89.44841599999999,31.466968,0 -89.44938999999999,31.4679664,0 -89.45028929999999,31.4689145,0 -89.4512428,31.4699025,0 -89.4513139,31.4699768,0 -89.45167840000001,31.4703577,0 -89.45245180000001,31.4711696,0 -89.453221,31.47196,0 -89.45465660000001,31.473456,0 -89.45537849999999,31.4742187,0 -89.456104,31.47498,0 -89.45688250000001,31.4757808,0 -89.45765729999999,31.4765843,0 -89.45875100000001,31.4777187,0 -89.458989,31.4779655999999,0 -89.4593134,31.4783021,0 -89.46012229999999,31.4791446,0 -89.4605183,31.47956,0 -89.4608164,31.4798836,0 -89.4611285,31.4802457,0 -89.46136180000001,31.4805241,0 -89.46139650000001,31.4805718,0 -89.4615781,31.48080179999999,0 -89.46187949999999,31.4812064,0 -89.46225920000001,31.481771,0 -89.46250430000001,31.4821606,0 -89.4636517,31.4840316,0 -89.4643588,31.4851787,0 -89.4645701,31.48552859999999,0 -89.4657696,31.4874778,0 -89.46634880000001,31.4884226,0 -89.46653670000001,31.4887297,0 -89.46748409999999,31.4902757,0 -89.4676516,31.4905491,0 -89.46770859999999,31.4906421,0 -89.4682092,31.4914598,0 -89.4683613,31.4917054,0 -89.46850379999999,31.4919353,0 -89.4686178,31.4921126,0 -89.4698326,31.4941069,0 -89.4701106,31.4945549,0 -89.4715966,31.4969817,0 -89.4723489,31.4982035,0 -89.47244000000001,31.4983514,0 -89.4727584,31.4988558,0 -89.47476039999999,31.5021191,0 -89.47482220000001,31.5022199,0 -89.47508120000001,31.5026419,0 -89.47633140000001,31.5046899,0 -89.4770091,31.5058039,0 -89.4773404,31.5063302,0 -89.4775939,31.5067477,0 -89.4802694,31.5111145,0 -89.48076210000001,31.5119153,0 -89.4810605,31.5123928,0 -89.48119800000001,31.5126184,0 -89.48144739999999,31.5130258,0 -89.48210570000001,31.5140894,0 -89.4827568,31.515179,0 -89.4833254,31.5160736,0 -89.48350569999999,31.5163695,0 -89.483886,31.5169934,0 -89.4845069,31.518008,0 -89.48512789999999,31.519041,0 -89.4863726,31.5210689,0 -89.48730310000001,31.522541,0 -89.48824260000001,31.5240951,0 -89.4891518,31.5256298,0 -89.4896128,31.5263958,0 -89.4898324,31.5267564,0 -89.4900859,31.527156,0 -89.49055799999999,31.527879,0 -89.4910146,31.5286055,0 -89.4914887,31.5294674,0 -89.49171,31.529856,0 -89.4919299,31.5302093,0 -89.4929331,31.5317839,0 -89.4935976,31.5328018,0 -89.4938478,31.5332279,0 -89.4943379,31.5340512,0 -89.49481729999999,31.5348765,0 -89.4953115,31.5356932,0 -89.4958165,31.5365099,0 -89.4977969,31.5397864,0 -89.49850499999999,31.540913,0 -89.4986536,31.5411447,0 -89.4989274,31.5415769,0 -89.49929400000001,31.542185,0 -89.502163,31.546871,0 -89.5027772,31.5478750999999,0 -89.50300059999999,31.5482403,0 -89.5034191,31.5489110000001,0 -89.503511,31.5490584,0 -89.50542230000001,31.5521992,0 -89.5060308,31.5532,0 -89.5063347,31.5537003,0 -89.5064898,31.5539479,0 -89.506649,31.5541956,0 -89.5077323,31.5559639999999,0 -89.5080789,31.5565461,0 -89.50843089999999,31.5571237,0 -89.50913420000001,31.5582807,0 -89.5095828,31.5590059,0 -89.5099676,31.559628,0 -89.5101155,31.5598626,0 -89.5101323,31.5598944,0 -89.5101902,31.5599882,0 -89.51039129999999,31.5603212,0 -89.5107806,31.5609545,0 -89.51091460000001,31.5611722,0 -89.5111788,31.5616023,0 -89.5113436,31.5618679,0 -89.51152329999999,31.5621618,0 -89.51159130000001,31.5622729,0 -89.5118532,31.5627028,0 -89.51205059999999,31.5630411,0 -89.51321609999999,31.5649414,0 -89.5137251,31.5657725,0 -89.51423819999999,31.5666002,0 -89.5144963,31.5670188,0 -89.5149716,31.5677895,0 -89.5151224,31.5680352000001,0 -89.5157234,31.5690147,0 -89.51579750000001,31.5691354,0 -89.51610599999999,31.5696382,0 -89.51645790000001,31.5702134,0 -89.5170619,31.5712157,0 -89.5172675,31.5715467,0 -89.5176556,31.572169,0 -89.5178683,31.57251,0 -89.5180161,31.5727538,0 -89.5188206,31.5740808,0 -89.5190534,31.5744669,0 -89.51929199999999,31.574851,0 -89.519935,31.5758710000001,0 -89.520354,31.576559,0 -89.52095199999999,31.577568,0 -89.5214598,31.57846809999999,0 -89.52180269999999,31.5791305,0 -89.5219403,31.5794111,0 -89.522059,31.5796532,0 -89.52246270000001,31.580549,0 -89.52354529999999,31.5831028,0 -89.5272082,31.591708,0 -89.52803299999999,31.593685,0 -89.5289628,31.5958276,0 -89.52947570000001,31.5970546,0 -89.52954250000001,31.5972113,0 -89.5301922,31.598736,0 -89.5313474,31.6014561,0 -89.531744,31.602403,0 -89.5321531,31.6033352,0 -89.533421,31.606338,0 -89.534273,31.608308,0 -89.53438989999999,31.608582,0 -89.534533,31.608952,0 -89.53554680000001,31.61132539999999,0 -89.53663779999999,31.6138723,0 -89.536714,31.614078,0 -89.5383684,31.6179627,0 -89.538685,31.618706,0 -89.538706,31.618752,0 -89.538831,31.619077,0 -89.539115,31.619735,0 -89.53923399999999,31.619994,0 -89.539421,31.620361,0 -89.53966699999999,31.6208169999999,0 -89.53974100000001,31.62096,0 -89.53987600000001,31.621196,0 -89.540228,31.621745,0 -89.540434,31.622052,0 -89.540679,31.622397,0 -89.5408809,31.6226464,0 -89.54116759999999,31.6230006,0 -89.54124710000001,31.6230927,0 -89.54132300000001,31.62317699999999,0 -89.5414566,31.623331,0 -89.54167099999999,31.6235693,0 -89.5419662,31.6238694,0 -89.5422851,31.6241849,0 -89.54256220000001,31.6244494,0 -89.5428253,31.6246833,0 -89.54296189999999,31.6248047,0 -89.5432813,31.6250706,0 -89.5433369,31.6251146,0 -89.5436502,31.6253627,0 -89.54392679999999,31.6255678,0 -89.544123,31.6257073000001,0 -89.5442781,31.6258164,0 -89.5444085,31.62590610000001,0 -89.5444727,31.6259502,0 -89.5450333,31.6263082,0 -89.54528689999999,31.6264671,0 -89.54532500000001,31.626491,0 -89.546074,31.626918,0 -89.546436,31.62709,0 -89.546797,31.627267,0 -89.54709099999999,31.627399,0 -89.547822,31.627705,0 -89.548098,31.627805,0 -89.548834,31.628087,0 -89.550056,31.628569,0 -89.55130200000001,31.629045,0 -89.5519,31.629285,0 -89.552423,31.629496,0 -89.553139,31.629813,0 -89.55349699999999,31.629984,0 -89.55371,31.630092,0 -89.55387380000001,31.6301766,0 -89.554237,31.630364,0 -89.55468020000001,31.6306137,0 -89.55478960000001,31.6306887,0 -89.554997,31.630819,0 -89.555392,31.63107,0 -89.556096,31.631548,0 -89.556346,31.631733,0 -89.55683670000001,31.632098,0 -89.5573674,31.6325374,0 -89.557588,31.632745,0 -89.55782240000001,31.6329496,0 -89.5581059,31.6332196,0 -89.5583543,31.6334706,0 -89.558824,31.6339716,0 -89.5590606,31.63424210000001,0 -89.55951090000001,31.6347918999999,0 -89.5596615,31.6349851,0 -89.5604617,31.6359839,0 -89.5606633,31.6362395,0 -89.56085760000001,31.636498,0 -89.5610612,31.6367515,0 -89.56151490000001,31.6373274,0 -89.5645516,31.6412158,0 -89.5659007,31.6428735,0 -89.566593,31.6437550000001,0 -89.566722,31.643924,0 -89.5667876,31.6440032,0 -89.566857,31.644087,0 -89.56708949999999,31.6444265,0 -89.5671966,31.6445756,0 -89.56749000000001,31.645044,0 -89.5678533,31.6456332,0 -89.5680127,31.645923,0 -89.5681136,31.6461154,0 -89.56822819999999,31.6463369,0 -89.568326,31.6465476,0 -89.56859799999999,31.647245,0 -89.5687508,31.6475282,0 -89.5688249,31.6477411,0 -89.5690037,31.6482621,0 -89.5691338,31.6486468,0 -89.56923569999999,31.6489598,0 -89.5693291,31.6492286,0 -89.5695977,31.6500458,0 -89.56971299999999,31.6503619,0 -89.5698999,31.6508857,0 -89.5699772,31.6510637,0 -89.5700793,31.6512964,0 -89.57035209999999,31.6518668,0 -89.57071639999999,31.6525330999999,0 -89.5710685,31.6530788,0 -89.5713816,31.6535587,0 -89.5716844,31.6539842,0 -89.5717836,31.6541434,0 -89.5719845,31.6544058,0 -89.5723186,31.6548145,0 -89.5724941,31.6549785,0 -89.5727674,31.6552882,0 -89.5730382,31.65557919999999,0 -89.57324800000001,31.6557982,0 -89.5733735,31.6559449,0 -89.5738348,31.65639880000001,0 -89.5744377,31.6569841,0 -89.57511119999999,31.6576378,0 -89.5752959,31.6577953,0 -89.5759742,31.6584793,0 -89.5765675,31.6591213,0 -89.5772882,31.659953,0 -89.577639,31.660369,0 -89.5779162,31.6606951,0 -89.57905510000001,31.6620093,0 -89.5838413,31.6672239,0 -89.587215,31.6709022,0 -89.58993599999999,31.673859,0 -89.5902406,31.6741883,0 -89.5904999,31.6744686,0 -89.5907208,31.6747094,0 -89.59297909999999,31.6771645,0 -89.593214,31.6774199,0 -89.5933958,31.6776189,0 -89.594718,31.679067,0 -89.595767,31.680204,0 -89.5974045,31.6819804,0 -89.597464,31.682045,0 -89.597922,31.682543,0 -89.600438,31.685286,0 -89.6017693,31.6867177999999,0 -89.601905,31.686883,0 -89.605572,31.690881,0 -89.60608499999999,31.691429,0 -89.606601,31.691969,0 -89.606993,31.69237,0 -89.607134,31.692511,0 -89.60768400000001,31.693038,0 -89.60810499999999,31.693429,0 -89.60933799999999,31.694563,0 -89.6133779,31.6982794,0 -89.616129,31.70081,0 -89.61687499999999,31.701498,0 -89.61742599999999,31.702057,0 -89.61750499999999,31.702151,0 -89.617757,31.70243,0 -89.618004,31.702715,0 -89.618286,31.703063,0 -89.61864300000001,31.703536,0 -89.618858,31.703838,0 -89.6202459,31.7058582,0 -89.6231638,31.7101521,0 -89.62622500000001,31.7146612,0 -89.6291298,31.718919,0 -89.6299875,31.7201716,0 -89.63083140000001,31.7214219,0 -89.632012,31.723171,0 -89.633387,31.725186,0 -89.63379,31.725798,0 -89.63396400000001,31.726083,0 -89.63421200000001,31.726493,0 -89.63458199999999,31.7271625000001,0 -89.63704679999999,31.7319681,0 -89.6391575,31.73609069999999,0 -89.6413415,31.7403861,0 -89.64149329999999,31.740688,0 -89.6416534,31.7410001,0 -89.6420011,31.741653,0 -89.642188,31.7420093,0 -89.64233969999999,31.742273,0 -89.6424746,31.7424946,0 -89.6426179,31.7427098,0 -89.6427662,31.7429279,0 -89.6430051,31.743255,0 -89.6431853,31.7434838,0 -89.6433596,31.7436919,0 -89.64363609999999,31.7440005,0 -89.64387069999999,31.7442506,0 -89.64412129999999,31.7444979,0 -89.6445135,31.7448599,0 -89.6448278,31.7451222,0 -89.64554200000001,31.745668,0 -89.646204,31.746096,0 -89.646897,31.746481,0 -89.647614,31.746829,0 -89.64836,31.747134,0 -89.649463,31.747556,0 -89.649711,31.747665,0 -89.651173,31.748236,0 -89.651236,31.748258,0 -89.651447,31.748341,0 -89.65198700000001,31.7485454,0 -89.652134,31.748601,0 -89.6526071,31.7487922,0 -89.653778,31.749267,0 -89.654675,31.7496560000001,0 -89.655253,31.749924,0 -89.655969,31.750271,0 -89.656674,31.75063,0 -89.65759799999999,31.751127,0 -89.65821200000001,31.751471,0 -89.658293,31.751516,0 -89.658787,31.751806,0 -89.658979,31.751931,0 -89.65978800000001,31.75243499999999,0 -89.660445,31.752868,0 -89.660912,31.753187,0 -89.661715,31.753765,0 -89.662165,31.754104,0 -89.66262,31.754446,0 -89.6631,31.754838,0 -89.663282,31.754985,0 -89.663956,31.755554,0 -89.66511300000001,31.756557,0 -89.666813,31.758044,0 -89.667067,31.758283,0 -89.667237,31.758423,0 -89.66951899999999,31.760424,0 -89.669811,31.76068100000001,0 -89.670676,31.76144,0 -89.671302,31.761977,0 -89.671565,31.762188,0 -89.671717,31.762343,0 -89.673044,31.763506,0 -89.673592,31.764018,0 -89.674122,31.764576,0 -89.674595,31.765149,0 -89.674978,31.765685,0 -89.675359,31.7663,0 -89.675438,31.766446,0 -89.675558,31.766687,0 -89.67585200000001,31.767345,0 -89.67637499999999,31.768684,0 -89.676891,31.770027,0 -89.677143,31.770695,0 -89.67716900000001,31.770754,0 -89.677485,31.771577,0 -89.67756,31.771746,0 -89.67780399999999,31.772412,0 -89.67832300000001,31.773755,0 -89.67858699999999,31.774447,0 -89.679036,31.775623,0 -89.679356,31.776436,0 -89.6794297,31.776647,0 -89.679587,31.777086,0 -89.6798708,31.7778247,0 -89.680125,31.778432,0 -89.68041700000001,31.779076,0 -89.68052299999999,31.779309,0 -89.6806289,31.7795241,0 -89.6820259,31.782362,0 -89.6833919,31.7851188,0 -89.68414420000001,31.7866039,0 -89.68478519999999,31.7879346,0 -89.6870933,31.7925365,0 -89.68898419999999,31.7964154,0 -89.6896333,31.7976785,0 -89.6902305,31.7988271,0 -89.6910149,31.8005653,0 -89.69126679999999,31.8011057,0 -89.69283059999999,31.8044712,0 -89.6947895,31.8087437,0 -89.6970141,31.8135633,0 -89.69861179999999,31.8170891,0 -89.6989918,31.817812,0 -89.69952309999999,31.8187857,0 -89.6998887,31.8194145,0 -89.7002833,31.8199975,0 -89.7016953,31.822129,0 -89.70397509999999,31.8255603,0 -89.70448879999999,31.82634240000001,0 -89.706411,31.8293284,0 -89.7073788,31.8309201,0 -89.70842,31.8325674,0 -89.71109730000001,31.8369128,0 -89.7143975,31.8422686,0 -89.7156251,31.8442637,0 -89.7167443,31.846171,0 -89.7175117,31.847665,0 -89.71849880000001,31.8497137,0 -89.7187165,31.8502469,0 -89.7193829,31.8518791,0 -89.7198514,31.8529856,0 -89.7199813,31.8533022,0 -89.7204275,31.8543912,0 -89.7206298,31.8548176,0 -89.720887,31.8552662,0 -89.72117660000001,31.8556479,0 -89.72137410000001,31.8558961,0 -89.7218977,31.8564283,0 -89.7223765,31.8569227,0 -89.72340029999999,31.8579813,0 -89.7260392,31.8606701,0 -89.72631579999999,31.8609512,0 -89.72771160000001,31.8623693,0 -89.72812589999999,31.8627661,0 -89.7285073,31.863082,0 -89.7286967,31.8632313,0 -89.7290236,31.8634586,0 -89.72947310000001,31.8637481,0 -89.7298225,31.8639483,0 -89.73049709999999,31.8642784,0 -89.73094519999999,31.8644706,0 -89.7314126,31.8646371,0 -89.73149359999999,31.8646659,0 -89.7324808,31.864973,0 -89.73484329999999,31.8657179,0 -89.7373272,31.8664926,0 -89.7375929,31.8665795,0 -89.7384673,31.8668681,0 -89.73859299999999,31.8669115,0 -89.74032680000001,31.8675506,0 -89.7405657,31.8676387,0 -89.742752,31.8685181,0 -89.7435825,31.86884999999999,0 -89.7446096,31.8692605,0 -89.74472129999999,31.86930539999999,0 -89.7460722,31.8698442,0 -89.74678969999999,31.87013260000001,0 -89.7473722,31.8703516,0 -89.7488243,31.8709417,0 -89.7492098,31.8710978,0 -89.7497777,31.8713273,0 -89.754676,31.8732778,0 -89.75547,31.8735939,0 -89.75566070000001,31.8736693,0 -89.7573651,31.8743575,0 -89.7584832,31.8747882,0 -89.7591401,31.8750716,0 -89.7597334,31.8753715,0 -89.76028959999999,31.8756983,0 -89.7606463,31.8759337,0 -89.7610983,31.8762846,0 -89.76135840000001,31.8765112999999,0 -89.7615009,31.8766355,0 -89.7616417,31.8767783,0 -89.7621348,31.8772937,0 -89.7625144,31.8777646,0 -89.76290109999999,31.8783418,0 -89.7632083,31.8788996,0 -89.7634343,31.8794124,0 -89.7635739,31.8797989,0 -89.76370420000001,31.8802419,0 -89.7638051,31.88070919999999,0 -89.76387560000001,31.8811277,0 -89.76389260000001,31.8813042,0 -89.76391219999999,31.8816394,0 -89.763924,31.8819624,0 -89.7638887,31.8825262,0 -89.7638456,31.8829424,0 -89.76365079999999,31.8842155,0 -89.7634156,31.8857501,0 -89.7630906,31.887844,0 -89.7629507,31.88883450000001,0 -89.7629159,31.8892775999999,0 -89.7629101,31.889735,0 -89.7629194,31.8898869,0 -89.7629412,31.8902418,0 -89.76297169999999,31.8904894,0 -89.7630128,31.8907633,0 -89.7630187,31.8907958,0 -89.76307079999999,31.8910817,0 -89.76315529999999,31.8913943,0 -89.7633106,31.8919122,0 -89.7635472,31.8924584,0 -89.7638946,31.8931419,0 -89.76417379999999,31.8935554,0 -89.76457379999999,31.8940969,0 -89.7650012,31.8945886,0 -89.7653658,31.8949515,0 -89.76588340000001,31.8953896,0 -89.7663002,31.8957043,0 -89.7667409,31.8959877,0 -89.7668188,31.8960378,0 -89.7676883,31.8965591,0 -89.7701472,31.8980033,0 -89.7721147,31.8991589,0 -89.7724564,31.8993543,0 -89.77420859999999,31.900388,0 -89.775605,31.9012104,0 -89.7769581,31.9020084,0 -89.77782620000001,31.902521,0 -89.779813,31.9036851,0 -89.7817964,31.904857,0 -89.7834802,31.9058829,0 -89.78709809999999,31.9079998,0 -89.7893023,31.9092894,0 -89.78987100000001,31.9096267,0 -89.7903307,31.9098912,0 -89.79098759999999,31.9102736000001,0 -89.7929998,31.9112636,0 -89.794438,31.9120798,0 -89.797602,31.9139403,0 -89.7996579,31.9151724,0 -89.8004353,31.9156299,0 -89.8038712,31.9176517,0 -89.80852299999999,31.9203812,0 -89.81175589999999,31.9222861,0 -89.8128681,31.9229492,0 -89.8166404,31.9251559,0 -89.8171753,31.9254688,0 -89.81842519999999,31.9261628,0 -89.821906,31.9284588,0 -89.82233650000001,31.928766,0 -89.82390409999999,31.9299354,0 -89.82506290000001,31.9309051,0 -89.8269202,31.9327916,0 -89.8280771,31.9339664,0 -89.8300931,31.9360837,0 -89.83226500000001,31.9383408,0 -89.8329154,31.939018,0 -89.833555,31.9396934,0 -89.83425889999999,31.940425,0 -89.83541409999999,31.9416231,0 -89.83989149999999,31.9462885,0 -89.84091239999999,31.9473482,0 -89.8435204,31.95005799999999,0 -89.8440937,31.9506498,0 -89.8460955,31.9527245,0 -89.84651270000001,31.9531892,0 -89.8469363,31.9537065,0 -89.8471644,31.9540038,0 -89.84869740000001,31.9559955,0 -89.8491042,31.9565276,0 -89.84977069999999,31.9573847,0 -89.84996080000001,31.9576346,0 -89.8508199,31.9587644,0 -89.85181249999999,31.9599971,0 -89.85253470000001,31.9608464,0 -89.8532739,31.9616455,0 -89.8567772,31.9656716,0 -89.85848350000001,31.9679241000001,0 -89.8594787,31.9692379,0 -89.8611046,31.9714929,0 -89.8618341,31.9724946,0 -89.8622668,31.9730085,0 -89.86274280000001,31.9736011,0 -89.8630643,31.9739158,0 -89.86396070000001,31.974781,0 -89.86469630000001,31.9753789,0 -89.8654258,31.9759662,0 -89.8658875,31.97631730000001,0 -89.8661645,31.9765388,0 -89.8674659,31.9775446,0 -89.87038459999999,31.9797861,0 -89.8718107,31.9809096,0 -89.8726771,31.9815818,0 -89.87413549999999,31.9827156,0 -89.8746287,31.9831364,0 -89.87595450000001,31.9842207,0 -89.8766351,31.9847227,0 -89.87741629999999,31.9852347,0 -89.87831,31.9857115999999,0 -89.87920370000001,31.98609310000001,0 -89.8804288,31.9865248,0 -89.8815355,31.986821,0 -89.8825653,31.9870569,0 -89.8851749,31.9876231,0 -89.8870719,31.9880875,0 -89.8889688,31.9886292,0 -89.8890011,31.9886424,0 -89.8901018,31.98909220000001,0 -89.8913754,31.9897726,0 -89.89240100000001,31.9904834,0 -89.8941964,31.9917655,0 -89.8980835,31.9945164,0 -89.9009464,31.9965688,0 -89.902754,31.997874,0 -89.90346959999999,31.9983696,0 -89.9041132,31.9987682,0 -89.9045244,31.998978,0 -89.9060389,31.9996626,0 -89.9075096,32.0002831,0 -89.9097778,32.0012139,0 -89.9125729,32.0023618,0 -89.91508260000001,32.0033794,0 -89.9208264,32.0057311,0 -89.9265046,32.0080511,0 -89.93216339999999,32.0103864,0 -89.93522400000001,32.0116411,0 -89.936055,32.0119805,0 -89.93716980000001,32.0124188,0 -89.937788,32.0126894,0 -89.941866,32.0143716,0 -89.9446605,32.0155025,0 -89.9458271,32.0159746,0 -89.9473607,32.0165975,0 -89.9492588,32.0173875,0 -89.9499436,32.0177061,0 -89.9507227,32.0181446,0 -89.9513931,32.0186126000001,0 -89.95214060000001,32.0192632,0 -89.9565616,32.0233485,0 -89.9570611,32.0238205000001,0 -89.9582755,32.0249041,0 -89.95994140000001,32.0264638,0 -89.9612557,32.0276838,0 -89.9618806,32.0282792,0 -89.96360989999999,32.0298553,0 -89.9640007,32.0302263,0 -89.9648694,32.031034,0 -89.9649915,32.0311468,0 -89.96906559999999,32.0349099,0 -89.9711872,32.0368842,0 -89.97389459999999,32.0394002,0 -89.97648909999999,32.0418113,0 -89.98017919999999,32.0451925,0 -89.9809928,32.0459378,0 -89.9814018,32.0463125,0 -89.9825242,32.0473752,0 -89.98476119999999,32.049388,0 -89.986384,32.050912,0 -89.9864512,32.0509751,0 -89.98735310000001,32.0518062,0 -89.98956699999999,32.0534633,0 -89.99167919999999,32.0550481,0 -89.99280160000001,32.0559151,0 -89.9937106,32.0565832,0 -89.99786349999999,32.0596906,0 -90.0000326,32.0613167,0 -90.00318220000001,32.0636796,0 -90.00387130000001,32.0641965,0 -90.00853889999999,32.067704,0 -90.01094320000001,32.0695107,0 -90.0138508,32.0716958,0 -90.0139233,32.0717718,0 -90.01534820000001,32.0728108,0 -90.0171802,32.0741862,0 -90.02291630000001,32.0784926,0 -90.02709729999999,32.0816345,0 -90.02795279999999,32.0822801,0 -90.0319257,32.085254,0 -90.03264830000002,32.0858571,0 -90.03325599999999,32.0864118,0 -90.03368279999999,32.0868515,0 -90.03434470000001,32.0875733,0 -90.0347354,32.0880621,0 -90.03520380000001,32.0886857,0 -90.03560529999999,32.0893001,0 -90.036331,32.0905588,0 -90.03817359999998,32.0939239,0 -90.0386365,32.0946812,0 -90.03892170000002,32.0950766,0 -90.0393578,32.0956292,0 -90.0398656,32.096187,0 -90.03996139999998,32.0962922,0 -90.0403725,32.0966614,0 -90.04096939999999,32.0971655,0 -90.04151379999999,32.0975715,0 -90.0420166,32.097907,0 -90.04516940000001,32.0996519,0 -90.04566819999998,32.0999736,0 -90.04614520000001,32.1003127,0 -90.0467822,32.1008229,0 -90.04735920000002,32.1013545,0 -90.0478981,32.1019336,0 -90.0483557,32.1024836,0 -90.04925270000001,32.1036526,0 -90.05013820000001,32.1047724,0 -90.05078020000002,32.1055090999999,0 -90.05137360000001,32.1061157,0 -90.0520872,32.1067483,0 -90.05294420000001,32.107434,0 -90.0545652,32.1086447,0 -90.05580199999999,32.10953,0 -90.0563434,32.1099531,0 -90.0658226,32.1170282,0 -90.06658299999999,32.1175864,0 -90.07229390000001,32.1218435,0 -90.07279219999999,32.1222147,0 -90.07332599999999,32.122625,0 -90.07550939999999,32.1242159,0 -90.08020430000001,32.1277267999999,0 -90.08501939999998,32.1313029,0 -90.0898088,32.1348789,0 -90.09464959999998,32.1384765,0 -90.09899270000001,32.1417107,0 -90.1000913,32.142481,0 -90.10009609999999,32.1424838,0 -90.1013616,32.1432296,0 -90.1029151,32.1439999,0 -90.10510380000001,32.1450028000001,0 -90.1057066,32.1452842,0 -90.10668769999999,32.1457423,0 -90.10708179999999,32.1459263,0 -90.10865079999999,32.1466588,0 -90.10881789999999,32.1467369,0 -90.1089757,32.1468105,0 -90.1090324,32.146837,0 -90.10906439999999,32.1468515,0 -90.1094684,32.1470341,0 -90.1110156,32.1477333,0 -90.1114381,32.1479242,0 -90.1168455,32.1504386,0 -90.1202444,32.1520082,0 -90.1204941,32.1521239,0 -90.12085699999999,32.1522921,0 -90.12146319999999,32.1526213,0 -90.12215839999999,32.1530619,0 -90.122845,32.1535561,0 -90.12304309999999,32.1537296,0 -90.12333429999998,32.1539848,0 -90.12387239999998,32.1544659,0 -90.12438139999999,32.1549658,0 -90.124531,32.1551069,0 -90.1246577,32.1552265,0 -90.1246818,32.1552492,0 -90.125377,32.1559249,0 -90.1257267,32.1563358,0 -90.12595210000001,32.1566007,0 -90.1262543,32.1570357,0 -90.1263812,32.1572184,0 -90.1264899,32.1574243,0 -90.1267417,32.1579014,0 -90.1269891,32.1584131,0 -90.12780069999999,32.1604912,0 -90.1281592,32.1614123,0 -90.12871579999999,32.1628423,0 -90.1311529,32.1691642,0 -90.1312128,32.1693195,0 -90.13133030000002,32.1696244,0 -90.1313543,32.1696858,0 -90.1314339,32.1698898,0 -90.13163419999999,32.1704189,0 -90.1318133,32.1708922,0 -90.13193430000001,32.1712119,0 -90.13224039999999,32.1719885,0 -90.13255359999999,32.1728105,0 -90.1326444,32.173049,0 -90.13276620000001,32.1733687,0 -90.13278090000001,32.1734078,0 -90.13298310000002,32.1739463,0 -90.1339165,32.176432,0 -90.1351214,32.1795905,0 -90.13523750000002,32.1798949,0 -90.13566779999998,32.1811293,0 -90.13629419999999,32.1827483,0 -90.13659409999998,32.1834843,0 -90.1369041,32.1842452,0 -90.1375582,32.185952,0 -90.13762509999999,32.1861266,0 -90.1383683,32.1881017,0 -90.13852629999998,32.1885164,0 -90.1386318,32.1887896,0 -90.13871479999999,32.1890047,0 -90.1388116,32.1892555,0 -90.1389554,32.1896278,0 -90.1392099,32.1902308,0 -90.13937249999999,32.190616,0 -90.13944190000001,32.190769,0 -90.13945630000002,32.1908006,0 -90.13965070000002,32.1911677,0 -90.14026680000001,32.1923773,0 -90.14048680000001,32.1928092,0 -90.1412746,32.1942419,0 -90.14178250000001,32.1951655,0 -90.14317439999999,32.1976968,0 -90.14415419999999,32.1995058,0 -90.1447051,32.200523,0 -90.14568,32.2024098,0 -90.14843670000002,32.2075424,0 -90.1485943,32.2078358,0 -90.14882720000001,32.2082655,0 -90.14964400000001,32.2097728,0 -90.15202330000001,32.214177,0 -90.15229239999999,32.2146755,0 -90.15240110000001,32.214877,0 -90.15251069999998,32.2150799,0 -90.15261599999998,32.215275,0 -90.1527138,32.2154562,0 -90.1527943,32.2156053,0 -90.1528939,32.2157899,0 -90.1529949,32.2159769,0 -90.15308949999999,32.2161523,0 -90.15320420000002,32.2163646,0 -90.15352249999999,32.2169554,0 -90.1542705,32.2183429,0 -90.1543825,32.2185508,0 -90.1546414,32.2190178,0 -90.1549832,32.219657,0 -90.15578680000002,32.2211407,0 -90.15681760000001,32.223097,0 -90.15962210000002,32.2283649,0 -90.1615628,32.2319702,0 -90.1626443,32.2339975,0 -90.16369100000001,32.2357651,0 -90.1638918,32.2361368,0 -90.16419500000001,32.2367786,0 -90.16435450000002,32.2371475,0 -90.1644719,32.2374205,0 -90.16479090000001,32.2383354,0 -90.16490039999999,32.2390438,0 -90.1649628,32.2397979,0 -90.16496960000001,32.2400258,0 -90.16494969999999,32.2406666,0 -90.1648476,32.2412687,0 -90.1647152,32.2417293,0 -90.1645133,32.2424044,0 -90.16375869999999,32.2449357,0 -90.16348619999999,32.2458419,0 -90.1631953,32.2468703,0 -90.1629325,32.2478039,0 -90.1625093,32.2492282,0 -90.1622131,32.2502406,0 -90.1616853,32.2520446,0 -90.1614088,32.2533495,0 -90.1612532,32.2540834,0 -90.1611146,32.254931,0 -90.1610259,32.2556318,0 -90.1608956,32.2568124,0 -90.1608184,32.2577353,0 -90.16072800000001,32.2602088,0 -90.16064679999999,32.2619886,0 -90.1606324,32.2626848,0 -90.16060109999998,32.2636151,0 -90.16056980000002,32.2643573,0 -90.1605522,32.2649199,0 -90.1605306,32.265435,0 -90.16051970000001,32.2656451,0 -90.16050319999999,32.2658416,0 -90.1604921,32.2659436,0 -90.160479,32.2660472,0 -90.1604619,32.2661497,0 -90.1604407,32.266256,0 -90.1604164,32.2663596,0 -90.1603649,32.2665696,0 -90.1601783,32.2670777,0 -90.160098,32.2672826,0 -90.1599623,32.2676084,0 -90.1597649,32.2680529,0 -90.15966710000001,32.2682396,0 -90.159533,32.2684804,0 -90.15945190000001,32.2686101,0 -90.15939660000001,32.26869,0 -90.15934260000002,32.2687671,0 -90.15919499999998,32.2689922,0 -90.1590546,32.2691634,0 -90.15888949999999,32.2693504,0 -90.15879919999999,32.269443,0 -90.1587104,32.2695361,0 -90.15862620000001,32.2696105,0 -90.15853749999998,32.2696888,0 -90.15844369999999,32.2697657,0 -90.1583547,32.2698393,0 -90.1582568,32.2699145,0 -90.1581652,32.2699833,0 -90.15797580000002,32.2701137,0 -90.15767079999999,32.2703245,0 -90.1574598,32.2704685,0 -90.15735650000001,32.2705384,0 -90.15716639999999,32.2706718,0 -90.1569867,32.2707941,0 -90.1569088,32.2708532,0 -90.1568406,32.2709049,0 -90.15677049999998,32.2709598,0 -90.15669989999999,32.2710172,0 -90.15663240000001,32.271076,0 -90.15656490000001,32.2711375,0 -90.15650100000001,32.2711976,0 -90.1564429,32.2712589,0 -90.1563822,32.2713291,0 -90.15632960000002,32.2713961,0 -90.15627979999999,32.2714684,0 -90.1562363,32.2715425,0 -90.15619869999999,32.2716131,0 -90.1561615,32.271694,0 -90.15613870000001,32.2717509,0 -90.1561177,32.2718108,0 -90.15609409999999,32.2718914,0 -90.1560748,32.2719729,0 -90.1560623,32.2720528,0 -90.15605360000001,32.2721357,0 -90.15604960000002,32.2722186,0 -90.15605170000001,32.2723021,0 -90.15605839999999,32.2723848,0 -90.1560702,32.2724667,0 -90.15608639999999,32.2725459,0 -90.1561087,32.2726251,0 -90.1561361,32.2727047,0 -90.1561681,32.272784,0 -90.1562043,32.2728602,0 -90.15624339999999,32.2729335,0 -90.1562892,32.2730068,0 -90.15634,32.2730785,0 -90.15639549999999,32.2731491,0 -90.15645170000001,32.2732111,0 -90.15651500000001,32.2732766,0 -90.15658070000001,32.2733371,0 -90.1566473,32.2733929,0 -90.15672190000001,32.273449,0 -90.15679970000001,32.2735001,0 -90.15687940000001,32.2735472,0 -90.1569618,32.2735921,0 -90.15704420000002,32.2736309,0 -90.15713220000002,32.2736681,0 -90.15722289999999,32.2737006,0 -90.15731270000001,32.2737295,0 -90.1574028,32.2737544,0 -90.15749479999999,32.2737769,0 -90.1575916,32.2737969,0 -90.1576834,32.273815,0 -90.1578626,32.2738452,0 -90.1580146,32.2738671,0 -90.15816340000001,32.2738856,0 -90.1587346,32.273952,0 -90.1595018,32.2740389,0 -90.1598801,32.2740853,0 -90.160042,32.2741052,0 -90.1601836,32.2741251,0 -90.16035090000001,32.2741495,0 -90.1605127,32.2741743,0 -90.16079609999998,32.2742196,0 -90.1619312,32.2744073,0 -90.1635962,32.2747528,0 -90.1640305,32.2748522,0 -90.16474269999999,32.2750141,0 -90.1649553,32.2750625,0 -90.1655031,32.2751751000001,0 -90.1660122,32.2752512,0 -90.16641280000002,32.2752861000001,0 -90.16678380000002,32.2753009,0 -90.16720309999999,32.2752968999999,0 -90.1679343,32.2752891,0 -90.1685615,32.2752965,0 -90.16984369999999,32.275436,0 -90.1730941,32.2757918999999,0 -90.17820870000001,32.2766468,0 -90.1783291,32.2766647,0 -90.18217779999999,32.2772573,0 -90.18286439999999,32.2773625,0 -90.18338799999999,32.277406,0 -90.1838944,32.277435,0 -90.1845467,32.2774496,0 -90.1850531,32.2774423,0 -90.1854479,32.277435,0 -90.18590279999999,32.2773988,0 -90.186229,32.2773552,0 -90.18665809999999,32.2772827,0 -90.18732759999999,32.2771448,0 -90.1887953,32.276811,0 -90.1902802,32.2764771,0 -90.19144749999998,32.2762232,0 -90.19215989999999,32.276107,0 -90.1929324,32.2760345,0 -90.1936877,32.2760272,0 -90.19439149999999,32.276049,0 -90.19543,32.2761869,0 -90.19658020000001,32.276361,0 -90.19724410000001,32.2764681,0 -90.1981672,32.2766305,0 -90.19853809999999,32.2766727,0 -90.1989552,32.2766955,0 -90.19949149999998,32.2767026,0 -90.20038039999999,32.2766613,0 -90.20208800000002,32.2764623,0 -90.2039406,32.2762543,0 -90.20403980000002,32.2762440999999,0 -90.2049353,32.2761518,0 -90.2053379,32.2761017999999,0 -90.20574589999998,32.2760521,0 -90.20617559999999,32.276021,0 -90.2069224,32.2760283,0 -90.2075146,32.2761081,0 -90.20797810000001,32.2762242,0 -90.208433,32.2763766,0 -90.2089379,32.2766068,0 -90.2092226,32.2767685,0 -90.209523,32.2769572,0 -90.2097119,32.2771096,0 -90.20977190000001,32.2771531,0 -90.20986379999999,32.2772434,0 -90.21058730000001,32.2779731,0 -90.2120185,32.2795673,0 -90.21219170000001,32.2797778,0 -90.21236860000002,32.2800105000001,0 -90.2124792,32.2801728,0 -90.2126466,32.2804332,0 -90.21276739999999,32.2806761,0 -90.2129209,32.2810426,0 -90.2135488,32.2826896,0 -90.2137309,32.2831482,0 -90.21430100000001,32.2845687,0 -90.21448309999998,32.2848637,0 -90.214635,32.2850846,0 -90.2148055,32.2852755,0 -90.2150561,32.2855116,0 -90.21545120000002,32.2858142,0 -90.21584530000001,32.2860288,0 -90.2164032,32.2862319,0 -90.2171019,32.2863978,0 -90.21779710000001,32.2864631,0 -90.21862729999999,32.2865094,0 -90.2193046,32.2865441,0 -90.2198313,32.2865792,0 -90.22115309999998,32.2867243,0 -90.2229727,32.2870508,0 -90.2235407,32.2871629,0 -90.22721560000001,32.2878881,0 -90.2273373,32.2879123,0 -90.22808980000001,32.2880624,0 -90.2285584,32.2881497,0 -90.22959880000001,32.2883351,0 -90.23195250000001,32.2885903,0 -90.23196939999998,32.2885921,0 -90.23250149999998,32.2886356,0 -90.2342696,32.2887735,0 -90.23679300000001,32.2889767,0 -90.2399173,32.2892379,0 -90.2405353,32.2892814,0 -90.2444222,32.2895745,0 -90.2451052,32.289626,0 -90.2453786,32.2897119,0 -90.24563470000001,32.2897765,0 -90.2460284,32.2898764,0 -90.24630929999998,32.2899641,0 -90.24656679999998,32.2900667,0 -90.2468229,32.2901954,0 -90.24709649999998,32.2903552,0 -90.24732309999999,32.2905128,0 -90.24757929999998,32.2907362,0 -90.2477691,32.2909295,0 -90.2479675,32.2911681,0 -90.24813520000001,32.2914204,0 -90.24826790000002,32.2916709,0 -90.24839129999999,32.2919662,0 -90.24848720000001,32.2923126,0 -90.2485281,32.2925648,0 -90.24854419999998,32.292897,0 -90.2485114,32.2932739,0 -90.24843020000002,32.2936809,0 -90.2483625,32.2940488,0 -90.24824110000002,32.2946003,0 -90.2479709,32.2956846,0 -90.2477616,32.2965783,0 -90.24775530000001,32.2966006,0 -90.24761479999999,32.2971878,0 -90.2475464,32.2975013,0 -90.2474921,32.2977223,0 -90.24739820000001,32.2980023,0 -90.24728159999999,32.2983583,0 -90.2471515,32.2986865,0 -90.24704489999999,32.2989455,0 -90.24685579999999,32.299378,0 -90.2465909,32.2999323,0 -90.2465517,32.3000255,0 -90.24620470000001,32.3008051,0 -90.2461423,32.3009463,0 -90.2459747,32.3013192,0 -90.2456696,32.3020141,0 -90.24553539999999,32.3023819,0 -90.2454362,32.3027135,0 -90.24533630000002,32.3031238,0 -90.24527259999999,32.3035007,0 -90.245223,32.3039094,0 -90.2451968,32.3043186,0 -90.24517799999998,32.3047811,0 -90.2451901,32.3049783,0 -90.24521559999999,32.3051959,0 -90.2452692,32.3055643,0 -90.2453531,32.3060585,0 -90.24544489999998,32.3066344,0 -90.24658669999999,32.313994,0 -90.2466414,32.3143331,0 -90.24707859999999,32.3170442,0 -90.2474856,32.3195696,0 -90.2475951,32.3201739,0 -90.2476841,32.3207426,0 -90.24774499999999,32.321482,0 -90.24773629999999,32.3223391,0 -90.247658,32.3231116,0 -90.24756379999998,32.3235948,0 -90.2474,32.3242804,0 -90.2469631,32.3256335,0 -90.2467513,32.3262747,0 -90.24646610000001,32.3270794,0 -90.24643789999999,32.3271589,0 -90.24605270000002,32.3283128,0 -90.24598790000002,32.3285068,0 -90.2457991,32.3292086,0 -90.2456529,32.3297777,0 -90.2455576,32.3302824,0 -90.24548769999998,32.3309696,0 -90.245456,32.3316246,0 -90.24542460000001,32.3323569,0 -90.24541929999998,32.3340774,0 -90.2454305,32.3346338,0 -90.2454315,32.3355686,0 -90.2454335,32.3376103,0 -90.24542959999999,32.3400412,0 -90.2454309,32.3407153,0 -90.2454475,32.3450193,0 -90.24547250000001,32.3478938,0 -90.24544280000001,32.3488586,0 -90.2453434,32.3497874,0 -90.24520630000001,32.3504644,0 -90.24497229999999,32.3511513,0 -90.2446647,32.3518489,0 -90.24429000000001,32.3524872,0 -90.24392690000001,32.3530696,0 -90.2434952,32.3536077,0 -90.2430846,32.3540702,0 -90.2426371,32.3544882,0 -90.2418617,32.3550918,0 -90.24096830000002,32.3557156,0 -90.2391184,32.3569779,0 -90.23842479999999,32.3574611,0 -90.23600569999999,32.3591398,0 -90.23533990000001,32.3596037,0 -90.2351783,32.359715,0 -90.23488270000001,32.3598399,0 -90.2346435,32.3599171,0 -90.2344769,32.3599443,0 -90.23429950000002,32.3599511,0 -90.23411679999998,32.359933,0 -90.2339609,32.3598966,0 -90.23380240000002,32.3598308,0 -90.2336761,32.3597446,0 -90.2335605,32.3596038,0 -90.2334853,32.3594676,0 -90.23346909999999,32.3593314,0 -90.2334853,32.3591816,0 -90.23352559999999,32.3590704,0 -90.23359809999999,32.3589682,0 -90.23371369999998,32.3588593,0 -90.23384,32.3587934,0 -90.23400119999999,32.3587548,0 -90.23418399999998,32.3587299,0 -90.2343721,32.3587367,0 -90.23458979999999,32.3587639,0 -90.23474829999999,32.3588093,0 -90.23495250000001,32.3588956,0 -90.23521,32.3590475,0 -90.2360231,32.3598053,0 -90.2370464,32.360742,0 -90.23713979999999,32.3608275,0 -90.23749559999999,32.3611555,0 -90.23896890000002,32.3625095,0 -90.23915820000001,32.3626825,0 -90.23933409999999,32.3628468,0 -90.23965239999998,32.363142,0 -90.2409297,32.3643077,0 -90.24163869999998,32.3649611,0 -90.2423531,32.3656194999999,0 -90.24374770000001,32.3669048,0 -90.2458561,32.3688435,0 -90.2478236,32.3706557,0 -90.2479197,32.3707442,0 -90.2486624,32.371422,0 -90.25124399999999,32.3737977999999,0 -90.25136139999999,32.3739058,0 -90.2528518,32.3752992,0 -90.2537913,32.37616,0 -90.25418790000001,32.3765161,0 -90.25551809999999,32.3777427,0 -90.25563590000002,32.3778513,0 -90.2562657,32.3784301,0 -90.2574716,32.3795385,0 -90.25879879999999,32.3807589,0 -90.26036529999999,32.3822689,0 -90.26125480000002,32.3831847,0 -90.26126829999998,32.383199,0 -90.26242569999999,32.384429,0 -90.26365360000001,32.3857281,0 -90.26397849999999,32.3860732,0 -90.26630399999999,32.3885433,0 -90.269932,32.3924791000001,0 -90.2734921,32.3964125,0 -90.27654699999998,32.399707,0 -90.2769296,32.4001196,0 -90.2771008,32.4003042,0 -90.27752889999999,32.4007626,0 -90.27976700000001,32.4031592,0 -90.27978189999999,32.4031751,0 -90.2838388,32.4075146,0 -90.2841908,32.4078791,0 -90.284527,32.4082505,0 -90.28878109999999,32.4127981,0 -90.28934200000002,32.4133977,0 -90.28936569999999,32.4134229,0 -90.2904241,32.4145514,0 -90.2915124,32.4157117000001,0 -90.2924819,32.4167516,0 -90.29347930000002,32.4178384,0 -90.29384090000001,32.4182946,0 -90.2940849,32.4186268,0 -90.2943293,32.4190303,0 -90.29461130000001,32.4195864,0 -90.29482489999999,32.4201295,0 -90.29497240000001,32.4205761,0 -90.29510470000001,32.4211299,0 -90.2952166,32.421965,0 -90.2952178,32.4220457,0 -90.29522419999999,32.4224823,0 -90.29523179999998,32.4229739,0 -90.29526920000001,32.4281878,0 -90.2952322,32.4342683,0 -90.2952281,32.4353545,0 -90.29520869999999,32.4372701,0 -90.29518779999998,32.439673,0 -90.29518320000001,32.4402015,0 -90.2951728,32.4407117,0 -90.2951286,32.4415014,0 -90.29497840000001,32.4428958,0 -90.29456,32.4447338,0 -90.294026,32.446622,0 -90.29378749999999,32.447278,0 -90.29319739999998,32.4491793,0 -90.29220789999999,32.452323,0 -90.29184560000002,32.453525,0 -90.2916965,32.4541209,0 -90.29156659999998,32.454729,0 -90.2912877,32.4563405000001,0 -90.29109590000002,32.4574335999999,0 -90.29081960000001,32.4590111,0 -90.29069320000001,32.4597153,0 -90.29033779999999,32.4617698,0 -90.29013969999998,32.4625246,0 -90.2898929,32.4632567,0 -90.2896652,32.4637468,0 -90.28939320000002,32.4643274,0 -90.2890977,32.464954,0 -90.288715,32.4657727,0 -90.28836939999999,32.4665426,0 -90.2881783,32.4670193,0 -90.28802930000002,32.4674895,0 -90.287875,32.468124,0 -90.28776350000001,32.4689761,0 -90.28773800000002,32.4695756,0 -90.28780809999999,32.4709466,0 -90.287955,32.4726965,0 -90.2880748,32.4755904,0 -90.28816999999998,32.477197,0 -90.28837799999999,32.478557,0 -90.2885206,32.4793586,0 -90.288639,32.4799503,0 -90.2887448,32.4803492,0 -90.28888840000002,32.4807581,0 -90.28917010000001,32.4813746,0 -90.289844,32.48268,0 -90.2911233,32.4851717,0 -90.29241,32.487724,0 -90.29341669999998,32.4896296,0 -90.29398530000002,32.4907717,0 -90.2958442,32.494819,0 -90.29804179999999,32.499709,0 -90.2985686,32.5008631,0 -90.299086,32.5019988,0 -90.29949120000002,32.502911,0 -90.30026119999999,32.5045987,0 -90.3013646,32.5070277,0 -90.3017698,32.5079241,0 -90.30225299999999,32.5089808,0 -90.30245650000001,32.5094589,0 -90.30271740000001,32.5100139,0 -90.30294499999999,32.5105081,0 -90.3032661,32.5112152,0 -90.3034593,32.5116568,0 -90.303718,32.5122324,0 -90.30395180000001,32.5127318,0 -90.30450980000001,32.5139804,0 -90.30477159999998,32.5145823,0 -90.3049524,32.5149924,0 -90.30519549999998,32.5156048,0 -90.3053795,32.516141,0 -90.3057067,32.5171477,0 -90.3062709,32.5188141,0 -90.30680090000001,32.5204253,0 -90.30717490000002,32.5215476,0 -90.3074586,32.5223808,0 -90.3076331,32.5228591,0 -90.30786380000001,32.5234058,0 -90.30818480000001,32.5240892,0 -90.30849279999998,32.5246566,0 -90.3085471,32.5247522,0 -90.3086941,32.5250048,0 -90.3090775,32.525625,0 -90.30923060000001,32.5258355,0 -90.3092432,32.5258528,0 -90.3095283,32.5262446,0 -90.3098895,32.5267026,0 -90.31030749999999,32.5272327,0 -90.3112364,32.5283048,0 -90.31168080000002,32.5288212,0 -90.31213270000002,32.5293468,0 -90.3128123,32.5301431,0 -90.31284059999999,32.530176,0 -90.31476600000001,32.5324153,0 -90.31600520000001,32.5338639,0 -90.3165494,32.5345001,0 -90.3177183,32.5358693,0 -90.31800830000002,32.5362049,0 -90.3182807,32.5365593,0 -90.3189023,32.5374653000001,0 -90.31925459999999,32.5380318,0 -90.3193237,32.5381591,0 -90.31955689999998,32.5385884,0 -90.31962360000001,32.5387113,0 -90.31993640000002,32.5393575,0 -90.3202065,32.5400095,0 -90.32044339999999,32.5406396,0 -90.3205988,32.5411544,0 -90.3207579,32.5417533,0 -90.3208652,32.542215,0 -90.3209799,32.5428327,0 -90.3210675,32.5435063,0 -90.32111860000001,32.5442634,0 -90.32114330000002,32.5448543,0 -90.32115390000001,32.5462838,0 -90.32118269999999,32.5488385,0 -90.3211845,32.5494768,0 -90.3211919,32.5501942,0 -90.3212018,32.5509845,0 -90.3212059,32.5513176,0 -90.3212072,32.5514181,0 -90.32121050000002,32.551868,0 -90.32121570000001,32.552569,0 -90.32123049999998,32.5539165,0 -90.32123350000001,32.5542907,0 -90.32125120000001,32.5553862,0 -90.3212838,32.5559301,0 -90.3213267,32.5564247,0 -90.32138930000001,32.5568993,0 -90.32146430000002,32.557349,0 -90.3214912,32.5575105,0 -90.321665,32.5582858,0 -90.32183640000001,32.5588774,0 -90.3219407,32.5592192,0 -90.32216080000001,32.5598343,0 -90.3223809,32.5604006,0 -90.32256999999998,32.5608093,0 -90.322823,32.5613268,0 -90.3230514,32.5617666,0 -90.3232891,32.5621639000001,0 -90.32365979999999,32.5627653,0 -90.3240768,32.5633413,0 -90.3244313,32.5638139,0 -90.3247673,32.5642259,0 -90.32492480000001,32.5644211,0 -90.3250453,32.5645539,0 -90.32514949999999,32.5646594,0 -90.3254531,32.5649913,0 -90.3264563,32.5660067,0 -90.3272741,32.5668268,0 -90.32889589999999,32.5684454,0 -90.3310228,32.5705678,0 -90.33193739999999,32.5714845,0 -90.33228320000001,32.5718311,0 -90.33263700000001,32.5721857,0 -90.33559870000002,32.5751541,0 -90.336753,32.5763025,0 -90.33709619999999,32.5766507,0 -90.3371873,32.5767432,0 -90.33732139999998,32.5768792,0 -90.3420713,32.5816201,0 -90.34641139999999,32.5859607,0 -90.3470039,32.5865532,0 -90.34759459999999,32.5871426,0 -90.35044499999998,32.5899865,0 -90.35112760000001,32.5906738,0 -90.35330140000001,32.5928625,0 -90.3539579,32.5935197,0 -90.35527690000002,32.5948400000001,0 -90.3584584,32.5980247,0 -90.3590748,32.5986377,0 -90.3601058,32.5996653,0 -90.36334309999999,32.6028917,0 -90.36471980000002,32.6042938,0 -90.3653193,32.6050595,0 -90.36580069999999,32.6058192,0 -90.36615689999999,32.6065584,0 -90.36645400000002,32.6074075,0 -90.3668704,32.6089739,0 -90.3669996,32.6094599,0 -90.3674874,32.611304,0 -90.3680196,32.6133052,0 -90.36908889999999,32.6173276,0 -90.3692722,32.6180995,0 -90.36935320000001,32.6186726,0 -90.36937500000001,32.6194891,0 -90.3693234,32.620134,0 -90.36907880000001,32.6227979,0 -90.36894529999999,32.6242101,0 -90.368872,32.6250637,0 -90.36883089999999,32.6255058,0 -90.3687824,32.6264932,0 -90.3688172,32.6276987,0 -90.36896050000001,32.628886,0 -90.36914240000002,32.6297007,0 -90.3692623,32.6301723,0 -90.36938050000001,32.6306372,0 -90.36954590000001,32.6311459,0 -90.36984440000001,32.6319215,0 -90.37006259999998,32.6324513999999,0 -90.37041399999998,32.6333043,0 -90.3709927,32.6347006,0 -90.37151,32.6359545999999,0 -90.3720284,32.6372109,0 -90.37239839999999,32.638068,0 -90.3731277,32.639854,0 -90.37328890000001,32.6402563,0 -90.37342179999999,32.6405882,0 -90.3735465,32.6408849,0 -90.3748698,32.6440324,0 -90.37532299999998,32.6451797,0 -90.3755747,32.6460484,0 -90.375748,32.6468982,0 -90.37582690000001,32.6477443,0 -90.37582690000001,32.6486015,0 -90.3757567,32.6493552,0 -90.37570250000002,32.6496531,0 -90.37563749999998,32.6500107,0 -90.3755524,32.6503596,0 -90.3755116,32.6505271,0 -90.37517909999998,32.6516035,0 -90.37449190000001,32.6536678,0 -90.3743205,32.6541989,0 -90.37360870000001,32.6562761,0 -90.3734671,32.6568219,0 -90.37331119999999,32.6576075,0 -90.37324,32.6580922,0 -90.37319109999999,32.6585787,0 -90.3731836,32.6586549,0 -90.3731634,32.6589809,0 -90.3731555,32.6593092,0 -90.3731634,32.6597492,0 -90.37318940000002,32.6604042,0 -90.3733976,32.6625407,0 -90.37368749999999,32.6659861,0 -90.3737776,32.6670619,0 -90.37416570000002,32.6715416,0 -90.3742396,32.6723753,0 -90.3744464,32.6751847,0 -90.37450200000001,32.6760577,0 -90.3744672,32.6777743,0 -90.3744011,32.6786209,0 -90.37416450000002,32.6808941,0 -90.37394519999999,32.6831027,0 -90.3738965,32.6842568,0 -90.37386519999998,32.6857302000001,0 -90.37378529999999,32.6905583,0 -90.3736919,32.6954044,0 -90.37345990000001,32.7016751,0 -90.3733817,32.706717,0 -90.3733744,32.7071854,0 -90.3732813,32.7116167,0 -90.3731815,32.7176949,0 -90.3731794,32.7178235,0 -90.37316629999999,32.7183586,0 -90.37303480000001,32.7237184,0 -90.3729185,32.7302374,0 -90.3727914,32.7366035,0 -90.37266599999998,32.7426875,0 -90.37254599999999,32.7500673,0 -90.372443,32.754859,0 -90.37240039999999,32.7568454999999,0 -90.3723717,32.7600807,0 -90.3723134,32.7625699,0 -90.3722473,32.7659755,0 -90.3721206,32.7726205,0 -90.3720678,32.775392,0 -90.37203460000001,32.7778662,0 -90.37194959999998,32.7842018,0 -90.37186079999999,32.7891049,0 -90.3718003,32.7936319,0 -90.37173089999999,32.7986788,0 -90.3716033,32.8044565,0 -90.37157520000001,32.8059531,0 -90.3715986,32.8073789,0 -90.37165,32.8084001000001,0 -90.3717341,32.8094449,0 -90.37186029999999,32.8104622,0 -90.3719538,32.8110906,0 -90.3720659,32.8116719,0 -90.37223419999999,32.8124182,0 -90.3724304,32.8133097,0 -90.3726454,32.8140992,0 -90.3728801,32.8148627,0 -90.37312540000001,32.8155315,0 -90.37345379999998,32.8163875000001,0 -90.3739511,32.8174086,0 -90.3751457,32.8197497,0 -90.37558129999999,32.8207517,0 -90.37617930000002,32.8220657,0 -90.3765672,32.8229807,0 -90.3768336,32.8236012,0 -90.37700649999999,32.8239782,0 -90.3774221,32.8248865,0 -90.37782190000001,32.8257152,0 -90.3782484,32.8264805,0 -90.3787859,32.8273055,0 -90.3792524,32.8280073,0 -90.38300380000001,32.833473,0 -90.38356800000001,32.834295,0 -90.3839117,32.8348331,0 -90.38426029999999,32.8354096,0 -90.3844697,32.835756,0 -90.38483069999998,32.8364049,0 -90.38517859999999,32.837024,0 -90.3855612,32.837749,0 -90.3860473,32.8387544,0 -90.386324,32.8392952,0 -90.3864959,32.8396313,0 -90.3865634,32.8397632,0 -90.38676010000002,32.8401607999999,0 -90.3869037,32.84047,0 -90.38701589999999,32.8406994,0 -90.38738299999999,32.8414504,0 -90.38762200000001,32.8419316,0 -90.3878584,32.8424108,0 -90.3880357,32.8426574,0 -90.3882866,32.8432051,0 -90.38873870000002,32.8441923,0 -90.38900510000002,32.8448062,0 -90.3892043,32.8453598,0 -90.3894224,32.8459932,0 -90.38968610000001,32.8468673,0 -90.38998100000001,32.84808,0 -90.390193,32.8491277,0 -90.390265,32.8494721,0 -90.3907645,32.8520388,0 -90.39092220000001,32.8529202,0 -90.3910717,32.8537722,0 -90.3912292,32.8546259,0 -90.39131570000001,32.8550178,0 -90.3913335,32.8551061,0 -90.3914269,32.8555679,0 -90.3915628,32.8562399,0 -90.3919791,32.858298,0 -90.3921775,32.8592888,0 -90.39244009999999,32.8603838,0 -90.39277629999999,32.8615119,0 -90.39308100000001,32.862442,0 -90.3933014,32.8631683,0 -90.39335859999998,32.8633569,0 -90.39354230000001,32.8639622,0 -90.3936468,32.8643177,0 -90.39369579999999,32.8645198,0 -90.3937423,32.8647114,0 -90.3937858,32.8648907,0 -90.3938972,32.8654508,0 -90.39398949999999,32.8659144,0 -90.39403530000001,32.8664058,0 -90.39410000000001,32.8672184,0 -90.39413919999998,32.8677114,0 -90.39416079999999,32.8684857,0 -90.39415440000001,32.869113,0 -90.39407040000002,32.8701118,0 -90.39400620000002,32.8706727,0 -90.39385129999999,32.8716194,0 -90.39373729999998,32.8721286,0 -90.393648,32.8724951,0 -90.39350620000002,32.8730202,0 -90.39336590000002,32.8734898,0 -90.39322490000001,32.8739106,0 -90.3930392,32.8744094,0 -90.3927454,32.8751588,0 -90.3925421,32.8756686,0 -90.3918528,32.8773683,0 -90.39100019999999,32.879547,0 -90.3906769,32.8803683,0 -90.3904053,32.881061,0 
			</coordinates>
		</LineString>
		<atom:link rel="app" href="https://www.google.com/earth/about/versions/#earth-pro" title="Google Earth Pro 7.3.6.10201"></atom:link>
	</Placemark>
</Document>
</kml>
