<?xml version="1.0" encoding="UTF-8"?>
<kml xmlns="http://www.opengis.net/kml/2.2" xmlns:gx="http://www.google.com/kml/ext/2.2" xmlns:kml="http://www.opengis.net/kml/2.2" xmlns:atom="http://www.w3.org/2005/Atom">
<Document>
	<name>US.49.N.kml</name>
	<Placemark>
		<name>US.49.N</name>
			<LineString>
				<coordinates>
					-90.4267095,34.0111139,0 -90.42684369999999,34.0117873,0 -90.4270621,34.0128839,0 -90.42725470000001,34.0137447,0 -90.4273779,34.0143811,0 -90.42742200000001,34.0145764,0 -90.42752440000001,34.0150669,0 -90.4276545,34.0156387,0 -90.4277204,34.0159145,0 -90.427781,34.016178,0 -90.4278284,34.0163444,0 -90.427925,34.0166423,0 -90.4280967,34.0170158,0 -90.42827370000001,34.0173715,0 -90.4284668,34.0176694,0 -90.4286438,34.0179407,0 -90.4288316,34.0181719,0 -90.4290408,34.018412,0 -90.4292983,34.0186788,0 -90.4295075,34.0188788,0 -90.42969530000001,34.0190478,0 -90.42984190000001,34.0191614,0 -90.4301995,34.0194257,0 -90.4307091,34.0197459,0 -90.43099890000002,34.0199215,0 -90.43193869999999,34.0204865,0 -90.434196,34.0218578,0 -90.4370026,34.0235618,0 -90.44402560000002,34.0278206,0 -90.4454126,34.0286606,0 -90.4468047,34.0295037,0 -90.4484772,34.0305166999999,0 -90.44965449999999,34.0312296,0 -90.45092579999999,34.0319996,0 -90.451734,34.032482,0 -90.4521678,34.0327566,0 -90.45631400000001,34.035253,0 -90.457936,34.0362499999999,0 -90.45927500000001,34.037125,0 -90.459608,34.0373779999999,0 -90.46018599999999,34.037814,0 -90.46095,34.038467,0 -90.46185600000001,34.039375,0 -90.46249199999998,34.040086,0 -90.463189,34.040942,0 -90.46418900000002,34.042139,0 -90.466694,34.045225,0 -90.46901099999998,34.048053,0 -90.470125,34.049417,0 -90.47153299999998,34.0511420000001,0 -90.47230300000001,34.052081,0 -90.47307499999999,34.053056,0 -90.473642,34.053822,0 -90.47475799999999,34.055433,0 -90.476677,34.05827,0 -90.47722199999998,34.059075,0 -90.47772799999998,34.059811,0 -90.47856399999999,34.061019,0 -90.480661,34.064142,0 -90.48175599999999,34.065728,0 -90.481831,34.065839,0 -90.486631,34.072914,0 -90.487194,34.073744,0 -90.48821700000001,34.075239,0 -90.48905800000001,34.076472,0 -90.490853,34.079122,0 -90.491947,34.080714,0 -90.49211099999999,34.080958,0 -90.493236,34.082589,0 -90.494147,34.083939,0 -90.494378,34.084288,0 -90.49455200000001,34.084552,0 -90.49496699999999,34.085181,0 -90.495867,34.086483,0 -90.496517,34.087442,0 -90.5,34.092567,0 -90.503652,34.097926,0 -90.503806,34.0981499999999,0 -90.506567,34.102219,0 -90.510811,34.108467,0 -90.51102899999999,34.108785,0 -90.51203599999999,34.110256,0 -90.513069,34.111761,0 -90.516514,34.116839,0 -90.517937,34.118917,0 -90.51962199999998,34.121378,0 -90.52064999999999,34.122917,0 -90.52081700000001,34.123169,0 -90.521294,34.123847,0 -90.52154899999999,34.12423,0 -90.522058,34.124994,0 -90.52281399999998,34.126086,0 -90.52524699999999,34.129667,0 -90.52657100000002,34.131608,0 -90.526668,34.131751,0 -90.52805299999999,34.133788,0 -90.52962100000001,34.136096,0 -90.530565,34.137484,0 -90.53087499999999,34.13794,0 -90.531036,34.138178,0 -90.531328,34.138608,0 -90.53152499999999,34.138897,0 -90.53186400000001,34.139393,0 -90.53402800000001,34.142564,0 -90.53657200000001,34.146294,0 -90.53812499999999,34.148569,0 -90.538172,34.148639,0 -90.5415028,34.1535613,0 -90.542564,34.155275,0 -90.544191,34.158257,0 -90.544803,34.159378,0 -90.5462661,34.1621378,0 -90.54754029999998,34.1644206,0 -90.547603,34.164533,0 -90.5487929,34.1667344,0 -90.54899140000001,34.1670953,0 -90.55041,34.169694,0 -90.5507916,34.1703917,0 -90.55078039999999,34.170495,0 -90.55076110000002,34.1705553,0 -90.550721,34.1706178,0 -90.5506772,34.170654,0 -90.5506168,34.1706867,0 -90.550119,34.170883,0 -90.549881,34.170969,0 -90.549539,34.171092,0 -90.549369,34.171139,0 -90.54920799999998,34.171156,0 -90.547989,34.171167,0 -90.54556900000001,34.171125,0 -90.54519199999999,34.171133,0 -90.54458099999999,34.171175,0 -90.54431700000002,34.171217,0 -90.544011,34.171289,0 -90.54356899999999,34.171408,0 -90.543192,34.171544,0 -90.542472,34.17185,0 -90.54194200000001,34.172097,0 -90.54152199999999,34.172247,0 -90.541183,34.172419,0 -90.54052,34.172818,0 -90.540189,34.173017,0 -90.53913900000001,34.173717,0 -90.538617,34.174107,0 -90.53813100000002,34.174469,0 -90.537381,34.175069,0 -90.537115,34.175308,0 -90.536367,34.175981,0 -90.535369,34.176992,0 -90.534606,34.177833,0 -90.53445600000001,34.178021,0 -90.533844,34.178792,0 -90.53329199999999,34.179581,0 -90.532847,34.180258,0 -90.53247799999998,34.180883,0 -90.53206400000001,34.181669,0 -90.531482,34.182903,0 -90.53123600000001,34.183464,0 -90.53099400000001,34.18415,0 -90.53077500000001,34.184844,0 -90.53047499999998,34.185956,0 -90.53043300000002,34.186155,0 -90.530322,34.186681,0 -90.53020600000001,34.187336,0 -90.53009999999999,34.188125,0 -90.53004199999999,34.188858,0 -90.530011,34.189458,0 -90.530011,34.190036,0 -90.530011,34.190136,0 -90.53012199999999,34.193198,0 -90.530148,34.19391,0 -90.530197,34.195275,0 -90.530325,34.197867,0 -90.530367,34.198844,0 -90.530686,34.206925,0 -90.530744,34.208736,0 -90.530807,34.210014,0 -90.53083600000001,34.210594,0 -90.53088540000002,34.2118214,0 -90.5309352,34.2126017,0 -90.530969,34.21376,0 -90.53105900000001,34.215855,0 -90.53106599999998,34.216011,0 -90.53112500000002,34.21738,0 -90.53125199999999,34.220459,0 -90.531423,34.224771,0 -90.53145600000001,34.225603,0 -90.53151099999999,34.226719,0 -90.531547,34.227856,0 -90.531558,34.228581,0 -90.531539,34.229625,0 -90.531514,34.230453,0 -90.53149999999998,34.230908,0 -90.53144399999999,34.231617,0 -90.531436,34.231733,0 -90.53131099999999,34.232672,0 -90.531183,34.233553,0 -90.53099400000001,34.234792,0 -90.53093300000002,34.235119,0 -90.530894,34.235333,0 -90.530644,34.236464,0 -90.530447,34.237242,0 -90.53030800000001,34.237753,0 -90.529906,34.2390830000001,0 -90.52959399999999,34.239994,0 -90.5290076,34.241611,0 -90.527694,34.245233,0 -90.52759160000001,34.2455083,0 -90.526917,34.247322,0 -90.5265859,34.2482624,0 -90.52649179999999,34.2485295,0 -90.526089,34.249639,0 -90.52594360000001,34.2500658,0 -90.52584160000001,34.2503474,0 -90.52498319999999,34.2527165,0 -90.524303,34.254594,0 -90.52342290000001,34.2570079,0 -90.523211,34.257589,0 -90.52311400000001,34.25785,0 -90.522667,34.259075,0 -90.522525,34.259464,0 -90.52233099999999,34.260003,0 -90.522042,34.260794,0 -90.52165410000001,34.2618629,0 -90.521547,34.262158,0 -90.5213,34.262842,0 -90.51991099999999,34.266697,0 -90.519775,34.267069,0 -90.51966899999999,34.267367,0 -90.519164,34.268764,0 -90.5189091,34.2694673,0 -90.518708,34.270022,0 -90.518608,34.270297,0 -90.518394,34.270886,0 -90.51799800000001,34.271977,0 -90.51769399999999,34.272814,0 -90.517526,34.273276,0 -90.51592669999999,34.2776878,0 -90.5157067,34.2782177,0 -90.51549009999999,34.2788612,0 -90.51335799999998,34.284783,0 -90.5132334,34.2851276,0 -90.5113116,34.2903821,0 -90.510739,34.292011,0 -90.50993800000001,34.294336,0 -90.5094359,34.2956865,0 -90.508393,34.2984912,0 -90.50773210000001,34.3001717,0 -90.5074595,34.3009893,0 -90.50558100000001,34.306228,0 -90.50554099999999,34.3063419999999,0 -90.504592,34.308961,0 -90.50380629999998,34.3110931,0 -90.503517,34.311878,0 -90.502064,34.315906,0 -90.501091,34.318588,0 -90.501041,34.318725,0 -90.500336,34.320633,0 -90.500006,34.321519,0 -90.49969099999998,34.322444,0 -90.499089,34.3241030000001,0 -90.4977468,34.327786,0 -90.4958554,34.3330085,0 -90.493978,34.338175,0 -90.49290999999999,34.341118,0 -90.492164,34.343175,0 -90.49128899999999,34.345597,0 -90.490183,34.348644,0 -90.48982200000002,34.349644,0 -90.48954070000001,34.3504194,0 -90.48855,34.35315,0 -90.48788,34.35499,0 -90.487692,34.355508,0 -90.486845,34.357829,0 -90.48644400000001,34.358928,0 -90.485972,34.360222,0 -90.48583100000002,34.360608,0 -90.48567199999998,34.361043,0 -90.484578,34.364057,0 -90.48398599999999,34.365686,0 -90.48221199999999,34.370573,0 -90.48128199999998,34.373119,0 -90.480592,34.375008,0 -90.48052199999999,34.375183,0 -90.479381,34.378302,0 -90.47921199999999,34.378765,0 -90.47885649999999,34.3797519,0 -90.4772016,34.3843125,0 -90.4763602,34.3866226,0 -90.4754174,34.3892139,0 -90.474598,34.3914604,0 -90.4743197,34.3922232,0 -90.47412439999999,34.3927557,0 -90.473677,34.3939929,0 -90.4719841,34.3986559,0 -90.4711911,34.400834,0 -90.47031269999999,34.40325,0 -90.46862520000001,34.4078823,0 -90.466922,34.412558,0 -90.4652392,34.4171987,0 -90.4635739,34.4217669,0 -90.4632095,34.4227724,0 -90.4632028,34.4229816,0 -90.463206,34.4230627,0 -90.46322499999999,34.4231614,0 -90.46325660000001,34.4232494,0 -90.46330020000002,34.4233401,0 -90.4633795,34.4234382,0 -90.4635048,34.4235413,0 -90.46371000000001,34.4236841,0 -90.4664107,34.4243527,0 -90.46685220000001,34.4244821,0 -90.4672315,34.4246162,0 -90.467556,34.4247397,0 -90.4678625,34.4248659,0 -90.4683259,34.4250802,0 -90.46902799999999,34.425439,0 -90.469722,34.425894,0 -90.47053899999999,34.426561,0 -90.47103599999998,34.427072,0 -90.47412830000002,34.4305979,0 -90.47610299999999,34.432839,0 -90.477397,34.434286,0 -90.47886099999999,34.435983,0 -90.481469,34.438948,0 -90.482997,34.440686,0 -90.48401399999999,34.441839,0 -90.485339,34.443363,0 -90.485682,34.443753,0 -90.4859142,34.4440152,0 -90.486154,34.444289,0 -90.4879609,34.4463401,0 -90.4886485,34.44712,0 -90.48867030000001,34.4471447,0 -90.4908964,34.4496797,0 -90.4912688,34.4501039,0 -90.49418,34.4534147,0 -90.49568449999998,34.4551241,0 -90.4968245,34.4564188,0 -90.49741330000001,34.4570363,0 -90.49803489999999,34.4576288,0 -90.498679,34.4581897,0 -90.49935960000001,34.4587313,0 -90.5056175,34.4631445,0 -90.5121935,34.4677859,0 -90.5144904,34.469407,0 -90.51649159999999,34.4708183,0 -90.51664580000001,34.4709271,0 -90.5198072,34.4731587,0 -90.52824749999999,34.4791144,0 -90.52855150000001,34.4793288,0 -90.52900099999999,34.4796459,0 -90.5296073,34.4800735,0 -90.5300671,34.4803978,0 -90.530675,34.480811,0 -90.53079500000001,34.480897,0 -90.531294,34.481253,0 -90.53295799999999,34.482403,0 -90.53355300000001,34.482772,0 -90.53465,34.483394,0 -90.53546590000001,34.4838117,0 -90.53592690000001,34.4840172,0 -90.5364244,34.4842279,0 -90.5369141,34.4844149,0 -90.5373263,34.4845631,0 -90.5377439,34.4847037,0 -90.5382121,34.4848541,0 -90.5387341,34.4850047,0 -90.5392607,34.4851441,0 -90.5419642,34.4857848,0 -90.54607140000002,34.486758,0 -90.5485418,34.4873434,0 -90.55292329999999,34.4883861,0 -90.5632986,34.4908382,0 -90.5669621,34.4917056,0 -90.57078339999998,34.4926103,0 -90.57140120000001,34.4927565,0 -90.5746224,34.4935188,0 -90.5768308,34.4940563,0 -90.5774591,34.4942011,0 -90.5801043,34.4948129,0 -90.5874515,34.4965498,0 -90.5967474,34.4987469,0 -90.597486,34.4989234,0 -90.6011922,34.4997906,0 -90.6016783,34.499978,0 -90.6019977,34.5001141,0 -90.6022201,34.50022,0 -90.6026123,34.5004617,0 -90.6029025,34.5006672,0 -90.60308499999999,34.500831,0 -90.6039964,34.5018637000001,0 -90.6045029,34.5024198,0 -90.60470979999999,34.5025639,0 -90.6048584,34.5026367,0 -90.6049969,34.5026785,0 -90.60512279999999,34.5026948,0 -90.6053544,34.5027358,0 -90.60631979999999,34.5024963,0 -90.6073159,34.5022686,0 -90.60917919999999,34.5018005,0 -90.61008650000001,34.5015331,0 -90.6106314,34.5013964,0 -90.61108709999999,34.5012804,0 -90.61153229999998,34.5011686,0 -90.6120221,34.5010556,0 -90.6124197,34.5009644,0 -90.61301020000001,34.5008789,0 -90.61330229999999,34.5008626,0 -90.6136344,34.5008719,0 -90.61394869999999,34.50091,0 -90.61434030000001,34.5009753,0 -90.61520849999999,34.5011837000001,0 -90.6174546,34.5018702,0 -90.61863700000001,34.502267,0 -90.62024110000002,34.5027502,0 -90.62094089999999,34.5030437,0 -90.62207520000001,34.5036955,0 -90.6224641,34.503911,0 -90.6229982,34.5042309,0 -90.6243554,34.5050426,0 -90.62488490000001,34.5054237,0 -90.62538379999999,34.5058472,0 -90.6256681,34.5060823,0 -90.6260087,34.5063904,0 -90.626761,34.50732,0 -90.627073,34.50768,0 -90.627161,34.507801,0 -90.6273423,34.508052,0 -90.6274861,34.5082511,0 -90.62768739999999,34.5085063,0 -90.62962510000001,34.5109633,0 -90.63255169999999,34.5147255,0 -90.63470710000001,34.5174828,0 -90.634871,34.5176846,0 -90.6350338,34.5178934,0 -90.63535100000001,34.518353,0 -90.63591599999999,34.5193483,0 -90.63602760000002,34.51955,0 -90.63659459999998,34.5205854,0 -90.6372901,34.5218545,0 -90.64004709999999,34.5268284,0 -90.6401146,34.5269539,0 -90.64186819999999,34.5302121,0 -90.6423673,34.5311323,0 -90.6426628,34.5316862999999,0 -90.64294850000002,34.5322409,0 -90.64324679999999,34.5328366,0 -90.6435568,34.5334293,0 -90.64419739999998,34.5346053,0 -90.64462210000002,34.5353798,0 -90.6450136,34.5360938,0 -90.64502779999999,34.5361196999999,0 -90.646017,34.5379333,0 -90.647113,34.5399123,0 -90.6480586,34.5416327,0 -90.64913209999999,34.5435379,0 -90.64937880000001,34.5439812,0 -90.6494483,34.5441115,0 -90.64969269999999,34.5445696,0 -90.65015940000001,34.5453628,0 -90.65053229999999,34.545946,0 -90.6511722,34.5468106,0 -90.6518385,34.5475941,0 -90.65240439999999,34.5481884,0 -90.653013,34.5487723,0 -90.65414520000002,34.5497149,0 -90.65462800000002,34.550075,0 -90.6554072,34.5505985,0 -90.66093639999998,34.5541954,0 -90.66123959999999,34.5543894,0 -90.661686,34.5544774,0 -90.66298860000001,34.5544894,0 -90.66432400000001,34.5544959,0 -90.66458489999999,34.5544972,0 -90.66541669999998,34.5545185,0 -90.66567829999998,34.5545182,0 -90.66710070000001,34.5545228,0 -90.66734730000002,34.5545366,0 -90.6682208,34.5545431,0 -90.66983759999998,34.5545552000001,0 -90.6714956,34.5545884,0 -90.6717495,34.5545957,0 -90.67283140000001,34.5546109,0 -90.67694160000001,34.5546571,0 -90.6789303,34.5546804,0 -90.6805233,34.5546588999999,0 -90.68167080000001,34.554656,0 -90.68444,34.554621,0 -90.68578999999998,34.5546349,0 -90.686228,34.554629,0 -90.68985949999998,34.5546436,0 -90.69145600000002,34.55465,0 -90.692009,34.55465,0 -90.69618370000002,34.554665,0 -90.69812400000001,34.554672,0 -90.69884399999998,34.554672,0 -90.6988705,34.5546721,0 -90.69909500000001,34.554673,0 -90.70061130000001,34.5547251,0 -90.70126020000001,34.5547411,0 -90.70183969999999,34.5547565,0 -90.7028609,34.5547584,0 -90.70441240000001,34.5547722,0 -90.70495099999998,34.554732,0 -90.7054574,34.5546454,0 -90.7056778,34.554618,0 -90.7057832,34.5546003,0 -90.70608300000001,34.5545451,0 -90.70676949999999,34.5544116,0 -90.7073966,34.5543374,0 -90.70805230000002,34.554352,0 -90.7088766,34.5544938,0 -90.70992320000002,34.5547443,0 -90.71033679999998,34.554859,0 -90.7109371,34.5549344,0 -90.711641,34.5549304,0 -90.7118282,34.5549293,0 -90.7128135,34.5549022000001,0 -90.71451829999999,34.5549054,0 -90.7146327,34.5548909,0 -90.71505029999999,34.5548851,0 -90.7154632,34.5548992,0 -90.7190107,34.5548357,0 -90.7227159,34.5547848,0 -90.7256045,34.5547759,0 -90.7270611,34.5547709,0 -90.7279255,34.5547725000001,0 -90.7293647,34.5547828,0 -90.72969529999999,34.5547879,0 -90.7300255,34.5547982,0 -90.7307021,34.5548295,0 -90.7313003,34.5548432,0 -90.7325732,34.5548312,0 -90.7331387,34.5548452,0 -90.7386801,34.5548047,0 -90.73966610000001,34.5548206,0 -90.7432924,34.5548471999999,0 -90.7457751,34.554856,0 -90.74612310000001,34.5548575,0 -90.7506635,34.5549248,0 -90.75195679999999,34.5549285000001,0 -90.7526038,34.5549303,0 -90.75395450000002,34.5549342,0 -90.7542395,34.5549391,0 -90.75446049999999,34.5549469,0 -90.75494999999999,34.5549723,0 -90.75536220000001,34.5549861,0 -90.7556136,34.5549894999999,0 -90.75617939999999,34.5549938999999,0 -90.75732660000001,34.5549987,0 -90.75809820000001,34.5549974,0 -90.7596753,34.5549444,0 -90.7624541,34.5549444,0 -90.7631166,34.5549597,0 -90.76321590000001,34.554962,0 -90.7667964,34.5550622,0 -90.76824500000001,34.5550841,0 -90.76971880000001,34.5550857,0 -90.7730006,34.5551034,0 -90.77511869999999,34.5550465,0 -90.7753065,34.5550415,0 -90.7759617,34.5550239,0 -90.77604239999999,34.5550231,0 -90.77685219999999,34.555015,0 -90.7802962,34.5551299,0 -90.78380450000002,34.5551653,0 -90.78564979999999,34.5551741,0 -90.79043489999999,34.5551918,0 -90.79428659999999,34.5552271,0 -90.7946943,34.5552359,0 -90.7988678,34.5552448,0 -90.8034919,34.5552713,0 -90.8087965,34.5553025,0 -90.8108354,34.5553144999999,0 -90.81699949999999,34.5553508,0 -90.8212159,34.555395,0 -90.82758889999998,34.5554215,0 -90.82853420000001,34.5554313,0 -90.8301127,34.5554477000001,0 -90.8391116,34.5554834,0 -90.84539869999999,34.5556424,0 -90.84621439999999,34.5556578,0 -90.84914310000002,34.5557131,0 -90.851085,34.5557308,0 -90.8515359,34.555737,0 -90.8542715,34.5557749,0 -90.85561259999999,34.555828,0 -90.8581473,34.5558191,0 -90.86127669999999,34.5558083,0 -90.86580499999999,34.5557926,0 -90.874104,34.555747,0 -90.875114,34.555754,0 -90.88009180000002,34.555717,0 -90.88220540000002,34.5556949,0 -90.886116,34.5556949,0 -90.890958,34.555805,0 -90.89197799999998,34.55583,0 -90.89240700000001,34.555841,0 -90.893187,34.55586,0 -90.89383100000001,34.555876,0 -90.89579499999999,34.555926,0 -90.89775100000001,34.555976,0 -90.90126720000001,34.5560946,0 -90.9018059,34.556147,0 -90.9023452,34.5562203,0 -90.9031561,34.5563868,0 -90.9041098,34.556678,0 -90.90473380000002,34.5569207,0 -90.90510169999999,34.55708,0 -90.9055517,34.5573014,0 -90.90731839999999,34.5583874,0 -90.9079907,34.5587703,0 -90.9084795,34.5590166,0 -90.90882670000001,34.5591777,0 -90.9091737,34.5593314,0 -90.90972300000001,34.5595403,0 -90.91022589999999,34.5597209,0 -90.9105313,34.5598153,0 -90.9114447,34.5600618,0 -90.91192040000001,34.5601555,0 -90.9124832,34.5602553,0 -90.91309989999999,34.5603381,0 -90.9133435,34.5603618,0 -90.91373660000001,34.5604,0 -90.91415989999999,34.5604284,0 -90.91441560000001,34.5604456,0 -90.9145515,34.5604547000001,0 -90.9146346,34.5604603000001,0 -90.9154516,34.56051,0 -90.9165124,34.5605811,0 -90.9171197,34.5606143999999,0 -90.9177311,34.5606465,0 -90.91811850000001,34.5606772,0 -90.9187143,34.5607198,0 -90.923354,34.5609798,0 -90.92419,34.5610427,0 -90.924615,34.5611036,0 -90.92485360000001,34.5611453,0 -90.9250816,34.5611843,0 -90.92530840000001,34.5612273,0 -90.9254195,34.5612484,0 -90.9257635,34.5613257,0 -90.9261169,34.5614221,0 -90.92644869999998,34.5615218,0 -90.92713449999999,34.5617712,0 -90.92768119999998,34.5620133,0 -90.92804,34.56218,0 -90.9287138,34.5625534,0 -90.9293009,34.562949,0 -90.92980900000001,34.563282,0 -90.92989530000001,34.5633468,0 -90.9307493,34.563946,0 -90.9324477,34.5651182,0 -90.9336405,34.5659421,0 -90.9340692,34.5663103,0 -90.9343915,34.5666396,0 -90.9347327,34.567099,0 -90.93683660000001,34.5706302,0 -90.93722230000002,34.5711194,0 -90.93759489999998,34.5715615,0 -90.9378207,34.5718471,0 -90.93854199999998,34.5726868,0 -90.93924680000001,34.573511,0 -90.94005100000001,34.5744406,0 -90.94049569999999,34.5748191,0 -90.94115309999999,34.5752966,0 -90.9416713,34.5756515,0 -90.9428777,34.5764708,0 -90.9436298,34.5769092,0 -90.94436129999998,34.5772341,0 -90.9451356,34.5775057,0 -90.94587320000001,34.5776773,0 -90.94593569999999,34.5776906,0 -90.9465132,34.5777802,0 -90.9470803,34.5778203,0 -90.9480531,34.5778513,0 -90.94993379999998,34.5778593,0 -90.9506773,34.577882,0 -90.95170139999999,34.5779211,0 -90.9538273,34.5780386,0 -90.95775140000002,34.5782422,0 -90.9584871,34.5782919000001,0 -90.9590196,34.5783601,0 -90.9604033,34.5786547,0 -90.9615859,34.5789107,0 -90.9620899,34.5790383,0 -90.96246050000001,34.5791701,0 -90.9626416,34.5792416,0 -90.96279229999999,34.5793071,0 -90.9629527,34.5793812,0 -90.96310649999999,34.5794605,0 -90.96322570000001,34.5795244,0 -90.963371,34.5796138,0 -90.96351129999999,34.5797037,0 -90.96363769999999,34.5797926,0 -90.96376430000001,34.579887,0 -90.96389460000002,34.5799935,0 -90.964032,34.5801146,0 -90.9641731,34.5802448,0 -90.9644536,34.5805225,0 -90.9660829,34.5821697,0 -90.96715539999998,34.5832529,0 -90.9680311,34.5841448,0 -90.9682639,34.5843736,0 -90.9684405,34.5845359,0 -90.9686203,34.584693,0 -90.9688081,34.5848511,0 -90.9689621,34.5849736,0 -90.96914580000001,34.5851018,0 -90.96932959999998,34.5852268,0 -90.9695102,34.5853432,0 -90.9697046,34.5854561,0 -90.9702314,34.5857579,0 -90.97065360000001,34.5859979000001,0 -90.9709466,34.5861771,0 -90.97111959999999,34.5862876,0 -90.97128429999999,34.5864002,0 -90.97147320000001,34.5865364,0 -90.9716509,34.5866752,0 -90.97186660000001,34.5868532,0 -90.9720488,34.5870166,0 -90.97222120000001,34.5871854,0 -90.97239999999999,34.5873663,0 -90.97272340000002,34.5877078,0 -90.9728904,34.5878795,0 -90.97306159999999,34.5880372,0 -90.9732336,34.588183,0 -90.973449,34.588348,0 -90.9736486,34.5884791,0 -90.9738711,34.5886089,0 -90.97407060000002,34.5887148,0 -90.9742444,34.5887988,0 -90.9744255,34.5888748,0 -90.97465510000001,34.5889628,0 -90.97493420000001,34.5890533,0 -90.97520280000001,34.5891251,0 -90.9754738,34.5891828,0 -90.97575119999999,34.5892282,0 -90.97594170000001,34.5892499,0 -90.97611879999999,34.5892656,0 -90.9763427,34.589278,0 -90.976556,34.5892806,0 -90.9767705,34.5892753,0 -90.97700469999999,34.5892605,0 -90.9772919,34.5892344,0 -90.9778709,34.5891772,0 -90.97852899999999,34.5891089,0 -90.9790029,34.5890606000001,0 -90.97938550000001,34.5890287,0 -90.979956,34.5889965,0 -90.98025989999999,34.5889853999999,0 -90.9805391,34.5889791,0 -90.98082479999998,34.5889845,0 -90.98154630000001,34.589011,0 -90.98211500000001,34.5890662,0 -90.98251999999999,34.5891214,0 -90.98384900000001,34.589374,0 -90.98470330000001,34.5896447,0 -90.9852853,34.5898677,0 -90.98616509999999,34.5902321,0 -90.98817940000001,34.5911462,0 -90.99061489999998,34.5922701,0 -90.99172,34.5927625,0 -90.9922215,34.5929723,0 -90.9926105,34.5930893,0 -90.99315230000001,34.5931975,0 -90.99365119999999,34.5932659,0 -90.9941527,34.5932748,0 -90.99589880000001,34.5932725,0 -90.9973097,34.5932526999999,0 -90.99788100000001,34.593235,0 -90.99859180000001,34.5931466999999,0 -91.000244,34.592842,0 -91.0011073,34.5926731,0 -91.00169510000001,34.5925903,0 -91.0023817,34.5925284,0 -91.00285649999999,34.5924997,0 -91.00405539999998,34.5924534,0 -91.00445240000001,34.5924467,0 -91.0049298,34.59246,0 -91.00542609999999,34.592513,0 -91.0061606,34.5926200999999,0 -91.00786650000002,34.592991,0 -91.0090574,34.5932648,0 -91.0100123,34.5934061,0 -91.0105303,34.5934381,0 -91.0156775,34.5935,0 -91.01734899999998,34.593507,0 -91.0182476,34.5935128,0 -91.01872880000001,34.5935186,0 -91.01910300000002,34.5935278,0 -91.019425,34.5935389,0 -91.019741,34.593554,0 -91.02048859999999,34.593595,0 -91.02123500000002,34.5936369,0 -91.0219833,34.5936854,0 -91.02426050000001,34.593829,0 -91.0248935,34.5939062,0 -91.02547819999999,34.5940299,0 -91.02612730000001,34.5942131,0 -91.02657800000001,34.594392,0 -91.02703930000001,34.5945885,0 -91.0275972,34.5949042,0 -91.02832639999998,34.5954198,0 -91.02939959999999,34.5963703,0 -91.0330233,34.5996313,0 -91.0335503,34.6000269,0 -91.0337832,34.6001794,0 -91.03400660000001,34.6003201,0 -91.0341809,34.6004194,0 -91.0343653,34.6005158,0 -91.03453439999998,34.6005995,0 -91.0347237,34.6006855,0 -91.03493219999999,34.6007725,0 -91.0351569,34.6008614,0 -91.03539189999999,34.6009444,0 -91.03557729999999,34.6010061999999,0 -91.03579200000001,34.6010702999999,0 -91.0360014,34.6011244,0 -91.036193,34.6011699,0 -91.0364122,34.6012145,0 -91.0366358,34.601254,0 -91.03683719999999,34.6012838,0 -91.0370322,34.6013081999999,0 -91.0372369,34.6013284,0 -91.03746910000001,34.6013466,0 -91.0377031,34.6013571,0 -91.03834380000002,34.6013689,0 -91.04084400000001,34.6014028,0 -91.04334180000001,34.601439,0 -91.04501550000002,34.6014683,0 -91.0466892,34.6014925,0 -91.0474617,34.6015053,0 -91.04834299999999,34.6015178,0 -91.04901490000002,34.6015275,0 -91.04931380000001,34.6015358,0 -91.0494683,34.6015435,0 -91.0496328,34.6015571,0 -91.04980560000001,34.6015764,0 -91.049967,34.6015981,0 -91.05013119999998,34.6016255,0 -91.0503087,34.601661,0 -91.0504837,34.6017015,0 -91.0506614,34.6017493,0 -91.05082470000002,34.6017995,0 -91.05100110000001,34.6018572,0 -91.0511401,34.601907,0 -91.05128980000001,34.6019707,0 -91.0514168,34.6020287,0 -91.0515418,34.6020891,0 -91.05170990000002,34.6021757,0 -91.05189729999999,34.6022806,0 -91.05206420000002,34.602384,0 -91.05223599999999,34.6025005,0 -91.05238610000001,34.6026156,0 -91.0525335,34.602737,0 -91.0526559,34.6028443,0 -91.0528642,34.6030393,0 -91.05304289999999,34.6032158,0 -91.0532195,34.6033936999999,0 -91.0539958,34.6041905,0 -91.0548671,34.605059,0 -91.05574959999998,34.6059405,0 -91.0566627,34.6068467000001,0 -91.0573255,34.6075083,0 -91.0582131,34.6083945,0 -91.05882449999999,34.6089997999999,0 -91.0596817,34.6098536,0 -91.06038940000002,34.6105572,0 -91.06128390000001,34.6114503,0 -91.06236839999998,34.6125294,0 -91.06325439999999,34.6134095,0 -91.0641619,34.6143131,0 -91.06550999999999,34.6156428,0 -91.0668606,34.6169726,0 -91.06731199999999,34.6174209,0 -91.0674631,34.6175689,0 -91.0676066,34.6177114,0 -91.06776740000001,34.6178738,0 -91.0679253,34.6180352,0 -91.06808080000002,34.6182046,0 -91.0682207,34.61837,0 -91.0683499,34.6185386,0 -91.0684622,34.6187026,0 -91.06856409999999,34.6188769,0 -91.0686607,34.6190642,0 -91.0687432,34.6192508,0 -91.06881780000001,34.6194444,0 -91.06887020000001,34.6196238,0 -91.0689165,34.6198178,0 -91.0689532,34.6200137,0 -91.06897610000001,34.620196,0 -91.06899199999998,34.6204084,0 -91.06899490000001,34.6205948,0 -91.06898189999998,34.6209482,0 -91.06894149999998,34.6216403,0 -91.0688624,34.6229436,0 -91.0687921,34.6241526,0 -91.06872610000001,34.6252546,0 -91.06867320000001,34.6261999,0 -91.0686309,34.6270185,0 -91.0686237,34.6274826,0 -91.06862420000002,34.6279479,0 -91.0686268,34.6289503,0 -91.0686334,34.630089,0 -91.06863840000001,34.631322,0 -91.06864330000001,34.6320095,0 -91.06864830000001,34.6322209,0 -91.06865979999999,34.632452,0 -91.06866979999998,34.6325786,0 -91.068684,34.6327368,0 -91.06870680000002,34.6329209,0 -91.0687392,34.6331052,0 -91.06878039999998,34.6332989,0 -91.0688308,34.6334999,0 -91.068889,34.6336974,0 -91.0689687,34.6339336,0 -91.06905740000001,34.6341532,0 -91.06914279999999,34.6343502,0 -91.0692396,34.6345534,0 -91.0693558,34.6347735,0 -91.06948010000001,34.6349804,0 -91.06959809999999,34.6351652,0 -91.0697224,34.6353428,0 -91.0698802,34.6355522,0 -91.070052,34.6357606,0 -91.07027669999999,34.6360111,0 -91.0704456,34.6361817,0 -91.07062590000001,34.6363555,0 -91.07085959999999,34.6365563,0 -91.07111869999999,34.6367591,0 -91.07137179999999,34.6369434,0 -91.07162229999999,34.63711,0 -91.0718287,34.6372416,0 -91.0720199,34.6373502,0 -91.07274299999999,34.6377249,0 -91.0738707,34.6382903,0 -91.0745654,34.6386765,0 -91.07509909999999,34.6390076,0 -91.07579920000001,34.6394555,0 -91.0762122,34.6397534,0 -91.07718319999999,34.6405258,0 -91.07777400000002,34.6409928,0 -91.08051760000001,34.6432446,0 -91.0832625,34.6454985,0 -91.0836929,34.6458682,0 -91.0837787,34.6459443,0 -91.084087,34.646214,0 -91.0844144,34.6465257,0 -91.08486240000001,34.6469957,0 -91.08533979999999,34.6475297,0 -91.0858199,34.6481254999999,0 -91.08682570000002,34.6494428,0 -91.09194799999999,34.656413,0 -91.0940999,34.6593097,0 -91.09434460000001,34.6596504,0 -91.094572,34.6599482,0 -91.0946735,34.6600727,0 -91.09478160000002,34.6601918,0 -91.09493970000001,34.6603622,0 -91.0951194,34.6605389,0 -91.09531600000001,34.6607156,0 -91.09548310000001,34.660852,0 -91.09564840000002,34.6609771,0 -91.09581729999999,34.661092,0 -91.09603249999999,34.6612341,0 -91.0962912,34.661388,0 -91.09650310000001,34.6615049,0 -91.099868,34.6633387,0 -91.1027181,34.6648803,0 -91.10357740000001,34.6653422,0 -91.10406,34.6656018,0 -91.1042537,34.6657059,0 -91.10712739999998,34.6672540000001,0 -91.1085033,34.6679974,0 -91.10975329999999,34.6686615,0 -91.11368,34.670777,0 -91.11644,34.6722682,0 -91.117352,34.6727667,0 -91.1237678,34.6762233,0 -91.12510540000001,34.6769338,0 -91.125766,34.6773079,0 -91.12616239999998,34.6775747999999,0 -91.1265855,34.6778787,0 -91.12705720000001,34.6782776,0 -91.1272654,34.6784765,0 -91.1276158,34.6788264,0 -91.1281159,34.6793546,0 -91.12872140000002,34.6799914,0 -91.12941379999998,34.6807217,0 -91.130031,34.6813846,0 -91.1308204,34.6822181,0 -91.13145590000001,34.6828879,0 -91.13198130000001,34.683447,0 -91.1321872,34.6836544,0 -91.1399146,34.6918609,0 -91.1402295,34.6921925,0 -91.140559,34.692546,0 -91.141353,34.693374,0 -91.14369480000001,34.6956652,0 -91.1454004,34.6971332,0 -91.14551640000001,34.6972413,0 -91.14591030000001,34.6975897,0 -91.14620379999999,34.6979142,0 -91.14639850000002,34.6981439,0 -91.14694769999998,34.6987766,0 -91.14746429999998,34.6994467,0 -91.1477155,34.6998899,0 -91.14793410000001,34.7003652,0 -91.1481902,34.7010459,0 -91.1484361,34.7016831,0 -91.148538,34.7021417,0 -91.148597,34.7026974,0 -91.14860770000001,34.7035971,0 -91.1485514,34.7058881,0 -91.148546,34.706113,0 -91.148546,34.7064548,0 -91.14835600000001,34.716182,0 -91.14827510000001,34.7205038,0 -91.148259,34.7217648,0 -91.14823489999999,34.7225629,0 -91.14817050000001,34.7236211,0 -91.147964,34.7268661000001,0 -91.1478522,34.7285683,0 -91.147599,34.732622,0 -91.14751959999998,34.7340703,0 -91.14743290000001,34.7353384,0 -91.147178,34.739008,0 -91.14689799999999,34.743634,0 -91.1466712,34.7470806,0 -91.1466551,34.7477528,0 -91.14669799999999,34.748231,0 -91.14674630000002,34.7486079,0 -91.14687499999999,34.7491875,0 -91.14710529999999,34.7498655999999,0 -91.1471415,34.7499527,0 -91.1473149,34.7503864,0 -91.14763140000001,34.7509968,0 -91.14802299999999,34.7515786,0 -91.1483315,34.7519731,0 -91.1486372,34.7523257,0 -91.1491592,34.7528775,0 -91.1537561,34.757692,0 -91.1540873,34.7580385,0 -91.15461759999999,34.7585957,0 -91.1551396,34.7591548,0 -91.1554403,34.7594915,0 -91.15572649999999,34.7598359,0 -91.15600430000002,34.7601886,0 -91.15626829999999,34.7605439,0 -91.1591411,34.7646946,0 -91.1595741,34.7653196,0 -91.16016000000002,34.7661664,0 -91.1620697,34.7689426,0 -91.16269200000001,34.7698328,0 -91.163207,34.7705356,0 -91.164316,34.771943,0 -91.16586510000002,34.7738251,0 -91.1661708,34.7741732,0 -91.16648820000002,34.7744952,0 -91.1673358,34.7752972,0 -91.16933849999999,34.7772686,0 -91.1701467,34.7780379,0 -91.1704865,34.7783459,0 -91.17083519999998,34.7786213,0 -91.17132869999999,34.7789693999999,0 -91.17188999999999,34.779316,0 -91.1726216,34.7796721000001,0 -91.17762420000001,34.7818184,0 -91.177874,34.7819365,0 -91.1781196,34.782065,0 -91.17847970000001,34.7822641,0 -91.1801237,34.783183,0 -91.18079420000001,34.783567,0 -91.1822131,34.7843623,0 -91.18286759999999,34.7847544,0 -91.18330210000001,34.7850716,0 -91.18367230000001,34.785358,0 -91.1840746,34.7857258,0 -91.184493,34.7861554,0 -91.1848238,34.7865325,0 -91.1852521,34.787096,0 -91.18550689999998,34.787519,0 -91.18569460000001,34.7878604,0 -91.18590649999999,34.7883164,0 -91.18605669999999,34.7886953,0 -91.1861542,34.7890261,0 -91.18628470000002,34.7895345,0 -91.18655110000002,34.7907354,0 -91.18692850000001,34.7924421,0 -91.1872999,34.7939676,0 -91.1874255,34.794479,0 -91.18759009999998,34.7950427,0 -91.18786729999999,34.7960039,0 -91.18843459999999,34.7979545,0 -91.1887411,34.7990148,0 -91.18889919999999,34.7996065,0 -91.1890085,34.8001353000001,0 -91.18905410000002,34.8004392,0 -91.1890846,34.8008961,0 -91.18911879999999,34.8022482,0 -91.18916900000001,34.8051049,0 -91.18918960000002,34.8067959,0 -91.1891797,34.8075362,0 -91.1891332,34.8080996,0 -91.18904740000001,34.8087889,0 -91.18890519999998,34.8096082,0 -91.1884853,34.8122326,0 -91.1884266,34.8128086,0 -91.1884082,34.8130971,0 -91.18839269999998,34.813487,0 -91.18838989999999,34.8138816,0 -91.1884104,34.814583,0 -91.1884383,34.8149204,0 -91.1884788,34.8153558,0 -91.1885233,34.8156892,0 -91.18857829999999,34.8160214,0 -91.18868740000001,34.8165954,0 -91.1889534,34.8178673,0 -91.1892313,34.8192002,0 -91.18939899999999,34.8199991,0 -91.1895949,34.8209453,0 -91.1897446,34.82166,0 -91.18999030000001,34.8228548000001,0 -91.190057,34.8231851,0 -91.1900952,34.8234085,0 -91.1901256,34.823633,0 -91.19015779999999,34.8239919,0 -91.19015520000002,34.8247692,0 -91.1901148,34.8263037,0 -91.19007999999998,34.8275919,0 -91.1900425,34.8285783,0 -91.1900179,34.8297077,0 -91.1899835,34.8308372,0 -91.1899633,34.8323711,0 -91.18992590000001,34.8339044,0 -91.189891,34.8353950999999,0 -91.18987009999998,34.8369428,0 -91.189851,34.8384237,0 -91.1898509,34.8385031,0 -91.18983159999999,34.8397416,0 -91.1897955,34.8410065,0 -91.189745,34.8423337,0 -91.18969800000002,34.8436792,0 -91.1896629,34.8446439,0 -91.18962649999999,34.8456241,0 -91.18956729999999,34.8473054,0 -91.18953560000001,34.8483782,0 -91.1895251,34.8511001,0 -91.1895191,34.8538213,0 -91.1895133,34.8547267,0 -91.1895033,34.8558373,0 -91.18950039999999,34.8569513,0 -91.18949790000001,34.8578106,0 -91.189503,34.8583039,0 -91.1895109,34.8585002,0 -91.18952180000001,34.8586336,0 -91.18953379999999,34.8587453,0 -91.1895478,34.8588555,0 -91.1895639,34.8589488,0 -91.189583,34.8590422,0 -91.18962380000001,34.8592231,0 -91.1896689,34.8593909,0 -91.1897214,34.8595655,0 -91.18977700000002,34.8597267,0 -91.18983100000001,34.859864,0 -91.1899312,34.8600894,0 -91.19001969999999,34.8602642,0 -91.19011820000001,34.8604443,0 -91.1902206,34.8606147,0 -91.1903568,34.8608188,0 -91.19046960000001,34.8609718,0 -91.19059350000001,34.8611294,0 -91.19072130000001,34.8612812,0 -91.1908629,34.8614362,0 -91.19101999999998,34.8615936,0 -91.1911858,34.8617472,0 -91.19133989999999,34.8618804,0 -91.19152249999999,34.8620235,0 -91.1916964,34.8621526,0 -91.19186449999999,34.8622693,0 -91.19200530000002,34.8623609,0 -91.19215730000001,34.8624514,0 -91.19230229999999,34.8625334,0 -91.19245720000002,34.8626182,0 -91.1926193,34.8626992,0 -91.19278920000001,34.8627809,0 -91.19297549999999,34.8628625,0 -91.19336269999999,34.8630231,0 -91.1948075,34.8636205,0 -91.19651650000002,34.8643287,0 -91.19775629999999,34.8648405,0 -91.19909149999999,34.8653924,0 -91.1997909,34.86568,0 -91.20168580000001,34.8664615,0 -91.20358880000001,34.8672509,0 -91.20385330000001,34.8673254,0 -91.2040303,34.8673999,0 -91.2041177,34.8674442,0 -91.2041542,34.8674705000001,0 -91.2041923,34.8675062,0 -91.2042187,34.8675433,0 -91.20423100000001,34.8675731,0 -91.20423689999998,34.8676069,0 -91.20336589999998,34.8682055,0 -91.2016751,34.8693581,0 -91.200853,34.8699169,0 -91.2006598,34.8700553,0 -91.2002387,34.8703351,0 -91.19949560000001,34.8708413,0 -91.19880780000001,34.8713106,0 -91.1974759,34.8722123,0 -91.19696450000001,34.8725613,0 -91.1965792,34.8728236,0 -91.19628590000002,34.8730351,0 -91.19611280000001,34.8731734,0 -91.19598070000001,34.8732905,0 -91.1958812,34.8733838,0 -91.19573290000001,34.8735322,0 -91.1955937,34.8736874,0 -91.1954269,34.8738907,0 -91.19537339999999,34.8739584,0 -91.19521969999998,34.8741888,0 -91.19508549999999,34.8744287,0 -91.1950185,34.8745685,0 -91.19495499999999,34.8747149,0 -91.19491170000001,34.8748255,0 -91.1948448,34.8750184,0 -91.1947996,34.8751894,0 -91.1947595,34.8754301,0 -91.19473240000002,34.8756601,0 -91.1947218,34.8757918000001,0 -91.19472210000001,34.8761836,0 -91.1947098,34.8765163,0 -91.19470149999999,34.8778,0 -91.1946935,34.8791431,0 -91.19467170000001,34.8804675,0 -91.1946636,34.8817859,0 -91.1946353,34.8830193,0 -91.19463310000002,34.8831161,0 -91.19462890000001,34.8843974,0 -91.1946286,34.8844977,0 -91.1946166,34.885748,0 -91.1946159,34.8858212,0 -91.19460919999999,34.8864536,0 -91.19460870000002,34.8865136,0 -91.1945881,34.8871912,0 -91.1945863,34.8872821,0 -91.19457699999998,34.8877578,0 -91.1945769,34.8880833,0 -91.1945757,34.8881869,0 -91.1945681,34.8885054,0 -91.1945577,34.8887711,0 -91.19455160000001,34.8894538,0 -91.1945508,34.8895559,0 -91.1945407,34.8907756,0 -91.1945084,34.8921097,0 -91.19446670000002,34.8934761,0 -91.1944483,34.8945262,0 -91.1943995,34.896569,0 -91.19439710000002,34.8967575,0 -91.19439110000002,34.8972256,0 -91.194373,34.898198,0 -91.19435960000001,34.8988553,0 -91.1943641,34.8990546,0 -91.19437560000001,34.8991961,0 -91.1943986,34.8993665,0 -91.19444990000001,34.8995921,0 -91.1944756,34.8996765,0 -91.19448850000001,34.8997192,0 -91.1945803,34.8999482,0 -91.194647,34.9000868,0 -91.19472160000001,34.900231,0 -91.1947955,34.9003546,0 -91.19486999999999,34.900464,0 -91.1949518,34.9005762,0 -91.1950247,34.9006652,0 -91.19512640000001,34.900782,0 -91.19522040000001,34.9008764,0 -91.1955268,34.9011754,0 -91.19606520000001,34.9016825,0 -91.19669450000001,34.9022655,0 -91.1969699,34.9025313,0 -91.19718070000002,34.9027279,0 -91.197307,34.9028494,0 -91.19745330000001,34.9029871,0 -91.1975544,34.9030978,0 -91.1976422,34.9032131,0 -91.1977199,34.9033276,0 -91.1977809,34.9034108,0 -91.19788250000001,34.9035839,0 -91.19795980000001,34.9037238,0 -91.19801750000001,34.9038494,0 -91.1980624,34.9039563,0 -91.1980982,34.9040592,0 -91.1981249,34.9041372,0 -91.19815500000001,34.9042496,0 -91.1981928,34.9044583,0 -91.1982189,34.9046535,0 -91.198229,34.9048101,0 -91.1982312,34.9048494,0 -91.19823170000001,34.9049103,0 -91.19821469999999,34.9050941,0 -91.19819490000002,34.9052577,0 -91.1981713,34.9054175,0 -91.19815250000001,34.9055148,0 -91.1981268,34.9056234,0 -91.19808550000002,34.9057648,0 -91.19790230000001,34.9062621,0 -91.1978805,34.906321,0 -91.1977821,34.9065875,0 -91.1977526,34.9066675,0 -91.1977289,34.9067226,0 -91.19756590000001,34.9071009999999,0 -91.1974615,34.9073367,0 -91.1972998,34.9077289,0 -91.19714659999998,34.90813,0 -91.1970638,34.9083647,0 -91.19674190000002,34.9092533,0 -91.19656809999998,34.9097659,0 -91.19622510000001,34.9109247,0 -91.19615249999998,34.9111374,0 -91.1961234,34.9112161,0 -91.19602879999999,34.9114901,0 -91.195937,34.9117464,0 -91.19574060000001,34.9122952,0 -91.19551010000002,34.9129033,0 -91.19543710000001,34.9131095,0 -91.19539700000001,34.913223,0 -91.19538400000002,34.913262,0 -91.195381,34.913269,0 -91.1951724,34.9138752,0 -91.19480300000001,34.914925,0 -91.19415789999998,34.916775,0 -91.19386599999999,34.917612,0 -91.193732,34.917995,0 -91.19348500000001,34.918702,0 -91.19316600000001,34.9195212,0 -91.1928243,34.9204755,0 -91.19200520000001,34.9227612,0 -91.19142560000002,34.9244049,0 -91.19141980000001,34.9244214,0 -91.1911588,34.9251865,0 -91.19106859999999,34.9255315,0 -91.19102779999999,34.9257266,0 -91.19099660000001,34.925942,0 -91.19097850000001,34.9261032,0 -91.19096960000002,34.9264063,0 -91.1908926,34.9288169,0 -91.1907598,34.9299437,0 -91.19048380000001,34.9311437,0 -91.190078,34.9324118,0 -91.1897749,34.9331309,0 -91.18904990000001,34.9346354,0 -91.1884958,34.9356636,0 -91.1863937,34.9396795,0 -91.18606029999999,34.9402703,0 -91.18543,34.9415787,0 -91.1849526,34.942912,0 -91.18445339999998,34.9442585,0 -91.183527,34.9468,0 -91.18329649999998,34.9474774,0 -91.1820286,34.9510796,0 -91.1812412,34.9533253,0 -91.180699,34.954896,0 -91.18065690000002,34.9549767999999,0 -91.179873,34.9571773,0 -91.17817479999999,34.9619538,0 -91.1760221,34.9679793,0 -91.1758684,34.968391,0 -91.1757386,34.9686809,0 -91.1755919,34.9689319,0 -91.1754145,34.9691682,0 -91.1753006,34.9693128,0 -91.17500250000001,34.9696543,0 -91.1740413,34.9707406,0 -91.1720287,34.9730087,0 -91.1705673,34.9746759,0 -91.16681610000001,34.9790186,0 -91.1638992,34.9822974,0 -91.1636287,34.9826523,0 -91.16344789999999,34.9829669,0 -91.1630691,34.9836717,0 -91.16113180000001,34.9873229,0 -91.15971339999999,34.9899569,0 -91.1585115,34.9921845,0 -91.1579093,34.9933228,0 -91.1563361,34.996257,0 -91.15506949999998,34.9986215,0 -91.15386239999999,35.0008326,0 -91.15302789999998,35.0023964,0 -91.1521293,35.0040613,0 -91.15123869999999,35.0057144,0 -91.1490733,35.0097303,0 -91.1473148,35.0130054,0 -91.14518099999999,35.016982,0 -91.14367140000002,35.0197877,0 -91.1422517,35.022434,0 -91.13955779999999,35.0274484,0 -91.1375075,35.0312767,0 -91.13509640000001,35.0357663,0 -91.1336775,35.0384268,0 -91.1336058,35.0385589999999,0 -91.1330052,35.0396944,0 -91.12971479999999,35.0458296,0 -91.1291362,35.0469089,0 -91.12855829999998,35.047972,0 -91.12823179999999,35.048581,0 -91.12799459999999,35.0490659,0 -91.12777699999999,35.0496018,0 -91.1275682,35.0501173,0 -91.1272079,35.0508592,0 -91.12673700000001,35.0517368,0 -91.12623929999999,35.0526422,0 -91.12575409999999,35.0535491,0 -91.12523849999998,35.0544501,0 -91.1249157,35.0549509,0 -91.1245928,35.055462,0 -91.1241165,35.0563382,0 -91.1236688,35.057172,0 -91.12223619999999,35.0598339,0 -91.1219739,35.0603379,0 -91.1208098,35.0625203,0 -91.11770900000002,35.0682986,0 -91.11704760000001,35.0695212999999,0 -91.11422080000001,35.0748217,0 -91.1133311,35.0765384000001,0 -91.11235240000001,35.078361,0 -91.1100634,35.0826347,0 -91.1063666,35.0895811,0 -91.102459,35.0968631,0 -91.09865899999998,35.10415,0 -91.09730570000001,35.1066732,0 -91.09719029999999,35.1068922,0 -91.09702040000001,35.1072147,0 -91.0948337,35.1113408,0 -91.0948033,35.111398,0 -91.0928801,35.1150253,0 -91.0909291,35.1186414,0 -91.0908676,35.1187569,0 -91.0900386,35.1202965,0 -91.08950870000001,35.1212566,0 -91.08932970000001,35.1215861,0 -91.08921170000001,35.1218033,0 -91.0888277,35.1225293,0 -91.0885375,35.1230812,0 -91.08822600000001,35.1236707,0 -91.08804379999999,35.124015,0 -91.08609010000001,35.1277021,0 -91.0851105,35.1295393,0 -91.08486370000001,35.1299994,0 -91.0846256,35.1304617,0 -91.08420049999999,35.1313117,0 -91.0839792,35.1318607,0 -91.08376260000001,35.1323068,0 -91.08352429999999,35.1327861,0 -91.08327730000001,35.1332581,0 -91.08323369999999,35.133338,0 -91.0804637,35.1385626,0 -91.0766909,35.1456846,0 -91.07606220000001,35.1468721,0 -91.0755181,35.1478973,0 -91.0748579,35.1491372,0 -91.07368950000001,35.1513473,0 -91.07280889999998,35.1530139,0 -91.06782810000001,35.1624178,0 -91.06520609999998,35.1673698,0 -91.06190959999999,35.1735945,0 -91.06151000000001,35.1743478,0 -91.0614424,35.1744752,0 -91.05935779999999,35.1784013,0 -91.0560031,35.1846533,0 -91.05169150000002,35.1928386,0 -91.05087709999999,35.1943678999999,0 -91.04929190000001,35.1973356,0 -91.04915200000001,35.1975973,0 -91.0477856,35.2001552,0 -91.04763189999998,35.2004429,0 -91.04579779999999,35.2038678,0 -91.0439796,35.2072627000001,0 -91.04380859999999,35.2075821,0 -91.0414099,35.2119989,0 -91.04010150000001,35.214427,0 -91.0393232,35.2158705,0 -91.03822390000001,35.2179091,0 -91.0375009,35.2192764,0 -91.03730299999999,35.2196810000001,0 -91.0370915,35.2201563,0 -91.03690570000001,35.2206314,0 -91.0367583,35.221052,0 -91.03662889999998,35.2214672,0 -91.0365491,35.2217411,0 -91.03646980000002,35.2220582,0 -91.03626110000002,35.2229693,0 -91.0352429,35.2275096,0 -91.0350973,35.2281648,0 -91.0348231,35.2290877,0 -91.0345495,35.2297669,0 -91.03434559999999,35.2305381,0 -91.03376940000001,35.2332381,0 -91.0329794,35.2368011,0 -91.0328083,35.237505,0 -91.0321995,35.2400096,0 -91.03180260000001,35.2419549,0 -91.03158799999999,35.242945,0 -91.03150900000001,35.2432428,0 -91.0314592,35.243427,0 -91.0312125,35.2444434,0 -91.0307511,35.2464236,0 -91.0305652,35.2473618,0 -91.0303649,35.248211,0 -91.0297054,35.2512346,0 -91.0296381,35.2515491,0 -91.0296008,35.2517581,0 -91.02959519999999,35.2519126,0 -91.0295038,35.2519121,0 -91.0293028,35.2519108,0 -91.0290718,35.2519093,0 -91.02899840000002,35.2519088,0 -91.02899720000002,35.2520358,0 -91.0289616,35.2522044,0 -91.0276827,35.2578397,0 -91.02585800000001,35.2659007,0 -91.0258266,35.2660394,0 -91.02462670000001,35.2716717,0 -91.0245834,35.2718698,0 -91.0245491,35.2720267,0 -91.0242834,35.2732215,0 -91.0214154,35.2861007,0 -91.01968969999999,35.2938034,0 -91.01945000000001,35.2949148,0 -91.0184344,35.2993551,0 -91.01785649999999,35.3020911,0 -91.016806,35.3067955,0 -91.01512959999998,35.3143192,0 -91.0148775,35.3154179,0 -91.01448739999999,35.3169098,0 -91.01438330000001,35.3173285,0 -91.01430670000001,35.3176861,0 -91.01422970000002,35.3180541,0 -91.0141483,35.3184607,0 -91.0140014,35.319278,0 -91.0136651,35.320851,0 -91.012957,35.3240043,0 -91.01221580000001,35.3273224,0 -91.00968979999999,35.338601,0 -91.00775999999999,35.3472372,0 -91.0067001,35.3519827,0 -91.00631530000001,35.3537057,0 -91.0053786,35.3579129,0 -91.0051229,35.359058,0 -91.00467489999998,35.3610552,0 -91.00466670000002,35.3610924,0 -91.0030536,35.3683172999999,0 -91.0021608,35.3723116,0 -91.00079619999998,35.3783769,0 -90.9998384,35.3826985,0 -90.99944610000001,35.3844535,0 -90.9993829,35.3847363,0 -90.9970915,35.3949555,0 -90.9967383,35.3965789,0 -90.9966574,35.3968386,0 -90.9965641,35.3970198,0 -90.9964578,35.3972239,0 -90.99629229999999,35.3974556,0 -90.99601180000001,35.3979467,0 -90.99592589999999,35.3981631,0 -90.995862,35.398473,0 -90.99578870000002,35.3987968,0 -90.99573549999999,35.3990237,0 -90.99565539999999,35.3993985,0 -90.99553000000002,35.3999716,0 -90.9954403,35.4003559,0 -90.99541619999999,35.4005949,0 -90.9954302,35.4008123,0 -90.995526,35.401255,0 -90.9955243,35.40143,0 -90.9955042,35.4015391000001,0 -90.9953227,35.4022289,0 -90.9952191,35.4026389,0 -90.9950889,35.4031983,0 -90.99490059999999,35.4040534,0 -90.99461489999999,35.4053319,0 -90.994406,35.4062461,0 -90.9943253,35.4065991,0 -90.99429720000001,35.4067242,0 -90.9940812,35.4076833,0 -90.9940301,35.4079102,0 -90.9939126,35.4084223,0 -90.9939129,35.4084308999999,0 -90.99376120000001,35.4091204,0 -90.99351590000001,35.4102794,0 -90.99329659999999,35.4117235,0 -90.99317270000002,35.4125879999999,0 -90.99240100000002,35.4160482,0 -90.99201720000001,35.4177924,0 -90.99153900000002,35.4197769999999,0 -90.9912533,35.4208899,0 -90.990978,35.422123,0 -90.990588,35.4238498,0 -90.9902429,35.4254285,0 -90.99004730000001,35.4262768,0 -90.98919600000002,35.430081,0 -90.988387,35.433606,0 -90.98785159999998,35.4359979,0 -90.9872549,35.4386414,0 -90.986377,35.4424847,0 -90.9855992,35.4459743,0 -90.98526119999998,35.4475476,0 -90.98470399999999,35.450022,0 -90.98387720000001,35.4537223,0 -90.9832117,35.4566779,0 -90.98314950000001,35.456954,0 -90.9824395,35.4600976,0 -90.982343,35.4605258,0 -90.9822679,35.46086,0 -90.98210419999998,35.461581,0 -90.98155439999999,35.4640103,0 -90.98137199999999,35.4648578999999,0 -90.98111450000002,35.4659851,0 -90.9810179,35.4664417,0 -90.98092939999998,35.4668022,0 -90.98060220000001,35.468292,0 -90.980349,35.469414,0 -90.98025079999999,35.4698342,0 -90.98018099999999,35.47017,0 -90.97987790000002,35.4715066,0 -90.97916550000001,35.4746806,0 -90.9789624,35.4755878,0 -90.97883570000002,35.4761565,0 -90.9786794,35.4768451,0 -90.9784217,35.4779887,0 -90.97815439999999,35.4791443,0 -90.9774003,35.4825653,0 -90.9773182,35.4829378,0 -90.9771831,35.4834356,0 -90.97702219999998,35.4839477,0 -90.97683260000001,35.4844771,0 -90.97660980000002,35.485014,0 -90.9763804,35.4855012,0 -90.9761493,35.4859454,0 -90.97593620000002,35.4863383,0 -90.97569939999998,35.4867494,0 -90.975267,35.4874842,0 -90.9749767,35.4879749,0 -90.9737226,35.4901401,0 -90.973349,35.4907811,0 -90.9729754,35.4914221,0 -90.97258960000002,35.492084,0 -90.9722319,35.4926977,0 -90.97161400000002,35.4937807,0 -90.9712705,35.4943471,0 -90.97075539999999,35.4952015,0 -90.9705077,35.4956447,0 -90.96996439999999,35.496568,0 -90.96987479999999,35.4967411,0 -90.9693698,35.4976097,0 -90.9686164,35.4989027,0 -90.96828480000001,35.4994632,0 -90.96783569999999,35.5002556,0 -90.9654465,35.5043799,0 -90.9651982,35.5048274,0 -90.9651132,35.50497,0 -90.9621436,35.5101799,0 -90.96110590000001,35.5119332,0 -90.9595887,35.5145833,0 -90.95947169999999,35.514772,0 -90.95929349999999,35.5150959,0 -90.9526417,35.5265866,0 -90.948172,35.5343332,0 -90.9474161,35.5356294,0 -90.9473289,35.5357841,0 -90.94363359999998,35.5421956,0 -90.94137199999999,35.5461122,0 -90.9387097,35.5507011,0 -90.93241419999998,35.5616624,0 -90.9319959,35.562379,0 -90.93144270000001,35.5633464,0 -90.9306727,35.5646617,0 -90.930199,35.5654796,0 -90.92822390000001,35.5689161,0 -90.92603320000001,35.5726955,0 -90.9241176,35.5760028,0 -90.9219295,35.579776,0 -90.9214223,35.5806767,0 -90.91988069999999,35.5833689,0 -90.91361860000001,35.5942268,0 -90.91353089999998,35.5943793,0 -90.9052398,35.6087478,0 -90.9042876,35.6103698,0 -90.9042257,35.6104794,0 -90.90297499999998,35.6126939,0 -90.9020426,35.6142826,0 -90.9018081,35.6146883,0 -90.90128559999999,35.6155921,0 -90.9012412,35.615669,0 -90.90098070000001,35.6160821,0 -90.9006016,35.6166833,0 -90.90004089999999,35.6175466,0 -90.8995106,35.6184042,0 -90.89897210000001,35.6193176,0 -90.89848189999999,35.6201962,0 -90.89795100000001,35.6210971,0 -90.89742870000001,35.6220004,0 -90.8968418,35.6230343,0 -90.89615519999998,35.6244985,0 -90.89569539999999,35.6252668,0 -90.8954552,35.6256740999999,0 -90.895124,35.626237,0 -90.89483119999998,35.6267346,0 -90.8922156,35.6313019,0 -90.8913347,35.6328175,0 -90.8911597,35.6331083,0 -90.89082239999999,35.6336947,0 -90.8886718,35.6374137,0 -90.88042299999999,35.6516984,0 -90.88023389999999,35.6519937,0 -90.8774203,35.6568778,0 -90.8756152,35.6599877,0 -90.87508680000001,35.6609008,0 -90.8746818,35.6616003,0 -90.874522,35.661873,0 -90.8717544,35.6666672,0 -90.87100340000001,35.6679659,0 -90.86912580000002,35.6712082,0 -90.86393310000001,35.6801328,0 -90.86365410000001,35.6806557,0 -90.8634181,35.6810739999999,0 -90.86129220000001,35.6847774,0 -90.8594951,35.6878753,0 -90.8591411,35.6884722,0 -90.85758000000001,35.6911931,0 -90.85577489999999,35.6943278,0 -90.8550292,35.6956108,0 -90.85429430000001,35.6968764,0 -90.8507967,35.7029209,0 -90.8494364,35.7052835,0 -90.8494008,35.7053455,0 -90.8469303,35.7096062,0 -90.8467694,35.7098709,0 -90.8466225,35.7100832,0 -90.8464287,35.7103429,0 -90.846153,35.710701,0 -90.8460297,35.7108798,0 -90.8459137,35.711066,0 -90.84496040000001,35.7127011,0 -90.84397360000001,35.714401,0 -90.84369240000001,35.714889,0 -90.84182,35.7181399,0 -90.841606,35.718487,0 -90.841393,35.718803,0 -90.840836,35.719551,0 -90.840632,35.7198711,0 -90.83996600000002,35.721027,0 -90.83983600000001,35.721275,0 -90.83887500000002,35.722919,0 -90.83807400000001,35.724339,0 -90.837799,35.724789,0 -90.837082,35.725986,0 -90.83691399999999,35.726295,0 -90.83679639999998,35.7264931,0 -90.83654,35.726925,0 -90.836349,35.727345,0 -90.83612100000001,35.728008,0 -90.835821,35.728959,0 -90.835686,35.729385,0 -90.835481,35.730051,0 -90.83524299999999,35.7308240000001,0 -90.83503,35.731384,0 -90.834541,35.732601,0 -90.833786,35.734516,0 -90.833519,35.735168,0 -90.83317599999999,35.736038,0 -90.83238199999998,35.738018,0 -90.831757,35.739601,0 -90.8309191,35.7416939,0 -90.830376,35.743065,0 -90.82963599999999,35.744919,0 -90.82946800000001,35.745353,0 -90.82908599999999,35.746342,0 -90.828346,35.748177,0 -90.82811699999999,35.748756,0 -90.827687,35.749837,0 -90.82756000000002,35.750156,0 -90.826836,35.75201,0 -90.82614719999998,35.7536827,0 -90.82539399999999,35.755581,0 -90.8251441,35.7562337,0 -90.82470670000001,35.7573222,0 -90.824335,35.758234,0 -90.82385299999999,35.759472,0 -90.823395,35.760586,0 -90.822731,35.762234,0 -90.82234200000001,35.763218,0 -90.82152600000001,35.765255,0 -90.820763,35.767174,0 -90.820015,35.769035,0 -90.819351,35.770748,0 -90.81860399999999,35.772579,0 -90.817932,35.774277,0 -90.81737499999998,35.775665,0 -90.81685599999999,35.776939,0 -90.81671900000001,35.777203,0 -90.816559,35.777409,0 -90.81641399999999,35.777538,0 -90.816254,35.777668,0 -90.81598700000001,35.777805,0 -90.815628,35.77795,0 -90.815468,35.777988,0 -90.81518600000001,35.778023,0 -90.814941,35.778023,0 -90.814789,35.778027,0 -90.813942,35.778019,0 -90.8120012,35.7780146,0 -90.8116579,35.7780407,0 -90.81121799999998,35.7781386,0 -90.8107352,35.7783105,0 -90.81034360000001,35.7785367999999,0 -90.81008080000001,35.778737,0 -90.8098528,35.7789524,0 -90.8095794,35.7792544,0 -90.8093298,35.7795465,0 -90.80875039999999,35.779181,0 -90.80796720000001,35.7787632,0 -90.8071625,35.7784063,0 -90.8065617,35.7782148,0 -90.8059394,35.7780581,0 -90.8052206,35.777945,0 -90.80356840000002,35.7779276,0 -90.8007796,35.7779163,0 -90.7990041,35.7779111,0 -90.797381,35.7779064,0 -90.79555769999999,35.7778962,0 -90.7950263,35.7778932,0 -90.7947133,35.7778915,0 -90.79109209999999,35.7779006,0 -90.7906175,35.7779007,0 -90.79011409999998,35.7779018,0 -90.7876061,35.7779217,0 -90.78593770000002,35.7779185,0 -90.7857494,35.777925,0 -90.7819659,35.7779678,0 -90.7793963,35.7779983,0 -90.777046,35.7780415,0 -90.7754535,35.7780623,0 -90.77369929999999,35.7780853,0 -90.772621,35.778141,0 -90.772499,35.778145,0 -90.77138359999999,35.7781492,0 -90.76956199999999,35.778156,0 -90.768936,35.778164,0 -90.76778400000001,35.778164,0 -90.76766139999999,35.7781618000001,0 -90.76734200000001,35.778156,0 -90.76710299999999,35.7781492000001,0 -90.766533,35.7781330000001,0 -90.76612900000001,35.778126,0 -90.7660604,35.778124,0 -90.764915,35.778091,0 -90.7646846,35.7780838,0 -90.76384400000001,35.7780574,0 -90.76370199999999,35.778053,0 -90.76329799999999,35.778046,0 -90.7629718,35.7780374,0 -90.76201499999999,35.778012,0 -90.7616903,35.7780016,0 -90.76032999999998,35.777958,0 -90.75925399999998,35.777939,0 -90.75683600000001,35.777908,0 -90.75668,35.777908,0 -90.75466900000001,35.777905,0 -90.75281060000002,35.7779146,0 -90.75253600000002,35.777916,0 -90.75220520000001,35.777916,0 -90.75189200000001,35.777916,0 -90.75169399999999,35.777912,0 -90.751366,35.777912,0 -90.7508953,35.777907,0 -90.7480498,35.7778668,0 -90.747185,35.777855,0 -90.746979,35.777863,0 -90.74655199999999,35.777882,0 -90.746262,35.777912,0 -90.746003,35.777951,0 -90.7456909,35.7780301,0 -90.745453,35.778084,0 -90.745259,35.778148,0 -90.745155,35.778183,0 -90.744865,35.778297,0 -90.74472799999999,35.778362,0 -90.744522,35.778454,0 -90.744339,35.778549,0 -90.744164,35.778652,0 -90.743843,35.778866,0 -90.743683,35.778988,0 -90.74187499999999,35.78051,0 -90.74086000000001,35.781357,0 -90.740211,35.781914,0 -90.739762,35.782287,0 -90.73904400000001,35.782894,0 -90.73862099999999,35.783255,0 -90.7378406,35.7839199,0 -90.73764799999999,35.784084,0 -90.73737300000001,35.784328,0 -90.737244,35.784458,0 -90.737129,35.784595,0 -90.73700909999998,35.7847584,0 -90.736969,35.784813,0 -90.736931,35.784885,0 -90.73686999999998,35.784969,0 -90.73674800000001,35.78516,0 -90.73638199999999,35.785915,0 -90.73572499999999,35.787365,0 -90.7356261,35.7875766,0 -90.73523880000002,35.7884054,0 -90.73500079999998,35.7889148,0 -90.73477549999998,35.7893969,0 -90.734718,35.78952,0 -90.733975,35.7911367,0 -90.733383,35.792425,0 -90.73322899999999,35.792762,0 -90.73294799999999,35.793373,0 -90.7326623,35.7939811000001,0 -90.73255899999999,35.794201,0 -90.732193,35.795025,0 -90.73208469999999,35.7952381,0 -90.73204,35.795326,0 -90.731942,35.795527,0 -90.73185699999999,35.7957,0 -90.73171310000001,35.7960771,0 -90.73158999999998,35.79628,0 -90.731544,35.796364,0 -90.73140699999999,35.796673,0 -90.73129999999999,35.796894,0 -90.73110849999999,35.7972434,0 -90.731003,35.797436,0 -90.7307009,35.7978794,0 -90.73062899999999,35.797985,0 -90.73056800000001,35.798058,0 -90.73038500000001,35.798294,0 -90.73009500000001,35.798626,0 -90.72986600000002,35.798859,0 -90.72942399999999,35.799271,0 -90.7290285,35.7995962,0 -90.728874,35.799713,0 -90.728493,35.799973,0 -90.727886,35.800368,0 -90.7276755,35.800511,0 -90.7255516,35.8018434,0 -90.72479439999999,35.8023219,0 -90.724625,35.802429,0 -90.724144,35.80275,0 -90.7239927,35.8028658,0 -90.72381599999999,35.803001,0 -90.723488,35.803295,0 -90.72325900000001,35.803543,0 -90.723007,35.803852,0 -90.72286200000001,35.80407,0 -90.722717,35.804333,0 -90.72258000000001,35.804615,0 -90.72246060000002,35.8048944,0 -90.7223413,35.8053281,0 -90.72221399999999,35.805851,0 -90.7221432,35.80615,0 -90.72209899999999,35.806324,0 -90.72206100000001,35.80648,0 -90.722015,35.806637,0 -90.72196,35.806799,0 -90.721856,35.8070616,0 -90.72184,35.807102,0 -90.72176399999999,35.807274,0 -90.721626,35.807529,0 -90.721497,35.807728,0 -90.721481,35.807747,0 -90.72145099999999,35.807789,0 -90.721397,35.807846,0 -90.721352,35.807907,0 -90.721298,35.807961,0 -90.721245,35.808018,0 -90.72115340000001,35.8080928,0 -90.7204725,35.8086688,0 -90.71962600000001,35.8093673,0 -90.71904430000001,35.8098184,0 -90.71863600000002,35.810135,0 -90.7190216,35.8103166,0 -90.71904800000002,35.810329,0 -90.7192,35.810394,0 -90.71933,35.810432,0 -90.71941099999999,35.810451,0 -90.719658,35.810509,0 -90.71974899999999,35.81052,0 -90.720001,35.810532,0 -90.72014599999999,35.81044,0 -90.720192,35.810406,0 -90.720221,35.810376,0 -90.72026800000002,35.810314,0 -90.72030599999999,35.810215,0 -90.720291,35.810162,0 -90.72025299999999,35.809917,0 -90.72021500000001,35.809761,0 -90.72014599999999,35.809559,0 -90.7201,35.80946,0 -90.720032,35.809345,0 -90.71993519999999,35.809254,0 -90.7197297,35.8090813,0 -90.7196563,35.8090278,0 -90.71949849999999,35.8089415,0 -90.719078,35.808743,0 -90.71832999999999,35.80838,0 -90.717842,35.808228,0 -90.717125,35.808037,0 -90.716568,35.807907,0 -90.71618700000001,35.807827,0 -90.71553,35.807705,0 -90.71527399999999,35.807665,0 -90.71462200000001,35.807564,0 -90.714157,35.807507,0 -90.71392299999998,35.807485,0 -90.713425,35.807438,0 -90.71254,35.807381,0 -90.71212800000001,35.807365,0 -90.71172300000001,35.807358,0 -90.71118199999999,35.807358,0 -90.71025900000001,35.807353,0 -90.70912999999999,35.807347,0 -90.70783399999999,35.80734,0 -90.707032,35.807336,0 -90.705566,35.807335,0 -90.70344279999999,35.8073308,0 -90.7016564,35.8073273,0 -90.69402820000001,35.8072908,0 -90.6936207,35.8072882,0 -90.68902599999998,35.807259,0 -90.68813299999998,35.807251,0 -90.68504149999998,35.8072487,0 -90.68318720000001,35.8072404,0 -90.6820281,35.8073346,0 -90.6808803,35.8073388,0 -90.678757,35.807323,0 -90.6753851,35.8073003,0 -90.6732184,35.8072987,0 -90.67207209999999,35.8072941,0 -90.671515,35.8073726,0 -90.6714659,35.8073858,0 -90.6713736,35.8074125,0 -90.6712696,35.8074545,0 -90.6711408,35.807517,0 -90.67105119999999,35.807572,0 -90.6709565,35.8076291,0 -90.67086559999998,35.8077165,0 -90.67075989999999,35.8078305,0 -90.6705029,35.8081466,0 -90.6704268,35.8082466,0 -90.67034370000002,35.8083298000001,0 -90.6702459,35.8084086,0 -90.6701693,35.8084555,0 -90.67010670000001,35.8084908,0 -90.66998359999999,35.8085531,0 -90.669853,35.808598,0 -90.66970940000002,35.8086387,0 -90.6695489,35.80867,0 -90.66941980000001,35.8087193,0 -90.66936370000001,35.8087554,0 -90.6692154,35.8088706,0 -90.6692115,35.808984,0 -90.6692017,35.8092717,0 -90.6691999,35.8093251,0 -90.6691979,35.809412,0 -90.66918969999999,35.8097783,0 -90.6691842,35.8100199,0 -90.66916240000002,35.8106995999999,0 -90.6691545,35.8110032,0 -90.669141,35.8113669,0 -90.6691301,35.8117083,0 -90.669128,35.8117735,0 -90.66912259999999,35.8119412,0 -90.66911279999999,35.812247,0 -90.6691074,35.8124139,0 -90.6691021,35.8125799,0 -90.66909440000001,35.8128202,0 -90.6690869,35.8130519,0 -90.6690858,35.8131148,0 -90.66908149999999,35.8133551,0 -90.6690775,35.8135828,0 -90.66907610000001,35.8136631,0 -90.6690734,35.8138101,0 -90.66907089999999,35.8139504,0 -90.6690653,35.8141318999999,0 -90.6690621,35.8142222,0 -90.6690557,35.8144359000001,0 -90.6690455,35.8147765,0 -90.6690376,35.815042,0 -90.66903029999999,35.8152868,0 -90.66902609999998,35.8154251,0 -90.66902089999999,35.8155998,0 -90.6690055,35.8161437,0 -90.66897619999999,35.8170505,0 -90.66895730000002,35.8176075,0 -90.6689564,35.8176352,0 -90.66894359999999,35.8180099,0 -90.6689342,35.8183465,0 -90.6689243,35.8186539,0 -90.66890320000002,35.8192303,0 -90.66890190000001,35.8193199,0 -90.6688848,35.819818,0 -90.668879,35.82,0 -90.66887460000001,35.8201392,0 -90.66887279999999,35.820198,0 -90.6688666,35.8203926,0 -90.6688611,35.8205655,0 -90.6688582,35.8207965,0 -90.6688565,35.8209254,0 -90.6688552,35.8210277,0 -90.66885360000001,35.821155,0 -90.66884910000002,35.8213202,0 -90.6688465,35.8214178,0 -90.66884250000001,35.8215693,0 -90.66883439999999,35.8218791,0 -90.66882580000001,35.8222066,0 -90.66882039999999,35.8223004,0 -90.66881379999998,35.8227132,0 -90.66881089999998,35.8227997000001,0 -90.6688079,35.8228885,0 -90.66880209999999,35.8230634,0 -90.6687987,35.8231635,0 -90.6687895,35.8236178,0 -90.6687846,35.823859,0 -90.6687826,35.823936,0 -90.6687582,35.82485,0 -90.66874129999998,35.8254302,0 -90.66872290000001,35.8261409,0 -90.6687101,35.8266711,0 -90.66870919999998,35.8267076,0 -90.66870780000001,35.8267648,0 -90.6686916,35.8272563,0 -90.66867689999999,35.8275873,0 -90.66867250000001,35.8277263,0 -90.6686687,35.8278597,0 -90.6686618,35.8281024,0 -90.66865780000001,35.8282403,0 -90.66865389999998,35.8283802,0 -90.66865110000002,35.8285709,0 -90.66864959999999,35.8286713,0 -90.66864749999999,35.8289383,0 -90.66863920000002,35.829223,0 -90.66863650000001,35.8293259,0 -90.66863439999999,35.829403,0 -90.66862810000001,35.8296388,0 -90.66862570000001,35.8297288,0 -90.66862549999999,35.8297523,0 -90.6686175,35.8299757,0 -90.668609,35.8302325,0 -90.6686079,35.8302551,0 -90.6685937,35.8306927,0 -90.66858689999999,35.8308167,0 -90.66856610000002,35.8311467,0 -90.66854819999999,35.8313161,0 -90.6685379,35.8314169,0 -90.66853210000001,35.8314738999999,0 -90.66850530000001,35.8317378,0 -90.66846309999998,35.8320061,0 -90.668441,35.8321403,0 -90.66841679999999,35.8322873,0 -90.66838660000002,35.8324706,0 -90.66834799999999,35.8327201,0 -90.66820920000001,35.8335002,0 -90.66797802942565,35.83478577188276,0 -90.66786881599944,35.83601442458647,0 -90.66790596146272,35.83726599777718,0 -90.6679395743091,35.83868953920358,0 -90.66786951532124,35.84025252665801,0 -90.66759936007604,35.84171754774476,0 -90.66714297181788,35.84277996390803,0 -90.6658770607592,35.84573230298883,0 
				
					-90.665818,35.8458254,0 -90.6651061,35.8474421,0 -90.66494590000001,35.8478485,0 -90.664857,35.8482221,0 -90.6647974,35.8485263,0 -90.664771,35.8487924,0 -90.6647565,35.8491418,0 -90.6647691,35.8495051,0 -90.6648244,35.8499088,0 -90.6648902,35.8503556,0 -90.665029,35.8513961,0 -90.6650618,35.8517847,0 -90.665049,35.8519892,0 -90.66506699999999,35.8522294,0 -90.6650159,35.852387,0 -90.66493869999998,35.8525719,0 -90.66483239999999,35.8527772,0 -90.6647767,35.8528754,0 -90.6646978,35.8529814000001,0 -90.6645647,35.8531597,0 -90.6644319,35.8533235,0 -90.66420579999999,35.8535475,0 -90.6639835,35.85372,0 -90.66384669999999,35.8538114,0 -90.66368730000001,35.8539039,0 -90.6634665,35.8540162,0 -90.6627613,35.8543565,0 -90.66182169999999,35.8548105,0 -90.66039739999999,35.8555005,0 -90.6602493,35.8555693,0 -90.6600712,35.855652,0 -90.6597548,35.8558054,0 -90.65942390000001,35.8559635,0 -90.658568,35.8563754,0 -90.65795869999999,35.8566703,0 -90.65750899999999,35.8568847,0 -90.65741250000001,35.8569312,0 -90.6571402,35.8570624,0 -90.6571003,35.8570816,0 -90.656407,35.8574157,0 -90.65524189999998,35.8579782,0 -90.65465289999999,35.8582626,0 -90.65459509999998,35.8582905,0 -90.65338869999999,35.8588733,0 -90.6523897,35.8593559,0 -90.6523577,35.8593713,0 -90.651831,35.8596201,0 -90.6517025,35.8596823,0 -90.6509521,35.8600455,0 -90.6505659,35.8602324,0 -90.6504545,35.8602863,0 -90.65013569999999,35.8604409,0 -90.6498691,35.8605701,0 -90.64954899999999,35.8607284,0 -90.649297,35.8608473,0 -90.6487152,35.8611289,0 -90.64866189999999,35.8611547,0 -90.6485933,35.8611878,0 -90.6482235,35.861369,0 -90.6476741,35.8616322,0 -90.64703040000001,35.8619411,0 -90.6467167,35.8620917,0 -90.64621820000001,35.8623303,0 -90.64610860000001,35.8623828,0 -90.64545620000001,35.8627118,0 -90.64538899999999,35.8627418,0 -90.6452226,35.8628246000001,0 -90.64504959999999,35.8629107,0 -90.64501559999999,35.8629262,0 -90.6444236,35.8631957,0 -90.64416769999998,35.863313,0 -90.64380039999999,35.8634631,0 -90.6434047,35.8636047,0 -90.64302509999999,35.8637231,0 -90.6426519,35.863829,0 -90.6421812,35.8639443,0 -90.6417946,35.8640192999999,0 -90.64148609999999,35.8640719,0 -90.641299,35.8641022,0 -90.6411085,35.8641239,0 -90.6408433,35.8641515,0 -90.6405048,35.8641816,0 -90.64014869999998,35.8642026,0 -90.639791,35.86421,0 -90.63914029999999,35.8642185,0 -90.63777900000001,35.8642152,0 -90.63709299999999,35.8642139,0 -90.63695210000002,35.8642136,0 -90.6368227,35.8642134,0 -90.63668130000001,35.8642131,0 -90.6359866,35.8642118,0 -90.6355981,35.8642111,0 -90.6352093,35.8642103,0 -90.63499359999999,35.8642117,0 -90.63395549999998,35.8642149,0 -90.6338476,35.8642149,0 -90.63276639999998,35.8642149,0 -90.6325226,35.8642142,0 -90.6317983,35.864216,0 -90.6310263,35.864217,0 -90.6299659,35.8642127,0 -90.62597220000001,35.8642174,0 -90.62441320000001,35.8642178,0 -90.623893,35.8642174,0 -90.62344280000001,35.864217,0 -90.6223851,35.8642156,0 -90.62175430000001,35.8642164,0 -90.620683,35.8642185,0 -90.62014189999999,35.8642197,0 -90.6185179,35.8642162,0 -90.61517449999999,35.864221,0 -90.6148512,35.8642316,0 -90.61460169999999,35.864246,0 -90.6144096,35.8642588,0 -90.61420459999999,35.8642784,0 -90.61378500000001,35.8643301,0 -90.6136108,35.8643569,0 -90.61345420000001,35.8643897,0 -90.6130285,35.8644787,0 -90.61263399999999,35.8645805,0 -90.6121713,35.8647261,0 -90.6118628,35.8648402,0 -90.6115142,35.8649848,0 -90.61123790000001,35.8651152,0 -90.6109804,35.8652456,0 -90.6107336,35.8653815,0 -90.61046810000001,35.8655423,0 -90.61018710000002,35.8657309,0 -90.60994239999999,35.8659075,0 -90.6097426,35.8660575,0 -90.60953999999998,35.8662325000001,0 -90.60930399999998,35.8664542,0 -90.60905860000001,35.8666987000001,0 -90.6088735,35.8669063,0 -90.6086268,35.8672019,0 -90.604568,35.8720963,0 -90.60368440000001,35.87316,0 -90.60360009999998,35.873261,0 -90.6033575,35.8735533,0 -90.60314360000001,35.8738122,0 -90.6029894,35.8739969,0 -90.6008551,35.8765762000001,0 -90.5998816,35.8777419,0 -90.5993555,35.8783729,0 -90.5992814,35.8784639,0 -90.59918860000001,35.8785769,0 -90.59866389999999,35.8792157,0 -90.5969717,35.8812484,0 -90.5966375,35.881661,0 -90.5933576,35.8856089999999,0 -90.59035230000001,35.8892337,0 -90.59020409999999,35.8894144,0 -90.589873,35.889818,0 -90.5896834,35.8900523,0 -90.58942879999999,35.8903995,0 -90.5892068,35.8907625,0 -90.58908490000002,35.8909977999999,0 -90.5889916,35.8911963,0 -90.58891149999999,35.8913764,0 -90.58882139999999,35.8916025,0 -90.58876729999999,35.8917542,0 -90.5887006,35.8919651,0 -90.5886682,35.8920913,0 -90.58862929999998,35.8922369,0 -90.58857930000001,35.8924707,0 -90.58855610000001,35.8926107,0 -90.5885102,35.8931388,0 -90.58849139999998,35.8937761999999,0 -90.5884525,35.8951146,0 -90.58835300000001,35.8986729,0 -90.58833630000001,35.8993234,0 -90.5883152,35.9001457,0 -90.5882987,35.9007891,0 -90.58828029999998,35.9014439,0 -90.58823639999999,35.9030044,0 -90.58813300000001,35.9066742,0 -90.58811880000002,35.9072425,0 -90.5881174,35.907414,0 -90.58811249999999,35.9075781,0 -90.58810250000001,35.9079093,0 -90.58809849999999,35.9080431,0 -90.58806230000002,35.9092358,0 -90.58806490000001,35.9099581,0 -90.58807299999999,35.9105403,0 -90.58807880000001,35.9108247,0 -90.5881309,35.9115826,0 -90.58814550000001,35.9117947,0 -90.5881583,35.9119281,0 -90.5881727,35.912079,0 -90.58818789999999,35.9122378,0 -90.5882191,35.9125638,0 -90.58849620000001,35.9157264,0 -90.58852430000002,35.9160314,0 -90.58860209999999,35.9168741,0 -90.58866620000001,35.9176135,0 -90.58870229999999,35.9180861,0 -90.58874529999999,35.9185827,0 -90.5888032,35.9195422,0 -90.5888163,35.9201602,0 -90.5888121,35.9208816,0 -90.58878509999998,35.9219642,0 -90.58876100000001,35.9230068,0 -90.58870200000001,35.9248835,0 -90.5886671,35.92537,0 -90.58860810000002,35.9257913999999,0 -90.5885464,35.9262084,0 -90.58848200000001,35.9265385,0 -90.58832379999998,35.9271423,0 -90.58815749999999,35.9276983,0 -90.5880126,35.9281023,0 -90.587782,35.9286301,0 -90.5875942,35.9290449,0 -90.58740049999999,35.929411,0 -90.58722659999999,35.9297251,0 -90.5870161,35.9300838,0 -90.58685389999999,35.9303296,0 -90.5866789,35.9305827,0 -90.58646160000001,35.9308965,0 -90.58619960000001,35.9312243,0 -90.5857815,35.931714,0 -90.5852682,35.9322689,0 -90.58518180000002,35.9323623000001,0 -90.5828223,35.9349228,0 -90.58266509999999,35.9350933,0 -90.58120270000002,35.9366579,0 -90.5808557,35.9370276,0 -90.58015619999999,35.9377728,0 -90.5799348,35.9380127,0 -90.5795086,35.9384748,0 -90.57932049999999,35.9386822,0 -90.57905409999999,35.9389634,0 -90.5786566,35.9393886,0 -90.57822830000002,35.9398491,0 -90.5779726,35.9401473,0 -90.5777464,35.9404514,0 -90.5775989,35.9406758,0 -90.5773519,35.9411155,0 -90.5772194,35.941426,0 -90.5770954,35.9417396,0 -90.57702550000002,35.9419867,0 -90.57696180000001,35.9422671,0 -90.5769217,35.9425335,0 -90.57688949999999,35.9428679,0 -90.5768788,35.9433825,0 -90.5768836,35.9438812,0 -90.5768739,35.9454195,0 -90.5768705,35.945967,0 -90.5768683,35.9463219,0 -90.57686599999998,35.946682,0 -90.5768659,35.9469652,0 -90.57686550000001,35.9483195,0 -90.5768573,35.9486157,0 -90.57683179999999,35.9488806000001,0 -90.57678180000002,35.9491361,0 -90.5767141,35.9494279,0 -90.57665350000001,35.9496406,0 -90.576584,35.949825,0 -90.57657330000001,35.9498505,0 -90.57647110000001,35.9500937,0 -90.576337,35.9503762,0 -90.57619310000001,35.9506031,0 -90.5759764,35.9509415,0 -90.5755916,35.951373,0 -90.5754302,35.9515374,0 -90.5749668,35.9519906,0 -90.57431649999999,35.9525964,0 -90.5710954,35.9556004,0 -90.56889420000002,35.9576186,0 -90.5686879,35.9578114,0 -90.56828040000001,35.9581776,0 -90.56745469999998,35.9589512,0 -90.5672028,35.9591967,0 -90.566238,35.960087,0 -90.56560820000001,35.9606712,0 -90.5642814,35.9619075,0 -90.5632329,35.9628788,0 -90.5616804,35.9643082,0 -90.56064069999998,35.9652745,0 -90.5602597,35.9656264,0 -90.55954029999998,35.9662970999999,0 -90.55848439999998,35.9672813000001,0 -90.55736949999999,35.9683175,0 -90.5559147,35.9696697,0 -90.5554862,35.9700682,0 -90.55542079999998,35.970129,0 -90.55501539999999,35.9705067,0 -90.55498280000002,35.970537,0 -90.554738,35.9707645,0 -90.55436880000001,35.9711035,0 -90.5533688,35.9720343999999,0 -90.5528364,35.9725299,0 -90.55269259999999,35.9726638,0 -90.5524678,35.9728731,0 -90.55216660000002,35.9731534,0 -90.5516483,35.9736358,0 -90.5515314,35.9737446,0 -90.55106379999999,35.97418,0 -90.5497689,35.9753834,0 -90.5493623,35.9757587,0 -90.54859690000001,35.9764728,0 -90.54763149999999,35.9773831,0 -90.5473179,35.9776788,0 -90.5471156,35.9778696,0 -90.54653929999999,35.9784528,0 -90.5460799,35.9789402,0 -90.5459676,35.9790629,0 -90.5458969,35.9791415,0 -90.5457262,35.9793314,0 -90.54564100000002,35.9794261,0 -90.54524260000001,35.9798834,0 -90.54521830000002,35.9799119,0 -90.5449837,35.9801895,0 -90.5446869,35.9805283,0 -90.54440580000001,35.9808975,0 -90.54415580000001,35.9812489,0 -90.54392300000001,35.9816108,0 -90.54367299999998,35.9820498,0 -90.54345309999999,35.9824557,0 -90.54305069999999,35.9832362,0 -90.54213350000001,35.9850053,0 -90.54191520000001,35.9854221,0 -90.5416426,35.9859413,0 -90.54134900000001,35.9864734,0 -90.54092100000001,35.9872623,0 -90.54080810000002,35.987467,0 -90.5404973,35.9880433000001,0 -90.54025640000002,35.9885044,0 -90.53933709999998,35.9902843,0 -90.5391619,35.9906235,0 -90.53874609999998,35.9913508,0 -90.53835500000001,35.9919831,0 -90.5375308,35.9932681,0 -90.53671879999999,35.9945023,0 -90.5361307,35.9954121,0 -90.53559350000002,35.9963218,0 -90.53545800000002,35.9965563,0 -90.5353341,35.9968097,0 -90.53521929999999,35.99705,0 -90.53506780000001,35.9974119,0 -90.53491560000001,35.9978439,0 -90.53482180000002,35.9981138,0 -90.5347431,35.998414,0 -90.53470109999999,35.9986672,0 -90.53465009999999,35.9989666,0 -90.53457139999999,35.9995346,0 -90.53441029999999,36.0004563,0 -90.5342879,36.0013138,0 -90.53426819999999,36.0015004,0 -90.53396920000002,36.0034647,0 -90.5339018,36.0038815,0 -90.5338237,36.0043137,0 -90.5337408,36.0046778,0 -90.53366000000001,36.0049886,0 -90.53356320000002,36.005334,0 -90.53354770000001,36.0053895,0 -90.53341630000001,36.0057919,0 -90.53313259999999,36.0067001,0 -90.53300230000001,36.0071474,0 -90.5329868,36.0072007,0 -90.53272219999999,36.008013,0 -90.53262910000001,36.0082518,0 -90.5324949,36.0085932,0 -90.53234320000001,36.0089301,0 -90.53231049999999,36.0089976,0 -90.5322953,36.0090287,0 -90.53215349999999,36.0093072,0 -90.5319746,36.0096368,0 -90.53175229999999,36.010016,0 -90.53144349999998,36.0104721,0 -90.53107200000001,36.0110373,0 -90.5307663,36.0115081,0 -90.5307251,36.0115713,0 -90.5302834,36.0122478,0 -90.529948,36.0127614,0 -90.5295093,36.0134289,0 -90.52942700000001,36.0135509,0 -90.5292761,36.0138101,0 -90.52874440000001,36.0146213,0 -90.528357,36.0152384,0 -90.52813630000001,36.0155989,0 -90.5280396,36.0157819,0 -90.5278833,36.0160604,0 -90.5276205,36.0165693,0 -90.52738410000001,36.0170091,0 -90.52729079999999,36.0171827,0 -90.5272022,36.0173475,0 -90.52686399999999,36.0179868,0 -90.52659540000001,36.018448,0 -90.5262146,36.0191337,0 -90.52616020000002,36.0192307,0 -90.5257496,36.019963,0 -90.52571239999999,36.0200299,0 -90.5252151,36.0209258,0 -90.52514110000001,36.0210637,0 -90.5245826,36.0220848,0 -90.5243102,36.0225789,0 -90.5241448,36.0229336,0 -90.52406070000001,36.0231279,0 -90.5239772,36.0233172,0 -90.5239414,36.0234129,0 -90.5238773,36.0235841,0 -90.52384550000001,36.0237021,0 -90.52378179999998,36.0239841,0 -90.52376530000001,36.0240633,0 -90.5237307,36.0242299,0 -90.52370530000002,36.0244581,0 -90.5236996,36.0245088,0 -90.52368250000001,36.0247678,0 -90.5236783,36.024828,0 -90.5236664,36.0249999,0 -90.52365519999998,36.0252028,0 -90.52364230000002,36.0254381,0 -90.52363030000001,36.0256245,0 -90.5236165,36.0258379,0 -90.52358409999999,36.0260429,0 -90.5235431,36.0262516,0 -90.5234969,36.0264417,0 -90.5234358,36.0266659,0 -90.5233518,36.0269106,0 -90.5232571,36.027151,0 -90.52305490000002,36.0275878,0 -90.52281770000002,36.0280162,0 -90.52238070000001,36.0288231,0 -90.52192839999999,36.0296408,0 -90.52183070000001,36.0298175,0 -90.52152859999998,36.030375,0 -90.5213096,36.0307628,0 -90.521265,36.0308417,0 -90.5212346,36.0308848,0 -90.52117500000001,36.0309692,0 -90.5210265,36.031213,0 -90.5207631,36.0315158,0 -90.52064710000002,36.0316491,0 -90.5205926,36.0317064,0 -90.5203571,36.0319541,0 -90.5202918,36.0320189,0 -90.52006160000001,36.0322471,0 -90.51973390000002,36.0325333,0 -90.5193663,36.0328869,0 -90.5189161,36.0333525,0 -90.5184575,36.0338481,0 -90.51822199999999,36.0341137,0 -90.51818030000001,36.0341607,0 -90.5179131,36.0344721,0 -90.5177056,36.0347138,0 -90.51697299999999,36.0355787,0 -90.5169576,36.0355945,0 -90.5167646,36.035792,0 -90.5164845,36.0360278,0 -90.5162922,36.0361877,0 -90.51617299999999,36.0362782,0 -90.5158959,36.0364654,0 -90.5157442,36.0365639,0 -90.51551630000002,36.0366801,0 -90.51534140000001,36.0367692,0 -90.51514,36.0368671,0 -90.5150113,36.0369296,0 -90.51477479999998,36.0370356,0 -90.51468509999999,36.0370758,0 -90.51413290000002,36.0373472,0 -90.5140298,36.0373979,0 -90.5135837,36.0376333,0 -90.51314230000001,36.037899,0 -90.51289180000001,36.0380888,0 -90.5124519,36.0384455,0 -90.51218640000002,36.0387028,0 -90.51186999999999,36.0390581,0 -90.5114612,36.039532,0 -90.5110036,36.0400638,0 -90.5101933,36.0409899,0 -90.50998319999999,36.0412385,0 -90.5097906,36.0414996,0 -90.5096386,36.0417543,0 -90.50957150000001,36.0418769,0 -90.5094436,36.0421439,0 -90.50931219999998,36.0425004,0 -90.50922679999999,36.0428158,0 -90.5092119,36.0428708,0 -90.50916899999999,36.0431562,0 -90.5091436,36.0434663,0 -90.50909529999998,36.0441114,0 -90.50907869999999,36.0443599,0 -90.50905189999999,36.0447541,0 -90.5090082,36.0452684,0 -90.50898719999999,36.0454373,0 -90.50896929999999,36.0455662,0 -90.50894200000002,36.0457001,0 -90.5089049,36.0458514,0 -90.50886759999999,36.0459849,0 -90.50880979999999,36.0461555,0 -90.50876049999998,36.0462792,0 -90.5087037,36.0464142,0 -90.50861659999998,36.0466048,0 -90.5084955,36.0468212,0 -90.50806619999999,36.0475155,0 -90.5078178,36.0479058,0 -90.50766179999998,36.0481198,0 -90.5074422,36.048392,0 -90.507215,36.0486252,0 -90.50719719999999,36.0486432,0 -90.50704349999998,36.0487859,0 -90.5069563,36.0488604,0 -90.5068229,36.0489627,0 -90.50659419999999,36.049138,0 -90.5062965,36.0493635,0 -90.5060349,36.0495685,0 -90.50590219999999,36.0496877,0 -90.50577719999998,36.0498137,0 -90.50567019999998,36.0499436,0 -90.50557089999998,36.0500802,0 -90.5054736,36.050234,0 -90.50541,36.0503687,0 -90.5053537,36.0504966,0 -90.50530940000002,36.050617,0 -90.50527219999999,36.0507597,0 -90.5052397,36.0509076,0 -90.50521980000001,36.0510904,0 -90.50521019999999,36.0512664,0 -90.50521010000001,36.0514447,0 -90.50520890000001,36.0522857000001,0 -90.5052124,36.0524982,0 -90.50521500000002,36.0526436,0 -90.5052141,36.0528148,0 -90.50521299999998,36.0530721,0 -90.5052115,36.0534019,0 -90.50520779999999,36.0536715,0 -90.5052067,36.0540281,0 -90.5052093,36.0542267,0 -90.5052022,36.0548513,0 -90.50518619999998,36.0550546,0 -90.5051567,36.0552706,0 -90.50511740000002,36.0554497,0 -90.5050636,36.0556124000001,0 -90.5049406,36.0558800999999,0 -90.50484560000001,36.0560439,0 -90.50479520000002,36.0561302,0 -90.50472320000002,36.0562537,0 -90.50465840000001,36.056376,0 -90.50459599999999,36.0564939,0 -90.50450920000002,36.0566577,0 -90.5044149,36.0569251,0 -90.5043707,36.0570912,0 -90.5043465,36.0573002,0 -90.50433309999998,36.0574964,0 -90.5043227,36.057799,0 -90.50428750000002,36.0590977,0 -90.50426450000001,36.0596735,0 -90.5042593,36.0598046,0 -90.50425300000002,36.059927,0 -90.50425130000001,36.0599727,0 -90.50423790000001,36.0601028,0 -90.5042151,36.0602364,0 -90.5041963,36.0603467,0 -90.50417079999998,36.0604833000001,0 -90.5041306,36.0606329,0 -90.5040944,36.0607695,0 -90.5040188,36.0609597,0 -90.5038674,36.0612915,0 -90.5037138,36.0615831,0 -90.50368330000001,36.0616466,0 -90.5029145,36.0631837,0 -90.50286109999999,36.0632904,0 -90.50284569999999,36.0633212,0 -90.5023644,36.0642923,0 -90.5017914,36.0654069,0 -90.50136329999999,36.0662791,0 -90.4995078,36.0700589,0 -90.49925500000001,36.0705806,0 -90.49917840000001,36.0707387,0 -90.4991012,36.0708849,0 -90.49889760000001,36.0712709,0 -90.49869229999999,36.0716777,0 -90.49854790000002,36.0719701,0 -90.4985059,36.0720499,0 -90.49845149999999,36.0721421,0 -90.49839859999999,36.0722318,0 -90.4982742,36.0724192,0 -90.49813050000002,36.0726237,0 -90.4977335,36.0730941,0 -90.49752159999998,36.0733185,0 -90.4972145,36.0736003,0 -90.4962489,36.0745163,0 -90.4958613,36.0748902,0 -90.4952069,36.0755103,0 -90.4951385,36.0755742,0 -90.4943378,36.076333,0 -90.49358549999999,36.0770234,0 -90.49320060000001,36.0773898,0 -90.4919453,36.0785788,0 -90.49075569999999,36.0796443,0 -90.4902957,36.0800681,0 -90.4898907,36.0803846,0 -90.4897079,36.0805306,0 -90.48957940000001,36.0806415,0 -90.48930059999999,36.0808626,0 -90.48901770000001,36.0810847,0 -90.4886255,36.0813908,0 -90.4879086,36.0818434,0 -90.48576509999999,36.0831654,0 -90.4834369,36.0846332,0 -90.48136419999999,36.0859642,0 -90.47931960000001,36.0872686,0 -90.47787870000001,36.0881952999999,0 -90.4764787,36.0891242,0 -90.4757085,36.0896262,0 -90.4751748,36.0899773,0 -90.47261220000001,36.0916561,0 -90.47228870000001,36.0918652,0 -90.471594,36.092303,0 -90.4712383,36.0925197,0 -90.4708649,36.0927566,0 -90.47050950000001,36.092982,0 -90.46942110000001,36.0936767,0 -90.4691828,36.0938288,0 -90.4689758,36.0939609,0 -90.4677011,36.0947744,0 -90.46743669999998,36.0949432,0 -90.46731550000001,36.0950205,0 -90.46647239999999,36.0955586,0 -90.4654144,36.0962318,0 -90.4647318,36.0966694,0 -90.46430600000001,36.0969382,0 -90.4640611,36.0970943,0 -90.4636393,36.0973631,0 -90.4631866,36.0976526,0 -90.46315,36.097676,0 -90.46229420000002,36.0982232,0 -90.46173289999999,36.0985815,0 -90.460217,36.0995488,0 -90.45983769999999,36.0997907,0 -90.459502,36.1000048,0 -90.45925509999999,36.1001622,0 -90.45915599999999,36.1002253999999,0 -90.45711850000001,36.1015178,0 -90.4569236,36.1016431,0 -90.45659689999999,36.1018518,0 -90.45596690000001,36.1022542,0 -90.45383220000001,36.1036178,0 -90.4535466,36.1037997,0 -90.4529734,36.1041649,0 -90.45025910000001,36.105881,0 -90.44731150000001,36.1077961,0 -90.44689830000002,36.1080573,0 -90.44423960000002,36.1097372,0 -90.44385200000002,36.1100109,0 -90.44353580000001,36.1102515,0 -90.44321360000001,36.1105353,0 -90.44280669999999,36.1108972,0 -90.44268299999999,36.1110342,0 -90.4424592,36.1112822,0 -90.44189360000001,36.1119633,0 -90.44133279999998,36.1126485,0 -90.439875,36.1144255,0 -90.43971460000002,36.1146212,0 -90.43922110000001,36.1152205,0 -90.43818550000002,36.1164852,0 -90.43683459999998,36.1181362,0 -90.43597500000001,36.1191842,0 -90.43446230000001,36.1210286,0 -90.43401550000002,36.1215745,0 -90.43370830000001,36.1219498,0 -90.4332023,36.122568,0 -90.43311780000002,36.1226713,0 -90.43294829999999,36.1228784,0 -90.4325626,36.1233496,0 -90.4297791,36.1267503,0 -90.4295259,36.1270575,0 -90.4274468,36.1295897,0 -90.4244674,36.1332353,0 -90.42337089999998,36.134649,0 -90.42223369999999,36.1360341,0 -90.4200063,36.1387521,0 -90.4198665,36.1389219,0 -90.41931959999999,36.1395861000001,0 -90.4180695,36.1411127,0 -90.41771079999999,36.1415507,0 -90.4161105,36.1435049,0 -90.41604890000002,36.1435816,0 -90.41600009999999,36.1436422,0 -90.4157984,36.1438931,0 -90.4152483,36.1445932,0 -90.41500619999999,36.1449025,0 -90.41487169999999,36.1450744,0 -90.414214,36.1459145,0 -90.41385210000001,36.1463515,0 -90.41348329999998,36.1467798,0 -90.4131246,36.1472152,0 -90.41277650000001,36.1476544,0 -90.41256250000001,36.1479271,0 -90.4117095,36.1490226,0 -90.4108737,36.150087,0 -90.4107791,36.1502076,0 -90.4106835,36.1503297,0 -90.41025310000001,36.150879,0 -90.41006790000002,36.1511159,0 -90.4088205,36.1527106,0 -90.40470620000001,36.1579663,0 -90.4046254,36.1580693,0 -90.4036241,36.1593427,0 -90.4031044,36.160009,0 -90.4025539,36.1607048,0 -90.40127459999999,36.1623809,0 -90.40014189999999,36.1638687,0 -90.3984158,36.1659885,0 -90.3933282,36.1724729,0 -90.3932763,36.1725369,0 -90.39219490000001,36.1739351,0 -90.39151769999999,36.1749295,0 -90.39120459999998,36.1753529,0 -90.3908895,36.1757516,0 -90.39057080000001,36.1761562,0 -90.3902846,36.1765115,0 -90.39003219999998,36.1768138,0 -90.38978160000001,36.1770943,0 -90.3891509,36.1778014,0 -90.38871950000001,36.1783151,0 -90.38769619999999,36.1795859,0 -90.38734220000002,36.1800434,0 -90.3868693,36.18067,0 -90.3863247,36.1813798,0 -90.3853532,36.1826555000001,0 -90.3852634,36.1827851,0 -90.3851908,36.1829035,0 -90.3851353,36.183018,0 -90.3850832,36.1831419,0 -90.3850375,36.1832732,0 -90.38501629999999,36.1833739000001,0 -90.385003,36.1834837,0 -90.3849951,36.1836064,0 -90.3849872,36.1837466,0 -90.38494919999999,36.1850208,0 -90.3849457,36.1851867,0 -90.3849173,36.1860056,0 -90.3849101,36.186272,0 -90.38490830000001,36.1863864,0 
				
					-90.38489390707281,36.1864774655131,0 -90.38485381863369,36.1867240147434,0 -90.38482970717141,36.1868209578985,0 -90.38478555887281,36.1868628400669,0 -90.38476540890932,36.1869080004576,0 -90.38476137705939,36.1869564719014,0 -90.38481769681,36.1870502504508,0 -90.38484201193938,36.1871790251654,0 -90.3848828,36.1873817,0 -90.384878,36.1876777,0 -90.38487589999998,36.1878844,0 -90.38486280000001,36.1888272,0 -90.3848627,36.1892634,0 -90.38486210000001,36.1897952,0 -90.3848649,36.1901005,0 -90.38485900000001,36.1901811,0 -90.3848514,36.19025,0 -90.3848327,36.1903192,0 -90.3847937,36.1903945,0 -90.3847454,36.1904502,0 -90.3846837,36.1904957,0 -90.38460329999999,36.1905412,0 -90.3845188,36.190572,0 -90.38442830000001,36.1905907,0 -90.38433779999998,36.1906007,0 -90.38426529999998,36.1906017,0 -90.38367940000001,36.1905925,0 -90.3830292,36.1905864,0 -90.38254309999999,36.1905856,0 -90.38200070000001,36.1905739,0 -90.38143539999999,36.190547,0 -90.37937030000001,36.1904171,0 -90.3778684,36.1903216,0 -90.3776106,36.190309,0 -90.37722020000001,36.1903099,0 -90.37709270000001,36.1903155,0 -90.37695750000002,36.1903285,0 -90.3768341,36.1903474,0 -90.3766978,36.1903793,0 -90.37656810000001,36.1904176,0 -90.3764333,36.190468,0 -90.37633219999999,36.1905145,0 -90.3762328,36.1905685,0 -90.3761283,36.1906366,0 -90.37599299999998,36.1907336,0 -90.3758734,36.190834,0 -90.375789,36.1909162,0 -90.37570469999999,36.1910058,0 -90.375608,36.1911324,0 -90.37552699999999,36.1912507999999,0 -90.3750295,36.1920396,0 -90.3747709,36.1924384,0 -90.37465010000001,36.1926153,0 -90.3745479,36.1927424,0 -90.37441219999998,36.1928961000001,0 -90.37429090000001,36.1930159,0 -90.3741247,36.1931565,0 -90.37368619999998,36.1935291,0 -90.37141879999999,36.19544,0 -90.37043189999999,36.196272,0 -90.3692616,36.1972577000001,0 -90.3691783,36.1973284,0 -90.36817000000001,36.1981833,0 -90.36761370000001,36.198651,0 -90.3670584,36.1991098,0 -90.3665803,36.1994815,0 -90.36607449999998,36.1998606,0 -90.36581870000001,36.2000542,0 -90.36557579999999,36.2002536,0 -90.3653341,36.2004532,0 -90.36525779999999,36.2005074,0 -90.3651165,36.2006343,0 -90.36461540000001,36.201054,0 -90.36283709999999,36.202555,0 -90.3615712,36.2036255,0 -90.36024470000001,36.2047425,0 -90.35882270000002,36.2059382,0 -90.3572538,36.2072611,0 -90.355735,36.2085314,0 -90.35340470000001,36.2104934,0 -90.35171789999998,36.2119184,0 -90.350015,36.2133503,0 -90.34913539999999,36.2140914,0 -90.3477206,36.215277,0 -90.34757240000002,36.2154007,0 -90.34405080000001,36.2183778,0 -90.34137429999998,36.2206332,0 -90.3395252,36.2221833,0 -90.3391417,36.2225111,0 -90.3381184,36.2233757,0 -90.33767410000002,36.2237519,0 -90.3369667,36.2243633,0 -90.3367155,36.2245869,0 -90.3363243,36.2249603,0 -90.3359555,36.2253019,0 -90.3355954,36.2256248,0 -90.3352094,36.2259547,0 -90.33462360000001,36.2264473,0 -90.3300995,36.230238,0 -90.3299873,36.2303325,0 -90.32057179999998,36.2382641,0 -90.3200997,36.2386676,0 -90.3192207,36.2394018,0 -90.3153514,36.2426537,0 -90.31326780000001,36.2444118,0 -90.3108361,36.2464607,0 -90.3069151,36.2497518,0 -90.30597299999999,36.2505354,0 -90.30577270000001,36.2507058,0 -90.30408389999999,36.2521457,0 -90.3000748,36.2555032,0 -90.2995145,36.2559846,0 -90.2974045,36.2577608,0 -90.2971347,36.2579846,0 -90.29620439999999,36.2587529,0 -90.2960491,36.2588534,0 -90.2958881,36.2589367,0 -90.29573360000001,36.2589937,0 -90.2955513,36.2590342,0 -90.29528019999999,36.2590479,0 -90.2940291,36.2590394,0 -90.29317429999999,36.2590383,0 -90.29276989999998,36.2590431,0 -90.29164230000002,36.2590131,0 -90.2905658,36.2590016,0 -90.2893935,36.2589884,0 -90.2882037,36.2589816,0 -90.2871358,36.2589717,0 -90.28611789999999,36.258964,0 -90.2844482,36.2589651,0 -90.28379080000001,36.2589744,0 -90.28323320000001,36.2589903,0 -90.282612,36.2590032,0 -90.27958640000001,36.2589819,0 -90.2767176,36.2589742,0 -90.27488219999999,36.2589759,0 -90.26609929999999,36.2589643,0 -90.2656769,36.258968,0 -90.26324959999999,36.2589922,0 -90.2627657,36.2589977,0 -90.2622764,36.2590229,0 -90.2618674,36.2590655,0 -90.26140570000001,36.2591289000001,0 -90.261107,36.2591595,0 -90.2606801,36.2591696,0 -90.25696069999999,36.2591587,0 -90.2524951,36.2591576,0 -90.2521619,36.2591609,0 -90.2477758,36.2591608,0 -90.23841350000001,36.2591653,0 -90.23367020000001,36.2591586,0 -90.2316706,36.2591482,0 -90.23138609999998,36.2591525000001,0 -90.23114579999999,36.2591705,0 -90.23098380000002,36.2591871,0 -90.23080040000001,36.2592168,0 -90.23062969999999,36.2592693000001,0 -90.2304312,36.2593457,0 -90.2302408,36.2594423,0 -90.23007710000002,36.2595495,0 -90.229919,36.2596754,0 -90.22978099999999,36.2598418,0 -90.2296647,36.2600192,0 -90.22956820000002,36.2602376,0 -90.229522,36.2604372,0 -90.22949789999998,36.2606405,0 -90.22949080000001,36.2608935,0 -90.2294062,36.2667514,0 -90.22938670000001,36.2683466,0 -90.22938120000001,36.2687922,0 -90.22936369999999,36.2702274,0 -90.2293284,36.2738002,0 -90.2293064,36.2825066,0 -90.2292873,36.2883334,0 -90.2292818,36.2955914,0 -90.22926990000001,36.2992708000001,0 -90.22926719999998,36.3009374,0 -90.22925650000001,36.3017113000001,0 -90.22923489999999,36.3022941,0 -90.22920329999999,36.3028465,0 -90.229176,36.303272,0 -90.22915980000002,36.3036882,0 -90.229119,36.3069371,0 -90.2290971,36.3084843999999,0 -90.22905859999999,36.3087993,0 -90.22897479999999,36.309014,0 -90.22886850000002,36.3092214,0 -90.22874819999998,36.3093706,0 -90.2285751,36.3095459,0 -90.22842609999999,36.3096574,0 -90.2282609,36.3097612,0 -90.22810579999999,36.309844,0 -90.2279372,36.3099128,0 -90.22773699999999,36.3099715,0 -90.2276416,36.3099922,0 -90.22754249999998,36.3100136,0 -90.22732120000001,36.310045,0 -90.22712009999999,36.3100558000001,0 -90.2268177,36.3100583,0 -90.2223551,36.3100115,0 -90.2220413,36.3100266,0 -90.2217449,36.310059,0 -90.22152900000002,36.3101076,0 -90.22131039999999,36.3101768,0 -90.2210529,36.3103033,0 -90.22085709999999,36.3104319,0 -90.22067870000001,36.3105864,0 -90.2205393,36.3107474,0 -90.2204239,36.3109128,0 -90.2203234,36.3110965,0 -90.22026169999999,36.3112942,0 -90.2202295,36.3114855,0 -90.2202147,36.3117038,0 -90.22021679999999,36.3119162,0 -90.2202095,36.3154807,0 -90.2202214,36.3156925,0 -90.2202516,36.315912,0 -90.2202992,36.3161107,0 -90.22036359999998,36.3163009,0 -90.2205013,36.316652,0 -90.22063350000001,36.3169844,0 -90.22068949999999,36.3172431,0 -90.22071450000001,36.3175209,0 -90.2207155,36.3179057,0 -90.2206857,36.3202794,0 -90.22062320000001,36.3275671,0 -90.22059200000001,36.3339128,0 -90.22057359999999,36.3349689,0 -90.22052349999998,36.3385039,0 -90.2205151,36.3396416,0 -90.2204943,36.3409615,0 -90.22047299999998,36.3412883,0 -90.22045610000001,36.3414404,0 -90.2204194,36.3415937,0 -90.22037520000001,36.341685,0 -90.22028450000001,36.3418044,0 -90.22019160000001,36.341901,0 -90.22003599999998,36.3420075,0 -90.21988210000001,36.3420831,0 -90.21970659999998,36.3421521,0 -90.2195353,36.3421979,0 -90.21927650000001,36.3422257,0 -90.2190641,36.3422301,0 -90.218017,36.342207,0 -90.2141488,36.34214,0 -90.21269529999998,36.3421107,0 -90.2124173,36.3421302,0 -90.2121834,36.3421794,0 -90.21202119999998,36.3422453,0 -90.2118778,36.3423317,0 -90.2117624,36.3424224,0 -90.2116719,36.342525,0 -90.21160140000001,36.3426321,0 -90.2115277,36.3428027,0 -90.2115069,36.3429139,0 -90.21149490000001,36.3430638,0 -90.2114299,36.3454522,0 -90.2114157,36.3459439,0 -90.21129720000002,36.3526643,0 -90.2112803,36.3528557,0 -90.21125080000002,36.3530205,0 -90.2111998,36.3532014,0 -90.21112119999999,36.3533818,0 -90.21101939999998,36.3535378,0 -90.20991429999999,36.3549704,0 -90.20459750000002,36.3617877,0 -90.20278039999998,36.364113,0 -90.202122,36.3649609,0 -90.19785719999999,36.370387,0 -90.1970609,36.3714124,0 -90.1953833,36.3735733,0 -90.1951411,36.3738695,0 -90.19501940000001,36.3739948,0 -90.1948795,36.3741216,0 -90.19471880000002,36.3742341,0 -90.1945145,36.3743442,0 -90.19433529999999,36.3744217,0 -90.19407510000001,36.3744945,0 -90.1938294,36.3745395,0 -90.1935605,36.3745581,0 -90.19329399999999,36.3745677,0 -90.1917916,36.3745456,0 -90.1911951,36.3745368,0 -90.18930880000001,36.374509,0 -90.18922279999998,36.3745068,0 -90.18871710000002,36.3744987,0 -90.1881151,36.3745029,0 -90.187988,36.3745131,0 -90.18788670000001,36.3745439,0 -90.1878166,36.3745831000001,0 -90.18772509999999,36.374688,0 -90.1876784,36.3747828,0 -90.187656,36.375046,0 -90.1876336,36.3766752,0 -90.18760219999999,36.3781818,0 -90.18757960000001,36.3790744,0 -90.1875592,36.3800456,0 -90.1875335,36.3808804,0 -90.18750240000001,36.3819633,0 
				</coordinates>
			</LineString>
		<atom:link rel="app" href="https://www.google.com/earth/about/versions/#earth-pro" title="Google Earth Pro 7.3.6.10201"></atom:link>
	</Placemark>
</Document>
</kml>
