<?xml version="1.0" encoding="UTF-8"?>
<kml xmlns="http://www.opengis.net/kml/2.2" xmlns:gx="http://www.google.com/kml/ext/2.2" xmlns:kml="http://www.opengis.net/kml/2.2" xmlns:atom="http://www.w3.org/2005/Atom">
<Placemark>
	<name>US.45E</name>
	<visibility>0</visibility>
	<LineString>
		<coordinates>
			-88.844273,35.758232,0 -88.8445754,35.759074,0 -88.84479829999999,35.7597082,0 -88.84486149999999,35.7601313,0 -88.8448528,35.7603803,0 -88.8447717,35.760926,0 -88.84444790000001,35.7615241,0 -88.842922,35.7625116,0 -88.842428,35.7628312,0 -88.8419411,35.7631351,0 -88.83974019999999,35.7644748,0 -88.8383323,35.7652904,0 -88.8370688,35.766023,0 -88.83564269999999,35.7668299,0 -88.83397530000001,35.7678356,0 -88.83344080000001,35.768158,0 -88.8323424,35.7687999,0 -88.8303257,35.7700042,0 -88.8269073,35.7720103,0 -88.82503130000001,35.7731085,0 -88.82356059999999,35.7739951,0 -88.822508,35.7746295999999,0 -88.8222097,35.7748344,0 -88.8201735,35.7760026999999,0 -88.8167091,35.7780534,0 -88.8153992,35.7788288,0 -88.8131904,35.7801292,0 -88.8097008,35.7821929,0 -88.8096784,35.7822061,0 -88.8062242,35.7842115,0 -88.80342899999999,35.7856956,0 -88.80184920000001,35.786542,0 -88.7993896,35.7878453,0 -88.7955852,35.7898475,0 -88.79149049999999,35.7920466,0 -88.7902728,35.792695,0 -88.78938309999999,35.7931847,0 -88.7890072,35.7933834,0 -88.7885933,35.7936021,0 -88.787521,35.7941689,0 -88.78475349999999,35.7956127,0 -88.7847324,35.7956237,0 -88.7843196,35.7958692,0 -88.7839776,35.79609,0 -88.7837791,35.7962477,0 -88.7835592,35.7964664,0 -88.78337550000001,35.7966567,0 -88.7832435,35.7968192,0 -88.7830225,35.7971493,0 -88.7828568,35.7974409,0 -88.7827291,35.7978152,0 -88.7826561,35.7981468,0 -88.78262340000001,35.7984413,0 -88.7826178,35.7986954,0 -88.7826448,35.7990584,0 -88.7827566,35.7999401,0 -88.78282830000001,35.800441,0 -88.7828457,35.8007673,0 -88.78284309999999,35.801036,0 -88.7828256,35.8013427,0 -88.7827867,35.8016244,0 -88.78270879999999,35.8019390999999,0 -88.7826151,35.8022618,0 -88.78250509999999,35.8025653,0 -88.782371,35.8028698,0 -88.7820803,35.803527,0 -88.7814303,35.8049541,0 -88.7803345,35.8074104,0 -88.7792757,35.8097828,0 -88.7787661,35.8109322,0 -88.7785287,35.811401,0 -88.7784013,35.8115904,0 -88.7782672,35.8117753,0 -88.7781143,35.8119449,0 -88.7779834,35.8120849,0 -88.77773790000001,35.8123099,0 -88.77739990000001,35.8125530000001,0 -88.7770414,35.8127551,0 -88.77670879999999,35.8129096,0 -88.7763427,35.8130379,0 -88.7759283,35.8131499,0 -88.7756601,35.8131945,0 -88.7753329,35.8132304,0 -88.77370070000001,35.8133413,0 -88.7731536,35.8133837,0 -88.7727419,35.8134414,0 -88.77240519999999,35.8135055,0 -88.7719828,35.8136165000001,0 -88.7715054,35.813785,0 -88.7710546,35.8139971,0 -88.7706513,35.8142233,0 -88.7698156,35.8148747,0 -88.7678978,35.8164788,0 -88.7673453,35.816941,0 -88.76656610000001,35.8176131,0 -88.76597870000001,35.8181633,0 -88.7654047,35.8187254999999,0 -88.7649389,35.819224,0 -88.764775,35.8194048,0 -88.7644442,35.8197921,0 -88.76442489999999,35.8198147,0 -88.7643654,35.8198844,0 -88.7637265,35.8206641999999,0 -88.76324150000001,35.8213604,0 -88.76256290000001,35.822363,0 -88.7622073,35.8230175,0 -88.76216549999999,35.8230823,0 -88.76119250000001,35.8247626,0 -88.76032960000001,35.8263217,0 -88.75956909999999,35.8275838,0 -88.7586632,35.8292201,0 -88.7577902,35.8307622,0 -88.7566396,35.8327795,0 -88.75618230000001,35.8335786,0 -88.7560237,35.8338958,0 -88.75589220000001,35.8341932,0 -88.7557688,35.8344977,0 -88.7556053,35.8350093,0 -88.7550914,35.8368659,0 -88.7549664,35.8372916,0 -88.75401479999999,35.8407053,0 -88.7535104,35.8425407,0 -88.7529993,35.8443629,0 -88.7519961,35.8479979,0 -88.7519916,35.8480127,0 -88.75153090000001,35.8496003,0 -88.7513376,35.8501609,0 -88.75119840000001,35.8504569,0 -88.75104829999999,35.8507206,0 -88.750637,35.8514182,0 -88.74965709999999,35.8527075,0 -88.74932099999999,35.8532658,0 -88.74918940000001,35.8535614,0 -88.7491021,35.8538413,0 -88.748881,35.8546756,0 -88.74887270000001,35.8547103,0 -88.7480532,35.8581796,0 -88.7474136,35.8608986000001,0 -88.74686610000001,35.8631586,0 -88.7462704,35.865766,0 -88.74579900000001,35.8677927,0 -88.7455255,35.8689687,0 -88.7448864,35.8716096,0 -88.7447319,35.8722751,0 -88.7444041,35.8736268,0 -88.7443573,35.8738411,0 -88.74423779999999,35.8743877,0 -88.74420050000001,35.8746396,0 -88.74419330000001,35.874888,0 -88.74418850000001,35.8750647,0 -88.7442085,35.8753003,0 -88.7442447,35.8755577,0 -88.74434669999999,35.8759597,0 -88.7446525,35.8771259,0 -88.74466510000001,35.877171,0 -88.74513640000001,35.8789069,0 -88.7451982,35.8791248,0 -88.745209,35.8791627,0 -88.7455061,35.8801976,0 -88.746077,35.8818948,0 -88.7463211,35.8826206,0 -88.74649170000001,35.8829601,0 -88.7465244,35.8830635,0 -88.7466273,35.8833885,0 -88.7467286,35.8837084999999,0 -88.7467589,35.8838043,0 -88.7468561,35.8841114,0 -88.7469344,35.8843585,0 -88.7469852,35.8845191,0 -88.74712030000001,35.8849874,0 -88.7471379,35.8850496,0 -88.7472044,35.885285,0 -88.7473497,35.8857996,0 -88.7475836,35.8866518,0 -88.74782,35.8875132,0 -88.7482578,35.8891807,0 -88.74883869999999,35.8912594,0 -88.74936649999999,35.8931824,0 -88.74961089999999,35.89402,0 -88.7498382,35.8948781,0 -88.750006,35.8954898,0 -88.7502284,35.8963004000001,0 -88.7505587,35.8975023,0 -88.7508406,35.8985021,0 -88.7513987,35.9007543,0 -88.7515836,35.9017956,0 -88.7516619,35.9022365,0 -88.7521162,35.9053149,0 -88.7521516,35.9055542,0 -88.7522245,35.906047,0 -88.7522884,35.9065027,0 -88.75233160000001,35.9068109,0 -88.7523747,35.9071188,0 -88.7524504,35.907659,0 -88.7524925,35.9079593,0 -88.7525828,35.9086035,0 -88.7526336,35.9089661,0 -88.75269830000001,35.9094277,0 -88.75272940000001,35.9096388,0 -88.752775,35.9099691,0 -88.7527812,35.9100129,0 -88.7527832,35.910027,0 -88.7528337,35.9103328,0 -88.7529476,35.9110118,0 -88.75299680000001,35.9113583,0 -88.75307909999999,35.9119385,0 -88.7530727,35.9119951,0 -88.7530472,35.9122195,0 -88.7529912,35.9127117,0 -88.7529574,35.9129033,0 -88.7528176,35.913918,0 -88.75278640000001,35.9140872999999,0 -88.7527714,35.9142498,0 -88.7528026,35.9144488999999,0 -88.75282300000001,35.9145108,0 -88.7528492,35.9146169,0 -88.7528748,35.9146937,0 -88.7529461,35.9148284,0 -88.7530089,35.9149425,0 -88.7530763,35.9150423,0 -88.7531735,35.915156,0 -88.7533572,35.9153601,0 -88.7534031,35.9154,0 -88.75345249999999,35.9154494,0 -88.7540012,35.9159982,0 -88.7541386,35.9161356,0 -88.7542705,35.9162664,0 -88.7550229,35.9170127,0 -88.7550643,35.9170541,0 -88.75518529999999,35.9171751,0 -88.7552424,35.917231,0 -88.75532250000001,35.9173095,0 -88.7556348,35.9176153,0 -88.75568629999999,35.9176719,0 -88.7562829,35.9182522,0 -88.75695330000001,35.9189193,0 -88.7572646,35.9192282,0 -88.7576061,35.9195671,0 -88.7577926,35.9197621,0 -88.7581283,35.9201001,0 -88.7582214,35.9201939,0 -88.7582797,35.9202481,0 -88.7586355,35.9205786,0 -88.7589218,35.9208499,0 -88.75925290000001,35.9211835,0 -88.7592899,35.9212197,0 -88.7594114,35.9213388,0 -88.7604824,35.9224007,0 -88.7606929,35.922625,0 -88.760744,35.9226764,0 -88.7608767,35.9229185,0 -88.76092149999999,35.9230454,0 -88.7609527,35.9232473,0 -88.7609495,35.9234423,0 -88.76083079999999,35.9259021,0 -88.76081979999999,35.9265109,0 -88.7607989,35.9270802,0 -88.76078459999999,35.9277448,0 -88.76076639999999,35.9282859,0 -88.7607371,35.9294582,0 -88.7607495,35.9296595,0 -88.76078680000001,35.9299183,0 -88.7608273,35.9300902,0 -88.7609056,35.9303741,0 -88.7610061,35.9306467,0 -88.7611319,35.9309091999999,0 -88.7616544,35.93196,0 -88.7618437,35.9323395,0 -88.7625824,35.9338091,0 -88.76309999999999,35.9348218,0 -88.7639638,35.9365855,0 -88.7658807,35.9404253999999,0 -88.7665812,35.9418278,0 -88.76822540000001,35.9451194,0 -88.76845969999999,35.9455698,0 -88.7699885,35.9486145,0 -88.77099699999999,35.950608,0 -88.77188099999999,35.9524435,0 -88.77380359999999,35.9563841,0 -88.7744028,35.9574977,0 -88.77525850000001,35.9592329,0 -88.7765265,35.9617731,0 -88.7778764,35.9643001,0 -88.7783146,35.9651694,0 -88.7806463,35.9695666,0 -88.78194980000001,35.9721053,0 -88.7828564,35.9741067,0 -88.783506,35.975731,0 -88.7844229,35.9780409,0 -88.7854597,35.9803166,0 -88.7854597,35.9803166,0 -88.785493,35.9805819,0 -88.79174089999999,35.9937198,0 -88.7920305,35.9943814,0 -88.79332770000001,35.9971557,0 -88.7941288,35.9988855,0 -88.7947928,36.0006559,0 -88.7960774,36.0037023,0 -88.79777470000001,36.0077174,0 -88.7981127,36.0084415,0 -88.7984786,36.0091834,0 -88.7988885,36.0099227,0 -88.7995339,36.0109206,0 -88.800544,36.0124222999999,0 -88.8016016,36.0139445,0 -88.802311,36.0150042,0 -88.8034388,36.0167696,0 -88.8036482,36.017149,0 -88.8043244,36.0183356,0 -88.8050065,36.0195288,0 -88.80666410000001,36.0224194,0 -88.80762780000001,36.0241433,0 -88.8085135,36.0256621,0 -88.80889310000001,36.0263263,0 -88.8093662,36.0271521,0 -88.8100785,36.0284155,0 -88.810312,36.028843,0 -88.81074529999999,36.0295803,0 -88.8114925,36.0309493,0 -88.812516,36.0327223,0 -88.8129611,36.0334565,0 -88.8133042,36.0340861,0 -88.8135255,36.0344367,0 -88.8139553,36.0352146,0 -88.8145287,36.036229,0 -88.8153437,36.0377088,0 -88.8157417,36.0384986,0 -88.81603010000001,36.0391769,0 -88.8163546,36.0401117,0 -88.8167868,36.0416729,0 -88.81809370000001,36.0467435,0 -88.8193661,36.0516618,0 -88.8198948,36.053754,0 -88.8200891,36.0545501,0 -88.8205138,36.0561458,0 -88.8205494,36.0562973,0 -88.82140219999999,36.0596463,0 -88.8221236,36.0624488999999,0 -88.8223254,36.0632485,0 -88.82251909999999,36.0640277,0 -88.8231948,36.0665898,0 -88.8237865,36.0688394,0 -88.82392950000001,36.0694621,0 -88.8243349,36.0710345,0 -88.82481780000001,36.0729676,0 -88.8249878,36.0736041,0 -88.82504,36.0737995,0 -88.8252755,36.0746536,0 -88.82541639999999,36.0752165,0 -88.8254848,36.0755981,0 -88.8255063,36.0757877,0 -88.82552099999999,36.076037,0 -88.8255157,36.0763026,0 -88.8254929,36.0766397,0 -88.8254258,36.0769671,0 -88.8253333,36.0772976,0 -88.8252662,36.0774917,0 -88.8250869,36.0778768,0 -88.8250405,36.0779464,0 -88.8248304,36.0782753,0 -88.8246104,36.0785691,0 -88.8244052,36.0788054,0 -88.8241021,36.0791403,0 -88.82360730000001,36.0796692,0 -88.8228227,36.0804995000001,0 -88.8221399,36.0811923,0 -88.8207654,36.0826412,0 -88.8179669,36.0856043,0 -88.8168859,36.0867702,0 -88.8152683,36.0885348,0 -88.8149437,36.0889272,0 -88.8146581,36.0893011,0 -88.81432409999999,36.0897746,0 -88.8139741,36.0902959,0 -88.81372469999999,36.0907164,0 -88.8131788,36.0917221,0 -88.8128293,36.0925757,0 -88.8124579,36.0935389,0 -88.81223490000001,36.0943961,0 -88.8120887,36.0950233,0 -88.81196490000001,36.0959053,0 -88.8119061,36.0964354,0 -88.811819,36.0980377,0 -88.8117274,36.0997223,0 -88.81157519999999,36.1025865,0 -88.8114649,36.1047083,0 -88.81140859999999,36.1056358,0 -88.8113889,36.1059886000001,0 -88.8113175,36.1073833,0 -88.81126709999999,36.1083795,0 -88.8112235,36.1093938,0 -88.8110626,36.1143251,0 -88.81089369999999,36.1174528,0 -88.8108263,36.1188868,0 -88.81064910000001,36.1222962999999,0 -88.81053970000001,36.1225122,0 -88.8104814,36.1229766,0 -88.8104725,36.1234188,0 -88.8104379,36.1241511,0 -88.8102882,36.1267331,0 -88.8101963,36.1284271,0 -88.8100463,36.1315656,0 -88.80992550000001,36.1326131,0 -88.8097989,36.1331732,0 -88.8095874,36.1337828,0 -88.8093652,36.1343116,0 -88.80905,36.1348893,0 -88.8087565,36.1353621,0 -88.8077476,36.1369995,0 -88.806465,36.1390956,0 -88.80496789999999,36.14145,0 -88.8041267,36.1427317,0 -88.80383879999999,36.1431703,0 -88.8035807,36.143594,0 -88.80358,36.1436971000001,0 -88.80110639999999,36.1477599,0 -88.8007999,36.1482752,0 -88.80061000000001,36.1485856,0 -88.8004677,36.1488766,0 -88.80037400000001,36.1491292,0 -88.8003009,36.1493532,0 -88.8002441,36.1497799,0 -88.8002544,36.1501964,0 -88.8003085,36.1505812,0 -88.800422,36.1512906,0 -88.8005995,36.1525442,0 -88.8007394,36.1534197,0 -88.8008324,36.1540318,0 -88.8008592,36.1542083,0 -88.8009211,36.1546725,0 -88.8011502,36.1562798,0 -88.80146809999999,36.1582656,0 -88.80161579999999,36.1588489,0 -88.8017768,36.1593384,0 -88.8022816,36.1605161,0 -88.80377230000001,36.1640374999999,0 -88.80474700000001,36.1662784,0 -88.8065484,36.1704709,0 -88.8084447,36.1749881999999,0 -88.80896250000001,36.1762077,0 -88.8091581,36.1766824,0 -88.8094042,36.1771972,0 -88.8094633,36.1772984,0 -88.8095766,36.1775394,0 -88.8097935,36.1779508,0 -88.81014740000001,36.1788203999999,0 -88.8103679,36.1793205,0 -88.8109042,36.180609,0 -88.8112684,36.1814768,0 -88.8116443,36.1823736,0 -88.8119265,36.1830206,0 -88.8124782,36.1840922,0 -88.8131674,36.1853288,0 -88.81480120000001,36.1883848,0 -88.8164163,36.1913531,0 -88.81804440000001,36.1943449,0 -88.8185435,36.1952668,0 -88.8192696,36.1966023,0 -88.81961080000001,36.1973214,0 -88.81993249999999,36.1981699,0 -88.82014719999999,36.1987945,0 -88.8204901,36.1999294,0 -88.8209968,36.2016022,0 -88.8214712,36.2029925,0 -88.8222043,36.2055109,0 -88.8226138,36.2069123,0 -88.8227868,36.2075218000001,0 -88.8234799,36.2099626,0 -88.8238217,36.2111124,0 -88.8239822,36.2118344,0 -88.8242338,36.2123645,0 -88.82440389999999,36.2125921,0 -88.8246415,36.2129098,0 -88.8252316,36.2135071,0 -88.82602850000001,36.2140751,0 -88.8280425,36.2154548,0 -88.8287184,36.2159222,0 -88.8292656,36.2164675,0 -88.82978060000001,36.2170561,0 -88.8301883,36.2177053,0 -88.8305423,36.2184583,0 -88.8310628,36.2197002,0 -88.83210870000001,36.2224658,0 -88.8327627,36.2240611,0 -88.8329885,36.2245344,0 -88.8332889,36.225097,0 -88.8336644,36.2256942,0 -88.8365232,36.229694,0 -88.83746240000001,36.2310081,0 -88.8379238,36.2317351,0 -88.8382671,36.2324014,0 -88.8385139,36.2330505,0 -88.8386855,36.2336217,0 -88.8387713,36.2342274,0 -88.8388357,36.2348765,0 -88.8388035,36.2355861,0 -88.83872839999999,36.236339,0 -88.83854599999999,36.2370832,0 -88.8382885,36.2377149,0 -88.83795600000001,36.2383985,0 -88.83746240000001,36.2391081,0 -88.83692600000001,36.2397485000001,0 -88.8314901,36.2458116,0 -88.8308105,36.2465757,0 -88.8304243,36.2471035,0 -88.8300703,36.2477957,0 -88.8298695,36.2484261000001,0 -88.8297546,36.2488669,0 -88.82966620000001,36.2494492,0 -88.8296304,36.2501232,0 -88.8297377,36.250997,0 -88.8299308,36.2517238,0 -88.83139989999999,36.2560803,0 -88.8324054,36.2591815,0 -88.833539,36.2626779,0 -88.8344902,36.2656113000001,0 -88.83493540000001,36.2669794,0 -88.83565249999999,36.2691704,0 -88.8366698,36.2722783,0 -88.8375961,36.2750775,0 -88.83861039999999,36.2781426,0 -88.8388587,36.2790111,0 -88.83921119999999,36.2802442999999,0 -88.83968710000001,36.2822348,0 -88.83977830000001,36.2825202,0 -88.8398856,36.2828359,0 -88.8400393,36.2831801,0 -88.8401745,36.2834288,0 -88.8403914,36.2837903,0 -88.8407699,36.2842887,0 -88.84279789999999,36.2868617,0 -88.8428376,36.2869123,0 -88.8432667,36.2874917,0 -88.8435135,36.2880192,0 -88.84372810000001,36.2885553999999,0 -88.8438568,36.2891262,0 -88.8438962,36.2895707,0 -88.84389969999999,36.2896105,0 -88.8438783,36.2901639,0 -88.8435635,36.2927109,0 -88.8431594,36.2958366,0 -88.8430736,36.296416,0 -88.84306290000001,36.2968829,0 -88.8430951,36.2973845,0 -88.8431258,36.2975354,0 -88.8432024,36.2979119,0 -88.84333700000001,36.2982935,0 -88.8434168,36.2985196,0 -88.84352920000001,36.2986967,0 -88.8436571,36.2991468,0 -88.84368980000001,36.2992671,0 -88.8438177,36.2997322,0 -88.8439328,36.3001388,0 -88.84400960000001,36.3004149,0 -88.84423409999999,36.3012132,0 -88.84450990000001,36.3022212,0 -88.8449773,36.3038881,0 -88.8452939,36.3050301,0 -88.84530289999999,36.3050625,0 -88.8456225,36.3062158,0 -88.84613179999999,36.3080241,0 -88.8464364,36.3091479,0 -88.84678150000001,36.3104422,0 -88.84724199999999,36.3121225,0 -88.84742540000001,36.3127387,0 -88.84740530000001,36.3128693,0 -88.8474212,36.3129285,0 -88.8474057,36.3131864,0 -88.847369,36.3134426,0 -88.8473187,36.3136550999999,0 -88.8472385,36.3138609,0 -88.84712570000001,36.3140767,0 -88.84701560000001,36.3142355,0 -88.84686069999999,36.3144183,0 -88.84672209999999,36.3145585,0 -88.8465454,36.3147009,0 -88.84635110000001,36.3148345,0 -88.8461472,36.3149451,0 -88.84592429999999,36.3150425,0 -88.8458102,36.3150852,0 -88.84558319999999,36.3151553,0 -88.84541470000001,36.3151969,0 -88.8452869,36.3152221,0 -88.8450247,36.3152626000001,0 -88.8446455,36.3153021,0 -88.8428407,36.3154751,0 -88.8418563,36.3156222,0 -88.8396793,36.3157942,0 -88.8374292,36.315969,0 -88.83364570000001,36.3162719,0 -88.82989360000001,36.3165676,0 -88.82414799999999,36.3170198,0 -88.8237036,36.3170506,0 -88.8201236,36.3173347999999,0 -88.8187279,36.3174498,0 -88.8177657,36.3175243,0 -88.81510609999999,36.3177268000001,0 -88.8148017,36.317752,0 -88.8145068,36.3177838,0 -88.8142119,36.3178287,0 -88.8138775,36.3178867,0 -88.81360979999999,36.317948,0 -88.8132877,36.3180313,0 -88.812986,36.3181243,0 -88.8126123,36.3182568,0 -88.812331,36.3183707,0 -88.8119518,36.3185525,0 -88.8114164,36.3188361,0 -88.81087410000001,36.3191307,0 -88.8094349,36.3199278,0 -88.8079712,36.3207326,0 -88.80682830000001,36.3213622,0 -88.80629450000001,36.3216658999999,0 -88.8059461,36.321839,0 -88.8051857,36.3222605,0 -88.8044137,36.322696,0 -88.804053,36.3229203,0 -88.80380270000001,36.3230993,0 -88.80359970000001,36.3232588,0 -88.80341679999999,36.3234159,0 -88.8032087,36.3236216,0 -88.8030148,36.323841,0 -88.80284330000001,36.3240745,0 -88.8027451,36.3242239,0 -88.8026325,36.3244126,0 -88.8025411,36.3245899,0 -88.8024356,36.3248449,0 -88.8023602,36.3250547,0 -88.8023039,36.3252538,0 -88.80227499999999,36.3253984,0 -88.80223820000001,36.3256325,0 -88.8022222,36.3257937,0 -88.8022201,36.3259888,0 -88.8022302,36.3261815,0 -88.80226639999999,36.3264187,0 -88.8023237,36.3266535,0 -88.802397,36.3268633,0 -88.80248349999999,36.3270649,0 -88.8026071,36.3272794,0 -88.8027749,36.3275571,0 -88.8030553,36.3280243,0 -88.8033267,36.3284899,0 -88.8034945,36.3287846,0 -88.8036151,36.3290364,0 -88.8037076,36.3292704,0 -88.8037729,36.3294955,0 -88.8038231,36.3297351,0 -88.80395679999999,36.3304557,0 -88.8041738,36.3311243,0 -88.804276,36.3314543,0 -88.8043997,36.3317691,0 -88.80451050000001,36.3320004,0 -88.80464980000001,36.3322569,0 -88.8047976,36.3324916,0 -88.8049142,36.3326622,0 -88.8051316,36.3329404,0 -88.80536189999999,36.3331958,0 -88.8056916,36.3335232,0 -88.80785059999999,36.335607,0 -88.8087033,36.3364199,0 -88.8110471,36.33868,0 -88.81312990000001,36.3406758,0 -88.8150247,36.3425057,0 -88.8163031,36.3437373,0 -88.81703419999999,36.3444436,0 -88.8183034,36.3456613,0 -88.82052299999999,36.3477947,0 -88.8223476,36.3495484999999,0 -88.82412410000001,36.3512635,0 -88.82606699999999,36.3531287,0 -88.8270194,36.3540442999999,0 -88.82758889999999,36.3545965,0 -88.8318235,36.3586673,0 -88.8341712,36.3609234,0 -88.8405109,36.3670230999999,0 -88.8423384,36.3687789,0 -88.8427496,36.3691637,0 -88.84306290000001,36.3694342,0 -88.8433464,36.3696546,0 -88.8436499,36.3698612,0 -88.84393059999999,36.3700336,0 -88.8442737,36.370214,0 -88.84464509999999,36.3703841,0 -88.84504920000001,36.3705382,0 -88.84538240000001,36.3706432,0 -88.8456532,36.3707163,0 -88.84586299999999,36.3707665,0 -88.8460743,36.3708122,0 -88.8462725,36.3708463,0 -88.84669,36.3709423,0 -88.84738059999999,36.3710485,0 -88.84787540000001,36.3711273,0 -88.84823830000001,36.3711706,0 -88.84850059999999,36.3711855,0 -88.8487473,36.3711912,0 -88.84898269999999,36.3711821,0 -88.8492421,36.3711581,0 -88.8496164,36.3711101,0 -88.8506143,36.3709686,0 -88.8507299,36.3709575,0 -88.8508831,36.3709384,0 -88.8508831,36.3709384,0 -88.85094549999999,36.371514,0 -88.8511888,36.3738473000001,0 -88.8516441,36.377788,0 -88.852266,36.383369,0 -88.85274200000001,36.3876987,0 -88.8531449,36.3914389,0 -88.85329419999999,36.3927757,0 -88.8532989,36.3933434,0 -88.85338299999999,36.39402,0 -88.8537659,36.3963394,0 -88.8537939,36.3966364,0 -88.853938,36.3978045,0 -88.8540825,36.3990239,0 -88.8543404,36.4013123,0 -88.8544339,36.4021435,0 -88.85456000000001,36.403256,0 -88.8546247,36.4038551,0 -88.8546901,36.4044602,0 -88.85482829999999,36.4057460999999,0 -88.85497549999999,36.407056,0 -88.85505999999999,36.4078074,0 -88.8551995,36.4090789,0 -88.8553216,36.4102123,0 -88.85540709999999,36.4110056,0 -88.8555332,36.4120842,0 -88.8556779,36.4134635,0 -88.85602830000001,36.4165877000001,0 -88.85603279999999,36.4166279,0 -88.8562692,36.4187772000001,0 -88.856313,36.4191758,0 -88.8566166,36.4218664,0 -88.8567053,36.4228133,0 -88.8569813,36.4252535,0 -88.8570789,36.4261163,0 -88.857191,36.4270632,0 -88.857258,36.4276658,0 -88.8574292,36.429205,0 -88.85752890000001,36.4300877,0 -88.8577514,36.4320569,0 -88.85791020000001,36.4330563,0 -88.85796620000001,36.4333756999999,0 -88.8582371,36.4346268,0 -88.85847529999999,36.4355736,0 -88.85876349999999,36.436613,0 -88.85887219999999,36.4370051,0 -88.85938950000001,36.4387204,0 -88.859526,36.4391729,0 -88.8597175,36.4398829,0 -88.8599957,36.4408147,0 -88.8601901,36.4414662999999,0 -88.8603885,36.4421309,0 -88.8606568,36.4430296,0 -88.86130989999999,36.4452176,0 -88.8618815,36.4471689,0 -88.86204309999999,36.4477007,0 -88.8629117,36.4507171,0 -88.8640109,36.4543567,0 -88.8641119,36.4546913,0 -88.8649198,36.4572042,0 -88.8652199,36.4579772,0 -88.86547469999999,36.4589048,0 -88.8656732,36.4597634,0 -88.8658636,36.4608635,0 -88.8659656,36.4614956,0 -88.86609609999999,36.4621888,0 -88.86625170000001,36.4629265,0 -88.8670564,36.4656703,0 -88.8675231,36.467327,0 -88.8676411,36.4675944,0 -88.86800119999999,36.4687222,0 -88.868011,36.4687492,0 -88.86834380000001,36.4695918,0 -88.868537,36.4700793,0 -88.8687511,36.4706587,0 -88.86878249999999,36.4707403,0 -88.86916220000001,36.4718808,0 -88.8691723,36.4719177,0 -88.8694548,36.4729541,0 -88.86999369999999,36.4746666,0 -88.87016319999999,36.4752395,0 -88.87045809999999,36.4762751,0 -88.87069750000001,36.4771494,0 -88.8707005,36.4771604,0 -88.871646,36.4804442,0 -88.8718633,36.4813237,0 -88.8719244,36.481536,0 -88.8721223,36.4822231,0 -88.8725568,36.4837319,0 -88.8725963,36.4838691,0 -88.8728359,36.4846022,0 -88.8729585,36.4850421,0 -88.87331519999999,36.4862335,0 -88.8734783,36.4862703,0 -88.87436049999999,36.486516,0 -88.8744109,36.48653,0 -88.87503270000001,36.4867108,0 -88.87532520000001,36.4867932,0 -88.876237,36.48705,0 -88.876274,36.4870604,0 -88.878854,36.487811,0 -88.87983130000001,36.4880548,0 -88.8799801,36.4881047,0 -88.8840151,36.4892249,0 -88.8902293,36.4909626,0 -88.8910025,36.491174,0 -88.8925201,36.4916042,0 -88.8934453,36.4918569,0 -88.89435760000001,36.4921093,0 -88.89511753373132,36.49233281098723,0 -88.89654564709967,36.49279565359225,0 -88.8974964170134,36.49342622558387,0 -88.89807325686648,36.49405675959878,0 -88.89848331920429,36.4948690260254,0 -88.89875158583746,36.49548262412405,0 -88.89875446589627,36.49618058407736,0 -88.89858976193689,36.49666202201243,0 -88.89813488577639,36.49714273415978,0 -88.89771582092098,36.49745240025764,0 -88.89742591746324,36.49779890917859,0 -88.89726016666366,36.49799664907572,0 -88.89721775862301,36.49830962692801,0 -88.89734053701056,36.49873888575974,0 -88.89752466697601,36.49901860454803,0 -88.89777180089311,36.49928333264948,0 
		</coordinates>
	</LineString>
	<atom:link rel="app" href="https://www.google.com/earth/about/versions/#earth-pro" title="Google Earth Pro 7.3.6.10201"></atom:link>
</Placemark>
</kml>
