<?xml version="1.0" encoding="UTF-8"?>
<kml xmlns="http://www.opengis.net/kml/2.2" xmlns:gx="http://www.google.com/kml/ext/2.2" xmlns:kml="http://www.opengis.net/kml/2.2" xmlns:atom="http://www.w3.org/2005/Atom">
<Document>
	<name>US.521.kml</name>
	<Placemark>
		<name>US.521</name>
			<LineString>
				<coordinates>
					-79.2886513,33.373649,0 -79.2891905,33.3739464,0 -79.2893775,33.3740445,0 -79.2894469,33.3740823,0 -79.2899542,33.3743728,0 -79.29058139999999,33.374728,0 -79.2908298,33.374845,0 -79.29088400000001,33.3748705,0 -79.29129500000001,33.375064,0 -79.2917343,33.3753028,0 -79.29206600000001,33.3754819,0 -79.29260499999999,33.375774,0 -79.29337940000001,33.3761872999999,0 -79.294012,33.3765250000001,0 -79.29433,33.376694,0 -79.2951702,33.3771423,0 -79.295209,33.377163,0 -79.2962115,33.3776965,0 -79.29654499999999,33.377874,0 -79.29704099999999,33.378135,0 -79.299149,33.379244,0 -79.300482,33.3799450000001,0 -79.301799,33.380637,0 -79.301885,33.3806824,0 -79.30274799999999,33.381138,0 -79.30559700000001,33.382633,0 -79.3060507,33.3828739,0 -79.30649,33.383101,0 -79.3083628,33.3840799,0 -79.309067,33.384448,0 -79.30945699999999,33.384653,0 -79.31085299999999,33.385382,0 -79.312506,33.386248,0 -79.313434,33.38673,0 -79.314902,33.387496,0 -79.316534,33.388345,0 -79.3180184,33.3891684,0 -79.319118,33.389684,0 -79.319462,33.389861,0 -79.31975799999999,33.389986,0 -79.319862,33.39002,0 -79.319992,33.390074,0 -79.32011900000001,33.390116,0 -79.320347,33.390178,0 -79.320539,33.390234,0 -79.32066,33.390262,0 -79.320791,33.390295,0 -79.321186,33.390366,0 -79.321513,33.390414,0 -79.32175100000001,33.390439,0 -79.32305100000001,33.390509,0 -79.323522,33.39054,0 -79.324887,33.39063,0 -79.325733,33.390686,0 -79.326976,33.390743,0 -79.327215,33.390754,0 -79.3301204,33.3909413,0 -79.33158589999999,33.3910174,0 -79.33183990000001,33.3910446,0 -79.333084,33.3911099,0 -79.33455600000001,33.3911806,0 -79.3356112,33.3912241,0 -79.33602809999999,33.391274,0 -79.33753900000001,33.3913445,0 -79.3391372,33.3914182,0 -79.33948839999999,33.391438,0 -79.3397818,33.3914456,0 -79.3406353,33.3914859,0 -79.34155149999999,33.3915177,0 -79.3423682,33.3914806,0 -79.343326,33.3914881,0 -79.3441914,33.3915035,0 -79.3453497,33.3915285,0 -79.34726809999999,33.3916242,0 -79.34845970000001,33.3916916,0 -79.351101,33.3918236000001,0 -79.35284179999999,33.3919045,0 -79.355116,33.392012,0 -79.35762939999999,33.3921348,0 -79.3598372,33.3922245,0 -79.3608766,33.3922737,0 -79.3612222,33.3922922,0 -79.363412,33.3923789,0 -79.36750290000001,33.3925384,0 -79.3690823,33.3926138,0 -79.3694412,33.3926299,0 -79.3706255,33.3926724,0 -79.3719741,33.3927221,0 -79.3741282,33.3928142,0 -79.3756781,33.3928803,0 -79.3772628,33.3929373,0 -79.37803479999999,33.3929655,0 -79.38070949999999,33.3930821,0 -79.38138259999999,33.3931089,0 -79.381738,33.3931163,0 -79.3820815,33.393126,0 -79.3823569,33.3931096,0 -79.38261869999999,33.3930842,0 -79.3828757,33.3930397,0 -79.3831373,33.3930063,0 -79.3834416,33.3929506,0 -79.3838051,33.392872,0 -79.3844409,33.3927126,0 -79.3850999,33.3925627,0 -79.3887079,33.3917265,0 -79.38975259999999,33.3914862,0 -79.39049850000001,33.3913125,0 -79.3906179,33.3912847,0 -79.39234709999999,33.3908825,0 -79.3936173,33.3905853,0 -79.3947031,33.3903321,0 -79.3961611,33.3899902,0 -79.3981785,33.3895234,0 -79.399424,33.389233,0 -79.40079420000001,33.3888838,0 -79.4015766,33.3886596,0 -79.4026044,33.3883287,0 -79.4033171,33.3880937,0 -79.40499509999999,33.387555,0 -79.408275,33.3864853,0 -79.4098839,33.3859696,0 -79.4115207,33.3854416,0 -79.4124376,33.3851514,0 -79.4127828,33.3850372,0 -79.413172,33.3848989,0 -79.4144622,33.3845027,0 -79.41600699999999,33.3839918,0 -79.4169497,33.3836964,0 -79.41771919999999,33.3834459,0 -79.41942830000001,33.3829041,0 -79.4208201,33.3824331,0 -79.4219198,33.3820752,0 -79.42293979999999,33.3817566,0 -79.424054,33.3813963,0 -79.424651,33.3811992,0 -79.4257954,33.3808213,0 -79.4268514,33.3804828,0 -79.42693010000001,33.3804594,0 -79.4276751,33.3802382,0 -79.4284904,33.3799649,0 -79.4306653,33.3792548,0 -79.4313875,33.3790219,0 -79.4316628,33.3789424,0 -79.4322765,33.3787428,0 -79.4327383,33.3785926,0 -79.43418699999999,33.3781215,0 -79.4343044,33.3780838,0 -79.4360841,33.3775062,0 -79.43759900000001,33.3770077,0 -79.4385083,33.3767254,0 -79.4399681,33.3762555,0 -79.44070290000001,33.3760099,0 -79.4410582,33.3758982,0 -79.44138359999999,33.37581,0 -79.44173979999999,33.3757315,0 -79.4420915,33.3756698,0 -79.4424202,33.3756291,0 -79.44277409999999,33.3756023,0 -79.44315539999999,33.3755824,0 -79.44338430000001,33.3755927,0 -79.4437598,33.3756143,0 -79.44416,33.3756578,0 -79.44454229999999,33.3757216,0 -79.4449724,33.3758303,0 -79.4454935,33.3759736,0 -79.44578079999999,33.3760713,0 -79.4459942,33.3761438,0 -79.44639549999999,33.3763484,0 -79.446791,33.3765619,0 -79.4474866,33.3770176,0 -79.4491187,33.3781503,0 -79.4504714,33.37905,0 -79.4509338,33.3793503,0 -79.451887,33.380011,0 -79.4545644,33.3818172,0 -79.45571,33.38259,0 -79.45646499999999,33.383105,0 -79.45698299999999,33.383448,0 -79.458,33.384134,0 -79.4592549,33.3849949,0 -79.4606229,33.3859018,0 -79.4620919,33.386903,0 -79.462788,33.387382,0 -79.464175,33.388318,0 -79.46477,33.388719,0 -79.46567400000001,33.3892903,0 -79.46730290000001,33.3904179,0 -79.4686786,33.391326,0 -79.46937250000001,33.39181,0 -79.46959080000001,33.3919566,0 -79.4713337,33.3931209,0 -79.4731067,33.3943327,0 -79.47611449999999,33.3963541,0 -79.47618540000001,33.396397,0 -79.47659640000001,33.3966857,0 -79.4774292,33.3972514,0 -79.478999,33.398311,0 -79.4826659,33.400765,0 -79.4844008,33.4019328,0 -79.4852143,33.4024791,0 -79.48711849999999,33.4037443,0 -79.48749239999999,33.4039995,0 -79.4886365,33.4047676,0 -79.48955239999999,33.4053855,0 -79.4908762,33.406266,0 -79.4922925,33.4072176,0 -79.49287,33.4076163,0 -79.4957854,33.4095684,0 -79.4973918,33.410646,0 -79.4982981,33.4112653999999,0 -79.5007226,33.4128849,0 -79.5015413,33.4134258,0 -79.5017738,33.4135881,0 -79.5023309,33.4139661,0 -79.50269110000001,33.4142105,0 -79.504268,33.415298,0 -79.50656960000001,33.4168030999999,0 -79.5074225,33.4173673,0 -79.5083559,33.4179942,0 -79.5108504,33.4196732,0 -79.51324289999999,33.4212806000001,0 -79.5162631,33.4233122,0 -79.51735739999999,33.4240431,0 -79.5185376,33.4248311,0 -79.51973390000001,33.4256325,0 -79.5211662,33.4265817,0 -79.5225394,33.4275084,0 -79.52529680000001,33.4293753000001,0 -79.52693290000001,33.4304498,0 -79.5281131,33.4312467,0 -79.52856370000001,33.4315153,0 -79.5289446,33.4317302,0 -79.52930929999999,33.4319182,0 -79.529658,33.4320749,0 -79.5299692,33.4322047,0 -79.53028569999999,33.4323166,0 -79.53058609999999,33.4324241,0 -79.53085969999999,33.4325002,0 -79.5311011,33.4325718,0 -79.5314766,33.4326569,0 -79.5317555,33.4327196,0 -79.5320184,33.4327688,0 -79.5322973,33.4328136,0 -79.5325441,33.4328404,0 -79.5329196,33.4328762,0 -79.53330579999999,33.4328986,0 -79.53401390000001,33.4329389,0 -79.5342607,33.43293,0 -79.5345075,33.4329165,0 -79.5347811,33.4328986,0 -79.5349849,33.4328807,0 -79.5351673,33.4328583,0 -79.5354462,33.4328225,0 -79.5356876,33.4327867,0 -79.53619190000001,33.4327016,0 -79.5371253,33.432545,0 -79.5390297,33.4322137,0 -79.5413463,33.4318196,0 -79.5448554,33.4312019,0 -79.54892169999999,33.4304811,0 -79.55435970000001,33.4295579,0 -79.5579875,33.4289186999999,0 -79.55839520000001,33.4288515,0 -79.5586742,33.4288112,0 -79.55896920000001,33.4287799,0 -79.5592535,33.4287575,0 -79.5595539,33.4287396,0 -79.5597739,33.4287351,0 -79.56005279999999,33.4287351,0 -79.56027280000001,33.4287441,0 -79.5605303,33.4287575,0 -79.56080919999999,33.4287799,0 -79.5611794,33.4288246999999,0 -79.5615549,33.4288739,0 -79.56181239999999,33.4289142,0 -79.56199410000001,33.4289232,0 -79.56219969999999,33.4289661,0 -79.5623855,33.4290024,0 -79.5626347,33.4290452999999,0 -79.563042,33.429174,0 -79.56339389999999,33.4292895,0 -79.5636351,33.429372,0 -79.5639098,33.4294873,0 -79.5641083,33.4295678,0 -79.5643068,33.4296529,0 -79.5646287,33.4298006,0 -79.564854,33.429917,0 -79.5650739,33.4300334,0 -79.5653207,33.4301767,0 -79.56556879999999,33.4303125,0 -79.56582969999999,33.430461,0 -79.5662291,33.4307349,0 -79.56734419999999,33.43155,0 -79.5676764,33.4317876,0 -79.5689022,33.4326787,0 -79.56927,33.4329526,0 -79.5715488,33.4346132,0 -79.57279870000001,33.4355309,0 -79.5732386,33.4358443,0 -79.5737804,33.4362203000001,0 -79.5742042,33.4365158,0 -79.5745153,33.4367262,0 -79.57486400000001,33.4369455,0 -79.5751429,33.4371156,0 -79.5753843,33.4372589,0 -79.57560429999999,33.4373753,0 -79.5759959,33.4375857,0 -79.5766021,33.4378856,0 -79.5773155,33.4382348,0 -79.57905359999999,33.4390943,0 -79.5805664,33.4398329,0 -79.5853729,33.4421785,0 -79.58859440000001,33.4437553,0 -79.58896660000001,33.4439367,0 -79.5893006,33.4440773,0 -79.5894794,33.4441637,0 -79.5893081,33.4443375,0 -79.58712559999999,33.4465045,0 -79.58618869999999,33.4474318,0 -79.58566380000001,33.4479551,0 -79.5851921,33.448423,0 -79.584789,33.448816,0 -79.583817,33.44977,0 -79.58381199999999,33.449775,0 -79.58303100000001,33.450547,0 -79.58302500000001,33.450552,0 -79.583018,33.450559,0 -79.583012,33.450565,0 -79.583005,33.450572,0 -79.582998,33.450579,0 -79.5822543,33.4513286,0 -79.58194589999999,33.4516234,0 -79.5816306,33.4519372,0 -79.5812737,33.4522902,0 -79.5806666,33.4528885,0 -79.580551,33.452998,0 -79.58005300000001,33.45349,0 -79.57988899999999,33.453652,0 -79.579365,33.454169,0 -79.5788111,33.454715,0 -79.57700699999999,33.456494,0 -79.57657500000001,33.456919,0 -79.576337,33.4571529999999,0 -79.575807,33.457676,0 -79.57673200000001,33.458708,0 -79.577111,33.459137,0 -79.577726,33.4598330000001,0 -79.577763,33.459874,0 -79.578444,33.460586,0 -79.579437,33.461654,0 -79.581125,33.463467,0 -79.581688,33.464109,0 -79.58299100000001,33.46553,0 -79.583645,33.466234,0 -79.58493900000001,33.467678,0 -79.585791,33.468584,0 -79.58683499999999,33.469723,0 -79.587756,33.470728,0 -79.58964229999999,33.472773,0 -79.59004779999999,33.4732126,0 -79.5901927,33.4733697,0 -79.5910987,33.4743508,0 -79.59240130000001,33.4757769,0 -79.59335350000001,33.4768099,0 -79.5943577,33.4779067,0 -79.59501400000001,33.4786263,0 -79.5955929,33.4792646,0 -79.5959257,33.4796235,0 -79.5963596,33.4800900999999,0 -79.5966583,33.4804061,0 -79.59737440000001,33.4811179,0 -79.5975186,33.4812644,0 -79.597979,33.4817114,0 -79.5989112,33.4825223,0 -79.5993483,33.4828944,0 -79.600807,33.484111,0 -79.601018,33.484285,0 -79.601412,33.484608,0 -79.603804,33.486573,0 -79.60488100000001,33.487457,0 -79.60576,33.48818,0 -79.607788,33.489845,0 -79.608003,33.490022,0 -79.611831,33.493166,0 -79.61384200000001,33.494816,0 -79.61862499999999,33.498744,0 -79.619021,33.499069,0 -79.621989,33.501506,0 -79.62286899999999,33.502228,0 -79.6244074,33.5034747999999,0 -79.625519,33.504404,0 -79.625789,33.504624,0 -79.627546,33.506068,0 -79.629842,33.507952,0 -79.629909,33.508007,0 -79.63060400000001,33.508512,0 -79.631157,33.508857,0 -79.631242,33.508902,0 -79.63169000000001,33.509144,0 -79.632774,33.509604,0 -79.633287,33.509771,0 -79.63409799999999,33.509994,0 -79.636596,33.510677,0 -79.63831209999999,33.5111357,0 -79.6393274,33.5114129,0 -79.6404811,33.5117204,0 -79.64243,33.512258,0 -79.643278,33.512487,0 -79.64706099999999,33.513512,0 -79.652351,33.514943,0 -79.65243100000001,33.514964,0 -79.654588,33.515551,0 -79.657708,33.516394,0 -79.65786300000001,33.516436,0 -79.6586551,33.5166718,0 -79.65940399999999,33.517044,0 -79.660731,33.517814,0 -79.661919,33.518503,0 -79.665166,33.520383,0 -79.666882,33.521396,0 -79.66809499999999,33.522107,0 -79.669738,33.523068,0 -79.67037929999999,33.5234758,0 -79.67047049999999,33.5235464,0 -79.67068500000001,33.523729,0 -79.671176,33.52418,0 -79.672628,33.525602,0 -79.673531,33.526488,0 -79.67456199999999,33.527499,0 -79.6760134,33.5288622,0 -79.6764759,33.5292532,0 -79.676868,33.529547,0 -79.677217,33.529764,0 -79.67755699999999,33.529978,0 -79.680121,33.531388,0 -79.68433899999999,33.533712,0 -79.6856387,33.5344274,0 -79.685847,33.534542,0 -79.68718800000001,33.53528,0 -79.687594,33.535504,0 -79.69046830000001,33.5370717999999,0 -79.69093700000001,33.537343,0 -79.691551,33.537632,0 -79.69248899999999,33.537978,0 -79.69314300000001,33.538167,0 -79.69382400000001,33.538319,0 -79.694514,33.538427,0 -79.695545,33.538497,0 -79.697654,33.538497,0 -79.69799829999999,33.5384954,0 -79.7006157,33.5384989,0 -79.7018612,33.5384998,0 -79.7046285,33.5385018,0 -79.707797,33.538504,0 -79.7078855,33.538504,0 -79.711203,33.538505,0 -79.71131509999999,33.538505,0 -79.71142500000001,33.538505,0 -79.7116175,33.5385047,0 -79.71767989999999,33.5384938999999,0 -79.721587,33.538494,0 -79.729168,33.5385000000001,0 -79.730943,33.538508,0 -79.732332,33.538514,0 -79.7381061,33.5384668,0 -79.740002,33.538482,0 -79.74225509999999,33.5384671,0 -79.74303810000001,33.5385265,0 -79.743651,33.5385858,0 -79.7441769,33.5386748,0 -79.7447463,33.5388132,0 -79.7456677,33.5390802,0 -79.749431,33.540267,0 -79.7505903,33.5406077,0 -79.75388100000001,33.541641,0 -79.7551148,33.5420178,0 -79.75580600000001,33.542236,0 -79.7562904,33.5423917,0 -79.75668899999999,33.5425398,0 -79.7570566,33.5426896,0 -79.75742030000001,33.5428497,0 -79.7578132,33.5430336,0 -79.7581557,33.5432122,0 -79.7587343,33.5435328,0 -79.7617401,33.54522,0 -79.7648658,33.5469711,0 -79.7659249,33.5475716,0 -79.7662807,33.5477698,0 -79.76750079999999,33.5484471,0 -79.76877899999999,33.549169,0 -79.7691921,33.5494006,0 -79.7702424,33.5499911,0 -79.7719089,33.5509205,0 -79.77306,33.551572,0 -79.77353669999999,33.5518549,0 -79.7738234,33.5520445,0 -79.77411650000001,33.5522601,0 -79.7743665,33.5524537,0 -79.7746346,33.5526819,0 -79.7748855,33.5529117,0 -79.7754683,33.5534845,0 -79.7772099,33.5552163,0 -79.7784674,33.5564746,0 -79.77991900000001,33.557924,0 -79.78118000000001,33.5591807,0 -79.7830488,33.5610369,0 -79.78450460000001,33.5624929,0 -79.7846136,33.5625996,0 -79.78511810000001,33.5630962,0 -79.78615910000001,33.5641371,0 -79.78739349999999,33.5653668,0 -79.7882741,33.5662448,0 -79.7883473,33.5663171,0 -79.788713,33.5666779,0 -79.7891619,33.5671207,0 -79.78949040000001,33.5674352,0 -79.7897732,33.5676704,0 -79.79003400000001,33.567872,0 -79.79033080000001,33.5680893,0 -79.7906485,33.5683028,0 -79.7909458,33.5684841,0 -79.79128009999999,33.5686692,0 -79.7916036,33.5688321,0 -79.79193600000001,33.5689846,0 -79.7923996,33.5691784,0 -79.79309720000001,33.5694669,0 -79.7954244,33.5704298,0 -79.79623669999999,33.5707681,0 -79.7969042,33.5710462,0 -79.7995013,33.5721209,0 -79.8016137,33.5729954,0 -79.80391349999999,33.5739506,0 -79.8051131,33.5744451,0 -79.808182,33.5757163,0 -79.8098703,33.5764125,0 -79.8109797,33.5768767,0 -79.8114157,33.577053,0 -79.8136745,33.5779947,0 -79.8152728,33.5786549,0 -79.81692,33.5793404,0 -79.818288,33.5798992999999,0 -79.8201356,33.5806841,0 -79.8219326,33.5814287,0 -79.8250687,33.5827051,0 -79.8304603,33.5849224,0 -79.8308784,33.5851115,0 -79.8313701,33.585325,0 -79.83731,33.587798,0 -79.838285,33.588203,0 -79.84255400000001,33.589975,0 -79.8430807,33.5901737,0 -79.845727,33.591291,0 -79.846379,33.591562,0 -79.84779,33.592127,0 -79.849208,33.592593,0 -79.85397949999999,33.5938048,0 -79.8544204,33.5939167,0 -79.8560385,33.5943276,0 -79.85829200000001,33.594831,0 -79.859664,33.595019,0 -79.861907,33.595177,0 -79.864181,33.595135,0 -79.866032,33.594975,0 -79.867357,33.594787,0 -79.868639,33.594537,0 -79.879859,33.591885,0 -79.88646300000001,33.590324,0 -79.8901688,33.5894535,0 -79.899866,33.587175,0 -79.90045139999999,33.5870355,0 -79.907235,33.5854122,0 -79.9080295,33.5852271,0 -79.9085979,33.5851167,0 -79.9092227,33.5850050000001,0 -79.90990669999999,33.5849019,0 -79.91734700000001,33.584221,0 -79.92222099999999,33.583773,0 -79.9267309,33.5833609,0 -79.92757109999999,33.5832686,0 -79.9416804,33.5819781,0 -79.9434792,33.5818099,0 -79.9484135,33.5813518,0 -79.9527248,33.5809604,0 -79.9537096,33.5808672,0 -79.9542998,33.5808164,0 -79.9550924,33.5807594,0 -79.95588429999999,33.5807185,0 -79.9591484,33.5805561,0 -79.9627892,33.5803802,0 -79.96805000000001,33.5801254,0 -79.97147699999999,33.5799574,0 -79.9721383,33.5799256,0 -79.97287710000001,33.5798891,0 -79.9744147,33.579814,0 -79.9774316,33.5796687,0 -79.9782206,33.5796289999999,0 -79.9791209,33.5795762,0 -79.9793731,33.5795561,0 -79.9796036,33.5795359,0 -79.9798648,33.5795106,0 -79.980234,33.579463,0 -79.98060099999999,33.579402,0 -79.981381,33.579273,0 -79.98203549999999,33.5791632,0 -79.982388,33.579098,0 -79.982752,33.579026,0 -79.98303300000001,33.578976,0 -79.986728,33.578243,0 -79.9880292,33.5779889,0 -79.98970199999999,33.57766,0 -79.98984900000001,33.577639,0 -79.992963,33.577182,0 -79.993371,33.57798,0 -79.99354200000001,33.578253,0 -79.99382199999999,33.578596,0 -79.99413699999999,33.578887,0 -79.994356,33.579091,0 -79.995402,33.579898,0 -79.99566900000001,33.580104,0 -79.99739099999999,33.581432,0 -79.998238,33.582086,0 -79.998397,33.582209,0 -79.998954,33.582638,0 -79.9991054,33.5827455,0 -79.99981200000001,33.583299,0 -80.00088289999999,33.584124,0 -80.001958,33.584954,0 -80.0037708,33.5863643,0 -80.0047218,33.5870596,0 -80.0067981,33.5886677,0 -80.0081057,33.5896734,0 -80.011955,33.5926399,0 -80.0161197,33.5958459,0 -80.0178275,33.5971606,0 -80.019879,33.598768,0 -80.02365330000001,33.6016352,0 -80.02672819999999,33.6040175,0 -80.029871,33.6064348,0 -80.0348391,33.6102447,0 -80.0350174,33.6104063,0 -80.036772,33.611772,0 -80.0385253,33.6131075,0 -80.03861070000001,33.6131732,0 -80.062251,33.6313676,0 -80.0638999,33.6326367,0 -80.065883,33.6341617,0 -80.0690805,33.6366246,0 -80.0700162,33.6373461,0 -80.07207940000001,33.638928,0 -80.0741057,33.6404911,0 -80.07582549999999,33.6418159,0 -80.0774512,33.6430688,0 -80.07903140000001,33.6442847,0 -80.0802307,33.6451999,0 -80.0817618,33.6463886,0 -80.0820836,33.6466206,0 -80.08239570000001,33.6468295,0 -80.08269660000001,33.6470135,0 -80.0830275,33.6472003,0 -80.0834198,33.64739,0 -80.0881897,33.6494635,0 -80.09227079999999,33.6512318,0 -80.09246419999999,33.6513188,0 -80.0927394,33.651432,0 -80.0995434,33.6543621,0 -80.1021918,33.6555188,0 -80.1038143,33.6562186,0 -80.10670589999999,33.6574657,0 -80.1087756,33.6583584,0 -80.1101632,33.6589566,0 -80.116153,33.6615388,0 -80.1185674,33.6626007,0 -80.1192662,33.6629077,0 -80.1260575,33.6658589,0 -80.12821080000001,33.6667772,0 -80.1330596,33.6688725,0 -80.1364895,33.6703504,0 -80.1397078,33.6717431,0 -80.14009369999999,33.6719126,0 -80.1430295,33.6731843,0 -80.1471494,33.6749516,0 -80.1478417,33.6752639,0 -80.1528249,33.6774203,0 -80.1536672,33.6777775,0 -80.15474,33.6782149,0 -80.1552926,33.6784248000001,0 -80.1559231,33.6786262,0 -80.1561037,33.6786839,0 -80.1566895,33.6788485,0 -80.157764,33.6791504,0 -80.1596177,33.6796675,0 -80.1611693,33.6801124,0 -80.1613287,33.6801644,0 -80.1618486,33.6803177,0 -80.16262690000001,33.6805164,0 -80.163225,33.6806771,0 -80.1637101,33.6808431,0 -80.1640342,33.6809282,0 -80.1658489,33.6814337,0 -80.1663214,33.6815685,0 -80.16704729999999,33.6817756,0 -80.1691144,33.6823595,0 -80.1695064,33.6824698,0 -80.1698225,33.6825588,0 -80.17254749999999,33.6833259,0 -80.1752087,33.6840768,0 -80.1762786,33.6843749,0 -80.1792289,33.6852164,0 -80.1795128,33.6852979,0 -80.1800551,33.6854462,0 -80.1819192,33.6859841,0 -80.1829589,33.6862725,0 -80.18517540000001,33.6868925,0 -80.1893235,33.6880624,0 -80.1898573,33.6882146,0 -80.19019179999999,33.6883099,0 -80.1904931,33.6884061,0 -80.1907008,33.6884725,0 -80.1907971,33.6885067,0 -80.1917495,33.6888452,0 -80.1921277,33.6889836,0 -80.19353099999999,33.6894932,0 -80.1939464,33.689644,0 -80.194531,33.6898563,0 -80.1980452,33.6911285,0 -80.2003613,33.6919757,0 -80.2008991,33.6921724,0 -80.2030072,33.6929384000001,0 -80.2037411,33.6931748,0 -80.20392200000001,33.6932404,0 -80.2049677,33.6936201,0 -80.20648509999999,33.694187,0 -80.2073963,33.6945275,0 -80.207663,33.6946243,0 -80.2078722,33.6947015,0 -80.20807569999999,33.6947766,0 -80.20883139999999,33.6950556,0 -80.208963,33.6951042,0 -80.2091119,33.6951282,0 -80.20909229999999,33.6959689,0 -80.20908609999999,33.6962328,0 -80.20907819999999,33.6965703,0 -80.20907339999999,33.6967180999999,0 -80.2090314,33.6976137,0 -80.20902769999999,33.6976934,0 -80.20901569999999,33.697949,0 -80.20899319999999,33.6984278,0 -80.20897220000001,33.698965,0 -80.2089624,33.6992956,0 -80.2089373,33.7001689,0 -80.2089082,33.7010875,0 -80.2088996,33.7012488,0 -80.20887620000001,33.7016878,0 -80.2087758,33.7035676,0 -80.2087252,33.7051795,0 -80.2087078,33.7053766,0 -80.20866770000001,33.7055416,0 -80.2085948,33.7057033,0 -80.2085313,33.7058386,0 -80.208395,33.7060841,0 -80.2083717,33.706126,0 -80.20814369999999,33.7065119,0 -80.20811550000001,33.7065596,0 -80.2079719,33.7067728,0 -80.2078084,33.7069694,0 -80.2076052,33.7071587,0 -80.2073141,33.7074222,0 -80.20715250000001,33.7075593,0 -80.2069175,33.7077586,0 -80.2067881,33.7078684000001,0 -80.2066718,33.7079671,0 -80.2062488,33.7083267,0 -80.2058935,33.7086287,0 -80.2053404,33.7090988,0 -80.20504870000001,33.7093371,0 -80.20393749999999,33.7102809,0 -80.20366079999999,33.7105178,0 -80.2029514,33.7111373,0 -80.2028988,33.711183,0 -80.2024268,33.7115887,0 -80.2019888,33.7119579,0 -80.2017888,33.7121345,0 -80.2007333,33.7130421,0 -80.2004465,33.7132966,0 -80.1999029,33.7137677,0 -80.1996934,33.7139493,0 -80.1992834,33.7143057,0 -80.1981665,33.715283,0 -80.1979599,33.7154839,0 -80.19774990000001,33.7157008,0 -80.1975563,33.7159088,0 -80.1974452,33.7160461,0 -80.1973007,33.7162166,0 -80.1971771,33.7163762,0 -80.1970142,33.7166276,0 -80.1968801,33.7168397,0 -80.19678810000001,33.7169906,0 -80.196725,33.7170999,0 -80.19663300000001,33.7172704,0 -80.1965489,33.7174278000001,0 -80.1964595,33.7176159,0 -80.1963781,33.717793,0 -80.1963202,33.7179438,0 -80.19623350000001,33.7181734,0 -80.1961652,33.7183920000001,0 -80.1960758,33.718685,0 -80.19598379999999,33.7190632,0 -80.1959444,33.71926,0 -80.1959102,33.7194983,0 -80.19588589999999,33.719714,0 -80.19586289999999,33.7199618,0 -80.19585240000001,33.7201433,0 -80.19584709999999,33.7204056,0 -80.19584399999999,33.7205088,0 -80.19584930000001,33.7206837,0 -80.1958703,33.7209286,0 -80.195915,33.721239,0 -80.1959439,33.7213877,0 -80.1959702,33.7215232,0 -80.19600800000001,33.7216936,0 -80.1960464,33.7218665,0 -80.1960727,33.721978,0 -80.1961148,33.7221113,0 -80.1961726,33.7223081,0 -80.1962225,33.7224677,0 -80.19628299999999,33.7226185,0 -80.1963487,33.722789,0 -80.19641180000001,33.7229421,0 -80.1964854,33.7230973,0 -80.19655899999999,33.7232591,0 -80.1966615,33.7234536,0 -80.1967482,33.7236023,0 -80.19686129999999,33.7237969,0 -80.1969874,33.7240002,0 -80.1971636,33.7242582,0 -80.1976318,33.724893,0 -80.1979803,33.7253268999999,0 -80.19864010000001,33.7262291,0 -80.1993214,33.7271606,0 -80.2017568,33.7304487,0 -80.2040463,33.7335662,0 -80.2042484,33.7338524,0 -80.2049135,33.7347492,0 -80.2052666,33.7352167,0 -80.2064548,33.7368396,0 -80.20661680000001,33.7369455,0 -80.2067268,33.7371007,0 -80.2074776,33.7381204,0 -80.2075394,33.7382029,0 -80.2081641,33.739057,0 -80.2084502,33.7394428,0 -80.20875599999999,33.7398514,0 -80.2090627,33.7402257,0 -80.2094149,33.7406068,0 -80.2095765,33.7407682,0 -80.20984079999999,33.7410033,0 -80.2102115,33.7413197,0 -80.2102774,33.7413734,0 -80.2111086,33.742036,0 -80.2112939,33.7422373,0 -80.21237840000001,33.7431401,0 -80.2135487,33.7441083,0 -80.2137056,33.7442414,0 -80.2148136,33.7451815,0 -80.2164983,33.7465576,0 -80.2181819,33.7479158,0 -80.2182364,33.7479657,0 -80.2190428,33.7487024,0 -80.2191906,33.7488399,0 -80.220372,33.750162,0 -80.2209886,33.7509095,0 -80.2213201,33.7513483,0 -80.2218105,33.7519657,0 -80.2226828,33.7531182,0 -80.2261937,33.7575673,0 -80.2300443,33.7625929,0 -80.23024959999999,33.7628401,0 -80.23255760000001,33.7657423,0 -80.23725,33.771754,0 -80.239693,33.774845,0 -80.23982719999999,33.7750072,0 -80.2399214,33.7751211,0 -80.2407194,33.7760101,0 -80.2408782,33.7761656,0 -80.2410939,33.7763767000001,0 -80.24171080000001,33.7769807,0 -80.2439775,33.7790469,0 -80.2445664,33.7795905,0 -80.245149,33.780164,0 -80.24603020000001,33.7809148,0 -80.24739460000001,33.7821421,0 -80.2512665,33.7856251,0 -80.2538246,33.7879842,0 -80.254295,33.788418,0 -80.2571262,33.7909533,0 -80.25775230000001,33.7915274,0 -80.26151400000001,33.794977,0 -80.26262680000001,33.7959054,0 -80.2631985,33.7964225,0 -80.26350499999999,33.796696,0 -80.2644652,33.7975749,0 -80.26448499999999,33.797593,0 -80.2646893,33.7977768,0 -80.264774,33.797853,0 -80.26548699999999,33.798493,0 -80.26585300000001,33.798842,0 -80.26615099999999,33.799136,0 -80.266644,33.799643,0 -80.2670316,33.8000874,0 -80.268199,33.8014258,0 -80.2683937,33.8016374,0 -80.2696907,33.8030491,0 -80.2698992,33.8032607,0 -80.2701424,33.8035032,0 -80.27033520000001,33.8036806,0 -80.27055919999999,33.8038691,0 -80.27085649999999,33.8041004,0 -80.2720369,33.8049833,0 -80.2720723,33.8050098,0 -80.27345560000001,33.8060444,0 -80.2738506,33.8063413,0 -80.2763315,33.8082058,0 -80.2766878,33.8084736,0 -80.276993,33.808711,0 -80.27728329999999,33.8089567,0 -80.2775556,33.8092119000001,0 -80.2778122,33.8094695,0 -80.2800292,33.8117554,0 -80.28086279999999,33.8126136,0 -80.28137099999999,33.813122,0 -80.2820303,33.8137371,0 -80.28339870000001,33.8149511,0 -80.283996,33.8155264,0 -80.28521139999999,33.8167792,0 -80.2855196,33.8171256,0 -80.2864253,33.8180509,0 -80.2870163,33.8186669,0 -80.28715219999999,33.8188226,0 -80.2873166,33.8189995,0 -80.2876705,33.819478,0 -80.288017,33.819995,0 -80.2882032,33.8203289,0 -80.2884505,33.8208578,0 -80.28965770000001,33.8238445,0 -80.28967059999999,33.8238763,0 -80.2908989,33.8269101,0 -80.2920141,33.8296669,0 -80.2932318,33.8326766,0 -80.29324,33.8326969,0 -80.29356439999999,33.8334872,0 -80.2937293,33.8338821,0 -80.29390100000001,33.8342697,0 -80.2940847,33.8346641,0 -80.29427509999999,33.8350434,0 -80.2946772,33.8358084,0 -80.29501279999999,33.836368,0 -80.29508970000001,33.836484,0 -80.2955961,33.8373131,0 -80.2962157,33.8382343,0 -80.297459,33.840078,0 -80.29834649999999,33.8414003,0 -80.2990681,33.8424463,0 -80.2998893,33.8435826,0 -80.300077,33.84384,0 -80.300719,33.844656,0 -80.30086300000001,33.844801,0 -80.300999,33.844938,0 -80.301238,33.845173,0 -80.30146999999999,33.845399,0 -80.301991,33.845891,0 -80.30228099999999,33.846171,0 -80.302474,33.846376,0 -80.302802,33.846729,0 -80.30295599999999,33.846887,0 -80.30307999999999,33.847027,0 -80.303436,33.847454,0 -80.30355,33.847589,0 -80.30398289999999,33.8480881,0 -80.3045901,33.84877,0 -80.305318,33.8496209,0 -80.305932,33.8503496,0 -80.3062479,33.8507377,0 -80.3064827,33.8510522,0 -80.30709210000001,33.8519149,0 -80.3079092,33.8530992,0 -80.3083013,33.8536674,0 -80.310198,33.856453,0 -80.31060600000001,33.857066,0 -80.310761,33.857303,0 -80.31122740000001,33.8580547,0 -80.311785,33.858956,0 -80.31222,33.859678,0 -80.312693,33.860445,0 -80.312985,33.860915,0 -80.3132846,33.8614525,0 -80.3134653,33.8617769,0 -80.313963,33.86267,0 -80.314437,33.863557,0 -80.31497,33.864535,0 -80.315185,33.864908,0 -80.31526599999999,33.865038,0 -80.31549200000001,33.865362,0 -80.315611,33.865498,0 -80.315788,33.865701,0 -80.315973,33.865884,0 -80.316312,33.866191,0 -80.317922,33.867416,0 -80.31803499999999,33.867503,0 -80.31813200000001,33.8675731,0 -80.318478,33.867823,0 -80.318702,33.867965,0 -80.318995,33.868131,0 -80.319067,33.868168,0 -80.319271,33.868273,0 -80.319417,33.86834,0 -80.3196087,33.8684178,0 -80.31973499999999,33.8684730000001,0 -80.320097,33.868601,0 -80.320401,33.868693,0 -80.32065249999999,33.8687601,0 -80.32194800000001,33.869106,0 -80.324465,33.869771,0 -80.324625,33.869813,0 -80.32481799999999,33.869864,0 -80.32491899999999,33.869891,0 -80.32547700000001,33.870035,0 -80.3264246,33.8702887,0 -80.32667600000001,33.870356,0 -80.32708100000001,33.870472,0 -80.32732,33.870554,0 -80.327518,33.87063,0 -80.32775700000001,33.870733,0 -80.32798200000001,33.870839,0 -80.328222,33.87096,0 -80.32969559999999,33.8717335,0 -80.33002,33.871905,0 -80.33144,33.872652,0 -80.331811,33.872845,0 -80.332087,33.872988,0 -80.3325032,33.8732035,0 -80.33292899999999,33.873424,0 -80.33330979999999,33.8736542,0 -80.3335302,33.8738117,0 -80.3337336,33.8739632,0 -80.33393030000001,33.8741247,0 -80.3341303,33.8743025,0 -80.3343126,33.8744754,0 -80.33452680000001,33.87469,0 -80.3346392,33.87482,0 -80.3347472,33.8749476,0 -80.3349292,33.8751875,0 -80.3350652,33.8753853,0 -80.3352404,33.8756669,0 -80.335393,33.8759448,0 -80.3354697,33.8761177,0 -80.3355583,33.8763003,0 -80.33561159999999,33.8764288,0 -80.33572049999999,33.876743,0 -80.33578180000001,33.8769692,0 -80.33583109999999,33.8771887,0 -80.33587060000001,33.8773895,0 -80.3358933,33.8775549,0 -80.3359250142604,33.87785123662218,0 -80.33592611754391,33.87796162023786,0 -80.33638541386551,33.87795534121509,0 
				
					-80.33644510000001,33.8779545,0 -80.33744609999999,33.87796,0 -80.33826259999999,33.8779645000001,0 -80.3385773,33.8779783,0 -80.3388827,33.8780124,0 -80.33917,33.8780604,0 -80.3394351,33.8781239999999,0 -80.33971390000001,33.8782039,0 -80.3399462,33.8782871,0 -80.3401794,33.8783859,0 -80.3403581,33.8784726,0 -80.3405496,33.8785769,0 -80.34075900000001,33.8787041,0 -80.34128800000001,33.879062,0 -80.3420526,33.8795824,0 -80.3426781,33.8800092,0 -80.3432119,33.8803704,0 -80.34358349999999,33.8806197,0 -80.3446209,33.8813272,0 -80.3451326,33.8816731,0 -80.3456443,33.8820189,0 -80.3469807,33.8829095,0 -80.3477666,33.8834194,0 -80.3480715,33.8836096,0 -80.34871990000001,33.8840158,0 -80.348872,33.8841111000001,0 -80.3489719,33.8841758,0 -80.3490766,33.8842463,0 -80.34918740000001,33.8843244,0 -80.3493161,33.8844263,0 -80.3494243,33.8845186,0 -80.3495442,33.8846434,0 -80.34963190000001,33.8847469,0 -80.3497153,33.8848528,0 -80.3497919,33.884967,0 -80.3498482,33.8850606,0 -80.349903,33.8851588,0 -80.349948,33.8852526,0 -80.3499886,33.8853487,0 -80.3500224,33.8854482,0 -80.350058,33.8855746,0 -80.35011950000001,33.8858288,0 -80.3501862,33.8861022,0 -80.35024540000001,33.8863478,0 -80.350358,33.8868119,0 -80.3503951,33.8869704,0 -80.3504662,33.8872664,0 -80.3505442,33.8875982,0 -80.3506637,33.8880855,0 -80.35081959999999,33.8887126,0 -80.3508533,33.8888478,0 -80.3508834,33.8889739,0 -80.351015,33.8895243,0 -80.35105280000001,33.8896824,0 -80.351771,33.892718,0 -80.351849,33.893062,0 -80.35196999999999,33.893544,0 -80.3519884,33.8936204,0 -80.352102,33.894092,0 -80.35212,33.894168,0 -80.3521236,33.894183,0 -80.3521607,33.8943364,0 -80.3522284,33.8946167,0 -80.352265,33.894768,0 -80.35233100000001,33.895041,0 -80.35247,33.89562,0 -80.35248900000001,33.895698,0 -80.352676,33.896466,0 -80.352683,33.8964947,0 -80.352782,33.896901,0 -80.352925,33.89749,0 -80.35296099999999,33.897637,0 -80.353005,33.897817,0 -80.353013,33.897853,0 -80.3530585,33.8980617,0 -80.353134,33.898408,0 -80.353301,33.899133,0 -80.353433,33.899709,0 -80.35351199999999,33.900297,0 -80.3535334,33.9004859,0 -80.35356229999999,33.9007398999999,0 -80.35357,33.900808,0 -80.353584,33.901029,0 -80.353686,33.90291,0 -80.353768,33.904248,0 -80.353798,33.904749,0 -80.35383400000001,33.905429,0 -80.353854,33.905802,0 -80.3538872,33.9064074,0 -80.353978,33.908065,0 -80.354001,33.908513,0 -80.354005,33.908587,0 -80.354011,33.908699,0 -80.35401400000001,33.908756,0 -80.354017,33.908815,0 -80.3540467,33.9092529,0 -80.35408289999999,33.9097685,0 -80.354097,33.9099697999999,0 -80.3541073,33.9101339,0 -80.35412220000001,33.910372,0 -80.35413920000001,33.9107304,0 -80.3541642,33.9112295,0 -80.3541694,33.9113481,0 -80.3541804,33.9115324,0 -80.3541944,33.9116763,0 -80.3542132,33.9118187,0 -80.35423369999999,33.9119474,0 -80.3542664,33.9121019,0 -80.3542975,33.9122289,0 -80.3543323,33.9123605,0 -80.3543732,33.9124888,0 -80.354456,33.912739,0 -80.35456600000001,33.912962,0 -80.354614,33.913056,0 -80.35473,33.913242,0 -80.354834,33.913394,0 -80.355014,33.91363,0 -80.35546600000001,33.914224,0 -80.35564100000001,33.91446,0 -80.35639399999999,33.915472,0 -80.3565321,33.9156553,0 -80.3567228,33.9159083,0 -80.3569064,33.916152,0 -80.35713699999999,33.916457,0 -80.35771699999999,33.917234,0 -80.357972,33.917575,0 -80.358256,33.917954,0 -80.358343,33.918071,0 -80.35856,33.918361,0 -80.3590602,33.9190402,0 -80.3591674,33.9191859,0 -80.3595318,33.9196806,0 -80.3596719,33.9198709,0 -80.359739,33.919962,0 -80.3598154,33.9200659,0 -80.3600565,33.9203936999999,0 -80.36062699999999,33.921169,0 -80.360865,33.921493,0 -80.361171,33.921908,0 -80.361965,33.922986,0 -80.362731,33.924015,0 -80.363517,33.925071,0 -80.364254,33.92607,0 -80.36488199999999,33.926928,0 -80.364997,33.927078,0 -80.365804,33.928187,0 -80.365937,33.928364,0 -80.3659838,33.9284263,0 -80.36663299999999,33.92929,0 -80.366671,33.929341,0 -80.36709070000001,33.929891,0 -80.36729560000001,33.9301595,0 -80.367418,33.93032,0 -80.367757,33.930765,0 -80.3679285,33.9309974,0 -80.3685014,33.9317738,0 -80.3685328,33.9318164,0 -80.368921,33.9323424,0 -80.3690306,33.932491,0 -80.36904010000001,33.9325038,0 -80.3691663,33.9326749,0 -80.36924089999999,33.9327776,0 -80.3692957,33.9328531,0 -80.3693517,33.9329324,0 -80.36941179999999,33.9330132,0 -80.3695503,33.9331921,0 -80.369872,33.933632,0 -80.3703208,33.9342501,0 -80.3703388,33.9342748,0 -80.3703622,33.9343071,0 -80.3703976,33.9343795,0 -80.3705614,33.9347144,0 -80.370571,33.934734,0 -80.370681,33.934997,0 -80.3706985,33.9350513000001,0 -80.370732,33.935155,0 -80.370777,33.935333,0 -80.370878,33.9358515,0 -80.3708926,33.9359265,0 -80.370926,33.936098,0 -80.3709442,33.936184,0 -80.370953,33.9362253,0 -80.3709825,33.9363645,0 -80.3710145,33.9365153,0 -80.3710427,33.936648,0 -80.37108310000001,33.9368386,0 -80.371213,33.9374509999999,0 -80.3713527,33.9381046,0 -80.3713889,33.9382738,0 -80.371393,33.938293,0 -80.37148639999999,33.9387307,0 -80.37150800000001,33.938832,0 -80.3715242,33.9389086,0 -80.37156090000001,33.9390814,0 -80.3717137,33.9398014,0 -80.371731,33.939883,0 -80.3718398,33.9404346,0 -80.3718514,33.9404934,0 -80.37190099999999,33.940745,0 -80.371948,33.940964,0 -80.37198359999999,33.9411318,0 -80.3720289,33.9413452,0 -80.3720579,33.9414819,0 -80.3721309,33.9418257,0 -80.372153,33.94193,0 -80.37216650000001,33.9419929,0 -80.37226130000001,33.9424334,0 -80.37237500000001,33.942962,0 -80.37250880000001,33.9435927,0 -80.37255639999999,33.9438346,0 -80.37258730000001,33.9440094,0 -80.37260670000001,33.9441636,0 -80.37261479999999,33.9442972,0 -80.3726169165835,33.94504882420205,0 -80.37270742692975,33.94532170126914,0 -80.37294405894819,33.94565991130609,0 -80.37530184614674,33.94890964745452,0 -80.37940786403334,33.95442597452119,0 -80.3796845867839,33.95470164019751,0 -80.37989872924101,33.95485046116788,0 -80.37995082785193,33.95499715684353,0 -80.37997747208637,33.95510857665241,0 
				
					-80.3799808,33.9551641,0 -80.3799777,33.9552984,0 -80.379981,33.955607,0 -80.379991,33.956008,0 -80.37998589999999,33.9560882,0 -80.3799786,33.9562022,0 -80.379972,33.956306,0 -80.3799697,33.9563208,0 -80.379936,33.956539,0 -80.37987099999999,33.956895,0 -80.37986600000001,33.956926,0 -80.37982599999999,33.957193,0 -80.379812,33.95728,0 -80.379774,33.957555,0 -80.379746,33.957913,0 -80.379741,33.957983,0 -80.37973599999999,33.958139,0 -80.379752,33.958303,0 -80.379778,33.958471,0 -80.379807,33.958602,0 -80.379841,33.958681,0 -80.379974,33.958971,0 -80.380087,33.95916,0 -80.381334,33.961126,0 -80.381545,33.961459,0 -80.381817,33.961887,0 -80.381957,33.962113,0 -80.382293,33.962654,0 -80.383135,33.96401,0 -80.38332200000001,33.964312,0 -80.38363560000001,33.9647258,0 -80.383781,33.964928,0 -80.383989,33.965175,0 -80.384424,33.965589,0 -80.3845333,33.9656718,0 -80.3846743,33.9657786,0 -80.3847359,33.9658301,0 -80.38803799999999,33.968202,0 -80.388704,33.968681,0 -80.388863,33.968795,0 -80.38906,33.9689408,0 -80.389916,33.9695739999999,0 -80.390345,33.969881,0 -80.39082500000001,33.970225,0 -80.39175,33.970871,0 -80.39198500000001,33.971042,0 -80.393502,33.972143,0 -80.3942,33.972647,0 -80.3953617,33.9734866,0 -80.39553100000001,33.973609,0 -80.397488,33.975035,0 -80.3977076,33.9751857,0 -80.3979484,33.9753515,0 -80.397987,33.975383,0 -80.398213,33.975522,0 -80.398394,33.975629,0 -80.39854800000001,33.975721,0 -80.398692,33.975795,0 -80.3989181,33.9759103,0 -80.39898599999999,33.9759450000001,0 -80.3990336,33.9759663,0 -80.39912699999999,33.976017,0 -80.39944029999999,33.9761768,0 -80.3994776,33.9761958,0 -80.399939,33.976431,0 -80.400499,33.976713,0 -80.4012566,33.9770831,0 -80.4024939,33.9777116,0 -80.40338749999999,33.9781596,0 -80.404218,33.978594,0 -80.404612,33.978821,0 -80.40498599999999,33.979055,0 -80.40547100000001,33.979401,0 -80.405682,33.979566,0 -80.405826,33.979678,0 -80.40586,33.979707,0 -80.4060028,33.9798308,0 -80.406161,33.979968,0 -80.406549,33.9803500000001,0 -80.40670799999999,33.980516,0 -80.406852,33.980674,0 -80.407262,33.9812000000001,0 -80.40784600000001,33.981984,0 -80.409916,33.984783,0 -80.410865,33.986074,0 -80.41188,33.9874039999999,0 -80.412477,33.9881859999999,0 -80.41303790000001,33.9889626,0 -80.4132846,33.9893042,0 -80.41354219999999,33.989661,0 -80.4137542,33.9899546,0 -80.414281,33.990684,0 -80.414788,33.991369,0 -80.41521899999999,33.991952,0 -80.41670499999999,33.993959,0 -80.4175302,33.9950752,0 -80.418024,33.9957429999999,0 -80.41858000000001,33.996512,0 -80.41941,33.997627,0 -80.419906,33.998295,0 -80.42038599999999,33.998941,0 -80.420793,33.999488,0 -80.42295900000001,34.002427,0 -80.42363,34.003351,0 -80.424052,34.003906,0 -80.424363,34.004289,0 -80.42451699999999,34.004468,0 -80.42500200000001,34.005002,0 -80.425211,34.005221,0 -80.42545800000001,34.005468,0 -80.425736,34.005734,0 -80.425949,34.005931,0 -80.426519,34.006429,0 -80.427037,34.006843,0 -80.42729300000001,34.007038,0 -80.427528,34.007208,0 -80.427722,34.007339,0 -80.42801799999999,34.007542,0 -80.428569,34.007892,0 -80.428815,34.008044,0 -80.429057,34.008186,0 -80.429644,34.008509,0 -80.42980900000001,34.008595,0 -80.430154,34.008772,0 -80.43044399999999,34.008915,0 -80.43107500000001,34.009198,0 -80.431601,34.009421,0 -80.43211599999999,34.00962,0 -80.432772,34.009851,0 -80.433159,34.009979,0 -80.43337699999999,34.010044,0 -80.43391699999999,34.010203,0 -80.43411639999999,34.0102552,0 -80.434326,34.01031,0 -80.43471599999999,34.010407,0 -80.435261,34.010529,0 -80.435467,34.01057,0 -80.435847,34.010646,0 -80.43629439999999,34.0107179,0 -80.436345,34.010726,0 -80.436553,34.010755,0 -80.436955,34.010814,0 -80.437512,34.01089,0 -80.438284,34.011001,0 -80.443228,34.0116990000001,0 -80.446804,34.0122040000001,0 -80.450248,34.012684,0 -80.451836,34.012907,0 -80.45203100000001,34.012938,0 -80.452669,34.013056,0 -80.453228,34.013185,0 -80.45359999999999,34.013285,0 -80.453965,34.013393,0 -80.454536,34.013581,0 -80.454706,34.013641,0 -80.455201,34.013838,0 -80.455663,34.014041,0 -80.45619600000001,34.0143,0 -80.45642700000001,34.01442,0 -80.456582,34.014506,0 -80.456962,34.014723,0 -80.45708999999999,34.014803,0 -80.45740000000001,34.014997,0 -80.457588,34.01512,0 -80.45800800000001,34.015418,0 -80.458212,34.015576,0 -80.458671,34.015952,0 -80.458849,34.016111,0 -80.45921300000001,34.016447,0 -80.459476,34.01671,0 -80.459626,34.016868,0 -80.45996100000001,34.017249,0 -80.46023,34.0175780000001,0 -80.46037699999999,34.017783,0 -80.460504,34.01795,0 -80.460639,34.01815,0 -80.460984,34.018689,0 -80.461735,34.019878,0 -80.463335,34.022392,0 -80.46473400000001,34.02461,0 -80.465309,34.025516,0 -80.465434,34.025704,0 -80.465805,34.026268,0 -80.466262,34.026947,0 -80.467921,34.029347,0 -80.468541,34.030306,0 -80.46880299999999,34.030732,0 -80.4694677,34.0318925,0 -80.4700631,34.0329906,0 -80.470231,34.03334,0 -80.47060500000001,34.034002,0 -80.47072900000001,34.034211,0 -80.471008,34.0346779999999,0 -80.471304,34.035159,0 -80.47141999999999,34.035347,0 -80.47188300000001,34.03605,0 -80.472238,34.0366129999999,0 -80.472452,34.036953,0 -80.472573,34.037146,0 -80.47324500000001,34.038211,0 -80.473337,34.038366,0 -80.473535,34.038701,0 -80.474148,34.039747,0 -80.474429,34.040247,0 -80.47485,34.041066,0 -80.4756323,34.0425555,0 -80.4761481,34.0435876,0 -80.4766015,34.0444625,0 -80.477125,34.045529,0 -80.47728600000001,34.04579,0 -80.47769700000001,34.046331,0 -80.47789400000001,34.046533,0 -80.478138,34.046746,0 -80.478239,34.0468400000001,0 -80.47839999999999,34.046988,0 -80.47874400000001,34.047277,0 -80.4803031,34.0485184,0 -80.48088919999999,34.0490039,0 -80.48117190000001,34.0492353,0 -80.48183400000001,34.049777,0 -80.4823979,34.0502737,0 -80.48286830000001,34.0507049,0 -80.4833395,34.0511575,0 -80.4837394,34.0515374,0 -80.48438659999999,34.0521367,0 -80.4851005,34.0527301,0 -80.4855079,34.0530617,0 -80.4857004,34.0532,0 -80.4858813,34.0533184,0 -80.4860666,34.0534242000001,0 -80.4862309,34.0535113,0 -80.48638699999999,34.0535847,0 -80.4866286,34.0536921,0 -80.4868936,34.053798,0 -80.488831,34.0545127,0 -80.4893397,34.0547056,0 -80.4900232,34.0549563,0 -80.49054839999999,34.055152,0 -80.49097039999999,34.0553107,0 -80.49131130000001,34.055456,0 -80.4915249,34.0555536,0 -80.4917415,34.0556743,0 -80.49199900000001,34.0558257,0 -80.4921463,34.0559206,0 -80.4927946,34.0563381,0 -80.4935863,34.0568761,0 -80.49387659999999,34.0570574,0 -80.496128,34.058606,0 -80.49619,34.058646,0 -80.4984874,34.0601865,0 -80.499257,34.060722,0 -80.500163,34.0613209999999,0 -80.50078000000001,34.061735,0 -80.50103300000001,34.061909,0 -80.501779,34.0624220000001,0 -80.502348,34.062812,0 -80.5033473,34.063444,0 -80.5045535,34.0642602,0 -80.50659159999999,34.0656413,0 -80.5074341,34.0662109000001,0 -80.50974909999999,34.0677481,0 -80.510487,34.0682714,0 -80.51127700000001,34.068828,0 -80.511359,34.068884,0 -80.5121552,34.0693978,0 -80.5129441,34.069925,0 -80.514062,34.070711,0 -80.515201,34.071477,0 -80.515621,34.071771,0 -80.515792,34.071882,0 -80.51590400000001,34.071964,0 -80.516006,34.072046,0 -80.516201,34.07223,0 -80.516293,34.072324,0 -80.5164,34.072458,0 -80.516516,34.072626,0 -80.51656199999999,34.072714,0 -80.51669,34.07296,0 -80.517871,34.0755939999999,0 -80.51901599999999,34.078193,0 -80.519036,34.078235,0 -80.51938,34.0790149999999,0 -80.51948899999999,34.079229,0 -80.519794,34.079747,0 -80.519824,34.079794,0 -80.520499,34.080834,0 -80.520961,34.081546,0 -80.52108699999999,34.08173,0 -80.521208,34.081921,0 -80.52132899999999,34.082093,0 -80.521451,34.082256,0 -80.52157800000001,34.082412,0 -80.521652,34.082503,0 -80.521846,34.082732,0 -80.522514,34.083486,0 -80.522659,34.08365,0 -80.5228104,34.0838137,0 -80.523234,34.084287,0 -80.524111,34.085229,0 -80.525417,34.086664,0 -80.526229,34.087549,0 -80.52704300000001,34.088436,0 -80.527151,34.088565,0 -80.52818360000001,34.089696,0 -80.528789,34.090359,0 -80.5288207,34.0903937,0 -80.52992,34.091598,0 -80.529948,34.091628,0 -80.530759,34.092521,0 -80.532085,34.093982,0 -80.53294699999999,34.094936,0 -80.533292,34.095321,0 -80.533496,34.095536,0 -80.5336685,34.0957247,0 -80.533841,34.095904,0 -80.533987,34.096036,0 -80.53400379999999,34.096049,0 -80.53424699999999,34.09624,0 -80.534372,34.09632,0 -80.534604,34.096459,0 -80.534774,34.096546,0 -80.53538399999999,34.096853,0 -80.535657,34.097002,0 -80.53581200000001,34.097091,0 -80.536126,34.097275,0 -80.536768,34.09767,0 -80.537329,34.098043,0 -80.538113,34.098673,0 -80.53871700000001,34.099205,0 -80.539816,34.100246,0 -80.540402,34.100846,0 -80.540952,34.101497,0 -80.54110799999999,34.10171,0 -80.541274,34.101923,0 -80.541364,34.102039,0 -80.54171700000001,34.102537,0 -80.541957,34.102916,0 -80.542434,34.103722,0 -80.542463,34.103772,0 -80.542608,34.104046,0 -80.54268999999999,34.104219,0 -80.54283100000001,34.104515,0 -80.543057,34.105035,0 -80.54352,34.106129,0 -80.543622,34.10637,0 -80.54403600000001,34.107308,0 -80.54481199999999,34.10912,0 -80.545006,34.109574,0 -80.545648,34.111032,0 -80.546246,34.112431,0 -80.546612,34.113267,0 -80.54662999999999,34.113308,0 -80.54665300000001,34.113361,0 -80.546819,34.113738,0 -80.547297,34.1148870000001,0 -80.54737,34.115063,0 -80.54788019999999,34.1161909,0 -80.5482233,34.1169713,0 -80.54840900000001,34.117571,0 -80.548528,34.117858,0 -80.5489197,34.118806,0 -80.549025,34.119061,0 -80.54967600000001,34.120469,0 -80.549875,34.1209,0 -80.55035100000001,34.121942,0 -80.55132500000001,34.124113,0 -80.5525172,34.1268704,0 -80.553269,34.128609,0 -80.5547607,34.132047,0 -80.5579864,34.1395789,0 -80.5610226,34.1466422,0 -80.562158,34.149274,0 -80.5631994,34.1517086,0 -80.565157,34.156277,0 -80.5689314,34.1650467,0 -80.5705078,34.1687119,0 -80.5722677,34.1728064,0 -80.5737295,34.1762089,0 -80.5773937,34.184743,0 -80.5784651,34.1870957,0 -80.57859089999999,34.1873262,0 -80.5786669,34.1874653,0 -80.578996,34.188027,0 -80.5794136,34.1885996,0 -80.580315,34.189839,0 -80.58540499999999,34.196134,0 -80.585916,34.196954,0 -80.586191,34.197587,0 -80.586343,34.198224,0 -80.586412,34.19909,0 -80.586198,34.205373,0 -80.586214,34.206037,0 -80.58632799999999,34.206914,0 -80.586488,34.207543,0 -80.587266,34.209782,0 -80.587564,34.210351,0 -80.58793,34.210896,0 -80.58978930000001,34.2132636,0 -80.59019859999999,34.2136936,0 -80.5906677,34.2142338,0 -80.591263,34.2149057,0 -80.59186390000001,34.2157168,0 -80.59218490000001,34.2161463,0 -80.5933771,34.2176868,0 -80.5937328,34.2181104,0 -80.5946531,34.2193221,0 -80.5948712,34.2195942,0 -80.5951699,34.2199667,0 -80.59555,34.2204408,0 -80.5956211,34.2205144,0 -80.59586299999999,34.2207648,0 -80.596199,34.2210738,0 -80.596565,34.2213558,0 -80.59694229999999,34.2215932,0 -80.59715300000001,34.2217258,0 -80.59984420000001,34.223166,0 -80.59998450000001,34.2232372,0 -80.6001248,34.2233084,0 -80.603004,34.2248388,0 -80.60343899999999,34.2251058,0 -80.603836,34.2254038,0 -80.60401899999999,34.2255598,0 -80.6043099,34.2259294,0 -80.604456,34.226083,0 -80.60474499999999,34.226434,0 -80.60498200000001,34.226792,0 -80.605081,34.226979,0 -80.60524100000001,34.227357,0 -80.605355,34.227731,0 -80.60544,34.228322,0 -80.6056474,34.2308843,0 -80.6056677,34.231158,0 -80.605737,34.232041,0 -80.6057897,34.2327649,0 -80.6058446,34.2334565,0 -80.60584950000001,34.2335213,0 -80.60589,34.2340622,0 -80.6060241,34.235607,0 -80.6061505,34.2368123,0 -80.60628,34.2380989,0 -80.6063123,34.2384199,0 -80.60635980000001,34.2388966,0 -80.60642470000001,34.2395469,0 -80.606582,34.241102,0 -80.6065937,34.2412181,0 -80.6066029,34.2412999,0 -80.60662960000001,34.2415697,0 -80.60664370000001,34.241712,0 -80.60668920000001,34.2421527,0 -80.6067082,34.2423389,0 -80.6067587,34.2428187,0 -80.6067812,34.2430463,0 -80.606863,34.2438643,0 -80.60693759999999,34.2445953,0 -80.6069493,34.2447001,0 -80.6069589,34.2447978,0 -80.60710450000001,34.2462734,0 -80.60711689999999,34.2463990999999,0 -80.607129,34.2465261,0 -80.6071688,34.2469383,0 -80.607187,34.2471273,0 -80.6071942,34.2472016,0 -80.60725429999999,34.2478019,0 -80.6072638,34.247899,0 -80.60727199999999,34.2479838,0 -80.6073236,34.2484691,0 -80.6073332,34.2485588,0 -80.60734840000001,34.2487257,0 -80.6073612,34.2488339,0 -80.6073797,34.2490183,0 -80.6074069,34.2492895,0 -80.6074419,34.2496391,0 -80.6074491,34.2497108000001,0 -80.60754849999999,34.2506968,0 -80.60755229999999,34.2507269,0 -80.6075866,34.2511026,0 -80.6076322,34.2516022,0 -80.6077366,34.2525202,0 -80.607919,34.254708,0 -80.60802940000001,34.255713,0 -80.608125,34.256791,0 -80.608407,34.259545,0 -80.608598,34.261388,0 -80.608659,34.262029,0 -80.6088178,34.2633207,0 -80.6088702,34.2639516,0 -80.60888799999999,34.264241,0 -80.6090714,34.2660659,0 -80.6091709,34.2670047,0 -80.6092223,34.2675756,0 -80.6092611,34.2680685,0 -80.60930020000001,34.2684788,0 -80.6093663,34.269304,0 -80.60938609999999,34.2694262,0 -80.6094174,34.2697626,0 -80.6094634,34.2702408,0 -80.6094496,34.2708447,0 -80.6094401,34.2712161,0 -80.609422,34.27192,0 -80.6094272,34.2720192,0 -80.6094317,34.2728102,0 -80.609438,34.273904,0 -80.6094544,34.2742741,0 -80.60946199999999,34.2744464,0 -80.6094638,34.2744858,0 -80.6094695,34.2746138,0 -80.6095072,34.2754029,0 -80.60951970000001,34.2760758,0 -80.6095353,34.2764692,0 -80.60960849999999,34.277124,0 -80.60963409999999,34.2773539,0 -80.6098791,34.2795466000001,0 -80.6099088,34.2798121,0 -80.60992899999999,34.2799931,0 -80.610071,34.2809957,0 -80.610185,34.282151,0 -80.610375,34.283525,0 -80.610665,34.285684,0 -80.610803,34.28674,0 -80.61091,34.287557,0 -80.61094,34.287812,0 -80.611093,34.288896,0 -80.611306,34.290502,0 -80.6113785,34.2910523,0 -80.61140399999999,34.291246,0 -80.611414,34.291329,0 -80.61143610000001,34.2914788,0 -80.61144400000001,34.291532,0 -80.61146599999999,34.291738,0 -80.61147200000001,34.291781,0 -80.6114906,34.2918986,0 -80.611527,34.292154,0 -80.61154999999999,34.292367,0 -80.61156389999999,34.2924608,0 -80.611611,34.292779,0 -80.61163500000001,34.292981,0 -80.611665,34.29318,0 -80.61167210000001,34.2932401,0 -80.611688,34.293374,0 -80.61171899999999,34.293565,0 -80.61174099999999,34.293752,0 -80.611772,34.293939,0 -80.61178700000001,34.294122,0 -80.61181000000001,34.294301,0 -80.61181999999999,34.294514,0 -80.61182599999999,34.294656,0 -80.61182599999999,34.294831,0 -80.6118256,34.295034,0 -80.61181000000001,34.295179,0 -80.61180450000001,34.2952373,0 -80.611794,34.29535,0 -80.611772,34.295522,0 -80.611761,34.295583,0 -80.61174099999999,34.295693,0 -80.6117287,34.2957471,0 -80.6116509,34.2960898,0 -80.61162229999999,34.2962157,0 -80.611513,34.296697,0 -80.61142100000001,34.29704,0 -80.611383,34.297212,0 -80.61133700000001,34.297387,0 -80.611299,34.297559,0 -80.61124239999999,34.2977723,0 -80.61120699999999,34.2979059999999,0 -80.611169,34.298078,0 -80.61112300000001,34.298249,0 -80.611085,34.298421,0 -80.61099299999999,34.298764,0 -80.610955,34.29894,0 -80.6108601,34.2993576,0 -80.61084510000001,34.2994416,0 -80.610597,34.30037,0 -80.61041400000001,34.301118,0 -80.610361,34.301309,0 -80.6103123,34.3015082,0 -80.610223,34.301873,0 -80.610169,34.302056,0 -80.61010899999999,34.302309,0 -80.610078,34.302442,0 -80.60998600000001,34.302816,0 -80.60991799999999,34.303071,0 -80.609888,34.303209,0 -80.60983400000001,34.303407,0 -80.60974299999999,34.303811,0 -80.609689,34.30401,0 -80.60964300000001,34.304208,0 -80.60953600000001,34.304612,0 -80.60948999999999,34.304818,0 -80.60917670000001,34.3061803,0 -80.6090743,34.3065505,0 -80.60886600000001,34.307303,0 -80.608689,34.308015,0 -80.608529,34.30869,0 -80.608468,34.308923,0 -80.608362,34.309392,0 -80.6083,34.309625,0 -80.60824700000001,34.3098579999999,0 -80.608186,34.310094,0 -80.608079,34.310563,0 -80.607957,34.311063,0 -80.607911,34.311277,0 -80.60785,34.311517,0 -80.60779700000001,34.311753,0 -80.607736,34.311994,0 -80.607568,34.312711,0 -80.60738499999999,34.313436,0 -80.607309,34.31368,0 -80.60724,34.31392,0 -80.606904,34.314862,0 -80.606713,34.315324,0 -80.606606,34.315553,0 -80.60650800000001,34.315778,0 -80.606386,34.316028,0 -80.6059956,34.3168298,0 -80.6057082,34.3174445,0 -80.6052323,34.318424,0 -80.60457340000001,34.3197338,0 -80.604157,34.320546,0 -80.60391300000001,34.321046,0 -80.603235,34.322412,0 -80.603196,34.32248,0 -80.60294399999999,34.323049,0 -80.602794,34.32347,0 -80.60268499999999,34.3238500000001,0 -80.602594,34.324212,0 -80.6025764,34.324369,0 -80.6025137,34.3248168000001,0 -80.6024827,34.3251263,0 -80.60242169999999,34.3258088,0 -80.6023581,34.326479,0 -80.6022131,34.3279598,0 -80.602159,34.328233,0 -80.60206700000001,34.328965,0 -80.602029,34.329168,0 -80.60199799999999,34.329377,0 -80.60186640000001,34.3300389,0 -80.6018054,34.3302681,0 -80.6017937,34.3303132,0 -80.6016606,34.3307634,0 -80.601106,34.332566,0 -80.599717,34.337091,0 -80.59967159999999,34.3372408,0 -80.59890300000001,34.339775,0 -80.59884,34.339986,0 -80.5983537,34.3415967,0 -80.59739,34.344732,0 -80.59636,34.348176,0 -80.596124,34.348882,0 -80.59414099999999,34.35537,0 -80.59409410000001,34.3555302,0 -80.5937627,34.3567263,0 -80.59369,34.357011,0 -80.593552,34.35774,0 -80.59345399999999,34.35848,0 -80.593403,34.3590638,0 -80.593324,34.360612,0 -80.59313299999999,34.36445,0 -80.59313299999999,34.364724,0 -80.593148,34.365274,0 -80.593217,34.366113,0 -80.593401,34.367242,0 -80.593667,34.368333,0 -80.59440050000001,34.3706504,0 -80.5948175,34.371954,0 -80.595842,34.375222,0 -80.59604,34.37602,0 -80.596147,34.376561,0 -80.596238,34.3772103,0 -80.5962718,34.3774667,0 -80.596963,34.382718,0 -80.59699639999999,34.3829929,0 -80.597116,34.383977,0 -80.597146,34.384496,0 -80.59710800000001,34.385278,0 -80.5970643,34.385574,0 -80.597032,34.385793,0 -80.5964307,34.3883996,0 -80.595468,34.392419,0 -80.5953061,34.3930585,0 -80.5949572,34.3941449,0 -80.5945969,34.3951799,0 -80.594331,34.395921,0 -80.5943173,34.3959878,0 -80.594285,34.396146,0 -80.594255,34.396585,0 -80.594255,34.39684,0 -80.594308,34.397321,0 -80.59439999999999,34.397683,0 -80.59443,34.397794,0 -80.594621,34.398256,0 -80.595552,34.400361,0 -80.597268,34.404252,0 -80.597765,34.405473,0 -80.598024,34.406221,0 -80.598344,34.407243,0 -80.598619,34.408262,0 -80.598855,34.40925,0 -80.59895400000001,34.409734,0 -80.599104,34.41065,0 -80.599526,34.413915,0 -80.599923,34.416807,0 -80.599954,34.417283,0 -80.599962,34.41776,0 -80.599931,34.418237,0 -80.599801,34.418989,0 -80.599695,34.419401,0 -80.59948799999999,34.420083,0 -80.59860399999999,34.4229290000001,0 -80.596734,34.428907,0 -80.59648300000001,34.429826,0 -80.596406,34.43028,0 -80.596391,34.4305130000001,0 -80.59639900000001,34.430971,0 -80.596452,34.431444,0 -80.596498,34.4316800000001,0 -80.596687,34.432302,0 -80.596887,34.432802,0 -80.5970674,34.4332141,0 -80.5983657,34.4361807,0 -80.5983717,34.4361956,0 -80.59871800000001,34.437063,0 -80.59899299999999,34.43778,0 -80.59916,34.438268,0 -80.599374,34.43902,0 -80.59954999999999,34.439771,0 -80.59964100000001,34.440271,0 -80.59970199999999,34.440774,0 -80.599763,34.441533,0 -80.599779,34.442041,0 -80.599763,34.443063,0 -80.5996564,34.4443773,0 -80.5995798,34.4453214,0 -80.599538,34.4458356,0 -80.59950120000001,34.44629,0 -80.59926,34.449262,0 -80.59895590000001,34.4530157,0 -80.598878,34.453977,0 -80.598741,34.455698,0 -80.59871800000001,34.456232,0 -80.59871800000001,34.456754,0 -80.598749,34.457265,0 -80.59878430000001,34.4575567,0 -80.599175,34.460229,0 -80.599245,34.460641,0 -80.59952699999999,34.462572,0 -80.5998574,34.464768,0 -80.60006799999999,34.466199,0 -80.60046819999999,34.4687937,0 -80.6006971,34.4701752,0 -80.600953,34.472059,0 -80.601602,34.476388,0 -80.60189200000001,34.478586,0 -80.601946,34.479486,0 -80.60189200000001,34.483217,0 -80.601877,34.485406,0 -80.601838,34.485925,0 -80.60177,34.486444,0 -80.601663,34.486959,0 -80.60158699999999,34.487215,0 -80.6002544,34.4914416,0 -80.6000413,34.492123,0 -80.59996099999999,34.49238,0 -80.5990905,34.4952008,0 -80.5989075,34.4957874,0 -80.5986067,34.496703,0 -80.5982015,34.4979613,0 -80.5980977,34.4982358,0 -80.59792849999999,34.4986465,0 -80.597522,34.4995766,0 -80.5970342,34.5006504,0 -80.59674390000001,34.5012836,0 -80.5960654,34.5027287,0 -80.5955912,34.5037383000001,0 -80.5951597,34.5046512,0 -80.5948049,34.5053907,0 -80.5936976,34.5077255,0 -80.5931374,34.5092123,0 -80.59303970000001,34.5098778,0 -80.5929983,34.5118924,0 -80.5929592,34.5129712,0 -80.592842,34.5140177,0 -80.59262699999999,34.5152146,0 -80.5923416,34.5161967,0 -80.5914155,34.5185044,0 -80.5897798,34.522174,0 -80.58976199999999,34.522214,0 -80.58875980000001,34.5246364,0 -80.5874348,34.5276497,0 -80.5867824,34.5290668,0 -80.58637109999999,34.5298486,0 -80.5860034,34.5304643,0 -80.5856368,34.5309747,0 -80.5854114,34.5313819,0 -80.58489400000001,34.5320973,0 -80.5843507,34.5329649,0 -80.58378020000001,34.5338143,0 -80.58355229999999,34.5342865,0 -80.5833504,34.5348767,0 -80.58299409999999,34.5369057,0 -80.58284500000001,34.5377549,0 -80.5828228,34.5378814,0 -80.5826067,34.5391775,0 -80.5825279,34.5396497000001,0 -80.5824659,34.5401276,0 -80.5824353,34.5403241,0 -80.58228029999999,34.5413083,0 -80.5822076,34.5417225,0 -80.58240309999999,34.5418684,0 -80.58246200000001,34.5419575,0 -80.58256179999999,34.5421235,0 -80.5828135,34.5426801,0 -80.5832054,34.5437194,0 -80.58369570000001,34.5449721,0 -80.5841952,34.5462142,0 -80.58466629999999,34.5474601,0 -80.5851732,34.5487196,0 -80.5856665,34.5499692,0 -80.5861554,34.5511486,0 -80.5865641,34.5521842,0 -80.5867262,34.5528258000001,0 -80.5868047,34.5537128,0 -80.5868425,34.5540112,0 -80.5868794,34.5543026,0 -80.5869118,34.5545585,0 -80.58718090000001,34.5566817,0 -80.5873826,34.5572158,0 -80.5876159,34.5578052,0 -80.5878244,34.5583925,0 -80.5882912,34.5594713,0 -80.5883694,34.5599111,0 -80.5883291,34.5603411,0 -80.5882536,34.5606095,0 -80.58816950000001,34.5608237,0 -80.5881023,34.5609673,0 -80.58801819999999,34.5611278,0 -80.58777329999999,34.5615646,0 -80.5876722,34.5618604,0 -80.58763930000001,34.5619703,0 -80.5875853,34.5620737,0 -80.5878429,34.5627999,0 -80.58802729999999,34.5632955,0 -80.5884767,34.5644513,0 -80.5886179,34.5647576,0 -80.58875070000001,34.5650004,0 -80.5889107,34.5652461,0 -80.58905799999999,34.5654362,0 -80.589218,34.5656237,0 -80.5894138,34.565834,0 -80.5895486,34.5659496,0 -80.5896154,34.5660068,0 -80.5899213,34.5662529,0 -80.59011510000001,34.5663753,0 -80.5902957,34.5664862,0 -80.5903102,34.5664951,0 -80.59057660000001,34.5666366,0 -80.5908194,34.5667504,0 -80.5911047,34.5668617,0 -80.5913055,34.5669234,0 -80.5915389,34.5669936,0 -80.5917353,34.5670442,0 -80.59199030000001,34.567096,0 -80.59240920000001,34.5671744,0 -80.59351220000001,34.5673684,0 -80.595089,34.5676467,0 -80.5963551,34.5678704,0 -80.5970762,34.5679974,0 -80.5986217,34.5682698,0 -80.6009306,34.5686735,0 -80.6027814,34.5689973,0 -80.6048286,34.569368,0 -80.60617860000001,34.5696049,0 -80.6077057,34.5698725,0 -80.60900530000001,34.5701007,0 -80.6097534,34.5702305,0 -80.6102842,34.5703239,0 -80.6112347,34.5704939,0 -80.61193040000001,34.5706315,0 -80.6123625,34.5707289,0 -80.61284240000001,34.5708491,0 -80.61316050000001,34.5709447,0 -80.6151112,34.5715312,0 -80.6156148,34.5716826,0 -80.61710239999999,34.572144,0 -80.6197866,34.5729766,0 -80.6206485,34.5732392,0 -80.62094399999999,34.5733335000001,0 -80.62197949999999,34.5736508,0 -80.62305379999999,34.573981,0 -80.6252356,34.5746552,0 -80.62633889999999,34.5749995,0 -80.627021,34.5752204,0 -80.62738419999999,34.5753541,0 -80.6277867,34.5755108,0 -80.6281103,34.5756423,0 -80.6286319,34.5758674,0 -80.63147979999999,34.5771289,0 -80.6331404,34.577867,0 -80.6345742,34.5785016,0 -80.63619509999999,34.5792215,0 -80.63721630000001,34.5796698,0 -80.6383139,34.5801572,0 -80.6391953,34.5805418,0 -80.63955319999999,34.5806971,0 -80.6398234,34.5808017,0 -80.64009590000001,34.5808864,0 -80.640373,34.5809488,0 -80.6406867,34.5809989,0 -80.64096929999999,34.5810206,0 -80.6412412,34.581033,0 -80.64150770000001,34.5810226,0 -80.6417478,34.5809981,0 -80.64200959999999,34.5809621,0 -80.6424269,34.5808816,0 -80.6429377,34.5807888,0 -80.64415510000001,34.5805568,0 -80.6446935,34.580464,0 -80.6450141,34.5804118,0 -80.6453032,34.5803786,0 -80.6456261,34.5803646,0 -80.64604509999999,34.5803631,0 -80.64638290000001,34.5803817,0 -80.6467815,34.5804184,0 -80.6473386,34.5804862,0 -80.6487399,34.5806653,0 -80.6503471,34.5808667,0 -80.6515583,34.5810258,0 -80.651884,34.5810717,0 -80.6521765,34.5811277000001,0 -80.6524551,34.5811938,0 -80.65273879999999,34.5812714,0 -80.6530937,34.5813819,0 -80.6533822,34.5814952,0 -80.65367310000001,34.5816227000001,0 -80.6539633,34.5817654000001,0 -80.65420659999999,34.5818955,0 -80.6545378,34.5820969,0 -80.65485270000001,34.5823316,0 -80.6549797,34.5824304,0 -80.6553279,34.58271,0 -80.65622380000001,34.5835078,0 -80.6568279,34.5840384,0 -80.6572913,34.5844296,0 -80.6578806,34.584945,0 -80.6584395,34.5854352,0 -80.659537,34.5864208,0 -80.65996060000001,34.5867755,0 -80.6602809,34.5870717,0 -80.660484,34.5872371,0 -80.6607217,34.5874044,0 -80.66098340000001,34.5875685999999,0 -80.6612947,34.5877427,0 -80.66150589999999,34.587851,0 -80.6617122,34.5879488,0 -80.6619141,34.5880417,0 -80.6621537,34.5881398,0 -80.6623886,34.5882232,0 -80.6627884,34.5883469,0 -80.6644072,34.5888201,0 -80.6657883,34.589217,0 -80.6665015,34.5894196,0 -80.66715480000001,34.5896171,0 -80.6681408,34.5899007,0 -80.6685057,34.5900046,0 -80.6688484,34.5900904,0 -80.6691758,34.5901476,0 -80.6694871,34.5901844,0 -80.6697921,34.5902062,0 -80.67007719999999,34.5902081,0 -80.6703323,34.5902012,0 -80.6709042,34.5901463,0 -80.6733634,34.589853,0 -80.6744467,34.5897076,0 -80.67466640000001,34.5896901,0 -80.67471810000001,34.5897162,0 -80.6747617,34.5897785,0 -80.6747926,34.5898963,0 -80.67484020000001,34.5901621,0 -80.6749782,34.590921,0 -80.6752396,34.5921524,0 -80.6754437,34.593396,0 -80.6755072,34.5938943,0 -80.675618,34.5940093,0 -80.6757848,34.5941087,0 -80.67602119999999,34.59422,0 -80.6765267,34.5944579,0 -80.6765934,34.5944893,0 -80.6768745,34.5946479,0 -80.6770935,34.594789,0 -80.6773163,34.5949696,0 -80.6777232,34.5953603,0 -80.6783428,34.5960175,0 -80.6795448,34.5971548,0 -80.6810018,34.5984025,0 -80.68187709999999,34.599165,0 -80.6822579,34.5995466,0 -80.68255310000001,34.5998765,0 -80.6829548,34.6003995,0 -80.6832277,34.6008854,0 -80.6835731,34.6016249,0 -80.6836311,34.6017528,0 -80.68464040000001,34.6038992,0 -80.68487140000001,34.6043908,0 -80.68579750000001,34.606348,0 -80.6860303,34.6069581,0 -80.68612039999999,34.607441,0 -80.6861389,34.6076568,0 -80.686155,34.6079348,0 -80.6861572,34.6081133,0 -80.68615509999999,34.6082547,0 -80.6861273,34.6085333999999,0 -80.6860539,34.6089196,0 -80.68582790000001,34.6099012,0 -80.68564979999999,34.6106711,0 -80.68543339999999,34.6114959,0 -80.6852098,34.612508,0 -80.68514639999999,34.6130271,0 -80.6851394,34.6130844,0 -80.68510860000001,34.6138657,0 -80.6850554,34.6151918,0 -80.68505020000001,34.6160506,0 -80.6850345,34.6165428,0 -80.6849967,34.6178703,0 -80.68497429999999,34.6187642,0 -80.6849641,34.619169,0 -80.6849382,34.6202008,0 -80.684915,34.6220816,0 -80.6848834,34.6231489,0 -80.6849744,34.6238355,0 -80.6851879,34.6245937,0 -80.6854726,34.6251891,0 -80.685981,34.626015,0 -80.6865086,34.6268243,0 -80.6875392,34.6283537,0 -80.6901886,34.6323949,0 -80.692609,34.6360661,0 -80.6946193,34.6391199,0 -80.6959787,34.6410754,0 -80.6968713,34.6422599,0 -80.69963319999999,34.6459251,0 -80.6999093,34.6462882,0 -80.7001355,34.6465857,0 -80.7006865,34.6473104,0 -80.7025989,34.6498255,0 -80.70285199999999,34.6501638,0 -80.704947,34.652961,0 -80.7068855,34.6554796,0 -80.709329,34.6587246,0 -80.7106495,34.6606753,0 -80.71271369999999,34.6637684,0 -80.7141349,34.6659078999999,0 -80.7158349,34.6684151,0 -80.7162677,34.6690935,0 -80.7176844,34.6712042,0 -80.7188666,34.672957,0 -80.7192811,34.6735673,0 -80.7196141,34.6740702,0 -80.71982819999999,34.6743852999999,0 -80.72007000000001,34.6747415,0 -80.7202204,34.6749558,0 -80.7203803,34.6751578,0 -80.7205074,34.6753093,0 -80.72084340000001,34.6756556,0 -80.7214101,34.6761805,0 -80.7234455,34.6777125,0 -80.72450069999999,34.6785161,0 -80.7253832,34.6791809,0 -80.72832579999999,34.6814238,0 -80.7304893,34.6830855,0 -80.73144069999999,34.6838004,0 -80.7339209,34.6856877,0 -80.73421329999999,34.6859092,0 -80.7349777,34.6864865,0 -80.7352853,34.6867188,0 -80.73607610000001,34.6873209999999,0 -80.73759389999999,34.6884766,0 -80.7380745,34.6888442,0 -80.7381857,34.6889265,0 -80.7393902,34.6898404,0 -80.74001509999999,34.6902938,0 -80.7405961,34.6908613,0 -80.74093569999999,34.6912616,0 -80.7411841,34.69164,0 -80.7412545,34.6917944,0 -80.7414137,34.6921437,0 -80.7417456,34.6931406,0 -80.74239369999999,34.6950868,0 -80.7442276,34.700587,0 -80.7456234,34.7046889,0 -80.7457612,34.7050834,0 -80.7463959,34.7069213,0 -80.7464494,34.7071781,0 -80.7465152,34.7074935,0 -80.7466525,34.7080381,0 -80.7467419,34.7091469,0 -80.7467118,34.7095757,0 -80.7466623,34.7102821000001,0 -80.7466491,34.7104699,0 -80.7465764,34.7116085,0 -80.74655370000001,34.7119174,0 -80.7465163,34.7124265,0 -80.746399,34.713763,0 -80.74635290000001,34.7147623,0 -80.7463095,34.7152149,0 -80.7462191,34.716216,0 -80.7461909,34.7165351,0 -80.74612740000001,34.7174705,0 -80.74608019999999,34.7181381,0 -80.7459241,34.7205427,0 -80.7458992,34.7208191,0 -80.74589589999999,34.7209948,0 -80.7458938,34.721063,0 -80.74590499999999,34.7214828,0 -80.74600100000001,34.7220143,0 -80.74609220000001,34.7224029,0 -80.7462199,34.7227753,0 -80.7463741,34.7231331,0 -80.7467024,34.723617,0 -80.7468671,34.7238505,0 -80.7471729,34.7242252,0 -80.7475535,34.7246084,0 -80.7481001,34.7250444000001,0 -80.7486081,34.7253566,0 -80.74926499999999,34.7256731,0 -80.749773,34.7258828,0 -80.7509932,34.7263545999999,0 -80.7510403,34.7263728,0 -80.75198829999999,34.7267599,0 -80.75425199999999,34.727608,0 -80.7552949,34.7280422,0 -80.7561381,34.7283757,0 -80.7567995,34.7286372,0 -80.757249,34.728815,0 -80.7579319,34.7290827,0 -80.7579593,34.7290930999999,0 -80.7585189,34.7293122,0 -80.7595628,34.7297234,0 -80.75986260000001,34.7298415,0 -80.7604796,34.7300846000001,0 -80.7625046,34.7308712,0 -80.7628689,34.7310069,0 -80.7634695,34.7312426,0 -80.7639788,34.7314529,0 -80.7645029,34.7316649,0 -80.7648418,34.731802,0 -80.764906,34.731828,0 -80.7652887,34.7319784,0 -80.7657614,34.7321642,0 -80.7681051,34.7330852,0 -80.768844,34.7333787,0 -80.76955409999999,34.7336632,0 -80.7698322,34.7337659,0 -80.7700971,34.7338639,0 -80.7708978,34.7341699,0 -80.7713849,34.7343286,0 -80.7714335,34.7343458,0 -80.7720295,34.7345225,0 -80.772567,34.7346402,0 -80.7733097,34.7347725000001,0 -80.774128,34.7348664,0 -80.77509790000001,34.7350088,0 -80.77614989999999,34.735141,0 -80.77687160000001,34.7352092,0 -80.7778694,34.7353444999999,0 -80.778217,34.735354,0 -80.77835810000001,34.7353423,0 -80.77848710000001,34.7353253,0 -80.77864460000001,34.7352795,0 -80.77882,34.735188,0 -80.7789195,34.7350893,0 -80.77898949999999,34.7349735,0 -80.7790387,34.7348592,0 -80.77904959999999,34.7347128,0 -80.7790013,34.7345633,0 -80.7789341,34.73447,0 -80.7788625,34.734387,0 -80.77875520000001,34.7343178,0 -80.7786401,34.7342628,0 -80.7784616,34.7342217,0 -80.77832669999999,34.7342258,0 -80.7781801,34.7342428,0 -80.7780794,34.7342866000001,0 -80.7779664,34.7343587,0 -80.7778716,34.7344497,0 -80.777817,34.7345583,0 -80.7777713,34.7346513,0 -80.7777133,34.7349065,0 -80.77769859999999,34.7351146,0 -80.77782689999999,34.7357346,0 -80.7779427,34.7361941,0 -80.7780339,34.7365583,0 -80.7781993,34.7372191,0 -80.77842560000001,34.7381229,0 -80.7785319,34.7387189,0 -80.7785559,34.7393005,0 -80.77849399999999,34.740021,0 -80.77838,34.7406546,0 -80.7782042,34.7412487,0 -80.7780478,34.7417465,0 -80.7778883,34.7423141,0 -80.77776129999999,34.7427176,0 -80.7775431,34.7434113,0 -80.7773602,34.7440907,0 -80.7772305,34.7445727,0 -80.7772058,34.7447491,0 -80.7771949,34.7450817,0 -80.7771949,34.7454521,0 -80.7772464,34.7461605,0 -80.7773998,34.74675,0 -80.7775632,34.7472304,0 -80.777907,34.748107,0 -80.77857779999999,34.7492243,0 -80.778882,34.7499,0 -80.779017,34.750147,0 -80.7793626,34.7508249,0 -80.78095759999999,34.753954,0 -80.78208600000001,34.7562529,0 -80.7845025,34.7610772,0 -80.7846476,34.7613641,0 -80.7849004,34.7618635,0 -80.78512980000001,34.7623218,0 -80.78573950000001,34.7635848,0 -80.786006,34.764215,0 -80.78627849999999,34.7652217,0 -80.7864155,34.7662561,0 -80.78669170000001,34.7680514,0 -80.7867743,34.7686,0 -80.7868197,34.7688125,0 -80.7868826,34.769084,0 -80.786951,34.7693578,0 -80.7870411,34.7696289,0 -80.7871392,34.7698999,0 -80.7872352,34.770131,0 -80.7874388,34.7705338,0 -80.7877127,34.7710854,0 -80.7882285,34.7720695000001,0 -80.78839979999999,34.772403,0 -80.78857859999999,34.7727439,0 -80.78872130000001,34.7729714,0 -80.7888737,34.7732017,0 -80.7890589,34.7734663,0 -80.78925409999999,34.7737115,0 -80.7893996,34.7738902,0 -80.78954450000001,34.7740554,0 -80.7897578,34.7742805,0 -80.790254,34.7747518,0 -80.7903159,34.7748105,0 -80.7903919,34.7748823,0 -80.7909588,34.7754177,0 -80.7923315,34.7766497999999,0 -80.79351699999999,34.777705,0 -80.7945684,34.7786611,0 -80.7952336,34.779278,0 -80.79537310000001,34.7793881,0 -80.7957861,34.7798067,0 -80.7961134,34.7802738,0 -80.7963065,34.7806571,0 -80.7964192,34.7809699,0 -80.7965586,34.7814546,0 -80.79657709999999,34.7816718,0 -80.7965962,34.7818952,0 -80.7965908,34.7823225,0 -80.7965372,34.784455,0 -80.7965264,34.7855697,0 -80.79660749999999,34.7868357,0 -80.796632,34.787194,0 -80.7967281,34.7884036,0 -80.7967945,34.7892053,0 -80.79703050000001,34.7920146,0 -80.79706779999999,34.7924879,0 -80.79711330000001,34.7931215,0 -80.79716689999999,34.7937126,0 -80.7972753,34.7946911,0 -80.7972865,34.7947644,0 -80.7978074,34.7981784,0 -80.7978219,34.7982855,0 -80.79817,34.8005535,0 -80.7982432,34.8010077,0 -80.7983138,34.8013276,0 -80.7983773,34.8015816,0 -80.7984668,34.8018596,0 -80.79856940000001,34.802147,0 -80.7987735,34.8026594,0 -80.7997869,34.8051397,0 -80.8006472,34.8072465,0 -80.8007082,34.8074024,0 -80.80072319999999,34.8074398,0 -80.8009289,34.8079521,0 -80.8010302,34.8082417,0 -80.8011407,34.8085763,0 -80.801227,34.8088692,0 -80.8012961,34.809131,0 -80.80135129999999,34.8093947,0 -80.80139560000001,34.8096115,0 -80.8014297,34.8098374,0 -80.80146879999999,34.810114,0 -80.80149489999999,34.8103854,0 -80.8015144,34.810638,0 -80.8015225,34.8109053,0 -80.80152630000001,34.8111797,0 -80.80150070000001,34.8123623,0 -80.801492,34.8127641,0 -80.8014853,34.8130741,0 -80.8014678,34.8136155,0 -80.80146499999999,34.8137234,0 -80.8014555,34.8140881,0 -80.80140780000001,34.8159264,0 -80.8013552,34.8177691,0 -80.8012919,34.8202823,0 -80.8012998,34.8205282,0 -80.80131900000001,34.8207975,0 -80.801346,34.8210539,0 -80.8013859,34.821322,0 -80.80144319999999,34.8216136,0 -80.8015085,34.821866,0 -80.8015834,34.8221445,0 -80.8016567,34.8223564,0 -80.8017688,34.8226567,0 -80.8027127,34.8250479,0 -80.803731,34.8276074,0 -80.8043966,34.8292957,0 -80.80461149999999,34.8298497,0 -80.8049109,34.8306067,0 -80.8052764,34.8315082,0 -80.8054491,34.8319355,0 -80.8056315,34.8323936,0 -80.8058073,34.8327982,0 -80.8059397,34.8330725,0 -80.80611759999999,34.8333967,0 -80.80630859999999,34.8337351,0 -80.8065039,34.8340343,0 -80.8067404,34.834387,0 -80.8070262,34.8347834,0 -80.80790690000001,34.8360163,0 -80.8083249,34.8365938,0 -80.809871,34.8387807,0 -80.81004590000001,34.8390452,0 -80.8101855,34.839287,0 -80.81029599999999,34.8395062,0 -80.8104065,34.8397517,0 -80.8104924,34.8399797,0 -80.8105645,34.8402265,0 -80.8106382,34.8405036,0 -80.81068569999999,34.840763,0 -80.8107164,34.8410527,0 -80.8107272,34.841263,0 -80.8107333,34.8415048,0 -80.8107241,34.8417088,0 -80.8106995,34.8419531,0 -80.8106535,34.8422415,0 -80.8105283,34.8427883,0 -80.8103789,34.8434112,0 -80.8098944,34.8456171,0 -80.80977660000001,34.8457898,0 -80.8094243,34.8472439,0 -80.8092702,34.8478565,0 -80.8091367,34.8483955,0 -80.80874540000001,34.8499606,0 -80.80794590000001,34.8530632,0 -80.8077449,34.8538502,0 -80.8075341,34.8547192,0 -80.807481,34.8549381,0 -80.8070345,34.8567739,0 -80.806932,34.8571844,0 -80.80690490000001,34.8572928,0 -80.8068244,34.8576152,0 -80.806628,34.8583917,0 -80.8064164,34.859241,0 -80.8059698,34.860971,0 -80.805531,34.8627323,0 -80.8051823,34.8641429,0 -80.8050868,34.8645319,0 -80.80502389999999,34.8647491,0 -80.8049591,34.8649716,0 -80.80493800000001,34.8650664,0 -80.8049094,34.865222,0 -80.8048821,34.8653186,0 -80.8048028,34.8654773,0 -80.8047303,34.8656206,0 -80.8046147,34.8658234,0 -80.8045113,34.8659866,0 -80.8043649,34.866207,0 -80.804256,34.8663536,0 -80.80403819999999,34.8666062,0 -80.803404,34.867287,0 -80.80220629999999,34.8685464,0 -80.8012847,34.8695256,0 -80.8003753,34.8704848,0 -80.7973413,34.8736931,0 -80.79706059999999,34.8739973,0 -80.7968899,34.8741968,0 -80.7966898,34.8744613,0 -80.7965595,34.8746586,0 -80.7964345,34.8748702,0 -80.7963002,34.8751248,0 -80.7961931,34.8753458,0 -80.7960977,34.8755938,0 -80.7960198,34.875833,0 -80.7959499,34.8760953,0 -80.7958962,34.8763719,0 -80.7958599,34.8766199,0 -80.79583839999999,34.876902,0 -80.7958331,34.8771478,0 -80.79584509999999,34.8773692,0 -80.7958869,34.8777277,0 -80.7959591,34.8782716,0 -80.79624130000001,34.8801971,0 -80.7966534,34.8830205,0 -80.79706950000001,34.885885,0 -80.79717960000001,34.8866274,0 -80.79730499999999,34.887483,0 -80.7973886,34.8879646,0 -80.7974627,34.8882794,0 -80.7975928,34.8887023,0 -80.79769829999999,34.8889932,0 -80.7978028,34.889255,0 -80.7979168,34.8895043,0 -80.7980821,34.8898207,0 -80.7983005,34.8901977999999,0 -80.7984707,34.8904688,0 -80.8006484,34.8937968,0 -80.8006819,34.8938474,0 -80.801104,34.8944964,0 -80.80116219999999,34.8945859,0 -80.802989,34.8973282,0 -80.8033568,34.8979393,0 -80.803631,34.8983949,0 -80.80535810000001,34.9010485,0 -80.8076471,34.9045521,0 -80.80800840000001,34.905071,0 -80.8082758,34.9054269,0 -80.80857330000001,34.9057993,0 -80.808944,34.9062306,0 -80.80932559999999,34.9066790000001,0 -80.8107095,34.9080584,0 -80.8107912,34.9081257,0 -80.8113592,34.9086644,0 -80.8114248,34.9087234,0 -80.8117014,34.9089993,0 -80.8117799,34.9090911,0 -80.8118745,34.9091964,0 -80.8126303,34.909957,0 -80.8126805,34.9100025000001,0 -80.8128722,34.9101765,0 -80.81307030000001,34.9104048,0 -80.8131006,34.9104356,0 -80.8134458,34.9107832,0 -80.8135935,34.9109408,0 -80.8137413,34.9111203,0 -80.8138703,34.9112878,0 -80.81399519999999,34.9114674,0 -80.8141605,34.9117141,0 -80.81427600000001,34.9119202,0 -80.81438350000001,34.9121493,0 -80.8144775,34.9123674000001,0 -80.8145547,34.9125772,0 -80.8146783,34.9129699,0 -80.81489310000001,34.9137302,0 -80.8151443,34.9146196,0 -80.8152797,34.915099,0 -80.8153691,34.9154196,0 -80.8154936,34.9158664,0 -80.8155685,34.9161906,0 -80.81563149999999,34.916462,0 -80.8156954,34.9166473,0 -80.8157951,34.9168957,0 -80.8158816,34.9170726,0 -80.8159775,34.9172486,0 -80.8161339,34.9175066,0 -80.81675319999999,34.9184469,0 -80.8169896,34.9187983,0 -80.8172489,34.9192003,0 -80.8178494,34.9201124,0 -80.8181812,34.9206059,0 -80.81851810000001,34.9211148,0 -80.8187492,34.9214519,0 -80.8189728,34.9217432,0 -80.8192146,34.9220395,0 -80.8193933,34.9222477,0 -80.8195948,34.9224503,0 -80.819838,34.9226861,0 -80.8200906,34.9229119,0 -80.82032700000001,34.9231101,0 -80.8206521,34.9233591,0 -80.8209356,34.9235573,0 -80.8211881,34.9237215,0 -80.82142589999999,34.9238636,0 -80.8216906,34.9240134,0 -80.8219902,34.9241687,0 -80.8222763,34.9243075,0 -80.8225039,34.9244145,0 -80.8227964,34.924536,0 -80.8232239,34.9247073,0 -80.8259345,34.9257756,0 -80.8270916,34.926232,0 -80.827609,34.9264361,0 -80.8302338,34.9274762,0 -80.8308665,34.9277208,0 -80.8313072,34.927903,0 -80.83157319999999,34.9280261,0 -80.83187340000001,34.9281818,0 -80.8321014,34.9283158,0 -80.8323522,34.9284731,0 -80.8325631,34.9286242,0 -80.8327721,34.9287847,0 -80.8330058,34.928984,0 -80.8331938,34.9291632,0 -80.833399,34.9293734,0 -80.83350919999999,34.9294965,0 -80.8336042,34.9296055,0 -80.8337277,34.9297753,0 -80.8338012,34.9298694,0 -80.83384220000001,34.9299219,0 -80.8340376,34.9302209,0 -80.8341353,34.9303971,0 -80.8344089,34.9310166,0 -80.8344409,34.9311011,0 -80.83465169999999,34.931622,0 -80.83479800000001,34.9319965,0 -80.83501889999999,34.9325529999999,0 -80.83504069999999,34.9326079,0 -80.83515920000001,34.9328996,0 -80.83577579999999,34.9344183,0 -80.8358363,34.9345672,0 -80.8360943,34.9352237,0 -80.8364533,34.9361359,0 -80.8367598,34.9369133,0 -80.836877,34.9372106,0 -80.837236,34.9381212,0 -80.83725459999999,34.9381684,0 -80.8373607,34.9384481,0 -80.83744110000001,34.9386451,0 -80.8379204,34.9398881,0 -80.83798090000001,34.9400456,0 -80.83830450000001,34.9407722,0 -80.8383328,34.9408358,0 -80.83838780000001,34.9409397,0 -80.838424,34.9409935,0 -80.8384685,34.9410595,0 -80.8386186,34.9413057,0 -80.8387688,34.9415321,0 -80.8389174,34.9417402,0 -80.83898739999999,34.9418277999999,0 -80.8392027,34.9420971,0 -80.83949680000001,34.9424305,0 -80.8397561,34.9426972,0 -80.8408597,34.9437667,0 -80.84108190000001,34.9439821,0 -80.8416993,34.9445725,0 -80.8418834,34.9447502,0 -80.8427466,34.9455836,0 -80.8429647,34.9457941,0 -80.8434297,34.9462443,0 -80.84386859999999,34.9466692,0 -80.8446734,34.9474556,0 -80.844781,34.9475588,0 -80.8453207,34.9480768,0 -80.8454359,34.9481871999999,0 -80.8456573,34.948398,0 -80.8460111,34.9487553,0 -80.84658229999999,34.9493082,0 -80.84666060000001,34.9493841,0 -80.8473183,34.9500179,0 -80.847605,34.9502997,0 -80.847689,34.9503797,0 -80.8477717,34.9504585000001,0 -80.8483363,34.9510074,0 -80.8493738,34.9520088,0 -80.8499056,34.9525262,0 -80.85031240000001,34.9529125,0 -80.8503291,34.9529287000001,0 -80.85051319999999,34.9531071,0 -80.8506356,34.9532257,0 -80.8507164,34.953304,0 -80.85081479999999,34.9533987,0 -80.85117270000001,34.953746,0 -80.8512929,34.9538627,0 -80.8517111,34.9542662,0 -80.85217350000001,34.9547123,0 -80.8526675,34.9551947,0 -80.852997,34.9555535,0 -80.8530689,34.9556484,0 -80.8531536,34.9557603,0 -80.85322069999999,34.9558489,0 -80.8532385,34.9558748,0 -80.8533559,34.9560458,0 -80.85346850000001,34.9562341,0 -80.85361260000001,34.9565122,0 -80.8537267,34.9567497,0 -80.85382730000001,34.9569921,0 -80.8538982,34.9571915,0 -80.8539852,34.9575222,0 -80.85403549999999,34.9577723,0 -80.8540505,34.9578833,0 -80.85406740000001,34.9580081,0 -80.85409249999999,34.9582983,0 -80.8540945,34.9585808,0 -80.85408700000001,34.9588417,0 -80.8540435,34.9596342,0 -80.8539669,34.960925,0 -80.8539316,34.9616092,0 -80.85391129999999,34.9619304,0 -80.8538817,34.9624373,0 -80.8538495,34.9630405,0 -80.85382730000001,34.9633959,0 -80.8537944,34.9639457,0 -80.85378710000001,34.9640952,0 -80.8537747,34.9643323000001,0 -80.8537537,34.9647445,0 -80.8537381,34.964976,0 -80.85369,34.9658324,0 -80.85367220000001,34.9663091,0 -80.8536525,34.9665424,0 -80.8536462,34.9666653999999,0 -80.85363270000001,34.9669318,0 -80.8535993,34.9672455,0 -80.8535959,34.9674933,0 -80.8535816,34.9677365,0 -80.8535756,34.9678479,0 -80.853568,34.9679897,0 -80.8535645,34.9680548,0 -80.85353600000001,34.9685633,0 -80.8535239,34.9687789,0 -80.85352039999999,34.9688408,0 -80.8535163,34.9689049,0 -80.8535038,34.9691029,0 -80.8534678,34.9698005,0 -80.8534659,34.969878,0 -80.8534528,34.9701734,0 -80.85344980000001,34.9705179,0 -80.853469,34.9709012,0 -80.85351129999999,34.9713004,0 -80.85354890000001,34.9715501,0 -80.8536014,34.9718344,0 -80.853669,34.9721173,0 -80.8537681,34.972468,0 -80.85387470000001,34.9727916,0 -80.8539694,34.9730326,0 -80.8540407,34.9732203,0 -80.854136,34.9734277,0 -80.8542966,34.9737599,0 -80.8545072,34.9741563,0 -80.85451879999999,34.9741782,0 -80.85490919999999,34.9749046,0 -80.8551968,34.9754498,0 -80.85541670000001,34.9758716,0 -80.8555549,34.9761472,0 -80.8556765,34.9764351,0 -80.8557861,34.9767537,0 -80.85590620000001,34.9771585,0 -80.8559798,34.9775079,0 -80.8560188,34.9777269,0 -80.8560398,34.9779053,0 -80.8560609,34.9781685,0 -80.8560657,34.9782903,0 -80.85606989999999,34.9783986,0 -80.8560609,34.9788194,0 -80.8560347,34.9791651,0 -80.8560176,34.9792803,0 -80.85596030000001,34.9795895,0 -80.8559047,34.9798466,0 -80.8558386,34.9800791,0 -80.85566900000001,34.9806001,0 -80.85544520000001,34.981238,0 -80.855025,34.9824502,0 -80.8543627,34.9843406,0 -80.85400079999999,34.9853862,0 -80.8539092,34.985679,0 -80.8537707,34.9861693,0 -80.853717,34.9863925,0 -80.8536465,34.9867209,0 -80.8535729,34.9871281,0 -80.8534993,34.9877347,0 -80.8534648,34.9881602,0 -80.85344980000001,34.9885329,0 -80.85344980000001,34.9888749,0 -80.85345580000001,34.9892722,0 -80.8534801,34.9895961,0 -80.8535258,34.9899936,0 -80.8535629,34.9902684,0 -80.8536131,34.9905732,0 -80.853616,34.9905911,0 -80.8536691,34.9908695,0 -80.85375089999999,34.9912278,0 -80.8537753,34.9913254,0 -80.854046,34.9924102,0 -80.8544516,34.994028,0 -80.85446349999999,34.9940752,0 -80.8545831,34.9945477,0 -80.8546146,34.9946743,0 -80.8546997,34.995011,0 -80.8547556,34.9952464,0 -80.854859,34.9956472999999,0 -80.8548993,34.9958126,0 -80.85506030000001,34.9964119,0 -80.8551487,34.9968176,0 -80.8551971,34.9970283,0 -80.85530540000001,34.9974998,0 -80.8553632,34.9978287999999,0 -80.8553809,34.997933,0 -80.8553885,34.9979891,0 -80.8554017,34.9980861,0 -80.85547819999999,34.9985543,0 -80.85558450000001,34.9992048,0 -80.85560340000001,34.9993202,0 -80.85560030000001,34.9994045,0 -80.8556365,34.9995971,0 -80.85568550000001,34.999896,0 -80.85573549999999,35.000189,0 -80.8557692,35.0004311,0 -80.855813,35.0007956,0 -80.85581430000001,35.0008143,0 -80.85582890000001,35.0010252,0 -80.85584040000001,35.0012988,0 -80.8558417,35.0013296,0 -80.8558385,35.0014956,0 -80.8558357,35.0016367,0 -80.85583029999999,35.0017436,0 -80.8558282,35.0017843,0 -80.8558074,35.0019663,0 -80.8557862,35.0021202,0 -80.8557757,35.0021959,0 -80.8557682,35.0022498,0 -80.85575420000001,35.0023372,0 -80.8557299,35.002489,0 -80.8557172,35.0025563,0 -80.8556684,35.0028151,0 -80.85561,35.0030429,0 -80.8555399,35.0032873,0 -80.8553601,35.0038167,0 -80.8551538,35.004394,0 -80.8548929,35.005178,0 -80.8548627,35.0052513,0 -80.8547552,35.0055119,0 -80.8546053,35.0059342,0 -80.8544354,35.006415,0 -80.8544268,35.0064397,0 -80.8543505,35.0066594,0 -80.8541728,35.0071592,0 -80.8541117,35.00733,0 -80.8537968,35.00821,0 -80.8536051,35.0087506,0 -80.8535796,35.0088225,0 -80.8535171,35.0089988,0 -80.8529441,35.010605,0 -80.8527785,35.0110712,0 -80.8524391,35.012026,0 -80.8523421,35.0122965,0 -80.852052,35.0131161,0 -80.8520053,35.0132424,0 -80.8519514,35.0133882,0 -80.8517713,35.0139015,0 -80.8516849,35.0141417,0 -80.8516015,35.0143738,0 -80.8514225,35.0148829999999,0 
				
					-80.85129895726575,35.01507838583759,0 -80.85036409999999,35.0171644,0 -80.8501833,35.0176657,0 -80.8500145,35.0181401,0 -80.8497981,35.018748,0 -80.84962090000001,35.0192425999999,0 -80.84922950000001,35.0203349,0 -80.84912850000001,35.0206339,0 -80.8490613,35.0208705,0 -80.8490042,35.0211048,0 -80.8489733,35.0212829,0 -80.848949,35.0214637,0 -80.84892809999999,35.0216699,0 -80.84892259999999,35.0217782,0 -80.8489192,35.0218444,0 -80.8489149,35.0219254,0 -80.84891279999999,35.0220315,0 -80.8489182,35.0221476,0 -80.8489225,35.0222422,0 -80.848941,35.022468,0 -80.84897530000001,35.0227455,0 -80.8490128,35.0229398,0 -80.8490566,35.0231295,0 -80.849135,35.0233899,0 -80.84920889999999,35.0235978,0 -80.8493017,35.0238284,0 -80.8493878,35.0240137,0 -80.8496071,35.0244587,0 -80.8496142,35.0244731,0 -80.8496425,35.0245306,0 -80.8496707,35.0245881,0 -80.849789,35.0248288,0 -80.84981759999999,35.0248869,0 -80.84983320000001,35.0249183,0 -80.8499005,35.0250543,0 -80.8504195,35.0261036,0 -80.8506316,35.0265364,0 -80.8508247,35.0269347,0 -80.85090270000001,35.0270898,0 -80.8511129,35.0275079,0 -80.85134290000001,35.0279958,0 -80.8514169,35.0281757,0 -80.8514754,35.0283448,0 -80.85149920000001,35.0284247,0 -80.85152840000001,35.0285229,0 -80.85156929999999,35.0287001,0 -80.8516024,35.0288963,0 -80.8516245,35.0290979,0 -80.8516333,35.0293131,0 -80.85162560000001,35.0294966,0 -80.8516156,35.029663,0 -80.8516068,35.0297194,0 -80.85157150000001,35.029946,0 -80.85151190000001,35.0301874,0 -80.8514933,35.0302481,0 -80.8514613,35.0303411,0 -80.85142620000001,35.030436,0 -80.8513258,35.0306783,0 -80.8512891,35.0307503,0 -80.85122610000001,35.0308741,0 -80.85111499999999,35.0310735,0 -80.8510012,35.0312395,0 -80.85096040000001,35.031293,0 -80.8508453,35.0314438,0 -80.8506924,35.0316213,0 -80.8505205,35.031801,0 -80.85028459999999,35.0320213,0 -80.84986259999999,35.0324096,0 -80.84964840000001,35.0326067,0 -80.849583,35.0326675,0 -80.8482219,35.0339009,0 -80.8477717,35.0343095,0 -80.8474705,35.0345808,0 -80.84727650000001,35.0347502,0 -80.84659120000001,35.0353775,0 -80.8463289,35.035624,0 -80.8461028,35.0358704,0 -80.8459328,35.0360811,0 -80.84580649999999,35.0362688,0 -80.84568179999999,35.0364884,0 -80.8455743,35.0367142,0 -80.84549269999999,35.0369281,0 -80.8454266,35.0371439,0 -80.8453758,35.0373724,0 -80.8453461,35.0375881,0 -80.8453336,35.0378652,0 -80.8453425,35.0380158,0 -80.8453476,35.0381014,0 -80.8453726,35.0383031,0 -80.8454212,35.0385462999999,0 -80.845484,35.0387648,0 -80.8455599,35.0390119,0 -80.8455788,35.0390735,0 -80.8457724,35.0397018,0 -80.8460603,35.040601,0 -80.8461521,35.0408875,0 -80.8461951,35.0410219,0 -80.8462498,35.0411948,0 -80.846383,35.0415928,0 -80.8463926,35.04163,0 -80.84643490000001,35.0417935,0 -80.8464967,35.0420324,0 -80.8465197,35.0421307,0 -80.84701870000001,35.0437195,0 -80.8470524,35.0438284,0 -80.8472244,35.0443766,0 -80.8475395,35.0453397,0 -80.8478537,35.0463579,0 -80.84802879999999,35.0469086,0 -80.8480477,35.046975,0 -80.848071,35.0470585,0 -80.8490319,35.0501481999999,0 -80.8494237,35.0514049,0 -80.84955069999999,35.0518241,0 -80.8495939,35.0519883,0 -80.84963,35.0521252,0 -80.8496586,35.0522228,0 -80.8497107,35.0523880000001,0 -80.8497441,35.0524938,0 -80.8499174,35.053,0 -80.8500112,35.0533782,0 -80.85004910000001,35.0535631,0 -80.8500757,35.0537623,0 -80.8500825,35.0538881,0 -80.85011660000001,35.0541762,0 -80.850133,35.0543993,0 -80.8501344,35.0544558,0 -80.85013739999999,35.0545707,0 -80.8501502,35.0547026,0 -80.85016210000001,35.0548811,0 -80.8501536,35.055114,0 -80.8501294,35.0554155,0 -80.850114,35.0555846,0 -80.85008329999999,35.0558032,0 -80.85004929999999,35.0560074999999,0 -80.8500011,35.0562317,0 -80.8499515,35.056445,0 -80.84986550000001,35.056743,0 -80.84969220000001,35.0572331,0 -80.84962969999999,35.0573898,0 -80.8495429,35.0575809,0 -80.849492,35.057683,0 -80.84944729999999,35.0577636,0 -80.8493995,35.0578443,0 -80.8493598,35.0579133,0 -80.8493368,35.0579525,0 -80.8491751,35.0582634,0 -80.8490874,35.058432,0 -80.848964,35.058665,0 -80.8488364,35.0588964,0 
				</coordinates>
			</LineString>
		<atom:link rel="app" href="https://www.google.com/earth/about/versions/#earth-pro" title="Google Earth Pro 7.3.6.10201"></atom:link>
	</Placemark>
</Document>
</kml>
