<?xml version="1.0" encoding="UTF-8"?>
<kml xmlns="http://www.opengis.net/kml/2.2" xmlns:gx="http://www.google.com/kml/ext/2.2" xmlns:kml="http://www.opengis.net/kml/2.2" xmlns:atom="http://www.w3.org/2005/Atom">
<Document>
	<name>US.58A.kml</name>
	<Placemark>
		<name>US.58A</name>
		<LineString>
			<coordinates>
				-83.11098047429158,36.68900294606415,0 -83.10825429506835,36.68959584161738,0 -83.10753177945881,36.68975723202202,0 -83.10707625861559,36.6899589038042,0 -83.10683917527103,36.69018663583886,0 -83.106709325754,36.69042570044031,0 -83.10664802912181,36.69064794757213,0 -83.10662339392792,36.6909155331664,0 -83.10698237848555,36.69287043266047,0 -83.10714403032806,36.69331322925343,0 -83.10740227362636,36.69378421781354,0 -83.10830556767857,36.69548122644071,0 -83.10911532204281,36.69692335921721,0 -83.10943176275198,36.69750828461913,0 -83.10970136395945,36.69830377344156,0 -83.110393180164,36.70121396317087,0 -83.11081407086401,36.70259915786534,0 -83.11161128345535,36.70453498245755,0 -83.11235615610239,36.70567482147408,0 -83.11385612139117,36.70774002504643,0 -83.11695504064875,36.71161832752783,0 -83.11749929824732,36.7124773543667,0 -83.11769150676226,36.71306538155004,0 -83.11778402026383,36.7136292149066,0 -83.11767340267357,36.71420178379729,0 -83.1175508141866,36.71459520309072,0 -83.11722003212975,36.71509706334686,0 -83.11672629556402,36.71558774761855,0 -83.11471356487412,36.71712773085894,0 -83.11351449456157,36.71801518868232,0 -83.1126977200975,36.71847754060452,0 -83.1099671459089,36.71979964517003,0 -83.10828801918967,36.72061696682564,0 -83.10704169051584,36.72122499549874,0 -83.10505576513231,36.72218399949994,0 -83.10327644876175,36.72297635375178,0 -83.09915922349435,36.72466627152185,0 -83.09419627353776,36.72677521495032,0 -83.09125294308345,36.72796176994929,0 -83.09002482131997,36.72839390136824,0 -83.08808447547585,36.72924959856862,0 -83.08646651939357,36.7299304554719,0 -83.08552700758099,36.73043752616662,0 -83.08481542159491,36.73092245079356,0 -83.08135871725089,36.7334666903776,0 -83.07984721395579,36.7347181254173,0 -83.07945762091414,36.73490559707289,0 -83.07889435554362,36.73514789876244,0 -83.07826845472924,36.7352707651666,0 -83.07738475477797,36.73527864537166,0 -83.0727982732691,36.73514366005047,0 -83.07108312082964,36.73518319347475,0 -83.06938884342564,36.73538252624848,0 -83.06819465816359,36.73565779687274,0 -83.06699996308915,36.73595910015258,0 -83.06602491162984,36.73632372935697,0 -83.06383745597581,36.7372801533964,0 -83.06156959083739,36.73831297187574,0 -83.06053445640401,36.7389463475352,0 -83.05971856496542,36.73958686355932,0 -83.05894504854241,36.74035794922,0 -83.05735154256143,36.74194518072955,0 -83.05577588351206,36.74346922725874,0 -83.05439981744193,36.74486118923022,0 -83.05387927195014,36.7453610446405,0 -83.05329592771793,36.74576477302135,0 -83.05279136920043,36.74606589436861,0 -83.05197086206141,36.74639154115581,0 -83.05111344585984,36.74667133154723,0 -83.05058424294215,36.74688449770881,0 -83.04993810916535,36.7472591845958,0 -83.04883473351227,36.74809907843192,0 -83.04801825562546,36.74889375803929,0 -83.04740559458288,36.74945272682485,0 -83.04699917982239,36.7497503564369,0 -83.04652036845884,36.7500041585815,0 -83.04587138284398,36.75032873356474,0 -83.04421920444915,36.75110133461438,0 -83.04347656066413,36.75145027218237,0 -83.04253384608484,36.75189171853693,0 -83.04193788793906,36.75214384248552,0 -83.04134674726244,36.75235394997792,0 -83.04041536187648,36.75264123318314,0 -83.03909600731654,36.75297744211736,0 -83.03789420983058,36.7533201580366,0 -83.03636614347124,36.75374479723479,0 -83.03556199360229,36.75397682251183,0 -83.03500126391297,36.75414160869036,0 -83.03449448631793,36.75432791275095,0 -83.03408594288659,36.75449794917809,0 -83.03365745224605,36.75471393445061,0 -83.03290329159967,36.75513817110687,0 -83.03203840911311,36.7556987088704,0 -83.0291770416675,36.75749466870111,0 -83.02819545978171,36.75812597793102,0 -83.02755318222316,36.75847177306121,0 -83.02693179706205,36.75880002298099,0 -83.02605733472834,36.75923399600951,0 -83.02502087505773,36.75968285978669,0 -83.02364515573606,36.76035489602695,0 -83.02225523616497,36.76094516417725,0 -83.02171359859504,36.76117161182707,0 -83.0211468140258,36.76131989392317,0 -83.01950373306768,36.76165317998586,0 -83.01835875842146,36.76184135365,0 -83.01743015176901,36.7620331645178,0 -83.01690144476072,36.76205061115606,0 -83.01643605805486,36.76201523414998,0 -83.01598991344312,36.76188232705682,0 -83.01548835195167,36.76164241859168,0 -83.01339096188295,36.76078517095687,0 -83.01278608531918,36.76054919669098,0 -83.01229195000354,36.76041112370804,0 -83.01182098388205,36.76032055316536,0 -83.01132008801078,36.76027147360772,0 -83.01078937312754,36.76027907124053,0 -83.01018359637055,36.76036633364033,0 -83.00951775473602,36.76055162987085,0 -83.00744164756985,36.761381823504,0 -83.00637435577462,36.76183645099208,0 -83.00513104128156,36.76230802456404,0 -83.0035853700282,36.76295409016205,0 -83.00242711515514,36.76347089613309,0 -82.99582095187603,36.76604840066558,0 -82.99272426523113,36.7673103539645,0 -82.99189244807974,36.76767482022428,0 -82.99078271791592,36.76830884211528,0 -82.98991948270633,36.76900109212076,0 -82.98951337688537,36.7693291889514,0 -82.98830974974253,36.7703054145196,0 -82.9877024731508,36.77073713017761,0 -82.98713182604098,36.77105031546498,0 -82.98616915720478,36.77145596325028,0 -82.97951951945464,36.7737702389333,0 -82.97780973392493,36.77436195326377,0 -82.97626998844396,36.77488318669315,0 -82.97551861729632,36.77507475518559,0 -82.97483592893546,36.77514626909175,0 -82.97426846983694,36.77511325251356,0 -82.97367866319195,36.77499317067561,0 -82.9731181559967,36.77483668798131,0 -82.97266923240885,36.77461314439937,0 -82.96977150494492,36.77291343556025,0 -82.96858419311678,36.772219334944,0 -82.96775025006822,36.77177692073245,0 -82.96683914810345,36.7713415212318,0 -82.96602209199366,36.77107885123232,0 -82.96505069217355,36.77081902859379,0 -82.96401749123274,36.77062524188819,0 -82.96297158205189,36.77050709095372,0 -82.96161437970149,36.77048544573172,0 -82.9600846163907,36.77059775264405,0 -82.95845746108027,36.77091912334192,0 -82.95679664220737,36.77148167564854,0 -82.95531006202683,36.77210980788907,0 -82.95408192229348,36.77255347061188,0 -82.95324878496933,36.77264725293082,0 -82.9520689615052,36.77259728940997,0 -82.95066384179998,36.77250892572636,0 -82.94963039594077,36.77249368718618,0 -82.94852643247233,36.77259855159609,0 -82.94752314701125,36.77275844457013,0 -82.9400137529187,36.77410023227613,0 -82.93920074737888,36.77428906106507,0 -82.93740504344481,36.77482767608203,0 -82.93672222276568,36.77509053706247,0 -82.93126913468015,36.77733928436705,0 -82.92688616654404,36.77906716669816,0 -82.92529520969407,36.77949676313123,0 -82.92389476478039,36.77985387085324,0 -82.92262837318859,36.78001190023198,0 -82.92081700193798,36.7800995646221,0 -82.91865126996996,36.78008638104392,0 -82.91670257243153,36.77997832569721,0 -82.91495140835328,36.77971874512156,0 -82.91230766767579,36.77917177194225,0 -82.90991100567237,36.778584584367,0 -82.90722346421671,36.77786592766387,0 -82.90650184700422,36.77774666651044,0 -82.9056182917128,36.77772168965114,0 -82.9047184565401,36.77781468626787,0 -82.90335230203985,36.77820287913405,0 -82.90188055584001,36.77860384325442,0 -82.90080498266768,36.77866082362821,0 -82.89967667363972,36.77863728354081,0 -82.89900724717126,36.77854270768925,0 -82.89772159200592,36.77816358604733,0 -82.89627926765044,36.77763511864303,0 -82.89363879487387,36.77662653752844,0 -82.89222993295562,36.77608338027363,0 -82.89093042483141,36.77572081327216,0 -82.88960306911471,36.77558029952595,0 -82.88799500586778,36.77577155223551,0 -82.88519606247944,36.77626121741086,0 -82.88290490910113,36.77699197403737,0 -82.88084700405977,36.77744754406755,0 -82.8794536795868,36.77766534355193,0 -82.8785451427424,36.77784730432191,0 -82.87766415482925,36.77819393812985,0 -82.8768858934543,36.77879083148332,0 -82.87603795766799,36.77939241567762,0 -82.87490572507329,36.78006627431529,0 -82.87347450597488,36.78096853500481,0 -82.87232927929013,36.78154015797309,0 -82.87103229459471,36.78210909135746,0 -82.86965011029547,36.78263318764377,0 -82.86542675444154,36.78406896498149,0 -82.86406872520875,36.7845803095979,0 -82.86206033171803,36.78549240873019,0 -82.85898293330871,36.787086058245,0 -82.85664745229624,36.78832470238444,0 -82.85596661517802,36.78871499672831,0 -82.85201013884291,36.79144362240806,0 -82.84920070803749,36.79348270700493,0 -82.84842165781137,36.79387643908851,0 -82.84750395007586,36.79414179377256,0 -82.84658204190286,36.79420879002802,0 -82.84513318537088,36.79431038670733,0 -82.84401582043425,36.79443950398549,0 -82.8430977406608,36.79470815028587,0 -82.84239301594137,36.79514132414131,0 -82.84175139605932,36.79563428828541,0 -82.83657135425918,36.80073738349726,0 -82.83506119671581,36.80219468676108,0 -82.83424062436615,36.80309502066631,0 -82.83369303187881,36.80407610806881,0 -82.8314825881188,36.80902337419326,0 -82.83034226863253,36.81135312660924,0 -82.82982707018795,36.81217254461124,0 -82.82866492752399,36.81342256433916,0 -82.82695876388016,36.81521292083821,0 -82.82624587814774,36.81602235564945,0 -82.82584024895787,36.81678226641639,0 -82.8256126770145,36.81740605945897,0 -82.82570374585576,36.81814827817824,0 -82.82610645188325,36.82282195087961,0 -82.82602024898833,36.82369086905959,0 -82.82558286952253,36.82503093520035,0 -82.82491975815404,36.82696022306522,0 -82.82471587211138,36.8281615395909,0 -82.82442111914023,36.82978471742813,0 -82.82429597573145,36.83087338742678,0 -82.82400293568573,36.83156566874042,0 -82.82344749656365,36.83235044350951,0 -82.82289286403422,36.83297951841871,0 -82.82241704174245,36.83376841211189,0 -82.8220172833713,36.83492449538208,0 -82.82159986841938,36.83608957560147,0 -82.8211677204155,36.83672264343455,0 -82.8204769975282,36.83729043668286,0 -82.81960920733246,36.83770393524185,0 -82.81838092381957,36.8382539777621,0 -82.81753178263666,36.83878857777486,0 -82.81687652434965,36.83940114987745,0 -82.8159877965704,36.84042509265712,0 -82.81528278697338,36.84129093333662,0 -82.81503279925927,36.84166994451097,0 -82.81476931217794,36.84230930513812,0 -82.81395327037468,36.84483294432827,0 -82.813754420081,36.84541619966675,0 -82.81320332414742,36.84668756882038,0 -82.81276141499107,36.84754042028795,0 -82.81226309240836,36.84815962152754,0 -82.81183277900556,36.84857196823086,0 -82.81120302221902,36.84903682520898,0 -82.81031598573901,36.84943810099923,0 -82.80905933842706,36.84997105805424,0 -82.80769495339649,36.8505385493363,0 -82.80661097556548,36.85091048657282,0 -82.80579111776399,36.85111515646319,0 -82.80432185319961,36.8513713501962,0 -82.80351061648996,36.8515004629703,0 -82.80286920800476,36.85178654975785,0 -82.80143230096728,36.85260017406042,0 -82.80048073019704,36.85322525925092,0 -82.80008050608622,36.85361246426731,0 -82.799631067484,36.85410085826451,0 -82.79923308167626,36.85468816712154,0 -82.79861208353614,36.85564557363182,0 -82.79813509120279,36.85626378654961,0 -82.797814831124,36.85659505250286,0 -82.79745440316165,36.85687518272901,0 -82.79695003893563,36.85718710130718,0 -82.7959068985722,36.85775675469768,0 -82.79462398078213,36.85847272545623,0 -82.79369663631749,36.8589968031716,0 -82.79198931678216,36.85992482028479,0 -82.79121261043186,36.86029902890002,0 -82.79047775596615,36.86049261922575,0 -82.78981280917129,36.8605573488693,0 -82.78921686564506,36.86049689557632,0 -82.78839167429047,36.86035971343792,0 -82.78594782396377,36.86001209596076,0 -82.78524285197898,36.85989524216563,0 -82.78481913748905,36.85986540004797,0 -82.78426398228166,36.8598971386488,0 -82.78385492752436,36.86002561688029,0 -82.78349554634541,36.86021605488243,0 -82.78301585643581,36.86060562582039,0 -82.7809576614282,36.86222804778227,0 -82.78017173730396,36.86287250606479,0 -82.77706728499778,36.86533920230436,0 -82.77533836784015,36.86674082865918,0 -82.77414167754246,36.86770246356266,0 -82.77359949762281,36.86677419337256,0 -82.77215321688406,36.86463730867924,0 -82.77091859453809,36.86512981677468,0 -82.76985913033009,36.86546565079936,0 -82.76896454742068,36.86568231921941,0 -82.76839280754432,36.8657082391649,0 -82.76778352511117,36.86563573426791,0 -82.76734073368719,36.86548620798312,0 -82.76700597423644,36.86526675495293,0 -82.76680377595322,36.86501079619702,0 -82.766782279708,36.86480074871455,0 -82.76677340711153,36.86440074049511,0 -82.7667015424289,36.86414088456403,0 -82.76654391178764,36.86395938668909,0 -82.76630459665466,36.86382816518582,0 -82.76601707454056,36.86373272444132,0 -82.7654800760582,36.86358708463172,0 -82.76505604212649,36.86352718475065,0 -82.76440046348321,36.86355697065386,0 -82.76335655884242,36.8636109086729,0 -82.76244141154748,36.86367241508461,0 -82.7613990204398,36.86360694016565,0 -82.76007566172238,36.86342650928483,0 -82.75843145455394,36.86308464066057,0 -82.75723879568039,36.86275475775516,0 -82.75525231025017,36.86228348846326,0 -82.75250433621933,36.86155221876169,0 -82.7522117987719,36.86137852575313,0 -82.75212019030725,36.86119212236083,0 -82.75216073629493,36.86097717012682,0 -82.75232314964649,36.86069517540268,0 -82.75250012672915,36.86052076272927,0 -82.75273195709973,36.86036793428271,0 -82.75298523551176,36.86032832959899,0 -82.75325250352337,36.86039052809573,0 -82.75343829355923,36.86060202442946,0 -82.75346737552789,36.86083011141535,0 -82.75346066871622,36.86114543477367,0 -82.75321532607876,36.86157653128226,0 -82.75173152297462,36.86449748497578,0 -82.75045073657915,36.86696178798547,0 -82.749955858467,36.86765336096968,0 -82.74911886468324,36.86841046918452,0 -82.74805679111309,36.86908829865838,0 -82.74660771178458,36.86957681903174,0 -82.74208856024362,36.87109387769058,0 -82.74093224215585,36.87166826942742,0 -82.74018403582933,36.87217841314196,0 -82.73941312947134,36.87287256608194,0 -82.73858766265977,36.87389180731433,0 -82.73526278182118,36.87914676954021,0 -82.73271365795135,36.88311881745021,0 -82.73215931839199,36.88385386917973,0 -82.73155592639215,36.88458529045267,0 -82.73070512315114,36.88528980105167,0 -82.72990610342426,36.88585889911906,0 -82.72851092407886,36.88658290096384,0 -82.72633544386642,36.88772835409705,0 -82.72522715738307,36.88812344364036,0 -82.72427325633871,36.88830275764926,0 -82.72309160062191,36.88848230540258,0 -82.72081600443293,36.88867200436006,0 -82.71953891939147,36.88898481259923,0 -82.71805278951413,36.88952384198419,0 -82.71668804046324,36.89036743254271,0 -82.71550710403582,36.891186017378,0 -82.71039111237867,36.89486235683925,0 -82.7090477863492,36.89564811351073,0 -82.70795672593033,36.89619967830841,0 -82.706070912119,36.89689731532587,0 -82.70359315205395,36.89770142959034,0 -82.70164182756439,36.89832146352619,0 -82.69954276113609,36.89910499816545,0 -82.6968485793941,36.90035689545104,0 -82.6941770346573,36.90165079414226,0 -82.69099561735661,36.90321416833132,0 -82.68894859554241,36.90435567653631,0 -82.68732653713623,36.90542778084433,0 -82.68581775058429,36.90646680717385,0 -82.68467006690236,36.90734127687733,0 -82.68315621548525,36.90863649514263,0 -82.68207316584923,36.9094598714551,0 -82.68145671933624,36.90983832978871,0 -82.6805905651063,36.91028510100183,0 -82.67942011871062,36.91075382299039,0 -82.67798301899003,36.91112646093677,0 -82.67692234908074,36.91137356087842,0 -82.67270565592625,36.91210675543915,0 -82.6708924912605,36.91253106674377,0 -82.66965172690935,36.91305978174617,0 -82.66858740139126,36.91366364502257,0 -82.66787309262519,36.91416232096151,0 -82.66701341479676,36.91490735754291,0 -82.66597712319491,36.91598759705796,0 -82.66514002958432,36.91709110092309,0 -82.66452427143906,36.91790886721997,0 -82.66371009753416,36.91944262287358,0 -82.66360111705609,36.92027834622939,0 -82.66374381587372,36.92130435416918,0 -82.66380586790241,36.92210662815566,0 -82.66369241047863,36.92300424916259,0 -82.66324973892539,36.92359241676278,0 -82.66249469542805,36.92421544917184,0 -82.66156411175,36.92460818268152,0 -82.66043544112122,36.9247908066426,0 -82.65934705646772,36.92474831507422,0 -82.65845637036254,36.92476886597743,0 -82.65748499769394,36.92500979170484,0 -82.65636697728443,36.92555204257245,0 -82.65495426160609,36.92607189617985,0 -82.65343079070426,36.926556616587,0 -82.65173678174725,36.92670660777109,0 -82.64814361218573,36.92685717427145,0 -82.64501253102489,36.92682012756151,0 -82.64260175931861,36.92698413606103,0 -82.64121491994236,36.92728103246794,0 -82.64005240292119,36.92777763418027,0 -82.6388244935,36.92806593526737,0 -82.63588244503786,36.92826207402491,0 -82.63310274807884,36.92849222831238,0 -82.63123349826326,36.92884463225033,0 -82.62930826267601,36.92931428724386,0 -82.6246280221074,36.93060782236448,0 -82.62285072237925,36.93122501801273,0 -82.62005425051154,36.93238706313872,0 -82.61698689666764,36.93372269232304,0 -82.61547081139859,36.93447152260909,0 -82.61479152166915,36.93499054693561,0 -82.61422485662618,36.9355428718951,0 -82.61370139319585,36.9362702148315,0 -82.61319443248289,36.93679019727192,0 -82.61256117651925,36.93713668297702,0 -82.61190590612877,36.93730163500655,0 -82.61153614876027,36.93750809014705,0 -82.61129908492063,36.93780210709369,0 -82.61124616034735,36.93814991086194,0 -82.61127492588051,36.93841944897364,0 -82.61128424189847,36.93860819267346,0 -82.61126712666341,36.93873778044817,0 -82.61116598611125,36.93880702638126,0 -82.6106807147159,36.93882456561426,0 -82.60939405323515,36.93885134972282,0 -82.60830623992146,36.93891455113341,0 -82.60616010159734,36.93912172899375,0 -82.60398330577669,36.93940211024957,0 -82.60258838551378,36.93970455025973,0 -82.60173671773596,36.93998409821663,0 -82.60076076932772,36.94042782096706,0 -82.59996076024902,36.94109276859106,0 -82.59855281396526,36.94225282800767,0 -82.59745760798505,36.94335637117008,0 -82.59651735833816,36.94408288481016,0 -82.59510598987289,36.94494534402217,0 -82.59319437647873,36.94559077235954,0 -82.59099492621894,36.94646818690269,0 -82.58992079259477,36.94681334107442,0 -82.58818759342923,36.94729203997939,0 -82.58680367400747,36.94751853158657,0 -82.58526970232654,36.94749689665171,0 -82.583316902288,36.94728231113191,0 -82.58160007525679,36.94698018363987,0 -82.58018674949889,36.94662150858369,0 -82.57858191341836,36.94607271037966,0 -82.57666079752946,36.94528696572298,0 -82.5733902266193,36.94394871847083,0 -82.57220820915364,36.94331854850567,0 -82.57103656438881,36.94252699200608,0 -82.56955880983809,36.9412963055149,0 -82.56818500643506,36.94016312747781,0 -82.56690618438238,36.93909461122132,0 -82.56597343103383,36.9385305222665,0 -82.5649548626499,36.9382329905943,0 -82.56320821590369,36.93764724468749,0 -82.56140014305609,36.93704861774264,0 -82.55927146389517,36.93668879710792,0 -82.55776761175474,36.93651229927887,0 -82.55640644218433,36.93651925418752,0 -82.55539098643536,36.93646231372173,0 -82.55403147548961,36.93603697234997,0 -82.55296923238913,36.93558678153486,0 -82.55221257487334,36.93537307895934,0 -82.55041250051019,36.93520562392033,0 -82.54675959595839,36.93479944796237,0 -82.54352614042151,36.93482304668586,0 -82.53937103979798,36.93477123089095,0 -82.53815064078766,36.93488559207547,0 -82.53718337238267,36.9352089542375,0 -82.53624894854083,36.93575872520436,0 -82.53398355007808,36.93754202055002,0 -82.53277883032895,36.9384498132472,0 -82.53205517401855,36.93891606043734,0 -82.53155010176293,36.93921913860023,0 -82.53089697769462,36.93938369885891,0 -82.53039446469843,36.93935633091685,0 -82.52987209394657,36.93920701247452,0 -82.52940875551735,36.93905180392112,0 -82.52861265281685,36.93882159110147,0 -82.52658025423635,36.93837890918437,0 -82.52394289631881,36.93786771411379,0 -82.52172812970235,36.93739837272846,0 -82.52094571150353,36.93715006424544,0 -82.52006759135062,36.93682712267695,0 -82.51927785909963,36.93658114849394,0 -82.51846783478888,36.93638865908736,0 -82.51740379825824,36.93621740017192,0 -82.51423380577255,36.93599094498111,0 -82.51296128102771,36.93601750362258,0 -82.50855945289982,36.93631736993382,0 -82.50507086591389,36.93656699134719,0 -82.50197804819395,36.93682938205365,0 -82.50031478557717,36.93720522067989,0 -82.4985588427263,36.93783234423056,0 -82.49664137528084,36.93866914343587,0 -82.49539700357201,36.93916081177066,0 -82.4939228538535,36.93931882918307,0 -82.48901156533954,36.93973237039268,0 -82.48603580027695,36.94006657947214,0 -82.48048919397885,36.94065145930723,0 -82.4791711537794,36.94072388221682,0 -82.4778270575955,36.94071515461238,0 -82.47673940485571,36.94057878090367,0 -82.47526570998926,36.94030502627827,0 -82.47407340621992,36.94002870531082,0 -82.47287977747523,36.93989301195037,0 -82.47125493456734,36.93985386464974,0 -82.46692176667473,36.94020657699564,0 -82.46453798049541,36.94047034121288,0 -82.46334026891267,36.94060596432962,0 -82.46195691976256,36.94077848087333,0 -82.46075626159693,36.94074388736954,0 -82.45927672546397,36.94060739662588,0 -82.45807286089146,36.94072720352442,0 -82.45582354922233,36.94169084278343,0 -82.45425469371654,36.94235652204241,0 -82.45331299138701,36.94265590513309,0 -82.45249084726552,36.94273065355068,0 -82.45156169846901,36.94269123363345,0 -82.45062638053551,36.94261148641897,0 -82.44970453269646,36.94264864324126,0 -82.44873528500793,36.94287237503242,0 -82.44765367223491,36.94329057283511,0 -82.44626514276966,36.94406935842017,0 -82.44533675661215,36.94451460167831,0 -82.44449299009963,36.94471690933137,0 -82.44348516083988,36.94487366837735,0 -82.4422720471884,36.9450535525947,0 -82.44074291751754,36.94558422085692,0 -82.43801863529355,36.94655385972293,0 -82.43667845738327,36.9470085260367,0 -82.43558797105251,36.94726323678224,0 -82.43393593924038,36.94749659491036,0 -82.43326251774843,36.9476525749456,0 -82.4321721755264,36.94803154341934,0 -82.43125405854909,36.94827405116818,0 -82.43040070051298,36.94831965280322,0 -82.42940345183341,36.94811894319563,0 -82.42541261972127,36.94700048170307,0 -82.42462894740879,36.94670805992338,0 -82.42381759570773,36.94608770348499,0 -82.42342650724135,36.94560355917339,0 -82.42302412911482,36.94465448659419,0 -82.42266918298409,36.94405254922027,0 -82.42206941680696,36.94354378733782,0 -82.42147003728846,36.9432705687857,0 -82.42068616276018,36.94307374998962,0 -82.41938054869394,36.94313842916099,0 -82.41817336289662,36.94348454875523,0 -82.41629061852611,36.94414895121697,0 -82.41404715358716,36.94471314630778,0 -82.41165957663956,36.94504085585322,0 -82.41008091389023,36.94513535042002,0 -82.40924634882015,36.94497058575046,0 -82.40858401771509,36.94466094875632,0 -82.40791905061894,36.94389283541651,0 -82.4070181345828,36.94266429929313,0 -82.40621341033109,36.94181256686569,0 -82.40497011296519,36.94112030292656,0 -82.40022452390608,36.93924216216777,0 -82.39922749492823,36.9390159222883,0 -82.39820904564655,36.93875899191627,0 -82.39662705199935,36.93886118782969,0 -82.39515462759036,36.93932217136661,0 -82.39391263690995,36.93957046468724,0 -82.39299570436033,36.93952051106604,0 -82.39201990831504,36.93934001295086,0 -82.39122575722122,36.9390445684141,0 -82.39041476228913,36.93850801200435,0 -82.38983494087974,36.93764970582553,0 -82.38930734647765,36.93662817298802,0 -82.38678322740633,36.93318779253116,0 -82.38602262177328,36.93240713587254,0 -82.38545419126818,36.93192355156059,0 -82.38418857358208,36.93118511229676,0 -82.38349644441951,36.93079082867673,0 -82.38305612827951,36.93041265500807,0 -82.3824799756009,36.92979818181051,0 -82.38170739784816,36.92896305964292,0 -82.3808354825034,36.92808047395824,0 -82.37992366454009,36.92722671057059,0 -82.37908717267287,36.92654171235949,0 -82.37883764120764,36.92592608273481,0 -82.37870831108891,36.92501043621994,0 -82.37872062063133,36.92402935911112,0 -82.37864619847699,36.92262476453538,0 -82.3780876763753,36.92155544499721,0 -82.37713669334504,36.92020837579689,0 -82.37624238586069,36.91899073413668,0 -82.37567881001365,36.91800444145542,0 -82.37540996786478,36.91706091985223,0 -82.37530932121297,36.91623545021164,0 -82.37521920091329,36.91534902933872,0 -82.3750870155208,36.91448467741257,0 -82.37509577221131,36.91400458778538,0 -82.37518028358461,36.91320460290791,0 -82.37529493961614,36.91246846263993,0 -82.37531810253537,36.91183664228812,0 -82.37516848551704,36.91095835389402,0 -82.3747830951893,36.9091851408017,0 -82.37440333376382,36.90713206750307,0 -82.3741215086351,36.90629210650578,0 -82.37377321974915,36.90587173241749,0 -82.37346116389008,36.90567170372572,0 -82.37300714252238,36.90545174749752,0 -82.37259089411829,36.90537948207302,0 -82.37215857289485,36.9053837751803,0 -82.37162105792414,36.90549659579865,0 -82.37075594766561,36.90587587678955,0 -82.36871000301834,36.90690023688882,0 -82.36720986246063,36.9076956171008,0 -82.3661832255747,36.90829918679177,0 -82.36525596627632,36.90901388608592,0 -82.36446784800296,36.90981186887278,0 -82.36398952848697,36.91057056645757,0 -82.36355327286751,36.91150026408749,0 -82.36294648069621,36.91215843251352,0 -82.36235708777393,36.9124845365718,0 -82.36158449451726,36.91257725847263,0 -82.36035506351546,36.91253540050559,0 -82.35922961093608,36.91246319946793,0 -82.35846597171941,36.91262452596604,0 -82.35788252287165,36.91288117352822,0 -82.3574026862115,36.91332005136473,0 -82.35676901196047,36.9139865594761,0 -82.3552415444376,36.91539981260539,0 -82.3544039896083,36.91609048696331,0 -82.3533458471923,36.91673429697049,0 -82.35242085446201,36.91715091141651,0 -82.3511499064784,36.91759991862743,0 -82.3500518152146,36.91770955130662,0 -82.3485795382734,36.91769127904688,0 -82.34729776591654,36.917475252366,0 -82.3454161167397,36.91669881451401,0 -82.34439328114347,36.91619530044372,0 -82.34335038607676,36.9154235346145,0 -82.34248022459164,36.9145486107626,0 -82.34168525465371,36.91368746903117,0 -82.34094561865733,36.91315315104637,0 -82.33998331609233,36.91288582786729,0 -82.33884005325821,36.91288392176263,0 -82.33768587484346,36.91271889655881,0 -82.33687765186323,36.91238699461964,0 -82.33620682876692,36.91174564243453,0 -82.33565129834754,36.91090758664839,0 -82.33502777592787,36.91010123321045,0 -82.33377147881487,36.90901074465818,0 -82.33321818027596,36.90866309325436,0 -82.33278453911927,36.90849511443123,0 -82.33215208321381,36.90845083293291,0 -82.33144865970831,36.90857385981942,0 -82.33072867183672,36.90879363962849,0 -82.33000159699368,36.90891363592049,0 -82.32914266320799,36.90897608527514,0 -82.32810706192204,36.90890906122762,0 -82.32717541737519,36.90889365123924,0 -82.32627473964249,36.90895254725773,0 -82.32513576170801,36.90929529435515,0 -82.32393142599659,36.90962763971169,0 -82.32278486338492,36.90971150987959,0 -82.32154089335332,36.90975890669565,0 -82.31999893480622,36.90923402562155,0 -82.3195003791848,36.90882414392581,0 -82.31877239418617,36.90807358358628,0 -82.31809645710022,36.90688732140605,0 -82.31740131808671,36.90532748971875,0 -82.31682571620293,36.90407559927116,0 -82.31619483259456,36.90334500565778,0 -82.31532678409572,36.90283561335885,0 -82.31444786538444,36.90250552004332,0 -82.31334806495899,36.90237507500674,0 -82.31194057282602,36.90232416243238,0 -82.31031205069755,36.90223154563935,0 -82.30919753123312,36.90212315053785,0 -82.30849708703062,36.90195485834994,0 -82.30775536426881,36.90163853669365,0 -82.30689701863324,36.90113976743707,0 -82.30588834120179,36.90025715920084,0 -82.30484438476692,36.89935392807718,0 -82.30425659512872,36.89899775432739,0 -82.30371309157179,36.89881565433434,0 -82.30302333825294,36.89865237417862,0 -82.30229147532319,36.89857260667213,0 -82.30146262896262,36.89830118579111,0 -82.30106848357583,36.89797341877929,0 -82.30067736402802,36.89754588294799,0 -82.30058146355233,36.89714289241984,0 -82.3005207043566,36.89661564634682,0 -82.30072836589572,36.89617447025032,0 -82.30137025238369,36.89565543831981,0 -82.3023975103942,36.89484887865789,0 -82.30318090546787,36.89415228426421,0 -82.30361561822096,36.89363737127651,0 -82.3039532978071,36.89287693670163,0 -82.30424752363213,36.89169571753423,0 -82.30444786509059,36.89055512001205,0 -82.30492998971997,36.8873579550256,0 -82.30501348618418,36.88637701624957,0 -82.30494459479668,36.88524262436236,0 -82.30430534455981,36.88258992516545,0 -82.30401288108234,36.88144412993501,0 -82.30352655101878,36.8796069935263,0 -82.30318334854478,36.8784315947542,0 -82.30264594489502,36.87721910158029,0 -82.30192422147371,36.87609702131063,0 -82.30092054336217,36.87460320653293,0 -82.30052064836542,36.87344083059534,0 -82.30029200496833,36.87224726219792,0 -82.30042036909829,36.87074668437363,0 -82.30057170478891,36.86940300655858,0 -82.30039203840603,36.86857196373602,0 -82.29984876674409,36.86751262453402,0 -82.29894317484442,36.86653697675575,0 -82.29807785172962,36.86592466300051,0 -82.29644969011424,36.86528995286859,0 -82.29485324670746,36.86501012648498,0 -82.2933097448487,36.86483145697134,0 -82.29166365391728,36.86430252850855,0 -82.28963460121079,36.86358828093456,0 -82.2882745415784,36.8629560260923,0 -82.28665319275713,36.86166588422338,0 -82.2860216852595,36.86071774040646,0 -82.28539315063136,36.85961486752372,0 -82.2849415089846,36.85895473439782,0 -82.28433312746537,36.85811975787687,0 -82.28368598334863,36.85779200479145,0 -82.28249770773921,36.85745295321566,0 -82.28138061948779,36.8572570736295,0 -82.28014555164567,36.85721823520104,0 -82.27856094696392,36.85766736543082,0 -82.27762072563809,36.85791370366833,0 -82.27659617298073,36.85787723471834,0 -82.27538308019781,36.85777854730878,0 -82.2743577550419,36.85762670692813,0 -82.27292889157349,36.85748106683507,0 -82.27125850978089,36.85714184329418,0 -82.27013989063845,36.85678489468752,0 -82.26629453460701,36.85515467765794,0 -82.26549520614522,36.85480333429469,0 -82.26503344807709,36.85432761361254,0 -82.26474183018701,36.85369538253885,0 -82.26469522937398,36.85279069866984,0 -82.26460497582345,36.85148971247293,0 -82.26452651300998,36.85095680336748,0 -82.26422276124664,36.85043980098639,0 -82.26370733364463,36.8499399266594,0 -82.26275796954664,36.84909479213515,0 -82.26231548754046,36.84851803521604,0 -82.26138307306402,36.84735879337272,0 -82.26086967922191,36.84663535162851,0 -82.2605655127517,36.8460036258374,0 -82.2604552914847,36.84542045640177,0 -82.26040074680061,36.84482497247271,0 -82.26030345431819,36.84393885890854,0 -82.26004915069944,36.84332646245664,0 -82.25940974011378,36.84261699198286,0 -82.25869516045499,36.84204718866411,0 -82.25784317752132,36.84168759159365,0 -82.25687964353219,36.84144740708847,0 -82.25586754949254,36.84118750247804,0 -82.25492662924876,36.84062846376091,0 -82.25387016009007,36.8399568253981,0 -82.25273771501149,36.83915682076891,0 -82.25170219799479,36.83846481295063,0 -82.25125956666358,36.83811925372365,0 -82.25085149014335,36.83762881331565,0 -82.25025928981832,36.83685872078554,0 -82.24983462235392,36.83648474580635,0 -82.2492707578272,36.83616129933578,0 -82.24854281910103,36.83597046685414,0 -82.24790326053881,36.83599355014076,0 -82.24707775173441,36.83619942045206,0 -82.24650811209135,36.83647884686234,0 -82.24551629272007,36.83704139637551,0 -82.24331838808885,36.83824901447928,0 -82.23914229783531,36.84038740602065,0 -82.23788655062113,36.8408459243718,0 -82.23663015189494,36.84122174061191,0 -82.23526745968474,36.84134865548112,0 -82.23346348629879,36.8414969652047,0 -82.23090734912851,36.84144802161685,0 -82.22857885774735,36.84147320880194,0 -82.2276958745979,36.84161415931524,0 -82.22653646591266,36.84172481712633,0 -82.22547576075566,36.84170091410807,0 -82.2227334273274,36.84122508952663,0 -82.21849637691577,36.84038931033125,0 -82.21364290384851,36.8394297379681,0 -82.21291031320314,36.83911452349435,0 -82.21238156049887,36.83863984291013,0 -82.21194983907181,36.83794151518483,0 -82.21184900087529,36.83703562674475,0 -82.21215334917808,36.83612167682461,0 -82.21246313187535,36.83542560081418,0 -82.21263030622688,36.83478062465744,0 -82.2125239397085,36.83401823936966,0 -82.21204250374684,36.83314776795559,0 -82.21131153631335,36.83213039721393,0 -82.21068954628461,36.83128977970346,0 -82.21025742989281,36.83062672833423,0 -82.20990960930497,36.82981854026065,0 -82.20975626655164,36.82894528484125,0 -82.20989090860702,36.82794684827259,0 -82.20996602020594,36.8263939143503,0 -82.20978713254247,36.8254215929917,0 -82.20933374189534,36.82449410353158,0 -82.20855404844475,36.82337227513036,0 -82.20650269897919,36.82077359527201,0 -82.20479074068605,36.81846853978134,0 -82.20417822079895,36.81755022391874,0 -82.20307858965965,36.8151827469376,0 -82.20163483524844,36.81227396986189,0 -82.2003162195673,36.80966447412186,0 -82.19957902830411,36.80830746659952,0 -82.19869767089469,36.80647766995272,0 -82.1979180446499,36.80554276991239,0 -82.1973044551155,36.80522013132564,0 -82.19661914210546,36.8049122670817,0 -82.19519114982936,36.80487446556521,0 -82.19220053081335,36.80547323792595,0 -82.1881335455175,36.80635543303226,0 -82.18519894668678,36.80659267473507,0 -82.17914505974397,36.80730332936721,0 -82.17792856757438,36.8074924920703,0 -82.17667533974497,36.80780037544644,0 -82.17548336614725,36.80812589838895,0 -82.17411839841377,36.80828881233978,0 -82.1725160261458,36.80840493440723,0 -82.17101567871987,36.80849668583701,0 -82.1697004975498,36.8086910294934,0 -82.16885112401192,36.8089309850463,0 -82.16793065623875,36.80933677306035,0 -82.16710796348939,36.80980068503045,0 -82.16647172271783,36.81031976644647,0 -82.1658710320158,36.81097565305969,0 -82.16497964161481,36.81175279937663,0 -82.16418102853171,36.81252752489742,0 -82.16298794816481,36.81318257499942,0 -82.16117526689729,36.81428131138775,0 -82.15906213978097,36.81536324983443,0 -82.15757839132662,36.81613153804299,0 -82.15592634366824,36.8167296611154,0 -82.15435013464004,36.81697571853964,0 -82.15176204635986,36.81733418684384,0 -82.15018936822879,36.81767578094206,0 -82.14917574763497,36.81808805753825,0 -82.1484918376611,36.81879332738868,0 -82.14789251742361,36.81976120312436,0 -82.14746742674642,36.82180862800909,0 -82.14700911920127,36.82297868275338,0 -82.14639557215024,36.82359546527187,0 -82.14576333724173,36.8238875875291,0 -82.14531077205653,36.82393794859026,0 -82.14488793213077,36.82390480659414,0 -82.14449588192834,36.82379224401488,0 -82.14394288946157,36.82354469351168,0 -82.1431848417615,36.82330541939754,0 -82.14182046269065,36.82310326151709,0 -82.14060737556859,36.82282565461317,0 -82.13994756960231,36.82252466232244,0 -82.13538606485947,36.82032656617304,0 -82.13248620584183,36.81867734786845,0 -82.12899865529251,36.81661549945888,0 -82.12671598219626,36.81521490906459,0 -82.12606374946687,36.81491316390073,0 -82.12479329230059,36.81443141005805,0 -82.12371950120881,36.81408762034724,0 -82.12214611923406,36.81361057603151,0 -82.12151322637853,36.81348394279149,0 -82.12084835420897,36.813480392312,0 -82.12033718640716,36.8134962466745,0 -82.11977938994384,36.81359571220926,0 -82.11926871774448,36.81377924136952,0 -82.11856619684336,36.81410035480156,0 -82.11801412193708,36.81451388929237,0 -82.11732205575271,36.81500603348115,0 -82.11677780455155,36.81530139785698,0 -82.11596623568722,36.81552065539884,0 -82.11480419826265,36.81565495759902,0 -82.11390971627903,36.81568838928358,0 -82.11316547485893,36.81563054037227,0 -82.11242101250573,36.81544340924688,0 -82.11162584949106,36.81516941545581,0 -82.110751748556,36.8147744917313,0 -82.10957291407847,36.81409170281979,0 -82.10740570505747,36.81295899854597,0 -82.10576674970268,36.81205456044131,0 -82.10139526021,36.8096974749847,0 -82.10042246188915,36.80910093574718,0 -82.09966214565354,36.80856172514256,0 -82.09822039839685,36.80726425872827,0 -82.0969672963828,36.80606064930956,0 -82.09634594507966,36.80538549166724,0 -82.09600546348229,36.80490644172578,0 -82.09563622558051,36.8042501480242,0 -82.09526013234668,36.8032976161397,0 -82.09474124073493,36.8022368850224,0 -82.09415431903975,36.80161956896527,0 -82.09349516603437,36.80104538538473,0 -82.09328130681081,36.80072440020206,0 -82.09260134760622,36.79966539942936,0 -82.09217984646149,36.79895233128501,0 -82.09185036492305,36.79801176751526,0 -82.09064842865571,36.79410468271995,0 -82.09030128959304,36.79335619717053,0 -82.08980087255858,36.79239576121011,0 -82.08936266566711,36.79155305603892,0 -82.08875483578205,36.79050830109885,0 -82.08842725481334,36.78954699193413,0 -82.08813737199659,36.7883987724217,0 -82.08767604668598,36.78674608235981,0 -82.08725147250014,36.78535687403148,0 -82.08689931083619,36.78431175738579,0 -82.08650044968903,36.78360184840044,0 -82.08611364052707,36.78298930103244,0 -82.08467825084051,36.78125065134459,0 -82.08331202924091,36.77949040585032,0 -82.08174129474062,36.77748710773977,0 -82.08084934911463,36.77634573557178,0 -82.08004699999466,36.77545415471254,0 -82.07947664852732,36.77508365448003,0 -82.07887970184471,36.77492533573371,0 -82.0782099922021,36.77478414445199,0 -82.077706451938,36.77477953508808,0 -82.07672035103261,36.7748843607792,0 -82.07587712340057,36.77499045205423,0 -82.07486296885416,36.77509384154212,0 -82.07421243540175,36.77502880213538,0 -82.07344887926325,36.77479804951139,0 -82.07290853059179,36.77450410200879,0 -82.07236096891084,36.77403191384543,0 -82.0720513238514,36.77338847054309,0 -82.07186496665099,36.77257721536984,0 -82.07178186819168,36.77133355139639,0 -82.07168955469507,36.77084946002571,0 -82.07145991746117,36.77035664192572,0 -82.07108860612503,36.7699860883623,0 -82.07063104203725,36.76973532068367,0 -82.07005843616756,36.76950375600303,0 -82.06952147216184,36.76939441635972,0 -82.06901296315837,36.76924793209803,0 -82.06859704501906,36.7689838287849,0 -82.06818454107405,36.76860779904954,0 -82.06795118815594,36.7682355470051,0 -82.06779942774371,36.76780073082072,0 -82.06760377475045,36.76710734312437,0 -82.06748382354418,36.76666362232814,0 -82.06728513422595,36.76600600143657,0 -82.06699708550786,36.76556725668883,0 -82.06661660506441,36.76514604966443,0 -82.0661808718515,36.76472933915318,0 -82.0656280544808,36.76425925437387,0 -82.06531811257537,36.76378121300264,0 -82.06490461103259,36.76317140965804,0 -82.06439288823013,36.76249233194871,0 -82.06364747455848,36.76173223547753,0 -82.06197909677559,36.76002747559799,0 -82.06089182459182,36.75903293732675,0 -82.05957241040049,36.75774179688669,0 -82.05869153163347,36.7568610367332,0 -82.0580332555149,36.75611341783127,0 -82.05748087941527,36.75520729364942,0 -82.05730936091956,36.75452994520845,0 -82.05709485610534,36.75340774688081,0 -82.05694172856374,36.75256045040889,0 -82.05648682799055,36.75160745520639,0 -82.05566262838006,36.75048833849832,0 -82.05440848746882,36.74892890908247,0 -82.05314287314934,36.74730609749555,0 -82.05244113320298,36.74654785779227,0 -82.05160183187036,36.74583517890076,0 -82.05084745493821,36.74517494454471,0 -82.04974391123179,36.74434897569635,0 -82.04890382206951,36.74387922673014,0 -82.0478753673388,36.74323900337447,0 -82.04705323563954,36.74286192604879,0 -82.04577159691786,36.7424040120104,0 -82.04477365610633,36.74230269476767,0 -82.04337629377896,36.7420134294583,0 -82.04263248270973,36.74174558886007,0 -82.04194840598848,36.7413247971364,0 -82.04136304021904,36.74090611479494,0 -82.04066827715749,36.73996444016559,0 -82.03909103454707,36.73780445735154,0 -82.03817373160375,36.73676229018473,0 -82.03778010704259,36.73626358383537,0 -82.03745019660546,36.73552729673091,0 -82.0371887621656,36.73460139074608,0 -82.03688362579634,36.73291915335268,0 -82.03680440603483,36.73191898792328,0 -82.03633913101085,36.73102798028408,0 -82.03580461939369,36.73055551728375,0 -82.03465738247382,36.73000019435749,0 -82.03296871663223,36.72947091497984,0 -82.0275868419333,36.72798968291843,0 -82.02557866494455,36.72735706830228,0 -82.02487308521029,36.72707271054304,0 -82.0237616113557,36.72650087351117,0 -82.01908390326952,36.72401355374561,0 -82.01445922340339,36.72160423994591,0 -82.01057022426102,36.71959060320835,0 -82.00653521907846,36.71743905583947,0 -82.00002698307678,36.71403649152188,0 -81.99912315373724,36.71348001291911,0 -81.99833421170803,36.71283301155937,0 -81.99795756798711,36.71251471118812,0 -81.99754502244934,36.71253760987256,0 -81.99689225192471,36.71242117133868,0 -81.99445249607135,36.71203033149408,0 -81.99227327474509,36.71166242872142,0 -81.990359072877,36.71135957353476,0 -81.98951286064288,36.71123377735206,0 -81.98915230316689,36.71120628701648,0 -81.98792041363217,36.71116926924247,0 -81.98635316584688,36.71119660754739,0 -81.98514936948973,36.71122110570273,0 -81.98456188217759,36.7111783174451,0 -81.98407058510695,36.71108352332985,0 -81.98370095551176,36.71096833039876,0 -81.9833427456888,36.71078653418181,0 -81.98306230028989,36.71059798662341,0 -81.98279652432109,36.71035645334748,0 -81.98250298072907,36.70999142703314,0 -81.98203976719958,36.70949811130609,0 -81.98138322841861,36.70844065777555,0 -81.97733961273036,36.70975423208444,0 -81.97623244915998,36.70757790451027,0 -81.97515810197888,36.70568292311471,0 -81.97473931225609,36.70474672777073,0 -81.97440800491115,36.70386697607277,0 -81.97423580095746,36.70303105248239,0 -81.97420658147956,36.70206033444913,0 -81.97437891110516,36.70135698618151,0 -81.97471921657991,36.70036604266187,0 -81.97469355909051,36.7001780201776,0 -81.97463182985373,36.70008383794675,0 
			</coordinates>
		</LineString>
		<atom:link rel="app" href="https://www.google.com/earth/about/versions/#earth-pro" title="Google Earth Pro 7.3.6.10201"></atom:link>
	</Placemark>
</Document>
</kml>
