<?xml version="1.0" encoding="UTF-8"?>
<kml xmlns="http://www.opengis.net/kml/2.2" xmlns:gx="http://www.google.com/kml/ext/2.2" xmlns:kml="http://www.opengis.net/kml/2.2" xmlns:atom="http://www.w3.org/2005/Atom">
<Document>
	<name>US.50A.kml</name>
	<Placemark>
		<name>US.50A</name>
		<LineString>
			<coordinates>
				-119.2252150263505,39.41607344021813,0 -119.2251961241961,39.41629716674898,0 -119.2249812861058,39.41642777364413,0 -119.2248686458452,39.41667675282761,0 -119.2248286214447,39.41710283196851,0 -119.2246869246215,39.41781231486434,0 -119.2241577335326,39.42187356461815,0 -119.2230786484742,39.42929348054516,0 -119.2227493866614,39.43156640666121,0 -119.2227421782157,39.4325984273006,0 -119.2229197681541,39.43366081817526,0 -119.223160025495,39.4344210832161,0 -119.2244856040511,39.43731369227208,0 -119.2248307628335,39.43830823437882,0 -119.2250219969787,39.43919211646284,0 -119.2251300516599,39.44033088394038,0 -119.2250891132928,39.44106585011944,0 -119.2244947480148,39.44622221520495,0 -119.2232509679226,39.45769105878226,0 -119.2229714047962,39.46020777048336,0 -119.2224810227214,39.46155774321207,0 -119.221491196172,39.46292244484139,0 -119.2200130881897,39.46399444445276,0 -119.2184335857196,39.46463948097378,0 -119.2173069770041,39.46502956251945,0 -119.2111840238591,39.46703908478464,0 -119.2101725955135,39.46743125044991,0 -119.2091115941585,39.46798152542767,0 -119.2085375333435,39.46835786377022,0 -119.2076203942016,39.46912679490654,0 -119.2066866939873,39.4702934654587,0 -119.2060322658311,39.47164972308466,0 -119.2057436324887,39.47332808898015,0 -119.2059050113828,39.47473793381571,0 -119.2064638517658,39.47615450545359,0 -119.2073736086569,39.47748933058138,0 -119.2146293810317,39.48797047454374,0 -119.2173613685867,39.49179382788994,0 -119.2185395407703,39.49378617231103,0 -119.2194441070357,39.49545817692335,0 -119.2206326547496,39.49834840392656,0 -119.221730768133,39.50119131717261,0 -119.2243567452384,39.5077340323275,0 -119.226348496343,39.5126862070715,0 -119.227092002591,39.51453474905225,0 -119.2275581217604,39.51608309640602,0 -119.2278125160167,39.51806740871129,0 -119.228267476413,39.52339184187635,0 -119.2288196567341,39.52875232233048,0 -119.2290265947895,39.53003513539638,0 -119.2324634011603,39.54428227504436,0 -119.2334319766582,39.54788403224445,0 -119.2374973085589,39.55851968292575,0 -119.242560153663,39.57144746436323,0 -119.2484975560586,39.58725851731317,0 -119.2505117237235,39.59201457154932,0 -119.2509371428704,39.59399807638109,0 -119.2511359935323,39.59641445017911,0 -119.2510560014615,39.59906219802735,0 -119.2510641617186,39.60157752969054,0 -119.2510394096861,39.6070544643096,0 -119.2509989608186,39.60765971153919,0 -119.2464708041255,39.60760431870131,0 -119.2443346527641,39.60762209486449,0 -119.2420150989549,39.60710513725442,0 -119.2289551528928,39.60377131496883,0 -119.2281807580869,39.60358436621516,0 -119.2275261353239,39.60350467885662,0 -119.2273236966101,39.60339560543398,0 -119.2271452832682,39.60333178604763,0 -119.2269433308243,39.60334081973458,0 -119.2267654276159,39.60345082155401,0 -119.2265276640161,39.60346913257103,0 -119.2261943565506,39.60341404661188,0 -119.2255014351119,39.60311854904044,0 -119.2243858818627,39.60259053979813,0 -119.2222994518651,39.6020187842033,0 -119.2191604047775,39.60124587632885,0 -119.2094685952495,39.59982080338411,0 -119.1904461664636,39.59738657716078,0 -119.1778991283311,39.59570668260481,0 -119.1533380923335,39.59238897744884,0 -119.1320861245292,39.58963456080537,0 -119.1272053562514,39.58885004692169,0 -119.1232707244018,39.58778929753628,0 -119.1184864741241,39.58614281444654,0 -119.1139678438382,39.58404623467531,0 -119.11034866707,39.58208861830439,0 -119.0969179087929,39.57422377878322,0 -119.0835076024525,39.56633584283658,0 -119.07940367715,39.56401489598107,0 -119.0767747403399,39.56307737478619,0 -119.0733165824959,39.56248487855847,0 -119.0699762622284,39.56238950199489,0 -119.0652178678358,39.56278934952699,0 -119.0575352452637,39.56352322180535,0 -119.0532718485448,39.56385197220802,0 -119.0502575489657,39.56355317906725,0 -119.0469488076647,39.56295400906555,0 -119.0439881058601,39.56168332868604,0 -119.0408499151581,39.56015676049127,0 -119.0126046096051,39.54701414959153,0 -118.9415246266586,39.51414353843336,0 -118.9389630870631,39.51280729396446,0 
			</coordinates>
		</LineString>
		<atom:link rel="app" href="https://www.google.com/earth/about/versions/#earth-pro" title="Google Earth Pro 7.3.6.10201"></atom:link>
	</Placemark>
</Document>
</kml>
