<?xml version="1.0" encoding="UTF-8"?>
<kml xmlns="http://www.opengis.net/kml/2.2" xmlns:gx="http://www.google.com/kml/ext/2.2" xmlns:kml="http://www.opengis.net/kml/2.2" xmlns:atom="http://www.w3.org/2005/Atom">
<Document>
	<name>US.57.kml</name>
	<Placemark>
		<name>US.57</name>
		<LineString>
			<coordinates>
				-100.5072258,28.7057628,0 -100.5072024,28.7057654,0 -100.5066358,28.7057953,0 -100.5065676,28.7058003,0 -100.5064865,28.7058012,0 -100.5061737,28.70582539999999,0 -100.5050446,28.7058738,0 -100.5045596,28.7058842,0 -100.5039146,28.7059067,0 -100.5035379,28.705921,0 -100.5033071,28.7059302,0 -100.50277,28.7059501,0 -100.5021439,28.7059705,0 -100.5016326,28.7059892,0 -100.5010218,28.7060081,0 -100.5004973,28.7060259,0 -100.5003497,28.7060327,0 -100.4995977,28.7060775,0 -100.4984137,28.7061505,0 -100.4972772,28.7062143,0 -100.4966725,28.7062441,0 -100.4963192,28.7062547,0 -100.4955005,28.7062698,0 -100.494804,28.706252,0 -100.4943514,28.70622669999999,0 -100.4937419,28.7061847,0 -100.493257,28.7061611,0 -100.4921547,28.7061385,0 -100.491037,28.7061318,0 -100.4899202,28.7061317,0 -100.4887775,28.7061305,0 -100.4876711,28.7061247,0 -100.4872599,28.7061379,0 -100.4871089,28.7061452,0 -100.4868141,28.7062237,0 -100.4866168,28.7062938,0 -100.4864288,28.7063949,0 -100.4862207,28.7065258,0 -100.4859453,28.7068169,0 -100.4858419,28.7069622,0 -100.4855873,28.7073871,0 -100.4855419,28.707459,0 -100.4854159,28.7076583,0 -100.4853693,28.707735,0 -100.4853043,28.7078421,0 -100.4852463,28.7079413,0 -100.485177,28.7080409,0 -100.4850784,28.7081826,0 -100.4849535,28.7083116,0 -100.4848155,28.7084359,0 -100.4846401,28.70855450000001,0 -100.4844433,28.7086576,0 -100.4842522,28.7087382,0 -100.4841778,28.7087613,0 -100.4840972,28.7087864,0 -100.483952,28.7088156,0 -100.48392,28.708822,0 -100.4837763,28.7088252,0 -100.4832404,28.7088401,0 -100.4826912,28.7088457,0 -100.482451,28.7088482,0 -100.4822376,28.7088499,0 -100.481888,28.7088528,0 -100.481275,28.7088604,0 -100.4809383,28.7088646,0 -100.4800735,28.7088803,0 -100.4794894,28.7088849,0 -100.4792188,28.7088871,0 -100.4789327,28.7088894,0 -100.4782394,28.7088949,0 -100.4779565,28.7088997,0 -100.4777091,28.7089039,0 -100.477671,28.7089045,0 -100.4776302,28.7089057,0 -100.4768968,28.708919,0 -100.4763929,28.7089237,0 -100.4759665,28.7089365,0 -100.4758804,28.7089381,0 -100.4757117,28.708942,0 -100.4748425,28.7089543,0 -100.474488,28.708963,0 -100.4739252,28.7089779,0 -100.473324,28.708984,0 -100.4718706,28.7090098,0 -100.4714962,28.7090164,0 -100.4706419,28.7090316,0 -100.4704278,28.7090354,0 -100.4701134,28.709041,0 -100.4698995,28.7090448,0 -100.469379,28.709054,0 -100.469329,28.709055,0 -100.46929,28.709056,0 -100.469072,28.70906,0 -100.468823,28.709065,0 -100.468495,28.709071,0 -100.467989,28.7090799,0 -100.4674502,28.7090894,0 -100.467186,28.709094,0 -100.466347,28.709093,0 -100.466055,28.709093,0 -100.4655245,28.709093,0 -100.4648367,28.7090962,0 -100.464855,28.7091928,0 -100.4648632,28.7096108,0 -100.4648465,28.7097876,0 -100.4647549,28.7101754,0 -100.4646761,28.710491,0 -100.4642524,28.7122405,0 -100.4636951,28.7144813,0 -100.4631508,28.7167442,0 -100.4626739,28.7187213,0 -100.4625074,28.7193765,0 -100.4622961,28.7202913,0 -100.4619477,28.721781,0 -100.461186,28.7249466,0 -100.4611046,28.7252021,0 -100.4609547,28.7255563,0 -100.46083,28.7258512,0 -100.4605986,28.7262328,0 -100.4604395,28.7264742,0 -100.4602689,28.7266935,0 -100.4600898,28.72690890000001,0 -100.4598284,28.7271701,0 -100.4585465,28.7281797,0 -100.4551398,28.7307686,0 -100.451788,28.733316,0 -100.447486,28.736633,0 -100.446625,28.737297,0 -100.445865,28.737883,0 -100.443333,28.7398767,0 -100.441848,28.7410459,0 -100.44106,28.7416487,0 -100.436215,28.74529799999999,0 -100.433887,28.747087,0 -100.433592,28.747319,0 -100.432718,28.747991,0 -100.429849,28.75019899999999,0 -100.427406,28.752079,0 -100.425764,28.753339,0 -100.424287,28.754472,0 -100.418079,28.759237,0 -100.414611,28.761899,0 -100.413144,28.763024,0 -100.404668,28.769518,0 -100.398637,28.774125,0 -100.397361,28.7751,0 -100.395844,28.776248,0 -100.394887,28.776919,0 -100.393758,28.77771,0 -100.393513,28.777882,0 -100.39185,28.779125,0 -100.391525,28.779403,0 -100.390129,28.780599,0 -100.387337,28.782753,0 -100.384909,28.784626,0 -100.381337,28.787382,0 -100.37826,28.789756,0 -100.3780572,28.7899111,0 -100.377418,28.7904,0 -100.373151,28.79366,0 -100.371202,28.795206,0 -100.3615964,28.8025285,0 -100.3560299,28.8068606,0 -100.351843,28.810033,0 -100.347651,28.813242,0 -100.346742,28.813938,0 -100.345299,28.815043,0 -100.342855,28.816914,0 -100.340905,28.818398,0 -100.340323,28.818841,0 -100.333145,28.824343,0 -100.332152,28.825152,0 -100.329974,28.826778,0 -100.329645,28.827024,0 -100.329529,28.827125,0 -100.328377,28.827997,0 -100.3283097,28.828048,0 -100.327993,28.828288,0 -100.320451,28.834071,0 -100.315313,28.83802,0 -100.313572,28.839346,0 -100.312278,28.840314,0 -100.310217,28.84191999999999,0 -100.309763,28.842267,0 -100.306651,28.844639,0 -100.306426,28.844804,0 -100.306185,28.84501,0 -100.306127,28.845059,0 -100.305419,28.845584,0 -100.304335,28.846407,0 -100.304164,28.846537,0 -100.298901,28.850578,0 -100.295346,28.853308,0 -100.290605,28.856852,0 -100.286899,28.859204,0 -100.285454,28.860082,0 -100.281605,28.862421,0 -100.281098,28.86271500000001,0 -100.27791,28.864659,0 -100.274443,28.866773,0 -100.26979,28.869621,0 -100.267021,28.871285,0 -100.266253,28.871773,0 -100.266225,28.871789,0 -100.265676,28.872107,0 -100.265255,28.872365,0 -100.265202,28.872398,0 -100.264777,28.872647,0 -100.262145,28.874257,0 -100.260625,28.875187,0 -100.26009,28.875511,0 -100.255478,28.878308,0 -100.254922,28.878614,0 -100.250257,28.881486,0 -100.246619,28.88376,0 -100.244541,28.885013,0 -100.243324,28.885747,0 -100.242157,28.8864,0 -100.241265,28.886762,0 -100.240144,28.887089,0 -100.238691,28.887386,0 -100.229941,28.889078,0 -100.2208356,28.890838,0 -100.220215,28.890958,0 -100.22006,28.890988,0 -100.218063,28.891375,0 -100.216373,28.891687,0 -100.215654,28.89182,0 -100.215028,28.891855,0 -100.214257,28.891908,0 -100.213927,28.89189,0 -100.213286,28.891856,0 -100.209053,28.891388,0 -100.204443,28.890878,0 -100.197136,28.89007,0 -100.187127,28.888962,0 -100.179297,28.888095,0 -100.176548,28.887782,0 -100.175707,28.887669,0 -100.174639,28.887598,0 -100.173872,28.887587,0 -100.173626,28.887583,0 -100.172614,28.88764,0 -100.171475,28.88781,0 -100.170329,28.888052,0 -100.1698606,28.8881756,0 -100.1679526,28.8886419,0 -100.166736,28.888921,0 -100.16574,28.889167,0 -100.164809,28.889397,0 -100.164616,28.889444,0 -100.164429,28.889491,0 -100.160445,28.890473,0 -100.160046,28.890585,0 -100.15977,28.890673,0 -100.159361,28.890814,0 -100.159036,28.890941,0 -100.158659,28.891102,0 -100.158127,28.89136,0 -100.15793,28.891465,0 -100.157666,28.891614,0 -100.15744,28.891749,0 -100.157202,28.8919,0 -100.156887,28.89211299999999,0 -100.156598,28.892325,0 -100.156348,28.892521,0 -100.15612,28.892713,0 -100.151791,28.896443,0 -100.146487,28.901007,0 -100.1447525,28.9024998,0 -100.143645,28.903453,0 -100.141372,28.905408,0 -100.140198,28.906418,0 -100.138586,28.907805,0 -100.135859,28.910151,0 -100.131298,28.914074,0 -100.129223,28.915858,0 -100.128912,28.916109,0 -100.128606,28.916339,0 -100.128335,28.916531,0 -100.128043,28.916725,0 -100.127699,28.91694,0 -100.127315,28.917167,0 -100.127076,28.917327,0 -100.124825,28.91888700000001,0 -100.123639,28.919695,0 -100.122129,28.920699,0 -100.120446,28.921779,0 -100.119079,28.922715,0 -100.118708,28.922957,0 -100.118039,28.923392,0 -100.117689,28.92362,0 -100.116986,28.924097,0 -100.115579,28.92502,0 -100.115232,28.925247,0 -100.114509,28.925726,0 -100.114353,28.925829,0 -100.1142477,28.9258987,0 -100.1128187,28.9268413,0 -100.1124471,28.9270974,0 -100.111742,28.927573,0 -100.111236,28.92789,0 -100.110838,28.928124,0 -100.11031,28.928352,0 -100.109889,28.928516,0 -100.1091615,28.9287255,0 -100.108617,28.928843,0 -100.108128,28.928911,0 -100.107751,28.928957,0 -100.107632,28.928971,0 -100.105492,28.929121,0 -100.1020423,28.929322,0 -100.101941,28.929327,0 -100.0983661,28.9295456,0 -100.092187,28.929681,0 -100.081775,28.929821,0 -100.07993,28.929849,0 -100.079895,28.929849,0 -100.077364,28.929852,0 -100.073889,28.929884,0 -100.068981,28.929891,0 -100.066562,28.929897,0 -100.065006,28.929909,0 -100.062918,28.929936,0 -100.062265,28.929926,0 -100.057642,28.929956,0 -100.046798,28.930007,0 -100.034458,28.930032,0 -100.032346,28.930042,0 -100.030236,28.930051,0 -100.023562,28.930075,0 -100.022487,28.930082,0 -100.018885,28.930104,0 -100.0117951,28.9300829,0 -100.0107355,28.9300883,0 -100.0093224,28.9300949,0 -100.007262,28.930152,0 -100.00596,28.93016,0 -100.005105,28.930158,0 -99.996664,28.930138,0 -99.99137,28.930153,0 -99.98839700000001,28.930162,0 -99.98758800000002,28.930164,0 -99.98628100000001,28.930177,0 -99.97538299999999,28.930228,0 -99.97225800000001,28.930251,0 -99.97118,28.930251,0 -99.969838,28.930251,0 -99.96704699999999,28.93026,0 -99.96511099999999,28.930266,0 -99.96373199999999,28.930271,0 -99.96042400000002,28.930282,0 -99.95943,28.930304,0 -99.959388,28.930304,0 -99.95685159999999,28.9303114,0 -99.9557271,28.9303052,0 -99.949731,28.930333,0 -99.949152,28.930335,0 -99.942972,28.930377,0 -99.93824100000002,28.930409,0 -99.932344,28.930396,0 -99.922355,28.930374,0 -99.92116900000001,28.930391,0 -99.906707,28.930461,0 -99.89259599999998,28.930527,0 -99.89245100000001,28.930528,0 -99.885148,28.930545,0 -99.88484200000001,28.930545,0 -99.884691,28.930561,0 -99.88455500000001,28.930579,0 -99.884235,28.930621,0 -99.883933,28.930656,0 -99.88355800000001,28.93073,0 -99.88306,28.930815,0 -99.88281000000001,28.930882,0 -99.882473,28.93096,0 -99.871972,28.934324,0 -99.870519,28.934802,0 -99.866691,28.936047,0 -99.86309200000001,28.937166,0 -99.86033699999999,28.938094,0 -99.857157,28.939125,0 -99.85308800000001,28.940445,0 -99.8510935,28.9410713,0 -99.85007500000002,28.941375,0 -99.84850470000001,28.9418802,0 -99.8472538,28.9422826,0 -99.84599729999999,28.9426868,0 -99.8453702,28.9428902,0 -99.8447292,28.9431049,0 -99.84390500000002,28.9433665,0 -99.84345660000001,28.9435119,0 -99.8431235,28.9436193,0 -99.8421091,28.9439534,0 -99.8408786,28.9443528,0 -99.83959929999999,28.94476879999999,0 -99.8383516,28.9451742,0 -99.83708609999998,28.9455854,0 -99.836848,28.945664,0 -99.836387,28.945771,0 -99.83622800000001,28.945799,0 -99.835724,28.945837,0 -99.835578,28.945848,0 -99.83525100000001,28.945851,0 -99.83492400000002,28.94583,0 -99.83459999999999,28.945787,0 -99.83428000000001,28.945723,0 -99.833967,28.94564,0 -99.83366300000002,28.945533,0 -99.83336800000001,28.945409,0 -99.8324379,28.94494299999999,0 -99.825898,28.941666,0 -99.825621,28.94154199999999,0 -99.81393900000002,28.935656,0 -99.81346600000001,28.93542,0 -99.811151,28.934247,0 -99.810171,28.933767,0 -99.80932199999999,28.933332,0 -99.808031,28.932689,0 -99.80787999999998,28.932614,0 -99.807261,28.932349,0 -99.806844,28.932205,0 -99.80616000000001,28.932032,0 -99.80568499999998,28.931956,0 -99.80505600000001,28.931896,0 -99.804393,28.931893,0 -99.80420999999998,28.931896,0 -99.80374,28.93193,0 -99.803422,28.931958,0 -99.80304000000001,28.932018,0 -99.80258699999999,28.932119,0 -99.802119,28.932217,0 -99.80162800000001,28.932333,0 -99.80115999999998,28.932458,0 -99.800681,28.932565,0 -99.80019,28.932686,0 -99.799232,28.932882,0 -99.7983119,28.9330999,0 -99.79637360000001,28.9335252,0 -99.792686,28.934359,0 -99.792227,28.934469,0 -99.791752,28.934576,0 -99.791262,28.934694,0 -99.790774,28.934792,0 -99.78978549999998,28.9349983,0 -99.789295,28.935111,0 -99.788825,28.935216,0 -99.78834000000001,28.93533,0 -99.787387,28.935541,0 -99.78690799999998,28.935603,0 -99.78642000000001,28.935635,0 -99.78588899999998,28.935637,0 -99.785342,28.935613,0 -99.784851,28.935562,0 -99.78434900000001,28.935462,0 -99.783883,28.93534500000001,0 -99.783427,28.935195,0 -99.78300400000002,28.935024,0 -99.78255900000001,28.934828,0 -99.78215900000001,28.934609,0 -99.78133,28.934134,0 -99.78049799999999,28.933639,0 -99.77964899999999,28.933154,0 -99.778707,28.932599,0 -99.77804500000002,28.932199,0 -99.77783599999999,28.932085,0 -99.777117,28.931675,0 -99.776449,28.931274,0 -99.775098,28.930482,0 -99.77442600000001,28.930093,0 -99.77265599999998,28.929042,0 -99.77202000000001,28.928737,0 -99.77135999999999,28.928492,0 -99.770792,28.928327,0 -99.7702,28.928202,0 -99.769676,28.928131,0 -99.769059,28.9281,0 -99.768291,28.928117,0 -99.76751,28.928176,0 -99.76596499999999,28.928566,0 -99.76386299999999,28.929092,0 -99.759575,28.930179,0 -99.756175,28.931035,0 -99.753946,28.931601,0 -99.745891,28.933635,0 -99.74225799999999,28.934553,0 -99.740832,28.93491,0 -99.73869240000001,28.9354519,0 -99.73818199999999,28.935574,0 -99.73714500000001,28.9358,0 -99.7330616,28.936709,0 -99.73204130000001,28.9369313,0 -99.730521,28.93728399999999,0 -99.7300769,28.9373896,0 -99.72959160000002,28.9375018,0 -99.7290577,28.9376252,0 -99.72895200000001,28.9376496,0 -99.72512709999998,28.9385023,0 -99.724052,28.938742,0 -99.72276599999999,28.939025,0 -99.71881999999999,28.939869,0 -99.716278,28.940469,0 -99.71535799999999,28.940673,0 -99.714444,28.940876,0 -99.712929,28.941213,0 -99.693245,28.945588,0 -99.68857,28.946615,0 -99.68774500000001,28.946797,0 -99.68688400000001,28.946987,0 -99.68565999999998,28.94725800000001,0 -99.684072,28.947608,0 -99.68152700000002,28.94817,0 -99.680126,28.948479,0 -99.678962,28.948743,0 -99.67879100000002,28.948789,0 -99.678358,28.948885,0 -99.677916,28.948949,0 -99.67748899999999,28.948989,0 -99.67705200000002,28.949009,0 -99.676613,28.949007,0 -99.67617499999999,28.948982,0 -99.67574,28.948935,0 -99.674745,28.948803,0 -99.667044,28.947823,0 -99.66545000000001,28.947619,0 -99.66371100000001,28.947396,0 -99.662076,28.947187,0 -99.66096700000001,28.94702300000001,0 -99.660048,28.946918,0 -99.65942099999999,28.946833,0 -99.65857800000001,28.946771,0 -99.657993,28.946766,0 -99.65771800000002,28.946782,0 -99.657387,28.946818,0 -99.656638,28.946927,0 -99.65592700000001,28.94707,0 -99.655078,28.94731700000001,0 -99.654471,28.94755,0 -99.65419699999998,28.947655,0 -99.653125,28.948101,0 -99.65208199999999,28.94852,0 -99.65100200000001,28.948959,0 -99.649922,28.949405,0 -99.648044,28.950172,0 -99.64774000000001,28.950296,0 -99.646664,28.950731,0 -99.64564599999999,28.95115,0 -99.644678,28.951555,0 -99.643719,28.951949,0 -99.64165,28.95278100000001,0 -99.640727,28.953145,0 -99.63991899999999,28.953477,0 -99.63968000000001,28.953576,0 -99.63872099999999,28.953988,0 -99.6382309,28.9541843,0 -99.636585,28.954839,0 -99.635766,28.955189,0 -99.63453699999999,28.955697,0 -99.63381,28.95599,0 -99.63209200000001,28.956688,0 -99.63061500000001,28.957289,0 -99.626958,28.958776,0 -99.62416700000001,28.959904,0 -99.62256499999999,28.960552,0 -99.621426,28.961011,0 -99.620649,28.961348,0 -99.62002659999999,28.961607,0 -99.619294,28.961906,0 -99.618297,28.96231,0 -99.61782099999999,28.962502,0 -99.616895,28.962879,0 -99.616759,28.962934,0 -99.61633400000001,28.963103,0 -99.615797,28.963302,0 -99.61551299999999,28.963362,0 -99.61535900000001,28.963388,0 -99.614772,28.963486,0 -99.614608,28.963513,0 -99.61405039999998,28.963564,0 -99.61351599999999,28.963589,0 -99.613004,28.963589,0 -99.61274400000001,28.963567,0 -99.61227399999999,28.963512,0 -99.61185759999999,28.96347,0 -99.609354,28.963082,0 -99.607724,28.962826,0 -99.60168500000002,28.961916,0 -99.580923,28.959434,0 -99.57800500000002,28.959078,0 -99.57041,28.958169,0 -99.56887699999999,28.957983,0 -99.56532899999999,28.957551,0 -99.56406699999999,28.957389,0 -99.56009899999999,28.956927,0 -99.554585,28.956298,0 -99.55311499999999,28.956133,0 -99.54817300000001,28.955547,0 -99.543138,28.954984,0 -99.53942300000001,28.954536,0 -99.53360800000002,28.95375900000001,0 -99.53347599999999,28.95374,0 -99.533232,28.953705,0 -99.53108600000002,28.953399,0 -99.52989499999998,28.95325,0 -99.5291,28.953151,0 -99.52531500000002,28.952628,0 -99.52286700000001,28.952307,0 -99.52060199999998,28.952146,0 -99.51996300000002,28.952085,0 -99.51899299999999,28.952023,0 -99.51800399999999,28.951971,0 -99.51607299999999,28.951823,0 -99.51519900000001,28.951751,0 -99.514426,28.951715,0 -99.513475,28.951659,0 -99.51277399999999,28.951529,0 -99.51218799999999,28.951367,0 -99.511511,28.95112,0 -99.51103200000001,28.95087,0 -99.51076999999999,28.950716,0 -99.51024299999999,28.95033,0 -99.506766,28.947645,0 -99.50504500000001,28.946316,0 -99.50454999999999,28.945923,0 -99.502213,28.944141,0 -99.49927699999999,28.942016,0 -99.49873599999999,28.941625,0 -99.498564,28.941521,0 -99.49822099999999,28.941337,0 -99.49786500000002,28.941174,0 -99.497499,28.941031,0 -99.49712300000002,28.940908,0 -99.49673900000002,28.940806,0 -99.496349,28.940726,0 -99.496298,28.940718,0 -99.49595300000001,28.940667,0 -99.495555,28.94063,0 -99.495154,28.940613,0 -99.49479000000001,28.940616,0 -99.49435800000001,28.940617,0 -99.48594900000001,28.94068,0 -99.48018500000002,28.940733,0 -99.47829299999998,28.94075,0 -99.478002,28.940738,0 -99.472718,28.940777,0 -99.47204699999999,28.940782,0 -99.470052,28.940797,0 -99.469756,28.94079899999999,0 -99.46648500000001,28.940822,0 -99.46010300000002,28.940868,0 -99.44927800000001,28.940944,0 -99.44363199999998,28.940984,0 -99.443117,28.940987,0 -99.441931,28.940995,0 -99.430988,28.941073,0 -99.43081300000001,28.941085,0 -99.430611,28.941117,0 -99.43043400000001,28.941167,0 -99.42428700000001,28.9432,0 -99.42411200000001,28.943259,0 -99.423957,28.943311,0 -99.42382600000001,28.943339,0 -99.422394,28.943466,0 -99.412539,28.94434,0 -99.40373,28.945164,0 -99.39422570000001,28.9460112,0 -99.390854,28.946306,0 -99.38722,28.946612,0 -99.38623999999999,28.946694,0 -99.37621199999998,28.94755200000001,0 -99.375319,28.947629,0 -99.37328180000002,28.9477616,0 -99.372376,28.9477535,0 -99.37067020000001,28.9476107,0 -99.367892,28.947173,0 -99.363669,28.946646,0 -99.361845,28.946419,0 -99.35659390000001,28.9456063,0 -99.35399870000001,28.9450755,0 -99.3514795,28.9444876,0 -99.34984069999999,28.9441151,0 -99.34819089999999,28.9437807,0 -99.34631929999999,28.9435993,0 -99.34406799999999,28.943513,0 -99.3421938,28.9436639,0 -99.3390531,28.9440704,0 -99.33339539999999,28.9448704,0 -99.33249170000001,28.9450025,0 -99.33058390000001,28.9452009,0 -99.32944639999999,28.9452435,0 -99.32723,28.945212,0 -99.317978,28.944892,0 -99.31394130000001,28.94472590000001,0 -99.3076918,28.9444907,0 -99.30561730000001,28.9444296,0 -99.30142599999999,28.944479,0 -99.28822750000002,28.9455183,0 -99.28585750000001,28.9456858,0 -99.27836179999998,28.9462205,0 -99.27410089999999,28.946528,0 -99.2733235,28.9466993,0 -99.2725532,28.9469106,0 -99.2717711,28.9472101,0 -99.2708377,28.9476105,0 -99.26997670000002,28.9481541,0 -99.26707020000001,28.9507471,0 -99.26648019999999,28.9513085,0 -99.2661427,28.9516286,0 -99.2588933,28.9581081,0 -99.2540152,28.9624876,0 -99.25018919999999,28.9658618,0 -99.2478701,28.9679249,0 -99.24746959999999,28.9683069,0 -99.2430688,28.9722541,0 -99.2429492,28.9723614,0 -99.24234559999999,28.9729028,0 -99.24184169999998,28.9733409,0 -99.2398785,28.974991,0 -99.23926590000001,28.9756339,0 -99.2385804,28.9766307,0 -99.2365848,28.9808889,0 -99.23575620000001,28.9827764,0 -99.23548940000002,28.9833571,0 -99.2351214,28.9841437,0 -99.2345203,28.9854672,0 -99.2343197,28.9858447,0 -99.23365800000001,28.9868189,0 -99.23305929999998,28.98741529999999,0 -99.2276061,28.9922932,0 -99.2223262,28.9970427,0 -99.21204289999999,29.0062604,0 -99.2116419,29.0066183,0 -99.2112358,29.006924,0 -99.21078010000001,29.0072233,0 -99.2104113,29.0074215,0 -99.2099379,29.0076411,0 -99.20931099999999,29.0078883,0 -99.2085933,29.0080952,0 -99.2079815,29.0082047,0 -99.20739810000001,29.0082725,0 -99.20689490000001,29.0083012,0 -99.20604890000001,29.0082883,0 -99.1973191,29.0079878,0 -99.19258530000002,29.0078569,0 -99.1874376,29.0076709,0 -99.1761648,29.0073296,0 -99.1720219,29.0071834,0 -99.1594048,29.0067621,0 -99.1522722,29.0065144,0 -99.1484997,29.0064229,0 -99.1475537,29.0064253,0 -99.1466793,29.0065041,0 -99.1461525,29.00662609999999,0 -99.1433598,29.0073054,0 -99.14125749999999,29.0079196,0 -99.1385124,29.0086431,0 -99.1384578,29.0086575,0 -99.1318315,29.0104416,0 -99.1257962,29.0120666,0 -99.1224003,29.0130022,0 -99.12064679999999,29.0134731,0 -99.1196514,29.0137378,0 -99.11842319999998,29.0140094,0 -99.1179137,29.0140758,0 -99.1174896,29.0141192,0 -99.11734370000002,29.0141341,0 -99.10647729999998,29.0142232,0 -99.10493289999999,29.014242,0 -99.10213150000001,29.0142551,0 -99.1013569,29.0142756,0 -99.10061880000001,29.0143505,0 -99.10024019999999,29.0144064,0 -99.09962610000001,29.0145326,0 -99.09912969999999,29.0146654,0 -99.0941656,29.0161911,0 -99.09313179999999,29.0164972,0 -99.08804230000001,29.0180346,0 -99.0871164,29.0183031,0 -99.0846063,29.0190636,0 -99.0820901,29.0198227,0 -99.0790521,29.020738,0 -99.07614809999998,29.0216076,0 -99.0731998,29.0224917,0 -99.07126250000002,29.0230752,0 -99.06933129999999,29.0236532,0 -99.06850370000001,29.0239042,0 -99.0674977,29.0242006,0 -99.0661188,29.0246152,0 -99.06425699999998,29.0251741,0 -99.0638422,29.0252832,0 -99.0632244,29.0254457,0 -99.06282670000002,29.0255437,0 -99.05589969999998,29.0272041,0 -99.0525112,29.0280163,0 -99.0512789,29.0283117,0 -99.05115779999998,29.028342,0 -99.0508342,29.0283193,0 -99.05048379999999,29.0282948,0 -99.05025259999999,29.0282437,0 -99.04979179999999,29.0280561,0 -99.04929540000001,29.0278255,0 -99.04913500000001,29.02775099999999,0 
			</coordinates>
		</LineString>
		<atom:link rel="app" href="https://www.google.com/earth/about/versions/#earth-pro" title="Google Earth Pro 7.3.6.10201"></atom:link>
	</Placemark>
</Document>
</kml>
