<?xml version="1.0" encoding="UTF-8"?>
<kml xmlns="http://www.opengis.net/kml/2.2" xmlns:gx="http://www.google.com/kml/ext/2.2" xmlns:kml="http://www.opengis.net/kml/2.2" xmlns:atom="http://www.w3.org/2005/Atom">
<Document>
	<name>US.64A.NC1.kml</name>
	<Style id="line-1267FF-5000-nodesc-highlight1010">
		<LineStyle>
			<color>ff00ffff</color>
			<width>3</width>
		</LineStyle>
	</Style>
	<Style id="line-1267FF-5000-nodesc-normal1010000">
		<LineStyle>
			<color>ff00ffff</color>
			<width>3</width>
		</LineStyle>
	</Style>
	<StyleMap id="line-1267FF-5000-nodesc94000">
		<Pair>
			<key>normal</key>
			<styleUrl>#line-1267FF-5000-nodesc-normal1010000</styleUrl>
		</Pair>
		<Pair>
			<key>highlight</key>
			<styleUrl>#line-1267FF-5000-nodesc-highlight1010</styleUrl>
		</Pair>
	</StyleMap>
	<Placemark>
		<name>US.64A.NC1</name>
		<styleUrl>#line-1267FF-5000-nodesc94000</styleUrl>
		<LineString>
			<tessellate>1</tessellate>
			<coordinates>
				-78.16352128388679,35.91631235916444,0 -78.16370100462869,35.91782004436001,0 -78.16387824671828,35.91924623225559,0 -78.16120976303151,35.91969485763639,0 -78.15933701167059,35.92000581282673,0 -78.15873056434418,35.92016400941356,0 -78.15833332982442,35.92035165060663,0 -78.15796356563456,35.92068082678733,0 -78.15688406501552,35.92181483834721,0 -78.15621764303705,35.92238098513883,0 -78.1541900477455,35.92378355908946,0 -78.15332095736065,35.9244492550549,0 -78.1515561877946,35.92572643158596,0 -78.14837944220515,35.92787184659637,0 -78.14673532753405,35.92900402636677,0 -78.14572180673373,35.92956797659033,0 -78.14469716437036,35.93001410623292,0 -78.14333917968897,35.93043138394985,0 -78.1362357429223,35.93208452427744,0 -78.12727109812033,35.93425908677988,0 -78.12288187853515,35.93546999551758,0 -78.12161465591761,35.93599905093306,0 -78.12024963888685,35.93685674609187,0 -78.11893072121734,35.93832367224441,0 -78.11771667145311,35.94028923779349,0 -78.11719892099012,35.94089135159891,0 -78.11672183030564,35.94141966567874,0 -78.1153165682784,35.94256903375261,0 -78.10998407379485,35.94677611886208,0 -78.10714438908951,35.94900125596001,0 -78.10576116407717,35.95000214824006,0 -78.1048341710521,35.95071675816306,0 -78.1043548958818,35.95099635794327,0 -78.10374887259842,35.95125595631377,0 -78.10311043360535,35.95141226611677,0 -78.10210999564192,35.95154864688314,0 -78.10085826709928,35.95166271540711,0 -78.09977412571129,35.95173831372622,0 -78.09868482535563,35.95169638529741,0 -78.09722272987086,35.95157554409241,0 -78.0956973779234,35.95151220613845,0 -78.09451802590512,35.95162997890139,0 -78.09302160482622,35.95203396754645,0 -78.08811609187003,35.9535723954158,0 -78.08406977949078,35.9548387528973,0 -78.08114875921731,35.95575116910011,0 -78.07770960942804,35.95682928082458,0 -78.07493442048896,35.95768781593107,0 -78.07438156146377,35.95791786981196,0 -78.07387601728779,35.95816815246094,0 -78.07317738319247,35.95859462467307,0 -78.07214435224233,35.95920757236502,0 -78.07138514794846,35.9595687449403,0 -78.06996623579553,35.95996180668562,0 -78.0629929166617,35.9614980928448,0 -78.06222872576043,35.96167498245233,0 -78.06051893348769,35.96205355519996,0 -78.05972865516769,35.96218134278998,0 -78.05918632736423,35.96218981181686,0 -78.05867066036481,35.96207041842825,0 -78.05812921763879,35.96185738486185,0 -78.0571493750823,35.96138310128925,0 -78.05679452733089,35.96127603662724,0 -78.05627340432594,35.96118610542783,0 -78.0547404213809,35.96108387784666,0 -78.05156727643529,35.96086078689356,0 -78.0509117317973,35.9608590915619,0 -78.0499768153592,35.9609867410982,0 -78.04379928022068,35.96218180444544,0 -78.0418855437721,35.96275964846694,0 -78.03889075870141,35.96417643749724,0 -78.03362551370842,35.96667046473181,0 -78.03206855570861,35.96730084126848,0 -78.03125868652977,35.96750082608458,0 -78.03022763263887,35.96755795439292,0 -78.02778310751029,35.967593209775,0 -78.02684107584201,35.96767941800021,0 -78.02578881672027,35.96780052644837,0 -78.02460844413251,35.96803636554208,0 -78.02312556995439,35.9682785263083,0 -78.02232065982432,35.96849258490818,0 -78.02129275889217,35.96895741292023,0 -78.01860800006473,35.9701060585948,0 -78.01756070992511,35.97049941308178,0 -78.01695074598209,35.97066117662723,0 -78.01546740781657,35.97099730030418,0 -78.0140030484818,35.97131350560036,0 -78.01295177193367,35.9714109511653,0 -78.01168147773465,35.97139879351474,0 -78.00987810907297,35.97139186905997,0 -78.00730105517013,35.97135594020685,0 -78.0036293365974,35.97134433298078,0 -78.00242567149631,35.97131612699656,0 -78.0015865038484,35.97121023146074,0 -77.99915806259627,35.97076439160321,0 -77.99696471543594,35.97038457163367,0 -77.99553554687596,35.97011621137277,0 -77.99441264007169,35.9699523714529,0 -77.99328257834375,35.96988410086353,0 -77.99114004511952,35.96998019822886,0 
			</coordinates>
		</LineString>
		<atom:link rel="app" href="https://www.google.com/earth/about/versions/#earth-pro" title="Google Earth Pro 7.3.6.10201"></atom:link>
	</Placemark>
</Document>
</kml>
