<?xml version="1.0" encoding="UTF-8"?>
<kml xmlns="http://www.opengis.net/kml/2.2" xmlns:gx="http://www.google.com/kml/ext/2.2" xmlns:kml="http://www.opengis.net/kml/2.2" xmlns:atom="http://www.w3.org/2005/Atom">
<Document>
	<name>US.64A.NC3.kml</name>
	<Style id="line-1267FF-5000-nodesc-highlight1010">
		<LineStyle>
			<color>ff00ffff</color>
			<width>3</width>
		</LineStyle>
	</Style>
	<Style id="line-1267FF-5000-nodesc-normal1010000">
		<LineStyle>
			<color>ff00ffff</color>
			<width>3</width>
		</LineStyle>
	</Style>
	<StyleMap id="line-1267FF-5000-nodesc94000">
		<Pair>
			<key>normal</key>
			<styleUrl>#line-1267FF-5000-nodesc-normal1010000</styleUrl>
		</Pair>
		<Pair>
			<key>highlight</key>
			<styleUrl>#line-1267FF-5000-nodesc-highlight1010</styleUrl>
		</Pair>
	</StyleMap>
	<Placemark>
		<name>US.64A.NC3</name>
		<styleUrl>#line-1267FF-5000-nodesc94000</styleUrl>
		<LineString>
			<tessellate>1</tessellate>
			<coordinates>
				-77.5353229075297,35.88592832855525,0 -77.53347305477634,35.887838754456,0 -77.53221999846001,35.88911827498055,0 -77.53193133246775,35.88941069185906,0 -77.53161237011069,35.88964327715154,0 -77.53124620111544,35.88981606568309,0 -77.53086786729911,35.88990024131279,0 -77.53031191320258,35.88813574540813,0 -77.52962053737832,35.88609452070774,0 -77.52920601751971,35.88482687273484,0 -77.52901848035171,35.88441768048035,0 -77.52875782323397,35.88397639904968,0 -77.52829726458026,35.88347097025022,0 -77.52673177878262,35.88204797581682,0 -77.52315125176031,35.87870210445893,0 -77.52162934714613,35.87726913375089,0 -77.51772268262383,35.8736275710415,0 -77.51490371078584,35.87098886393206,0 -77.50906148523515,35.86555070047549,0 -77.50607435883428,35.86273865442914,0 -77.50006012312591,35.85708950287199,0 -77.49521665543612,35.85258166558204,0 -77.48927878375548,35.84704200300359,0 -77.48671488380748,35.84462829111121,0 -77.48136140387854,35.83962336676463,0 -77.47978441345535,35.83816465059272,0 -77.47664342401494,35.83519791726212,0 -77.47613692618233,35.83476071165391,0 -77.47549172614988,35.83439465219296,0 -77.47447350211971,35.83397336444253,0 -77.47221759656095,35.8331622611559,0 -77.46886760707255,35.83193388203152,0 -77.46542539962229,35.83066795664927,0 -77.46348125697436,35.82993062242828,0 -77.46265685793429,35.82950259036377,0 -77.46191788354916,35.82905726716488,0 -77.46126149647868,35.82859316034205,0 -77.46057704195228,35.82796907624965,0 -77.45988711293795,35.82718025061856,0 -77.45781644103801,35.82460698433012,0 -77.45648582645063,35.82288767992831,0 -77.45439177492213,35.82025863375026,0 -77.45272052526747,35.81813166935948,0 -77.45118891060702,35.81632393067564,0 -77.44885208672903,35.81335075120176,0 -77.44857357701349,35.81289103050069,0 -77.44783459611038,35.81149053802967,0 -77.4470888072985,35.80981396012458,0 -77.44667609367986,35.8090623508118,0 -77.44607854370722,35.8082680211871,0 -77.44549430438938,35.80761337105768,0 -77.44453879115656,35.80678732572024,0 -77.44311881800755,35.80551079792581,0 -77.44228323002875,35.80481588089822,0 -77.4413640167198,35.80429984538267,0 -77.43928888853833,35.80316629134741,0 -77.43767623828174,35.80228764508681,0 -77.43653983481394,35.80165221680522,0 -77.4360645861473,35.80140845372765,0 -77.43561562599838,35.80125162629606,0 -77.43509436777465,35.80112166561077,0 -77.43447318142285,35.80103232863644,0 -77.43363077807572,35.80106935815684,0 -77.43245013566641,35.80118760446749,0 -77.43000331361877,35.80142316725142,0 -77.42909572703229,35.80150785376313,0 -77.42833961349243,35.80152344200144,0 -77.42757699094098,35.80149948457579,0 -77.42681530467081,35.80141144047831,0 -77.42591225410317,35.80125906820048,0 -77.42249209305403,35.80061042560028,0 -77.41939898095364,35.80003292835594,0 -77.41844681790569,35.79988876054852,0 -77.41764100279366,35.79983017560615,0 -77.41651742568166,35.799811455924,0 -77.40873300205291,35.79962897314564,0 -77.40575902564071,35.79949739238351,0 -77.40439253051306,35.79946350638573,0 -77.40353591920085,35.79958530091613,0 -77.40285926330785,35.79978727766792,0 -77.4020338962623,35.80023122919668,0 -77.40054752754855,35.80114332121747,0 -77.39867583888272,35.80225657894617,0 -77.39762586553782,35.8027807893926,0 -77.3966272380941,35.80319872276301,0 -77.39525959828468,35.80369313855238,0 -77.39397921501197,35.80403465064051,0 -77.39263649069682,35.80427906101897,0 -77.38945294922516,35.8047436033868,0 -77.38172684306177,35.80594046569532,0 -77.37871742296036,35.80636810926903,0 -77.37702444242863,35.80661804631363,0 -77.37615668164935,35.8066737189842,0 -77.37503970972348,35.80668094639735,0 -77.37324805747248,35.80666801730448,0 -77.37121119717968,35.80669129201796,0 -77.37046537144774,35.80678777473583,0 -77.36899651500845,35.80712573141872,0 -77.36676347820506,35.80765072412463,0 -77.36490470577672,35.80807188945748,0 -77.36050186105122,35.80912649670288,0 -77.35771128440076,35.80975369820565,0 -77.35517574197465,35.81036823102606,0 -77.35449562453877,35.81057732454338,0 -77.35376465858745,35.81095375696527,0 -77.35119181135714,35.8125337436549,0 -77.34614078676942,35.81566962473398,0 -77.34257351679085,35.8178388712477,0 -77.34138586244281,35.81856192423231,0 -77.3402339060613,35.81914042250385,0 -77.33664482990984,35.8207705812579,0 -77.33031585849223,35.82363695570678,0 -77.32787407368863,35.82474360101481,0 -77.32712262313156,35.82495835804642,0 -77.32641417552259,35.8251128900425,0 -77.3257566532906,35.82517352225189,0 -77.32527056396506,35.82512438857665,0 -77.32008145040655,35.82441065403376,0 -77.31101937306147,35.82312670644208,0 -77.30637704820791,35.82248516722781,0 -77.30448251594251,35.82222526165661,0 -77.30155598828668,35.82181189472023,0 -77.30071669183693,35.8216740307092,0 -77.29993442953464,35.82167428411958,0 -77.29872365844778,35.82191921190041,0 -77.28757277563624,35.82448912260499,0 -77.28365322236669,35.82536826216559,0 -77.28297868970994,35.82546886328089,0 -77.28205973517768,35.82548127227049,0 -77.27974939113336,35.8253523874023,0 -77.27441916606058,35.825042860385,0 -77.27300253241472,35.82496210305219,0 -77.27188672647517,35.82491644659575,0 -77.27020644504823,35.82479325849557,0 -77.26904991621916,35.82459466865713,0 -77.2677653707329,35.82430285763132,0 -77.26653644944955,35.82405335961221,0 -77.26589114510128,35.82397305294843,0 -77.26511067058061,35.82397430705825,0 -77.26298077017026,35.82430320709557,0 -77.25949498291727,35.8248024163488,0 -77.25236518066205,35.82582158632763,0 -77.24524377571565,35.82680344888367,0 -77.24265732238263,35.82717656270876,0 -77.23455017909477,35.82829581839869,0 -77.23233143882308,35.82860285545669,0 -77.23141119549015,35.82870015426801,0 -77.23038158765041,35.82870603951737,0 -77.22616060437616,35.82858624445053,0 -77.21929263744693,35.82837342307369,0 -77.21819569226075,35.82834445675392,0 -77.21746152054111,35.82826693228379,0 -77.21681965847452,35.82815260958021,0 -77.21424176111445,35.8274090939142,0 -77.21179419135882,35.82670807699851,0 -77.20791152439369,35.82557882998482,0 -77.20707106497821,35.82535953968549,0 -77.20644043285087,35.8252369764781,0 -77.20580229203394,35.82525044294698,0 -77.20466684064043,35.82542413050052,0 -77.20014216234215,35.82635288889037,0 -77.19824118553716,35.82671983756885,0 -77.19225752213296,35.82794654378485,0 -77.19126522584742,35.82814487432505,0 -77.19062449981,35.82832799431832,0 -77.18958244368287,35.8287278887685,0 -77.18681918466631,35.82994078544478,0 -77.18515602345273,35.83068313345265,0 -77.18416717499443,35.83103480237698,0 -77.18197183741353,35.83162039126952,0 -77.17930995495755,35.83231392882831,0 -77.17316050021334,35.83386633614509,0 -77.17174632046455,35.83422769263587,0 -77.17071817384635,35.83445498876691,0 -77.17029928372789,35.83453608423917,0 -77.16786758037307,35.83479130741773,0 -77.16397448228216,35.83520674617201,0 -77.16239855449565,35.83536802600257,0 -77.16190018277736,35.8354123747967,0 -77.16126062076074,35.83541983325628,0 -77.15698582732291,35.83538957575617,0 -77.15529032795676,35.83537517979907,0 -77.15010616073127,35.8353299285979,0 -77.14928727199613,35.83541279110725,0 -77.14739534397701,35.83573950712158,0 -77.14328326267139,35.83649391665741,0 -77.14016186367655,35.8370750270186,0 -77.13338113843326,35.83832368504157,0 -77.13017771883123,35.83891488545311,0 -77.12866313452184,35.83918948094782,0 -77.12806708508975,35.83925842871321,0 -77.12735582408236,35.83925665821706,0 -77.12322061171454,35.83931391985531,0 -77.12136619891108,35.8393276982857,0 -77.11441486699145,35.83938580249762,0 -77.1084140294693,35.8394246904445,0 -77.1018374689759,35.83949317966094,0 -77.09589426073914,35.83954615798643,0 -77.09040502651072,35.83956896430477,0 -77.08914988264348,35.83957941250555,0 -77.08812552278062,35.83965247115638,0 -77.08657426851028,35.83991506249779,0 -77.08113516230698,35.84082983406122,0 -77.07908873392597,35.84116677144474,0 -77.07812423246045,35.84128576466227,0 -77.07683593255149,35.84135920178097,0 -77.07438258412689,35.84136148302112,0 -77.07170250357545,35.84136509015106,0 -77.06581960750715,35.84149598201543,0 -77.06348412512287,35.841563396409,0 -77.06108841878914,35.84191668149876,0 -77.05882901259635,35.84269616584938,0 -77.05637429517722,35.84352737929535,0 -77.05584956497724,35.84366684028548,0 -77.05564941358459,35.84365695993788,0 -77.05551295990276,35.84364409564346,0 -77.05539951137581,35.84354553642669,0 -77.05492087065383,35.84280025114596,0 -77.05440464697372,35.84207802090513,0 -77.05406397640846,35.84171431980863,0 -77.05362756014453,35.84141828800615,0 -77.05291553939759,35.84112986495315,0 -77.05077885038418,35.84011971169997,0 -77.04965081266674,35.83963552155282,0 
			</coordinates>
		</LineString>
		<atom:link rel="app" href="https://www.google.com/earth/about/versions/#earth-pro" title="Google Earth Pro 7.3.6.10201"></atom:link>
	</Placemark>
</Document>
</kml>
