<?xml version="1.0" encoding="UTF-8"?>
<kml xmlns="http://www.opengis.net/kml/2.2" xmlns:gx="http://www.google.com/kml/ext/2.2" xmlns:kml="http://www.opengis.net/kml/2.2" xmlns:atom="http://www.w3.org/2005/Atom">
<Document>
	<name>US.64A.NC2.kml</name>
	<Style id="line-1267FF-5000-nodesc-highlight1010">
		<LineStyle>
			<color>ff00ffff</color>
			<width>3</width>
		</LineStyle>
	</Style>
	<Style id="line-1267FF-5000-nodesc-normal1010000">
		<LineStyle>
			<color>ff00ffff</color>
			<width>3</width>
		</LineStyle>
	</Style>
	<StyleMap id="line-1267FF-5000-nodesc94000">
		<Pair>
			<key>normal</key>
			<styleUrl>#line-1267FF-5000-nodesc-normal1010000</styleUrl>
		</Pair>
		<Pair>
			<key>highlight</key>
			<styleUrl>#line-1267FF-5000-nodesc-highlight1010</styleUrl>
		</Pair>
	</StyleMap>
	<Placemark>
		<name>US.64A.NC2</name>
		<styleUrl>#line-1267FF-5000-nodesc94000</styleUrl>
		<LineString>
			<tessellate>1</tessellate>
			<coordinates>
				-77.7592955594552,35.94564062741011,0 -77.75309149173094,35.94525236482045,0 -77.74796892505921,35.94507037234541,0 -77.73766692851093,35.94451908425512,0 -77.73129872693971,35.9441842535335,0 -77.72814352973568,35.94408200351221,0 -77.72258313292076,35.94356479184152,0 -77.72137500980455,35.94352109516694,0 -77.71656560753605,35.9434645285095,0 -77.71297148353818,35.94345188032268,0 -77.71045513179966,35.94343067628513,0 -77.70939399033936,35.94339226377976,0 -77.7086640711138,35.94330428505392,0 -77.70794636173281,35.9431381886934,0 -77.7071777029054,35.94286866725967,0 -77.70644359370101,35.9425285628415,0 -77.70578218956868,35.94212152168684,0 -77.7044653823132,35.94110950812014,0 -77.70174434853681,35.93907018398987,0 -77.7009917017831,35.93853070944095,0 -77.70037364352613,35.93810966458302,0 -77.69957362030814,35.93769587579393,0 -77.69713818404588,35.93661195143565,0 -77.69552039867207,35.9359167982598,0 -77.69058707640123,35.93374534340212,0 -77.68680570260358,35.93209738674144,0 -77.68622742664728,35.93189911697846,0 -77.68574658371992,35.93180664331068,0 -77.68523282576236,35.93175031824376,0 -77.68458588550773,35.93175039360462,0 -77.68147912031314,35.9319696139673,0 -77.67491590550237,35.9324451957193,0 -77.66884068285361,35.93283924181472,0 -77.66633873136369,35.93298610833967,0 -77.66333329811901,35.93309658971973,0 -77.6596938932265,35.93321940481453,0 -77.65879763274587,35.93328401111675,0 -77.65708073398426,35.93344531944507,0 -77.65400348882069,35.93373913831776,0 -77.65252778422493,35.93385272991475,0 -77.65177506539899,35.93386557224409,0 -77.65115447831437,35.93381830021416,0 -77.65051819065646,35.93373742409035,0 -77.64758615609674,35.93326658950127,0 -77.6445893498087,35.93278804421917,0 -77.64146368979669,35.93223995049114,0 -77.64039258668912,35.9321008743115,0 -77.63971006368432,35.93198835230324,0 -77.63899971569994,35.93181880544439,0 -77.63826268654012,35.93156560075087,0 -77.6366887842261,35.93097622874341,0 -77.635241736579,35.9304163606396,0 -77.62467338058109,35.92636294859403,0 -77.6211884976203,35.92503541942775,0 -77.62044947204687,35.92480598406326,0 -77.61976786638233,35.92473737268251,0 -77.61817201038865,35.924797685596,0 -77.61495934638901,35.92504082702663,0 -77.60736946074452,35.92558899103041,0 -77.60415306658359,35.92581055002027,0 -77.59509326999189,35.926443387262,0 -77.5928773191709,35.92651576473725,0 -77.58991390157213,35.92649430426718,0 -77.57888881195674,35.92667079544817,0 -77.57480953405239,35.92672631756172,0 -77.57220931981736,35.9267440789183,0 -77.57117900898579,35.92672597961671,0 -77.57031337127206,35.92653874709633,0 -77.56921865113075,35.92621031663324,0 -77.56823372288683,35.92570429321758,0 -77.56747798449027,35.92506467761377,0 -77.56646056835061,35.92407948435991,0 -77.5649271076407,35.92227871564796,0 -77.56400045368359,35.92091292444416,0 -77.56331840402103,35.9196757647524,0 -77.56283796606766,35.91855760937941,0 -77.56251318585383,35.91709827567573,0 -77.56227746875159,35.91567927993862,0 -77.56216002666513,35.9138408005829,0 -77.56223135632253,35.91249319664762,0 -77.56240660725889,35.91130435559838,0 -77.56255511793201,35.91032563233324,0 -77.56274976301441,35.90900815860322,0 -77.56279453437105,35.90794650814439,0 -77.56277187956996,35.90680647036829,0 -77.56262151293862,35.90574565991785,0 -77.56240422164937,35.90467520184372,0 -77.56190352229224,35.90308360672409,0 -77.5612540065114,35.90166245773716,0 -77.56075894548432,35.90080524761671,0 -77.55988742522318,35.89951229510628,0 -77.5588333434555,35.89824811223396,0 -77.55755734492669,35.89704649502301,0 -77.55578550451666,35.89573006990277,0 -77.55379170661394,35.89444672402275,0 -77.55172963295747,35.89321899241268,0 -77.55053705011785,35.89250833678633,0 -77.54998076681066,35.89207962556392,0 -77.54917621402404,35.89123644110913,0 -77.54878455886322,35.89074585555673,0 -77.54842674860846,35.89012747211527,0 -77.54815626588922,35.88950485023105,0 -77.54794962985163,35.88875220084166,0 -77.54773140799912,35.88804033363286,0 -77.5476130508997,35.8876710279712,0 -77.54754025437799,35.88721924083081,0 -77.54751979846071,35.88687622875018,0 
			</coordinates>
		</LineString>
		<atom:link rel="app" href="https://www.google.com/earth/about/versions/#earth-pro" title="Google Earth Pro 7.3.6.10201"></atom:link>
	</Placemark>
</Document>
</kml>
