<?xml version="1.0" encoding="UTF-8"?>
<kml xmlns="http://www.opengis.net/kml/2.2" xmlns:gx="http://www.google.com/kml/ext/2.2" xmlns:kml="http://www.opengis.net/kml/2.2" xmlns:atom="http://www.w3.org/2005/Atom">
<Document>
	<name>US.70N.kml</name>
	<Placemark>
		<name>US.70N</name>
		<LineString>
			<coordinates>
				-86.2770867,36.2096689,0 -86.2763638,36.2099611,0 -86.27618099999999,36.2100169,0 -86.27606950000001,36.210051,0 -86.2759461,36.2100887,0 -86.27573889999999,36.210152,0 -86.27471,36.2104663,0 -86.2739206,36.2107075,0 -86.27330929999999,36.2108976,0 -86.2728056,36.2110368,0 -86.2724936,36.211123,0 -86.2720279,36.2112842,0 -86.2714197,36.211447,0 -86.271137,36.2115305,0 -86.27086319999999,36.211606,0 -86.2707817,36.2116285,0 -86.27025310000001,36.2117772,0 -86.2701507,36.211806,0 -86.2699696,36.2118569,0 -86.26968460000001,36.2119371,0 -86.2694554,36.2120016,0 -86.26938869999999,36.2120203,0 -86.26925110000001,36.212059,0 -86.2689421,36.2121459,0 -86.26879820000001,36.2121864,0 -86.26857440000001,36.2122494,0 -86.2682805,36.2123355,0 -86.2678003,36.2124762,0 -86.2676151,36.2125305,0 -86.2675512,36.2125492,0 -86.26739310000001,36.2125956,0 -86.26705819999999,36.2126963,0 -86.26619770000001,36.2129477,0 -86.2655178,36.2131486,0 -86.2649823,36.2133068,0 -86.26467150000001,36.2133986,0 -86.26448000000001,36.2134552,0 -86.2637311,36.2136765,0 -86.262928,36.2139138,0 -86.2606004,36.2146015,0 -86.2595597,36.2149093,0 -86.25892589999999,36.2150967,0 -86.25865140000001,36.2151742,0 -86.2582558,36.215286,0 -86.25798880000001,36.215362,0 -86.2576151,36.2154669,0 -86.25736000000001,36.215539,0 -86.25678310000001,36.2157155,0 -86.256314,36.215859,0 -86.2560989,36.2159173,0 -86.2553387,36.2161378,0 -86.2551763,36.2161849,0 -86.25400930000001,36.2165233,0 -86.2520639,36.2170875,0 -86.2512713,36.2173174,0 -86.25115839999999,36.2173501,0 -86.2501963,36.2176292,0 -86.24999,36.217689,0 -86.2495309,36.2178191,0 -86.2494658,36.2178375,0 -86.2492495,36.2179004,0 -86.24819720000001,36.2182061,0 -86.24778910000001,36.2183247,0 -86.2473361,36.2184564,0 -86.24720499999999,36.2184925,0 -86.2467901,36.2186155,0 -86.2459059,36.2188732,0 -86.245824,36.218897,0 -86.2451045,36.2191067,0 -86.2450667,36.2191176,0 -86.2437661,36.219494,0 -86.24028,36.2205097,0 -86.2383123,36.2210672,0 -86.2371193,36.2214134,0 -86.2365726,36.2215767,0 -86.2345018,36.2221812,0 -86.2342251,36.222262,0 -86.23239599999999,36.2227984,0 -86.2317372,36.2229916,0 -86.23153139999999,36.2230519,0 -86.2309022,36.2232364,0 -86.22869900000001,36.2238763,0 -86.226435,36.2245233,0 -86.22530829999999,36.2248512,0 -86.22426400000001,36.2251554,0 -86.2218357,36.2259944,0 -86.2208584,36.2264058,0 -86.2204885,36.2265615,0 -86.2202036,36.2266814,0 -86.2183172,36.2274202,0 -86.2158886,36.2280863,0 -86.2145845,36.2283089,0 -86.2137415,36.2284286,0 -86.21244350000001,36.228602,0 -86.2113726,36.2287221,0 -86.21059889999999,36.2288998,0 -86.20943889999999,36.2291805,0 -86.207431,36.2296665,0 -86.2054646,36.2301425,0 -86.204396,36.2304255,0 -86.20335849999999,36.2306747,0 -86.20244270000001,36.2308992,0 -86.2015047,36.2311291,0 -86.200093,36.2314751,0 -86.1995447,36.2316112,0 -86.1980677,36.2319844,0 -86.1977303,36.2320661,0 -86.1966242,36.2323338,0 -86.1965874,36.2323431,0 -86.19609699999999,36.2324672,0 -86.1939903,36.2330003,0 -86.1874784,36.2346276,0 -86.18676670000001,36.2347954,0 -86.1858421,36.2350134,0 -86.184889,36.2352498,0 -86.1845486,36.2353334,0 -86.18395940000001,36.235474,0 -86.18348229999999,36.2356034,0 -86.1824247,36.2358696,0 -86.1819933,36.2359714,0 -86.18015320000001,36.2364233,0 -86.179635,36.2365506,0 -86.17924619999999,36.2366476,0 -86.17823439999999,36.2369001,0 -86.17724819999999,36.2371422,0 -86.1771368,36.2371681,0 -86.1766507,36.2372846,0 -86.1753002,36.237618,0 -86.1737413,36.2380074,0 -86.1731434,36.2381553,0 -86.17194139999999,36.2384272,0 -86.1712596,36.2385982,0 -86.17113500000001,36.2386294,0 -86.1709556,36.2386744,0 -86.1705654,36.2387722,0 -86.1704505,36.238801,0 -86.17019759999999,36.2388645,0 -86.1692784,36.239095,0 -86.16915950000001,36.2391248,0 -86.1686418,36.2392546,0 -86.1680748,36.2393968,0 -86.16799469999999,36.2394169,0 -86.1662457,36.2398615,0 -86.1657032,36.2399926,0 -86.1648859,36.2401979,0 -86.16462749999999,36.2402628,0 -86.1636302,36.2405134,0 -86.16303910000001,36.2406619,0 -86.1629854,36.2406754,0 -86.1627864,36.2407247,0 -86.161343,36.2410822,0 -86.16037420000001,36.2413161,0 -86.15958670000001,36.2415062,0 -86.158647,36.241744,0 -86.15800400000001,36.2419227,0 -86.1573313,36.242087,0 -86.1538943,36.2429266,0 -86.15087250000001,36.2436647,0 -86.149508,36.243998,0 -86.148183,36.2443231,0 -86.1474748,36.2444969,0 -86.146788,36.2446691,0 -86.14632589999999,36.244785,0 -86.1458557,36.2449175,0 -86.1456125,36.2449861,0 -86.1451611,36.245098,0 -86.1436357,36.2454762,0 -86.1435546,36.2454963,0 -86.1424966,36.2457586,0 -86.1408449,36.2461557,0 -86.1404205,36.2462577,0 -86.14037810000001,36.2462679,0 -86.13872379999999,36.2466712,0 -86.1376281,36.2469384,0 -86.1352538,36.2475187,0 -86.1350003,36.2475813,0 -86.1340551,36.2478149,0 -86.13208330000001,36.2483021,0 -86.1315278,36.2484393,0 -86.1314799,36.2484511,0 -86.1309416,36.2485842,0 -86.130422,36.2487126,0 -86.1299901,36.2488192,0 -86.1297138,36.2488875,0 -86.1291453,36.249028,0 -86.12889610000001,36.2490896,0 -86.12833929999999,36.2492272,0 -86.1281321,36.2492775,0 -86.12772820000001,36.2493754,0 -86.12755490000001,36.249421,0 -86.1275164,36.2494307,0 -86.1270638,36.2495442,0 -86.1268872,36.2495885,0 -86.12626210000001,36.2497454,0 -86.12598010000001,36.2498161,0 -86.1252416,36.2500014,0 -86.12511569999999,36.250033,0 -86.1250715,36.2500441,0 -86.1243977,36.2502132,0 -86.1242902,36.2502401,0 -86.1240366,36.2503027,0 -86.1238611,36.2503461,0 -86.1234286,36.2504553,0 -86.1227775,36.2506196,0 -86.1227459,36.2506276,0 -86.1220818,36.2507814,0 -86.1220222,36.2508066,0 -86.1219215,36.2508492,0 -86.12003009999999,36.2510746,0 -86.119834,36.251098,0 -86.1195297,36.2511119,0 -86.11913319999999,36.2511301,0 -86.1181024,36.2511838,0 -86.114929,36.251349,0 -86.11366820000001,36.2514581,0 -86.1136005,36.251464,0 -86.1128145,36.2515117,0 -86.112696,36.251512,0 -86.1122594,36.2515466,0 -86.1119539,36.2515595,0 -86.1106175,36.2516157,0 -86.109763,36.2516517,0 -86.109572,36.2516597,0 -86.1091601,36.251677,0 -86.1088122,36.2516852,0 -86.1085004,36.2516926,0 -86.10816800000001,36.25169,0 -86.10795539999999,36.2517013,0 -86.10773500000001,36.251713,0 -86.1069356,36.2517557,0 -86.1068399,36.2517608,0 -86.1067493,36.2517656,0 -86.10609839999999,36.2517993,0 -86.10530780000001,36.2518402,0 -86.10519499999999,36.251846,0 -86.10507870000001,36.251852,0 -86.104074,36.251904,0 -86.10391439999999,36.2519263,0 -86.1038516,36.2519459,0 -86.1036881,36.2519969,0 -86.1036649,36.2520041,0 -86.1034331,36.2520679,0 -86.10320900000001,36.2521296,0 -86.10315799999999,36.252144,0 -86.1029863,36.2521923,0 -86.1028798,36.2522368,0 -86.1022766,36.2524886,0 -86.1021521,36.2525406,0 -86.1019719,36.2526158,0 -86.1018521,36.2526658,0 -86.1017492,36.2527087,0 -86.10164229999999,36.2527534,0 -86.10145079999999,36.2528339,0 -86.1013063,36.2528963,0 -86.1007448,36.2531452,0 -86.1001342,36.2534159,0 -86.09959809999999,36.2536535,0 -86.09746370000001,36.2545997,0 -86.0971445,36.2548333,0 -86.0967314,36.2551404,0 -86.0962218,36.2556119,0 -86.0954586,36.2564187,0 -86.09530719999999,36.2565787,0 -86.0948405,36.2570459,0 -86.09452400000001,36.2573638,0 -86.0942021,36.2576256,0 -86.094097,36.2577043,0 -86.09393660000001,36.2578245,0 -86.0932955,36.2581576,0 -86.0926881,36.2584154,0 -86.09236,36.2585069,0 -86.092015,36.2585759,0 -86.0916084,36.2586464,0 -86.09122379999999,36.2586747,0 -86.0909071,36.258698,0 -86.0907672,36.2587084,0 -86.0894674,36.2588041,0 -86.08931819999999,36.2588151,0 -86.08922819999999,36.2588217,0 -86.0883963,36.258883,0 -86.0877758,36.2589287,0 -86.08640219999999,36.2590356,0 -86.0862941,36.259044,0 -86.08609010000001,36.2590599,0 -86.08576050000001,36.2590856,0 -86.0853717,36.2591159,0 -86.0849202,36.259151,0 -86.0844914,36.2591866,0 -86.0838529,36.2592481,0 -86.08376149999999,36.2592569,0 -86.0815411,36.2594832,0 -86.0803002,36.2596097,0 -86.079453,36.259696,0 -86.077521,36.2600176,0 -86.077248,36.260063,0 -86.077049,36.260117,0 -86.0751027,36.2608108,0 -86.0750147,36.2608395,0 -86.0741567,36.2611189,0 -86.07172199999999,36.2620535,0 -86.0711427,36.2622373,0 -86.0700642,36.2625243,0 -86.0690962,36.2627976,0 -86.0688809,36.2628618,0 -86.0686237,36.2629252,0 -86.0682166,36.2630413,0 -86.0675856,36.2632322,0 -86.0668031,36.2634623,0 -86.0661418,36.2636574,0 -86.0647218,36.2640662,0 -86.0633924,36.2644353,0 -86.0630484,36.2645306,0 -86.0625429,36.2646705,0 -86.0613118,36.2648217,0 -86.0603005,36.2648216,0 -86.06024859999999,36.2648198,0 -86.05990730000001,36.264808,0 -86.0597874,36.2648038,0 -86.05956500000001,36.2647764,0 -86.059096,36.264666,0 -86.0589817,36.2646463,0 -86.058505,36.264564,0 -86.0583646,36.2645409,0 -86.058091,36.264493,0 -86.057626,36.264414,0 -86.057265,36.264297,0 -86.056777,36.264139,0 -86.0565204,36.2640746,0 -86.05566260000001,36.2638592,0 -86.05559,36.263841,0 -86.05553999999999,36.2638272,0 -86.05534969999999,36.2637745,0 -86.05459999999999,36.263567,0 -86.054529,36.26354,0 -86.05393599999999,36.263317,0 -86.0535288,36.263154,0 -86.05347399999999,36.263132,0 -86.05341300000001,36.263108,0 -86.0526809,36.2627424,0 -86.0525762,36.2626901,0 -86.0521792,36.2624117,0 -86.0516516,36.2619835,0 -86.0510429,36.261421,0 -86.05099130000001,36.2613733,0 -86.0509721,36.2613548,0 -86.04837430000001,36.2588432,0 -86.0482185,36.258683,0 -86.04730120000001,36.2578032,0 -86.0469559,36.257424,0 -86.04680089999999,36.257263,0 -86.04594040000001,36.2564558,0 -86.0445098,36.2552222,0 -86.04422889999999,36.2550045,0 -86.0426619,36.2541503,0 -86.0421248,36.2538941,0 -86.04101799999999,36.2533659,0 -86.0392232,36.2524732,0 -86.0385555,36.2521398,0 -86.0381472,36.2518979,0 -86.0377579,36.2516751,0 -86.0371724,36.2512704,0 -86.03710529999999,36.2512241,0 -86.0367339,36.250873,0 -86.0361521,36.250323,0 -86.03569640000001,36.2499207,0 -86.0354777,36.249684,0 -86.0352367,36.2494805,0 -86.0342437,36.2485856,0 -86.0338005,36.2482101,0 -86.0335623,36.2480196,0 -86.0331094,36.2477279,0 -86.03282230000001,36.2476064,0 -86.0324415,36.2474452,0 -86.03191959999999,36.2473028,0 -86.0310795,36.2472439,0 -86.03066219999999,36.2472335,0 -86.0302128,36.2472301,0 -86.030058,36.247229,0 -86.029208,36.247283,0 -86.0290282,36.2473036,0 -86.02865250000001,36.2473135,0 -86.0283259,36.2473673,0 -86.0282668,36.247377,0 -86.0236762,36.2481329,0 -86.0232338,36.248208,0 -86.02298879999999,36.2482496,0 -86.0224071,36.2483895,0 -86.0217586,36.248539,0 -86.0212899,36.2486471,0 -86.020807,36.2487946,0 -86.02036699999999,36.248929,0 -86.0194054,36.249368,0 -86.0178832,36.2501179,0 -86.0171264,36.2505045,0 -86.01697160000001,36.2505704,0 -86.0149095,36.2514487,0 -86.0148422,36.2514677,0 -86.01416330000001,36.2516599,0 -86.0131525,36.2519461,0 -86.0130121,36.2519867,0 -86.012546,36.2521217,0 -86.0121743,36.2522294,0 -86.01181579999999,36.2523331,0 -86.0112541,36.2524981,0 -86.0097684,36.252959,0 -86.0078738,36.2534706,0 -86.00402010000001,36.2542155,0 -86.0024854,36.2545366,0 -86.00153039999999,36.2547167,0 -85.999988,36.255022,0 -85.9970359,36.2555961,0 -85.9957105,36.2558519,0 -85.9935249,36.2562738,0 -85.9917684,36.2566128,0 -85.9910114,36.2567598,0 -85.990696,36.256821,0 -85.990044,36.256963,0 -85.9889251,36.2571765,0 -85.9856142,36.2578096,0 -85.98498859999999,36.2579118,0 -85.9842419,36.2580032,0 -85.98397989999999,36.2580155,0 -85.98271630000001,36.2580813,0 -85.9823746,36.2580672,0 -85.9812407,36.2581145,0 -85.9794043,36.2581412,0 -85.9790904,36.258149,0 -85.9786751,36.2581602,0 -85.9779956,36.2581762,0 -85.9771148,36.2581906,0 -85.97669019999999,36.2581975,0 -85.9763597,36.2582029,0 -85.97493230000001,36.2582262,0 -85.9745157,36.2582409,0 -85.9737325,36.2582755,0 -85.9728827,36.2582959,0 -85.9726019,36.2583026,0 -85.9723475,36.2583057,0 -85.9719714,36.2583103,0 -85.9713239,36.2583216,0 -85.9711827,36.2583286,0 -85.9698827,36.2583286,0 -85.969846,36.2583289,0 -85.968416,36.258254,0 -85.9679872,36.2582474,0 -85.9673131,36.2581548,0 -85.9670618,36.2581202,0 -85.9670426,36.2581176,0 -85.9663189,36.2579563,0 -85.9655003,36.2577294,0 -85.9649488,36.257546,0 -85.96421789999999,36.2572994,0 -85.9641573,36.2572648,0 -85.9636715,36.2570336,0 -85.9622092,36.2563318,0 -85.96112479999999,36.2556485,0 -85.960752,36.2553453,0 -85.9600495,36.2546114,0 -85.9597783,36.2543032,0 -85.9595106,36.2539727,0 -85.95920460000001,36.2535037,0 -85.9589136,36.252966,0 -85.958557,36.25217,0 -85.95790270000001,36.2503843,0 -85.95775500000001,36.249882,0 -85.95755699999999,36.249282,0 -85.95730759999999,36.2487071,0 -85.9565425,36.247281,0 -85.95618709999999,36.2465497,0 -85.9559028,36.2460334,0 -85.9554141,36.2454487,0 -85.9546977,36.2448162,0 -85.95418979999999,36.2444497,0 -85.95306650000001,36.2436586,0 -85.95261189999999,36.2433384,0 -85.9523401,36.2431224,0 -85.95218869999999,36.2429705,0 -85.95205439999999,36.2427708,0 -85.9519753,36.2426237,0 -85.9519257,36.242495,0 -85.9518814,36.2423544,0 -85.9518412,36.2421262,0 -85.9518205,36.2420175,0 -85.951813,36.2419781,0 -85.95179450000001,36.2418894,0 -85.9517817,36.2417948,0 -85.95175879999999,36.2416249,0 -85.9516789,36.2410325,0 -85.95159169999999,36.240548,0 -85.9514684,36.2395378,0 -85.9514308,36.2393323,0 -85.9513396,36.2389904,0 -85.9511787,36.2387265,0 -85.9510506,36.238542,0 -85.950551,36.238077,0 -85.9502372,36.2378071,0 -85.94944099999999,36.237258,0 -85.948035,36.2366709,0 -85.94748610000001,36.2364041,0 -85.9470646,36.2361993,0 -85.94692740000001,36.2361369,0 -85.94661619999999,36.235992,0 -85.9463829,36.2358795,0 -85.9459859,36.2357151,0 -85.9456533,36.2355961,0 -85.94544140000001,36.2355225,0 -85.94512760000001,36.2354295,0 -85.9449323,36.2353893,0 -85.9445027,36.2353321,0 -85.9440628,36.2353018,0 -85.9439414,36.2352993,0 -85.94354509999999,36.2352997,0 -85.9432371,36.2353205,0 -85.94305230000001,36.2353467,0 -85.9424415,36.2354441,0 -85.9423903,36.2354523,0 -85.94193,36.235543,0 -85.9416786,36.235592,0 -85.9411758,36.23569,0 -85.9401913,36.2358842,0 -85.9399928,36.2359199,0 -85.9376515,36.2363728,0 -85.9364976,36.2366086,0 -85.9363554,36.236641,0 -85.9357131,36.2368033,0 -85.9348313,36.2370497,0 -85.9344363,36.2371299,0 -85.9340608,36.2371948,0 -85.9336129,36.2372457,0 -85.93317570000001,36.2372695,0 -85.9326902,36.237276,0 -85.932058,36.237236,0 -85.931274,36.2371829,0 -85.9302749,36.2371267,0 -85.9298471,36.2370748,0 -85.9294783,36.2369969,0 -85.9291551,36.2368985,0 -85.9279427,36.2365285,0 -85.92702199999999,36.2362419,0 -85.92558750000001,36.2357802,0 -85.9244994,36.2354342,0 -85.9231174,36.2350184,0 -85.9227446,36.2349396,0 -85.922538,36.2349081,0 -85.92230960000001,36.2348869,0 -85.9222269,36.2348821,0 -85.9211311,36.2348917,0 -85.9211135,36.2348919,0 -85.92091600000001,36.2348947,0 -85.92051499999999,36.2349004,0 -85.9204178,36.2349018,0 -85.92013,36.2349058,0 -85.9192738,36.2349081,0 -85.9189238,36.2349102,0 -85.9184611,36.2349189,0 -85.9169617,36.2349362,0 -85.9164241,36.2349291,0 -85.9158674,36.2349038,0 -85.9155375,36.2348843,0 -85.9146148,36.2348453,0 -85.9143198,36.234828,0 -85.91368679999999,36.2347653,0 -85.91217399999999,36.234603,0 -85.9112567,36.2345295,0 -85.9078717,36.2342547,0 -85.90633750000001,36.2341682,0 -85.90542019999999,36.2341444,0 -85.90440630000001,36.2340881,0 -85.9037234,36.2340362,0 -85.9021283,36.2339217,0 -85.9010911,36.2338523,0 -85.90054120000001,36.2338631,0 -85.8999592,36.2339215,0 -85.8992645,36.2340665,0 -85.898433,36.2342742,0 -85.8978966,36.2343932,0 -85.8974353,36.2344343,0 -85.8971348,36.2344494,0 -85.89669499999999,36.2344494,0 -85.89621750000001,36.234404,0 -85.89523320000001,36.2342288,0 -85.89489519999999,36.2341703,0 -85.8937311,36.2339691,0 -85.8932564,36.2338848,0 -85.89262069999999,36.2337744,0 -85.8918723,36.2336381,0 -85.8915173,36.233552,0 -85.89130369999999,36.2334975,0 -85.89068140000001,36.2332552,0 -85.88995989999999,36.2329912,0 -85.8896381,36.2328311,0 -85.8893913,36.2326537,0 -85.889166,36.2324633,0 -85.8890238,36.2322773,0 -85.8887704,36.2317118,0 -85.8882594,36.2305096,0 -85.8878517,36.2295793,0 -85.8877069,36.2292958,0 -85.88752719999999,36.2290384,0 -85.88727160000001,36.2287381,0 -85.8869907,36.2284931,0 -85.8866984,36.2282746,0 -85.886329,36.2280407,0 -85.8860868,36.22787,0 -85.8856962,36.2275299,0 -85.8854485,36.2272404,0 -85.8852258,36.2268899,0 -85.8850381,36.2265199,0 -85.8847645,36.2259508,0 -85.8845821,36.2255635,0 -85.8843112,36.2248949,0 -85.8840162,36.2241268,0 -85.88388569999999,36.2238469,0 -85.8835464,36.2231138,0 -85.8835387,36.2230968,0 -85.883455,36.222913,0 -85.8833648,36.2227263,0 -85.88326189999999,36.2225004,0 -85.8829133,36.2218476,0 -85.8826992,36.2215313,0 -85.8823678,36.2211395,0 -85.881939,36.2207673,0 -85.8814928,36.2204683,0 -85.88118110000001,36.2202903,0 -85.8808458,36.2201215,0 -85.8802718,36.219903,0 -85.8794135,36.219626,0 -85.87888510000001,36.2194377,0 -85.87838619999999,36.2192452,0 -85.8778903,36.2190018,0 -85.87746079999999,36.2187864,0 -85.8769459,36.2184726,0 -85.87662400000001,36.2182454,0 -85.8761411,36.2178853,0 -85.8748307,36.2169319,0 -85.87450320000001,36.2166936,0 -85.8740925,36.2164546,0 -85.8737567,36.2163065,0 -85.87346169999999,36.2162091,0 -85.873113,36.2161139,0 -85.87298970000001,36.216088,0 -85.8728823,36.2160631,0 -85.87220120000001,36.215932,0 -85.8709944,36.2156964,0 -85.8699458,36.2154848,0 -85.8687831,36.2152474,0 -85.86846679999999,36.2151849,0 -85.8682556,36.2151431,0 -85.8679506,36.2150794,0 -85.8676706,36.2149984,0 -85.8675119,36.2149394,0 -85.8674446,36.2149144,0 -85.86722570000001,36.2148218,0 -85.8670209,36.2147138,0 -85.8667878,36.2145786,0 -85.8665259,36.2144019,0 -85.8648013,36.2131504,0 -85.8645983,36.2130071,0 -85.8643993,36.2128713,0 -85.8641969,36.2127545,0 -85.86398509999999,36.2126531,0 -85.8637985,36.2125663,0 -85.8636083,36.2124881,0 -85.863393,36.2124128,0 -85.8630471,36.2123051,0 -85.862216,36.212048,0 -85.8618402,36.211935,0 -85.86142649999999,36.2118106,0 -85.86095280000001,36.2116658,0 -85.8607329,36.2116017,0 -85.8606944,36.2115905,0 -85.86043960000001,36.2115239,0 -85.8602403,36.211472,0 -85.8602171,36.211466,0 -85.8601393,36.2114493,0 -85.86000180000001,36.2114197,0 -85.8597578,36.2113705,0 -85.85963599999999,36.2113502,0 -85.8595138,36.2113299,0 -85.8592123,36.2112836,0 -85.8588822,36.2112431,0 -85.8584802,36.2111996,0 -85.85794679999999,36.2111594,0 -85.8574412,36.211119,0 -85.8563089,36.2110284,0 -85.8559384,36.2110075,0 -85.8553326,36.2110024,0 -85.8547263,36.21102,0 -85.8545599,36.2110282,0 -85.85419330000001,36.2110642,0 -85.853163,36.2111546,0 -85.85257799999999,36.2112188,0 -85.8523151,36.2112361,0 -85.85172350000001,36.2112425,0 -85.8511666,36.2112041,0 -85.8507534,36.211151,0 -85.84965339999999,36.2109983,0 -85.8488,36.2108665,0 -85.848214,36.2107265,0 -85.8477268,36.2105618,0 -85.8476435,36.2105344,0 -85.8470962,36.2103705,0 -85.8466231,36.210238,0 -85.84602460000001,36.2101287,0 -85.8453798,36.2100811,0 -85.84482850000001,36.210056,0 -85.8442718,36.2100847,0 -85.84370869999999,36.210158,0 -85.8424419,36.2103705,0 -85.8422166,36.2103986,0 -85.84196180000001,36.2104138,0 -85.8417505,36.2104009,0 -85.84158739999999,36.210375,0 -85.8414219,36.2103424,0 -85.8413073,36.2103077,0 -85.8411088,36.2102329,0 -85.84089760000001,36.2101411,0 -85.83883659999999,36.2091073,0 -85.8384501,36.2089375,0 -85.8379621,36.2088338,0 -85.8374725,36.2087798,0 -85.83641900000001,36.2088132,0 -85.8359456,36.2087613,0 -85.83546389999999,36.2086214,0 -85.8350305,36.2084472,0 -85.8346291,36.2082069,0 -85.8343011,36.2079516,0 -85.8330675,36.2065236,0 -85.83280739999999,36.2061405,0 -85.832731,36.2059771,0 -85.8326871,36.2058356,0 -85.83263580000001,36.2056027,0 -85.8326304,36.2052283,0 -85.8326247,36.2048248,0 -85.8326009,36.2046677,0 -85.8325177,36.2044556,0 -85.8323917,36.2042825,0 -85.83220799999999,36.204108,0 -85.8319319,36.2039526,0 -85.8316339,36.203876,0 -85.8313989,36.2038438,0 -85.83088290000001,36.2038518,0 -85.83050609999999,36.2038301,0 -85.8303264,36.2037987,0 -85.830144,36.2037544,0 -85.8298758,36.2036635,0 -85.8296934,36.2035791,0 -85.8294788,36.2034622,0 -85.82849059999999,36.2028443,0 -85.8278892,36.202491,0 -85.8276402,36.2023814,0 -85.8273877,36.2023255,0 -85.8271601,36.202309,0 -85.82698569999999,36.2023187,0 -85.8268166,36.2023436,0 -85.8267014,36.2023784,0 -85.8266022,36.2024175,0 -85.82639260000001,36.2025167,0 -85.8259394,36.2028431,0 -85.8252193,36.2033295,0 -85.82504419999999,36.2034327,0 -85.82481540000001,36.203523,0 -85.8246437,36.203573,0 -85.824406,36.203602,0 -85.8241663,36.2036093,0 -85.8236758,36.2035668,0 -85.82340309999999,36.2035543,0 -85.823159,36.2035701,0 -85.82293780000001,36.2036115,0 -85.82274820000001,36.2036616,0 -85.82256270000001,36.2037258,0 -85.8223914,36.2038096,0 -85.8222268,36.2038973,0 -85.82199919999999,36.2040679,0 -85.8215804,36.2044274,0 -85.8214177,36.2045328,0 -85.82128489999999,36.2046021,0 -85.82114489999999,36.2046533,0 -85.8209835,36.2046958,0 -85.8207761,36.2047279,0 -85.8205693,36.2047303,0 -85.82037870000001,36.2047116,0 -85.82018530000001,36.2046668,0 -85.8199972,36.2045902,0 -85.8198446,36.2045075,0 -85.8198198,36.204494,0 -85.8196145,36.2043383,0 -85.8194393,36.204167,0 -85.8193296,36.2039999,0 -85.8192473,36.203819,0 -85.81919739999999,36.2036868,0 -85.81917970000001,36.2035502,0 -85.8191779,36.2032117,0 -85.8192712,36.2024078,0 -85.8193119,36.2019037,0 -85.8193476,36.201602,0 -85.8194565,36.2006821,0 -85.8194566,36.2002523,0 -85.8194228,36.1999944,0 -85.8193948,36.1996689,0 -85.81933119999999,36.1993589,0 -85.81926319999999,36.1990984,0 -85.8192093,36.1988921,0 -85.8186824,36.1973444,0 -85.8186003,36.1971123,0 -85.81839739999999,36.1966589,0 -85.8182619,36.19642,0 -85.8179222,36.1959402,0 -85.81771000000001,36.195726,0 -85.8174638,36.1955232,0 -85.8171931,36.195339,0 -85.8168586,36.1951391,0 -85.81612029999999,36.1948044,0 -85.8153599,36.1945616,0 -85.814905,36.1943079,0 -85.8146785,36.1941165,0 -85.81450150000001,36.1939023,0 -85.8143175,36.193601,0 -85.81428990000001,36.1935299,0 -85.8137311,36.1920912,0 -85.81351189999999,36.1914795,0 -85.8134434,36.1913159,0 -85.8133551,36.1911307,0 -85.81326799999999,36.1909804,0 -85.8132402,36.1909357,0 -85.8131273,36.1907547,0 -85.81297259999999,36.1905719,0 -85.81277110000001,36.1904191,0 -85.8126087,36.190345,0 -85.8124462,36.1902882,0 -85.811778,36.1901665,0 -85.81157519999999,36.1901179,0 -85.8113901,36.1900473,0 -85.81121640000001,36.1899487,0 -85.8111038,36.1898497,0 -85.8110087,36.189725,0 -85.81093989999999,36.1895717,0 -85.810909,36.1894208,0 -85.810909,36.1892577,0 -85.81095879999999,36.1890738,0 -85.8110793,36.1888917,0 -85.811212,36.1887489,0 -85.8113678,36.1886089,0 -85.8115392,36.1884253,0 -85.8116595,36.1882682,0 -85.8117321,36.1881483,0 -85.81177099999999,36.1880055,0 -85.8117736,36.1879898,0 -85.81179400000001,36.1878655,0 -85.81177630000001,36.1877055,0 -85.8117268,36.1875341,0 -85.8116065,36.1872671,0 -85.81149499999999,36.1869828,0 -85.8114224,36.1866672,0 -85.8114083,36.1863916,0 -85.8115056,36.1856203,0 -85.8115162,36.1854489,0 -85.81149670000001,36.1853047,0 -85.81143830000001,36.1851375,0 -85.8113587,36.1850033,0 -85.81125249999999,36.1848562,0 -85.8110933,36.1847119,0 -85.8109457,36.184604,0 -85.8107957,36.1845226,0 -85.8106525,36.1844703,0 -85.8105013,36.184444,0 -85.8097997,36.1843549,0 -85.8090332,36.1842783,0 -85.8078008,36.1841155,0 -85.8075255,36.1840644,0 -85.8065916,36.1838991,0 -85.8063714,36.183871,0 -85.8059013,36.1838078,0 -85.8056801,36.1837535,0 -85.8054589,36.1836693,0 -85.80527309999999,36.1835507,0 -85.805128,36.1834136,0 -85.80501820000001,36.1832736,0 -85.8049298,36.1831265,0 -85.8048891,36.1830137,0 -85.80467470000001,36.1819304,0 -85.80459740000001,36.1817725,0 -85.80452579999999,36.1816483,0 -85.8044295,36.1815535,0 -85.80432949999999,36.1814714,0 -85.8042332,36.1814179,0 -85.8040477,36.1813389,0 -85.8038166,36.1812793,0 -85.8030797,36.1811635,0 -85.80262930000001,36.1810864,0 -85.80226829999999,36.1810464,0 -85.80195860000001,36.1810297,0 -85.8013888,36.1810697,0 -85.8010986,36.1810983,0 -85.8009004,36.1811012,0 -85.8006987,36.181094,0 -85.8005199,36.181074,0 -85.8003341,36.1810383,0 -85.8001306,36.1809598,0 -85.7999147,36.1808469,0 -85.7997678,36.1807398,0 -85.799644,36.1806312,0 -85.7991237,36.1799199,0 -85.7988211,36.1795,0 -85.79873790000001,36.1794114,0 -85.79858400000001,36.1793143,0 -85.79840350000001,36.1792329,0 -85.79822830000001,36.1792129,0 -85.798024,36.179217,0 -85.7978408,36.1792886,0 -85.7976815,36.1793857,0 -85.7975789,36.1794914,0 -85.7971488,36.180007,0 -85.7968363,36.1804151,0 -85.7960999,36.1812405,0 -85.7960305,36.1813183,0 -85.7957756,36.1815925,0 -85.7956075,36.1816953,0 -85.7953881,36.1817925,0 -85.79497840000001,36.1818293,0 -85.7942157,36.1819191,0 -85.79398329999999,36.1819655,0 -85.7923947,36.1822828,0 -85.79158700000001,36.1824195,0 -85.79130739999999,36.1824395,0 -85.7910437,36.1824366,0 -85.7907783,36.1824124,0 -85.7904916,36.1823581,0 -85.790172,36.182261,0 -85.78990539999999,36.1821441,0 -85.7896387,36.1819839,0 -85.7893095,36.1817253,0 -85.7885327,36.1809955,0 -85.7882097,36.1807836,0 -85.7880973,36.1807146,0 -85.7878791,36.1806056,0 -85.7877141,36.1805558,0 -85.7875679,36.1805233,0 -85.787352,36.1804833,0 -85.7870463,36.1804681,0 -85.78645090000001,36.180489,0 -85.7857454,36.180532,0 -85.7848932,36.1805684,0 -85.78454670000001,36.1805908,0 -85.78427689999999,36.1805937,0 -85.78410390000001,36.1805731,0 -85.78397649999999,36.180545,0 -85.78377930000001,36.1804941,0 -85.7833126,36.1803415,0 -85.783027,36.1802516,0 -85.7824329,36.1800901,0 -85.7821137,36.1800189,0 -85.7816859,36.1799334,0 -85.7809134,36.1797981,0 -85.78049900000001,36.1797223,0 -85.78012649999999,36.1796333,0 -85.7798298,36.1795231,0 -85.77960710000001,36.1794246,0 -85.7794368,36.1793477,0 -85.7792633,36.1792397,0 -85.7790157,36.1790771,0 -85.778114,36.178434,0 -85.7778756,36.1783008,0 -85.7776071,36.1782424,0 -85.77736659999999,36.1782292,0 -85.7771331,36.1782688,0 -85.77694630000001,36.1783573,0 -85.7767875,36.1784516,0 -85.77622940000001,36.1788964,0 -85.776059,36.178985,0 -85.7757951,36.1790867,0 -85.7754309,36.1791866,0 -85.775035,36.179258,0 -85.7736352,36.1795513,0 -85.77338039999999,36.1795967,0 -85.7731417,36.1796227,0 -85.7729325,36.1796162,0 -85.7727098,36.1795859,0 -85.7723343,36.1795036,0 -85.7718623,36.1793759,0 -85.7711752,36.1792064,0 -85.7709413,36.1791744,0 -85.77078419999999,36.1791636,0 -85.77063390000001,36.1791736,0 -85.7706091,36.1791752,0 -85.770438,36.1792156,0 -85.7702695,36.1792822,0 -85.7701191,36.1793744,0 -85.7699973,36.179492,0 -85.76966210000001,36.1799191,0 -85.76925900000001,36.1804408,0 -85.76908570000001,36.1805693,0 -85.76888390000001,36.1806711,0 -85.7686477,36.1807321,0 -85.7683978,36.1807434,0 -85.7682367,36.1807208,0 -85.768078,36.1806782,0 -85.76793790000001,36.1806115,0 -85.7666346,36.1798933,0 -85.7662404,36.1796552,0 -85.7660472,36.1795794,0 -85.7658543,36.1795367,0 -85.7656729,36.179526,0 -85.7654744,36.1795315,0 -85.76528999999999,36.1795805,0 -85.7651125,36.1796616,0 -85.7649421,36.1797973,0 -85.7646625,36.1801104,0 -85.7643406,36.1804709,0 -85.764303,36.180513,0 -85.76407810000001,36.1807453,0 -85.76380260000001,36.1809074,0 -85.7635551,36.1809734,0 -85.7633356,36.1809809,0 -85.76310909999999,36.1809507,0 -85.7613882,36.1805601,0 -85.76112000000001,36.1805147,0 -85.7609805,36.1805103,0 -85.76084640000001,36.1805277,0 -85.7606723,36.1805615,0 -85.7605466,36.1806231,0 -85.76033409999999,36.1807528,0 -85.76000070000001,36.1810298,0 -85.7595108,36.1814106,0 -85.7589948,36.1817367,0 -85.758731,36.1818983,0 -85.7584975,36.1819971,0 -85.75829040000001,36.1820315,0 -85.7580935,36.1820303,0 -85.757901,36.1819874,0 -85.7577596,36.1819176,0 -85.7576121,36.181839,0 -85.7572845,36.1815885,0 -85.7570726,36.1814608,0 -85.7568346,36.1813958,0 -85.7566971,36.1813828,0 -85.756563,36.1813828,0 -85.7563016,36.181444,0 -85.7558361,36.1815842,0 -85.75560539999999,36.1816101,0 -85.75531839999999,36.1815842,0 -85.7550609,36.1815192,0 -85.754908,36.1814521,0 -85.75479,36.1813677,0 -85.75348889999999,36.1801554,0 -85.7532997,36.1800178,0 -85.7530943,36.1799104,0 -85.752779,36.179798,0 -85.7524825,36.1797464,0 -85.7521603,36.1797313,0 -85.751831,36.1797671,0 -85.7504339,36.1800709,0 -85.7502142,36.1800954,0 -85.74997279999999,36.180112,0 -85.7486933,36.1801271,0 -85.7484853,36.1801528,0 -85.74826160000001,36.1802066,0 -85.7480315,36.1802977,0 -85.7477873,36.180464,0 -85.7467463,36.1813046,0 -85.74658340000001,36.1813991,0 -85.7464217,36.1814656,0 -85.7462584,36.1814902,0 -85.74606919999999,36.1814981,0 -85.74588559999999,36.1814728,0 -85.74569769999999,36.1814057,0 -85.7455101,36.1812805,0 -85.7453486,36.18111,0 -85.74527089999999,36.1809347,0 -85.7451305,36.1804907,0 -85.7450149,36.1803277,0 -85.7448632,36.1801834,0 -85.74463249999999,36.1800579,0 -85.7445172,36.1800167,0 -85.7443428,36.1799843,0 -85.7441443,36.1799778,0 -85.7439217,36.1800037,0 -85.7436502,36.1801262,0 -85.7436208,36.1801392,0 -85.74271830000001,36.1805402,0 -85.7424405,36.1806314,0 -85.7423075,36.180664,0 -85.74206820000001,36.1807168,0 -85.7415321,36.1807864,0 -85.7410854,36.1808411,0 -85.7406694,36.1809257,0 -85.7404568,36.1810053,0 -85.74024729999999,36.1811122,0 -85.7400624,36.1812415,0 -85.7398776,36.1813932,0 -85.73965699999999,36.1816404,0 -85.73930559999999,36.1821124,0 -85.73915,36.1823094,0 -85.7389945,36.1824588,0 -85.7388376,36.1825944,0 -85.73863900000001,36.1827088,0 -85.7384295,36.1827884,0 -85.7384067,36.1827956,0 -85.73822610000001,36.182853,0 -85.73799510000001,36.1829102,0 -85.73783899999999,36.1829363,0 -85.73772080000001,36.182956,0 -85.7368104,36.183004,0 -85.7365057,36.1830473,0 -85.73619720000001,36.1831094,0 -85.7358768,36.1832191,0 -85.7355764,36.1833578,0 -85.7352008,36.1836203,0 -85.7349586,36.1838673,0 -85.73473679999999,36.1841962,0 -85.73461949999999,36.1843562,0 -85.7345474,36.1844545,0 -85.73437439999999,36.1846002,0 -85.7343204,36.1846456,0 -85.734039,36.1847778,0 -85.7338141,36.1848499,0 -85.7335583,36.1849071,0 -85.732871,36.1849484,0 -85.732455,36.184973,0 -85.7321318,36.185014,0 -85.73184910000001,36.1851,0 -85.73165349999999,36.1851888,0 -85.73132769999999,36.1853696,0 -85.73108430000001,36.1855387,0 -85.7307608,36.1857178,0 -85.7304527,36.1858322,0 -85.7301353,36.1859118,0 -85.729553,36.1860286,0 -85.7292387,36.1861306,0 -85.7289676,36.1862599,0 -85.7283391,36.186705,0 -85.7281419,36.186797,0 -85.72788920000001,36.1868691,0 -85.7276335,36.1868965,0 -85.7274147,36.1868841,0 -85.727236,36.1868567,0 -85.72702959999999,36.1867945,0 -85.726817,36.1866926,0 -85.7266722,36.1865931,0 -85.72652119999999,36.1864464,0 -85.726398,36.1862698,0 -85.7262963,36.1859764,0 -85.7261731,36.1857078,0 -85.7260406,36.1855387,0 -85.72592349999999,36.1854492,0 -85.7257633,36.1853249,0 -85.72558770000001,36.1852428,0 -85.7253936,36.1851806,0 -85.72487270000001,36.1851064,0 -85.72440589999999,36.1850588,0 -85.7240331,36.1849982,0 -85.72376370000001,36.1849121,0 -85.72352650000001,36.1848101,0 -85.72331490000001,36.1846795,0 -85.72326459999999,36.1846485,0 -85.72304889999999,36.184457,0 -85.7229195,36.1842954,0 -85.7225136,36.1836685,0 -85.72240499999999,36.1835131,0 -85.7221502,36.1833204,0 -85.721949,36.1832165,0 -85.72175319999999,36.1831516,0 -85.7215601,36.1831126,0 -85.7213112,36.1831109,0 -85.7209539,36.1831559,0 -85.7206046,36.1832651,0 -85.7203006,36.1833815,0 -85.7200996,36.1834952,0 -85.7197922,36.1837209,0 -85.71972220000001,36.1837972,0 -85.719669,36.1838552,0 -85.7195303,36.1840715,0 -85.7194137,36.1842839,0 -85.7192794,36.184588,0 -85.71914940000001,36.1848279,0 -85.719022,36.1849817,0 -85.7188433,36.1851334,0 -85.7186214,36.1852826,0 -85.7183965,36.1853995,0 -85.7181223,36.185489,0 -85.7174103,36.1856525,0 -85.71735510000001,36.1856652,0 -85.7158115,36.1859488,0 -85.7154233,36.1859814,0 -85.7150135,36.1859934,0 -85.7143911,36.1859502,0 -85.7138772,36.1859529,0 -85.7136186,36.1859978,0 -85.71338299999999,36.1860725,0 -85.71326759999999,36.1861187,0 -85.71317209999999,36.1861569,0 -85.7129815,36.1862646,0 -85.7123177,36.1867716,0 -85.712057,36.1869313,0 -85.7117733,36.1870801,0 -85.7115117,36.1871734,0 -85.7112618,36.1872367,0 -85.7109641,36.1872693,0 -85.71066860000001,36.1872582,0 -85.7103346,36.1872051,0 -85.71008260000001,36.1871238,0 -85.7098921,36.1870624,0 -85.7098283,36.1870391,0 -85.7090726,36.1867632,0 -85.7078315,36.1863879,0 -85.70750839999999,36.1862528,0 -85.7071821,36.1860416,0 -85.70692750000001,36.185821,0 -85.7068064,36.1856517,0 -85.70675369999999,36.1855608,0 -85.7066471,36.1852373,0 -85.7066135,36.1851355,0 -85.7065144,36.1847027,0 -85.7064082,36.1842492,0 -85.7063239,36.1841069,0 -85.7062433,36.183971,0 -85.7060383,36.1837259,0 -85.70580339999999,36.1835053,0 -85.70573709999999,36.1834699,0 -85.7054751,36.1833301,0 -85.7051428,36.1832168,0 -85.70441940000001,36.1830765,0 -85.70389520000001,36.182964,0 -85.70345039999999,36.1828344,0 -85.7030415,36.1826823,0 -85.7025721,36.1824563,0 -85.7022162,36.1822638,0 -85.7010247,36.1816192,0 -85.7008017,36.1814946,0 -85.700536,36.1813358,0 -85.700295,36.1811578,0 -85.70010310000001,36.1809784,0 -85.6998739,36.1807015,0 -85.69983240000001,36.1806359,0 -85.6996348,36.1803236,0 -85.699488,36.1800818,0 -85.698662,36.1787217,0 -85.6985744,36.1785774,0 -85.69829590000001,36.1781585,0 -85.6980444,36.1779445,0 -85.6978263,36.1778167,0 -85.6976421,36.1777351,0 -85.6973741,36.17766,0 -85.69716560000001,36.1776277,0 -85.6969453,36.1776209,0 -85.6966968,36.177639,0 -85.696574,36.177655,0 -85.6964444,36.1776825,0 -85.6954643,36.1780087,0 -85.6951809,36.1780445,0 -85.69486000000001,36.1780771,0 -85.694547,36.1780618,0 -85.6930881,36.1778518,0 -85.69186089999999,36.1777065,0 -85.69162350000001,36.17767,0 -85.6913914,36.1776031,0 -85.6908272,36.1774053,0 -85.69038020000001,36.177254,0 -85.68949550000001,36.1769545,0 -85.6888151,36.176723,0 -85.6882732,36.176501,0 -85.6880002,36.1763539,0 -85.6877459,36.1761712,0 -85.68729570000001,36.1757955,0 -85.6870351,36.1756106,0 -85.68676550000001,36.1754945,0 -85.6866019,36.1754387,0 -85.6864142,36.1754002,0 -85.6862316,36.1753873,0 -85.6859882,36.1753828,0 -85.6857565,36.1753955,0 -85.68555689999999,36.1754342,0 -85.6852118,36.1755317,0 -85.6848815,36.1756712,0 -85.6837866,36.1761872,0 -85.68248149999999,36.1768022,0 -85.682385,36.1768477,0 -85.6821242,36.1769706,0 -85.6817154,36.1771266,0 -85.6816687,36.1771375,0 -85.6812661,36.1772318,0 -85.6809368,36.1772809,0 -85.68084899999999,36.177289,0 -85.6804006,36.177297,0 -85.6800678,36.1772827,0 -85.6799541,36.1772707,0 -85.6795291,36.1771786,0 -85.67917780000001,36.1770705,0 -85.6788274,36.1769103,0 -85.6784931,36.1766877,0 -85.6776472,36.1761486,0 -85.6770714,36.1758998,0 -85.67648320000001,36.1757335,0 -85.67498999999999,36.1754716,0 -85.67402850000001,36.1753585,0 -85.67347049999999,36.1753,0 -85.67240769999999,36.1752369,0 -85.6708594,36.1752122,0 -85.6706518,36.1752079,0 -85.6697477,36.1751817,0 -85.66927149999999,36.1751412,0 -85.66889140000001,36.1750679,0 -85.6684918,36.1749606,0 -85.66828820000001,36.1748749,0 -85.66805220000001,36.1747755,0 -85.66734889999999,36.174397,0 -85.6669613,36.1741898,0 -85.66673400000001,36.1740698,0 -85.6663628,36.1738363,0 -85.6660698,36.1735912,0 -85.666068,36.1735896,0 -85.6657823,36.1733373,0 -85.6654498,36.1729783,0 -85.6647121,36.1720211,0 -85.6645937,36.171903,0 -85.6644366,36.1717463,0 -85.6641085,36.1714838,0 -85.6637277,36.1712189,0 -85.6621703,36.1704219,0 -85.66173019999999,36.1701919,0 -85.66152719999999,36.1700859,0 -85.66117989999999,36.1699044,0 -85.6601407,36.1693613,0 -85.6590178,36.1687645,0 -85.6580768,36.1682643,0 -85.6565878,36.1674694,0 -85.65594969999999,36.1671538,0 -85.6555243,36.166996,0 -85.6553409,36.166947,0 -85.6551843,36.1669052,0 -85.6550069,36.1668579,0 -85.6548755,36.1668334,0 -85.6538159,36.1666355,0 -85.6534486,36.1665745,0 -85.6530582,36.1665033,0 -85.6526727,36.1664525,0 -85.6523569,36.1664191,0 -85.6519514,36.1664169,0 -85.6516232,36.1664398,0 -85.65125829999999,36.1664878,0 -85.65086429999999,36.1665825,0 -85.65047029999999,36.16671,0 -85.6500612,36.1668887,0 -85.6495876,36.1671661,0 -85.6493019,36.1673455,0 -85.64802210000001,36.1681836,0 -85.64759069999999,36.168466,0 -85.6474004,36.1685953,0 -85.64717880000001,36.1687179,0 -85.6469975,36.1688183,0 -85.6465374,36.1690077,0 -85.6460246,36.1691576,0 -85.64574760000001,36.1691985,0 -85.64549100000001,36.1692363,0 -85.64545149999999,36.1692407,0 -85.6439494,36.169408,0 -85.6407403,36.1697601,0 -85.6397942,36.1698757,0 -85.6386363,36.1700118,0 -85.6379621,36.1700911,0 -85.63768520000001,36.1701236,0 -85.63704749999999,36.1701933,0 -85.6351705,36.1703984,0 -85.6346439,36.1704559,0 -85.6345749,36.1704634,0 -85.63452100000001,36.1704692,0 -85.6341972,36.170504,0 -85.6326584,36.1706694,0 -85.6307789,36.1708814,0 -85.63024470000001,36.1709351,0 -85.628761,36.1711107,0 -85.62835440000001,36.1711617,0 -85.6277912,36.1712245,0 -85.6272391,36.171287,0 -85.6255015,36.1714727,0 -85.624979,36.1715338,0 -85.6246766,36.1715616,0 -85.6243501,36.1715917,0 -85.6238721,36.1716078,0 -85.62351959999999,36.1716141,0 -85.6231385,36.1716013,0 -85.6231014,36.1715989,0 -85.622908,36.1715867,0 -85.6226534,36.1715705,0 -85.62239750000001,36.1715422,0 -85.6222035,36.1715248,0 -85.6219976,36.1714914,0 -85.6218482,36.1714672,0 -85.6212477,36.1713493,0 -85.62075470000001,36.1712525,0 -85.6199139,36.1710758,0 -85.61769099999999,36.1706088,0 -85.6168697,36.1704601,0 -85.61636009999999,36.1704109,0 -85.6160361,36.1704073,0 -85.6150729,36.1704527,0 -85.6147489,36.1704691,0 -85.61331730000001,36.1705476,0 -85.61281150000001,36.1705748,0 -85.6124425,36.1705947,0 -85.6121241,36.1706105,0 -85.6117514,36.1706303,0 -85.6116652,36.1706355,0 -85.61107389999999,36.1706708,0 -85.6106248,36.1706899,0 -85.6095478,36.1707332,0 -85.6090272,36.17072,0 -85.6087565,36.1707009,0 -85.6084644,36.1706585,0 -85.60807149999999,36.1705823,0 -85.6074895,36.1704416,0 -85.6074256,36.1704261,0 -85.60719899999999,36.1703723,0 -85.6069954,36.170324,0 -85.6069375,36.1703123,0 -85.6066714,36.1702585,0 -85.60627030000001,36.170206,0 -85.60590980000001,36.1701808,0 -85.6056474,36.170182,0 -85.605389,36.1701865,0 -85.604545,36.1702585,0 -85.60111120000001,36.1706159,0 -85.60096849999999,36.1706301,0 -85.600773,36.1706515,0 -85.6001962,36.1707148,0 -85.5994725,36.1708196,0 -85.59733300000001,36.1711452,0 -85.5965489,36.17129,0 -85.5958904,36.171385,0 -85.595225,36.1714806,0 -85.5946605,36.1715321,0 -85.593822,36.1715741,0 -85.59234069999999,36.1716196,0 -85.5913278,36.171656,0 -85.5906531,36.1717092,0 -85.5901248,36.1717641,0 -85.5894,36.1718793,0 -85.5852895,36.1727689,0 -85.5848112,36.1728949,0 -85.5846686,36.1729372,0 -85.58432209999999,36.1730399,0 -85.5837167,36.1732556,0 -85.5836249,36.1732934,0 -85.5833633,36.1734012,0 -85.58194229999999,36.1739869,0 -85.5813294,36.1742309,0 -85.58094749999999,36.1743637,0 -85.58041,36.1745145,0 -85.5796764,36.1746897,0 -85.57952450000001,36.174726,0 -85.57938059999999,36.1747604,0 -85.5784532,36.1749724,0 -85.5775202,36.1751856,0 -85.57694100000001,36.175318,0 -85.5766192,36.1753947,0 -85.5750776,36.1757501,0 -85.5740409,36.1759997,0 -85.5725877,36.1763397,0 -85.5718883,36.1765075,0 -85.5717176,36.1765431,0 -85.57047559999999,36.1768272,0 -85.5697923,36.1769835,0 -85.56912989999999,36.177135,0 -85.5688336,36.1772028,0 -85.56849990000001,36.1772788,0 -85.56806570000001,36.1773725,0 -85.5675804,36.1774257,0 -85.5675454,36.1774271,0 -85.5667705,36.1774574,0 -85.5661683,36.177478,0 -85.5657307,36.1774929,0 -85.5646924,36.1775283,0 -85.5646133,36.177531,0 -85.5637815,36.177535,0 -85.56361699999999,36.1775311,0 -85.56289580000001,36.1775028,0 -85.561408,36.1774152,0 -85.55982539999999,36.1773418,0 -85.55929810000001,36.1773021,0 -85.5588834,36.1772471,0 -85.55848930000001,36.1771503,0 -85.5584539,36.1771416,0 -85.55827909999999,36.1770867,0 -85.55807540000001,36.1770227,0 -85.5577153,36.1768609,0 -85.5573375,36.1766517,0 -85.5570855,36.176465,0 -85.5570499,36.1764331,0 -85.55689030000001,36.1762898,0 -85.5567302,36.1761558,0 -85.556625,36.1760677,0 -85.5551498,36.1747472,0 -85.55480350000001,36.1744595,0 -85.554658,36.1743652,0 -85.5544242,36.1742137,0 -85.5539442,36.1739616,0 -85.55357669999999,36.1738187,0 -85.5530797,36.1736586,0 -85.5527508,36.1735813,0 -85.5522611,36.173505,0 -85.55216729999999,36.1734984,0 -85.551776,36.173471,0 -85.551458,36.1734696,0 -85.5509689,36.173504,0 -85.55060880000001,36.1735412,0 -85.5503081,36.173586,0 -85.5495011,36.1736905,0 -85.54836229999999,36.1738434,0 -85.5478607,36.1739052,0 -85.54745990000001,36.1739272,0 -85.5471,36.1739293,0 -85.5467294,36.1739051,0 -85.5454654,36.1737602,0 -85.5448858,36.1737288,0 -85.5443909,36.1737044,0 -85.54351629999999,36.173663,0 -85.5429929,36.1735993,0 -85.5425881,36.1735254,0 -85.5422828,36.1734524,0 -85.5406236,36.1730555,0 -85.54033870000001,36.1730139,0 -85.5400442,36.1729908,0 -85.5396379,36.1730039,0 -85.5391566,36.1730558,0 -85.53853650000001,36.1731899,0 -85.53823939999999,36.1732627,0 -85.536985,36.1735318,0 -85.5361292,36.1737617,0 -85.5356688,36.1738431,0 -85.53517100000001,36.1738829,0 -85.5347197,36.1738893,0 -85.53428340000001,36.1738564,0 -85.5338472,36.1738033,0 -85.5334794,36.1737263,0 -85.5331163,36.1736272,0 -85.5327458,36.1734886,0 -85.53191889999999,36.1731478,0 -85.5303753,36.1724872,0 -85.52982609999999,36.1722508,0 -85.5296443,36.1721734,0 -85.5287955,36.171812,0 -85.5278381,36.171406,0 -85.52754109999999,36.17128,0 -85.5269618,36.1710367,0 -85.5259326,36.1706013,0 -85.5254777,36.170412,0 -85.52526520000001,36.1703206,0 -85.5244987,36.1699909,0 -85.5238401,36.1697038,0 -85.5231167,36.1694037,0 -85.5226845,36.1692453,0 -85.5222594,36.1691222,0 -85.521477,36.1689218,0 -85.5210526,36.1688051,0 -85.5207217,36.1686929,0 -85.52042179999999,36.1685503,0 -85.5201041,36.1683865,0 -85.5196151,36.1679853,0 -85.51936929999999,36.1677672,0 -85.51895089999999,36.167372,0 -85.51879099999999,36.1672096,0 -85.5186705,36.1670578,0 -85.5186532,36.1670294,0 -85.5184335,36.166669,0 -85.5183388,36.1664609,0 -85.5182788,36.166239,0 -85.5182583,36.166163,0 -85.5182121,36.1658922,0 -85.5181817,36.1656465,0 -85.5181548,36.1651909,0 -85.5181111,36.1649422,0 -85.51804559999999,36.1647041,0 -85.5178576,36.1643148,0 -85.5176477,36.1640007,0 -85.5175825,36.1639075,0 -85.51735499999999,36.1636717,0 -85.517278,36.1636093,0 -85.5169688,36.1633828,0 -85.5166933,36.1632339,0 -85.5164613,36.1631131,0 -85.516066,36.1629829,0 -85.5160154,36.1629702,0 -85.5152349,36.1627738,0 -85.51451110000001,36.1625894,0 -85.51395359999999,36.1624474,0 -85.513572,36.1623502,0 -85.51350840000001,36.162334,0 -85.51337289999999,36.1622995,0 -85.5129634,36.1621952,0 -85.51232640000001,36.1620429,0 -85.5121671,36.162002,0 -85.51211790000001,36.1619899,0 -85.5116659,36.1618836,0 -85.51129779999999,36.161797,0 -85.5110675,36.1617468,0 -85.5109965,36.1617331,0 -85.51091769999999,36.1617179,0 -85.51074920000001,36.1616892,0 -85.5105423,36.161661,0 -85.5103562,36.1616436,0 -85.5098885,36.1616176,0 -85.50951480000001,36.1616207,0 -85.5088279,36.161661,0 -85.5080932,36.1617194,0 -85.50802090000001,36.1617252,0 -85.5079295,36.1617318,0 -85.5076631,36.161751,0 -85.5072601,36.1617801,0 -85.5063877,36.1618387,0 -85.5055246,36.1619375,0 -85.50529539999999,36.1619739,0 -85.50502880000001,36.1620055,0 -85.5047761,36.1620302,0 -85.5047603,36.1620311,0 -85.5041782,36.1620629,0 -85.5039034,36.1620718,0 -85.5037224,36.1620766,0 -85.50293840000001,36.1620989,0 -85.5027231,36.162105,0 -85.5025918,36.1621085,0 -85.5022324,36.1621182,0 -85.502174,36.162116,0 -85.5019868,36.162109,0 -85.5016834,36.1620984,0 -85.5008287,36.1620302,0 -85.50036900000001,36.1619928,0 -85.5002507,36.1619832,0 -85.5001242,36.1619736,0 -85.49976220000001,36.1619461,0 -85.49941939999999,36.16192,0 -85.4993048,36.1619113,0 -85.4991708,36.1619055,0 -85.4988802,36.1618906,0 -85.49872190000001,36.1618831,0 -85.4984558,36.1618706,0 -85.4974411,36.1618391,0 -85.4965322,36.1618023,0 -85.4953469,36.1617435,0 -85.494812,36.1617361,0 -85.4941401,36.1617128,0 -85.49382180000001,36.1617018,0 -85.493512,36.1616897,0 -85.4932175,36.1616807,0 -85.49287750000001,36.1616649,0 -85.49284609999999,36.1616608,0 -85.4926554,36.1616359,0 -85.4924692,36.1615884,0 -85.49228909999999,36.1615447,0 -85.4922191,36.1615001,0 -85.49200089999999,36.161361,0 -85.4915219,36.1610287,0 -85.4910611,36.1607096,0 -85.48988850000001,36.1599269,0 -85.4892577,36.1595108,0 -85.4890261,36.1593557,0 -85.4889277,36.1592897,0 -85.48846,36.1589548,0 -85.4883088,36.1588449,0 -85.48655410000001,36.1576472,0 -85.4859146,36.157213,0 -85.48488519999999,36.1565139,0 -85.4847802,36.156447,0 -85.4837357,36.1557813,0 -85.48361,36.1557237,0 -85.48333479999999,36.1555977,0 -85.4831624,36.1555418,0 -85.4829179,36.1554982,0 -85.4825618,36.1554602,0 -85.4823736,36.1554429,0 -85.482086,36.1554224,0 -85.48205830000001,36.1554188,0 -85.4817919,36.1553841,0 -85.4816648,36.1553561,0 -85.48157639999999,36.1553366,0 -85.48131119999999,36.1552737,0 -85.48121519999999,36.1552466,0 -85.4810715,36.155206,0 -85.4809137,36.1551441,0 -85.48067810000001,36.1550517,0 -85.4801391,36.1548144,0 -85.4794218,36.1544876,0 -85.47917820000001,36.1543766,0 -85.47862550000001,36.1541248,0 -85.4772006,36.1535019,0 -85.47691949999999,36.1533764,0 -85.4766187,36.153242,0 -85.47618540000001,36.1530276,0 -85.47596969999999,36.1529209,0 -85.4752664,36.1525883,0 -85.475156,36.1525361,0 -85.4749039,36.1524169,0 -85.4731852,36.1516206,0 -85.4727706,36.1514263,0 -85.4720969,36.1510981,0 -85.4717709,36.1509349,0 -85.4716755,36.1508871,0 -85.470934,36.1504703,0 -85.4702873,36.1501644,0 -85.46985720000001,36.1499815,0 -85.4696732,36.1499032,0 -85.46960559999999,36.1498766,0 -85.4692301,36.1497254,0 -85.46903620000001,36.1496527,0 -85.4685731,36.1495132,0 -85.468458,36.1494786,0 -85.4680522,36.1493899,0 -85.4678668,36.1493493,0 -85.4673032,36.1492692,0 -85.46723369999999,36.1492594,0 -85.4659673,36.149133,0 -85.4655059,36.1490869,0 -85.4649593,36.1490323,0 -85.46452429999999,36.1489889,0 -85.4643674,36.1489703,0 -85.4640553,36.1489445,0 -85.4628658,36.1488232,0 -85.4627144,36.1488096,0 -85.4616875,36.1487175,0 -85.4611084,36.1486655,0 -85.4609655,36.1486462,0 -85.4605629,36.1485917,0 -85.4601878,36.1485048,0 -85.4597735,36.1483696,0 -85.4592933,36.1481814,0 -85.4590367,36.1480559,0 -85.4587465,36.147914,0 -85.45843309999999,36.1477299,0 -85.45837040000001,36.1476909,0 -85.4580892,36.147516,0 -85.4577007,36.1471665,0 -85.4574148,36.1468771,0 -85.4571321,36.1465203,0 -85.45706989999999,36.1464319,0 -85.4568689,36.1461459,0 -85.4566718,36.1457555,0 -85.456648,36.1456988,0 -85.45651169999999,36.1453747,0 -85.456478,36.1452383,0 -85.4564517,36.1451315,0 -85.4563771,36.1447834,0 -85.4563529,36.1445846,0 -85.4562492,36.1437323,0 -85.4562069,36.1434158,0 -85.45615239999999,36.1430702,0 -85.4560747,36.1427299,0 -85.4559086,36.1423342,0 -85.4557082,36.1419727,0 -85.4555416,36.1417204,0 -85.45529139999999,36.1413974,0 -85.4549057,36.1410449,0 -85.4545325,36.1407741,0 -85.4537394,36.1402712,0 -85.4534249,36.1400768,0 -85.4530863,36.1398086,0 -85.452735,36.1394781,0 -85.4523435,36.1390332,0 -85.4521057,36.1388436,0 -85.4516947,36.1382986,0 -85.4514875,36.1380401,0 -85.45118979999999,36.1376303,0 -85.4509499,36.1372984,0 -85.45074750000001,36.1370073,0 -85.45046619999999,36.1366064,0 -85.4499734,36.1358661,0 -85.4498165,36.1356747,0 -85.44949149999999,36.1351876,0 -85.4493367,36.1347914,0 -85.44929550000001,36.1344616,0 -85.4493332,36.1340786,0 -85.44946830000001,36.1336021,0 -85.4497495,36.1326492,0 -85.4499002,36.1319476,0 -85.4500967,36.1309668,0 -85.4501101,36.1305104,0 -85.4500542,36.1300799,0 -85.4498732,36.1286818,0 -85.4498249,36.1282708,0 -85.449834,36.1279057,0 -85.4498614,36.1276585,0 -85.44991899999999,36.1273576,0 -85.4500333,36.1269803,0 -85.4502062,36.1266127,0 -85.45039800000001,36.1262645,0 -85.4504965,36.1260927,0 -85.45079149999999,36.1256075,0 -85.45084129999999,36.1255301,0 -85.4514736,36.1245466,0 -85.4517227,36.1240772,0 -85.4517731,36.1239173,0 -85.4518085,36.1237712,0 -85.45184500000001,36.1234732,0 -85.4518229,36.1233399,0 -85.45178989999999,36.1231142,0 -85.4517053,36.1228576,0 -85.4515382,36.1225348,0 -85.45147609999999,36.1224147,0 -85.45122859999999,36.1219787,0 -85.45098280000001,36.1215457,0 -85.45079459999999,36.1211441,0 -85.4506931,36.1208097,0 -85.4506191,36.1204103,0 -85.45059139999999,36.1201284,0 -85.45063279999999,36.1197567,0 -85.450817,36.1181043,0 -85.45091650000001,36.1172999,0 -85.45092390000001,36.1172416,0 -85.45097010000001,36.1166818,0 -85.4509436,36.1162404,0 -85.45090999999999,36.1157899,0 -85.4508167,36.115284,0 -85.4507717,36.1150398,0 -85.4506957,36.1146276,0 -85.4505393,36.113714,0 -85.450487,36.1134573,0 -85.450422,36.1131628,0 -85.4503354,36.1128878,0 -85.4501894,36.1125523,0 -85.4500132,36.1122386,0 -85.449867,36.1120032,0 -85.4495847,36.111609,0 -85.4492917,36.1112137,0 -85.4489885,36.1108678,0 -85.4487828,36.1106267,0 -85.4486776,36.1105034,0 -85.4476343,36.1094499,0 -85.447261,36.1091129,0 -85.4472427,36.1090964,0 -85.4471666,36.1090354,0 -85.4470534,36.1089448,0 -85.4468128,36.108752,0 -85.44650590000001,36.1085154,0 -85.4457491,36.1079471,0 -85.4439101,36.1066977,0 -85.4399739,36.1040351,0 -85.4395335,36.1037909,0 -85.4390585,36.1035908,0 -85.43859500000001,36.1034606,0 -85.43818330000001,36.1033815,0 -85.43771700000001,36.103335,0 -85.4374608,36.1033315,0 -85.4371965,36.1033345,0 -85.43674969999999,36.1033629,0 -85.4359609,36.1034327,0 -85.4346453,36.103549,0 -85.4312283,36.103849,0 -85.4298436,36.1039758,0 -85.4283422,36.1041134,0 -85.4278881,36.104155,0 -85.4275415,36.1041868,0 -85.4271519,36.104224,0 -85.42691619999999,36.1042719,0 -85.4267416,36.1043212,0 -85.4235506,36.1051841,0 -85.4213841,36.1057,0 -85.4196273,36.1061183,0 -85.418738,36.10633,0 -85.41806,36.106523,0 -85.4175256,36.1067143,0 -85.41743460000001,36.1067515,0 -85.41658200000001,36.1070997,0 -85.41627699999999,36.1072001,0 -85.4159152,36.1072829,0 -85.41534559999999,36.1073527,0 -85.4146672,36.1074126,0 -85.4143169,36.1074435,0 -85.4140118,36.1074391,0 -85.41373919999999,36.1073955,0 -85.41353669999999,36.1073366,0 -85.4128266,36.1070683,0 -85.41247920000001,36.1069603,0 -85.4121394,36.1069109,0 -85.411017,36.10684,0 -85.40980759999999,36.1067593,0 -85.40910030000001,36.10672,0 -85.4037127,36.106775,0 -85.402826,36.106784,0 -85.4019753,36.106796,0 -85.40160880000001,36.1068207,0 -85.4011201,36.1068824,0 -85.40054360000001,36.1070243,0 -85.3986819,36.1075762,0 -85.39824369999999,36.1077051,0 -85.3980439,36.1077596,0 -85.3946186,36.1087458,0 -85.3934084,36.1091067,0 -85.3930457,36.1091776,0 -85.392706,36.1092116,0 -85.3923929,36.1092023,0 -85.3920569,36.1091622,0 -85.39034409999999,36.1086867,0 -85.3900539,36.1086559,0 -85.3895461,36.1086374,0 -85.3864265,36.1087629,0 -85.38612139999999,36.1087913,0 -85.3858407,36.1088458,0 -85.3854599,36.1089744,0 -85.3845312,36.1093364,0 -85.3843023,36.1094071,0 -85.3841003,36.1094473,0 -85.3839055,36.1094671,0 -85.3836323,36.1094803,0 -85.38326790000001,36.1094607,0 -85.3826826,36.1094106,0 -85.382431,36.1094106,0 -85.3817785,36.1094657,0 -85.3815353,36.109461,0 -85.38129739999999,36.109452,0 -85.3810167,36.1094062,0 -85.3807467,36.1093343,0 -85.37986119999999,36.1090552,0 -85.3795642,36.1089876,0 -85.3793455,36.1089592,0 -85.37912420000001,36.108968,0 -85.378865,36.1089985,0 -85.378614,36.1090574,0 -85.37736030000001,36.1094125,0 -85.3763318,36.1097056,0 -85.37605910000001,36.1097833,0 -85.3756379,36.109925,0 -85.37524380000001,36.1101257,0 -85.3748848,36.110359,0 -85.3731137,36.111888,0 -85.3724711,36.1124506,0 -85.3720986,36.1127815,0 -85.3706463,36.114025,0 -85.37041960000001,36.1141949,0 -85.37022519999999,36.1143129,0 -85.37006820000001,36.1143871,0 -85.3698904,36.1144251,0 -85.3697154,36.1144414,0 -85.3695051,36.1144393,0 -85.3690644,36.1143955,0 -85.3688112,36.1143846,0 -85.3686118,36.1144065,0 -85.3683735,36.1144502,0 -85.36817379999999,36.1144763,0 -85.36794709999999,36.1144567,0 -85.3673448,36.1143521,0 -85.3671209,36.1143195,0 -85.3665432,36.1142868,0 -85.3663272,36.1142584,0 -85.3660977,36.1141995,0 -85.365871,36.1141167,0 -85.36567669999999,36.1140207,0 -85.3654667,36.1138959,0 -85.36495309999999,36.1135713,0 -85.3646997,36.1134142,0 -85.36450240000001,36.1133119,0 -85.3643106,36.1132465,0 -85.3641568,36.1132312,0 -85.36396000000001,36.11324,0 -85.3636195,36.1133599,0 -85.36346570000001,36.113482,0 -85.3633334,36.1136391,0 -85.3631731,36.1139957,0 -85.36308529999999,36.1141406,0 -85.3629402,36.1143072,0 -85.36270740000001,36.1144861,0 -85.36238280000001,36.1146649,0 -85.3611803,36.1153126,0 -85.36090539999999,36.1154884,0 -85.36039,36.1159109,0 -85.36005780000001,36.1161083,0 -85.3597486,36.1162193,0 -85.35938969999999,36.116281,0 -85.3580803,36.1163643,0 -85.3574732,36.116392,0 -85.35700370000001,36.1163766,0 -85.3565303,36.1162933,0 -85.35580109999999,36.116096,0 -85.3555987,36.1160805,0 -85.3554231,36.1160775,0 -85.3552208,36.1161145,0 -85.3550032,36.116207,0 -85.3548466,36.1163211,0 -85.354713,36.1165031,0 -85.35450299999999,36.1168731,0 -85.3543236,36.1170921,0 -85.35411360000001,36.1172494,0 -85.3538197,36.1174036,0 -85.3534875,36.11753,0 -85.35262,36.117727,0 -85.3522162,36.1179001,0 -85.35191500000001,36.11807,0 -85.351174,36.1185632,0 -85.35097930000001,36.1187235,0 -85.35088759999999,36.11885,0 -85.3508265,36.1189764,0 -85.35080360000001,36.1191738,0 -85.35083040000001,36.11951,0 -85.3507998,36.119769,0 -85.3507235,36.1199787,0 -85.3505517,36.1202131,0 -85.35022720000001,36.1204752,0 -85.3485015,36.1217735,0 -85.3482114,36.1220788,0 -85.3480167,36.1223286,0 -85.3478716,36.1225877,0 -85.3477036,36.1229115,0 -85.3475929,36.1230502,0 -85.3474586,36.1232054,0 -85.3474331,36.1232299,0 -85.3473635,36.1232966,0 -85.3473006,36.1233568,0 -85.34691770000001,36.1236446,0 -85.3460353,36.1243079,0 -85.34521530000001,36.1249242,0 -85.3451419,36.1249794,0 -85.34489000000001,36.1251688,0 -85.3445104,36.1254602,0 -85.3438134,36.1259952,0 -85.34351940000001,36.1262789,0 -85.3431949,36.1265934,0 -85.3428589,36.1270128,0 -85.34195029999999,36.1283295,0 -85.3414616,36.1290572,0 -85.34133180000001,36.1293008,0 -85.3410951,36.1298682,0 -85.3408775,36.1301858,0 -85.3404767,36.1306853,0 -85.3390259,36.132409,0 -85.338436,36.1331325,0 -85.3380537,36.133589,0 -85.337892,36.1337687,0 -85.3376653,36.1339861,0 -85.3373957,36.1342035,0 -85.337143,36.1343808,0 -85.3368689,36.1345581,0 -85.33655570000001,36.1347173,0 -85.3362381,36.1348558,0 -85.33613130000001,36.1348931,0 -85.3358688,36.1349849,0 -85.3352477,36.1351516,0 -85.33403300000001,36.1354958,0 -85.3336441,36.1356027,0 -85.33329139999999,36.1356997,0 -85.3323425,36.1358454,0 -85.3316603,36.1359109,0 -85.3302973,36.1360065,0 -85.3297628,36.1360373,0 -85.3294803,36.1360373,0 -85.3279113,36.1359714,0 -85.32707190000001,36.1359361,0 -85.326994,36.1359322,0 -85.32620470000001,36.1358924,0 -85.325199,36.1357634,0 -85.32515239999999,36.1357574,0 -85.3249067,36.1357259,0 -85.32283409999999,36.135445,0 -85.3224101,36.1353876,0 -85.321833,36.1353094,0 -85.3203788,36.1351123,0 -85.3197565,36.1349797,0 -85.3193137,36.1348502,0 -85.3189014,36.1346991,0 -85.31867990000001,36.1346159,0 -85.3179469,36.1342767,0 -85.3171605,36.1339375,0 -85.31594800000001,36.1335377,0 -85.3152745,36.1333055,0 -85.3149615,36.1332438,0 -85.31462550000001,36.1332284,0 -85.31433149999999,36.1332746,0 -85.3140185,36.1333733,0 -85.31377790000001,36.1335004,0 -85.3134937,36.1337118,0 -85.3114483,36.135347,0 -85.3113845,36.1354084,0 -85.3110729,36.1357082,0 -85.3108706,36.1360135,0 -85.3106415,36.1365469,0 -85.31007270000001,36.1375551,0 -85.30967560000001,36.1380854,0 -85.30939309999999,36.1383845,0 -85.3088853,36.1388223,0 -85.3082631,36.1392632,0 -85.30773619999999,36.1395653,0 -85.3071674,36.1398336,0 -85.3065107,36.1400802,0 -85.3053081,36.1404101,0 -85.30472020000001,36.1404933,0 -85.3039605,36.1405581,0 -85.3033573,36.1405673,0 -85.3025975,36.1405149,0 -85.30192940000001,36.1404039,0 -85.3015048,36.1403117,0 -85.3010208,36.1402066,0 -85.3004739,36.1400373,0 -85.3003336,36.1399939,0 -85.2995586,36.1396794,0 -85.29942130000001,36.1396206,0 -85.2988442,36.1393733,0 -85.2984647,36.1392272,0 -85.2981575,36.1391316,0 -85.29793770000001,36.1390801,0 -85.29771650000001,36.1390368,0 -85.29746969999999,36.1390162,0 -85.2972132,36.1389991,0 -85.2958076,36.138927,0 -85.2951556,36.1389127,0 -85.2945584,36.1389186,0 -85.29256909999999,36.1389825,0 -85.29246910000001,36.1389857,0 -85.29164059999999,36.139035,0 -85.29137230000001,36.1390609,0 -85.2909267,36.1391306,0 -85.28847949999999,36.1396208,0 -85.2882919,36.139642,0 -85.2881359,36.1396486,0 -85.2876282,36.1396424,0 -85.28719289999999,36.1395931,0 -85.2867997,36.1395129,0 -85.2864027,36.1393958,0 -85.2861657,36.1393162,0 -85.2859375,36.1392135,0 -85.2856238,36.1390134,0 -85.2852573,36.1387483,0 -85.284755,36.138286,0 -85.2844073,36.1380171,0 -85.28436019999999,36.1379806,0 -85.2838181,36.1376445,0 -85.2834668,36.1374842,0 -85.283024,36.1373547,0 -85.28285080000001,36.1373264,0 -85.28261550000001,36.1372807,0 -85.28211810000001,36.1372686,0 -85.2816687,36.1372992,0 -85.2811907,36.137426,0 -85.2809073,36.1375198,0 -85.28072419999999,36.137599,0 -85.28070700000001,36.1376065,0 -85.2803246,36.1378068,0 -85.2799618,36.1380594,0 -85.27974879999999,36.1382768,0 -85.27936939999999,36.1386851,0 -85.27849449999999,36.1396003,0 -85.27772520000001,36.1404643,0 -85.27758900000001,36.1406156,0 -85.27752099999999,36.1406911,0 -85.27731199999999,36.1409013,0 -85.27680530000001,36.1413943,0 -85.2762492,36.1417911,0 -85.27587269999999,36.1420585,0 -85.2758151,36.1420994,0 -85.27564030000001,36.1422281,0 -85.2754673,36.1423555,0 -85.2746179,36.1429958,0 -85.2741941,36.1433067,0 -85.2737588,36.1436261,0 -85.2737509,36.1436318,0 -85.2729028,36.144251,0 -85.2720443,36.1448689,0 -85.27103630000001,36.1439456,0 -85.27096109999999,36.1438777,0 -85.2707973,36.1437299,0 -85.270655,36.1436015,0 -85.2704463,36.1434132,0 -85.2703556,36.1433339,0 -85.2699791,36.1430047,0 -85.26893800000001,36.1420635,0 -85.2682657,36.1414331,0 -85.2679632,36.1411477,0 -85.2679332,36.1411194,0 -85.26731220000001,36.1406043,0 -85.26716930000001,36.1404562,0 -85.26713700000001,36.1404227,0 -85.26704580000001,36.1403137,0 -85.2669844,36.1402357,0 -85.266874,36.1400501,0 -85.2668461,36.1400116,0 -85.2667768,36.139828,0 -85.26674920000001,36.1397228,0 -85.26673409999999,36.1396391,0 -85.26673220000001,36.1393564,0 -85.2667493,36.1392024,0 -85.2667837,36.1390476,0 -85.2670878,36.1382287,0 -85.2671378,36.1379759,0 -85.2671512,36.1377203,0 -85.2670189,36.1372073,0 -85.2666674,36.1367381,0 -85.26389349999999,36.1346536,0 -85.26250039999999,36.1336068,0 -85.2623069,36.1334614,0 -85.26196950000001,36.1331107,0 -85.26170569999999,36.1327445,0 -85.25996739999999,36.1295482,0 -85.257668,36.125064,0 -85.2568732,36.1241771,0 -85.25346829999999,36.1210514,0 -85.2507796,36.1186877,0 -85.2455049,36.1140503,0 -85.2451137,36.1138295,0 -85.24473500000001,36.1136727,0 -85.2443133,36.1135505,0 -85.24399459999999,36.1134971,0 -85.2422207,36.1133785,0 -85.2416776,36.1133493,0 -85.24006319999999,36.1132328,0 -85.2396767,36.1131831,0 -85.23932600000001,36.1131251,0 -85.2390367,36.1130686,0 -85.23874910000001,36.1129998,0 -85.237162,36.1125396,0 -85.2369006,36.1124333,0 -85.2366995,36.1123137,0 -85.2365071,36.1121727,0 -85.23634680000001,36.112027,0 -85.23621679999999,36.1118605,0 -85.23610290000001,36.1116788,0 -85.2360274,36.1114794,0 -85.2359787,36.1112584,0 -85.23597700000001,36.1112243,0 -85.23593459999999,36.1103737,0 -85.235905,36.109779,0 -85.2358539,36.1081979,0 -85.23583259999999,36.1075391,0 -85.2358199,36.107146,0 -85.2357604,36.1057642,0 -85.2357497,36.1052679,0 -85.23573450000001,36.1048493,0 -85.23569070000001,36.1038613,0 -85.23569790000001,36.1035942,0 -85.2357212,36.1033141,0 -85.2357562,36.1030236,0 -85.23579719999999,36.1027505,0 -85.2359558,36.101768,0 -85.2359965,36.1015513,0 -85.2360608,36.1012566,0 -85.2361099,36.1009241,0 -85.23623619999999,36.1002245,0 -85.23628650000001,36.0998813,0 -85.2364085,36.0993425,0 -85.2364766,36.098819,0 -85.23648660000001,36.0986107,0 -85.2364561,36.0983082,0 -85.2364176,36.0980058,0 -85.2363577,36.0977365,0 -85.2362432,36.0974076,0 -85.23596430000001,36.0968181,0 -85.23535149999999,36.096097,0 -85.2345547,36.0953283,0 -85.23399620000001,36.094811,0 -85.2328547,36.093719,0 -85.2308797,36.0917927,0 -85.2302997,36.0912283,0 -85.2299737,36.0908837,0 -85.2296721,36.0905331,0 -85.22939460000001,36.0901829,0 -85.22873869999999,36.0893396,0 -85.22783339999999,36.0881919,0 -85.22685319999999,36.0868685,0 -85.2259803,36.0857387,0 -85.2258185,36.0855419,0 -85.2256999,36.0853863,0 -85.2247838,36.0841848,0 -85.2233284,36.0822792,0 -85.2229056,36.0817338,0 -85.22278710000001,36.0815325,0 -85.2226065,36.0812255,0 -85.2225885,36.081195,0 -85.22240960000001,36.0806824,0 -85.2223202,36.0801435,0 -85.22227719999999,36.0787264,0 -85.2223039,36.078067,0 -85.2222917,36.0758618,0 -85.2222912,36.0752968,0 -85.22229110000001,36.0751039,0 -85.2222903,36.0742324,0 -85.2222898,36.0735993,0 -85.22228920000001,36.0729446,0 -85.2222889,36.0725859,0 -85.22230190000001,36.0714086,0 -85.2223055,36.0703537,0 -85.2222917,36.0692037,0 -85.22227479999999,36.0685963,0 -85.2222726,36.068524,0 -85.2222744,36.0681414,0 -85.2222728,36.0679072,0 -85.2222696,36.0674475,0 -85.22226879999999,36.0673315,0 -85.22226449999999,36.067092,0 -85.22225450000001,36.0665414,0 -85.2222446,36.06633,0 -85.2222412,36.0662569,0 -85.222179,36.06545,0 -85.2221385,36.0650989,0 -85.222071,36.0645634,0 -85.22204379999999,36.0643275,0 -85.22184350000001,36.0625933,0 -85.2216167,36.0607161,0 -85.2214388,36.0591938,0 -85.2213309,36.058317,0 -85.221183,36.0571065,0 -85.2210874,36.0567114,0 -85.22101979999999,36.0565211,0 -85.2209392,36.0563303,0 -85.2207902,36.0560525,0 -85.2207375,36.0559632,0 -85.22067010000001,36.0558486,0 -85.2204921,36.0555971,0 -85.2202901,36.055352,0 -85.2201397,36.0551808,0 -85.21997330000001,36.0550313,0 -85.2197386,36.0548395,0 -85.21952589999999,36.0546866,0 -85.219281,36.054538,0 -85.218622,36.0541763,0 -85.21504729999999,36.0524784,0 -85.21500450000001,36.0524581,0 -85.2138578,36.0518286,0 -85.2128491,36.0512048,0 -85.2119962,36.0506754,0 -85.2115325,36.0503635,0 -85.21151450000001,36.050352,0 -85.2095029,36.0490677,0 -85.20852069999999,36.0484406,0 -85.20804579999999,36.0481538,0 -85.2079382,36.0480888,0 -85.2075699,36.0478573,0 -85.2075359,36.04784,0 -85.2071653,36.047652,0 -85.20633239999999,36.047345,0 -85.2053834,36.0471133,0 -85.20402439999999,36.046762,0 -85.2016184,36.046165,0 -85.2006695,36.0459815,0 -85.19970929999999,36.0458341,0 -85.1988456,36.0457386,0 -85.197357,36.0456172,0 -85.1955092,36.0454936,0 -85.19355779999999,36.0453752,0 -85.1922799,36.0452966,0 -85.1865078,36.0448737,0 -85.18512080000001,36.0447642,0 -85.1842102,36.0446887,0 -85.181746,36.044477,0 -85.181021,36.04443,0 -85.180694,36.044409,0 -85.18044999999999,36.044392,0 -85.180244,36.044378,0 -85.177359,36.044177,0 -85.17708,36.044158,0 -85.176085,36.044105,0 -85.1744183,36.0439941,0 -85.17423599999999,36.043982,0 -85.173897,36.04396,0 -85.1733677,36.0439118,0 -85.17155990000001,36.0437472,0 -85.170806,36.043671,0 -85.1705887,36.043643,0 -85.1705116,36.0436296,0 -85.1698281,36.0435109,0 -85.1693554,36.0433476,0 -85.1689342,36.0431565,0 -85.1684873,36.0428612,0 -85.16820800000001,36.042604,0 -85.1677998,36.0421801,0 -85.16735439999999,36.041417,0 -85.16730099999999,36.041319,0 -85.166172,36.039117,0 -85.16568940000001,36.0382382,0 -85.16543179999999,36.0377724,0 -85.16449849999999,36.0360592,0 -85.16330000000001,36.03381,0 -85.1625296,36.0323539,0 -85.161874,36.031186,0 -85.1613923,36.0306027,0 -85.1603235,36.0296869,0 -85.158568,36.0284275,0 -85.15771719999999,36.0278142,0 -85.15742280000001,36.027602,0 -85.156988,36.0272885,0 -85.15637270000001,36.026845,0 -85.1559632,36.0265498,0 -85.15526730000001,36.0260439,0 -85.1548909,36.0257703,0 -85.1535203,36.024784,0 -85.1533081,36.0246313,0 -85.1528507,36.0242862,0 -85.1506828,36.0227624,0 -85.15036240000001,36.0225078,0 -85.1502313,36.0224115,0 -85.1454629,36.0189086,0 -85.14023640000001,36.0152493,0 -85.13880210000001,36.0142151,0 -85.1367517,36.0127466,0 -85.13505550000001,36.0114861,0 -85.1349536,36.0114279,0 -85.13093790000001,36.0085577,0 -85.13081200000001,36.0084753,0 -85.1303565,36.0081359,0 -85.12893010000001,36.0071032,0 -85.1274556,36.0060559,0 -85.1260891,36.005062,0 -85.1250162,36.0043056,0 -85.12482439999999,36.004165,0 -85.1244528,36.0038886,0 -85.123369,36.00309,0 -85.12235099999999,36.002372,0 -85.1218317,36.0020093,0 -85.1201221,36.0008029,0 -85.11867770000001,35.9997797,0 -85.1178685,35.9992755,0 -85.1170954,35.9988487,0 -85.1161184,35.9983638,0 -85.11513549999999,35.9979517,0 -85.1144912,35.9976872,0 -85.1106582,35.9961381,0 -85.1086631,35.9953489,0 -85.1080722,35.9951115,0 -85.10742279999999,35.9948522,0 -85.1071118,35.9947472,0 -85.1062769,35.9944651,0 -85.10555530000001,35.9943016,0 -85.1048564,35.9941887,0 -85.1042211,35.9941208,0 -85.1037642,35.9940923,0 -85.1032536,35.994078,0 -85.10228309999999,35.9941131,0 -85.09855810000001,35.9943263,0 -85.097694,35.9943674,0 -85.0969815,35.9943377,0 -85.0967143,35.9943175,0 -85.0956528,35.9941978,0 -85.0953834,35.9941645,0 -85.0952498,35.994148,0 -85.09510659999999,35.9941304,0 -85.0940916,35.9940118,0 -85.0926652,35.9938506,0 -85.09219950000001,35.9938479,0 -85.09178060000001,35.9939035,0 -85.0912134,35.9940401,0 -85.0908428,35.9941997,0 -85.0904979,35.9943769,0 -85.0899179,35.9947251,0 -85.08965689999999,35.9948706,0 -85.0880313,35.995795,0 -85.0875492,35.9960683,0 -85.0872792,35.9961982,0 -85.0868353,35.9963964,0 -85.0864468,35.9965296,0 -85.0860553,35.9966386,0 -85.08566,35.9967334,0 -85.0852345,35.9968018,0 -85.08445759999999,35.9968884,0 -85.0843086,35.9968924,0 -85.0838847,35.9968929,0 -85.08362,35.996878,0 -85.0831738,35.996841,0 -85.082753,35.9967769,0 -85.0826739,35.9967649,0 -85.081839,35.9965674,0 -85.08183080000001,35.9965653,0 -85.081335,35.9964368,0 -85.07890519999999,35.9958483,0 -85.078811,35.9958256,0 -85.07770410000001,35.9955405,0 -85.07665489999999,35.9951986,0 -85.0763345,35.9950599,0 -85.0760622,35.9949501,0 -85.0757112,35.9947688,0 -85.07514070000001,35.994504,0 -85.071354,35.9926475,0 -85.07072100000001,35.9922885,0 -85.0698131,35.9917749,0 -85.06853340000001,35.9909893,0 -85.06793500000001,35.9906088,0 -85.0668593,35.9898554,0 -85.0663512,35.9894682,0 -85.065552,35.9888591,0 -85.0643185,35.98785,0 -85.0601436,35.9844408,0 -85.0592449,35.9837022,0 -85.05855,35.9831032,0 -85.0573691,35.9821678,0 -85.05688000000001,35.9817803,0 -85.0555332,35.9806678,0 -85.05534369999999,35.9805304,0 -85.053814,35.9792695,0 -85.0534011,35.9789292,0 -85.0529916,35.9785824,0 -85.05244089999999,35.9781489,0 -85.0524034,35.9781194,0 -85.0515704,35.9774879,0 -85.0511862,35.9772171,0 -85.0507625,35.9769892,0 -85.05053959999999,35.9768715,0 -85.05019540000001,35.9766562,0 -85.049999,35.9765559,0 -85.0495975,35.9762028,0 -85.049267,35.9758501,0 -85.04901750000001,35.9755122,0 -85.048852,35.975264,0 -85.0486937,35.9749069,0 -85.04858400000001,35.974699,0 -85.0484872,35.9744457,0 -85.0481023,35.9736407,0 -85.0477005,35.9728005,0 -85.0475388,35.9724335,0 -85.0473993,35.9721168,0 -85.0466914,35.9705463,0 -85.04643249999999,35.9699718,0 -85.045754,35.9684666,0 -85.04566250000001,35.9682759,0 -85.0455233,35.967986,0 -85.04495180000001,35.9667952,0 -85.0446297,35.9661242,0 -85.0441879,35.9652037,0 -85.0439617,35.9647426,0 -85.0438073,35.964425,0 -85.04375279999999,35.9643129,0 -85.0436437,35.9640837,0 -85.0434046,35.9635815,0 -85.0433365,35.9634384,0 -85.0432023,35.9631561,0 -85.0431159,35.9629745,0 -85.0429939,35.9627111,0 -85.04285,35.9624359,0 -85.0425506,35.9618635,0 -85.042153,35.9611299,0 -85.0421643,35.9610484,0 -85.0419318,35.9605456,0 -85.0418193,35.9604792,0 -85.0417988,35.9605809,0 -85.04192519999999,35.9608495,0 -85.0420268,35.9610653,0 -85.042153,35.9611299,0 
			</coordinates>
		</LineString>
		<atom:link rel="app" href="https://www.google.com/earth/about/versions/#earth-pro" title="Google Earth Pro 7.3.6.10201"></atom:link>
	</Placemark>
</Document>
</kml>
