<?xml version="1.0" encoding="UTF-8"?>
<kml xmlns="http://www.opengis.net/kml/2.2" xmlns:gx="http://www.google.com/kml/ext/2.2" xmlns:kml="http://www.opengis.net/kml/2.2" xmlns:atom="http://www.w3.org/2005/Atom">
<Document>
	<name>US.74A.NC2.kml</name>
	<Placemark>
		<name>US.74A.NC2</name>
		<LineString>
			<tessellate>1</tessellate>
			<coordinates>
				-79.31085931917517,34.71629907045703,0 -79.30519568279371,34.71312657785796,0 -79.30337978489935,34.71214349112188,0 -79.29616907707471,34.70810466056302,0 -79.29311989704549,34.7063977328251,0 -79.29118365473266,34.70526366482088,0 -79.28921894126759,34.7044037818328,0 -79.28661254540243,34.70324544002926,0 -79.28385964915532,34.70202747843013,0 -79.28323754584011,34.70168629365956,0 -79.28173752979944,34.70078213255515,0 -79.27737946122676,34.69800034847481,0 -79.27517881613278,34.69666547628993,0 -79.27347702444615,34.69557841398814,0 -79.26739038147024,34.69175571200704,0 -79.26496820439783,34.69024621106288,0 -79.26398018093083,34.68961413830868,0 -79.2605359140982,34.68749271394906,0 -79.25973366667641,34.68688039190157,0 -79.2582616449549,34.68559380056299,0 -79.25736849466649,34.68469524276003,0 -79.2563109708515,34.68355197039358,0 -79.25483471459782,34.68207796557479,0 -79.25297283598444,34.68005586325748,0 -79.25159748471928,34.67878130802418,0 -79.25015590598456,34.67767217708496,0 -79.24868418755956,34.67675681343867,0 -79.24741849327076,34.67606198244301,0 -79.23496896363697,34.67059379247841,0 -79.22533505995737,34.6663549496423,0 -79.21598726522537,34.66258478189935,0 -79.21509086812553,34.66222448322978,0 -79.21412605872283,34.66167490783481,0 -79.2130679557911,34.66099321562158,0 -79.20901281762264,34.6575547137498,0 -79.20612850953393,34.65498957130411,0 -79.20443223028718,34.65357588723635,0 -79.20342672358224,34.65276325574376,0 -79.19589112094113,34.64794899317047,0 -79.1918054345781,34.64527997632919,0 -79.18566317620461,34.64102885458782,0 -79.18496936926594,34.64048016119711,0 -79.18423340285456,34.6398730217853,0 -79.18359649633722,34.63927762359831,0 -79.18235041303123,34.63798137794139,0 -79.18073746301579,34.63620697037997,0 -79.177496504649,34.63278508137066,0 -79.17685684320195,34.632220457072,0 -79.17556207691216,34.63122565558173,0 -79.17425268760988,34.63044005192743,0 -79.17164587933094,34.62887828697661,0 -79.16759791876589,34.62644052915376,0 -79.16682278478773,34.62600960983077,0 -79.16582583126191,34.62559145693461,0 -79.16117178183157,34.62360433165313,0 -79.15787933944654,34.62221835366313,0 -79.15679675295752,34.62183717623704,0 -79.15525729432174,34.62140191331995,0 -79.15142694203071,34.62039998114341,0 -79.14979410687782,34.6200075597977,0 -79.14834258197777,34.6197938655336,0 -79.14664682954174,34.61963175547112,0 -79.14031295783131,34.61916475829351,0 -79.13706491132652,34.61892096170452,0 -79.13565915751282,34.61871945604288,0 -79.13472614264666,34.6184619765493,0 -79.13376917227093,34.61812859591479,0 -79.13289385523422,34.61776675893734,0 -79.13190342453056,34.6171580066278,0 -79.13045166694111,34.61599773892006,0 -79.12326006284498,34.61012622579245,0 -79.12190938448065,34.60920503303458,0 -79.12110175202825,34.60869169437065,0 -79.12001411936843,34.60812666732679,0 -79.10978535217697,34.60390929595045,0 -79.10643412083833,34.60226652330906,0 -79.10185535776556,34.60026452434486,0 -79.09795675408434,34.59859460849196,0 -79.09408855299544,34.59692340222112,0 -79.09215416677007,34.59612287732705,0 -79.09084992429106,34.59523091246002,0 -79.08986269369575,34.59422411558632,0 -79.08898312709775,34.59281643052648,0 
			</coordinates>
		</LineString>
		<atom:link rel="app" href="https://www.google.com/earth/about/versions/#earth-pro" title="Google Earth Pro 7.3.6.10201"></atom:link>
	</Placemark>
</Document>
</kml>
