<?xml version="1.0" encoding="UTF-8"?>
<kml xmlns="http://www.opengis.net/kml/2.2" xmlns:gx="http://www.google.com/kml/ext/2.2" xmlns:kml="http://www.opengis.net/kml/2.2" xmlns:atom="http://www.w3.org/2005/Atom">
<Document>
	<name>US.73.kml</name>
	<Placemark>
		<name>US.73</name>
			<LineString>
				<coordinates>
					-94.88168090000001,39.0932639,0 -94.8816743,39.0938148,0 -94.8816582,39.0956051,0 -94.8816625,39.096363,0 -94.88164359999999,39.0971501,0 -94.88163520000001,39.0978136,0 -94.8816393,39.0986755,0 -94.881642,39.0988852,0 -94.88167269999998,39.0993633,0 -94.88167,39.0994689,0 -94.88169420000001,39.1000662,0 -94.88169259999999,39.1006398,0 -94.881708,39.101015,0 -94.881708,39.101585,0 -94.88168899999999,39.101902,0 -94.881698,39.102365,0 -94.88169599999999,39.102665,0 -94.881716,39.102957,0 -94.881754,39.103211,0 -94.88180199999999,39.103433,0 -94.881865,39.103649,0 -94.881997,39.103993,0 -94.88209500000002,39.104209,0 -94.882282,39.104533,0 -94.88251699999999,39.104859,0 -94.883021,39.105352,0 -94.883408,39.105708,0 -94.88484699999999,39.106996,0 -94.88525600000001,39.107374,0 -94.88570230000001,39.1077678,0 -94.885834,39.107884,0 -94.886957,39.108916,0 -94.887361,39.10927,0 -94.88976099999999,39.111447,0 -94.88999099999999,39.111644,0 -94.89007699999999,39.111724,0 -94.890773,39.1123567,0 -94.892494,39.1139195,0 -94.89435410000002,39.1156512,0 -94.895216,39.1164242,0 -94.8954425,39.1166108,0 -94.8970233,39.1180315,0 -94.8974023,39.1183902,0 -94.8981921,39.1190605,0 -94.8988161,39.1196301,0 -94.8991432,39.1199682,0 -94.8994726,39.1202982,0 -94.8997499,39.1206508,0 -94.900075,39.121052,0 -94.900358,39.121517,0 -94.900569,39.121958,0 -94.90073099999999,39.122373,0 -94.9007893,39.1225325,0 -94.90085209999998,39.1227396,0 -94.9009413,39.1230744,0 -94.90100090000001,39.123364,0 -94.9010509,39.12366,0 -94.9010863,39.1240162,0 -94.9011036,39.1242801,0 -94.901104,39.124558,0 -94.90107219999999,39.1264561,0 -94.90105559999999,39.1270445,0 -94.9010354,39.1277629,0 -94.90102419999999,39.1282892,0 -94.90101209999999,39.1286667,0 -94.90100559999999,39.1289643,0 -94.90097469999999,39.1308144,0 -94.90094259999999,39.1315897,0 -94.90093090000001,39.1320616,0 -94.9009073,39.1324878,0 -94.90087939999998,39.1328098,0 -94.9008431,39.1331317,0 -94.900795,39.13345,0 -94.90072199999999,39.133886,0 -94.90063159999998,39.134327,0 -94.9000831,39.1366705,0 -94.89999210000001,39.1371311,0 -94.8999184,39.1375966,0 -94.8998524,39.1381503,0 -94.89982669999999,39.1385488,0 -94.8998102,39.138912,0 -94.89980490000001,39.1393539,0 -94.8998036,39.1398415,0 -94.89983460000001,39.1403042,0 -94.89988959999998,39.1407928,0 -94.89993029999999,39.1411366,0 -94.8999858,39.1414551,0 -94.9003203,39.1432041,0 -94.9005432,39.1444415,0 -94.90061300000001,39.145036,0 -94.9006504,39.1454669,0 -94.90067100000002,39.1458193,0 -94.90068979999998,39.1462656,0 -94.90070060000001,39.1467823,0 -94.9006516,39.1505001,0 -94.9005997,39.1534729,0 -94.90059949999998,39.153486,0 -94.90053240000002,39.157832,0 -94.9004422,39.1650597,0 -94.90040050000002,39.171339,0 -94.9003869,39.1723845,0 -94.90035779999999,39.1755175,0 -94.90033429999998,39.1771271,0 -94.9003092,39.1796595,0 -94.90028870000002,39.1814576,0 -94.90026550000002,39.1843762,0 -94.9002407,39.1869321,0 -94.90022609999998,39.190564,0 -94.9002163,39.1925744,0 -94.90020680000001,39.1942,0 -94.90018739999998,39.197605,0 -94.9001876,39.1992442,0 -94.90017760000001,39.2018046,0 -94.90015970000002,39.2031431,0 -94.90014830000001,39.205584,0 -94.9001355,39.2072831,0 -94.90011080000001,39.2112321,0 -94.900094,39.2129515,0 -94.90007559999998,39.2160942,0 -94.90007799999998,39.218367,0 -94.9000563,39.2222019,0 -94.9000499,39.2233191,0 -94.9000465,39.2247663,0 -94.9000429,39.2258132,0 -94.90003110000001,39.226979,0 -94.90001959999999,39.2286585,0 -94.90000689999999,39.2292367,0 -94.8999963,39.2306485,0 -94.8999726,39.2330584,0 -94.8999651,39.2338215,0 -94.89995879999999,39.2345744,0 -94.8999613,39.2352878,0 -94.89999160000001,39.2359566,0 -94.9000798,39.2379025,0 -94.9001647,39.2410179,0 -94.90018139999999,39.2416326,0 -94.9001852,39.2432242,0 -94.90013219999999,39.24465,0 -94.9001142,39.2451705,0 -94.90010890000001,39.2452641,0 -94.90006619999998,39.2460146,0 -94.9000262,39.2466873,0 -94.8999992,39.2477122,0 -94.89997820000001,39.2494415,0 -94.8999713,39.2497889,0 -94.89997870000001,39.2501446,0 -94.89998850000002,39.2510858,0 -94.89998869999999,39.2513613,0 -94.9000049,39.2516801,0 -94.90005680000002,39.2517876,0 -94.9000521,39.2523099,0 -94.90004130000001,39.2527432,0 -94.9000322,39.2531056,0 -94.90001669999999,39.2537639,0 -94.90001329999998,39.2539109,0 -94.90007319999999,39.2540021,0 -94.90007559999998,39.2542522,0 -94.90007389999998,39.254557,0 -94.9000197,39.2546529,0 -94.90001289999999,39.2557891,0 -94.9000123,39.2558321,0 -94.9000082,39.2561095,0 -94.90000000000001,39.2566653,0 -94.89999140000002,39.257249,0 -94.8999749,39.2583834,0 -94.89997080000001,39.2586609,0 -94.8999625,39.2592241,0 -94.8999547,39.2597419,0 -94.8999496,39.2600796,0 -94.8999353,39.2610543,0 -94.8999287,39.2615009,0 -94.8999232,39.2618709,0 -94.8999221,39.2619458,0 -94.89991190000001,39.2626354,0 -94.8999082,39.2628864,0 -94.8999012,39.2644245,0 -94.89985419999999,39.2669673,0 
				
					-94.89985419999999,39.2669673,0 -94.89985059999999,39.2672626,0 -94.8998466,39.267597,0 -94.899846,39.2676472,0 -94.89984509999999,39.2679298,0 -94.89984490000001,39.2679933,0 -94.8998429,39.2685544,0 -94.8998349,39.2687038,0 -94.8998309,39.2694916,0 -94.89982999999999,39.2696762,0 -94.89982910000002,39.2698576,0 -94.899828,39.270066,0 -94.89981899999999,39.2704414,0 -94.89981539999999,39.2705943,0 -94.8998139,39.2708562,0 -94.8998134,39.270942,0 -94.899798,39.272313,0 -94.8997902,39.2729563,0 -94.89978600000001,39.2733017,0 -94.8997777,39.2739173,0 -94.89976969999999,39.274282,0 -94.899755,39.2761242,0 -94.899743,39.277209,0 -94.89975709999999,39.2775936,0 -94.89977490000001,39.2777057,0 -94.89979739999998,39.2778108,0 -94.8998203,39.2778953,0 -94.89986210000001,39.2780167,0 -94.8999036,39.2781101,0 -94.89997080000001,39.2782395,0 -94.899997,39.27829,0 -94.90045799999999,39.278994,0 -94.9010952,39.2799724,0 -94.90151400000002,39.2806155,0 -94.90182550000002,39.2810874,0 -94.9021302,39.2815545,0 -94.90258969999999,39.2822588,0 -94.90263099999999,39.282328,0 -94.902739,39.282496,0 -94.90370169999998,39.2839801,0 -94.9037865,39.2841103,0 -94.90381420000001,39.28416,0 -94.90430259999999,39.2849222,0 -94.90467580000001,39.2855291,0 -94.90488850000001,39.2858665,0 -94.9049066,39.2858952,0 -94.9049258,39.2859255,0 -94.9050795,39.2861693,0 -94.90530750000001,39.2865309,0 -94.90532250000001,39.2865547,0 -94.90582900000001,39.287358,0 -94.9061592,39.287905,0 -94.90630400000001,39.288145,0 -94.9064231,39.2883383,0 -94.90665799999999,39.2887253,0 -94.90706900000001,39.289652,0 -94.90743299999998,39.290556,0 -94.9075503,39.2908475,0 -94.90757979999998,39.2909209,0 -94.9076915,39.2911985,0 -94.90778899999998,39.291441,0 -94.90815599999999,39.292351,0 -94.908359,39.2928974,0 -94.90849670000001,39.2932679,0 -94.9085843,39.2934853,0 -94.908674,39.2937077,0 -94.90874239999999,39.2938774,0 -94.90875170000001,39.2939016,0 -94.9088622,39.2941899,0 -94.9088952,39.2943018,0 -94.9089333,39.2944309,0 -94.90894520000001,39.2944934,0 -94.908987,39.29474,0 -94.90898240000001,39.2950912,0 -94.90897029999999,39.2956228,0 -94.90896509999999,39.295851,0 -94.9089632,39.2959319,0 -94.90896119999999,39.2960123,0 -94.90895829999999,39.2962285,0 -94.9089565,39.296358,0 -94.90895,39.2968416,0 -94.9089395,39.2974971,0 -94.9089352,39.2977627,0 -94.90892700000001,39.298273,0 -94.90891650000002,39.2988861,0 -94.90891530000002,39.2989556,0 -94.90891379999999,39.2990439,0 -94.9089103,39.2992444,0 -94.908906,39.2994931,0 -94.90890439999998,39.2995875,0 -94.90889980000001,39.2998546,0 -94.90889789999999,39.2999637,0 -94.9088958,39.3000893,0 -94.90888899999999,39.300485,0 -94.90888169999999,39.3009136,0 -94.9088752,39.3012965,0 -94.90885950000001,39.3022202,0 -94.9088672,39.3023881,0 -94.908878,39.3026246,0 -94.90888750000001,39.3026682,0 -94.90893029999999,39.3028658,0 -94.9090005,39.3030888,0 -94.9090231,39.3031406,0 -94.9092282,39.3036666,0 -94.9096229,39.3045766,0 -94.9098256,39.3050386,0 -94.90989079999999,39.3051867,0 -94.90997710000002,39.3053826,0 -94.91004839999999,39.3055447,0 -94.91030739999999,39.3060486,0 -94.9105619,39.3065439,0 -94.9107691,39.3070281,0 -94.9109673,39.3075239,0 -94.91116609999999,39.3080415,0 -94.91135370000001,39.3085298,0 -94.911946,39.309879,0 -94.91202510000001,39.3101864,0 -94.91207060000001,39.3103953,0 -94.91218619999998,39.3109074,0 -94.91229509999999,39.3114051,0 -94.9123,39.3114277,0 -94.91241209999998,39.3119401,0 -94.91252059999999,39.3124361,0 -94.91255320000002,39.3125853,0 -94.91263619999998,39.3129647,0 -94.91267929999999,39.3131495,0 -94.912724,39.3133411,0 -94.9127512,39.3134578,0 -94.91286279999998,39.3140006,0 -94.9128984,39.314162,0 -94.91295750000002,39.3144298,0 -94.91297580000001,39.3145046,0 -94.9130911,39.3149758,0 -94.91313459999999,39.3151345,0 -94.91318819999999,39.3153679,0 -94.91332720000001,39.3159938,0 -94.91341250000001,39.3163777,0 -94.9134964,39.3167841,0 -94.9135041,39.3168215,0 -94.91359699999998,39.3172719,0 -94.9136836,39.3177107,0 -94.9137692,39.3181439,0 -94.9138739,39.3186159,0 -94.9138798,39.3186425,0 -94.91397139999999,39.3190558,0 -94.9140573,39.3194756,0 -94.91407359999999,39.3195514,0 -94.91415349999998,39.3199224,0 -94.91421720000001,39.320227,0 -94.91424600000001,39.3203647,0 -94.9143407,39.3208179,0 -94.91443780000002,39.3212441,0 -94.9144785,39.3214223,0 -94.9145357,39.3216733,0 -94.91456319999999,39.3218146,0 -94.9146023,39.3220148,0 -94.91462499999999,39.3221314,0 -94.91470940000001,39.3225644,0 -94.9148043,39.3230142,0 -94.91489970000001,39.3234661,0 -94.91501169999999,39.3238981,0 -94.91510840000001,39.3243414,0 -94.9151926,39.3247723,0 -94.91529079999998,39.3252176,0 -94.9153692,39.3256163,0 -94.91537709999999,39.3256563,0 -94.91538840000001,39.3257164,0 -94.91546649999999,39.3261053,0 -94.91566090000001,39.326981,0 -94.91573339999999,39.3273339,0 -94.91574979999999,39.3274091,0 -94.91578370000001,39.3275595,0 -94.9158547,39.3278539,0 -94.9158389,39.3279687,0 -94.9158489,39.3280328,0 -94.915919,39.3284797,0 -94.9159418,39.3286253,0 -94.9160577,39.3286127,0 -94.9161897,39.3286,0 -94.91666899999998,39.328554,0 -94.9171053,39.3285213,0 -94.91758269999998,39.3284912,0 -94.91806990000001,39.3284705,0 -94.91914639999999,39.3284248,0 -94.9195201,39.3284068,0 -94.9196208,39.3284019,0 -94.9196986,39.3283981,0 -94.9197506,39.3283951,0 -94.92059260000001,39.3283544,0 -94.92074509999999,39.328347,0 -94.92089439999999,39.3283407,0 -94.92153709999999,39.3283137,0 -94.92165120000001,39.3283089,0 -94.92217599999998,39.3282866,0 -94.92225980000001,39.328283,0 -94.9228239,39.3282588,0 -94.92297050000002,39.3282525,0 -94.9235211,39.3282288,0 -94.92425950000001,39.3282002,0 -94.92480860000001,39.328179,0 -94.9253686,39.3281512,0 -94.92576879999999,39.3281313,0 -94.9260397,39.3281219,0 -94.92694479999999,39.3280816,0 -94.92732050000001,39.3280649,0 -94.92820829999999,39.3280286,0 -94.9287382,39.3280077,0 -94.9292816,39.327985,0 -94.92950620000002,39.3279756,0 -94.9296293,39.3279704,0 -94.929912,39.3279586,0 -94.93011889999998,39.3279499,0 -94.93036040000001,39.3279398,0 -94.9304087,39.3279387,0 -94.9309629,39.3279147,0 -94.93101369999998,39.3279123,0 -94.93211030000001,39.3278603,0 -94.93265,39.3278456,0 -94.93324269999999,39.3278197,0 -94.93370460000001,39.3277995,0 -94.9342604,39.3277752,0 -94.9348148,39.3277509,0 -94.9351293,39.32774,0 -94.9354688,39.3277241,0 -94.9360995,39.3276882,0 -94.93660530000001,39.3276627,0 -94.937551,39.3276122,0 -94.93766229999999,39.3276072,0 -94.93826,39.3275863,0 -94.9390267,39.3275731,0 -94.9398041,39.3275971,0 -94.9406305,39.3276305,0 -94.94153489999999,39.3276941,0 -94.9434675,39.3278869,0 -94.94445370000001,39.3279773,0 -94.9451026,39.328045,0 -94.9454707,39.3280835,0 -94.94789529999998,39.3283202,0 -94.9493961,39.3284443,0 -94.94977160000001,39.3284858,0 -94.9502933,39.3285532,0 -94.9508471,39.3286694,0 -94.9514278,39.3288416,0 -94.9516679,39.3289237,0 -94.95207689999999,39.3290916,0 -94.952718,39.329407,0 -94.95346499999999,39.3298904,0 -94.95384319999999,39.3301902,0 -94.9542589,39.3305885,0 -94.9545325,39.3309101,0 -94.9549159,39.3314311,0 -94.9553653,39.33208,0 -94.95596740000002,39.3329306,0 -94.95694159999998,39.3342947,0 -94.9577049,39.3353701,0 -94.95876680000001,39.3368661,0 -94.95974849999999,39.3382737,0 -94.95986380000001,39.3384365,0 -94.96016469999999,39.3389044,0 -94.9604812,39.3394085,0 -94.96066890000002,39.3397415,0 -94.960791,39.3399852,0 -94.96097469999999,39.3404177,0 -94.96111550000001,39.3408139,0 -94.96132609999999,39.3414995,0 -94.9617351,39.3429007,0 -94.9619363,39.3435759,0 -94.9620637,39.3439638,0 -94.96215219999999,39.3441899,0 -94.96226489999999,39.3444264,0 -94.9624231,39.3447189,0 -94.96260280000001,39.3449979,0 -94.9627689,39.34523,0 -94.96314599999999,39.3456595,0 -94.963555,39.3460485,0 -94.96389430000001,39.3463181,0 -94.96422149999999,39.3465452,0 -94.9647172,39.34684,0 -94.9651482,39.3470524,0 -94.9681049,39.3483497,0 -94.96922979999999,39.3488438,0 -94.971265,39.3497379,0 -94.97194099999999,39.3500345,0 -94.9750416,39.3513857,0 -94.9773199,39.3523887,0 -94.9782053,39.3527764,0 -94.97870519999999,39.3529664,0 -94.97910779999999,39.3531051,0 -94.979462,39.3532194,0 -94.97972470000002,39.3532889,0 -94.98007610000002,39.3533779,0 -94.9804105,39.353453,0 -94.98079490000002,39.3535282,0 -94.981149,39.3535828,0 -94.98164079999999,39.353642,0 -94.98194429999999,39.3536724,0 -94.9822934,39.3536951,0 -94.98292200000002,39.353712,0 -94.98757639999998,39.3536813,0 -94.99064430000001,39.353661,0 -94.99235299999999,39.3536527,0 -94.99475009999999,39.3536375,0 -94.99500070000001,39.3536359,0 -94.99568889999999,39.3536316,0 -94.9966682,39.3536253,0 -95.00030370000002,39.3536003,0 -95.00213300000001,39.3535877,0 -95.002805,39.353607,0 -95.00336899999999,39.353659,0 -95.004034,39.35377,0 -95.00468100000001,39.353935,0 -95.005302,39.354152,0 -95.005813,39.354382,0 -95.00589099999999,39.354417,0 -95.006441,39.354729,0 -95.00694499999999,39.355084,0 -95.00740879999999,39.3554349,0 -95.015078,39.361238,0 -95.01552100000001,39.361537,0 -95.0158591,39.3617362,0 -95.0162547,39.3619415,0 -95.0167429,39.3621478,0 -95.0172646,39.3623251,0 -95.01756899999999,39.3624164,0 -95.0179794,39.3625159,0 -95.01843270000001,39.3625957,0 -95.0187478,39.3626372,0 -95.01907509999998,39.3626662,0 -95.01939830000001,39.3626849,0 -95.01973089999998,39.3626942,0 -95.0206529,39.3627112,0 -95.02260889999999,39.3627471,0 -95.0249625,39.3627938,0 -95.02618219999999,39.3628203,0 -95.0272585,39.3628436,0 -95.0277627,39.3628695,0 -95.02835279999999,39.3629224,0 -95.0289416,39.3630012,0 -95.02944720000001,39.3630758,0 -95.02994199999999,39.3631712,0 -95.03069169999999,39.3633412,0 -95.03369579999999,39.364151,0 -95.0357128,39.3646892,0 -95.03678969999999,39.3649432,0 -95.03812510000002,39.3652045,0 -95.03878789999999,39.3652983,0 -95.03913990000001,39.3653401,0 -95.0396645,39.3654025,0 -95.0425645,39.3657472,0 -95.043396,39.3658649,0 -95.0440504,39.3660028,0 -95.04456680000001,39.3661272,0 -95.04470890000002,39.3661651,0 -95.0451314,39.3662776,0 -95.0455954,39.3664248,0 -95.046527,39.366758,0 -95.0472791,39.367095,0 -95.04737699999998,39.3671385,0 -95.048177,39.367536,0 -95.04875699999999,39.367873,0 -95.04913100000002,39.36811,0 -95.04979470000001,39.368596,0 -95.05095799999999,39.369617,0 -95.05152499999998,39.370228,0 -95.05179200000001,39.370545,0 -95.05210130000002,39.3709722,0 -95.05225100000001,39.371179,0 -95.05425400000001,39.374089,0 -95.05639200000002,39.377277,0 -95.05667699999999,39.3778,0 -95.05691199999998,39.37832,0 -95.057068,39.378733,0 -95.05718299999999,39.379128,0 -95.05726900000001,39.379527,0 -95.05732770000002,39.379906,0 -95.05745400000001,39.381309,0 -95.05761099999999,39.382556,0 -95.0576496,39.3827394,0 -95.05777300000001,39.383683,0 -95.05781899999999,39.384443,0 -95.05782470000001,39.3845271,0 -95.05782720000002,39.384563,0 -95.05784199999999,39.38478,0 -95.057863,39.38531,0 -95.057864,39.385739,0 -95.0577775,39.387445,0 -95.05752139999998,39.3892133,0 -95.05731849999999,39.393455,0 -95.0573024,39.39402,0 -95.0574471,39.3948769,0 -95.0575716,39.3954381,0 -95.05775730000001,39.3959992,0 -95.0580159,39.3965888,0 -95.05820249999999,39.3969254,0 -95.0584526,39.3973247,0 -95.0586912,39.397679,0 -95.05907319999999,39.3981548,0 -95.0595059,39.3986083,0 -95.05996469999999,39.3990549,0 -95.06042160000001,39.3994088,0 -95.0607727,39.3996883,0 -95.0626185,39.4008986,0 -95.06348180000001,39.4014971,0 -95.0639165,39.4018359,0 -95.06435489999998,39.4022182,0 -95.06487730000001,39.4027841,0 -95.0652968,39.4033101,0 -95.06566649999999,39.4038584,0 -95.06599579999998,39.4044606,0 -95.0662282,39.4050138,0 -95.0664068,39.4056164,0 -95.06654210000001,39.4061657,0 -95.06661289999998,39.4066475,0 -95.0666363,39.4071237,0 -95.06665159999999,39.4095344,0 -95.066568,39.4117173,0 -95.0665478,39.4174191,0 -95.06660470000001,39.4181918,0 -95.0667304,39.4189698,0 -95.06685129999998,39.4194369,0 -95.0671997,39.4202865,0 -95.06753210000001,39.420872,0 -95.06831989999999,39.4219446,0 -95.0726215,39.4262564,0 -95.07363390000002,39.4272619,0 -95.07440219999999,39.4278903,0 -95.075637,39.4287939,0 -95.0767944,39.4294454,0 -95.07777530000001,39.4298546,0 -95.0858755,39.4328515,0 -95.08702239999998,39.4333079,0 -95.08818580000001,39.4338426,0 -95.08871940000002,39.4341535,0 -95.08923230000001,39.4344908,0 -95.08973210000001,39.4348506,0 -95.0901605,39.4352248,0 -95.09067520000001,39.4357049,0 -95.0911323,39.4362667,0 -95.0916805,39.4370502,0 -95.0921292,39.437903,0 -95.092399,39.4385866,0 -95.09251810000001,39.4390404,0 -95.09285769999998,39.4408742,0 -95.0935696,39.4450352,0 -95.09427770000002,39.4473923,0 -95.0944745,39.4481345,0 -95.0945696,39.4513549,0 -95.09457790000002,39.4541393,0 -95.09459740000001,39.4606933,0 -95.09458560000002,39.4627417,0 -95.09481309999998,39.4667564,0 -95.0949569,39.4675417,0 -95.0954455,39.4686433,0 -95.0959177,39.4693436,0 -95.09662779999999,39.4702147,0 -95.09715739999999,39.4706759,0 -95.0974792,39.4709782,0 -95.09766700000002,39.4711314,0 -95.0978386,39.4712639,0 -95.0982356,39.4715786,0 -95.09873720000002,39.4719472,0 -95.10044310000001,39.4731149,0 -95.101355,39.4738541,0 -95.1021597,39.4745622,0 -95.10268540000001,39.4750922,0 -95.10370200000001,39.4761564,0 -95.10511150000001,39.477677,0 -95.1059611,39.4786025,0 -95.10773699999999,39.480537,0 -95.10933300000001,39.481863,0 -95.110071,39.482321,0 -95.11260369999999,39.4834231,0 -95.1139603,39.4839017,0 -95.115032,39.484171,0 -95.11565200000001,39.484308,0 -95.11715800000002,39.484536,0 -95.12163709999999,39.4848078,0 -95.1220537,39.4848244,0 -95.12236119999999,39.4848459,0 -95.12286899999999,39.4848874,0 -95.1234311,39.4849616,0 -95.1240567,39.4850613,0 -95.12524500000001,39.485358,0 -95.12589079999998,39.4855893,0 -95.1264043,39.4857922,0 -95.12669829999999,39.4859235,0 -95.1271902,39.4861656,0 -95.12759149999999,39.4863875,0 -95.12791110000001,39.4865887,0 -95.1285652,39.4870474,0 -95.1290046,39.4874038,0 -95.12908119999999,39.4874741,0 -95.1292504,39.487623,0 -95.1295222,39.4878938,0 -95.12985530000002,39.4882546,0 -95.1301778,39.4886581,0 -95.13048139999999,39.4890901,0 -95.13093369999999,39.4898873,0 -95.1311096,39.4903213,0 -95.13127440000001,39.4907937,0 -95.13148080000002,39.4917176,0 -95.13158240000001,39.492394,0 -95.1316289,39.4928733,0 -95.13172230000001,39.4939866,0 -95.13214499999999,39.4982728,0 -95.13215369999999,39.4984063,0 -95.13220219999999,39.4988718,0 -95.1322266,39.499066,0 -95.1322918,39.4998213,0 -95.13245499999998,39.5009166,0 -95.1325202,39.5019489,0 -95.13284590000001,39.5060404,0 -95.13288439999999,39.5139685,0 -95.13287269999999,39.5169513,0 -95.13289589999999,39.5205825,0 -95.1329197,39.5231475,0 -95.13292300000001,39.5261145,0 -95.132903,39.5296432,0 -95.1328942,39.5305973,0 -95.13286770000001,39.5314628,0 -95.13293880000001,39.533301,0 -95.13290749999999,39.5340685,0 -95.13282169999999,39.5348313,0 -95.13278040000002,39.5350882,0 -95.132682,39.5357011,0 -95.1324888,39.5365746,0 
				
					-95.1324888,39.5365746,0 -95.13239689999999,39.5375204,0 -95.1322274,39.5387865,0 -95.13221110000001,39.5389085,0 -95.1321741,39.5390864,0 -95.13199330000002,39.5399569,0 -95.1317478,39.5408914,0 -95.13151700000002,39.541473,0 -95.13070179999998,39.5436219,0 -95.1300584,39.5453467,0 -95.12977840000001,39.5462103,0 -95.12960579999999,39.5470724,0 -95.12947610000001,39.547827,0 -95.12941069999999,39.5484733,0 -95.12940700000001,39.5491124,0 -95.12942600000001,39.5514619,0 -95.1294204,39.5528049,0 -95.1293769,39.5533073,0 -95.1293123,39.5536176,0 -95.12919290000001,39.5539417,0 -95.12907099999998,39.5541566,0 -95.1289166,39.5544063,0 -95.1284502,39.554991,0 -95.12787069999999,39.5557539,0 -95.12775379999999,39.555933,0 -95.1276541,39.5561198,0 -95.1275543,39.5563506,0 -95.1274816,39.5565703,0 -95.1274303,39.5568341,0 -95.12734399999999,39.5574583,0 -95.1273486,39.5578361,0 -95.12734700000001,39.5582302,0 -95.12734589999999,39.5584843,0 -95.1273455,39.558578,0 -95.12756899999999,39.5585307,0 -95.1277913,39.5584836,0 -95.12826560000002,39.5583831,0 -95.1286307,39.5583066,0 -95.1289345,39.5582593,0 -95.12945120000001,39.5581849,0 -95.12956400000002,39.5581611,0 -95.1318251,39.5576844,0 -95.1342642,39.5571713,0 -95.1349561,39.5570617,0 -95.13549879999999,39.5569757,0 -95.1355714,39.5569703,0 -95.1359003,39.5569459,0 -95.13607810000001,39.5569327,0 -95.13663940000001,39.556891,0 -95.1393781,39.5569405,0 -95.14153570000001,39.5569961,0 -95.14348600000001,39.5569537,0 -95.14451160000002,39.5567968,0 -95.1451129,39.5566979,0 -95.14634789999999,39.5563857,0 -95.1474214,39.5560707,0 -95.14851729999999,39.5557491,0 -95.1498199,39.5553669,0 -95.15074920000001,39.5550942,0 -95.15095090000001,39.5550325,0 -95.1513424,39.5549114,0 -95.15168809999999,39.5548045,0 -95.15214819999998,39.5546291,0 -95.1529644,39.554323,0 -95.1529632,39.5546037,0 -95.15290899999999,39.5546968,0 -95.1529098,39.554823,0 -95.15291089999998,39.5549991,0 -95.15291160000001,39.5551015,0 -95.15291430000001,39.5555207,0 -95.1529541,39.5556345,0 -95.15295729999998,39.5559877,0 -95.153654,39.5559943,0 -95.15382099999999,39.5559968,0 -95.1549732,39.5560248,0 -95.15595690000002,39.5561323,0 -95.15726650000001,39.5563584,0 -95.1598906,39.5569104,0 -95.1609297,39.5571019,0 -95.16196580000002,39.5571828,0 -95.1624285,39.5572189,0 -95.1658959,39.5571757,0 -95.1705606,39.5571696,0 -95.1707838,39.5571637,0 -95.1718338,39.5571359,0 -95.17906720000001,39.5570532,0 -95.1818238,39.5571248,0 -95.19624019999999,39.557499,0 -95.1982733,39.5575233,0 -95.1989681,39.5575606,0 -95.2028451,39.5576689,0 -95.2065078,39.5575737,0 -95.213882,39.5571699,0 -95.2178117,39.5569865,0 -95.22348799999999,39.5566996,0 -95.22404270000001,39.5566646,0 -95.22886990000001,39.5564465,0 -95.22989990000001,39.5564217,0 -95.23522490000001,39.5564704,0 -95.24191119999999,39.5566008,0 -95.244845,39.556658,0 -95.24513600000002,39.5566637,0 -95.2475208,39.5567102,0 -95.25265949999998,39.5567902,0 -95.254026,39.5568121,0 -95.26777620000001,39.5570589,0 -95.2725142,39.5571205,0 -95.290001,39.5572389,0 -95.2982233,39.5572795,0 -95.29931410000002,39.557424,0 -95.30041079999998,39.5576348,0 -95.30173009999999,39.558079,0 -95.3030402,39.5587147,0 -95.30395790000001,39.5593201,0 -95.3048399,39.560003,0 -95.3055938,39.5607996,0 -95.3062767,39.5617385,0 -95.30678880000001,39.5627486,0 -95.30711600000001,39.5638297,0 -95.3072725,39.5648824,0 -95.30727690000001,39.5650024,0 -95.30729020000001,39.5654966,0 -95.3072186,39.5673048,0 -95.3072178,39.5684468,0 -95.30718520000001,39.5728405,0 -95.3072281,39.5735508,0 -95.30739119999998,39.5744747,0 -95.3076744,39.5752553,0 -95.3080521,39.5759632,0 -95.30879880000001,39.5770534,0 -95.30941249999998,39.5777356,0 -95.310315,39.5784612,0 -95.31061409999998,39.5786774,0 -95.31119459999999,39.5790582,0 -95.3127207,39.5800886,0 -95.3128012,39.5801403,0 -95.31685709999999,39.582833,0 -95.3209914,39.5854711,0 -95.32705540000002,39.5893822,0 -95.32846000000001,39.5905341,0 -95.3299547,39.5919144,0 -95.3308486,39.5929825,0 -95.33120379999998,39.5934068,0 -95.331665,39.5940135,0 -95.33224849999999,39.5947442,0 -95.33841119999998,39.6025333,0 -95.3384835,39.6026206,0 -95.3391329,39.6034487,0 -95.3402215,39.6048285,0 -95.3403938,39.6050469,0 -95.343924,39.609154,0 -95.3453401,39.6113265,0 -95.34725850000001,39.6145186,0 -95.34781309999998,39.6157128,0 -95.34827989999999,39.616907,0 -95.34869829999998,39.6181756,0 -95.3490369,39.6194383,0 -95.35006339999998,39.6237907,0 -95.3518516,39.6312045,0 -95.35308959999999,39.6357532,0 -95.3531629,39.6362382,0 -95.3532057,39.6364124,0 -95.3532913,39.6368738,0 -95.3533647,39.6372363,0 -95.3535175,39.6378531,0 -95.3536031,39.6383051,0 -95.3539883,39.640033,0 -95.3543062,39.6414972,0 -95.3543796,39.6419774,0 -95.35462410000001,39.6429566,0 -95.35524780000001,39.6459602,0 -95.35550449999998,39.646817,0 -95.35574299999999,39.6474007,0 -95.356122,39.6480504,0 -95.35660499999999,39.6487565,0 -95.3574732,39.649665,0 -95.3585885,39.6505606,0 -95.3594859,39.6511035,0 -95.35998320000002,39.6513476,0 -95.36055380000001,39.6516039,0 -95.36250809999999,39.6523818,0 -95.364019,39.653,0 -95.37504300000001,39.6574058,0 -95.3774389,39.6583592,0 -95.37877259999999,39.6588772,0 -95.3796337,39.6591562,0 -95.3803566,39.6593567,0 -95.38134389999999,39.6596157,0 -95.38213290000002,39.6597775,0 -95.3826676,39.6598731,0 -95.38340650000002,39.6599887,0 -95.3841134,39.6600782,0 -95.3847523,39.6601398,0 -95.38531500000001,39.6601845,0 -95.3858336,39.6602169,0 -95.3866046,39.6602385,0 -95.38736350000001,39.6602497,0 -95.3963329,39.6602474,0 -95.40567679999999,39.6602628,0 -95.4064518,39.6603152,0 -95.4071647,39.6603908,0 -95.40796569999999,39.6605141,0 -95.40898300000002,39.6607145,0 -95.4096519,39.6608964,0 -95.41030670000001,39.661103,0 -95.4109796,39.661342,0 -95.41169619999998,39.6616278,0 -95.4124595,39.6620003,0 -95.41303019999999,39.6623009,0 -95.41520149999999,39.6636929,0 -95.41815389999999,39.6656253,0 -95.41888190000002,39.6661047,0 -95.4197332,39.666594,0 -95.42079319999999,39.6670049,0 -95.42157150000001,39.6671986,0 -95.4220246,39.6672814,0 -95.42252870000002,39.6673479,0 -95.4230682,39.6673806,0 -95.42459159999999,39.6673866,0 -95.4273992,39.6673496,0 -95.43130620000001,39.6672648,0 -95.43204710000002,39.6672555,0 -95.43396080000001,39.6672479,0 -95.44089890000001,39.6672569,0 -95.44505669999999,39.667268,0 -95.44993820000002,39.6672861,0 -95.45202860000002,39.6673125,0 -95.45478199999999,39.6673318,0 -95.45941850000001,39.6672774,0 -95.46737319999998,39.6671937,0 -95.46967399999998,39.6671821,0 -95.4723903,39.667201,0 -95.47299409999999,39.6672036,0 -95.4736202,39.6672062,0 -95.4803611,39.667253,0 -95.48161570000001,39.6672785,0 -95.48470009999998,39.6673899,0 -95.4872249,39.6674891,0 -95.4880831,39.667511,0 -95.48841419999999,39.6675194,0 -95.48863829999999,39.6675218,0 -95.4897588,39.6675289,0 -95.49042180000001,39.667531,0 -95.49110779999999,39.6675263,0 -95.4937602,39.6675209,0 -95.49802349999999,39.6675072,0 -95.5005834,39.667506,0 -95.5031954,39.6674701,0 -95.50458399999998,39.6674398,0 -95.5064689,39.6674101,0 -95.5082994,39.6673744,0 -95.50841460000001,39.6673722,0 -95.51267199999998,39.667281,0 -95.51382099999999,39.66726,0 -95.5149042,39.6672552,0 -95.51716490000001,39.6672536,0 -95.5172587,39.667255,0 -95.5174861,39.6672556,0 -95.5180606,39.667257,0 -95.51825700000001,39.6672575,0 -95.51850779999998,39.6672583,0 -95.5197277,39.6672621,0 -95.52010970000002,39.6672634,0 -95.5212691,39.667267,0 -95.52271020000002,39.6672721,0 -95.52286710000001,39.6672726,0 -95.52422959999998,39.6672772,0 -95.52507630000001,39.6672799,0 -95.5257156,39.667282,0 -95.52723140000001,39.6672767,0 -95.52722989999999,39.667789,0 -95.5272293,39.6679834,0 -95.52722610000001,39.6690801,0 -95.5272403,39.6709077,0 -95.5272399,39.6715279,0 -95.52723899999999,39.6727113,0 -95.52722500000002,39.674517,0 -95.52729410000001,39.681769,0 -95.52731579999998,39.6863609,0 -95.5273311,39.6895855,0 -95.52728779999998,39.6918625,0 -95.52720289999999,39.6962647,0 -95.5271777,39.7107902,0 -95.52707099999999,39.716998,0 -95.52715840000002,39.7221836,0 -95.5271712,39.7250706,0 -95.52716480000001,39.7256995,0 -95.52716529999998,39.7278452,0 -95.527123,39.735918,0 -95.52709609999999,39.7399438,0 -95.527114,39.750003,0 -95.52716480000001,39.7544453,0 -95.52715569999999,39.7556724,0 -95.52702429999999,39.7623525,0 -95.52711489999999,39.7651437,0 -95.5271455,39.7666191,0 -95.52711729999999,39.7680938,0 -95.52713300000001,39.7689696,0 -95.52701569999999,39.7761964,0 -95.52697190000001,39.7834506,0 -95.52701589999999,39.7907113,0 -95.5270623,39.7924753,0 -95.52706920000001,39.7929315,0 -95.52716720000001,39.7979538,0 -95.5272251,39.8045448,0 -95.52726730000001,39.809354,0 -95.52729389999999,39.8124665,0 -95.5272863,39.8140231,0 -95.5272508,39.8159964,0 -95.52722020000002,39.8166396,0 -95.52717939999999,39.8172773,0 -95.52710449999999,39.8185527,0 -95.5270208,39.8198282,0 -95.5269856,39.8227055,0 -95.5270154,39.8245003,0 -95.52698479999999,39.8258035,0 -95.52698700000001,39.8270004,0 -95.5269831,39.8278806,0 -95.52697379999999,39.8299885,0 -95.52697310000001,39.830147,0 -95.52696400000002,39.8321961,0 -95.52696210000001,39.832607,0 -95.5269634,39.8371923,0 
				
					-95.5270254,39.8392234,0 -95.52702739999998,39.8392821,0 -95.5270283,39.8398454,0 -95.52703700000001,39.8403995,0 -95.52705910000002,39.8413819,0 -95.52705910000002,39.8417979,0 -95.52710300000001,39.842835,0 -95.5271205,39.8434926,0 -95.52714949999999,39.8442248,0 -95.527173,39.8448161,0 -95.5271693,39.8457188,0 -95.5271683,39.8457654,0 -95.5271899,39.8467126,0 -95.5272066,39.8477841,0 -95.5272081,39.8487151,0 -95.527208,39.8487681,0 -95.52720759999998,39.8491972,0 -95.527207,39.8497021,0 -95.5272056,39.8502142,0 -95.52720549999999,39.8502544,0 -95.52720429999999,39.8507542,0 -95.52718849999998,39.8511784,0 -95.5271865,39.8512331,0 -95.5271865,39.851267,0 -95.5271865,39.8517441,0 -95.5271865,39.8518134,0 -95.52718779999999,39.8522341,0 -95.52718689999999,39.8523649,0 -95.52718319999998,39.8529121,0 -95.52717429999998,39.8534635,0 -95.5271659,39.8539828,0 -95.52716030000001,39.854491,0 -95.5271561,39.8548757,0 -95.5271532,39.8550103,0 -95.5271473,39.855505,0 -95.52714160000001,39.8559797,0 -95.52713970000001,39.8570421,0 -95.52714949999999,39.857548,0 -95.5271592,39.8580452,0 -95.5271652,39.8585459,0 -95.5271686,39.8588254,0 -95.5271789,39.8590705,0 -95.52718089999999,39.8596202,0 -95.52719519999999,39.8601516,0 -95.5272063,39.8625582,0 -95.5272054,39.8625978,0 -95.52720360000002,39.8626758,0 -95.527202,39.8630102,0 -95.52719989999999,39.8633444,0 -95.52719930000001,39.8634311,0 -95.52719749999999,39.8637228,0 -95.5271973,39.8638962,0 -95.5271959,39.8649397,0 -95.52719459999999,39.8659752,0 -95.5272075,39.8704956,0 -95.52721299999999,39.875003,0 -95.52729919999999,39.8775097,0 -95.52730699999999,39.8778858,0 -95.52737649999999,39.8812458,0 -95.52742689999999,39.884987,0 -95.5274477,39.8921108,0 -95.5274466,39.8925798,0 -95.52749590000001,39.8994841,0 -95.5275381,39.9034878,0 -95.5275682,39.9104129,0 -95.5275773,39.914019,0 -95.5275773,39.9148785,0 -95.5275503,39.9255398,0 -95.52740540000001,39.9282201,0 -95.5270208,39.935739,0 -95.52712149999999,39.9429733,0 -95.527248,39.952108,0 -95.52732599999999,39.9528777,0 -95.5274903,39.953597,0 -95.5277875,39.9543888,0 -95.5281823,39.9550986,0 -95.52855320000002,39.9556373,0 -95.52943469999998,39.9566665,0 -95.53021049999998,39.9573478,0 -95.5307495,39.9577227,0 -95.53207949999999,39.9584626,0 -95.53427540000001,39.9594572,0 -95.5362655,39.9603377,0 -95.54295190000001,39.9632778,0 -95.54858609999999,39.9658112,0 -95.5501865,39.9664857,0 -95.55116080000001,39.9669251,0 -95.553772,39.9681008,0 -95.55523049999999,39.9687669,0 -95.5608512,39.9712435,0 -95.56162900000001,39.971592,0 -95.5629778,39.9721798,0 -95.5638338,39.9725614,0 -95.5641857,39.9727194,0 -95.5653113,39.9732263,0 -95.5672775,39.9741561,0 -95.56937619999998,39.9752339,0 -95.5721642,39.9766683,0 -95.57790310000001,39.979665,0 -95.5829263,39.9823377,0 -95.58387559999998,39.9828284,0 -95.58448629999999,39.9831481,0 -95.5893044,39.985664,0 -95.59132040000001,39.986712,0 -95.59225789999999,39.9872709,0 -95.5929455,39.9877571,0 -95.59341689999999,39.9881474,0 -95.593816,39.988517,0 -95.5942211,39.9889713,0 -95.5944928,39.9893055,0 -95.59487440000001,39.9898507,0 -95.59509370000001,39.9902261,0 -95.5952736,39.9905679,0 -95.59548839999998,39.9910672,0 -95.595629,39.9914658,0 -95.59574240000001,39.9918887,0 -95.5958574,39.9924738,0 -95.5958861,39.9928075,0 -95.59590530000001,39.99311,0 -95.5959051,39.9998101,0 -95.5958983,40.0002799,0 -95.59589220000001,40.000908,0 -95.59585199999999,40.009582,0 -95.595867,40.010608,0 -95.595866,40.011132,0 -95.595867,40.013407,0 -95.595868,40.01434,0 -95.595868,40.014782,0 -95.59586900000001,40.015844,0 -95.59585800000001,40.017357,0 -95.59585600000001,40.018435,0 -95.595854,40.019641,0 -95.59584700000001,40.023199,0 -95.59584399999999,40.023463,0 -95.59582800000001,40.025122,0 -95.595842,40.025645,0 -95.595851,40.025986,0 -95.5958586,40.0279684,0 -95.5958692,40.030365,0 -95.5958311,40.0319357,0 -95.5958306,40.0323366,0 -95.59584769999999,40.0330437,0 -95.59582399999999,40.0356077,0 -95.59581540000001,40.0366445,0 -95.59581210000002,40.037104,0 -95.595812,40.037608,0 -95.59581300000001,40.039109,0 -95.595817,40.039337,0 -95.595845,40.039641,0 -95.59591900000001,40.039977,0 -95.59603500000001,40.040357,0 -95.59611699999999,40.040578,0 -95.5961533,40.0406849,0 -95.596259,40.040927,0 -95.59646300000001,40.041299,0 -95.59666,40.041586,0 -95.59675900000001,40.041711,0 -95.59746299999999,40.042639,0 -95.59816600000001,40.043589,0 -95.598989,40.044658,0 -95.599464,40.0452849,0 -95.59981499999999,40.045765,0 -95.60004600000001,40.04608,0 -95.600363,40.046556,0 -95.600577,40.046937,0 -95.600931,40.047599,0 -95.60105900000001,40.047876,0 -95.60115399999999,40.04813,0 -95.60130100000001,40.04857,0 -95.6014145,40.0489676,0 -95.60147000000001,40.049192,0 -95.60153870000001,40.0494803,0 -95.6015965,40.0497877,0 -95.60164130000001,40.050032,0 -95.60169900000001,40.0505895,0 -95.60171980000001,40.0511185,0 -95.60171440000001,40.051828,0 -95.6017236,40.0528025,0 -95.6017306,40.0538021,0 -95.6017429,40.0548013,0 -95.6017416,40.0557786,0 -95.60174469999998,40.0567671,0 -95.6017622,40.0577534,0 -95.60176789999998,40.0587486,0 -95.60177,40.0597446,0 -95.60178040000001,40.0607403,0 -95.60178940000002,40.0613273,0 -95.60179239999999,40.0617322,0 -95.60179470000001,40.0625025,0 -95.60179529999999,40.0627153,0 -95.6017994,40.0631958,0 -95.6018038,40.063709,0 -95.601754,40.0638493,0 -95.6017514,40.064157,0 -95.6017521,40.0646936,0 -95.6017374,40.0656351,0 -95.6017378,40.0657212,0 -95.60176370000001,40.0666756,0 -95.6017801,40.0676847,0 -95.60179060000002,40.0686715,0 -95.6017896,40.0696548,0 -95.6018035,40.0706489,0 -95.6018282,40.0707998,0 -95.6018657,40.0710422,0 -95.60188599999999,40.0712351,0 -95.6018983,40.0715606,0 -95.6018844,40.0718057,0 -95.60184460000001,40.0720447,0 -95.60179950000001,40.0722379,0 -95.6017456,40.0725301,0 -95.60156000000002,40.073298,0 -95.60154200000001,40.073779,0 -95.601659,40.074447,0 -95.601688,40.074556,0 -95.60195999999999,40.075595,0 -95.60222799999998,40.076502,0 -95.60253400000001,40.077459,0 -95.60284099999998,40.078509,0 -95.60328399999999,40.07983,0 -95.60340399999998,40.0801057,0 -95.60353379999999,40.0803653,0 -95.604169,40.081405,0 -95.604248,40.081536,0 -95.6046061,40.082111,0 -95.60477299999999,40.082404,0 -95.605178,40.08331,0 -95.605332,40.084037,0 -95.605367,40.085054,0 -95.605403,40.08747,0 -95.60543500000001,40.088589,0 -95.60548300000001,40.092566,0 -95.60547899999999,40.094069,0 -95.605484,40.094606,0 -95.605503,40.096695,0 -95.6055568,40.1005466,0 -95.60556640000001,40.1014368,0 -95.605547,40.101854,0 -95.60556200000001,40.102686,0 -95.60559600000001,40.107289,0 -95.605609,40.109024,0 -95.60566300000001,40.1164,0 -95.605667,40.117661,0 -95.605694,40.11942,0 -95.60567899999999,40.121277,0 -95.60567399999999,40.123082,0 -95.605683,40.126058,0 -95.60567700000001,40.12725,0 -95.6056809,40.1286447,0 -95.60568399999998,40.129743,0 -95.605678,40.130575,0 -95.60567899999999,40.131017,0 -95.60572999999999,40.134583,0 -95.605761,40.136771,0 -95.60576,40.137664,0 -95.60575599999999,40.140403,0 -95.60579999999999,40.141532,0 -95.605903,40.142054,0 -95.606084,40.142549,0 -95.60614200000002,40.142709,0 -95.6063509,40.143067,0 -95.60658900000001,40.143379,0 -95.606632,40.143428,0 -95.606887,40.14372,0 -95.60726500000001,40.144091,0 -95.60753099999999,40.144324,0 -95.607945,40.144604,0 -95.608446,40.144876,0 -95.609346,40.14525,0 -95.61057399999999,40.145538,0 -95.61122,40.145606,0 -95.61207699999999,40.145614,0 -95.612414,40.145617,0 -95.61390099999998,40.145621,0 -95.614469,40.145615,0 -95.61508599999999,40.145609,0 -95.61543,40.145606,0 -95.617384,40.145571,0 -95.618765,40.145569,0 -95.61895699999999,40.145569,0 -95.620808,40.145558,0 -95.62309900000001,40.145552,0 -95.62365800000002,40.145559,0 -95.62384,40.145561,0 -95.625,40.145576,0 -95.627025,40.145578,0 -95.62815399999999,40.145581,0 -95.628784,40.145582,0 -95.63047699999998,40.145589,0 -95.63197300000002,40.145601,0 -95.63405,40.145592,0 -95.637591,40.145604,0 -95.639183,40.145601,0 -95.640309,40.145614,0 -95.64419100000001,40.145615,0 -95.645196,40.145628,0 -95.64658099999998,40.145627,0 -95.647983,40.145612,0 -95.648088,40.145613,0 -95.649619,40.145634,0 -95.651032,40.145645,0 -95.65209299999999,40.145649,0 -95.653088,40.145648,0 -95.653542,40.145648,0 -95.65464399999999,40.145649,0 -95.65693400000001,40.145667,0 -95.66201700000001,40.145711,0 -95.662541,40.145716,0 -95.66844,40.145739,0 -95.66950199999999,40.145753,0 -95.671504,40.14576,0 -95.672089,40.14576,0 -95.676777,40.145711,0 -95.678431,40.145701,0 -95.67874,40.145699,0 -95.679492,40.145701,0 -95.68019499999998,40.145703,0 -95.68040200000002,40.145702,0 -95.68258499999999,40.145697,0 -95.682992,40.145695,0 -95.68384399999999,40.145709,0 -95.68478500000001,40.145707,0 -95.686408,40.145718,0 -95.687504,40.145715,0 -95.68811599999999,40.145708,0 -95.688732,40.145704,0 -95.690376,40.145695,0 -95.693882,40.145678,0 -95.695227,40.145684,0 -95.69663300000001,40.145656,0 -95.69701000000001,40.145649,0 -95.697445,40.14564,0 -95.698593,40.145604,0 -95.69933400000001,40.145574,0 -95.70105399999998,40.145479,0 -95.70173299999999,40.145433,0 -95.70245299999999,40.145379,0 -95.703096,40.145347,0 -95.703588,40.145323,0 -95.704539,40.145294,0 -95.70470499999999,40.145289,0 -95.706198,40.145289,0 -95.70709500000001,40.145276,0 -95.70916400000002,40.145272,0 -95.71014099999999,40.145274,0 -95.71142499999999,40.145294,0 -95.71217759999999,40.1453074,0 -95.71298739999999,40.1453134,0 -95.714634,40.14532,0 -95.71765500000001,40.145359,0 -95.71989499999999,40.1454149,0 -95.72067680000001,40.1454209,0 -95.721009,40.145418,0 -95.721723,40.145412,0 -95.723078,40.145418,0 -95.723991,40.145414,0 -95.72449400000002,40.145419,0 -95.72558299999999,40.145431,0 -95.7258439,40.1454348,0 -95.727142,40.145454,0 -95.727999,40.145472,0 -95.728903,40.145492,0 -95.730581,40.145547,0 -95.732963,40.145578,0 -95.73415900000001,40.145567,0 -95.74014099999999,40.145584,0 -95.741686,40.145593,0 -95.74367599999999,40.145592,0 -95.74461799999999,40.14559,0 -95.747056,40.145602,0 -95.74790100000001,40.145604,0 -95.74999800000002,40.145624,0 -95.75068899999999,40.145638,0 -95.75247400000001,40.145649,0 -95.75280100000001,40.145653,0 -95.761319,40.145768,0 -95.761949,40.145781,0 -95.76225999999998,40.145787,0 -95.763155,40.145798,0 -95.765535,40.145805,0 -95.76595199999998,40.1458,0 -95.766271,40.145797,0 -95.7679,40.14576,0 -95.76950100000001,40.145724,0 -95.77314800000001,40.145622,0 -95.77422900000001,40.145587,0 -95.774922,40.145576,0 -95.77613599999999,40.145558,0 -95.776404,40.145557,0 -95.777388,40.145552,0 -95.778554,40.145552,0 -95.780224,40.145558,0 -95.780956,40.14556,0 -95.78313800000001,40.145556,0 -95.783916,40.145567,0 -95.78427599999999,40.145566,0 -95.78718500000001,40.145559,0 -95.7885,40.145569,0 -95.789587,40.145567,0 -95.791307,40.145572,0 -95.792282,40.145568,0 -95.79380799999998,40.145578,0 -95.79671000000002,40.145581,0 -95.799109,40.145574,0 -95.803181,40.145586,0 -95.80426100000001,40.145585,0 -95.804624,40.145583,0 -95.80571000000002,40.145578,0 -95.80897499999999,40.145586,0 -95.81066999999999,40.14559,0 -95.82206889999999,40.1456003,0 -95.8225253,40.1455972,0 -95.8242631,40.1455948,0 -95.82530319999999,40.1456001,0 -95.8259877,40.1456014,0 -95.82676750000002,40.1456085,0 -95.82951869999999,40.1456321,0 -95.8299561,40.1455993,0 -95.8310591,40.1456006,0 -95.83175900000001,40.1456083,0 -95.8318426,40.1456082,0 -95.8326754,40.1455945,0 -95.8328338,40.1456213,0 
				</coordinates>
			</LineString>
		<atom:link rel="app" href="https://www.google.com/earth/about/versions/#earth-pro" title="Google Earth Pro 7.3.6.10201"></atom:link>
	</Placemark>
</Document>
</kml>
