<?xml version="1.0" encoding="UTF-8"?>
<kml xmlns="http://www.opengis.net/kml/2.2" xmlns:gx="http://www.google.com/kml/ext/2.2" xmlns:kml="http://www.opengis.net/kml/2.2" xmlns:atom="http://www.w3.org/2005/Atom">
<Document>
	<name>US.70A.NC.kml</name>
	<Placemark>
		<name>US.70A.NC</name>
		<LineString>
			<coordinates>
				-78.1761432,35.4736273,0 -78.17697510000001,35.4736789,0 -78.17775810000001,35.473802,0 -78.17879689999999,35.4741346,0 -78.1794939,35.4744531,0 -78.1802568,35.4749043,0 -78.180781,35.4752606,0 -78.1846595,35.4787793,0 -78.1859796,35.4799899,0 -78.1870062,35.480741,0 -78.18809760000001,35.4813804,0 -78.1911539,35.4830566,0 -78.1926175,35.4838661,0 -78.1930143,35.4840855,0 -78.1936736,35.4844501,0 -78.194382,35.4848419,0 -78.1958502,35.4856538,0 -78.1965163,35.4860222,0 -78.1970053,35.4862929,0 -78.20329959999999,35.4897774,0 -78.2037764,35.4900413,0 -78.20406920000001,35.4902083,0 -78.2041624,35.4902588,0 -78.2061365,35.4913302,0 -78.2073044,35.4919832,0 -78.2100482,35.4935174,0 -78.2138535,35.4956214,0 -78.2141484,35.4957839,0 -78.2178342,35.4978212,0 -78.2204244,35.4992582,0 -78.22044270000001,35.4992683,0 -78.2227082,35.5005252,0 -78.2249832,35.5017928,0 -78.2256733,35.5020863,0 -78.22638600000001,35.5022933,0 -78.2288298,35.5028247,0 -78.2298074,35.5030248,0 -78.2303088,35.5031795,0 -78.23324119999999,35.5046265,0 -78.23473180000001,35.505362,0 -78.2356869,35.5058333,0 -78.2361966,35.50609,0 -78.23724799999999,35.5066194,0 -78.23785839999999,35.5069505,0 -78.23811860000001,35.5070687,0 -78.2394754,35.5077474,0 -78.2397685,35.507894,0 -78.2401984,35.5080626,0 -78.24025260000001,35.5080806,0 -78.2403621,35.5081171,0 -78.2406494,35.5082126,0 -78.2406708,35.5082197,0 -78.24101880000001,35.5083205,0 -78.24159849999999,35.5084884,0 -78.2417135,35.5085188,0 -78.2423838,35.5086958,0 -78.2441196,35.5091543,0 -78.24499109999999,35.5093408,0 -78.24503850000001,35.5093509,0 -78.2454678,35.5094156,0 -78.2471158,35.5096718,0 -78.2485973,35.5098972,0 -78.25007069999999,35.5101289,0 -78.2507835,35.5102457,0 -78.25080389999999,35.5102488,0 -78.2514408,35.5103465,0 -78.2525674,35.5105192,0 -78.2531372,35.5106066,0 -78.25331490000001,35.5106338,0 -78.253609,35.5106789,0 -78.25387600000001,35.5107198,0 -78.2552369,35.5109285,0 -78.2565816,35.5111328,0 -78.2576335,35.5112926,0 -78.2577118,35.5113045,0 -78.25859320000001,35.5114667,0 -78.2591135,35.5115625,0 -78.25939270000001,35.5116139,0 -78.2596212,35.5116719,0 -78.26039950000001,35.5118696,0 -78.2616029,35.5121752,0 -78.2621213,35.5123069,0 -78.266057,35.513346,0 -78.2675895,35.513757,0 -78.2679215,35.5138461,0 -78.2681491,35.5139071,0 -78.2684079,35.5139765,0 -78.26961439999999,35.5143001,0 -78.2704097,35.5145141,0 -78.2744529,35.5155978,0 -78.2796311,35.5169948,0 -78.2828253,35.5178565,0 -78.28353509999999,35.5180597,0 -78.28374030000001,35.5181137,0 -78.2838735,35.5181557,0 -78.28404159999999,35.5182313,0 -78.28411130000001,35.5182715,0 -78.28427619999999,35.5183664,0 -78.2844908,35.5185213,0 -78.2847209,35.5187482,0 -78.2847962,35.5188202,0 -78.2848559,35.5188653,0 -78.28493779999999,35.5189085,0 -78.2849997,35.5189355,0 -78.28520349999999,35.5190067,0 -78.2854514,35.5185788,0 -78.285512,35.5185055,0 -78.2855989,35.5183958,0 -78.28572560000001,35.5182681,0 -78.2858318,35.5181915,0 -78.28597190000001,35.5181043,0 -78.2861498,35.5180002,0 
			</coordinates>
		</LineString>
		<atom:link rel="app" href="https://www.google.com/earth/about/versions/#earth-pro" title="Google Earth Pro 7.3.6.10201"></atom:link>
	</Placemark>
</Document>
</kml>
