<?xml version="1.0" encoding="UTF-8"?>
<kml xmlns="http://www.opengis.net/kml/2.2" xmlns:gx="http://www.google.com/kml/ext/2.2" xmlns:kml="http://www.opengis.net/kml/2.2" xmlns:atom="http://www.w3.org/2005/Atom">
<Document>
	<name>US.72A.kml</name>
	<Placemark>
		<name>US.72A</name>
		<LineString>
			<coordinates>
				-87.66756982152943,34.71130274330775,0 -87.65118480587455,34.70425760415713,0 -87.64205163799473,34.70057229632022,0 -87.63092742080663,34.69647986783973,0 -87.62217888124222,34.69343785056575,0 -87.61959475091471,34.69233634574488,0 -87.60422988002648,34.68681005052289,0 -87.59852663311744,34.68469460635754,0 -87.59774543907636,34.68454474302992,0 -87.59707038379942,34.68460592862456,0 -87.59656686752949,34.68476365186186,0 -87.59606756637979,34.68496601149644,0 -87.59562090425743,34.6851403905272,0 -87.59506645415129,34.68525794447769,0 -87.59431861969856,34.6852739397745,0 -87.59074410453584,34.68521117076529,0 -87.57873212994342,34.68492226880657,0 -87.56897643625253,34.68471960306653,0 -87.53116255315861,34.68388647744266,0 -87.44811430161204,34.68210341923675,0 -87.43234274583457,34.68175998373781,0 -87.42300219189185,34.68151751814631,0 -87.41758790661035,34.68137742554982,0 -87.41258524454882,34.68128468517912,0 -87.40662853333563,34.68117281249975,0 -87.40167410574082,34.68105686936386,0 -87.39821523217849,34.68100953015765,0 -87.39180551034264,34.68083707621309,0 -87.38857432489206,34.68068591717222,0 -87.38714751859006,34.68062985281657,0 -87.38270109345947,34.68053866639513,0 -87.37917007880453,34.68040725135093,0 -87.37717378007881,34.68035756280377,0 -87.35903103869681,34.6797837580139,0 -87.3523604067051,34.67969888298768,0 -87.35001955629704,34.67971558005526,0 -87.34864315669498,34.67981330978601,0 -87.34740436775913,34.67995361992123,0 -87.34621147331883,34.68019154313698,0 -87.34500601936524,34.68047687927511,0 -87.33617492001285,34.68349281886029,0 -87.33453661891333,34.68400732669107,0 -87.33300550096281,34.6842957268981,0 -87.331228180428,34.68449569573119,0 -87.32951164822225,34.68457161667636,0 -87.31857403136333,34.68500461289577,0 -87.31187593766725,34.68526232098016,0 -87.31057735748841,34.68521539981171,0 -87.30900333452598,34.68499500633495,0 -87.30755038578799,34.68464874161882,0 -87.30678165842266,34.6843886419217,0 -87.3042885638457,34.68323030414635,0 -87.30325585501363,34.682572500406,0 -87.30212574335508,34.68156163372688,0 -87.30011498260217,34.67969330598073,0 -87.29675186521658,34.67652437356845,0 -87.28542207782927,34.66576174208392,0 -87.28259871399881,34.66325287952508,0 -87.28042220344507,34.66154190153544,0 -87.2788619434311,34.66066629130059,0 -87.27699438457309,34.65981126959078,0 -87.27482220696265,34.65910513830247,0 -87.26956023719231,34.6576964392972,0 -87.25370534528813,34.65340075750071,0 -87.24458993328325,34.65082523702911,0 -87.24002268174348,34.64966352411587,0 -87.23837975983774,34.64926856238539,0 -87.23674023215773,34.64914909269214,0 -87.23454882702964,34.6490806459424,0 -87.229341798628,34.64907109108852,0 -87.21869864453016,34.64898067491306,0 -87.21273038945823,34.6489686592226,0 -87.19787132342717,34.64899759083239,0 -87.19269548363734,34.64906942219524,0 -87.18470244418913,34.64918849713778,0 -87.17947288231727,34.64920164043626,0 -87.17295507124567,34.64925993156194,0 -87.17072154862815,34.64924299676276,0 -87.16907690564007,34.64907485017056,0 -87.16727266478948,34.64879683376028,0 -87.16442477885849,34.64838574178214,0 -87.1621493937354,34.64802987380671,0 -87.15785318382848,34.64742157529552,0 -87.15591227869658,34.64708887585935,0 -87.15460502947658,34.64675440273501,0 -87.15326048229061,34.64617477395412,0 -87.15026496483429,34.64463002071928,0 -87.14875699675378,34.64391895898581,0 -87.1475269585697,34.64339145577901,0 -87.14618353506005,34.64288071238153,0 -87.14424503784761,34.64226998853825,0 -87.1421835481664,34.64162583242823,0 -87.13653774316424,34.63983235234768,0 -87.13395578065143,34.63893982073395,0 -87.13218249415289,34.63825677556139,0 -87.12476110668973,34.63528862600227,0 -87.12390033437106,34.63494445681688,0 -87.12293911479463,34.63478169125696,0 -87.12175756416556,34.6346522520987,0 -87.11564711220824,34.63464870473937,0 -87.10891306752846,34.63461332552342,0 -87.10574684985978,34.63457808854493,0 -87.10461221810613,34.63445693086356,0 -87.10356215595731,34.63418494186237,0 -87.10214397457437,34.6336807522182,0 -87.09709425550689,34.63110458799199,0 -87.09314861460859,34.62912666288941,0 -87.07956760041979,34.62213975899816,0 -87.07699056706269,34.62089487072294,0 -87.07551065340698,34.62033236674993,0 -87.07402421424372,34.62000057391303,0 -87.07301955024673,34.61992878194187,0 -87.07060473726776,34.6199387913818,0 -87.06759742778623,34.61987377142286,0 -87.05955010829395,34.61976990501506,0 -87.04599302979416,34.61958371013724,0 -87.03174868175361,34.61933719185563,0 -87.02862418574459,34.61931381339915,0 -87.01563806844213,34.61911559397955,0 -87.00844157201712,34.61900594892089,0 -87.0046862728318,34.61892636813563,0 -87.00298387087258,34.61882223237632,0 -87.00200998918224,34.61872864501573,0 -87.00129815804463,34.61875398834228,0 -87.00055519527157,34.61890942127005,0 -86.99981260124318,34.61917311608245,0 -86.99696505111002,34.62075706007359,0 -86.99639427676777,34.62107669641274,0 -86.99571942310557,34.62132611730808,0 -86.99500755353142,34.62140193465005,0 -86.99414486209061,34.62137936404964,0 -86.993430450989,34.62125808041694,0 -86.99272937296594,34.62101468664224,0 -86.99112122846005,34.62026918300182,0 -86.9906289624731,34.62003051605321,0 -86.98489059212648,34.61562084867563,0 -86.97739227836817,34.60974382064552,0 -86.9771118912235,34.60953239961938,0 -86.97689056033695,34.60949428284189,0 -86.97657527646538,34.60963893217219,0 -86.97278106646689,34.61306440531244,0 -86.96863303703857,34.61673990818426,0 -86.96576046900667,34.61937753310722,0 -86.96390424353754,34.62132998150496,0 -86.96234073701767,34.62282551255346,0 -86.95997148081598,34.62489656304469,0 -86.95852093622995,34.62608964768321,0 -86.95733045193789,34.62685450500339,0 -86.95593817806284,34.62753570870491,0 -86.95435402285628,34.6281404186984,0 -86.95308805709965,34.62858604599233,0 -86.95209574855537,34.62881002788949,0 -86.95119245994292,34.62886068078942,0 -86.94938235053493,34.62882770848708,0 -86.94718267050362,34.62876001088507,0 -86.94071996399312,34.62856528245626,0 -86.92599575617925,34.62824258995713,0 -86.90382734052078,34.6277584510527,0 -86.9021840289988,34.62776018969657,0 -86.90061906182868,34.62773854692637,0 -86.89955274504651,34.62778365351073,0 -86.89813001312697,34.62792130972203,0 -86.89655505401738,34.62835219724875,0 -86.8936229199663,34.62938978101724,0 -86.89079015998919,34.63041912419957,0 -86.88877983041706,34.63104471840109,0 -86.88714625598845,34.63136048976217,0 -86.88551205844065,34.63143509158267,0 -86.88297521161678,34.63129352115162,0 -86.87786836687084,34.63094263201463,0 -86.87331423211745,34.63061675043991,0 -86.87206702596839,34.63069559505595,0 -86.87096690131924,34.63087833571443,0 -86.86999504856156,34.63111360830263,0 -86.86868729322536,34.63152660200679,0 -86.86428426572498,34.63321716575119,0 -86.86003477420056,34.63485599722388,0 -86.85710095446478,34.63597965255485,0 -86.84718979941746,34.6397372698283,0 -86.83991871180558,34.64249205786147,0 -86.82373167085201,34.64861020460139,0 -86.80495251569168,34.65562176527376,0 -86.80240215493929,34.65656595916273,0 -86.8004237833284,34.65707408465678,0 -86.79736152097786,34.65755200324237,0 -86.79551316218409,34.65794691435173,0 -86.79403175756148,34.65839889284258,0 -86.79229122978579,34.65903095222738,0 -86.78972003942027,34.66024851271707,0 -86.78750402763853,34.6612715057318,0 -86.78545791837175,34.66206008270087,0 -86.78281158531567,34.6631318877032,0 -86.77899585131975,34.66465381151253,0 -86.7761283151839,34.66577689303948,0 -86.77454821303576,34.66622187724784,0 -86.77298542590091,34.66640781415058,0 -86.77156696990744,34.66649194601659,0 -86.77001365720733,34.66659303391359,0 -86.76874932239353,34.66680494835284,0 -86.76759836030446,34.66713629532344,0 -86.76689198113972,34.66741696523205,0 -86.76245718343328,34.66920950868805,0 -86.76089642207205,34.66982483526862,0 -86.75484028002116,34.67227202698952,0 -86.74793429299663,34.67507683639087,0 -86.74346672214712,34.67686325253293,0 -86.74048173060203,34.6781640218405,0 -86.7374298426252,34.6795768888316,0 -86.73459464301655,34.68097299390914,0 -86.72525543365859,34.68535412797355,0 -86.72174163906165,34.68706078839038,0 -86.71139623471295,34.69193463318511,0 -86.70828901105725,34.69335195867417,0 -86.70284160080433,34.69549152448226,0 -86.70009612169656,34.69649491375332,0 -86.69396538282486,34.69852134659752,0 -86.69122731211237,34.69959268700106,0 -86.68561027707264,34.70213059612209,0 -86.68033498473173,34.70455038597051,0 -86.6773802282127,34.70562619734843,0 -86.67405194533363,34.70640155568533,0 -86.67067882525384,34.70684028312048,0 -86.66859327955081,34.70726478766122,0 -86.6666502080674,34.70823717152254,0 -86.66459312193693,34.70945760135569,0 -86.66223267696063,34.7104997259073,0 -86.65975946478872,34.71124154958907,0 -86.65443808664992,34.71271675558212,0 -86.65245729996236,34.7130393015152,0 -86.64826475218851,34.71359118624633,0 -86.64616107014146,34.71405936927417,0 -86.64453486929864,34.71451821019403,0 -86.64148711172047,34.71556727370191,0 -86.63730427447942,34.71723654952046,0 -86.63348244630406,34.71833961095969,0 -86.63045008360425,34.7188462814708,0 -86.62719577036236,34.7193390351914,0 -86.62438660705502,34.72010009953134,0 -86.62171536289058,34.72115892031739,0 -86.61902499897187,34.72216070283657,0 -86.61666370528503,34.72285217810288,0 -86.6131995947368,34.72379090042502,0 -86.61009547015345,34.72451793948783,0 -86.60742729090228,34.72520784602501,0 -86.60603106902671,34.7256528893647,0 -86.60487021868559,34.72626774084613,0 -86.6036996389559,34.7273269545811,0 -86.60160793151054,34.72928214766043,0 -86.59849454575698,34.73214470397836,0 -86.59755581068899,34.73290642221358,0 -86.59639188580041,34.73359359497799,0 -86.59525963856679,34.73430309510884,0 -86.5943650237479,34.73506897604089,0 -86.59360251405583,34.73586768342595,0 -86.59275882158276,34.73663257664578,0 -86.59179432975063,34.73720093462888,0 -86.59096570619207,34.73755684963825,0 -86.58981465974952,34.7378389747502,0 -86.58842072302994,34.7381938248206,0 -86.58726739734453,34.73863229282021,0 -86.58624589778911,34.73928276034389,0 -86.58475507522046,34.74040548401949,0 -86.58332656048097,34.74146490934299,0 -86.58199293708071,34.74245681299499,0 -86.58130925408484,34.743050291723,0 -86.58072092937566,34.74366453792504,0 -86.5801500756404,34.7443935809267,0 -86.57950899557898,34.74547278270156,0 -86.57919904093667,34.74601438599453,0 -86.57787845612646,34.74827210600437,0 -86.57730571848134,34.74925209084056,0 -86.57692790931897,34.74976851484434,0 -86.57642597654528,34.75028265369754,0 -86.57557567134249,34.75093871568365,0 -86.57386669250181,34.75201964133264,0 -86.57104939341518,34.75387927030719,0 -86.56883177799384,34.75529340495759,0 -86.56711362842215,34.75637721369144,0 -86.5657962741582,34.75732660835199,0 -86.5650042716161,34.75797706087171,0 -86.56404351582727,34.75891762180121,0 -86.56315310436335,34.75979114787888,0 -86.56234499772906,34.76046926204674,0 -86.56145524918566,34.76109215365808,0 -86.5604690018049,34.76171517768714,0 -86.55955182067598,34.76226603358807,0 
			</coordinates>
		</LineString>
		<atom:link rel="app" href="https://www.google.com/earth/about/versions/#earth-pro" title="Google Earth Pro 7.3.6.10201"></atom:link>
	</Placemark>
</Document>
</kml>
