<?xml version="1.0" encoding="UTF-8"?>
<kml xmlns="http://www.opengis.net/kml/2.2" xmlns:gx="http://www.google.com/kml/ext/2.2" xmlns:kml="http://www.opengis.net/kml/2.2" xmlns:atom="http://www.w3.org/2005/Atom">
<Document>
	<name>US.701.kml</name>
	<Placemark>
		<name>US.701</name>
			<LineString>
				<coordinates>
					-79.287795,33.375072,0 -79.287791,33.375114,0 -79.2877881,33.3753602,0 -79.2877862,33.3754049,0 -79.28771999999999,33.376482,0 -79.287691,33.377102,0 -79.28768100000001,33.37733,0 -79.287667,33.377631,0 -79.287645,33.378079,0 -79.287628,33.378462,0 -79.287542,33.380322,0 -79.287457,33.382084,0 -79.28743679999999,33.3834673,0 -79.2874803,33.3838234,0 -79.287586,33.384177,0 -79.28787060000001,33.3848121,0 -79.28801199999999,33.3851274,0 -79.2880579,33.38523,0 -79.288363,33.3859106,0 -79.28861139999999,33.386465,0 -79.28867529999999,33.3866174,0 -79.288785,33.386879,0 -79.2888487,33.3870513,0 -79.2889066,33.387236,0 -79.28895559999999,33.3874648,0 -79.28898030000001,33.3876554,0 -79.2889855,33.387712,0 -79.28900760000001,33.3885978,0 -79.289034,33.3896552,0 -79.2890448,33.3900941,0 -79.28905330000001,33.3904369,0 -79.28906739999999,33.3910065,0 -79.28907270000001,33.391219,0 -79.2890756,33.3913366,0 -79.28908079999999,33.3915486,0 -79.28908920000001,33.3918884,0 -79.2890924,33.3920168,0 -79.2891065,33.3925848,0 -79.28912,33.3931313,0 -79.2891267,33.3934546,0 -79.289148,33.3944793,0 -79.2891487,33.3945088,0 -79.2892208,33.3977361000001,0 -79.289233,33.3982837,0 -79.28923500000001,33.398671,0 -79.28925839999999,33.4001434,0 -79.2892367,33.4004539,0 -79.2892107,33.4005961,0 -79.2891116,33.4009561999999,0 -79.28811880000001,33.4040752999999,0 -79.2880699,33.4042289,0 -79.287762,33.4051961,0 -79.28746270000001,33.4061363,0 -79.287245,33.4067921,0 -79.28708349999999,33.4072971,0 -79.2867914,33.4082787000001,0 -79.2867435,33.4084511,0 -79.28658009999999,33.4088709,0 -79.2865019,33.4091156,0 -79.2860129,33.4106442,0 -79.28564830000001,33.4117841,0 -79.2853526,33.4127085,0 -79.2849224,33.4140535,0 -79.2844216,33.4156568,0 -79.2843701,33.4158359,0 -79.2840968,33.4166344,0 -79.2839431,33.4173132,0 -79.2836843,33.4180515,0 -79.283576,33.4183989,0 -79.2833637,33.4188683,0 -79.2830867,33.4195702,0 -79.2827757,33.4202936,0 -79.2824,33.4212058,0 -79.28216159999999,33.4218006,0 -79.2818857,33.4225007,0 -79.2816231,33.4231828,0 -79.2813948,33.4237362,0 -79.28120319999999,33.4242096,0 -79.28107610000001,33.4245547,0 -79.2808514,33.4251185,0 -79.28053559999999,33.4259179,0 -79.2802114,33.4267468,0 -79.2799334,33.4274451,0 -79.2796314,33.4281871,0 -79.27923199999999,33.4292086,0 -79.2788243,33.4302358,0 -79.27861710000001,33.4307629,0 -79.27834110000001,33.4314509,0 -79.27814720000001,33.4319278,0 -79.2779132,33.4325414,0 -79.2776595,33.4331848,0 -79.2774881,33.4336300000001,0 -79.2772038,33.4343346,0 -79.27685649999999,33.4351897,0 -79.2766019,33.435835,0 -79.2765228,33.4360421,0 -79.2764605,33.4362202,0 -79.27637060000001,33.4365008,0 -79.27630670000001,33.436727,0 -79.27624830000001,33.4370167,0 -79.2762302,33.4371259,0 -79.2762177,33.4372681,0 -79.27620880000001,33.4375217,0 -79.27620570000001,33.4377034,0 -79.2762118,33.437881,0 -79.27622479999999,33.438032,0 -79.2762445,33.4382188,0 -79.2762737,33.4384192,0 -79.2763143,33.4386345,0 -79.27641029999999,33.4390013,0 -79.27682179999999,33.4406183,0 -79.2771802,33.4420101,0 -79.2774878,33.443234,0 -79.2778265,33.4445745000001,0 -79.2781627,33.4458954,0 -79.27848539999999,33.4471725,0 -79.27875109999999,33.4481995,0 -79.27900510000001,33.4491998,0 -79.27935119999999,33.4505482,0 -79.2795692,33.451409,0 -79.2797102,33.4519767,0 -79.2797889,33.4522934,0 -79.2799813,33.4530882,0 -79.2801285,33.4536583000001,0 -79.2803706,33.4546004,0 -79.2804313,33.4548255,0 -79.2806889,33.4558373,0 -79.2809113,33.4567058,0 -79.2810087,33.4571005,0 -79.28105600000001,33.4573299,0 -79.2810973,33.4575846,0 -79.2811336,33.4578726,0 -79.28116300000001,33.458254,0 -79.28117229999999,33.4585897,0 -79.2811628,33.4589042,0 -79.2811518,33.4590877,0 -79.2811265,33.4593326,0 -79.28109430000001,33.4595626,0 -79.28102269999999,33.4600397,0 -79.28088579999999,33.460867,0 -79.28064120000001,33.4623931,0 -79.2804794,33.4634776999999,0 -79.28026250000001,33.4648562,0 -79.28013970000001,33.4656214,0 -79.27994219999999,33.4668913,0 -79.27959799999999,33.4690981,0 -79.27953479999999,33.469504,0 -79.2793712,33.4704473,0 -79.27934930000001,33.4705948,0 -79.2791656,33.471775,0 -79.2789014,33.473472,0 -79.2787324,33.474509,0 -79.27866539999999,33.4748368,0 -79.2786131,33.4750247,0 -79.27856679999999,33.4751624,0 -79.2784614,33.4754391,0 -79.2783415,33.4757073,0 -79.2781792,33.4760071,0 -79.2779888,33.4763113,0 -79.2777437,33.4766427,0 -79.2775937,33.4768197,0 -79.2774325,33.4769989,0 -79.27728089999999,33.4771513,0 -79.2771146,33.4773051,0 -79.2768832,33.4775036,0 -79.27668269999999,33.477658,0 -79.2764514,33.4778191,0 -79.2761148,33.4780294,0 -79.2751547,33.4785802,0 -79.2717323,33.4805164,0 -79.27120859999999,33.4808166,0 -79.27091830000001,33.4809889,0 -79.2706477,33.4811767,0 -79.27041130000001,33.4813464,0 -79.2701375,33.4815625,0 -79.2699727,33.4817069,0 -79.26974300000001,33.4819264,0 -79.26941100000001,33.482256,0 -79.26933,33.482357,0 -79.26921900000001,33.482515,0 -79.26909499999999,33.482674,0 -79.268899,33.482928,0 -79.2673637,33.4857288,0 -79.2667703,33.4868205,0 -79.26644109999999,33.4874268,0 -79.2654314,33.4892844,0 -79.26381979999999,33.4922629,0 -79.2624562,33.4947631,0 -79.2620592,33.4954341,0 -79.2618178,33.4958143,0 -79.2612177,33.4967264,0 -79.2551699,33.5055862,0 -79.2546523,33.506378,0 -79.2530172,33.5090199,0 -79.25006279999999,33.5137923,0 -79.2463777,33.5198599,0 -79.24418799999999,33.523426,0 -79.24365299999999,33.524274,0 -79.243471,33.524518,0 -79.243168,33.524909,0 -79.243061,33.525036,0 -79.2391288,33.5295265,0 -79.2390808,33.5295808,0 -79.23826680000001,33.530502,0 -79.237371,33.531523,0 -79.236116,33.532955,0 -79.2301629,33.5397611,0 -79.2261322,33.544349,0 -79.22375700000001,33.5470598,0 -79.22034859999999,33.5509426,0 -79.21973490000001,33.5516282,0 -79.2190274,33.5524384,0 -79.2181649,33.5534207,0 -79.21770359999999,33.5539421,0 -79.2167839,33.5550033,0 -79.2166,33.5552416,0 -79.21647249999999,33.5554316,0 -79.2163654,33.5556013,0 -79.2163273,33.5556671,0 -79.216033,33.556175,0 -79.2159637,33.5564582,0 -79.214412,33.560897,0 -79.2142978,33.5612317,0 -79.2140534,33.5619482,0 -79.2137469,33.5628464,0 -79.21212250000001,33.5675239,0 -79.2121023,33.5675819,0 -79.209339,33.575507,0 -79.208034,33.579261,0 -79.207992,33.579385,0 -79.20696700000001,33.582342,0 -79.20475260000001,33.5887392000001,0 -79.2037626,33.591604,0 -79.20256500000001,33.5950469999999,0 -79.2020821,33.5963839,0 -79.198514,33.606737,0 -79.19775,33.608978,0 -79.1975032,33.6096415,0 -79.19674759999999,33.6117896,0 -79.196648,33.612058,0 -79.19656500000001,33.612356,0 -79.19645,33.61273,0 -79.196096,33.614293,0 -79.19605199999999,33.614488,0 -79.19591,33.615132,0 -79.195829,33.615455,0 -79.19575500000001,33.615746,0 -79.19558600000001,33.616284,0 -79.19548399999999,33.616527,0 -79.195258,33.61692,0 -79.19494,33.61745,0 -79.19472399999999,33.617809,0 -79.1945017,33.6181894,0 -79.194282,33.6185577,0 -79.1938512,33.6192928,0 -79.19359300000001,33.619723,0 -79.1932434,33.6203002,0 -79.19311310000001,33.6205334,0 -79.19285259999999,33.621027,0 -79.1926181,33.6215585,0 -79.1912698,33.6244765,0 -79.19098320000001,33.6251978,0 -79.189902,33.6275299,0 -79.1881489,33.6314826,0 -79.1880737,33.6316241,0 -79.187954,33.63184,0 -79.187862,33.631947,0 -79.18770550000001,33.6321343,0 -79.187471,33.6324326,0 -79.187206,33.632681,0 -79.1865238,33.6333041,0 -79.18571799999999,33.63404,0 -79.18224069999999,33.6373296,0 -79.1808273,33.6386093,0 -79.180423,33.6389470000001,0 -79.1779093,33.6413478,0 -79.17733610000001,33.6419443,0 -79.173541,33.645603,0 -79.172325,33.646824,0 -79.171488,33.647645,0 -79.1706729,33.6484836,0 -79.1698066,33.6493024,0 -79.1690184,33.6499801,0 -79.16804689999999,33.6507442,0 -79.1674257,33.651209,0 -79.1673512,33.6512688,0 -79.16671270000001,33.651753,0 -79.16580949999999,33.6524429,0 -79.16453749999999,33.6534178,0 -79.1641697,33.6537264,0 -79.1638603,33.6539933,0 -79.1635223,33.6542526,0 -79.1622912,33.6551489,0 -79.1597759,33.65689,0 -79.1583806,33.6578373,0 -79.1576293,33.6583443,0 -79.1564351,33.6592226,0 -79.1561183,33.6594551,0 -79.15198220000001,33.6623682,0 -79.1516173,33.6626402,0 -79.1503206,33.6635567,0 -79.14980079999999,33.6639179,0 -79.1475398,33.6655206,0 -79.1459327,33.666654,0 -79.1425459,33.6690446,0 -79.1419793,33.6694316,0 -79.1415559,33.6697066,0 -79.1409633,33.670057,0 -79.13910420000001,33.6711602,0 -79.136714,33.6727487,0 -79.1344332,33.6743959,0 -79.1314799,33.6764417,0 -79.12976159999999,33.6778146,0 -79.1291949,33.6783566,0 -79.1287791,33.6787766,0 -79.12367810000001,33.684316,0 -79.1214954,33.6867184,0 -79.1213594,33.6868781,0 -79.1192966,33.6891186,0 -79.1179655,33.6905952,0 -79.1175868,33.6910059,0 -79.11594220000001,33.6928038,0 -79.1136364,33.6953129,0 -79.1130466,33.6959518,0 -79.1119755,33.6971121,0 -79.1111222,33.6980767,0 -79.11008099999999,33.69919,0 -79.108737,33.700489,0 -79.1086643,33.7005629,0 -79.1084496,33.700781,0 -79.1080147,33.7012228,0 -79.1073681,33.7018798,0 -79.1016067,33.7074135,0 -79.0958775,33.7130094000001,0 -79.09301290000001,33.7157938,0 -79.09299129999999,33.7158147,0 -79.09246,33.7163305,0 -79.0910392,33.7177094,0 -79.08766850000001,33.720979,0 -79.08719790000001,33.7213981,0 -79.08682229999999,33.7217639,0 -79.0864576,33.7221566,0 -79.0859571,33.7227505,0 -79.085728,33.7231471,0 -79.0855134,33.7236022,0 -79.085374,33.7240038,0 -79.0852345,33.7244321,0 -79.0843011,33.7276712,0 -79.08386900000001,33.7290975,0 -79.08299220000001,33.7322218,0 -79.082131,33.7351661,0 -79.08141310000001,33.7376205,0 -79.0808354,33.7395954,0 -79.0806692,33.7401891,0 -79.078354,33.7481697,0 -79.0764586,33.7547063,0 -79.0755793,33.7578039,0 -79.0753491,33.7585777,0 -79.074967,33.7598888,0 -79.0747496,33.7605583,0 -79.07424760000001,33.7623208,0 -79.074118,33.762778,0 -79.07386459999999,33.7636721,0 -79.0735842,33.7646447,0 -79.0733627,33.7654731,0 -79.0728141,33.7674005,0 -79.072594,33.768139,0 -79.0725224,33.7683844,0 -79.0723564,33.7689481,0 -79.07222539999999,33.7694245,0 -79.0721544,33.7697441,0 -79.0721222,33.7699562,0 -79.0720963,33.7702464,0 -79.0720888,33.7704102,0 -79.0720903,33.7705838,0 -79.0721008,33.7707965,0 -79.072101,33.7708377,0 -79.0721185,33.7710274,0 -79.0721753,33.7713538,0 -79.07223999999999,33.7716642,0 -79.0723919,33.7723748,0 -79.0725733,33.7732199,0 -79.0736187,33.7781375,0 -79.0736716,33.7783864,0 -79.07405110000001,33.7801713,0 -79.074748,33.7834087,0 -79.07515840000001,33.7854334,0 -79.07540590000001,33.7865269,0 -79.0761289,33.7899265,0 -79.07619939999999,33.7902389,0 -79.0764806,33.7914855,0 -79.0765057,33.7916326,0 -79.0766304,33.7923624,0 -79.0766825,33.7930611,0 -79.0767309,33.7937099,0 -79.07675690000001,33.7939048,0 -79.0769415,33.7966353,0 -79.077038,33.7979994,0 -79.07727250000001,33.8010255,0 -79.07730960000001,33.8015419,0 -79.07744409999999,33.8034014,0 -79.0774722,33.8037855000001,0 -79.077523,33.8044786,0 -79.07754730000001,33.80481,0 -79.07766719999999,33.806201,0 -79.0776814,33.8063657,0 -79.077837,33.8086389,0 -79.0778638,33.8088663,0 -79.07808369999999,33.8123652,0 -79.0780944,33.8131942,0 -79.07802700000001,33.8143333,0 -79.077921,33.8150362,0 -79.077865,33.8156273,0 -79.07776990000001,33.8167962,0 -79.077674,33.8180138,0 -79.0776427,33.818511,0 -79.07760089999999,33.81926,0 -79.07755589999999,33.8198375,0 -79.0775003,33.8201634,0 -79.07746059999999,33.820356,0 -79.077434,33.820438,0 -79.0773992,33.8205455,0 -79.07726409999999,33.820908,0 -79.0770958,33.8212593,0 -79.0769909,33.8214173,0 -79.0768631,33.8216098,0 -79.0766632,33.8218671,0 -79.07649309999999,33.8220789,0 -79.07626740000001,33.8223015,0 -79.07600979999999,33.8224976,0 -79.0754282,33.8228733,0 -79.07488960000001,33.823114,0 -79.07323479999999,33.8238904,0 -79.0726174,33.8241801,0 -79.0724578,33.8242579,0 -79.07134720000001,33.8247904,0 -79.0711422,33.8248887,0 -79.0701658,33.8253633,0 -79.0692727,33.8257867,0 -79.0687765,33.8260162,0 -79.06840630000001,33.8261967,0 -79.0675372,33.8266156,0 -79.0672744,33.8267359,0 -79.0667863,33.8269564,0 -79.066405,33.8271326,0 -79.0658018,33.8273954,0 -79.06322160000001,33.8286231,0 -79.0623338,33.8290242,0 -79.06124749999999,33.8295522,0 -79.06069669999999,33.8298036,0 -79.0603153,33.8299777,0 -79.0602011,33.8300298,0 -79.0601047,33.8300765,0 -79.0597357,33.8302551,0 -79.0593245,33.8304541,0 -79.0590455,33.8305909,0 -79.0589149,33.830655,0 -79.05865009999999,33.8307827,0 -79.0579893,33.8310883,0 -79.0578153,33.8311688,0 -79.0574419,33.831351,0 -79.05670309999999,33.8316985,0 -79.0565692,33.83176,0 -79.056409,33.8318236,0 -79.0565562,33.8318796,0 -79.05692139999999,33.8320185,0 -79.0572693,33.8321626,0 -79.0591355,33.8329719,0 -79.0592855,33.8335848,0 -79.05945149999999,33.8344398,0 -79.05955280000001,33.8351219,0 -79.05956999999999,33.8352504,0 -79.05959609999999,33.8354402,0 -79.0596515,33.8358584,0 -79.0597854,33.8368656,0 -79.059864,33.8373671,0 -79.0599526,33.8379327,0 -79.06000469999999,33.8383763,0 -79.0600862,33.8390693,0 -79.06017989999999,33.8398266,0 -79.0602488,33.8402681,0 -79.06025940000001,33.8403741,0 -79.0604532,33.8415798,0 -79.0605394,33.8422467,0 -79.0606075,33.8425863,0 -79.0606756,33.8428363,0 -79.0608728,33.8433344,0 -79.0608785,33.8433488,0 -79.0610358,33.8436431,0 -79.0610819,33.8437293,0 -79.0611877,33.8438994,0 -79.061291,33.8440657,0 -79.06154909999999,33.8444408,0 -79.0618467,33.8448122,0 -79.0620519,33.844994,0 -79.06221189999999,33.8451144,0 -79.062428,33.8452691,0 -79.06259110000001,33.8453876,0 -79.0623465,33.845731,0 -79.06229089999999,33.845809,0 -79.0622527,33.8458626,0 -79.0619894,33.8462322,0 -79.06135329999999,33.8471249,0 -79.06118499999999,33.8473825,0 -79.0610993,33.8474834,0 -79.0610368,33.8475742,0 -79.0608852,33.8477698,0 -79.06086000000001,33.847797,0 -79.0607595,33.8479053,0 -79.060587,33.8480117,0 -79.05987,33.8482332,0 -79.0591245,33.8484591,0 -79.058712,33.8486086,0 -79.0574869,33.8491605,0 -79.0573784,33.8492177,0 -79.0570378,33.8493973,0 -79.056735,33.8495342,0 -79.0564432,33.8496661,0 -79.0560354,33.8498506,0 -79.05597280000001,33.8498789,0 -79.05603979999999,33.8499782,0 -79.05677710000001,33.8510704,0 -79.056827,33.8511496,0 -79.0568792,33.8512311,0 -79.0569277,33.8513029,0 -79.0570177,33.8514363,0 -79.05709299999999,33.8515478,0 -79.0571571,33.8516428,0 -79.0571996,33.8517045999999,0 -79.0572762,33.851816,0 -79.057312,33.8518715,0 -79.0573246,33.8518902,0 -79.0573661,33.8519693,0 -79.0574395,33.8521116,0 -79.0574804,33.8522005000001,0 -79.0575255,33.8524504,0 -79.05752080000001,33.8525879,0 -79.0575183,33.8526652,0 -79.0575262,33.8529107,0 -79.05740280000001,33.8532478,0 -79.057275,33.8535996,0 -79.0571523,33.8539134,0 -79.0569907,33.8543428,0 -79.0568684,33.8546856999999,0 -79.05679170000001,33.8549139,0 -79.0565785,33.8555482,0 -79.0561776,33.8568043,0 -79.0560461,33.8571664,0 -79.05596199999999,33.8574285,0 -79.0559071,33.857933,0 -79.0558735,33.8587241,0 -79.0558422,33.8593236,0 -79.0558326,33.8595082,0 -79.0558072,33.8599518,0 -79.0557905,33.8602429,0 -79.0557002,33.8614085,0 -79.0556512,33.8618935,0 -79.0555744,33.8622678,0 -79.0554283,33.8628038999999,0 -79.05526759999999,33.8630785999999,0 -79.0550331,33.8635124,0 -79.05483839999999,33.8638337,0 -79.05450570000001,33.8643826,0 -79.0541716,33.8649185,0 -79.0539095,33.8653305,0 -79.0535678,33.8658849,0 -79.0535342,33.8659394,0 -79.0533253,33.8663933,0 -79.0531476,33.8667665,0 -79.0531075,33.8668659,0 -79.05296920000001,33.8672091,0 -79.05296920000001,33.8674105,0 -79.0528813,33.8676893,0 -79.0528704,33.8677448,0 -79.0528099,33.8679316,0 -79.0527127,33.8682313,0 -79.0527093,33.8682436,0 -79.052643,33.868484,0 -79.0525648,33.8687324,0 -79.05195689999999,33.8707489,0 -79.051901,33.8709289,0 -79.05184629999999,33.8711231,0 -79.05169239999999,33.8716094999999,0 -79.05156150000001,33.8719523,0 -79.0513577,33.8723024,0 -79.0509708,33.8729076,0 -79.0505697,33.8735032,0 -79.0504564,33.8736678,0 -79.0501915,33.8740585,0 -79.0499288,33.8744544,0 -79.0495815,33.8750039,0 -79.0492268,33.8756551999999,0 -79.04896650000001,33.8762256,0 -79.0487737,33.876761,0 -79.048692,33.8770822,0 -79.0484877,33.8777957,0 -79.0484369,33.8782684,0 -79.04831040000001,33.8796959,0 -79.0482325,33.8806349,0 -79.0481609,33.8815745,0 -79.0481624,33.8820734,0 -79.0482019,33.8826557,0 -79.0483,33.8833202,0 -79.0483151,33.8835091,0 -79.0483706,33.8838283,0 -79.04850209999999,33.8845511,0 -79.04845880000001,33.8846516,0 -79.048525,33.8854281,0 -79.0485383,33.8861286,0 -79.0485613,33.8865663,0 -79.0485494,33.8866869,0 -79.0484269,33.8879319,0 -79.04830819999999,33.8890582,0 -79.04825599999999,33.889777,0 -79.0480433,33.8915197,0 -79.04796640000001,33.8924432,0 -79.04794699999999,33.8926763,0 -79.04789390000001,33.8931793,0 -79.04766619999999,33.8953349,0 -79.04749750000001,33.8969313,0 -79.0474883,33.8970198,0 -79.0472482,33.8993346,0 -79.0466729,33.9048847,0 -79.0465602,33.905695,0 -79.0463671,33.9070129,0 -79.04615250000001,33.9078855,0 -79.0458521,33.9087714,0 -79.0454981,33.9096529,0 -79.0454223,33.9098172,0 -79.045239,33.9102642,0 -79.04499610000001,33.9108211,0 -79.0447829,33.9113098,0 -79.0446804,33.9115447,0 -79.0445766,33.9117825,0 -79.0444576,33.9120554,0 -79.0442704,33.9124845,0 -79.0442252,33.9125881,0 -79.043987,33.9131399,0 -79.04376240000001,33.9136602,0 -79.0436833,33.9138435,0 -79.0430131,33.9153869,0 -79.04215790000001,33.9173997,0 -79.04148120000001,33.918903,0 -79.0405269,33.9211761,0 -79.0404518,33.9213434,0 -79.0399168,33.9225344,0 -79.0392988,33.9239218,0 -79.03919449999999,33.9241231,0 -79.03856039999999,33.9253466,0 -79.03825999999999,33.9258495,0 -79.0378699,33.9265322,0 -79.0376244,33.9269619,0 -79.0374317,33.9272991,0 -79.03738730000001,33.927382,0 -79.03615550000001,33.9295526,0 -79.0357673,33.9302154,0 -79.03534310000001,33.9309485,0 -79.0328248,33.9353326,0 -79.0324614,33.9359522,0 -79.0322073,33.9363972,0 -79.0306511,33.9390934,0 -79.0297822,33.9407021,0 -79.0295217,33.9411722,0 -79.0288573,33.9429122,0 -79.0286424,33.9435174,0 -79.0285772,33.9436579,0 -79.0284274,33.9441063999999,0 -79.0282516,33.9444954,0 -79.0280952,33.9448628,0 -79.027951,33.9452389,0 -79.0277127,33.9458826,0 -79.0275029,33.9464268,0 -79.02729909999999,33.9470364,0 -79.02714349999999,33.9474592,0 -79.02695,33.947938,0 -79.0263174,33.9497109,0 -79.0260653,33.9505208,0 -79.025738,33.951562,0 -79.0253786,33.9527902,0 -79.0250728,33.9538626,0 -79.0248797,33.9545256,0 -79.0245579,33.9556691,0 -79.02412870000001,33.9572131,0 -79.0237425,33.9584901,0 -79.0232489,33.9601587,0 -79.023088,33.9608261,0 -79.02288950000001,33.961449,0 -79.0225677,33.9622766,0 -79.0221921,33.9631575,0 -79.0205855,33.9670394,0 -79.0201242,33.9681383,0 -79.01950189999999,33.9696465,0 -79.01911560000001,33.9705496,0 -79.0185685,33.9719376,0 -79.01826269999999,33.9726183,0 -79.0178336,33.9732144,0 -79.0177102,33.9733612,0 -79.0174847,33.9735891,0 -79.0170609,33.9738827,0 -79.01613279999999,33.9745233,0 -79.0158933,33.9746856999999,0 -79.0142499,33.9758,0 -79.01111710000001,33.9779442,0 -79.0078931,33.9801462,0 -79.00572579999999,33.9816141,0 -79.0045832,33.9823659,0 -79.0033655,33.9831932000001,0 -79.0029363,33.9834779,0 -79.00210490000001,33.9840339,0 -79.0013002,33.9845944,0 -79.00013079999999,33.9853817,0 -78.99912759999999,33.9860578,0 -78.9982157,33.9866672,0 -78.9976578,33.9870364,0 -78.99585,33.988264,0 -78.9922759,33.9906925,0 -78.9920892,33.9908209,0 -78.99201770000001,33.9908702,0 -78.99184940000001,33.9909861,0 -78.9821278,33.9975485,0 -78.9812974,33.9981005,0 -78.9810682,33.9982652,0 -78.97942949999999,33.9993631,0 -78.9772998,34.000804,0 -78.9735635,34.0033723,0 -78.9717959,34.0046041,0 -78.9681738,34.0070413,0 -78.9665967,34.0081219,0 -78.9625465,34.0105587,0 -78.9625111,34.0105796,0 -78.9599528,34.0120884,0 -78.9592284,34.012543,0 -78.95877539999999,34.012812,0 -78.95756299999999,34.013538,0 -78.956862,34.0139616,0 -78.9565035,34.0141761,0 -78.9542692,34.0155167,0 -78.9513403,34.0172241,0 -78.9490713,34.0185734,0 -78.948555,34.0188804,0 -78.9463755,34.0201765,0 -78.9432802,34.0220372,0 -78.9404612,34.0237201,0 -78.9402412,34.0238508,0 -78.939324,34.0243959,0 -78.9384335,34.024925,0 -78.9375215,34.0254852,0 -78.9366122,34.0260431,0 -78.9347535,34.0271435,0 -78.9321678,34.0286729,0 -78.931331,34.0291975,0 -78.92698040000001,34.0317982,0 -78.9266157,34.0320116,0 -78.9254569,34.0327007,0 -78.9242285,34.0334431,0 -78.92276940000001,34.0343188,0 -78.9214068,34.0351279,0 -78.9206987,34.0355458,0 -78.9192042,34.0364689,0 -78.9185047,34.0368841999999,0 -78.9148369,34.0390717,0 -78.9118381,34.0408587000001,0 -78.9114304,34.0411076,0 -78.9106151,34.0415877,0 -78.90962260000001,34.0421722,0 -78.9081635,34.0430434,0 -78.9079433,34.0431777,0 -78.9060941,34.0442957,0 -78.9060205,34.0443394,0 -78.90586450000001,34.0444321,0 -78.90477,34.0450825,0 -78.9044155,34.0452932,0 -78.9036973,34.04572,0 -78.9031664,34.0460335,0 -78.9027792,34.0462621,0 -78.902641,34.0463457,0 -78.9023959,34.0464939,0 -78.9007488,34.0474902,0 -78.9006756,34.0475332,0 -78.8996665,34.0481367,0 -78.8985194,34.0488041,0 -78.8966551,34.0499609,0 -78.8963596,34.050057,0 -78.8961102,34.0501326000001,0 -78.8957611,34.0502316,0 -78.89546350000001,34.0502987,0 -78.8951872,34.0503425,0 -78.8950116,34.0503705,0 -78.8944508,34.0504527,0 -78.89436980000001,34.0504717,0 -78.89413209999999,34.0505275,0 -78.89354280000001,34.0506895,0 -78.89350229999999,34.0507006,0 -78.8934715,34.0507091,0 -78.8931132,34.0508764,0 -78.8930403,34.0509137,0 -78.8928918,34.0509897,0 -78.89275499999999,34.0510923,0 -78.8927216,34.0511121,0 -78.8923186,34.0513513,0 -78.8920792,34.0515358,0 -78.8919034,34.0516977,0 -78.8915435,34.0521155,0 -78.8914719,34.0521986,0 -78.8910913,34.0527108,0 -78.89086639999999,34.0530142,0 -78.890827,34.0530674,0 -78.8904362,34.0535747,0 -78.8904172,34.0535995,0 -78.8901327,34.0539705,0 -78.8900845,34.0540334,0 -78.8896711,34.0545886,0 -78.8896546,34.0546108,0 -78.8894349,34.0548599,0 -78.88911400000001,34.0552638,0 -78.8888118,34.0556646,0 -78.8887785,34.0557088,0 -78.8887229,34.0557802,0 -78.88840740000001,34.0561851,0 -78.8883838,34.056215,0 -78.8881769,34.0564767,0 -78.8881221,34.0565461,0 -78.8880655,34.0566178,0 -78.887936,34.0567816,0 -78.887708,34.0570701,0 -78.8875037,34.0573286,0 -78.8873964,34.0574643,0 -78.886978,34.0580332,0 -78.8864523,34.0587087,0 -78.88612879999999,34.0591107,0 -78.88600169999999,34.0592687,0 -78.88557419999999,34.0598279,0 -78.8854668,34.0599684,0 -78.8854429,34.0599995999999,0 -78.88515030000001,34.0603824,0 -78.88511889999999,34.0604234,0 -78.8850795,34.0604766,0 -78.884872,34.0607569,0 -78.8848472,34.0607904,0 -78.88482279999999,34.0608234,0 -78.8847976,34.0608575,0 -78.8847691,34.060896,0 -78.8847547,34.0609155,0 -78.8846734,34.0610253,0 -78.8844095,34.0613818,0 -78.88432400000001,34.0615026,0 -78.8842566,34.0615979,0 -78.8840931,34.0618289,0 -78.88397209999999,34.0619999,0 -78.883915,34.0620806,0 -78.8838496,34.062173,0 -78.88369059999999,34.0623992,0 -78.88367049999999,34.0624278,0 -78.88344619999999,34.062747,0 -78.8832748,34.0629866,0 -78.8832201,34.0630669000001,0 -78.883077,34.063277,0 -78.8827579,34.0638005,0 -78.8825178,34.0641942,0 -78.8821483,34.0648003,0 -78.88207920000001,34.0649136,0 -78.8818745,34.0652493,0 -78.88177039999999,34.0654201,0 -78.8813988,34.0659867,0 -78.88113439999999,34.0663897,0 -78.881049,34.0665199,0 -78.8807343,34.0669998,0 -78.8806051,34.0671968,0 -78.88012999999999,34.067962,0 -78.87968309999999,34.0686413,0 -78.879396,34.0691053,0 -78.8784486,34.0706451,0 -78.87773799999999,34.0718172,0 -78.8766073,34.0735936,0 -78.8761957,34.0742499,0 -78.87559899999999,34.075165,0 -78.87537709999999,34.0755488,0 -78.87516170000001,34.0759235,0 -78.8749076,34.0765369,0 -78.8746608,34.0771145,0 -78.87457499999999,34.077541,0 -78.8745213,34.0779232,0 -78.8745144,34.0780746,0 -78.8744999,34.0783941,0 -78.87448759999999,34.0787709,0 -78.8745213,34.0799315,0 -78.8745562,34.0809533,0 -78.8745607,34.0810863,0 -78.8745964,34.0821352,0 -78.8746081,34.0827838,0 -78.87462840000001,34.0839123,0 -78.8746304,34.0840187,0 -78.8746477,34.0849787,0 -78.87467150000001,34.0863013,0 -78.8747439,34.087127,0 -78.87493980000001,34.0893592,0 -78.87495029999999,34.0896071,0 -78.8750321,34.0917644,0 -78.875118,34.095532,0 -78.87518439999999,34.0977786000001,0 -78.8752386,34.1001844,0 -78.87524310000001,34.1003865,0 -78.8753447,34.1049768,0 -78.8754113,34.1070123,0 -78.875489,34.109843,0 -78.8755744,34.1128051,0 -78.8756363,34.1146632,0 -78.8756274,34.1167774,0 -78.8757688,34.1217737,0 -78.8758483,34.1247874,0 -78.8759544,34.1283058,0 -78.8759809,34.1291689,0 -78.876006,34.1302949,0 -78.8760113,34.1309344000001,0 -78.8760221,34.1314494,0 -78.87585206389808,34.13246322622995,0 -78.87561318489017,34.13339736262502,0 -78.87519070486,34.13426490876201,0 
				
					-78.87510469999999,34.1344377999999,0 -78.87490150000001,34.1347828,0 -78.8746149,34.1352276,0 -78.8744518,34.1354473,0 -78.8743015,34.1356499,0 -78.8742128,34.1357539000001,0 -78.8737368,34.1363116,0 -78.873254,34.1367911,0 -78.872739,34.1372173,0 -78.8707864,34.1386737,0 -78.87015340000001,34.1391266,0 -78.8690376,34.1399391,0 -78.8679313,34.1408025,0 -78.8670193,34.1414684,0 -78.86637020000001,34.1419657,0 -78.8657802,34.1424852,0 -78.8653027,34.1429647,0 -78.864777,34.1436262,0 -78.86436930000001,34.1442034,0 -78.8640474,34.1447894,0 -78.8636398,34.1455708,0 -78.86212159999999,34.1487229,0 -78.8618754,34.1492541,0 -78.8616442,34.1497529,0 -78.860139,34.152736,0 -78.8599383,34.1531889,0 -78.85905320000001,34.1550001,0 -78.85868840000001,34.1556083,0 -78.85828069999999,34.1561543,0 -78.85799919999999,34.1564594,0 -78.8577228,34.156717,0 -78.85746260000001,34.1569433,0 -78.8571944,34.1571553,0 -78.8569347,34.157347,0 -78.85657329999999,34.1575687,0 -78.8562124,34.1577755,0 -78.8560487,34.1578614,0 -78.8558955,34.1579408,0 -78.85539199999999,34.1581319,0 -78.8550486,34.1582695,0 -78.8547164,34.1583879,0 -78.8545333,34.1584423,0 -78.8542894,34.1585072,0 -78.8539495,34.158582,0 -78.8531619,34.1587474,0 -78.8522567,34.158932,0 -78.85077800000001,34.1592395,0 -78.85043760000001,34.1593204,0 -78.8501603,34.1593913,0 -78.84990620000001,34.1594696,0 -78.8495028,34.1596059,0 -78.8491947,34.1597305,0 -78.8488826,34.1598635,0 -78.8481043,34.1602142,0 -78.84732990000001,34.1605709,0 -78.846328,34.1610266,0 -78.8457172,34.1613064,0 -78.8452635,34.1615111,0 -78.8411787,34.1633664,0 -78.8396382,34.1640746,0 -78.8385942,34.1645303,0 -78.8374365,34.1650264,0 -78.83624279999999,34.1655406,0 -78.8356283,34.165802,0 -78.8348774,34.166127,0 -78.8344177,34.1663167,0 -78.8340139,34.1664707,0 -78.8334342,34.1666809,0 -78.83279589999999,34.1668749,0 -78.8321054,34.1670797,0 -78.82996249999999,34.1675647,0 -78.8288096,34.1678989,0 -78.82767,34.168314,0 -78.82595670000001,34.1689929,0 -78.82552680000001,34.1691815,0 -78.8245845,34.1695616,0 -78.8242049,34.1697147,0 -78.82243219999999,34.1704297,0 -78.82215600000001,34.1705432,0 -78.82183670000001,34.1706708,0 -78.8203346,34.171293,0 -78.8198347,34.1715436,0 -78.8195611,34.1717095,0 -78.81916750000001,34.1719758,0 -78.8188141,34.1722571,0 -78.8183836,34.1726154,0 -78.81787199999999,34.1730465,0 -78.8173999,34.1734465,0 -78.8168883,34.173872,0 -78.8164008,34.1742787,0 -78.8162854,34.1743713,0 -78.8156303,34.1749582,0 -78.8151623,34.1754254,0 -78.8148437,34.1757471000001,0 -78.8140947,34.1764966000001,0 -78.8136227,34.1769643,0 -78.8134379,34.1771354,0 -78.81316,34.1774014,0 -78.8127597,34.1777376,0 -78.8124351,34.177995,0 -78.8121414,34.1782119,0 -78.8117835,34.1784609999999,0 -78.8111933,34.1788193,0 -78.81058040000001,34.1791677,0 -78.81007339999999,34.1794551,0 -78.80962890000001,34.1797019000001,0 -78.8084447,34.1803709,0 -78.80801750000001,34.1806111,0 -78.80772380000001,34.1807725,0 -78.8070452,34.1811575,0 -78.80668350000001,34.181361,0 -78.8063587,34.1815395,0 -78.80604460000001,34.1817,0 -78.80569869999999,34.1818717,0 -78.8051629,34.1821227,0 -78.80470870000001,34.18232,0 -78.8043218,34.1824761,0 -78.803721,34.1827044,0 -78.803235,34.1828876,0 -78.8026347,34.1831092,0 -78.8017846,34.183423,0 -78.80117389999999,34.1836478,0 -78.79984279999999,34.1841413,0 -78.7985163,34.1846315,0 -78.7968261,34.1852511,0 -78.795952,34.185581,0 -78.7954616,34.1857624,0 -78.7947192,34.1860361,0 -78.79410439999999,34.1862591,0 -78.7937264,34.1863884000001,0 -78.7933859,34.1864913,0 -78.79307489999999,34.1865724,0 -78.7928022,34.1866376999999,0 -78.7924354,34.1867142,0 -78.7921331,34.186765,0 -78.79176870000001,34.1868204,0 -78.79133969999999,34.1868666,0 -78.79066349999999,34.1869246,0 -78.78996170000001,34.1869814,0 -78.7890886,34.1870493,0 -78.7881739,34.1871212,0 -78.785906,34.1872967,0 -78.7851533,34.1873587,0 -78.783135,34.1875177,0 -78.78154809999999,34.1876417,0 -78.7802746,34.1877452,0 -78.7786303,34.1878765,0 -78.7782436,34.1879227,0 -78.77780660000001,34.1879873,0 -78.7774501,34.1880553,0 -78.7770084,34.1881529,0 -78.7765411,34.1882756,0 -78.7761017,34.1884141,0 -78.775648,34.1885766,0 -78.7751189,34.1887952,0 -78.7747145,34.1889816,0 -78.7743545,34.189169,0 -78.7739461,34.1894037,0 -78.7735002,34.189691,0 -78.7731412,34.1899416,0 -78.7728041,34.1902096,0 -78.77260099999999,34.1903788,0 -78.772431,34.1905299,0 -78.7722476,34.1907044,0 -78.77193509999999,34.1910233,0 -78.7716334,34.19136,0 -78.7712511,34.1917893,0 -78.7708736,34.1922152,0 -78.7699047,34.1932990000001,0 -78.769076,34.1942321,0 -78.7685158,34.194857,0 -78.7679947,34.1955358,0 -78.7673564,34.1965487,0 -78.7667659,34.1976996,0 -78.7663795,34.1984618,0 -78.7661311,34.1989548,0 -78.76585129999999,34.199512,0 -78.7655225,34.2001592,0 -78.7652688,34.2005963,0 -78.7651008,34.2008606,0 -78.76450250000001,34.2017709,0 -78.7638872,34.2027097,0 -78.7627852,34.2043947,0 -78.761596,34.2063,0 -78.7610486,34.2071622,0 -78.7607021,34.2077189,0 -78.760401,34.2081938,0 -78.7599712,34.2088697,0 -78.7597087,34.2093002,0 -78.75948320000001,34.209703,0 -78.7593217,34.2099956,0 -78.75910380000001,34.2104218,0 -78.7589679,34.2107158,0 -78.7587934,34.2111277,0 -78.7586306,34.211516,0 -78.75775109999999,34.2136632,0 -78.7573994,34.2145142,0 -78.7572495,34.2148805,0 -78.7570802,34.2153168,0 -78.7569707,34.2156367,0 -78.7568649,34.2159686,0 -78.75676799999999,34.2163005999999,0 -78.7565331,34.2172073,0 -78.755967,34.2195145,0 -78.7553837,34.2218784,0 -78.7551242,34.2229375,0 -78.7550731,34.2231514,0 -78.75505200000001,34.2232397,0 -78.7547484,34.2244405,0 -78.7543836,34.2259807,0 -78.7538914,34.2279687,0 -78.753635,34.2289881,0 -78.7534778,34.2296518,0 -78.75321599999999,34.230712,0 -78.7531741,34.2308977,0 -78.7531015,34.2312537,0 -78.7530575,34.231528,0 -78.7530021,34.2319359,0 -78.752965,34.2323622,0 -78.7529535,34.2327443,0 -78.75296059999999,34.2331159,0 -78.7529737,34.2333664,0 -78.7530714,34.2345511,0 -78.7531365,34.2352511,0 -78.75319349999999,34.2357824,0 -78.7532092,34.2359282,0 -78.7532307,34.2361728,0 -78.7532807,34.2365534,0 -78.7533275,34.2368021,0 -78.7533806,34.237015,0 -78.7534489,34.2372511,0 -78.7535314,34.2374978,0 -78.7536135,34.2377061,0 -78.75371320000001,34.2379414,0 -78.7538234,34.2381642,0 -78.7543089,34.2390851,0 -78.7544947,34.2395291,0 -78.7545757,34.2397489,0 -78.7546687,34.2400694,0 -78.7547477,34.240388,0 -78.754786,34.24065,0 -78.7548213,34.2409227,0 -78.75484609999999,34.241206,0 -78.75483730000001,34.2417436,0 -78.7548013,34.2422768,0 -78.75476310000001,34.2428081,0 -78.7546737,34.2441734,0 -78.7546012,34.2452585,0 -78.7545425,34.2461215,0 -78.7544899,34.2468158,0 -78.75447370000001,34.2470858,0 -78.7544414,34.2475825,0 -78.7543927,34.2481177,0 -78.7543651,34.2482804,0 -78.75432619999999,34.248508,0 -78.7542885,34.2486678,0 -78.7542438,34.2488307,0 -78.7541698,34.2490308,0 -78.7540913,34.2492221,0 -78.75400639999999,34.2493974,0 -78.75391380000001,34.2495575,0 -78.75381470000001,34.2497181,0 -78.7537332,34.249837,0 -78.7535895,34.2500206,0 -78.7534465,34.2502002,0 -78.75296229999999,34.2507539,0 -78.75203759999999,34.2518073,0 -78.7517498,34.2521296,0 -78.7502424,34.2538509999999,0 -78.7499821,34.2541433,0 -78.74970140000001,34.2544633,0 -78.74934589999999,34.2548663,0 -78.748726,34.255581,0 -78.7479632,34.2564263,0 -78.7465857,34.2579756,0 -78.7465119,34.2580582,0 -78.7458311,34.2588239,0 -78.7444661,34.2603591,0 -78.7442339,34.2606424,0 -78.7441256,34.260788,0 -78.7440297,34.2609351,0 -78.7438638,34.2612057,0 -78.7437496,34.2614357,0 -78.74360040000001,34.2618226,0 -78.7428377,34.2643122,0 -78.74245259999999,34.2655976,0 -78.7422495,34.2662756,0 -78.74217299999999,34.2665306,0 -78.7421116,34.2667709999999,0 -78.7420585,34.2670071,0 -78.7420163,34.2672442,0 -78.741983,34.2674754,0 -78.74195469999999,34.267775,0 -78.7419415,34.2680628,0 -78.74194799999999,34.268881,0 -78.7419692,34.2702769,0 -78.74198509999999,34.2706285,0 -78.7419957,34.2710038999999,0 -78.74201859999999,34.2713814,0 -78.7420376,34.2716535000001,0 -78.7420863,34.2721943,0 -78.74212559999999,34.2726762,0 -78.7421587,34.2729619,0 -78.7425404,34.2764105,0 -78.74265440000001,34.2772529,0 -78.7427359,34.2780251,0 -78.7427565,34.2782215,0 -78.7427617,34.2784636,0 -78.7427459,34.2787869,0 -78.74271210000001,34.2790523,0 -78.7426231,34.279406,0 -78.74257470000001,34.2795601,0 -78.7425121,34.2797398,0 -78.74243629999999,34.2799193,0 -78.7423663,34.2800698,0 -78.7422152,34.2803546,0 -78.740748,34.282956,0 -78.7396293,34.2849178,0 -78.73943389999999,34.285248,0 -78.7391429,34.2857723,0 -78.7388835,34.2862339,0 -78.7385957,34.286624,0 -78.73824159999999,34.2870937999999,0 -78.73788759999999,34.2874661,0 -78.7370722,34.2881753,0 -78.7348942,34.2900102,0 -78.73403589999999,34.2907193,0 -78.7315085,34.2927842,0 -78.72856899999999,34.2950716,0 -78.7281957,34.2953787000001,0 -78.727791,34.295709,0 -78.72669670000001,34.2965262,0 -78.7254209,34.297479,0 -78.7237583,34.2988059,0 -78.72271720000001,34.2996239,0 -78.7216221,34.3005021,0 -78.7212688,34.3007761000001,0 -78.720581,34.3013282,0 -78.72043170000001,34.301365,0 -78.7202286,34.301547,0 -78.7199912,34.3017712,0 -78.7199178,34.3018393,0 -78.7197694,34.3019773,0 -78.719437,34.3023398,0 -78.7189401,34.3029962,0 -78.71847030000001,34.3037513,0 -78.71776989999999,34.3048121,0 -78.7171316,34.3057644,0 -78.7169074,34.3062072,0 -78.71690359999999,34.3063886,0 -78.7163972,34.3071672,0 -78.7161024,34.3076206,0 -78.71521660000001,34.3090034,0 -78.7144545,34.3101117,0 -78.7136534,34.3113276,0 -78.7126894,34.312764,0 -78.7124419,34.313146,0 -78.710988,34.315218,0 -78.710488,34.316019,0 -78.71044879999999,34.3160887,0 -78.7095405,34.3173911,0 -78.7088986,34.3183749,0 -78.7086966,34.3186817,0 -78.7085143,34.3189507,0 -78.7082668,34.3193757,0 -78.7080844,34.3197254,0 -78.7079411,34.3201503,0 -78.7078346,34.3206164,0 -78.70780619999999,34.3208793,0 -78.7077917,34.3212278,0 -78.7077804,34.3221322,0 -78.7077804,34.3226024,0 -78.7077565,34.3235005,0 -78.707722,34.3246303,0 -78.7076917,34.3262602,0 -78.7076768,34.3276433,0 -78.7076824,34.3280178,0 -78.7077204,34.3285532,0 -78.7077305,34.3286956,0 -78.7077419,34.3288555,0 -78.7077706,34.3292593,0 -78.7078795,34.3305611,0 -78.7078997,34.3307982,0 -78.70795870000001,34.3314923,0 -78.708061,34.3325793,0 -78.7081577,34.3338405,0 -78.70818439999999,34.3341892,0 -78.7082221,34.3346824,0 -78.70826479999999,34.3352412,0 -78.7082685,34.3353119,0 -78.70829500000001,34.3358225,0 -78.7083094,34.3360991,0 -78.7083299,34.3364935,0 -78.70834910000001,34.3367773,0 -78.70837280000001,34.3368807,0 -78.7083962,34.3370857,0 -78.7084211,34.3374201,0 -78.7084418,34.3377004,0 -78.70845,34.3378114,0 -78.7084619,34.3379722,0 -78.7084729,34.3381209,0 -78.7084952,34.3384228999999,0 -78.70853839999999,34.3390649,0 -78.70855090000001,34.3394225,0 -78.7085577,34.3396178,0 -78.7085629,34.3397664,0 -78.70856430000001,34.3398076,0 -78.7086061,34.3399767,0 -78.70868919999999,34.3404534,0 -78.70874449999999,34.3408583,0 -78.70875719999999,34.34109,0 -78.7087683,34.3412925,0 -78.7088157,34.3418574,0 -78.7088445,34.3421515,0 -78.70886710000001,34.342383,0 -78.7089146,34.3427259,0 -78.7089933,34.3432233,0 -78.70901790000001,34.3433884,0 -78.7090802,34.3438062,0 -78.70911510000001,34.3440544,0 -78.7091571,34.344311,0 -78.7092822,34.3450749,0 -78.70932879999999,34.3453996,0 -78.7093674,34.3456647,0 -78.70942340000001,34.3460268,0 -78.709473,34.3463488,0 -78.7095394,34.3469458,0 -78.70961250000001,34.347731,0 -78.7096349,34.3480918,0 -78.7096501,34.3483052,0 -78.7096732,34.3484664,0 -78.7097093,34.3485916,0 -78.70975749999999,34.3487353,0 -78.7097976,34.3487789,0 -78.7098129,34.3488309999999,0 -78.7098206,34.3488874,0 -78.7098082,34.3489433000001,0 -78.70977670000001,34.3489937,0 -78.709721,34.3490789,0 -78.7096854,34.349154,0 -78.70965769999999,34.3492421,0 -78.70964360000001,34.3493934,0 -78.7096887,34.3502609,0 -78.7097085,34.3504991,0 -78.70975559999999,34.350656,0 -78.7097926,34.3507491,0 -78.7098493,34.3508773,0 -78.7098934,34.3509305,0 -78.7099158,34.3509922,0 -78.7099144,34.3510567000001,0 -78.70988939999999,34.3511177,0 -78.7098586,34.3511558,0 -78.70979579999999,34.3512587,0 -78.7097533,34.3513613,0 -78.70972159999999,34.3514584,0 -78.7097163,34.3515666,0 -78.7097267,34.3516608,0 -78.7097606,34.351834,0 -78.70977070000001,34.3520268,0 -78.7097935,34.3525758,0 -78.7098151,34.3530307,0 -78.7098404,34.3534604,0 -78.7098577,34.3540304,0 -78.7098725,34.3543947,0 -78.70983200000001,34.3545892,0 -78.7098811,34.3558319,0 -78.7099387,34.3571914000001,0 -78.70994810000001,34.3577575,0 -78.70997850000001,34.358456,0 -78.709998,34.3592461,0 -78.71003,34.3602394,0 -78.71006559999999,34.3611247,0 -78.71008070000001,34.3616981,0 -78.71009890000001,34.361942,0 -78.71013840000001,34.3624793,0 -78.7102407,34.3631401,0 -78.71037509999999,34.363682,0 -78.71049910000001,34.3640849,0 -78.71066,34.3644657,0 -78.7107781,34.364727,0 -78.7111343,34.3653598,0 -78.711551,34.3659771,0 -78.7118303,34.3663194,0 -78.712115,34.3666393,0 -78.7130087,34.3675075,0 -78.713809,34.3682937,0 -78.7147465,34.3691999,0 -78.7160793,34.3704931,0 -78.71749459999999,34.3718682,0 -78.71848850000001,34.3728232999999,0 -78.71923510000001,34.3735556,0 -78.7200012,34.37428,0 -78.7203619,34.3746546,0 -78.72052789999999,34.3748199,0 -78.72065069999999,34.3749435,0 -78.721101,34.3754577,0 -78.7213745,34.3758252,0 -78.7215569,34.3760953,0 -78.721718,34.376358,0 -78.7218251,34.3765336,0 -78.72195929999999,34.3767816,0 -78.7221626,34.3772186,0 -78.7226062,34.3781567,0 -78.72281220000001,34.3785924,0 -78.72362,34.380335,0 -78.7240523,34.3812134,0 -78.7242408,34.3816217,0 -78.72441619999999,34.3820014,0 -78.72470389999999,34.3826205,0 -78.72553240000001,34.3843814,0 -78.7268194,34.3871235,0 -78.7273663,34.3882768,0 -78.7277689,34.3891289,0 -78.72913010000001,34.3920146,0 -78.72963970000001,34.3931025,0 -78.7299522,34.3937724999999,0 -78.730189,34.3944183,0 -78.7302729,34.3946984,0 -78.7303546,34.3950031,0 -78.7304458,34.3955874,0 -78.7305017,34.3960394,0 -78.73053880000001,34.3965065,0 -78.73079989999999,34.4001706,0 -78.73086960000001,34.4010628,0 -78.7309554,34.4021561,0 -78.7310466,34.403329,0 -78.73108139999999,34.4037823,0 -78.7311071,34.4039518,0 -78.7311251,34.4040837,0 -78.731178,34.4043744000001,0 -78.7312075,34.4045107,0 -78.7312529,34.4047033,0 -78.7313953,34.4051835,0 -78.7315411,34.4056489,0 -78.7317178,34.4062133,0 -78.7317374,34.4062756,0 -78.7318819,34.406737,0 -78.7321209,34.4075003,0 -78.7323355,34.4081853,0 -78.73246210000001,34.408582,0 -78.73259729999999,34.4090031,0 -78.733761,34.4127073,0 -78.73420849999999,34.4141225999999,0 -78.73459250000001,34.4153449,0 -78.7347856,34.4159733,0 -78.73493910000001,34.4165934,0 -78.73498979999999,34.416882,0 -78.7350323,34.4171372,0 -78.73505919999999,34.4175399,0 -78.73507069999999,34.4178311,0 -78.7350764,34.4179756,0 -78.7350733,34.4181532,0 -78.7350659,34.4182967,0 -78.73505729999999,34.4184258,0 -78.7350055,34.4188895999999,0 -78.7348875,34.4194737,0 -78.734689,34.4201375,0 -78.7342867,34.42135,0 -78.73361079999999,34.4233767,0 -78.7330529,34.4250626,0 -78.7328383,34.4256821000001,0 -78.7326291,34.4263326,0 -78.73240509999999,34.4269802,0 -78.732355,34.4271318,0 -78.7319973,34.428215,0 -78.7318942,34.4285273,0 -78.73184670000001,34.4286855,0 -78.7317547,34.4289919,0 -78.7316367,34.4294432,0 -78.73160970000001,34.4296062,0 -78.73155079999999,34.4299609,0 -78.7315187,34.4304564,0 -78.7315186,34.4316579,0 -78.7315026,34.4320006,0 -78.7314892,34.4323,0 -78.7314277,34.4327655,0 -78.7313577,34.4332174,0 -78.731201,34.434153,0 -78.7310251,34.4354694,0 -78.73070269999999,34.4375972,0 -78.7304919,34.4388219,0 -78.73038769999999,34.4392168,0 -78.7302643,34.4395575,0 -78.7301168,34.4399358,0 -78.7299585,34.4402322,0 -78.7297198,34.4406502,0 -78.7295079,34.4409489,0 -78.729347,34.4411457,0 -78.72889910000001,34.4416523,0 -78.7283868,34.4421987,0 -78.7274573,34.4431718,0 -78.7262403,34.4444619,0 -78.725837,34.4448775,0 -78.72554529999999,34.4451434,0 -78.72526070000001,34.4453779,0 -78.7249915,34.4455838,0 -78.72470370000001,34.4457758,0 -78.7244736,34.4459191,0 -78.724136,34.446107,0 -78.72378809999999,34.4462774,0 -78.72327180000001,34.4465009,0 -78.72283729999999,34.4466491,0 -78.7224671,34.4467597,0 -78.7220178,34.4468702,0 -78.72102510000001,34.4470603,0 -78.720021,34.4472154,0 -78.7172315,34.4476776,0 -78.7117958,34.4485694,0 -78.71077270000001,34.4487548,0 -78.71010750000001,34.4489185,0 -78.7090797,34.4492022,0 -78.7062505,34.45002,0 -78.7054887,34.450219,0 -78.7050703,34.4503296,0 -78.7044293,34.4504446,0 -78.7037694,34.450542,0 -78.7007449,34.4509816,0 -78.70043,34.451045,0 -78.7001183,34.4511173,0 -78.6998961,34.451173,0 -78.6996086,34.4512583,0 -78.69920159999999,34.4514001,0 -78.698633,34.4516301,0 -78.6977157,34.4520813,0 -78.696196,34.4528447,0 -78.6954707,34.4531916,0 -78.69525779999999,34.4532951,0 -78.6950047,34.4534017,0 -78.6947277,34.4535078,0 -78.6944434,34.4536052,0 -78.6941028,34.4537033,0 -78.69381850000001,34.4537772,0 -78.6935063,34.4538487,0 -78.6931668,34.4539191,0 -78.692491,34.4540551,0 -78.6905515,34.454439,0 -78.6890119,34.4547553,0 -78.6885675,34.4548673,0 -78.6881815,34.454987,0 -78.6877137,34.4551446,0 -78.68696,34.4554498,0 -78.68628409999999,34.4557904,0 -78.6858845,34.4560314,0 -78.68550089999999,34.4562902,0 -78.6847794,34.4568144,0 -78.6819524,34.4589353,0 -78.6801955,34.4602268,0 -78.6792648,34.4609478,0 -78.67858080000001,34.4615073,0 -78.67718259999999,34.462693,0 -78.67522339999999,34.4643473,0 -78.674074,34.4653214,0 -78.6713728,34.4676267,0 -78.6708515,34.4681565,0 -78.6704807,34.4685774,0 -78.6701942,34.4689215,0 -78.66981509999999,34.4694601,0 -78.66948309999999,34.4699925,0 -78.66917119999999,34.4705788,0 -78.6688714,34.471228,0 -78.6684611,34.4723771,0 -78.6681615,34.4733061,0 -78.6678228,34.4743478,0 -78.6664354,34.4785145,0 -78.66502199999999,34.4827292,0 -78.664781,34.4835238,0 -78.6644814,34.484356,0 -78.6644328,34.484478,0 -78.6642143,34.4850271,0 -78.6637649,34.4859774,0 -78.6634066,34.4866754,0 -78.6629093,34.4876212,0 -78.66238509999999,34.4886545,0 -78.6618051,34.4897979,0 -78.66128209999999,34.4908304,0 -78.661079,34.4912256,0 -78.6608501,34.4916747,0 -78.6607959,34.4917823,0 -78.660707,34.4919473,0 -78.65904930000001,34.4951809,0 -78.6588222,34.4956281,0 -78.65860960000001,34.4960162,0 -78.6583165,34.4965581,0 -78.65598559999999,34.5004348,0 -78.65545969999999,34.5017047000001,0 -78.65513970000001,34.5028746,0 -78.6547743,34.5045275,0 -78.6535798,34.5099307,0 -78.653176,34.5116965,0 -78.6530066,34.5127324,0 -78.6529805,34.5134623,0 -78.65303919999999,34.5147718,0 -78.6530848,34.5158559,0 -78.6530327,34.5168649,0 -78.65292839999999,34.5175894,0 -78.6526874,34.5185179,0 -78.6523097,34.5195912,0 -78.6518081,34.5208846,0 -78.6513066,34.522194,0 -78.6510265,34.5229292,0 -78.6506878,34.5236322,0 -78.6502449,34.5244049,0 -78.6497955,34.5250757,0 -78.6489813,34.526149,0 -78.6482388,34.5270451,0 -78.647655,34.527858,0 -78.6468709,34.5292613,0 -78.646215,34.530696,0 -78.6446759,34.534654,0 -78.6440115,34.5363173,0 -78.6438292,34.5369773,0 -78.6436793,34.5376158,0 -78.6435816,34.5382704,0 -78.6435295,34.5389196,0 -78.643536,34.5402127,0 -78.6435165,34.5411677,0 -78.6434514,34.5420798,0 -78.6431908,34.5439254,0 -78.6424222,34.5487699,0 -78.642044,34.552309,0 -78.641998,34.552764,0 -78.6418621,34.5543652,0 -78.64172960000001,34.5559156,0 -78.6416471,34.5568113,0 -78.641569,34.5576374,0 -78.64153640000001,34.5579105,0 -78.6414973,34.5584956,0 -78.6413931,34.5591554,0 -78.6412303,34.5598528,0 -78.6409567,34.560652,0 -78.640613,34.5614294,0 -78.64002290000001,34.5624455,0 -78.6397654,34.562843,0 -78.6396903,34.5629402,0 -78.63914320000001,34.5638414,0 -78.6386426,34.5646523,0 -78.63758230000001,34.566355,0 -78.6368401,34.5676211,0 -78.63500209999999,34.5705897,0 -78.63340770000001,34.5731742,0 -78.63237770000001,34.5748438,0 -78.6292218,34.5799336,0 -78.6277485,34.5823306,0 -78.6263186,34.5846571,0 -78.62588340000001,34.585346,0 -78.62520720000001,34.5864414,0 -78.6245409,34.5875373,0 -78.62366400000001,34.5889504,0 -78.6189103,34.5966988,0 -78.6187972,34.5968832000001,0 -78.61867359999999,34.5970686,0 -78.6185406,34.5972747,0 -78.6184645,34.5973929,0 -78.61838469999999,34.5975237,0 -78.6183185,34.5976298,0 -78.6182385,34.5977583,0 -78.6181607,34.5978892,0 -78.6180854,34.5980281,0 -78.6180075,34.5981807,0 -78.6179327,34.598329,0 -78.6178548,34.5984808,0 -78.6177727,34.5986369,0 -78.6176878,34.598796,0 -78.6176134,34.5989416,0 -78.61754759999999,34.5990758,0 -78.6174731,34.5992299,0 -78.61741910000001,34.5993443,0 -78.6173696,34.5994537,0 -78.61732809999999,34.5995472,0 -78.6172588,34.5997038,0 -78.61720769999999,34.5998267,0 -78.6171547,34.5999573,0 -78.6170989,34.6001025,0 -78.617043,34.6002476,0 -78.6169901,34.6003855,0 -78.61694540000001,34.6005043,0 -78.6168981,34.6006421,0 -78.6168436,34.6008051,0 -78.6167945,34.6009467000001,0 -78.6167415,34.6011048,0 -78.6166939,34.6012679,0 -78.6166498,34.6014256000001,0 -78.6166001,34.6016122,0 -78.6165577,34.6017864,0 -78.6165173,34.601957,0 -78.6164814,34.6021324,0 -78.61644339999999,34.6023299,0 -78.6164088,34.6025248,0 -78.61637279999999,34.6027457,0 -78.6163426,34.6029512,0 -78.6163011,34.603223,0 -78.61627059999999,34.6034465,0 -78.6162475,34.6036026,0 -78.6162145,34.6038069,0 -78.61616600000001,34.6040898,0 -78.6161209,34.604337,0 -78.6160814,34.6045615,0 -78.6160319,34.6048844,0 -78.61599390000001,34.6051607,0 -78.6159681,34.6053566,0 -78.61556539999999,34.6083192,0 -78.6155504,34.608448,0 -78.6155349,34.6085869,0 -78.6155174,34.6087195,0 -78.6155012,34.6088420000001,0 -78.6154942,34.6088851,0 -78.6154839,34.6089527,0 -78.6154598,34.6090928,0 -78.6154334,34.6092329,0 -78.6154193,34.6093009,0 -78.6153978,34.6094009,0 -78.6153788,34.6094835,0 -78.6153563,34.6095776,0 -78.6153355,34.6096661,0 -78.61530449999999,34.6097902,0 -78.61527479999999,34.6099055,0 -78.61525760000001,34.6099672,0 -78.61524199999999,34.6100201,0 -78.6152262,34.6100705,0 -78.6152099,34.6101216000001,0 -78.61519269999999,34.6101764,0 -78.6151705,34.6102435,0 -78.61514200000001,34.6103313,0 -78.6149688,34.6108209,0 -78.614114,34.612875,0 -78.61340300000001,34.614544,0 -78.61214579999999,34.6174473,0 -78.6115279,34.6189849,0 -78.6111416,34.6199826,0 -78.61058370000001,34.6211127,0 -78.610294,34.62151,0 -78.609747,34.622192,0 -78.6091303,34.6228257,0 -78.6090552,34.6229051,0 -78.60829339999999,34.6235363999999,0 -78.6081057,34.6236953,0 -78.6078321,34.624022,0 -78.6075209,34.6245694,0 -78.60743239999999,34.6247356,0 -78.6072559,34.6250642,0 -78.6069751,34.6255866,0 -78.6068504,34.6258186,0 -78.6067753,34.6260261,0 -78.60675209999999,34.6262441,0 -78.6067055,34.6266176,0 -78.60665849999999,34.6267755,0 -78.60663580000001,34.6268515,0 -78.6064882,34.6272129,0 -78.6063431,34.6275683,0 -78.6057745,34.6289058,0 -78.6054754,34.6293266,0 -78.60524479999999,34.6296047,0 -78.6048969,34.6300559,0 -78.6047671,34.6302118,0 -78.6045742,34.6304434,0 -78.6040485,34.6311231,0 -78.6034691,34.6318779,0 -78.6028093,34.6326945,0 -78.601833,34.6338156,0 -78.60035240000001,34.6356253,0 -78.59900589999999,34.6373113,0 -78.5982978,34.6381631,0 -78.5972357,34.6394696,0 -78.5963613,34.6405288,0 -78.59550830000001,34.6415792,0 -78.5948592,34.6423957,0 -78.5945696,34.6427532,0 -78.5940927,34.6433353,0 -78.5939061,34.6435432,0 -78.5937464,34.6437353,0 -78.59361,34.6438724,0 -78.5934591,34.6439977,0 -78.593148,34.6442316,0 -78.5929191,34.6443869,0 -78.5927308,34.644485,0 -78.5924526,34.644602,0 -78.5920007,34.6447681,0 -78.5913315,34.6449698,0 -78.5909187,34.6451012,0 -78.5902864,34.6453128,0 -78.58895029999999,34.6457211,0 -78.586928,34.646359,0 -78.5859892,34.6466038,0 -78.5850665,34.6467626,0 -78.5831192,34.6470142,0 -78.5817888,34.6472084,0 -78.5801876,34.6473783,0 -78.57803389999999,34.6476405,0 -78.5763374,34.6478368,0 -78.5757895,34.6479168,0 -78.5737395,34.6481639,0 -78.57264379999999,34.648302,0 -78.5711541,34.6484855,0 -78.57039210000001,34.6485498,0 -78.5696233,34.6485672,0 -78.5690815,34.6485407,0 -78.5690321,34.6485374,0 -78.56855040000001,34.6485054,0 -78.56835479999999,34.6484786,0 -78.56797109999999,34.648426,0 -78.567859,34.6484065,0 -78.5673864,34.6483245,0 -78.567177,34.6482892,0 -78.5669439,34.64825,0 -78.56668430000001,34.6482063,0 -78.56614310000001,34.6481152,0 -78.5649559,34.6478861,0 -78.5648498,34.6478656000001,0 -78.5648327,34.6478629,0 -78.5642071,34.6477655,0 -78.5636342,34.6476573,0 -78.5618884,34.6473442,0 -78.5610537,34.64719,0 -78.56027640000001,34.647075,0 -78.5595886,34.6469993,0 -78.558965,34.6469689,0 -78.55690749999999,34.647011,0 -78.55625089999999,34.6470267,0 -78.5551145,34.6470415,0 -78.5546148,34.6470757,0 -78.55398599999999,34.6471437,0 -78.5530701,34.6472994,0 -78.5524674,34.6474349,0 -78.55103269999999,34.6477942,0 -78.5495483,34.648152,0 -78.5482952,34.6484541,0 -78.54745579999999,34.6486658,0 -78.5472286,34.6487230999999,0 -78.5469313,34.6487981,0 -78.54397040000001,34.6495088,0 -78.54310940000001,34.6497188,0 -78.54251669999999,34.6498562000001,0 -78.5419043,34.6499572,0 -78.5412705,34.650028,0 -78.5406375,34.650075,0 -78.5401019,34.6500766,0 -78.5395185,34.6500561,0 -78.53902309999999,34.6500106,0 -78.5385277,34.6499473,0 -78.5339693,34.6492481,0 -78.53326060000001,34.6491404,0 -78.5319801,34.6489376,0 -78.5311334,34.6487997,0 -78.53010569999999,34.6486372,0 -78.5294134,34.6485434,0 -78.527895,34.6483177,0 -78.5269088,34.6481787,0 -78.5264044,34.6481453,0 -78.5260396,34.6481476,0 -78.525251,34.648184,0 -78.524846,34.6482237,0 -78.52455089999999,34.6482711,0 -78.5242988,34.6483384,0 -78.5240977,34.6484123,0 -78.5238643,34.6485105,0 -78.5236725,34.6486231,0 -78.5235673,34.6487052,0 -78.5234181,34.648826,0 -78.5232477,34.6489656,0 -78.5231266,34.6490625,0 -78.5228477,34.6492961,0 -78.5214469,34.6505958,0 -78.51947370000001,34.6524074,0 -78.5187159,34.6530202,0 -78.5180561,34.6534652,0 -78.5175996,34.6537262,0 -78.51712019999999,34.6539709,0 -78.51661319999999,34.6542016,0 -78.5160724,34.6544259,0 -78.5138087,34.6552085,0 -78.51152639999999,34.6559763,0 -78.5093827,34.6567123,0 -78.50908819999999,34.6568067,0 -78.5083937,34.6569772,0 -78.50770900000001,34.65709,0 -78.50743009999999,34.6571087,0 -78.5070644,34.6571333,0 -78.50682860000001,34.6571232,0 -78.50646709999999,34.6571077,0 -78.50605729999999,34.6570825,0 -78.5056673,34.6570357,0 -78.5046467,34.6569195000001,0 -78.50310500000001,34.6567039,0 -78.50247330000001,34.6566157,0 -78.5018508,34.6564906,0 -78.4992903,34.6557945,0 -78.4975158,34.655292,0 -78.49671429999999,34.6550589,0 -78.49636889999999,34.6549843,0 -78.4960021,34.6549466,0 -78.4957438,34.65494,0 -78.4954238,34.6549493,0 -78.4951721,34.6549602,0 -78.4950917,34.6549746,0 -78.49485300000001,34.6550247,0 -78.4946927,34.6550649,0 -78.49452239999999,34.6551111,0 -78.4944014,34.655156,0 -78.4942264,34.6552209,0 -78.4939763,34.6553389,0 -78.49367119999999,34.6555147,0 -78.4934756,34.6556705,0 -78.4933095,34.6558303,0 -78.4932268,34.6559253,0 -78.4930267,34.6561484,0 -78.4927886,34.656494,0 -78.4926612,34.6567955,0 -78.49200759999999,34.6589228,0 
				
					-78.49200759999999,34.6589228,0 -78.4917533,34.6596008,0 -78.49098650000001,34.6620364,0 -78.4904999,34.6636087,0 -78.4903529,34.6641263,0 -78.4902912,34.6645168,0 -78.4902548,34.6648713,0 -78.4902446,34.6653306,0 -78.4901102,34.672534,0 -78.4900067,34.6769006,0 -78.4900051,34.6780798,0 -78.4899825,34.6790874,0 -78.4899506,34.6803125,0 -78.4897763,34.6815856,0 -78.4895298,34.6826028,0 -78.4892286,34.6835038,0 -78.4888316,34.6844343,0 -78.4883834,34.6852588,0 -78.4878592,34.6860169,0 -78.48682530000001,34.6873931,0 -78.48339799999999,34.691825,0 -78.481863,34.6938768,0 -78.48144670000001,34.694485,0 -78.4803067,34.6960075,0 -78.4777023,34.6994486,0 -78.4769196,34.7003795999999,0 -78.476045,34.7012513,0 -78.4751387,34.7020266,0 -78.4741607,34.7028396,0 -78.4731257,34.7035748,0 -78.4723905,34.7039649,0 -78.4706889,34.7048603,0 -78.4666103,34.7066463999999,0 -78.4649543,34.7074027,0 -78.4624341,34.7085682,0 -78.4613081,34.7090751,0 -78.4567942,34.7111107,0 -78.4543711,34.7122233,0 -78.452882,34.7129484,0 -78.451241,34.7139388,0 -78.4501949,34.7147162,0 -78.4493962,34.7153949,0 -78.4485411,34.7162296,0 -78.44792200000001,34.7168716,0 -78.44460119999999,34.7209043,0 -78.44268599999999,34.723214,0 -78.44146379999999,34.7246466,0 -78.44113280000001,34.7250423,0 -78.43764059999999,34.7292644,0 -78.4339501,34.7336689,0 -78.432686,34.7351696,0 -78.43198750000001,34.7360274,0 -78.43000379999999,34.7384183,0 -78.4287558,34.7399383,0 -78.4275504,34.7413932,0 -78.42638839999999,34.7427475,0 -78.42170299999999,34.7481913,0 -78.42051120000001,34.7495628000001,0 -78.4199898,34.7501675,0 -78.4195381,34.7507729,0 -78.41909769999999,34.7514109,0 -78.41864700000001,34.752118,0 -78.41808159999999,34.7529958,0 -78.4165064,34.7553637000001,0 -78.4158492,34.7561987,0 -78.41547559999999,34.7565548,0 -78.4149343,34.7569942,0 -78.4139121,34.7577459,0 -78.4118995,34.7592868,0 -78.411608,34.7595096,0 -78.40973150000001,34.7609274,0 -78.4091883,34.7613407,0 -78.4087706,34.7616422,0 -78.40528310000001,34.7642826,0 -78.4047145,34.7647469,0 -78.4043358,34.7652528,0 -78.4038707,34.766154,0 -78.403235,34.7675661,0 -78.4027718,34.7687808,0 -78.4023469,34.7703985,0 -78.400943,34.774454,0 -78.39964670000001,34.7779823,0 -78.3994924,34.7785414,0 -78.3991363,34.7794667000001,0 -78.3987839,34.7803986,0 -78.3982195,34.78203,0 -78.3980157,34.7826229,0 -78.3978247,34.783015,0 -78.3975753,34.7834118,0 -78.3973379,34.7836703,0 -78.3972476,34.7837457,0 -78.3970705,34.7838961,0 -78.3968909,34.7840334,0 -78.3966436,34.7842125,0 -78.396186,34.7844922,0 -78.39525399999999,34.7850844,0 -78.39502469999999,34.7852301,0 -78.3940735,34.785836,0 -78.39297120000001,34.7865192,0 -78.3920585,34.7871031,0 -78.3911198,34.787686,0 -78.3902191,34.7882694,0 -78.3893736,34.7888964,0 -78.3884453,34.7895725,0 -78.3867362,34.7908336,0 -78.38610540000001,34.7913517,0 -78.3854485,34.7920508,0 -78.384675,34.792874,0 -78.3774488,34.8010485,0 -78.37691770000001,34.8016493,0 -78.3750606,34.803727,0 -78.37259779999999,34.8064961,0 -78.3709487,34.8083495,0 -78.3681388,34.8115564,0 -78.3677556,34.8119995,0 -78.36590150000001,34.8140758,0 -78.36563030000001,34.8143799999999,0 -78.3653182,34.8147257,0 -78.3645332,34.8156145,0 -78.3636698,34.8164524,0 -78.3622584,34.817558,0 -78.36187,34.817875,0 -78.3604299,34.8190477,0 -78.35885279999999,34.8203163,0 -78.358654,34.8205034,0 -78.35837600000001,34.8207802,0 -78.3580657,34.8211198,0 -78.35788479999999,34.821336,0 -78.3575063,34.8218444,0 -78.3571647,34.8224126,0 -78.3570325,34.8226603,0 -78.3568016,34.82317,0 -78.3566186,34.823689,0 -78.3565219,34.824028,0 -78.3563121,34.8249065,0 -78.35596719999999,34.8263803,0 -78.3557449,34.8273154,0 -78.3544218,34.8329295,0 -78.35431199999999,34.8333983,0 -78.3542097,34.8338387,0 -78.3541779,34.8339644,0 -78.3541321,34.8341643,0 -78.35328560000001,34.8377283,0 -78.3517267,34.844353,0 -78.3516345,34.8447485,0 -78.3515405,34.8451487,0 -78.35138550000001,34.8457094,0 -78.3508286,34.848135,0 -78.3506306,34.8489611,0 -78.35051350000001,34.8494574,0 -78.3504429,34.8497048,0 -78.3503667,34.8499395,0 -78.35032889999999,34.8500538,0 -78.3500847,34.8506937,0 -78.34981929999999,34.8513568,0 -78.3493661,34.8526261,0 -78.349284,34.8528524,0 -78.3491471,34.8532139,0 -78.3490867,34.8533728,0 -78.3487011,34.8544191,0 -78.3486343,34.8546154,0 -78.3485005,34.8549936,0 -78.3482903,34.8555767,0 -78.3480381,34.8562708,0 -78.34787059999999,34.856725,0 -78.34739930000001,34.8579975,0 -78.34718580000001,34.8585475,0 -78.3470396,34.8588744,0 -78.3469362,34.8591161,0 -78.3466748,34.8596062000001,0 -78.3465702,34.8597845,0 -78.34582039999999,34.8609678,0 -78.34526959999999,34.8618282,0 -78.3450691,34.8621356,0 -78.34451749999999,34.8630038,0 -78.344471,34.8630837,0 -78.34444569999999,34.8631255,0 -78.3437854,34.8641468,0 -78.3432719,34.8649566,0 -78.3429896,34.8653971,0 -78.3427157,34.8658765,0 -78.3426351,34.8660249,0 -78.3424447,34.8663906,0 -78.3420728,34.8671515,0 -78.34199220000001,34.8673239,0 -78.3417456,34.8678347,0 -78.34136549999999,34.8686222,0 -78.3408798,34.8696405,0 -78.3403833,34.8706654,0 -78.3396401,34.8722127,0 -78.338897,34.8737562,0 -78.3387276,34.8741252,0 -78.33858619999999,34.8744404,0 -78.3379643,34.876144,0 -78.33743560000001,34.8777441,0 -78.337228,34.8783328,0 -78.3366661,34.880009,0 -78.3360892,34.8816848,0 -78.3359239,34.8822004,0 -78.33579520000001,34.8825684,0 -78.33567840000001,34.8829063,0 -78.335294,34.8840436,0 -78.3351186,34.8845608,0 -78.3349292,34.8851162,0 -78.3342294,34.887189,0 -78.33412250000001,34.8875912,0 -78.33405329999999,34.8879456,0 -78.33402100000001,34.8882039000001,0 -78.3339952,34.8884857,0 -78.33398510000001,34.8889922999999,0 -78.3339836,34.8890953,0 -78.33395539999999,34.891199,0 -78.33395400000001,34.8918161,0 -78.33392980000001,34.8923159,0 -78.33385199999999,34.8928982,0 -78.3337743,34.8932423,0 -78.3336856,34.8936242999999,0 -78.33358320000001,34.8939461,0 -78.33349680000001,34.8941786,0 -78.3334033,34.8944121,0 -78.33311999999999,34.8950243,0 -78.3326082,34.8960641,0 -78.331812,34.8977109,0 -78.3310084,34.8993711,0 -78.3306221,34.9001759,0 -78.33053219999999,34.9003631,0 -78.33041710000001,34.9006681,0 -78.3303361,34.9009387,0 -78.33026889999999,34.9012112,0 -78.33021840000001,34.9014937,0 -78.33019299999999,34.9017772,0 -78.3301728,34.9020864,0 -78.3301823,34.9023562,0 -78.33020019999999,34.902573,0 -78.33024330000001,34.902878,0 -78.3303731,34.9034205,0 -78.3306137,34.9045749,0 -78.33090420000001,34.9060146,0 -78.33110720000001,34.9070139,0 -78.33136500000001,34.908203,0 -78.3315997,34.9094227,0 -78.3316461,34.9098349,0 -78.33166919999999,34.9105156,0 -78.3316726,34.9108625,0 -78.3316329,34.912059,0 -78.33142340000001,34.9190815,0 -78.3313711,34.9202726,0 -78.33127500000001,34.9236692,0 -78.331253,34.9244009,0 -78.3312349,34.9249571,0 -78.3311784,34.9255091,0 -78.331131,34.9257841,0 -78.3310824,34.9260189,0 -78.3309994,34.9263347,0 -78.33086830000001,34.926802,0 -78.3306814,34.9274428,0 -78.3305227,34.9280075,0 -78.3303674,34.9285639,0 -78.33034979999999,34.9286162,0 -78.3296929,34.9309024,0 -78.3294695,34.9314,0 -78.3292895,34.9317024,0 -78.32900619999999,34.9321008,0 -78.3288481,34.9322941,0 -78.32785130000001,34.9335134,0 -78.3271367,34.9343824,0 -78.32572589999999,34.9361312,0 -78.3251951,34.9368951,0 -78.32458219999999,34.9378256,0 -78.32387799999999,34.9388947,0 -78.3237802,34.9390433,0 -78.3236204,34.9392843,0 -78.3224254,34.9410569,0 -78.3220515,34.9416613,0 -78.3215811,34.9426134,0 -78.3212587,34.9433721,0 -78.3209516,34.9440214,0 -78.32030810000001,34.9454786,0 -78.31967589999999,34.947219,0 -78.319576,34.947511,0 -78.3193424,34.948194,0 -78.3191934,34.9485858,0 -78.319011,34.9490944,0 -78.3187642,34.9496442,0 -78.31850970000001,34.9500813,0 -78.3182101,34.9505482,0 -78.31763549999999,34.9513422,0 -78.3174446,34.9516059,0 -78.3168735,34.9524103,0 -78.3165326,34.9528341,0 -78.3160388,34.9533758,0 -78.3146696,34.9547229999999,0 -78.3131064,34.9562031,0 -78.31256209999999,34.9566668,0 -78.3124701,34.9567452,0 -78.3106885,34.9583032,0 -78.3102841,34.9586568,0 -78.3098964,34.9590087,0 -78.30962959999999,34.9592637,0 -78.309411,34.9595,0 -78.3092058,34.9597385000001,0 -78.30899119999999,34.9600034,0 -78.3087699,34.960287,0 -78.30712509999999,34.9624351,0 -78.30668110000001,34.9630149,0 -78.3063557,34.9634474,0 -78.3061051,34.9638084,0 
				
					-78.3061051,34.9638084,0 -78.305925,34.9640787,0 -78.3056559,34.9645085,0 -78.30540809999999,34.9649298,0 -78.3052682,34.9651896,0 -78.305132,34.9654534,0 -78.30502420000001,34.9656729,0 -78.3049051,34.9659272,0 -78.3048009,34.9658589,0 -78.30430320000001,34.9657493,0 -78.3041777,34.965716,0 -78.3040565,34.9656746,0 -78.3039529,34.9656278,0 -78.30385750000001,34.9655766,0 -78.3037696,34.9655201,0 -78.30369640000001,34.9654565,0 -78.30363389999999,34.9653866,0 -78.3035855,34.9653101,0 -78.3035544,34.9652333,0 -78.3035363,34.9651646,0 -78.30353359999999,34.9650943,0 -78.303545,34.9650212,0 -78.30356980000001,34.9649481,0 -78.303608,34.9648761,0 -78.3036596,34.9648151,0 -78.30372269999999,34.9647563,0 -78.30379240000001,34.9647124,0 -78.3038682,34.9646777999999,0 -78.3039473,34.9646525,0 -78.30403920000001,34.9646365,0 -78.30412370000001,34.9646311,0 -78.3042102,34.9646354,0 -78.304294,34.9646486,0 -78.3043704,34.9646684,0 -78.3044562,34.9646997,0 -78.3045407,34.9647404,0 -78.3046306,34.9647926,0 -78.30471369999999,34.9648503,0 -78.3050788,34.9651223,0 -78.3062925,34.9664446999999,0 -78.3175993,34.9787635,0 -78.31797299999999,34.9791707,0 -78.32328459999999,34.984957,0 -78.3235328,34.9852152,0 -78.3237883,34.9854674,0 -78.3239707,34.9856316,0 -78.3241604,34.9857904,0 -78.32435289999999,34.985942,0 -78.3245514,34.9860871,0 -78.32475719999999,34.9862255,0 -78.32497050000001,34.9863596,0 -78.3251891,34.986487,0 -78.3254123,34.9866105999999,0 -78.3256423,34.986726,0 -78.3258677,34.986832,0 -78.3261037,34.986932,0 -78.32635310000001,34.9870298,0 -78.32659169999999,34.9871163,0 -78.32706229999999,34.9872697,0 -78.3275769,34.9874374,0 -78.3278176,34.9875215,0 -78.3280436,34.9876072,0 -78.328281,34.9877,0 -78.3285297,34.9878055,0 -78.3287705,34.9879137,0 -78.3290032,34.988028,0 -78.3292218,34.9881428,0 -78.329443,34.9882659,0 -78.32965900000001,34.9883922,0 -78.3298709,34.9885235,0 -78.3300821,34.9886614,0 -78.33027850000001,34.9887976,0 -78.33047430000001,34.9889427,0 -78.330764,34.9891723,0 -78.33104779999999,34.9894113,0 -78.334818,34.9927239,0 -78.33644870000001,34.9941566999999,0 -78.336628,34.9943237,0 -78.3367832,34.9944783,0 -78.33695160000001,34.9946529,0 -78.3371106,34.9948318,0 -78.3372358,34.9949875,0 -78.33726729999999,34.9950266,0 -78.3373756,34.9951718,0 -78.3374926,34.995335,0 -78.3375085,34.995359,0 -78.33761269999999,34.9955171,0 -78.3377141,34.9956876,0 -78.3378136,34.9958646,0 -78.3379126,34.9960531,0 -78.3380068,34.9962525,0 -78.33809220000001,34.9964542,0 -78.3381742,34.9966649,0 -78.3382414,34.9968664,0 -78.33830140000001,34.9970758,0 -78.3383572,34.9972849,0 -78.3385585,34.9980802,0 -78.3387218,34.9987254,0 -78.33907259999999,35.0001111,0 -78.33972799999999,35.0027005,0 -78.33977419999999,35.0029056,0 -78.3398151,35.0031330000001,0 -78.33985,35.0033519,0 -78.33988239999999,35.003582,0 -78.3399031,35.0037793,0 -78.33992050000001,35.0040012,0 -78.3399252,35.0042213,0 -78.3399218,35.0044328,0 -78.3398883,35.0053213,0 -78.33975700000001,35.0060039,0 -78.3395972,35.0068518,0 -78.33934290000001,35.0078175,0 -78.3390885,35.0085547,0 -78.3389221,35.0089554,0 -78.3385895,35.0095805,0 -78.33829110000001,35.0100733,0 -78.3378459,35.0106703,0 -78.33660329999999,35.0122971,0 -78.3361092,35.0130503999999,0 -78.3356004,35.0139038,0 -78.33510630000001,35.0148013,0 -78.33478839999999,35.0154543,0 -78.33449969999999,35.0161755,0 -78.334172,35.0169928,0 -78.3339469,35.0176379,0 -78.3337317,35.018355,0 -78.3335507,35.0190482,0 -78.333304,35.0202113,0 -78.3328854,35.0224615,0 -78.33231790000001,35.025398,0 -78.3316428,35.0288753,0 -78.3307231,35.0336902,0 -78.33018730000001,35.0364406,0 -78.32989139999999,35.0379762,0 -78.3297609,35.0384866,0 -78.3295474,35.0389976,0 -78.3293061,35.0394052,0 -78.328991,35.0398636,0 -78.3281695,35.0409094,0 -78.3281123,35.0409763,0 -78.3280472,35.0410374,0 -78.32797429999999,35.0410871,0 -78.32789270000001,35.0411284,0 -78.3278024,35.0411582,0 -78.32769740000001,35.0411781,0 -78.3276407,35.0411914,0 -78.3275081,35.0412369999999,0 -78.32754446698085,35.04246947506113,0 -78.327584,35.0457,0 -78.327584,35.046361,0 -78.327623,35.0469194,0 -78.3276499,35.0477608,0 -78.32767130000001,35.0486414,0 -78.32769519999999,35.0494244,0 -78.327725,35.0505405,0 -78.3277373,35.0512675,0 -78.327814,35.0542513,0 -78.32786400000001,35.0562729999999,0 -78.3279197,35.0586162,0 -78.3279119,35.059101,0 -78.3278846,35.0594742,0 -78.3278806,35.0595185,0 -78.3278627,35.0597195,0 -78.3278353,35.0600282999999,0 -78.327809,35.060324,0 -78.3276706,35.0617333,0 -78.32762750000001,35.0621562,0 -78.3272778,35.0652621,0 -78.3271647,35.066239,0 -78.327062,35.0672490000001,0 -78.3269648,35.0680162,0 -78.32689209999999,35.0686416000001,0 -78.326725,35.069915,0 -78.326651,35.0706505,0 -78.3265842,35.0713536,0 -78.3264223,35.0727255,0 -78.3261183,35.0753014,0 -78.3260642,35.0757337,0 -78.3260411,35.0759182000001,0 -78.32601320000001,35.0761406,0 -78.3259472,35.0766992,0 -78.32586809999999,35.0773384,0 -78.3258112,35.0781179,0 -78.3257522,35.0784235,0 -78.3257478,35.0784591,0 -78.325723,35.078658,0 -78.3255822,35.0794211,0 -78.325418,35.0798877,0 -78.3252648,35.0802637,0 -78.3249137,35.0809666,0 -78.3239892,35.0829174,0 -78.3236064,35.0837737,0 -78.32345410000001,35.0841549,0 -78.3233379,35.0845548,0 -78.3232261,35.0849143,0 -78.323166,35.0852831,0 -78.3231564,35.085383,0 -78.3231102,35.0858650999999,0 -78.3230492,35.0891822,0 -78.3230464,35.0892618,0 -78.3230405,35.0897964,0 -78.3230405,35.0904597,0 -78.3229642,35.0923962,0 -78.32278359999999,35.0969819,0 -78.3227229,35.0983765,0 -78.32265049999999,35.0988832,0 -78.3225456,35.099294,0 -78.3223842,35.0998075,0 -78.3222425,35.1001575,0 -78.32200090000001,35.1006997,0 -78.3218584,35.1009701,0 -78.32158,35.1015099,0 -78.32110299999999,35.102393,0 -78.3206914,35.1032369,0 -78.3199973,35.1045489,0 -78.31962009999999,35.105449,0 -78.3193888,35.1060483,0 -78.3193066,35.1062613,0 -78.3191813,35.1066899,0 -78.3191573,35.1067795,0 -78.3190853,35.1070491,0 -78.31904129999999,35.1072177,0 -78.31898150000001,35.1074471,0 -78.31890610000001,35.1077304,0 -78.31865620000001,35.1091007,0 -78.318544,35.1099564,0 -78.3185271,35.1109019,0 -78.318534,35.1110579,0 -78.31855880000001,35.111615,0 -78.31861429999999,35.1123584,0 -78.3186774,35.1130067,0 -78.3186814,35.1130481,0 -78.3186857,35.1130923,0 -78.31868919999999,35.1131284,0 -78.31870189999999,35.1132593,0 -78.3187052,35.1132934,0 -78.3187083,35.1133245,0 -78.31871169999999,35.11336,0 -78.3187353,35.1136026,0 -78.31874070000001,35.1136545,0 -78.31879600000001,35.1141874,0 -78.31900640000001,35.1162153,0 -78.3191348,35.1175414,0 -78.3192327,35.1185027,0 -78.31928430000001,35.1189918,0 -78.3193763,35.1199074,0 -78.31956409999999,35.1217019,0 -78.3195978,35.1220214,0 -78.3196307,35.1223304,0 -78.3197117,35.1230704,0 -78.31978290000001,35.1238045,0 -78.319828,35.1242062,0 -78.3198798,35.1247085,0 -78.320106,35.126921,0 -78.3203434,35.1292561,0 -78.320435,35.130055,0 -78.3206038,35.1314835,0 -78.3208162,35.133045,0 -78.3213614,35.1370206,0 -78.3215041,35.138197,0 -78.32172970000001,35.1399671,0 -78.3218904,35.1412722,0 -78.32192809999999,35.1415238,0 -78.3220104,35.1421551,0 -78.3220792,35.1426797,0 -78.32215050000001,35.1432418,0 -78.3223016,35.1444301,0 -78.3223553,35.1448506,0 -78.3224046,35.1451889,0 -78.32244,35.1454021,0 -78.32248319999999,35.1456229,0 -78.322532,35.1458197,0 -78.3226075,35.1460817,0 -78.3227038,35.1463667,0 -78.3227885,35.1466009,0 -78.3236023,35.1488254,0 -78.323806,35.1494896,0 -78.3239502,35.1500116,0 -78.3240854,35.1504974,0 -78.3243315,35.1514212,0 -78.324478,35.1519566,0 -78.3245668,35.1522835,0 -78.3247391,35.1529197,0 -78.32486489999999,35.1533868999999,0 -78.3250985,35.1542506000001,0 -78.3257223,35.1565255,0 -78.32601699999999,35.1576204,0 -78.3262514,35.1584834,0 -78.32631170000001,35.1587046000001,0 -78.3264557,35.1592287,0 -78.32659870000001,35.1597641,0 -78.32671670000001,35.1602481,0 -78.3267805,35.1605518,0 -78.3268314,35.1608399,0 -78.32690119999999,35.1612457,0 -78.32695459999999,35.1616768,0 -78.32714989999999,35.1643796,0 -78.3271714,35.1646766,0 -78.3271811,35.1648416,0 -78.32719040000001,35.1649153,0 -78.3272216,35.1653631000001,0 -78.327258,35.1658896,0 -78.32732970000001,35.1669171,0 -78.3273574,35.1672945,0 -78.3274036,35.1679053,0 -78.327567,35.1702087,0 -78.32770480000001,35.1721109,0 -78.32790679999999,35.1748871,0 -78.3279783,35.1757174,0 -78.3280335,35.1768382,0 -78.3280379,35.1768978,0 -78.3281521,35.1784532,0 -78.3282423,35.1796817,0 -78.32830420000001,35.1805242,0 -78.3286408,35.1851083,0 -78.3286865,35.185863,0 -78.32876400000001,35.1868747,0 -78.32880950000001,35.1873866,0 -78.32887119999999,35.1877704,0 -78.3289327,35.1880938,0 -78.32912039999999,35.1887464999999,0 -78.3292934,35.189195,0 -78.3294897,35.1896286,0 -78.3301881,35.1911382,0 -78.3308554,35.1925323,0 -78.33161459999999,35.1941884,0 -78.33176039999999,35.1944989,0 -78.3319125,35.1948232,0 -78.33211249999999,35.1952492,0 -78.3323919,35.1958445,0 -78.3328637,35.1968364,0 -78.3331379,35.1974128,0 -78.3339691,35.1991603,0 -78.33417230000001,35.1996016,0 -78.3343278,35.1999393,0 -78.3347572,35.2009063,0 -78.33528990000001,35.2020288,0 -78.33573610000001,35.202931,0 -78.3361123,35.2035794,0 -78.336333,35.2039282,0 -78.3364218,35.2040661,0 -78.3385505,35.2073709,0 -78.339833,35.2093507,0 -78.3407192,35.2107222,0 -78.3427858,35.2139427,0 -78.3442541,35.2162588,0 -78.345116,35.2175569,0 -78.3456427,35.2183901000001,0 -78.34594800000001,35.2188621,0 -78.346155,35.2192501,0 -78.3463631,35.2197437,0 -78.34658349999999,35.2203527,0 -78.3469857,35.2216398,0 -78.34747849999999,35.2232259,0 -78.34777149999999,35.2239972,0 -78.34805710000001,35.2248907,0 -78.348196,35.2253798,0 -78.34824759999999,35.2255615,0 -78.3485161,35.2264272,0 -78.3491099,35.2285036,0 -78.3491997,35.2288216,0 -78.3494283,35.2296317,0 -78.3495635,35.2303549,0 -78.3504014,35.2332027,0 -78.35071069999999,35.2342749,0 -78.3511639,35.235774,0 -78.3514531,35.2367305,0 -78.3518469,35.2380018,0 -78.3523514,35.2396963,0 -78.3524647,35.2401005,0 -78.35260769999999,35.2406109,0 -78.3529501,35.2417691,0 -78.3530153,35.2419442,0 -78.3534224,35.2430373,0 -78.3535766,35.2434147,0 -78.35364269999999,35.2435765,0 -78.3536895,35.2436911,0 -78.3537536,35.2438482,0 -78.3538542,35.2440945,0 -78.3539004,35.2442075,0 -78.35409509999999,35.2446801,0 -78.3541274,35.2447585,0 -78.3541555,35.2448323,0 -78.354173,35.244962,0 -78.3541683,35.245053,0 -78.35410980100873,35.24515207795107,0 -78.35403797816186,35.24525929113686,0 -78.35399895089735,35.24536098803157,0 -78.35401538595308,35.24548413926271,0 -78.35408110204369,35.24559644216612,0 -78.35418605578893,35.24568463819359,0 -78.35426799091255,35.24571937442665,0 -78.35435977676059,35.24575389147461,0 -78.35443184464326,35.24579377823823,0 -78.35451039656708,35.24583889427782,0 -78.35455946561845,35.24589479392451,0 -78.35462482972838,35.24600387998958,0 
				
					-78.3546372,35.2460329999999,0 -78.35470290000001,35.2461888,0 -78.35476079999999,35.2463262,0 -78.35484,35.2465142,0 -78.3548893,35.246652,0 -78.35509380000001,35.2471395,0 -78.3552507,35.2475134000001,0 -78.3552919,35.2476302,0 -78.3553478,35.2477885,0 -78.3554791,35.2481623,0 -78.3554807,35.2481683000001,0 -78.35556440000001,35.2484716,0 -78.35556680000001,35.2484804,0 -78.355598,35.2486261,0 -78.3556167,35.2487131,0 -78.3556251,35.248752,0 -78.35565099999999,35.248873,0 -78.3556801,35.249088,0 -78.3556885,35.2491501,0 -78.3557014,35.2492453,0 -78.3557141,35.2493856,0 -78.35573359999999,35.2496002,0 -78.3557388,35.2499384,0 -78.3557359,35.250255,0 -78.3557254,35.251392,0 -78.35570679999999,35.2519159,0 -78.3557148,35.2521683,0 -78.3557246,35.2524741,0 -78.3557294,35.2526257,0 -78.3557342,35.2527742,0 -78.35574320000001,35.2530577,0 -78.3557471,35.253179,0 -78.3557598,35.253757,0 -78.3558939,35.2553061,0 -78.3558989,35.2553637,0 -78.3559072,35.2554401,0 -78.3559307,35.2556563,0 -78.3560475,35.2567298,0 -78.3560633,35.2569153,0 -78.3560657,35.2569436,0 -78.3560928,35.2572605,0 -78.3560957,35.2572948,0 -78.3561023,35.2573722,0 -78.3561528,35.2579638,0 -78.3561902,35.2584023,0 -78.35632889999999,35.2600235,0 -78.356408,35.2609472,0 -78.35651300000001,35.2621259,0 -78.3565507,35.2625495,0 -78.3567122,35.2643471,0 -78.3570464,35.2680661,0 -78.3572138,35.2698009,0 -78.3572334,35.270025,0 -78.3573383,35.2712273,0 -78.35745199999999,35.2724716,0 -78.3575089,35.2731129,0 -78.3575828,35.2739443999999,0 -78.35760860000001,35.2742352,0 -78.35767,35.2749155,0 -78.3583247,35.282167,0 -78.35852130000001,35.2843663,0 -78.35858090000001,35.2850329,0 -78.35898520000001,35.2895553,0 -78.3590985,35.2908221,0 -78.35918409999999,35.2917798,0 -78.35962619999999,35.2964513,0 -78.3596426,35.2966245,0 -78.36004869999999,35.3009162,0 -78.3600946,35.3013912,0 -78.3605472,35.3064387,0 -78.36070530000001,35.3081681,0 -78.361092,35.3123967,0 -78.36113659999999,35.3128835,0 -78.3612574,35.3142051,0 -78.3613063,35.3147394,0 -78.36192389999999,35.3214721,0 -78.3619384,35.32163,0 -78.36206799999999,35.3230425,0 -78.3621486,35.323921,0 -78.3622965,35.3255331,0 -78.3624044,35.3266544,0 -78.3624458,35.3271478,0 -78.3628909,35.3324472,0 -78.3631919,35.335178,0 -78.36345249999999,35.3382919,0 -78.3634835,35.3386193,0 -78.36361890000001,35.340122,0 -78.3638361,35.3424916,0 -78.3639627,35.3438768,0 -78.36406719999999,35.3450302,0 -78.3646986,35.3519849,0 -78.3647819,35.3529028,0 -78.3648314,35.3534254,0 -78.36491220000001,35.3542778,0 -78.364985,35.3550916,0 -78.3650851,35.3562122,0 -78.3651016,35.356396,0 -78.3651668,35.3571257999999,0 -78.36519370000001,35.3574275,0 -78.3653954,35.3596919,0 -78.36566620000001,35.3625264,0 -78.3657647,35.3635577,0 -78.3659715,35.3657422,0 -78.3660742,35.3669122,0 -78.3661094,35.3673617,0 -78.3661201,35.3674042,0 -78.3661364,35.367578,0 -78.36618989999999,35.3681516,0 -78.36641059999999,35.3705332,0 -78.3664569,35.3710325,0 -78.36645830000001,35.371048,0 -78.3665273,35.3718452,0 -78.36674600000001,35.374373,0 -78.3667476,35.3743914,0 -78.366871,35.3757337,0 -78.3669637,35.3767414,0 -78.3670116,35.377064,0 -78.3671306,35.377589,0 -78.3673706,35.3784379,0 -78.3673732,35.378447,0 -78.3681417,35.3810719,0 -78.3683529,35.3817931,0 -78.36921599999999,35.3847353,0 -78.36968950000001,35.3863549,0 -78.37012540000001,35.3878046,0 -78.37043850000001,35.3888458,0 -78.37117259999999,35.391185,0 -78.3715541,35.3923943,0 -78.3717857,35.3931282,0 -78.3719577,35.3936734,0 -78.37210159999999,35.3941212,0 -78.37237380000001,35.3950475,0 -78.37269860000001,35.3961525,0 -78.3727463,35.3963263,0 -78.37317969999999,35.3979041,0 -78.3731935,35.3979681,0 -78.3732033,35.3980132,0 -78.3736191,35.3995463,0 -78.3738723,35.4004414,0 -78.3740215,35.4009093,0 -78.3741639,35.4012823,0 -78.3743063,35.401594,0 -78.3744777,35.401932,0 -78.3746652,35.4022635,0 -78.37519500000001,35.4031281,0 -78.3754174,35.4034912,0 -78.3756566,35.4038738,0 -78.3763644,35.4050301,0 -78.3774717,35.4068876,0 -78.37853339999999,35.408725,0 -78.3793273,35.4101073,0 -78.3796387,35.4106496,0 -78.3796854,35.4107308,0 -78.379795,35.4109175,0 -78.3798821,35.4110658,0 -78.3815354,35.4139585,0 -78.38160310000001,35.4140765,0 -78.3830986,35.4166833,0 -78.38409900000001,35.4184224,0 -78.38480509999999,35.4196612,0 -78.38493010000001,35.4198984,0 -78.38503849999999,35.4201024,0 -78.38513570000001,35.420308,0 -78.3852212,35.4205117,0 -78.38531039999999,35.4207459,0 -78.38544589999999,35.4211398,0 -78.3855301,35.4214513,0 -78.3855839,35.4217021,0 -78.3856377,35.4220101,0 -78.3857294,35.4227725,0 -78.3858133,35.4236953,0 -78.3859226,35.4248163,0 -78.38592439999999,35.4248347,0 -78.3860088,35.4257192,0 -78.3861091,35.426771,0 -78.3862958,35.4287008000001,0 -78.386314,35.4288797,0 -78.38635840000001,35.4293162,0 -78.3864592,35.4303077,0 -78.386533,35.4310471,0 -78.3865646,35.4313634,0 -78.3866076,35.4317943,0 -78.38664679999999,35.432188,0 -78.38669179999999,35.4326385,0 -78.38689549999999,35.4347137,0 -78.3871094,35.4366095,0 -78.38713439999999,35.4369248,0 -78.3871731,35.4374126,0 -78.3872262,35.437961,0 -78.38725650000001,35.4382736,0 -78.3873123,35.4388513,0 -78.3874118,35.4398613,0 -78.387491,35.4407649,0 -78.3876052,35.4418131,0 -78.38761460000001,35.4419107,0 -78.38763539999999,35.442125,0 -78.3876515,35.4422903,0 -78.387694,35.4427286,0 -78.3877093,35.4428851,0 -78.3877466,35.4432695,0 -78.38789509999999,35.4447589,0 -78.3879835,35.4456712,0 -78.3881545,35.4474363,0 -78.388311,35.4489295,0 -78.3884841,35.4504703999999,0 -78.388513,35.4508504,0 -78.3885528,35.4513731,0 -78.388565,35.4514942,0 -78.3887003,35.4528398,0 -78.3887378,35.4532475,0 -78.3887592,35.4534798,0 -78.3887855,35.4537557,0 -78.3887965,35.4538706,0 -78.3888321,35.4542439000001,0 -78.3888807,35.4547535,0 -78.3889222,35.4551571,0 -78.3889582,35.4555074,0 -78.38898,35.45572,0 -78.3889934,35.4558711,0 -78.3889973,35.45592,0 -78.38899910000001,35.45594,0 -78.3890184,35.4561243,0 -78.3891374,35.4573106,0 -78.38921000000001,35.4580545,0 -78.3893018,35.4588526,0 -78.389314,35.4590552,0 -78.38933590000001,35.4594631,0 
				</coordinates>
			</LineString>
		<atom:link rel="app" href="https://www.google.com/earth/about/versions/#earth-pro" title="Google Earth Pro 7.3.6.10201"></atom:link>
	</Placemark>
</Document>
</kml>
