<?xml version="1.0" encoding="UTF-8"?>
<kml xmlns="http://www.opengis.net/kml/2.2" xmlns:gx="http://www.google.com/kml/ext/2.2" xmlns:kml="http://www.opengis.net/kml/2.2" xmlns:atom="http://www.w3.org/2005/Atom">
<Document>
	<name>US.730.kml</name>
	<Placemark>
		<name>US.730</name>
		<LineString>
			<coordinates>
				-119.6248199,45.8334513,0 -119.6238033,45.83393449999999,0 -119.6225694,45.8345923,0 -119.6210739,45.83533849999999,0 -119.6206879,45.8355238,0 -119.6201984,45.8357584,0 -119.6199341,45.835903,0 -119.619898,45.8359228,0 -119.6195976,45.83606480000001,0 -119.6188235,45.8364578,0 -119.6113405,45.8402594,0 -119.610635,45.8406178,0 -119.6096954,45.8411116,0 -119.6092923,45.84132839999999,0 -119.6045519,45.8437384,0 -119.5974544,45.8473466,0 -119.5916112,45.8503167,0 -119.584546,45.85390829999999,0 -119.5784676,45.8570136,0 -119.570832,45.860906,0 -119.5587591,45.8670484,0 -119.543485,45.874855,0 -119.5370654,45.87804429999999,0 -119.519035,45.887162,0 -119.515536,45.88894379999999,0 -119.5115341,45.8906758,0 -119.510286,45.8911714,0 -119.5074955,45.89214499999999,0 -119.5073499,45.8921961,0 -119.5050615,45.8929165,0 -119.5025246,45.8935839,0 -119.5018666,45.8937529,0 -119.5014857,45.8938464,0 -119.4998364,45.89425030000001,0 -119.4996378,45.8942902,0 -119.4975663,45.8947061,0 -119.4966736,45.894873,0 -119.4966076,45.89488489999999,0 -119.4948441,45.8952023,0 -119.4945968,45.8952468,0 -119.4926432,45.8955925,0 -119.4913105,45.8958319,0 -119.4887739,45.89626509999999,0 -119.4885844,45.8962942,0 -119.4876042,45.8964447,0 -119.486733,45.89659859999999,0 -119.4865914,45.89662360000001,0 -119.4840413,45.8970812,0 -119.4831628,45.8972315,0 -119.4815317,45.897499,0 -119.4788141,45.898004,0 -119.4736743,45.8988613,0 -119.4659709,45.9002471,0 -119.4627753,45.9009849,0 -119.4497671,45.90409150000001,0 -119.4412237,45.906113,0 -119.4400602,45.9063592,0 -119.4386035,45.9065994,0 -119.4374217,45.90674479999999,0 -119.4354359,45.90692800000001,0 -119.4322976,45.9072651,0 -119.4218295,45.908289,0 -119.4142423,45.9090506,0 -119.4113301,45.909336,0 -119.4080993,45.9096516,0 -119.4062716,45.9098427,0 -119.404836,45.90998499999999,0 -119.4043061,45.9100479,0 -119.4027778,45.910201,0 -119.4010131,45.9103746,0 -119.3984726,45.91061590000001,0 -119.3952251,45.9109546,0 -119.3925178,45.9112248,0 -119.3920631,45.9112711,0 -119.3891301,45.91156290000001,0 -119.3879984,45.9116722,0 -119.3868685,45.9117755,0 -119.3846162,45.91199209999999,0 -119.3832628,45.9121183,0 -119.3822353,45.9122334,0 -119.3808118,45.9123715,0 -119.376825,45.91280190000001,0 -119.3763424,45.9128683,0 -119.3736487,45.9132434,0 -119.372185,45.9134462,0 -119.3710284,45.9136101,0 -119.3698367,45.9137891,0 -119.3673433,45.9141113,0 -119.3646311,45.91451530000001,0 -119.3640086,45.9146016,0 -119.3626732,45.9148091,0 -119.3596068,45.9152355,0 -119.3588877,45.9153215,0 -119.3578054,45.9154075,0 -119.3566593,45.91537199999999,0 -119.3564227,45.91536550000001,0 -119.3554142,45.9153485,0 -119.3543716,45.9154105,0 -119.3534098,45.9155436,0 -119.3529984,45.9156229,0 -119.3513898,45.91592849999999,0 -119.3511113,45.9159741,0 -119.3500593,45.9161641,0 -119.3490165,45.9163558,0 -119.3479501,45.9165541,0 -119.3468801,45.9167532,0 -119.345828,45.9169489,0 -119.3447544,45.9171496,0 -119.3437322,45.91734080000001,0 -119.3426292,45.91755359999999,0 -119.3415311,45.917766,0 -119.3403884,45.917981,0 -119.3392695,45.9181914,0 -119.3385804,45.91830899999999,0 -119.3383068,45.9183377,0 -119.3379453,45.9183489,0 -119.3373847,45.9183312,0 -119.3353778,45.9183088,0 -119.3335857,45.91830719999999,0 -119.3326684,45.9183113,0 -119.3307999,45.9183198,0 -119.3304352,45.9183263,0 -119.3294315,45.9183128,0 -119.3289396,45.91829349999999,0 -119.3283857,45.91827299999999,0 -119.3272136,45.9182361,0 -119.3263005,45.9182218,0 -119.32505,45.91820830000001,0 -119.3246183,45.9182034,0 -119.3240117,45.91819810000001,0 -119.3230081,45.91818919999999,0 -119.3225414,45.91818529999999,0 -119.3220774,45.9181836,0 -119.3201715,45.91816960000001,0 -119.3175843,45.9181367,0 -119.3169517,45.9181299,0 -119.3128801,45.918087,0 -119.3093389,45.9180563,0 -119.3075459,45.9180372,0 -119.3074179,45.91803580000001,0 -119.3056677,45.918026,0 -119.3046916,45.9179711,0 -119.3035093,45.917897,0 -119.3022064,45.9178171,0 -119.3011321,45.9177321,0 -119.3006562,45.9176765,0 -119.3003371,45.91763570000001,0 -119.2993967,45.91751559999999,0 -119.2982439,45.9173507,0 -119.2971973,45.917179,0 -119.2959093,45.91698229999999,0 -119.2955701,45.9169329,0 -119.2923087,45.916458,0 -119.2886255,45.9159381,0 -119.2884035,45.9159014,0 -119.2876428,45.9157768,0 -119.286492,45.91558839999999,0 -119.2830229,45.9150845,0 -119.2811979,45.9147916,0 -119.2752363,45.9138873,0 -119.2727502,45.9135161,0 -119.2698384,45.91308140000001,0 -119.2697765,45.91307209999999,0 -119.2657274,45.9124776,0 -119.2602096,45.9116225,0 -119.2511437,45.9102262,0 -119.2382434,45.908314,0 -119.2333687,45.9075604,0 -119.2236188,45.90609499999999,0 -119.2180488,45.90527899999999,0 -119.2060617,45.9034338,0 -119.2013614,45.9027111,0 -119.1950319,45.90177369999999,0 -119.1923921,45.90146719999999,0 -119.1898279,45.901303,0 -119.1870432,45.9012313,0 -119.184201,45.90124,0 -119.1824679,45.9013194,0 -119.182168,45.901347,0 -119.1803227,45.90149749999999,0 -119.1779355,45.90178529999999,0 -119.1745869,45.9023033,0 -119.1731857,45.90253439999999,0 -119.1729502,45.9025732,0 -119.163218,45.90404900000001,0 -119.1614607,45.9044901,0 -119.1596878,45.9050541,0 -119.1583295,45.9055375,0 -119.1569884,45.9060989,0 -119.1545326,45.90712799999999,0 -119.1526812,45.907899,0 -119.1438929,45.9116031,0 -119.141248,45.9127128,0 -119.1389657,45.9136346,0 -119.1385457,45.9137878,0 -119.137126,45.9143967,0 -119.1348441,45.91536940000001,0 -119.1346636,45.91544809999999,0 -119.1336249,45.9158672,0 -119.125862,45.919129,0 -119.1228086,45.9203291,0 -119.1203611,45.92113859999999,0 -119.1183532,45.9217939,0 -119.1158327,45.9226165,0 -119.1155878,45.9226976,0 -119.114,45.9232235,0 -119.1132621,45.9234679,0 -119.1111622,45.92432649999999,0 -119.1066772,45.92618770000001,0 -119.1065767,45.92623080000001,0 -119.1049581,45.9269072,0 -119.1008858,45.9286086,0 -119.0994586,45.92920099999999,0 -119.0977121,45.9299028,0 -119.095948,45.9306686,0 -119.0955037,45.93086149999999,0 -119.093617,45.931769,0 -119.0915611,45.9329768,0 -119.0896294,45.93403,0 -119.0884455,45.9347016,0 -119.0872712,45.9353607,0 -119.085203,45.9364963,0 -119.0805029,45.9391202,0 -119.07767,45.9406747,0 -119.0742998,45.94254460000001,0 -119.0707788,45.9444951,0 -119.0663519,45.9469297,0 -119.0649158,45.9477382,0 -119.0634411,45.94853570000001,0 -119.0625541,45.94904520000001,0 -119.0616701,45.9494918,0 -119.0608209,45.94992630000001,0 -119.0598877,45.9503428,0 -119.0592429,45.9505964,0 -119.0579847,45.9510468,0 -119.0539665,45.95252500000001,0 -119.0518596,45.9533472,0 -119.049208,45.9543074,0 -119.0477722,45.95480440000001,0 -119.0466451,45.9551613,0 -119.0453893,45.9555167,0 -119.040483,45.9569335,0 -119.0389596,45.9574417,0 -119.0376879,45.957893,0 -119.0367998,45.95822139999999,0 -119.0352522,45.9588108,0 -119.0335199,45.9594758,0 -119.0319897,45.9599874,0 -119.0303958,45.9604667,0 -119.0265664,45.9616427,0 -119.0240641,45.9624082,0 -119.0227649,45.96288610000001,0 -119.0207735,45.9637237,0 -119.0177762,45.9650207,0 -119.0159384,45.9658776,0 -119.0138007,45.9668528,0 -119.0123893,45.967567,0 -119.0112872,45.96818450000001,0 -119.0053359,45.97205689999999,0 -119.001128,45.97473710000001,0 -118.9974159,45.97717,0 -118.9961171,45.97811280000001,0 -118.9952835,45.9787946,0 -118.9946714,45.9793516,0 -118.9936946,45.9803499,0 -118.992545,45.9817675,0 -118.9909297,45.9838758,0 -118.9880168,45.9877523,0 -118.9857112,45.9907266,0 -118.9837216,45.9933772,0 -118.9824754,45.9948911,0 -118.9808318,45.9964269,0 -118.9786828,45.9982145,0 -118.9767099,45.99984129999999,0 -118.9741052,46.00200840000001,0 -118.973566,46.0024466,0 -118.972868,46.0029854,0 -118.9650066,46.0089892,0 -118.9647,46.009211,0 -118.9643633,46.0094453,0 -118.9640144,46.0096759,0 -118.9635977,46.0099458,0 -118.9631114,46.0102422,0 -118.9625261,46.0105741,0 -118.9571158,46.01345769999999,0 -118.9559843,46.01406540000001,0 -118.9558206,46.01415250000001,0 -118.9557129,46.0142099,0 -118.9548702,46.0146586,0 -118.9539968,46.0151216,0 -118.9527624,46.015778,0 -118.9494061,46.0175582,0 -118.9485773,46.018013,0 -118.9477936,46.0184557,0 -118.9467075,46.01909450000001,0 -118.9434554,46.0209935,0 -118.9335492,46.0267982,0 -118.9333546,46.026919,0 -118.9332056,46.027022,0 -118.9330595,46.0271334,0 -118.9328914,46.0272855,0 -118.9327426,46.0274365,0 -118.9326092,46.027602,0 -118.9325027,46.0277631,0 -118.9324066,46.0279249,0 -118.9323285,46.028093,0 -118.9322662,46.0282636,0 -118.932228,46.0284113,0 -118.9321943,46.02858350000001,0 -118.9321728,46.0287557,0 -118.9321755,46.0289594,0 -118.9321984,46.0291635,0 -118.9322483,46.0293466,0 -118.9323104,46.02951319999999,0 -118.9323883,46.0296852,0 -118.9324857,46.0298549,0 -118.932595,46.0300245,0 -118.9327869,46.03028609999999,0 -118.9329818,46.0305248,0 -118.9332938,46.0309147,0 -118.9335247,46.031217,0 -118.9337493,46.03150380000001,0 -118.9339918,46.0318178,0 -118.9342479,46.03213449999999,0 -118.9346688,46.0326541,0 -118.9346961,46.032689,0 -118.9349348,46.03301330000001,0 -118.9351625,46.0333224,0 -118.9353241,46.033571,0 -118.9354817,46.03385149999999,0 -118.9355329,46.0339458,0 -118.9356055,46.03408640000001,0 -118.9366318,46.0364434,0 -118.9367646,46.0367245,0 -118.9369303,46.0370515,0 -118.9370756,46.0373007,0 -118.9372372,46.0375609,0 -118.9374891,46.0379066,0 -118.9382597,46.0388347,0 -118.9383489,46.0389355,0 -118.9398666,46.0407622,0 -118.9400522,46.04101860000001,0 -118.9401829,46.04125579999999,0 -118.9402925,46.04150880000001,0 -118.940372,46.04174510000001,0 -118.9404349,46.0419923,0 -118.9404634,46.042214,0 -118.940471,46.0424482,0 -118.940456,46.04267459999999,0 -118.9404219,46.042929,0 -118.9403787,46.043175,0 -118.9403043,46.04348229999999,0 -118.9402298,46.04381459999999,0 -118.9399762,46.0450306,0 -118.9398976,46.04533,0 -118.9398192,46.04563799999999,0 -118.9397501,46.0458836,0 -118.9396674,46.046137,0 -118.9395338,46.0464865,0 -118.9393988,46.0468074,0 -118.9392461,46.0471428,0 -118.9390736,46.0474943,0 -118.9389211,46.0478094,0 -118.9387437,46.0481447,0 -118.9385422,46.0485072,0 -118.9378921,46.0496423,0 -118.9377453,46.04988769999999,0 -118.9376554,46.0500332,0 -118.9375564,46.0501881,0 -118.9374309,46.0503658,0 -118.9372192,46.0506486,0 -118.937011,46.0509174,0 -118.9368439,46.0511049,0 -118.9366924,46.0512677,0 -118.9365115,46.0514479,0 -118.9362941,46.0516521,0 -118.9360153,46.05189490000001,0 -118.9357546,46.0521094,0 -118.9353509,46.0524158,0 -118.9339115,46.053419,0 -118.9334996,46.0537068,0 -118.9306622,46.05568229999999,0 -118.9305045,46.0557844,0 -118.9303445,46.0558849,0 -118.9301168,46.0560214,0 -118.9299107,46.0561388,0 -118.9296203,46.0562726,0 -118.9292945,46.0564105,0 -118.9289844,46.0565198,0 -118.9286881,46.0566051,0 -118.9283368,46.0566946,0 -118.9279436,46.05677330000001,0 -118.9275982,46.0568263,0 -118.9272476,46.05686130000001,0 -118.9269181,46.0568789,0 -118.9264998,46.0568911,0 -118.9260026,46.0568902,0 -118.9218183,46.05677229999999,0 -118.9145548,46.05657290000001,0 -118.912169,46.056505,0 -118.911547,46.0564862,0 -118.9112785,46.05647449999999,0 -118.9109806,46.0564613,0 -118.9102149,46.05641300000001,0 -118.9094832,46.0563615,0 -118.9092225,46.05634129999999,0 -118.9076928,46.0562015,0 
			</coordinates>
		</LineString>
		<atom:link rel="app" href="https://www.google.com/earth/about/versions/#earth-pro" title="Google Earth Pro 7.3.6.10201"></atom:link>
	</Placemark>
</Document>
</kml>
