<?xml version="1.0" encoding="UTF-8"?>
<kml xmlns="http://www.opengis.net/kml/2.2" xmlns:gx="http://www.google.com/kml/ext/2.2" xmlns:kml="http://www.opengis.net/kml/2.2" xmlns:atom="http://www.w3.org/2005/Atom">
<Document>
	<name>US.75A.kml</name>
	<Placemark>
		<name>US.75A</name>
		<LineString>
			<coordinates>
				-96.0057156430528,35.74083144534124,0 -96.00893216363627,35.74079503026653,0 -96.01269214891842,35.74079577588712,0 -96.02434559356678,35.7408318629214,0 -96.04475718102698,35.74086986013234,0 -96.0569003201571,35.74091743041885,0 -96.06039179145138,35.74092406032111,0 -96.0615075187968,35.74089477497562,0 -96.06249381637357,35.74083465288994,0 -96.06439224230522,35.74070731367318,0 -96.06522447564292,35.74069702330595,0 -96.06916678582273,35.74068484549334,0 -96.06983232923332,35.7406931798713,0 -96.06991324332262,35.74072535370829,0 -96.06993040880081,35.74081585447762,0 -96.06993572324366,35.74210655784813,0 -96.069970237185,35.74376628035903,0 -96.06997155483927,35.74701404866028,0 -96.06995894237164,35.74828444077408,0 -96.06999814865549,35.74863637185478,0 -96.07009354101244,35.74896126469361,0 -96.07025837147332,35.74926953382629,0 -96.07052849852138,35.74958072271092,0 -96.0708625399932,35.74988796321946,0 -96.07111292364817,35.75009957023339,0 -96.07144291581004,35.7503710158729,0 -96.07168771480418,35.75069505089805,0 -96.07181198614296,35.75111085071023,0 -96.07177437850503,35.7515588727236,0 -96.0716098668094,35.75193023039965,0 -96.07120574715462,35.75232426415132,0 -96.07064182160123,35.75254052784317,0 -96.06985719799827,35.75271690430176,0 -96.06935742185735,35.75291014095085,0 -96.0688558174884,35.75338092293337,0 -96.06859933809781,35.75385553704483,0 -96.06852546724562,35.75446640807508,0 -96.06853410412759,35.75523797782713,0 -96.06848203901225,35.75893780364194,0 -96.0685600433942,35.76140093433648,0 -96.06855477721069,35.76615839683545,0 -96.06850458727403,35.77278200338763,0 -96.06856585300973,35.78446351541914,0 -96.06858590240138,35.79191383447565,0 -96.06867422594058,35.80433987409151,0 -96.06870471301467,35.82294811233186,0 -96.06870854429046,35.83297348104379,0 -96.06865880025134,35.83989169816028,0 -96.06877697940104,35.85377507788102,0 -96.06879289240015,35.85598133774095,0 -96.06866935039827,35.85674877560469,0 -96.06844239867439,35.85752929992925,0 -96.06799178629069,35.85845219794871,0 -96.06688047656107,35.86067888361841,0 -96.06613434666836,35.86208757076577,0 -96.06546598691797,35.8631173879478,0 -96.06477281865104,35.86400359685349,0 -96.06368026783477,35.86498327569332,0 -96.06253432966643,35.86600585907178,0 -96.06175938264295,35.86694697475476,0 -96.06113656738995,35.86802486088259,0 -96.06074448648316,35.86917489424465,0 -96.0606902610417,35.87045930357986,0 -96.06072234543042,35.87684008102749,0 -96.06071867240777,35.87943535693599,0 -96.06085724864074,35.88033705260457,0 -96.06089678687178,35.88104187054637,0 -96.06089751551018,35.88393044773347,0 -96.06087509862998,35.88522924172234,0 -96.06086364247335,35.88616528343611,0 -96.06072220517976,35.88702164440621,0 -96.06043028014321,35.88805165144104,0 -96.06012092699655,35.8889580366293,0 -96.05993310918916,35.88960481882441,0 -96.05974253930587,35.89035067559547,0 -96.05967857398478,35.89111842989448,0 -96.05971322567949,35.89212725819111,0 -96.05984519232793,35.89397344448674,0 -96.06024885659768,35.89997330593295,0 -96.06135394490956,35.91766311057038,0 -96.06236906305259,35.93372712178449,0 -96.06259255007025,35.93719441027993,0 -96.06272645768499,35.93797914199975,0 -96.06296685485999,35.93885129463082,0 -96.06356486499791,35.94031223026201,0 -96.06370351870488,35.94086505066033,0 -96.06378112370683,35.9418107873859,0 -96.06369016493177,35.94427837380821,0 -96.06379566556734,35.94507926777037,0 -96.06415224551152,35.94584786981148,0 -96.06470351361182,35.94669705323362,0 -96.06502009607559,35.94732244875391,0 -96.06518330140989,35.94800442129289,0 -96.0652322323777,35.94892705996403,0 -96.06539623926548,35.94954363274963,0 -96.06611884860956,35.95087460036684,0 -96.06653315145988,35.95141010730247,0 -96.06693835437106,35.95177257891841,0 -96.06760858865279,35.95226091676408,0 -96.06938314947502,35.95350310883803,0 -96.0706287199219,35.9544022941947,0 -96.07108583289228,35.95479640443437,0 -96.07150470748451,35.95532641809447,0 -96.07196576533718,35.95616898386415,0 -96.07230418532524,35.95680030202372,0 -96.07266610082144,35.95726826364866,0 -96.07318589566991,35.95785085200525,0 -96.07391780437015,35.95863730997983,0 -96.07557424237994,35.95997905280657,0 -96.07867077297402,35.9624453708555,0 -96.08187722921311,35.96488323580952,0 -96.08315309063963,35.96567492143055,0 -96.08457001865578,35.96637835875098,0 -96.08629660345973,35.96699234123829,0 -96.08759477169743,35.96732970852464,0 -96.08955198806481,35.96766162575597,0 -96.09939299649588,35.9694018230438,0 -96.10160791435742,35.96987463388631,0 -96.10379158838168,35.97049086626566,0 -96.10571520865261,35.9711561221802,0 -96.10766151909236,35.97200849351108,0 -96.10910330472059,35.97278118848547,0 -96.11208241924714,35.97449767682912,0 -96.11293596735094,35.97511589279166,0 -96.11333217801389,35.97563283915618,0 -96.11351952459421,35.97617329627062,0 -96.11355193754186,35.97703298665635,0 -96.11355784070636,35.9779249248347,0 -96.11359491350267,35.9811195590494,0 -96.11360061133868,35.98281747990878,0 -96.11362386676439,35.98514905562139,0 -96.11375805431722,35.99014214181243,0 -96.11420136892748,35.99794721900612,0 -96.1143270793831,36.00120476512467,0 -96.11431639930292,36.00231803616123,0 -96.11395795336507,36.00333971956475,0 -96.11320377927787,36.00437746531565,0 -96.11233618047001,36.00557110880338,0 -96.11198312372687,36.00680497767934,0 -96.1117734738207,36.0084011951304,0 -96.11187606368441,36.00997595608315,0 -96.11190861712591,36.01376490828014,0 -96.11372082427062,36.01374448216612,0 -96.11445088345836,36.0137534303209,0 -96.11487950085903,36.0137021363664,0 -96.11513169589388,36.01361283546684,0 -96.115310220997,36.01344054592793,0 -96.11539521364388,36.01313894043086,0 -96.11543367929691,36.01244457636399,0 -96.11547485722649,36.01203864274446,0 -96.11555223925532,36.01127854399686,0 -96.11551948872403,36.01098386066759,0 -96.11532272701794,36.0105889864152,0 -96.11515035784515,36.01015160844401,0 -96.11507342823944,36.00993388520935,0 -96.11511159673418,36.0097155693943,0 -96.11521635051004,36.00952687230093,0 -96.11535310060781,36.00941861516387,0 -96.11555437951426,36.00936390741369,0 -96.11581268208172,36.00936203024995,0 -96.11603280868241,36.00948938352141,0 -96.11618448413283,36.00970905585,0 -96.11619253157561,36.00997489942235,0 -96.11605800228907,36.01016480444689,0 -96.11575269717068,36.0103088566049,0 -96.11542073280846,36.0104144395454,0 -96.10864285062924,36.01243957219698,0 -96.10307478846562,36.01405727376885,0 -96.10086502514474,36.01499183934682,0 -96.09896417889496,36.0162779847451,0 -96.09744266840613,36.01775192494541,0 -96.09569967780921,36.0202507321125,0 -96.09449990351239,36.02249703314747,0 -96.0937047954387,36.02471063463518,0 -96.09324254880117,36.02648384772002,0 -96.09281187126614,36.02758884834858,0 -96.09201566771868,36.02879007170218,0 -96.09045237054598,36.03015460408285,0 -96.08858205742936,36.03165040880335,0 -96.08760301183104,36.03265403756718,0 -96.08650930078707,36.03417711114099,0 -96.08412863744378,36.03778926974129,0 -96.07884586333024,36.04676795813757,0 -96.07615053952787,36.05146768165931,0 -96.06961959727252,36.06269579858994,0 -96.06813436776343,36.06508320579167,0 -96.0662692818598,36.06726954318682,0 -96.06432527577537,36.06887546235733,0 -96.06066901740913,36.07111372971814,0 -96.05589521806256,36.0737025663945,0 -96.05274332708885,36.07546232565141,0 -96.05032225050482,36.07727203320343,0 -96.04886800493097,36.07892221729485,0 -96.04718034166855,36.08077243554955,0 -96.04282521231151,36.08542789141576,0 -96.04067218528094,36.08749253647188,0 -96.03987669607749,36.08814158312946,0 -96.03933972047938,36.08902119962978,0 -96.0383124219464,36.09031794979735,0 -96.03591882845605,36.09282407619404,0 -96.03461990861095,36.09380964675825,0 -96.03286585293988,36.09479480008195,0 -96.03143312263985,36.09587605949169,0 -96.02932442809436,36.09765316584035,0 -96.02695798392143,36.09968871802533,0 -96.02536475730788,36.10111038329432,0 -96.02364511669623,36.10226545750304,0 -96.02192980299509,36.10335799562006,0 -96.02095923292734,36.10432241358967,0 -96.01994524934034,36.10571619558291,0 -96.01930933958857,36.10681930270761,0 -96.01841624125048,36.1077661436191,0 -96.01627909565349,36.10927596968013,0 -96.01388047499567,36.11068832039318,0 -96.01267974927536,36.11140103936695,0 -96.01173690924813,36.11247338783247,0 -96.01105341430846,36.11363424311989,0 
			</coordinates>
		</LineString>
		<atom:link rel="app" href="https://www.google.com/earth/about/versions/#earth-pro" title="Google Earth Pro 7.3.6.10201"></atom:link>
	</Placemark>
</Document>
</kml>
