<?xml version="1.0" encoding="UTF-8"?>
<kml xmlns="http://www.opengis.net/kml/2.2" xmlns:gx="http://www.google.com/kml/ext/2.2" xmlns:kml="http://www.opengis.net/kml/2.2" xmlns:atom="http://www.w3.org/2005/Atom">
<Document>
	<name>US.70A.TN.kml</name>
	<Placemark>
		<name>US.70A.TN</name>
		<LineString>
			<coordinates>
				-89.2405423,35.5932047,0 -89.2404265,35.5941522,0 -89.24028970000001,35.5950063,0 -89.2400861,35.5965982,0 -89.2400806,35.5966411,0 -89.2400549,35.5972547,0 -89.2400677,35.5979894,0 -89.24017550000001,35.5996382,0 -89.2402089,35.6001537,0 -89.24023200000001,35.600511,0 -89.2403011,35.6016593,0 -89.2403176,35.6019056,0 -89.2403235,35.6019949,0 -89.2403381,35.6022137,0 -89.2403997,35.6031363,0 -89.2404581,35.6041822,0 -89.2405157,35.6050727,0 -89.2406074,35.6068135,0 -89.24065899999999,35.6083923,0 -89.24067239999999,35.6088014,0 -89.24066620000001,35.6101661,0 -89.23962299999999,35.6106059,0 -89.2390676,35.6108554,0 -89.2385623,35.6111067,0 -89.23777080000001,35.6115311,0 -89.2370483,35.6119691,0 -89.2363091,35.6124291,0 -89.2351247,35.613171,0 -89.2336396,35.614074,0 -89.2333775,35.6142431,0 -89.2325913,35.6147132,0 -89.23161399999999,35.6153594,0 -89.2313747,35.6155003,0 -89.2305459,35.6160198,0 -89.2291926,35.6168713,0 -89.22488559999999,35.6195356,0 -89.2228029,35.6208341,0 -89.2198535,35.6226601,0 -89.2158807,35.625159,0 -89.21411689999999,35.6262444,0 -89.212794,35.6270762,0 -89.2117525,35.6277263,0 -89.21153870000001,35.6278598,0 -89.2111213,35.6281203,0 -89.2107254,35.6283651,0 -89.2087713,35.6295716,0 -89.2066193,35.6309222,0 -89.20598,35.6313028,0 -89.2056103,35.6315374,0 -89.2039058,35.6326016,0 -89.2035563,35.6328222,0 -89.2026919,35.6333585,0 -89.2021554,35.6336867,0 -89.20147059999999,35.6341057,0 -89.2002604,35.6348739,0 -89.19726900000001,35.6367293,0 -89.19638930000001,35.6372773,0 -89.19617119999999,35.6374131,0 -89.1947067,35.6383253,0 -89.1936688,35.6389597,0 -89.1928518,35.639476,0 -89.1927618,35.6395328,0 -89.1923895,35.639768,0 -89.19215560000001,35.63991,0 -89.1910122,35.6406165,0 -89.19093049999999,35.6406688,0 -89.1905467,35.6409134,0 -89.1899688,35.6412775,0 -89.18912400000001,35.6417953,0 -89.1882377,35.6423482,0 -89.1874888,35.6428084,0 -89.1872206,35.6429732,0 -89.18683660000001,35.6432153,0 -89.1863255,35.6435376,0 -89.1858411,35.6438388,0 -89.1852689,35.6441945,0 -89.1847147,35.6445391,0 -89.1831464,35.6455142,0 -89.1817418,35.6463875,0 -89.1809779,35.6468631,0 -89.1803283,35.6472654,0 -89.1799676,35.6474888,0 -89.1796035,35.6477143,0 -89.1792746,35.647918,0 -89.1757415,35.650118,0 -89.1754667,35.6502891,0 -89.1727465,35.651975,0 -89.1718281,35.6525531,0 -89.17174420000001,35.6526045,0 -89.1713913,35.6528252,0 -89.1694597,35.6540242,0 -89.1688149,35.6544261,0 -89.1684522,35.6546521,0 -89.16602899999999,35.656175,0 -89.1652169,35.6566668,0 -89.1648259,35.6569163,0 -89.1624901,35.658361,0 -89.1619555,35.658695,0 -89.16178619999999,35.658799,0 -89.16136280000001,35.6590576,0 -89.1578997,35.6612204,0 -89.1576836,35.661367,0 -89.1544794,35.6635409,0 -89.15372960000001,35.6640495,0 -89.1519203,35.6653093,0 -89.1491819,35.6671768,0 -89.1486738,35.6675252,0 -89.1483492,35.6677452,0 -89.1478761,35.6680748,0 -89.14732909999999,35.6684501,0 -89.14583450000001,35.6694758,0 -89.1453861,35.6697935,0 -89.1450566,35.6700111,0 -89.1445154,35.6703906,0 -89.143113,35.6713589,0 -89.1421936,35.6719881,0 -89.1414927,35.6724799,0 -89.1399863,35.6734951,0 -89.13916639999999,35.6740576,0 -89.1371243,35.6754585,0 -89.1355684,35.6764621,0 -89.1329574,35.6781212,0 -89.1329006,35.6781621,0 -89.1320608,35.6786917,0 -89.1274753,35.6816314,0 -89.1268553,35.6820193,0 -89.1251723,35.6830917,0 -89.1210033,35.6857528,0 -89.1208122,35.6858732,0 -89.1198692,35.6864896,0 -89.11880720000001,35.6872062,0 -89.1177055,35.6880014,0 -89.11505510000001,35.6897888,0 -89.1136046,35.6907989,0 -89.11206199999999,35.6918605,0 -89.1105812,35.692872,0 -89.109448,35.6936505,0 -89.1080024,35.6946422,0 -89.1005995,35.6997321,0 -89.1003527,35.6999028,0 -89.0987524,35.7009961,0 -89.0953707,35.7033597,0 -89.0922341,35.7057108,0 -89.0904578,35.7070451,0 -89.08992430000001,35.7074504,0 -89.0895261,35.7077444,0 -89.0890333,35.7081154,0 -89.0886065,35.7085163,0 -89.0883467,35.7088429,0 -89.0881315,35.7091637,0 -89.0878848,35.7098251,0 -89.08770389999999,35.7106155,0 -89.08761029999999,35.7110158,0 -89.087593,35.7111351,0 -89.0874749,35.7119573,0 -89.0874079,35.7125148,0 -89.087324,35.7133311,0 -89.0872705,35.7137293,0 -89.0872234,35.7141334,0 -89.087186,35.7142753,0 -89.08714500000001,35.7143964,0 -89.0870931,35.714508,0 -89.08703,35.7145877,0 -89.08693839999999,35.7146705,0 -89.0867679,35.7148106,0 -89.0865828,35.7149204,0 -89.08614179999999,35.7151163,0 -89.08523270000001,35.7154797,0 -89.0838809,35.7160266,0 -89.08370650000001,35.7161016,0 -89.0827951,35.7164623,0 -89.0824124,35.7165991,0 -89.0821753,35.7166717,0 -89.081649,35.7168017,0 -89.0792137,35.7173494,0 -89.0785893,35.717525,0 -89.0780658,35.7177013,0 -89.0777149,35.7178278,0 -89.077304,35.7179703,0 -89.076863,35.7181544,0 -89.0765468,35.7182962,0 -89.07606010000001,35.7185344,0 -89.0754944,35.7188282,0 -89.0747966,35.7192302,0 -89.0743629,35.7195138,0 -89.07279870000001,35.7206115,0 -89.07223500000001,35.7210066,0 -89.07024029999999,35.7224048,0 -89.0685628,35.7236021,0 -89.0683205,35.7237684,0 -89.067812,35.7240445,0 -89.0674164,35.7242502,0 -89.0672795,35.7243425,0 -89.06693319999999,35.7245553,0 -89.0665928,35.7248022,0 -89.06627589999999,35.7250268,0 -89.0637182,35.7268484,0 -89.0630481,35.7273055,0 -89.0625824,35.7276291,0 -89.0622975,35.7278271,0 -89.061414,35.728633,0 -89.06013,35.729541,0 -89.05467609999999,35.7333885,0 -89.05421579999999,35.7337194,0 -89.054005,35.7338717,0 -89.0502484,35.7365123,0 -89.0477278,35.7383174,0 -89.04572760000001,35.7396638,0 -89.0424671,35.7419703,0 -89.036258,35.7463518,0 -89.0352673,35.7470721,0 -89.0331324,35.7485437,0 -89.03093939999999,35.75009,0 -89.0302947,35.7505659,0 -89.0276132,35.7524486,0 -89.0265794,35.7531862,0 -89.02266299999999,35.7559221,0 -89.0157947,35.7607633,0 -89.014619,35.761643,0 -89.0116098,35.7637338,0 -89.0065097,35.7673111,0 -89.004122,35.7690098,0 -89.0019254,35.770542,0 -89.001318,35.7709706,0 -89.0000256,35.7718887,0 -88.99716220000001,35.7739116,0 -88.99496929999999,35.775433,0 -88.99348070000001,35.7764889,0 -88.9920908,35.7774639,0 -88.990706,35.7784633,0 -88.9888097,35.7797819,0 -88.98557099999999,35.782041,0 -88.9837419,35.783341,0 -88.98339900000001,35.783556,0 -88.9822446,35.7843928,0 -88.98017710000001,35.7858034,0 -88.9793784,35.7863939,0 -88.97906639999999,35.7865998,0 -88.97855060000001,35.78689,0 -88.9781179,35.7870925,0 -88.97772689999999,35.7872443,0 -88.9771695,35.7874097,0 -88.9766037,35.7875345,0 -88.97597140000001,35.7876358,0 -88.97454449999999,35.7877944,0 -88.9739455,35.7878247,0 -88.97354609999999,35.787818,0 -88.9731343,35.7877775,0 -88.97256369999999,35.7877138,0 -88.9717881,35.7875904,0 -88.9712383,35.7875024,0 -88.9710486,35.7874768,0 -88.9708545,35.7874575,0 -88.97066169999999,35.7874428,0 -88.97046880000001,35.7874326,0 -88.9702188,35.7874238,0 -88.9699741,35.7874265,0 -88.9697226,35.7874376,0 -88.9694705,35.7874564,0 -88.9692261,35.7874836,0 -88.9689803,35.7875173,0 -88.9687369,35.78756,0 -88.9684931,35.7876094,0 -88.96812,35.787705,0 -88.9677525,35.7878179,0 -88.9675742,35.7878807,0 -88.9673981,35.7879484,0 -88.9670531,35.7880926,0 -88.96677149999999,35.7882272,0 -88.9665009,35.7883743,0 -88.9662404,35.7885331,0 -88.9659879,35.7887041,0 -88.9656396,35.7889608,0 -88.9652997,35.7892248,0 -88.9646206,35.7897541,0 -88.9598701,35.7934451,0 -88.95975489999999,35.7935357,0 -88.95826270000001,35.7946971,0 -88.95798790000001,35.7949105,0 -88.95786940000001,35.7950025,0 -88.9566492,35.7959559,0 -88.9559845,35.7964675,0 -88.9557885,35.7966198,0 -88.9557518,35.7966481,0 -88.9512654,35.8001003,0 -88.9507121,35.8005389,0 -88.9490897,35.8018075,0 -88.94802540000001,35.8026156,0 -88.9415352,35.807688,0 -88.9380616,35.8103633,0 -88.9360282,35.8119837,0 -88.9348184,35.8129077,0 -88.9338557,35.8136496,0 -88.9327526,35.8145019,0 -88.9321532,35.8149708,0 -88.9316678,35.8153358,0 -88.928866,35.8174947,0 -88.9281027,35.8181103,0 -88.9271916,35.8187934,0 -88.92672570000001,35.8191104,0 -88.9262452,35.8193752,0 -88.925848,35.8195557,0 -88.9254715,35.8197024,0 -88.92514199999999,35.8198272,0 -88.9248181,35.8199195,0 -88.92445480000001,35.8200058,0 -88.9241615,35.8200591,0 -88.92384560000001,35.8200981,0 -88.92348010000001,35.820133,0 -88.9230803,35.8201472,0 -88.9227928,35.8201496,0 -88.92250420000001,35.8201501,0 -88.92175589999999,35.8201173,0 -88.9205398,35.8200607,0 -88.9202088,35.8200439,0 -88.91981610000001,35.8200233,0 -88.9189319,35.819985,0 -88.9182115,35.8199567,0 -88.9171759,35.8199048,0 -88.9161199,35.8198565,0 -88.91509240000001,35.8198129,0 -88.9150135,35.8198094,0 -88.9130353,35.819722,0 -88.9120022,35.8196736,0 -88.9101714,35.8195887,0 -88.9083444,35.8195002,0 -88.9082598,35.8194961,0 -88.90779000000001,35.8194733,0 -88.90765949999999,35.8207546,0 -88.9075746,35.8218721,0 -88.907569,35.8219352,0 -88.9074775,35.8232445,0 -88.9074341,35.8246285,0 -88.90742969999999,35.82478,0 -88.90741749999999,35.8250856,0 -88.9073886,35.8259777,0 -88.9073673,35.8261537,0 -88.90735170000001,35.8262415,0 -88.9073029,35.8264611,0 -88.90720760000001,35.8267118,0 -88.9071261,35.8269033,0 -88.9070351,35.8270763,0 -88.90689209999999,35.8273069,0 -88.90675640000001,35.827495,0 -88.9065755,35.8277033,0 -88.9063683,35.827902,0 -88.9060473,35.8281564,0 -88.9052556,35.8287142,0 -88.90343059999999,35.8299898,0 -88.9028801,35.8303824,0 -88.902393,35.830724,0 -88.9005791,35.8319852,0 -88.8999537,35.832422,0 -88.8984584,35.8334721,0 -88.8968398,35.8346036,0 -88.8963906,35.8349176,0 -88.8961821,35.8350614,0 -88.89601829999999,35.8351744,0 -88.8958703,35.8352765,0 -88.8957497,35.8353597,0 -88.8953978,35.8356024,0 -88.8951015,35.8358043,0 -88.8947501,35.8360525,0 -88.8882404,35.8406496,0 -88.8875984,35.8410754,0 -88.8859484,35.8422687,0 -88.8853046,35.8427255,0 -88.87873039999999,35.8473234,0 -88.87785030000001,35.8479223,0 -88.87611560000001,35.8491329,0 -88.875034,35.849932,0 -88.8720587,35.8519896,0 -88.8713566,35.8524541,0 -88.8684921,35.8544965,0 -88.86678790000001,35.8556783,0 -88.8642555,35.8574813,0 -88.86241680000001,35.8588636,0 -88.8615557,35.859575,0 -88.86041590000001,35.8606572,0 -88.8596546,35.8613618,0 -88.8588517,35.8621844,0 -88.8559314,35.8654141,0 -88.855711,35.8656366,0 -88.8549539,35.8664693,0 -88.854725,35.8667272,0 -88.8547011,35.8667533,0 -88.85452429999999,35.8669371,0 -88.8538369,35.8676812,0 -88.8518984,35.8697949,0 -88.850746,35.8710658,0 -88.8505627,35.8712692,0 -88.8503238,35.8715343,0 -88.84807739999999,35.8739715,0 -88.8479942,35.8740608,0 -88.8472642,35.8748429,0 -88.8470645,35.8750299,0 -88.84667140000001,35.8753338,0 -88.8458736,35.8757799,0 -88.845309,35.8760157,0 -88.8391579,35.8786714,0 -88.8383063,35.8790463,0 -88.836704,35.8797369,0 -88.833763,35.880991,0 -88.8268276,35.8840195,0 -88.8246589,35.8849564,0 -88.8226975,35.885804,0 -88.8224562,35.8859068,0 -88.8217594,35.8862152,0 -88.82057589999999,35.8867292,0 -88.82042300000001,35.8867965,0 -88.8178915,35.8879102,0 -88.8177357,35.8879748,0 -88.81667179999999,35.888416,0 -88.8154071,35.8889687,0 -88.8146313,35.8893057,0 -88.81384920000001,35.8896478,0 -88.8126054,35.8901904,0 -88.8113159,35.8907589,0 -88.81086980000001,35.8909457,0 -88.80957479999999,35.8914995,0 -88.80291680000001,35.8943811,0 -88.7997199,35.8957695,0 -88.79891910000001,35.89612,0 -88.79775960000001,35.8966327,0 -88.7961444,35.8973247,0 -88.7957804,35.897478,0 -88.794287,35.8981267,0 -88.79402229999999,35.8982441,0 -88.7913282,35.8994213,0 -88.7886565,35.9005639,0 -88.7852183,35.9020575,0 -88.78316529999999,35.9029522,0 -88.7824457,35.9032622,0 -88.7813495,35.9037407,0 -88.78008699999999,35.9042798,0 -88.7794775,35.9045224,0 -88.7783627,35.9048998,0 -88.77722489999999,35.9052216,0 -88.7768027,35.9053328,0 -88.7743504,35.9058247,0 -88.7728694,35.9061179,0 -88.77158799999999,35.9063698,0 -88.7702362,35.9066429,0 -88.76931159999999,35.9068251,0 -88.76866699999999,35.906947,0 -88.76791540000001,35.9071011,0 -88.76723699999999,35.9072582,0 -88.7667795,35.9073911,0 -88.7663288,35.9075373,0 -88.7659206,35.9076967,0 -88.7655123,35.9078687,0 -88.76496059999999,35.9081382,0 -88.7642628,35.9085315,0 -88.7640269,35.9086885,0 -88.7631945,35.9092937,0 -88.76208080000001,35.910169,0 -88.7608276,35.9111778,0 -88.7586008,35.9130096,0 -88.75798330000001,35.9135097,0 -88.7571875,35.914149,0 -88.7554954,35.9153321,0 -88.7551064,35.9155798,0 -88.754836,35.9157617,0 -88.75476949999999,35.9158105,0 -88.7543701,35.9160649,0 -88.7542052,35.9161753,0 -88.75405790000001,35.9162704,0 -88.7534921,35.9166358,0 -88.7534548,35.9166606,0 -88.7533111,35.9167548,0 -88.753035,35.9169358,0 -88.7526197,35.9171989,0 -88.7515854,35.917784,0 -88.75047309999999,35.918502,0 -88.75004319999999,35.9187795,0 -88.7493353,35.9192365,0 -88.74844210000001,35.9198844,0 -88.7475896,35.9205454,0 -88.74660489999999,35.9212845,0 -88.74444440000001,35.9229669,0 -88.74258810000001,35.9244621,0 -88.7381587,35.927811,0 -88.7337586,35.9312253,0 -88.7330552,35.9317726,0 -88.7305834,35.9337159,0 -88.7304544,35.933827,0 -88.7294564,35.9345809,0 -88.7285408,35.9352552,0 -88.7265732,35.936781,0 -88.7259054,35.9372773,0 -88.7255973,35.9375031,0 -88.7251962,35.9377741,0 -88.72441259999999,35.9383053,0 -88.72299409999999,35.939215,0 -88.722508,35.9395312,0 -88.7222185,35.9397355,0 -88.7213545,35.9403752,0 -88.71659200000001,35.9440404,0 -88.7140819,35.945997,0 -88.712789,35.9469969,0 -88.7113997,35.9480756,0 -88.70866650000001,35.9501927,0 -88.7062174,35.9520715,0 -88.7058773,35.9523123,0 -88.7056771,35.952472,0 -88.705274,35.9528909,0 -88.705112,35.9530354,0 -88.7048733,35.9532059,0 -88.7039202,35.9537645,0 -88.7032621,35.9541136,0 -88.7023585,35.9545645,0 -88.7022032,35.9546637,0 -88.7020055,35.9547953,0 -88.70180089999999,35.9549927,0 -88.70162999999999,35.9551952,0 -88.70149670000001,35.9553858,0 -88.7011609,35.9560682,0 -88.7010367,35.9563205,0 -88.7008802,35.9565933,0 -88.700793,35.9567224,0 -88.7006846,35.9568661,0 -88.70058229999999,35.9569465,0 -88.7004228,35.9570781,0 -88.6984377,35.9586103,0 -88.6970218,35.9597032,0 -88.6969524,35.959758,0 -88.6933143,35.9625775,0 -88.69300250000001,35.9628043,0 -88.6915728,35.963918,0 -88.6890006,35.9659174,0 -88.68540110000001,35.9687113,0 -88.6841029,35.9697142,0 -88.68094429999999,35.9721721,0 -88.6807893,35.9722811,0 -88.68067139999999,35.9723573,0 -88.6805663,35.9724223,0 -88.6804377,35.9724893,0 -88.680305,35.9725547,0 -88.6801437,35.9726227,0 -88.680127,35.9726285,0 -88.6798692,35.9727194,0 -88.6795121,35.9728308,0 -88.6794127,35.9728629,0 -88.6791614,35.9729406,0 -88.6791015,35.9729591,0 -88.67893119999999,35.9730117,0 -88.67847070000001,35.973154,0 -88.6767445,35.9736866,0 -88.6751041,35.9742373,0 -88.6746318,35.9744041,0 -88.6737643,35.9747021,0 -88.6730252,35.974952,0 -88.6713985,35.9755217,0 -88.67075,35.9757412,0 -88.66926669999999,35.9762556,0 -88.66888760000001,35.9763201,0 -88.6685377,35.9763722,0 -88.6682284,35.9764031,0 -88.6680526,35.976415,0 -88.6678476,35.9764187,0 -88.66765650000001,35.9764187,0 -88.6673894,35.9764094,0 -88.666436,35.9763367,0 -88.6653329,35.9762417,0 -88.6636714,35.9761071,0 -88.6615209,35.9759216,0 -88.6584479,35.9756606,0 -88.65612779999999,35.9754572,0 -88.6560551,35.9754512,0 -88.6518904,35.9751067,0 -88.64955519999999,35.9748974,0 -88.64771589999999,35.9747465,0 -88.64686829999999,35.9746711,0 -88.6465208,35.9746471,0 -88.6462834,35.9746436,0 -88.645991,35.9746436,0 -88.6457367,35.9746574,0 -88.64544429999999,35.9746814,0 -88.6451773,35.9747122,0 -88.6448721,35.9747602,0 -88.6445839,35.974822,0 -88.64398129999999,35.9749814,0 -88.64046519999999,35.9759434,0 -88.639955,35.976083,0 -88.63979399999999,35.976127,0 -88.634111,35.977674,0 -88.63252900000001,35.978105,0 -88.6289835,35.979009,0 -88.6270332,35.9795437,0 -88.6269303,35.9795719,0 -88.6259955,35.9798208,0 -88.62421879999999,35.9802776,0 -88.622309,35.9807985,0 -88.6200863,35.9813905,0 -88.6165994,35.9823542,0 -88.61516709999999,35.9827406,0 -88.6134076,35.983205,0 -88.61036060000001,35.9840211,0 -88.6069918,35.9849283,0 -88.60637490000001,35.9850325,0 -88.605935,35.9850499,0 -88.60564530000001,35.9850368,0 -88.60531810000001,35.9850021,0 -88.6048943,35.9849283,0 -88.6026841,35.9842642,0 -88.6003345,35.9835675,0 -88.59795269999999,35.9828209,0 -88.5970408,35.9825344,0 -88.59572110000001,35.982135,0 -88.5949701,35.9819614,0 -88.5943693,35.9818745,0 -88.5935968,35.9818745,0 -88.5900456,35.982326,0 -88.587023,35.9827682,0 -88.5860866,35.9829077,0 -88.5838765,35.9832289,0 -88.5800785,35.9837324,0 -88.5786945,35.9839321,0 -88.5769889,35.9841855,0 -88.5763773,35.9842702,0 -88.5754895,35.9844199,0 -88.5752964,35.9844872,0 -88.5751569,35.9845458,0 -88.574996,35.98465,0 -88.5748753,35.9847433,0 -88.5747248,35.9849565,0 -88.5746285,35.9851709,0 -88.57457460000001,35.9854362,0 -88.57448340000001,35.9862913,0 -88.57437609999999,35.9874893,0 -88.5741025,35.9903584,0 -88.5739791,35.9914066,0 -88.5737431,35.9921792,0 -88.5735607,35.9925264,0 -88.5732496,35.9929778,0 -88.57299209999999,35.9932295,0 -88.57278820000001,35.9934379,0 -88.5725844,35.9936028,0 -88.5721338,35.9939761,0 -88.5685694,35.9962281,0 -88.56752760000001,35.9968888,0 -88.56424459999999,35.9989546,0 -88.5636422,35.9992553,0 -88.5631073,35.9994667,0 -88.56236699999999,35.9996751,0 -88.5616869,35.9998628,0 -88.55919129999999,36.0004996,0 -88.55685099999999,36.001108,0 -88.556186,36.001288,0 -88.54780909999999,36.0034519,0 -88.5450625,36.0041614,0 -88.54432490000001,36.004348,0 -88.5437992,36.0044608,0 -88.5435846,36.0044912,0 -88.5432655,36.0045129,0 -88.54266730000001,36.0045411,0 -88.54161860000001,36.004578,0 -88.5410862,36.0045791,0 -88.5402587,36.0045346,0 -88.538944,36.0044136,0 -88.5327861,36.0037296,0 -88.528288,36.0032392,0 -88.52518739999999,36.002892,0 -88.52180509999999,36.0025253,0 -88.5208288,36.0024125,0 -88.5201958,36.0023409,0 -88.51978,36.002291,0 -88.51960029999999,36.0022736,0 -88.5160518,36.0018874,0 -88.5105291,36.0012863,0 -88.5053659,36.0007113,0 -88.504926,36.0006853,0 -88.5045478,36.0007004,0 -88.5042581,36.0007156,0 -88.5039443,36.0007634,0 -88.5035956,36.0008567,0 -88.50313,36.001044,0 -88.50279089999999,36.0012364,0 -88.502115,36.0017051,0 -88.5008115,36.0026837,0 -88.4997441,36.0034754,0 -88.4992754,36.0038146,0 -88.4989245,36.0040674,0 -88.4986614,36.0042404,0 -88.4984065,36.0044045,0 -88.4980666,36.0045464,0 -88.4977815,36.0046639,0 -88.4972114,36.0048413,0 -88.49623560000001,36.0051096,0 -88.49577789999999,36.0052692,0 -88.49520219999999,36.0055242,0 -88.49470890000001,36.0057637,0 -88.4943662,36.0059278,0 -88.4939743,36.0061429,0 -88.4935878,36.006409,0 -88.49299569999999,36.0069034,0 -88.48946050000001,36.0101785,0 -88.48937050000001,36.0102614,0 -88.4891118,36.0104998,0 -88.4877029,36.0118124,0 -88.4869162,36.012462,0 -88.4866202,36.012686,0 -88.48627209999999,36.0128988,0 -88.4860035,36.0130407,0 -88.4857184,36.0131715,0 -88.48521409999999,36.0133866,0 -88.4849591,36.0134598,0 -88.4845727,36.0135728,0 -88.48424369999999,36.0136571,0 -88.4837586,36.0137413,0 -88.4834214,36.0137812,0 -88.4830898,36.0138101,0 -88.4826403,36.0138322,0 -88.48225650000001,36.0138234,0 -88.4819057,36.0138056,0 -88.4814068,36.0137458,0 -88.4809217,36.0136571,0 -88.4803655,36.013533,0 -88.48030079999999,36.0135185,0 -88.47856299999999,36.0131194,0 -88.47835329999999,36.0130729,0 -88.4766484,36.0126749,0 -88.4731153,36.0118789,0 -88.4706868,36.0113202,0 -88.46894349999999,36.0109233,0 -88.4666246,36.0103978,0 -88.4646484,36.0099455,0 -88.4642317,36.0098457,0 -88.4608905,36.0090808,0 -88.4586702,36.0085797,0 -88.4582564,36.0084688,0 -88.4579256,36.0083751,0 -88.4575184,36.008215,0 -88.45689230000001,36.0079194,0 -88.4565496,36.0077264,0 -88.4549698,36.0066806,0 -88.45466209999999,36.0064702,0 -88.4534463,36.0056564,0 -88.4503165,36.003572,0 -88.44981780000001,36.0032376,0 -88.448413,36.0023031,0 -88.4479843,36.0020232,0 -88.4474786,36.0017023,0 -88.44702119999999,36.0014204,0 -88.4467834,36.0014663,0 -88.44659679999999,36.0024593,0 -88.4463567,36.0038533,0 -88.4462731,36.0043323,0 -88.4462266,36.0047055,0 -88.4462111,36.0049701,0 -88.44620430000001,36.005757,0 -88.4461819,36.0062026,0 -88.4454145,36.0108756,0 -88.44513430000001,36.0125476,0 -88.44497320000001,36.0135036,0 -88.4446458,36.0155435,0 -88.4445683,36.0159919,0 -88.4444786,36.0164812,0 -88.44438719999999,36.0169125,0 -88.4442904,36.0172718,0 -88.4441949,36.017582,0 -88.44412819999999,36.0178194,0 -88.44402839999999,36.018067,0 -88.4438731,36.0183807,0 -88.4436077,36.018853,0 -88.44343309999999,36.0191282,0 -88.4432358,36.0194107,0 -88.44306109999999,36.0196386,0 -88.4426131,36.0201687,0 -88.4422479,36.0205525,0 -88.4419031,36.0208745,0 -88.44139509999999,36.0212678,0 -88.4408918,36.0216411,0 -88.4407894,36.0217027,0 -88.439892,36.0222144,0 -88.43933389999999,36.0224722,0 -88.4383254,36.0228193,0 -88.4377846,36.0229471,0 -88.4369307,36.023149,0 -88.4360295,36.0232705,0 -88.4336016,36.0234578,0 -88.4285661,36.0238262,0 -88.4240209,36.0241582,0 -88.4196405,36.0244783,0 -88.4174921,36.0246292,0 -88.4166002,36.0246918,0 -88.4135807,36.024915,0 -88.4105319,36.0251383,0 -88.4075157,36.0253606,0 -88.4063443,36.0254449,0 -88.4057294,36.0254838,0 -88.40520549999999,36.0255005,0 -88.4045296,36.0254918,0 -88.4041783,36.0254613,0 -88.4038707,36.0254188,0 -88.4035229,36.0253508,0 -88.40320560000001,36.02528,0 -88.40249110000001,36.0250667,0 -88.4021413,36.0249292,0 -88.4017508,36.0247717,0 -88.4011775,36.0244386,0 -88.39953,36.0233139,0 -88.3973848,36.0217717,0 -88.3968465,36.021362,0 -88.3962255,36.0208408,0 -88.3960507,36.0206765,0 -88.3958389,36.0204438,0 -88.39558510000001,36.0201342,0 -88.3953564,36.0198342,0 -88.3951727,36.0194936,0 -88.3950213,36.0191647,0 -88.3948769,36.0187996,0 -88.39476019999999,36.0184068,0 -88.3947234,36.0181941,0 -88.3946919,36.0179954,0 -88.394659,36.0177437,0 -88.39465010000001,36.0175134,0 -88.39465269999999,36.0169707,0 -88.3947209,36.015515,0 -88.3947354,36.0152063,0 -88.3947436,36.0149462,0 -88.3948786,36.0117385,0 -88.3949162,36.0107536,0 -88.39491820000001,36.009498,0 -88.3948017,36.0094435,0 -88.3945737,36.0094221,0 -88.39416180000001,36.0094131,0 -88.39371970000001,36.0093981,0 -88.3934486,36.0094139,0 -88.3931401,36.0095013,0 
			</coordinates>
		</LineString>
		<atom:link rel="app" href="https://www.google.com/earth/about/versions/#earth-pro" title="Google Earth Pro 7.3.6.10201"></atom:link>
	</Placemark>
</Document>
</kml>
