<?xml version="1.0" encoding="UTF-8"?>
<kml xmlns="http://www.opengis.net/kml/2.2" xmlns:gx="http://www.google.com/kml/ext/2.2" xmlns:kml="http://www.opengis.net/kml/2.2" xmlns:atom="http://www.w3.org/2005/Atom">
<Document>
	<name>US.93A.AZ.kml</name>
	<Placemark>
		<name>US.93A.AZ</name>
			<LineString>
				<coordinates>
					-114.6131758159129,40.06534476940019,0 -114.5124139686131,40.13040472459854,0 -114.5059628653616,40.13538359296868,0 -114.4916288695493,40.15399902960279,0 -114.4843182652255,40.15766783627426,0 -114.4626701996876,40.16052357924129,0 -114.4550687024335,40.16408150035587,0 -114.4406236053552,40.1812885584481,0 -114.4332142280809,40.19269939355064,0 -114.4309313547856,40.20192095839472,0 -114.4350097884506,40.21467793804855,0 -114.4361683519014,40.22653775506406,0 -114.4304539993604,40.23668781943795,0 -114.4195384752544,40.24597483501079,0 -114.3068535499179,40.32900201135046,0 -114.2941735099714,40.3346461537858,0 -114.2527267071833,40.34627162193267,0 -114.240027223745,40.35020702442145,0 -114.2250043990893,40.35985833077004,0 -114.219094138562,40.37624127844123,0 -114.2019809746658,40.40179280680036,0 -114.1875659463165,40.41876563694095,0 -114.1806039255622,40.41989092046861,0 -114.1771028848266,40.42858432708348,0 -114.1666486850339,40.44066655372357,0 -114.162613691378,40.45693692150477,0 -114.1576385567522,40.46528172902886,0 -114.1566123848261,40.47933690138942,0 -114.1530969467796,40.49384091381254,0 -114.1545738936195,40.50299566054121,0 -114.1301204302215,40.61283126421375,0 -114.1263135500434,40.63368123905747,0 -114.0955418702682,40.6995504900089,0 -114.0756640656915,40.7252959649562,0 -114.0578379220914,40.73405457018529,0 -114.0552519168614,40.73590781830339,0 -114.0552461216453,40.73719782090162,0 -114.05835540382,40.73768428163998,0 -114.0574968100001,40.74021863286247,0 
				
					-114.0599342,40.7402953,0 -114.0609888,40.7406025,0 -114.0620133,40.740924,0 -114.0630788,40.7412508,0 -114.0640862,40.7415692,0 -114.0647809,40.7417852,0 -114.065238,40.7419213,0 -114.0657702,40.7420828,0 -114.0663172,40.7422555,0 -114.0667857,40.7424045,0 -114.0671995,40.7425348,0 -114.0677064,40.7426922,0 -114.0686597,40.7429823,0 -114.0692464,40.7431729,0 -114.069662,40.7432976,0 -114.0697509,40.7433243,0 -114.0702912,40.7434889,0 -114.0708762,40.743639,0 -114.0714469,40.7437711,0 -114.0719413,40.7438842,0 -114.0724066,40.7439787,0 -114.0729549,40.7440813,0 -114.0736429,40.7441979,0 -114.074675,40.74432,0 -114.075549,40.744398,0 -114.075626,40.744402,0 -114.076512,40.744451,0 -114.077206,40.744466,0 -114.077552,40.744473,0 -114.078129,40.744473,0 -114.078507,40.744462,0 -114.078857,40.744453,0 -114.081262,40.744385,0 -114.081297,40.744384,0 -114.082548,40.74435,0 -114.0846682,40.7443181,0 -114.0865547,40.7442723,0 -114.0876154,40.7442489,0 -114.090348,40.7441774,0 -114.090606,40.7441679,0 -114.092596,40.744095,0 -114.093346,40.744095,0 -114.094517,40.744145,0 -114.095789,40.744241,0 -114.096887,40.744351,0 -114.097668,40.7444696,0 -114.0986507,40.7446401,0 -114.0991892,40.744732,0 -114.099921,40.744882,0 -114.100885,40.745109,0 -114.102076,40.745441,0 -114.10311,40.745749,0 -114.1041551,40.746117,0 -114.105005,40.746472,0 -114.1060247,40.7469086,0 -114.1064381,40.7470764,0 -114.1068849,40.7472987,0 -114.1076432,40.7477357,0 -114.1080798,40.7479811,0 -114.1086912,40.748368,0 -114.1092522,40.7487289,0 -114.1104339,40.7495672,0 -114.1137974,40.7521728,0 -114.1141651,40.7524587,0 -114.1157806,40.7537424,0 -114.1162587,40.7541153,0 -114.1186737,40.7559751,0 -114.1189548,40.7561894,0 -114.123821,40.759957,0 -114.125287,40.761083,0 -114.125972,40.761623,0 -114.126543,40.762061,0 -114.1276272,40.7629382,0 -114.1280633,40.7632876,0 -114.130095,40.764826,0 -114.130656,40.765253,0 -114.1331615,40.767202,0 -114.134271,40.768065,0 -114.1370764,40.7702688,0 -114.1374655,40.7705588,0 -114.1383185,40.7712144,0 -114.139998,40.772503,0 -114.141079,40.773407,0 -114.141896,40.774117,0 -114.1432253,40.7754479,0 -114.1438771,40.7761005,0 -114.1462555,40.7784838,0 -114.147086,40.779316,0 -114.148168,40.780416,0 -114.148566,40.780803,0 -114.149283,40.781528,0 -114.149976,40.782244,0 -114.1521909,40.7844466,0 -114.1530594,40.7853313,0 -114.154027,40.786317,0 -114.1549815,40.7872697,0 -114.156173,40.788459,0 -114.157248,40.789562,0 -114.1578933,40.7902037,0 -114.158679,40.790985,0 -114.159382,40.791704,0 -114.15997,40.792287,0 -114.1607216,40.7930284,0 -114.1615733,40.7938685,0 -114.162601,40.794941,0 -114.1636356,40.7959825,0 -114.1640555,40.7964133,0 -114.1646441,40.797017,0 -114.1654752,40.797858,0 -114.166757,40.799155,0 -114.167509,40.799898,0 -114.1683837,40.8007792,0 -114.1703574,40.8027621,0 -114.171282,40.803691,0 -114.17306,40.805484,0 -114.173456,40.805904,0 -114.173746,40.806183,0 -114.176195,40.808656,0 -114.178252,40.8107226,0 -114.179201,40.811676,0 -114.179862,40.812317,0 -114.1807238,40.8131817,0 -114.1825437,40.8150048,0 -114.1835627,40.8160526,0 -114.1844282,40.8169166,0 -114.1865222,40.8190363,0 -114.1882776,40.8208132,0 -114.1887163,40.8212467,0 -114.1904034,40.8229136,0 -114.1912995,40.8238065,0 -114.1938498,40.8263841,0 -114.1949164,40.8274592,0 -114.196361,40.8289349,0 -114.2050484,40.8377939,0 -114.2054822,40.8382362,0 -114.2097113,40.8424033,0 -114.2100483,40.8427441,0 -114.2143244,40.8470172,0 -114.2149112,40.8476159,0 -114.2160712,40.8488631,0 -114.2203786,40.8532182,0 -114.2223494,40.8552107,0 -114.2229755,40.8558299,0 -114.2265849,40.8594501,0 -114.2287358,40.8615786,0 -114.231408,40.864223,0 -114.232387,40.865213,0 -114.2326472,40.8654749,0 -114.2344648,40.867304,0 -114.2348168,40.8676622,0 -114.2363228,40.8691822,0 -114.2371101,40.8699613,0 -114.237896,40.870739,0 -114.2402633,40.8731204,0 -114.241256,40.874119,0 -114.2418324,40.8747018,0 -114.2438237,40.876709,0 -114.24467,40.877562,0 -114.2451366,40.8780321,0 -114.2469319,40.8798278,0 -114.247433,40.880329,0 -114.2495901,40.8825062,0 -114.250108,40.883029,0 -114.2508113,40.8837331,0 -114.251053,40.883975,0 -114.251381,40.884309,0 -114.252041,40.884984,0 -114.2529561,40.8859154,0 -114.2533985,40.8863406,0 -114.2535229,40.8864602,0 -114.2543104,40.887217,0 -114.2547324,40.8876103,0 -114.2551794,40.8880201,0 -114.2556428,40.8884174,0 -114.2560692,40.8887743,0 -114.2565936,40.8892005,0 -114.2571096,40.8896038,0 -114.2577877,40.8901337,0 -114.25873,40.890798,0 -114.2599227,40.8916288,0 -114.2607526,40.8922069,0 -114.261782,40.892844,0 -114.262666,40.893379,0 -114.263879,40.894095,0 -114.2650309,40.8947541,0 -114.2660828,40.8952994,0 -114.2664679,40.8954816,0 -114.2669243,40.8956975,0 -114.267408,40.895919,0 -114.2676211,40.8960141,0 -114.268311,40.896322,0 -114.268916,40.896597,0 -114.269937,40.897036,0 -114.271532,40.897678,0 -114.272556,40.898064,0 -114.273588,40.898436,0 -114.2737045,40.8984761,0 -114.2743238,40.8986891,0 -114.280445,40.900584,0 -114.281292,40.900814,0 -114.28193,40.900953,0 -114.282757,40.901085,0 -114.283172,40.90113,0 -114.283726,40.901168,0 -114.284351,40.901189,0 -114.284607,40.901194,0 -114.2853735,40.9011944,0 -114.2865462,40.9011159,0 -114.288369,40.9010017,0 -114.289148,40.900965,0 -114.289827,40.900985,0 -114.290177,40.901006,0 -114.290788,40.901074,0 -114.291404,40.901164,0 -114.291964,40.901271,0 -114.292552,40.90141,0 -114.29321,40.90159,0 -114.29337,40.901635,0 -114.293403,40.901647,0 -114.293897,40.901828,0 -114.294142,40.901924,0 -114.294764,40.902204,0 -114.295377,40.902493,0 -114.3048676,40.9072192,0 -114.3054512,40.9075098,0 -114.314784,40.912157,0 -114.315446,40.912531,0 -114.315936,40.912847,0 -114.316744,40.913414,0 -114.317365,40.913927,0 -114.317833,40.914345,0 -114.318371,40.914868,0 -114.318598,40.915122,0 -114.318861,40.915454,0 -114.3201012,40.9170565,0 -114.3205662,40.917656,0 -114.323187,40.921311,0 -114.323868,40.922101,0 -114.324661,40.922917,0 -114.325267,40.923442,0 -114.325776,40.923865,0 -114.326295,40.924254,0 -114.326826,40.924608,0 -114.327414,40.924978,0 -114.328085,40.925382,0 -114.3286122,40.9256639,0 -114.35966,40.942263,0 -114.362715,40.943933,0 -114.363551,40.94438,0 -114.364254,40.944799,0 -114.371079,40.949291,0 -114.3722945,40.9501169,0 -114.386846,40.960004,0 -114.4044955,40.9719476,0 -114.420751,40.982946,0 -114.4436251,40.9984233,0 -114.4441297,40.9987646,0 -114.4500037,41.0027234,0 -114.4588065,41.0086623,0 -114.4832869,41.025165,0 -114.485588,41.026716,0 -114.4895641,41.0293692,0 -114.4900007,41.0296317,0 -114.493473,41.032046,0 -114.496285,41.033962,0 -114.496911,41.034412,0 -114.49735,41.034739,0 -114.498023,41.035256,0 -114.498572,41.035712,0 -114.49914,41.036202,0 -114.4998901,41.0369036,0 -114.500362,41.037345,0 -114.500875,41.037883,0 -114.502165,41.039235,0 -114.5043999,41.0416037,0 -114.512986,41.050703,0 -114.51385,41.051587,0 -114.519112,41.057169,0 -114.5194913,41.057575,0 -114.519909,41.058022,0 -114.5202,41.058314,0 -114.520325,41.058436,0 -114.52102,41.059028,0 -114.521657,41.05952,0 -114.522078,41.059831,0 -114.522813,41.060324,0 -114.523222,41.060584,0 -114.523721,41.060883,0 -114.5242855,41.0611702,0 -114.5248751,41.0614702,0 -114.525142,41.061606,0 -114.525767,41.061881,0 -114.526586,41.062207,0 -114.527394,41.062486,0 -114.527772,41.062601,0 -114.528149,41.0627,0 -114.5312023,41.0634173,0 -114.533075,41.0638473,0 -114.5336946,41.064008,0 -114.5343362,41.0641949,0 -114.5347445,41.0643301,0 -114.5351853,41.0644929,0 -114.5355261,41.0646232,0 -114.5356323,41.0646669,0 -114.5361275,41.0648781,0 -114.5362486,41.064934,0 -114.5367391,41.0651651,0 -114.5372718,41.0654348,0 -114.537791,41.065734,0 -114.5381346,41.0659445,0 -114.5386439,41.0662859,0 -114.5390723,41.0666025,0 -114.5396863,41.0671079,0 -114.5401887,41.067555,0 -114.5413167,41.0685306,0 -114.5417229,41.0688812,0 -114.542167,41.0692144,0 -114.5427015,41.0695941,0 -114.543093,41.069839,0 -114.54354,41.070108,0 -114.543929,41.070317,0 -114.5447658,41.0707295,0 -114.5453793,41.0709972,0 -114.5458637,41.0711799,0 -114.5460753,41.0712562,0 -114.5460841,41.0712593,0 -114.5465167,41.0714152,0 -114.5472053,41.0716266,0 -114.5477173,41.0717594,0 -114.5483929,41.0719144,0 -114.548656,41.0719686,0 -114.549287,41.0720777,0 -114.549939,41.0721719,0 -114.550709,41.0722729,0 -114.5510807,41.0723157,0 -114.5515782,41.0723796,0 -114.5520684,41.0724415,0 -114.5531273,41.0725818,0 -114.553833,41.0726614,0 -114.554972,41.0728198,0 -114.5558134,41.0729643,0 -114.5566499,41.0731253,0 -114.5567558,41.0731479,0 -114.5570422,41.0732085,0 -114.5575938,41.0733374,0 -114.5583272,41.0735347,0 -114.5603626,41.0742133,0 -114.5607465,41.074366,0 -114.561618,41.07471,0 -114.5626562,41.0751912,0 -114.564015,41.0757855,0 -114.5643911,41.0759463,0 -114.5655562,41.0763974,0 -114.5664028,41.0766957,0 -114.5670946,41.0769111,0 -114.5675733,41.0770469,0 -114.5680643,41.0771769,0 -114.5687354,41.077346,0 -114.5691231,41.0774308,0 -114.5695191,41.0775126,0 -114.5699434,41.0775934,0 -114.5704131,41.0776772,0 -114.5708215,41.077739,0 -114.5714284,41.0778228,0 -114.5721773,41.0779093,0 -114.5726739,41.077955,0 -114.5732193,41.0779867,0 -114.5738317,41.0780138,0 -114.5740809,41.0780257,0 -114.5744674,41.0780351,0 -114.575272,41.078037,0 -114.576436,41.078007,0 -114.57683,41.077982,0 -114.577458,41.077944,0 -114.578147,41.077876,0 -114.579371,41.077706,0 -114.584529,41.076687,0 -114.584968,41.076589,0 -114.585279,41.076502,0 -114.585592,41.076402,0 -114.585837,41.076314,0 -114.58619,41.076181,0 -114.586578,41.076017,0 -114.586797,41.075908,0 -114.587344,41.075608,0 -114.587981,41.075226,0 -114.58815,41.075128,0 -114.588399,41.074983,0 -114.588769,41.074802,0 -114.589053,41.074676,0 -114.589533,41.07449,0 -114.590032,41.074343,0 -114.590601,41.074211,0 -114.590957,41.074145,0 -114.591319,41.074095,0 -114.591641,41.074065,0 -114.591831,41.074056,0 -114.59249,41.074022,0 -114.592806,41.074005,0 -114.593021,41.073989,0 -114.593305,41.073952,0 -114.593727,41.073881,0 -114.594165,41.073781,0 -114.594531,41.073686,0 -114.594916,41.073553,0 -114.59531,41.073403,0 -114.595564,41.073288,0 -114.595973,41.073087,0 -114.596107,41.07301,0 -114.59639,41.072845,0 -114.596695,41.072636,0 -114.597061,41.072358,0 -114.597324,41.072135,0 -114.597572,41.071886,0 -114.598181,41.071173,0 -114.598626,41.07067,0 -114.599374,41.0698,0 -114.600708,41.068273,0 -114.601099,41.067907,0 -114.6014,41.067675,0 -114.60173,41.067439,0 -114.602232,41.067143,0 -114.602765,41.066865,0 -114.603406,41.066595,0 -114.604515,41.066293,0 -114.604946,41.066211,0 -114.605377,41.066144,0 -114.605775,41.0661,0 -114.606211,41.066085,0 -114.606708,41.066091,0 -114.607568,41.066132,0 -114.607813,41.06615,0 -114.608026,41.066178,0 -114.608286,41.066224,0 -114.608528,41.066278,0 -114.608689,41.066314,0 -114.608998,41.066389,0 -114.609377,41.066512,0 -114.609672,41.06663,0 -114.610013,41.066779,0 -114.611844,41.067724,0 -114.612388,41.068015,0 -114.613,41.068317,0 -114.613334,41.068487,0 -114.613708,41.068657,0 -114.614209,41.06888,0 -114.614713,41.069119,0 -114.616455,41.0700335,0 -114.617374,41.070516,0 -114.618098,41.070864,0 -114.618547,41.071046,0 -114.618796,41.071139,0 -114.619613,41.071391,0 -114.620257,41.071559,0 -114.620709,41.071658,0 -114.621497,41.071773,0 -114.622307,41.071847,0 -114.623231,41.07189,0 -114.623552,41.071889,0 -114.624492,41.071854,0 -114.638378,41.07121,0 -114.639368,41.071173,0 -114.640899,41.071148,0 -114.642134,41.07114,0 -114.643655,41.071178,0 -114.644473,41.071217,0 -114.646308,41.071363,0 -114.646904,41.071421,0 -114.648524,41.071629,0 -114.659556,41.073431,0 -114.660624,41.073629,0 -114.6616,41.073834,0 -114.662751,41.074106,0 -114.663805,41.074394,0 -114.664587,41.07462,0 -114.665828,41.075007,0 -114.7045363,41.0881011,0 -114.7100557,41.0899313,0 -114.7105087,41.0900842,0 -114.715946,41.091919,0 -114.7674922,41.1092824,0 -114.7676759,41.1093443,0 -114.772004,41.110802,0 -114.772789,41.111056,0 -114.773329,41.111217,0 -114.774103,41.111432,0 -114.77509,41.111689,0 -114.775973,41.111893,0 -114.776828,41.112071,0 -114.777585,41.112213,0 -114.778418,41.112353,0 -114.779624,41.112511,0 -114.780047,41.112551,0 -114.781287,41.112645,0 -114.781878,41.11268,0 -114.783228,41.112728,0 -114.783738,41.112738,0 -114.7977904,41.1125931,0 -114.8031238,41.112521,0 -114.8035384,41.1125219,0 -114.8093824,41.1124656,0 -114.8311686,41.1122018,0 -114.8318852,41.1121858,0 -114.8332591,41.1121231,0 -114.8346547,41.1120263,0 -114.8361431,41.1118601,0 -114.8416899,41.1110964,0 -114.864018,41.108022,0 -114.872073,41.106904,0 -114.8945923,41.1037568,0 -114.902908,41.1025946,0 -114.9047247,41.1023437,0 -114.9055424,41.1022308,0 -114.9067956,41.1020578,0 -114.9081211,41.1018748,0 -114.9113171,41.1014255,0 -114.9135522,41.1011109,0 -114.9169377,41.1006344,0 -114.9184065,41.1004277,0 -114.9199825,41.100205,0 -114.9256124,41.0994099,0 -114.935836,41.097966,0 -114.9363662,41.0978935,0 -114.937511,41.097737,0 -114.938601,41.097635,0 -114.93933,41.097593,0 -114.940375,41.097578,0 -114.950815,41.098015,0 -114.951681,41.098075,0 -114.952372,41.09815,0 -114.954501,41.098492,0 -114.955079,41.098611,0 -114.955678,41.09876,0 -114.9577235,41.0993903,0 
				</coordinates>
			</LineString>
		<atom:link rel="app" href="https://www.google.com/earth/about/versions/#earth-pro" title="Google Earth Pro 7.3.6.10201"></atom:link>
	</Placemark>
</Document>
</kml>
