<?xml version="1.0" encoding="UTF-8"?>
<kml xmlns="http://www.opengis.net/kml/2.2" xmlns:gx="http://www.google.com/kml/ext/2.2" xmlns:kml="http://www.opengis.net/kml/2.2" xmlns:atom="http://www.w3.org/2005/Atom">
<Document>
	<name>US.95A.kml</name>
	<Placemark>
		<name>US.95A</name>
		<LineString>
			<coordinates>
				-118.8103023026022,38.9403434000527,0 -118.8118873908206,38.94062183955282,0 -118.8126535305063,38.94081326921722,0 -118.8135457278633,38.94113193853695,0 -118.8142813157103,38.94147024295565,0 -118.8151086905203,38.94196486695728,0 -118.8157301634657,38.94241457395174,0 -118.8163065828288,38.94294557360343,0 -118.8170146204732,38.94373248594022,0 -118.8190715756139,38.94611894640064,0 -118.8197218261406,38.946785350615,0 -118.820446326568,38.94738709188592,0 -118.821297840445,38.94796620614965,0 -118.8359255852311,38.95660131060811,0 -118.8368106828504,38.95716743793896,0 -118.8374940384571,38.95769370408841,0 -118.8382029973913,38.95828974138307,0 -118.8584236968965,38.97578272404314,0 -118.8594231703245,38.97670929858397,0 -118.8601965529417,38.97757342844241,0 -118.860875423108,38.97847218116355,0 -118.8615091038332,38.97947334209613,0 -118.8620622173641,38.98057652459467,0 -118.8690458405923,38.99435550430158,0 -118.8697324399937,38.99565884537251,0 -118.8703814258865,38.9966945661651,0 -118.8710797536049,38.99766065853752,0 -118.8717825715925,38.99851273383943,0 -118.8725758299403,38.99938512871306,0 -118.8875224967778,39.01440484122576,0 -118.8882839203189,39.01513493777215,0 -118.8891367251088,39.01584174766363,0 -118.8899612872673,39.01643404888444,0 -118.8909166814772,39.0170334022115,0 -118.8919313419868,39.01759837804555,0 -118.9273643162054,39.03563162107096,0 -118.9285873528839,39.03620193536431,0 -118.9296805877747,39.03666896643018,0 -118.9388507627536,39.04030863840812,0 -118.9406248055322,39.04097305884822,0 -118.9423105283784,39.04152421492145,0 -118.943750474403,39.04194109928963,0 -118.9450748682531,39.04226672820851,0 -118.952356147001,39.04392051303389,0 -118.9537280065912,39.04419798436565,0 -118.9552258109101,39.04445063964774,0 -118.9566762196878,39.04464697507832,0 -118.9682051318094,39.04605664132555,0 -118.9693767225333,39.04616575805292,0 -118.9705054611027,39.04621030721895,0 -118.9719560660862,39.04617892960228,0 -118.9732452091459,39.04607435154629,0 -118.9743203996802,39.04592963167062,0 -118.9753337621794,39.04574454474103,0 -118.9762906690083,39.04552113314826,0 -118.9771776985056,39.04527251905419,0 -118.9782849232717,39.04489882689175,0 -118.9793366427548,39.04446954506955,0 -118.9804532632845,39.04395118078256,0 -118.9814482611182,39.04340230227212,0 -118.9824621974756,39.04274288480919,0 -118.9833697839015,39.04210807234783,0 -118.9953016783179,39.0337729438874,0 -118.9960817047334,39.03330776231081,0 -118.996893035706,39.03291914013902,0 -118.9976349940139,39.03264183823875,0 -118.9984110580254,39.03244537061265,0 -118.9991658318187,39.03230869009702,0 -119.0000120162348,39.0322238211919,0 -119.0009030952024,39.03222840748668,0 -119.0032662742869,39.03235421014467,0 -119.0041263751228,39.03235017156589,0 -119.0048745288019,39.03225971353639,0 -119.0056912312239,39.03210274417356,0 -119.0072091253403,39.03173300131945,0 -119.007925405693,39.03159584521578,0 -119.0085254642586,39.03152208522998,0 -119.0091665915539,39.03149768798458,0 -119.0098050706115,39.03151361119067,0 -119.0105711948235,39.0315970603865,0 -119.0113666614169,39.03176264348387,0 -119.0147111677266,39.03274702285732,0 -119.0158125377336,39.03302284737147,0 -119.0168447741661,39.03320336693151,0 -119.0179253731733,39.0332856388594,0 -119.0190333052596,39.03329762271936,0 -119.0200651333128,39.03319729623303,0 -119.0214082731972,39.03299834906893,0 -119.0302577504973,39.03169877830256,0 -119.0319404398081,39.03144905922716,0 -119.0340373422261,39.03103883522159,0 -119.0358700384878,39.03059007766875,0 -119.0377913502161,39.03002805287369,0 -119.0396227751793,39.02939687502374,0 -119.0411740284779,39.02877679637324,0 -119.0428475037471,39.02802268868546,0 -119.0445034215953,39.02719827366327,0 -119.0987378724996,38.99971442944955,0 -119.1000601254957,38.99908538973584,0 -119.1012438586315,38.99862006545904,0 -119.1025527032571,38.99822580428128,0 -119.1038975372148,38.99790963367905,0 -119.1052372214975,38.9977122912158,0 -119.1065024909373,38.99759992089063,0 -119.1135330237937,38.99741038405748,0 -119.1153575018495,38.99739928685055,0 -119.1171242284517,38.99743609116594,0 -119.1230947633142,38.9976272933977,0 -119.1246669296253,38.99764670885924,0 -119.1263426938744,38.99764358933301,0 -119.1585489115571,38.99745619539498,0 -119.1593009565278,38.99741731748329,0 -119.1600197980772,38.99728534808732,0 -119.1608565514131,38.99699739525205,0 -119.161486678552,38.99664637214523,0 -119.1619727294819,38.99628260343087,0 -119.1623252924785,38.99594065911852,0 -119.1626594308357,38.99549727043008,0 -119.1629025499975,38.99506190828036,0 -119.1630499963318,38.99465933491715,0 -119.1631221037715,38.99426752111317,0 -119.1631554397162,38.99386345726826,0 -119.1819219019399,38.99396717736949,0 -119.1816533412965,38.9966746676235,0 -119.1815888967343,38.99782300264926,0 -119.1816489026048,38.99891925625433,0 -119.1819955887717,39.00210187748011,0 -119.1828647506718,39.00960473093349,0 -119.1829263093298,39.01039339740013,0 -119.1828647025963,39.01125350123146,0 -119.1827063173829,39.01210295903211,0 -119.182397020667,39.01357567725536,0 -119.1822634183539,39.01448949268377,0 -119.1822116249952,39.01547351554297,0 -119.1816323943659,39.02513866093187,0 -119.181584882861,39.02673956783874,0 -119.1815650447177,39.02840337787481,0 -119.1811594772713,39.07640903643326,0 -119.1809864217557,39.08718411412976,0 -119.1809165808006,39.12343074620521,0 -119.1810644554634,39.1390465631871,0 -119.1812053314464,39.13992199056502,0 -119.1824723985166,39.14718184208522,0 -119.1827375126785,39.14817019586121,0 -119.1831552134853,39.14928758747379,0 -119.183688437075,39.15033038569925,0 -119.1843239897491,39.15137627683815,0 -119.1851301399565,39.15243240083921,0 -119.1920221783729,39.16087144715544,0 -119.1932076905932,39.16224763244459,0 -119.1943976788391,39.16349270137816,0 -119.195541205125,39.16454534597894,0 -119.2022776672461,39.17029214977521,0 -119.2033518478738,39.17130723963436,0 -119.2041354533388,39.17219269174253,0 -119.2049476430294,39.17327034841687,0 -119.2055221719341,39.17426916361252,0 -119.2088949308575,39.18079349820597,0 -119.2096776041087,39.18244071675101,0 -119.2103255588127,39.18409657807446,0 -119.2107161974934,39.18537446189757,0 -119.2110716281537,39.18689087854673,0 -119.2113634655522,39.18855420880887,0 -119.2133693819044,39.20060432883551,0 -119.2137241737288,39.20234916642771,0 -119.2141639748682,39.20389869450312,0 -119.2149114642587,39.20585548963334,0 -119.2157297612433,39.20758650669097,0 -119.2164651404447,39.20888573732275,0 -119.2174460024169,39.21048387844885,0 -119.2376411064363,39.24305087389094,0 -119.2383020021897,39.24431309080352,0 -119.2387433475336,39.24543678561228,0 -119.2390290797925,39.24646218456901,0 -119.2392122886727,39.24757834976517,0 -119.2392953012281,39.24867694826457,0 -119.2393000205685,39.24992060866695,0 -119.2392722249187,39.26279632031815,0 -119.2392016473565,39.26363752285536,0 -119.2390015763529,39.26452044988869,0 -119.2386317398318,39.26547369131758,0 -119.238035575146,39.26650837790093,0 -119.2374128191004,39.26732639231172,0 -119.2366560301186,39.26816337101563,0 -119.2352573257947,39.26963562240285,0 -119.2345221037903,39.27051691460503,0 -119.2339525709245,39.27150770207479,0 -119.2335245591473,39.27256023910557,0 -119.2332966845685,39.27361778492354,0 -119.2332497282539,39.27471264013978,0 -119.233357576761,39.27569678017846,0 -119.2336014930918,39.27660892199847,0 -119.2340318813663,39.27760779559279,0 -119.2345672749706,39.27844539232059,0 -119.2352201763269,39.27925200213466,0 -119.2358687936986,39.27990141960758,0 -119.2366116475573,39.28049455668131,0 -119.2374639889591,39.28104840825385,0 -119.2449666709416,39.28573458431629,0 -119.2462725823434,39.28661290840221,0 -119.2474009567247,39.28750862789961,0 -119.2483219652388,39.28838466273584,0 -119.2491310096836,39.28928634467206,0 -119.2497269985944,39.29007006248322,0 -119.2503288224156,39.29100173506425,0 -119.2508844326482,39.29204788535471,0 -119.25134037046,39.29315534754397,0 -119.2534310265137,39.29857328812739,0 -119.2539028911538,39.30006880499312,0 -119.2541547614795,39.30133864122065,0 -119.2546001056373,39.30451300529041,0 -119.2546653672478,39.30581323493902,0 -119.2545690802503,39.30701044648651,0 -119.2543314029265,39.30825056224585,0 -119.2540247981187,39.30928440109621,0 -119.2536004236119,39.31031801840982,0 -119.2530288982087,39.31144368906134,0 -119.2494736623034,39.31817558484738,0 -119.2488323106807,39.31930257414639,0 -119.2480666459461,39.32049524294377,0 -119.2439722670727,39.32658379804408,0 -119.2433713558396,39.32755496542522,0 -119.2428530401013,39.32849511605524,0 -119.2423222627518,39.32965830719722,0 -119.2419292724365,39.33074210162243,0 -119.241548915984,39.33210753216678,0 -119.2412468912122,39.33356791826783,0 -119.2410842546051,39.33508449171386,0 -119.2409506212863,39.33670209424283,0 -119.2405957861621,39.34145020597537,0 -119.2404403640164,39.34273056700092,0 -119.2401975293872,39.34407271308857,0 -119.239905841873,39.34552211205108,0 -119.2250212217464,39.4158637791967,0 -119.2248725245034,39.41677407147336,0 -119.2228095727882,39.43117857621282,0 -119.2227645649085,39.43192829444521,0 -119.2227823508946,39.43259639808118,0 -119.222891795809,39.4333368798891,0 -119.2230958833954,39.43415981635354,0 -119.2234120532569,39.43490359498235,0 -119.224408407901,39.43704386306242,0 -119.2246926527441,39.43783951123676,0 -119.2249290570808,39.43869963487527,0 -119.2250712186775,39.43961575833486,0 -119.2251078248946,39.44039821791421,0 -119.2250681714937,39.44131669150736,0 -119.2229976054139,39.46015880645022,0 -119.2228135878316,39.46091262469904,0 -119.2225268707894,39.4615643332084,0 -119.2221280831607,39.46219898123283,0 -119.2217089606529,39.46272287488775,0 -119.2212384185501,39.46318758320957,0 -119.2206513595279,39.46364731948259,0 -119.2200023475273,39.46404434547738,0 -119.2192175139908,39.46440164331649,0 -119.2183824644055,39.464680451349,0 -119.217344870928,39.46500520075378,0 -119.2110661501268,39.46707035884988,0 -119.2098738167905,39.46755568344058,0 -119.2090289420283,39.46801446573815,0 -119.2082518249517,39.46855053079474,0 -119.2076598202929,39.46906012457175,0 -119.2070520908498,39.46971600925737,0 -119.2065267021963,39.47046313375477,0 -119.2061165163228,39.47130498027107,0 -119.2058726806543,39.47206551353423,0 -119.2057165411944,39.47299986830401,0 -119.2057157068256,39.47378145054105,0 -119.2058486306102,39.47457364040985,0 -119.2060672008976,39.4752755771432,0 -119.2064272118604,39.47607049514926,0 -119.2068748145487,39.47674470018985,0 -119.2173053105699,39.49176160687912,0 -119.2180415292613,39.49288149867923,0 -119.218735238903,39.4940811085626,0 -119.2193765083148,39.49535331112732,0 -119.21986738646,39.49652727133221,0 -119.2270721915183,39.51451581032513,0 -119.2273874543093,39.51544217818309,0 -119.2275849529137,39.51624035634814,0 -119.2277218461397,39.51715009291399,0 -119.2286809500851,39.52785647583447,0 -119.2288640024386,39.529228857143,0 -119.2291651994198,39.53074139954411,0 -119.23282509289,39.5457564988211,0 -119.2332412780338,39.54729455737898,0 -119.233773742928,39.54879641047834,0 -119.247797173458,39.58531467846147,0 -119.2502570453667,39.59154647687347,0 -119.2506316401043,39.59260935760192,0 -119.250845410256,39.59345664419,0 -119.250996999902,39.59434335755111,0 -119.2510856074273,39.59545061305821,0 -119.2510854427686,39.59639965036059,0 -119.2510265065787,39.60767816822661,0 -119.2451879237263,39.60763553902522,0 -119.2442563118993,39.60759534016115,0 -119.2435122564149,39.60750324171053,0 -119.2427544290513,39.60733758342881,0 -119.2284562730112,39.60369054985796,0 -119.2278586361756,39.60357635846589,0 -119.2274346069429,39.60354740431502,0 -119.2270251295203,39.60353820174214,0 -119.2269640379373,39.60402017692161,0 -119.2268083902382,39.60434378950212,0 -119.2265786886976,39.60456406625874,0 -119.2216495875658,39.60812021190821,0 -119.2206351053444,39.608880843724,0 -119.2199215604442,39.60951644150189,0 -119.2194480941063,39.61006761504258,0 -119.2190391665162,39.61074581758699,0 -119.2186839974461,39.61162162094602,0 -119.2180516009967,39.61323857124786,0 -119.216229509015,39.61364562841059,0 -119.213696768899,39.61450106179975,0 -119.2115749032756,39.6155105290512,0 -119.2099074822871,39.61657666699562,0 -119.1816362121946,39.63755094678485,0 -119.1788404416107,39.63971405936736,0 -119.1765328350795,39.64162809622351,0 -119.158933365562,39.6564221707315,0 -119.1575234104592,39.65751874909723,0 -119.1148939632638,39.6865478020398,0 -119.1122001371824,39.68858458531274,0 -119.1099936575414,39.69052158899881,0 -119.107627652003,39.69302111464279,0 -119.0993903415374,39.70266643184908,0 -119.0964860626808,39.70553233479082,0 -119.0904781277175,39.71105784209271,0 -119.08642974712,39.71483891066681,0 -119.0814701267589,39.71948488072458,0 -119.0765496601088,39.72397677921715,0 -119.0641554959941,39.73528679033726,0 -119.0617639476033,39.73793948303778,0 -119.0553340825143,39.74548175996981,0 -119.0520955040652,39.74923907841242,0 -119.0459497755626,39.75655469107291,0 -119.0440598532498,39.75883439143965,0 -119.0371685444451,39.76822309320645,0 -119.0333587140438,39.77344293461379,0 -119.0279549743001,39.78081244904055,0 -119.0237325454669,39.78665930084667,0 -119.0206038363953,39.79086975135849,0 -119.019707749317,39.79200476721167,0 -119.0177394293507,39.79436588345262,0 -119.0163271408531,39.79584857275999,0 -119.0074141096272,39.80549818696473,0 -119.0051788248271,39.80790925004937,0 -119.0003697452388,39.81308175724155,0 -118.998740615131,39.81476274772144,0 -118.9971532486701,39.81624904141433,0 -118.9950093978387,39.81818443136086,0 -118.9922574137712,39.8199489412722,0 -118.9898841182588,39.82122731232706,0 -118.8882688150624,39.87025458251057,0 -118.8854258663593,39.87182282274564,0 -118.8827682484814,39.87355520160191,0 -118.8527943869673,39.89394486821005,0 -118.8227842589812,39.91205594957997,0 -118.8187541049097,39.91441619588554,0 -118.8163132623989,39.9156365885114,0 -118.8139218157277,39.91663535416816,0 -118.7487067097842,39.94240704120685,0 
			</coordinates>
		</LineString>
		<atom:link rel="app" href="https://www.google.com/earth/about/versions/#earth-pro" title="Google Earth Pro 7.3.6.10201"></atom:link>
	</Placemark>
</Document>
</kml>
