<?xml version="1.0" encoding="UTF-8"?>
<kml xmlns="http://www.opengis.net/kml/2.2" xmlns:gx="http://www.google.com/kml/ext/2.2" xmlns:kml="http://www.opengis.net/kml/2.2" xmlns:atom="http://www.w3.org/2005/Atom">
<Document>
	<name>US.91.kml</name>
	<Placemark>
		<name>US.91</name>
			<LineString>
				<coordinates>
					-112.053547012033,41.48563069277871,0 -112.0513525682834,41.48576879324465,0 -112.0508590529717,41.4858910280122,0 -112.0503989965564,41.48591509204292,0 -112.0497089046587,41.48584076227788,0 -112.0488960631083,41.48584084966662,0 -112.0448822384049,41.48612854512015,0 -112.0382331291851,41.48643518648998,0 -112.0269077,41.486529,0 -112.0255003,41.4865257,0 -112.0241509,41.4865267,0 -112.0236646,41.4865214,0 -112.0221598,41.486524,0 -112.0203111,41.4865272,0 -112.0171834,41.4865253,0 -112.016548,41.4865293,0 -112.0164326,41.4865278,0 -112.0163169,41.4865262,0 -112.01619,41.4865245,0 -112.0153818,41.4865208,0 -112.0142269,41.4865208,0 -112.0133595,41.4865208,0 -112.0129108,41.4865208,0 -112.0120058,41.4865165,0 -112.0115717,41.4865175,0 -112.0099706,41.4865235,0 -112.0094015,41.4865728,0 -112.0090193,41.4865758,0 -112.0084843,41.4865974,0 -112.0080083,41.4866471,0 -112.0073083,41.4867697,0 -112.0066553,41.4869405000001,0 -112.0061159,41.4871287,0 -112.0054876,41.487395,0 -112.0048617,41.4877336,0 -112.0039145,41.4883338,0 -112.0032258,41.4887677,0 -111.9992438,41.4912749,0 -111.9987438,41.4915897,0 -111.9983819,41.4918375,0 -111.9982156,41.4919514,0 -111.9979077,41.4921978,0 -111.9976092,41.4924526,0 -111.9970874,41.4929999,0 -111.9967768,41.4933820999999,0 -111.9965862,41.4936621,0 -111.9964231,41.4939478,0 -111.9962513,41.4942606,0 -111.996036,41.4947895,0 -111.995837,41.4954051,0 -111.9954912,41.4964441,0 -111.9953432,41.4968886,0 -111.9952997,41.4969995,0 -111.9952581,41.4971031,0 -111.9952065,41.4972115999999,0 -111.9951523,41.4973151000001,0 -111.9950944,41.4974234,0 -111.9950374,41.4975177,0 -111.9949747,41.4976223,0 -111.9949102,41.4977196,0 -111.9948349,41.4978186,0 -111.9947616,41.4979138,0 -111.9946857,41.4980085999999,0 -111.9946007,41.498101,0 -111.9945227,41.4981866,0 -111.9944279,41.4982825,0 -111.9943357,41.4983656,0 -111.9942474,41.4984464,0 -111.9941476,41.4985315,0 -111.9939419,41.4986939,0 -111.9938363,41.4987696,0 -111.9937288,41.498843,0 -111.99362,41.4989133,0 -111.9935027,41.4989877,0 -111.9933844,41.499056,0 -111.9932719,41.4991199,0 -111.9931428,41.4991861,0 -111.9930251,41.4992456,0 -111.9929015,41.4993067,0 -111.9927738,41.499364,0 -111.9926383,41.4994192,0 -111.9925126,41.4994676,0 -111.9923804,41.4995184,0 -111.9922463,41.4995631999999,0 -111.9921098,41.4996029,0 -111.9919686,41.4996427,0 -111.9918322,41.4996777,0 -111.9916879,41.4997097,0 -111.9915452,41.4997378,0 -111.9914012,41.4997611,0 -111.9912562,41.4997814,0 -111.9911058,41.4997999,0 -111.9909634,41.4998140000001,0 -111.9908161,41.4998245,0 -111.990673,41.4998322,0 -111.9905181,41.4998363,0 -111.9902236,41.4998359,0 -111.9882818,41.4998349,0 -111.9871587,41.4998302,0 -111.9864071,41.4998291,0 -111.9858941,41.4998316,0 -111.9849456,41.499807,0 -111.9844506,41.4997708,0 -111.9838671,41.4997108,0 -111.9834401,41.4996457,0 -111.9829067,41.4995524,0 -111.9825219,41.4994683,0 -111.9821651,41.4993789,0 -111.9818825,41.4993001,0 -111.9814574,41.4991738,0 -111.9804026,41.4988140999999,0 -111.9794761,41.4984938,0 -111.9789148,41.498333,0 -111.9786677,41.4982665,0 -111.9782866,41.4981763,0 -111.9779608,41.4981107,0 -111.9775024,41.4980333,0 -111.9769603,41.4979639,0 -111.9764737,41.4979194,0 -111.9760181,41.4978904,0 -111.9755725,41.497878,0 -111.9750323,41.4978841,0 -111.9745702,41.4979041,0 -111.9741651,41.4979305,0 -111.9735293,41.4979793,0 -111.9730656,41.4980094,0 -111.972643,41.4980257,0 -111.9722165,41.4980224000001,0 -111.9718527,41.4980053,0 -111.9713713,41.4979641999999,0 -111.9706325,41.4978816,0 -111.9692098,41.4977091,0 -111.969079,41.497696,0 -111.9689806,41.4976861,0 -111.9680351,41.4975783,0 -111.9675138,41.4974919,0 -111.9670587,41.4973951,0 -111.9666803,41.4972889,0 -111.9659827,41.4970628,0 -111.9653842,41.4968376,0 -111.9648803,41.4966507,0 -111.9643438,41.4964629,0 -111.9637541,41.4962941,0 -111.9632936,41.4961892,0 -111.9629483,41.496117,0 -111.9625406,41.4960607,0 -111.9621295,41.4960227,0 -111.9617044,41.4960042,0 -111.9613535,41.4960031,0 -111.9610006,41.4960171,0 -111.9606104,41.496045,0 -111.9602417,41.4960885,0 -111.9598821,41.4961464,0 -111.9595148,41.4962221,0 -111.9592541,41.4962844,0 -111.9588916,41.4963875,0 -111.9585604,41.4964912,0 -111.958336,41.496567,0 -111.9580325,41.4966746,0 -111.9573753,41.4969201,0 -111.9564396,41.4972627,0 -111.9559051,41.4974535,0 -111.9554364,41.4976128,0 -111.9546226,41.4978686,0 -111.9540711,41.4980223,0 -111.9535858,41.4981523,0 -111.9530158,41.4982976,0 -111.9526323,41.4983919,0 -111.9518618,41.4985882,0 -111.9514452,41.498689,0 -111.950756,41.4988652,0 -111.9502908,41.4989958,0 -111.9497977,41.4991496,0 -111.9494035,41.4993029,0 -111.9490133,41.4994742999999,0 -111.9485536,41.4997111,0 -111.9481968,41.4999292,0 -111.9478661,41.5001561,0 -111.9475724,41.500386,0 -111.947113,41.5008098,0 -111.9467383,41.5012426,0 -111.9464517,41.5016488,0 -111.9462892,41.5019269,0 -111.9462094,41.5020987,0 -111.9460803,41.5023951,0 -111.9459883,41.5026293,0 -111.9459185,41.502896,0 -111.9458454,41.5032232,0 -111.945812,41.5034565,0 -111.945733,41.5045057,0 -111.945692,41.5053125,0 -111.9455932,41.505798,0 -111.9455594,41.5064849,0 -111.9454945,41.5073069,0 -111.9454516,41.5077119,0 -111.9453527,41.5082092,0 -111.9451951,41.508846,0 -111.9450015,41.509403,0 -111.9447449,41.5100113,0 -111.9444276,41.51062,0 -111.9434867,41.5119688,0 
				
					-111.9434867,41.5119688,0 -111.9433239,41.5123451,0 -111.9426722,41.5132725,0 -111.9418269,41.5144638,0 -111.941161,41.5154102,0 -111.9410586,41.5155913,0 -111.9408859,41.5158969,0 -111.9406905,41.5163447,0 -111.9405709,41.5167657,0 -111.9405111,41.5172792,0 -111.940543,41.5177658,0 -111.9406586,41.5182346,0 -111.9408779,41.5187421,0 -111.9411969,41.5191959,0 -111.9416395,41.5196616,0 -111.9423293,41.520205,0 -111.9449569,41.5220021,0 -111.9454354,41.5223783,0 -111.9456606,41.5225797,0 -111.9460973,41.5230022,0 -111.9469107,41.5239605,0 -111.9476284,41.5247635,0 -111.9483262,41.525465,0 -111.9487695,41.5258821,0 -111.9495344,41.5265725,0 -111.9505551,41.5273904000001,0 -111.951536,41.5281038,0 -111.9563248,41.5313634,0 -111.9570146,41.5318917,0 -111.957517,41.5323484,0 -111.9578559,41.5327693,0 -111.9581869,41.5333573,0 -111.9583743,41.5339542,0 -111.9584341,41.5345363,0 -111.9583224,41.5364644,0 -111.9582148,41.5376851,0 -111.958204,41.537757,0 -111.9580673,41.5387416,0 -111.9578759,41.5395593999999,0 -111.9575648,41.5405234,0 -111.9558902,41.5450178,0 -111.9555712,41.545737,0 -111.9552362,41.5463786,0 -111.9543949,41.547808,0 -111.9541597,41.5482795,0 -111.9539922,41.5487063,0 -111.9537368,41.5497215,0 -111.9537422,41.5502032,0 -111.9537798,41.5505926,0 -111.95393,41.5512229,0 -111.9540909,41.5515922,0 -111.954284,41.5519857,0 -111.9545415,41.5523831,0 -111.9548312,41.5527524,0 -111.9551799,41.5531739,0 -111.9554481,41.5534991,0 -111.9557324,41.5538243,0 -111.9576033,41.5560028,0 -111.9579707,41.5565099,0 -111.9611787,41.56031,0 -111.9623359,41.5616729,0 -111.9625832,41.5620148,0 -111.9642248,41.5644987,0 -111.9661305,41.5674059,0 -111.9684135,41.5708828,0 -111.9715313,41.5756439,0 -111.9722125,41.5768089,0 -111.9729002,41.578106,0 -111.9733091,41.5789699,0 -111.9739434,41.5805335,0 -111.9742587,41.581452,0 -111.9744998,41.5819792,0 -111.9752962,41.584545,0 -111.9759573,41.586685,0 -111.9760485,41.5872398,0 -111.979435,41.5983355,0 -111.9795725,41.5988189,0 -111.9796462,41.5991598,0 -111.9796693,41.5995206,0 -111.9796728,41.5998814,0 -111.9796374,41.6003794,0 -111.979534,41.6008323,0 -111.9793808,41.6012765,0 -111.9791815,41.601686,0 -111.9789182,41.6021139,0 -111.9786373,41.6024865,0 -111.9783441,41.6028238999999,0 -111.977658,41.6034111,0 -111.9773724,41.6036233,0 -111.9769309,41.6038849,0 -111.9763094,41.6042025,0 -111.9756219,41.6044767,0 -111.9750455,41.6046531,0 -111.9745272,41.6047686,0 -111.973832,41.6048709,0 -111.9732419,41.604919,0 -111.9724111,41.6049319,0 -111.9713887,41.6048923,0 -111.9691559,41.604796,0 -111.9682363,41.6047187,0 -111.9671211,41.6045861,0 -111.9654041,41.6043243,0 -111.9644168,41.6042012,0 -111.9635775,41.6041258,0 -111.9630028,41.6040874,0 -111.962371,41.6040551,0 -111.9610336,41.6039967,0 -111.9604945,41.6039441,0 -111.96004,41.6038681,0 -111.9595466,41.6037642,0 -111.9591009,41.6036492,0 -111.9586808,41.6035232,0 -111.9583187,41.6033732,0 -111.9576601,41.6030695,0 -111.955822,41.6020922,0 -111.9553298,41.6018432,0 -111.9548482,41.60162,0 -111.9543029,41.6014285,0 -111.9536733,41.6012477,0 -111.9530418,41.6011148,0 -111.9523647,41.6010123,0 -111.9517648,41.6009619,0 -111.9511351,41.6009398,0 -111.950378,41.600974,0 -111.9497511,41.6010481,0 -111.9490913,41.6011765,0 -111.9483972,41.6013604,0 -111.9478253,41.6015616,0 -111.947251,41.6017944,0 -111.9467348,41.6020556,0 -111.9461575,41.6024075,0 -111.9454225,41.602953,0 -111.9444676,41.6037752,0 -111.9434407,41.6046576,0 -111.9419595,41.6060679000001,0 -111.9416811,41.6064444999999,0 -111.9411334,41.6069908,0 -111.9403489,41.6078661,0 -111.9398402,41.6084936,0 -111.9393709,41.6090724000001,0 -111.9387534,41.609801,0 -111.9382264,41.6104323,0 -111.9374574,41.6113291,0 -111.9367735,41.6120982,0 -111.9347609,41.6145097,0 -111.9338902,41.6155345,0 -111.9334518,41.6160627,0 -111.9329359,41.6166657,0 -111.9321364,41.6176081999999,0 -111.9318488,41.6179461,0 -111.9303027,41.6197575,0 -111.9291977,41.6211896,0 -111.928245,41.622568,0 -111.925455,41.627033,0 -111.9209696,41.6342944,0 -111.9183202,41.6385139,0 -111.916956,41.6406965,0 -111.9164133,41.6415456,0 -111.916165,41.6419550999999,0 -111.9157621,41.6425652,0 -111.9141345,41.6447567,0 -111.914047,41.6448599,0 -111.9139501,41.6449827,0 -111.9130262,41.6460106,0 -111.911948,41.647067,0 -111.9097486,41.6492355000001,0 -111.9081037,41.6508055999999,0 -111.9038015,41.6549513,0 -111.900679,41.6579979,0 -111.8969491,41.6616525,0 -111.8944922,41.6639929,0 -111.89153,41.6668985,0 -111.8894296,41.6690103,0 -111.887661,41.670801,0 -111.8803185,41.678193,0 -111.8793455,41.6791539,0 -111.877458,41.681028,0 -111.876623,41.6818531,0 -111.874625,41.6838764,0 -111.873007,41.6855135,0 -111.8716994,41.6868149,0 -111.8711721,41.6873388,0 -111.8698112,41.6887296,0 -111.8695194,41.6890277,0 -111.8681508,41.6904261,0 -111.8673602,41.6912341,0 -111.8657019,41.6928286,0 -111.8654332,41.6930878,0 -111.8644963,41.693891,0 -111.863492,41.6947278,0 -111.8630392,41.6950729,0 -111.862053,41.6958023000001,0 -111.8611546,41.6964603,0 -111.8609651,41.6965969,0 -111.8597072,41.6975094,0 -111.8595776,41.6976047,0 -111.858726,41.6982319,0 -111.8575017,41.6991217,0 -111.8569383,41.6995347,0 -111.856116,41.7001348,0 -111.8549198,41.7010128,0 -111.8517551,41.7033166,0 -111.8516046,41.7034254,0 -111.8514606,41.7035318,0 -111.8495251,41.7049533,0 -111.849128,41.7052394,0 -111.8461075,41.7074219,0 -111.8434791,41.7093822000001,0 -111.84276,41.7099185,0 -111.8416676,41.7106893,0 -111.8400615,41.7119064,0 -111.8396624,41.712218,0 -111.8396142,41.7122536,0 -111.839536,41.7123131,0 -111.8394482,41.7123771,0 -111.839334,41.7124609,0 -111.8385875,41.7130075,0 -111.8381435,41.713356,0 -111.8376895,41.7137523,0 -111.837347,41.7140935999999,0 -111.8371439,41.7143048,0 -111.8370189,41.7144552,0 -111.8368063,41.7147116,0 -111.8367758,41.7148742,0 -111.836479,41.7153571,0 -111.8361762,41.715839,0 -111.836063,41.7160352,0 -111.8358833,41.7163681,0 -111.8357502,41.7167134,0 -111.8356558,41.7170612000001,0 -111.8356318,41.717174,0 -111.8355394,41.7176065,0 -111.8354343,41.7179477,0 -111.8354298,41.7180179,0 -111.8354201,41.7181718,0 -111.835404,41.7190137,0 -111.8353311,41.7192854000001,0 -111.8353029,41.7202381,0 -111.8352811,41.721157,0 -111.83527,41.7217058,0 -111.835256,41.7221769,0 -111.8352359,41.7228177,0 -111.8352271,41.7231144,0 -111.8352185,41.7233980999999,0 -111.8352001,41.7240166,0 -111.8351874,41.7244422,0 -111.8351841,41.7245557,0 -111.8351776,41.7247754,0 -111.8351726,41.7249401,0 -111.835171,41.7250078,0 -111.8351689,41.7250678,0 -111.8351535,41.725594,0 -111.8351489,41.7257481,0 -111.835145,41.7258607,0 -111.835144,41.725927,0 -111.835142,41.7260188,0 -111.8351291,41.7265456,0 -111.8351287,41.7265915,0 -111.8351121,41.7272686,0 -111.8351015,41.7277448,0 -111.8350861,41.7283809,0 -111.835079,41.7286857,0 -111.8350715,41.7289991,0 -111.8350677,41.7291500999999,0 -111.8350646,41.729295,0 -111.8350608,41.7294363,0 -111.8350585,41.7295589,0 -111.8350499,41.7299264,0 -111.8350474,41.7299765,0 -111.835046,41.7300856000001,0 -111.8350434,41.7301828,0 -111.8350349,41.7304717,0 -111.8350157,41.7311402,0 -111.8350124,41.7312537,0 -111.835008,41.7313757,0 -111.835004,41.7314911,0 -111.8349709,41.7331879,0 -111.83497,41.7332763,0 -111.834966,41.7334175,0 -111.8349412,41.7341744,0 -111.834897,41.7351120000001,0 -111.834892,41.7352242,0 -111.834888,41.7353503,0 -111.8348833,41.735509,0 -111.834881,41.7355848,0 -111.8348752,41.7357785,0 -111.8348749,41.7358192,0 -111.834867,41.7360438,0 -111.8348565,41.7364938,0 -111.8348511,41.7366182,0 -111.8348423,41.7368282,0 -111.8348399,41.7368855,0 -111.834829,41.7371386,0 -111.8348272,41.7375866,0 -111.834817,41.7380143,0 -111.834812,41.7382225000001,0 -111.834795,41.7389358,0 -111.834792,41.739088,0 -111.834785,41.7392243,0 -111.8347793,41.739391,0 -111.8347763,41.739475,0 -111.8347706,41.7396146,0 -111.8347519,41.7400736,0 -111.8347454,41.7402334,0 -111.834733,41.7405267,0 -111.8347191,41.7408432,0 -111.834709,41.7409486,0 -111.8347039,41.7410503,0 -111.834689,41.7417119,0 -111.834666,41.7423421,0 -111.8346615,41.7426165999999,0 -111.834654,41.7429271,0 -111.834647,41.7431827,0 -111.834636,41.7434571,0 -111.8346298,41.7436892,0 -111.8346261,41.7438,0 -111.83462,41.7439627,0 -111.8346137,41.7441811,0 -111.8346121,41.7442284,0 -111.834608,41.7443537,0 -111.8345995,41.7446131,0 -111.834596,41.7447212,0 -111.834596,41.744819,0 -111.8345954,41.7448542,0 -111.8345872,41.7453701000001,0 -111.8345849,41.7455177,0 -111.8345811,41.7456178,0 -111.8345738,41.7458620999999,0 -111.8345593,41.7463651,0 -111.8345502,41.7465989,0 -111.8345505,41.7466549,0 -111.8345472,41.7468614,0 -111.8345459,41.7469042,0 -111.8345429,41.7470176,0 -111.8345423,41.7470385000001,0 -111.834538,41.7471984,0 -111.8345332,41.7474074,0 -111.8345308,41.7475188,0 -111.834527,41.7478115,0 -111.834522,41.7481515,0 -111.8345218,41.748239,0 -111.8345198,41.7483006,0 -111.8345184,41.7483739,0 -111.8345162,41.7484857,0 -111.8345141,41.7485943,0 -111.8345117,41.7487212,0 -111.8345024,41.749215,0 -111.8344999,41.7493706,0 -111.834498,41.7494878,0 -111.8345038,41.7500352,0 -111.834505,41.750153,0 -111.8345026,41.7502486,0 -111.8344964,41.7505151,0 -111.8344853,41.7509527,0 -111.8344707,41.7515347,0 -111.834461,41.7519289,0 -111.8344526,41.7521431,0 -111.8344486,41.7523048,0 -111.8344397,41.7526066,0 -111.8344362,41.7529225,0 -111.8344347,41.753099,0 -111.8344324,41.7533712,0 -111.8344326,41.753423,0 -111.8344311,41.7535297,0 -111.8344294,41.753745,0 -111.8344243,41.7542514,0 -111.834424,41.7544025,0 -111.83442,41.7544755,0 -111.8344325,41.7547485,0 -111.8344266,41.7550422,0 -111.8344119,41.7557854,0 -111.8344144,41.7558734,0 -111.834413,41.7560346,0 -111.8344054,41.7563623,0 -111.8344014,41.7565847,0 -111.8343742,41.7571757,0 -111.8343646,41.7574089,0 -111.83436,41.7575828,0 -111.83436,41.7577387000001,0 -111.8343468,41.7582196,0 -111.8343349,41.7586847,0 -111.8343354,41.7588297,0 -111.8343375,41.7594113,0 -111.8343294,41.7596766,0 -111.8343291,41.7599947,0 -111.8343227,41.760217,0 -111.8343126,41.760517,0 -111.8343011,41.7608597,0 -111.8342924,41.7611892000001,0 -111.8342893,41.7613069,0 -111.8342886,41.7614215,0 -111.8342919,41.7618552,0 -111.834287,41.7622938,0 -111.834287,41.7627476,0 -111.834279,41.7631294,0 -111.8342514,41.7641091,0 -111.8342563,41.7643796,0 -111.8342469,41.7648502,0 -111.8342433,41.7649529,0 -111.8342386,41.7650827,0 -111.8342202,41.7654745,0 -111.834201,41.7658837,0 -111.8341958,41.7661021,0 -111.834194,41.7661779,0 -111.8341844,41.7665808,0 -111.8341786,41.7668272,0 -111.8341711,41.7671415,0 -111.8341552,41.7678135000001,0 -111.8341503,41.7679806,0 -111.834125,41.7688762,0 -111.834117,41.7694829000001,0 -111.8341085,41.7701366,0 -111.8341027,41.7705753,0 -111.8340971,41.7710042,0 -111.8340902,41.7710639,0 -111.8340866,41.7718246,0 -111.8340804,41.7723056,0 -111.834079,41.7724071,0 -111.8340755,41.772511,0 -111.8340593,41.7734114,0 -111.8340363,41.7741925,0 -111.8340303,41.7743797,0 -111.8340199,41.7748559,0 -111.8339975,41.7760323,0 -111.8339717,41.7765529,0 -111.833963,41.7775992,0 -111.8339579,41.7777432999999,0 -111.8339568,41.77796,0 -111.8339351,41.7789086,0 -111.833922,41.7794924,0 -111.8339134,41.7800217,0 -111.8338969,41.780762,0 -111.8338161,41.7834581,0 -111.8338118,41.7837784,0 -111.8337987,41.7841836,0 -111.8337532,41.7871981,0 -111.8337471,41.7876011,0 -111.8337419,41.7877303,0 -111.8337372,41.7881173,0 -111.8337324,41.7884114,0 -111.8337214,41.7888524,0 -111.8337054,41.7896539,0 -111.8336977,41.7900383,0 -111.8336749,41.7912516,0 -111.8336295,41.7930668,0 -111.8335744,41.7956081,0 -111.8335566,41.796428,0 -111.8335436,41.7969915,0 -111.8334916,41.7991587,0 -111.8334862,41.7992886000001,0 -111.8334761,41.799416,0 -111.8334729,41.8003165,0 -111.8334545,41.8010719,0 -111.8334402,41.801735,0 -111.8334125,41.803229,0 -111.8333612,41.8052705,0 -111.8333581,41.8055763,0 -111.8333385,41.8068289,0 -111.8333183,41.8076709,0 -111.8333045,41.8087054,0 -111.8332201,41.8122917,0 -111.8332215,41.8127439,0 -111.8331822,41.8141823,0 -111.8331546,41.8152402,0 -111.833132,41.8161096,0 -111.833064,41.8162685,0 -111.8330514,41.8170605,0 -111.8330373,41.817828,0 -111.8330124,41.8189011,0 -111.8329986,41.8193817,0 -111.8329861,41.8201289,0 -111.8330441,41.8202993,0 -111.8330391,41.821593,0 -111.8330335,41.8221371,0 -111.8330303,41.8223876,0 -111.8329901,41.8238711,0 -111.8329848,41.8239772000001,0 -111.8329844,41.8240783,0 -111.8329758,41.8244317,0 -111.8329645,41.8248984,0 -111.8329487,41.825551,0 -111.8329427,41.825802,0 -111.8328884,41.8280428,0 -111.8328863,41.8281676,0 -111.8328839,41.8282806,0 -111.8328638,41.8293284,0 -111.8328494,41.8301317,0 -111.832847,41.8302628,0 -111.8328432,41.8303784,0 -111.8328066,41.8314763,0 -111.8327787,41.832353,0 -111.832768,41.8328199,0 -111.832761,41.8331434,0 -111.8327485,41.8337247,0 -111.8327445,41.833915,0 -111.832743,41.8339823,0 -111.8327381,41.8342124,0 -111.8327356,41.8343258000001,0 -111.832733,41.8344487,0 -111.8327304,41.834549,0 -111.8326939,41.8359816,0 -111.8326904,41.8361202,0 -111.8326857,41.836301,0 -111.8326827,41.8364026,0 -111.8326805,41.8365259,0 -111.8326779,41.8366428,0 -111.8326631,41.8374701,0 -111.8326597,41.83766,0 -111.832658,41.8377556000001,0 -111.832645,41.8384826,0 -111.832643,41.838593,0 -111.8326397,41.8387208,0 -111.8326186,41.8395076,0 -111.8326004,41.8402281,0 -111.8325984,41.8403045,0 -111.8325918,41.8405573,0 -111.8325885,41.8406833,0 -111.8325849,41.8408203,0 -111.8325649,41.8415875,0 -111.8325468,41.8422813000001,0 -111.8325355,41.8427146,0 -111.8325334,41.8427966,0 -111.8325298,41.8429348,0 -111.8324815,41.8447875,0 -111.8324783,41.84492,0 -111.8324734,41.8450371,0 -111.832452,41.8455719,0 -111.8323996,41.8469241,0 -111.832115,41.8497975,0 -111.8319947,41.8510731,0 -111.8319241,41.851822,0 -111.8318067,41.8530198,0 -111.831733,41.85371,0 -111.8316219,41.8547684,0 -111.8314677,41.8555987,0 -111.83128,41.856615,0 -111.8306925,41.8595010999999,0 -111.8302765,41.861547,0 -111.8298956,41.8630444,0 -111.8297336,41.8637056,0 -111.829381,41.864985,0 -111.829062,41.8661078,0 -111.8286052,41.8675481,0 -111.8283282,41.8684224,0 -111.8279308,41.8695416000001,0 -111.8276881,41.8700818,0 -111.8274311,41.8706537,0 -111.8273895,41.8707474,0 -111.8267661,41.8718846,0 -111.8260563,41.8729923,0 -111.8253367,41.8741127,0 -111.8250194,41.8746076,0 -111.8249304,41.8747446,0 -111.8245173,41.8753805,0 -111.8236374,41.8767634,0 -111.8233856,41.8771508,0 -111.8221904,41.8790206,0 -111.8219724,41.8793624,0 -111.8216234,41.879911,0 -111.8211049,41.8807268,0 -111.8203073,41.8819824,0 -111.8197299,41.8828536000001,0 -111.8184844,41.8847346,0 -111.8170492,41.8868853,0 -111.8164632,41.887764,0 -111.8162658,41.8880808999999,0 -111.816188,41.888206,0 -111.8155984,41.8893421,0 -111.8154648,41.8897099,0 -111.8151967,41.8905791,0 -111.8150145,41.8914403,0 -111.8149225,41.8924973,0 -111.814837,41.8955832,0 -111.81483,41.8961146,0 -111.8147944,41.9007755,0 -111.8147527,41.9031896,0 -111.8147354,41.9038679999999,0 -111.8147012,41.9053632,0 -111.8146885,41.9072947,0 -111.8146668,41.9083046000001,0 -111.8146179,41.9106277,0 -111.8146149,41.9108005,0 -111.8146017,41.9115572,0 -111.8145955,41.9118983,0 -111.8145712,41.9124386,0 -111.8145476,41.9129886,0 -111.8145577,41.9134811,0 -111.8144804,41.9164243,0 -111.814478,41.9165677,0 -111.8144734,41.9171792,0 -111.8144631,41.9184913000001,0 -111.8144144,41.9205195,0 -111.8144127,41.9206189,0 -111.8144105,41.9207003,0 -111.8143909,41.9217914,0 -111.8143801,41.9225694,0 -111.814374,41.9226973,0 -111.8143691,41.9228219,0 -111.81429,41.9247947,0 -111.8142632,41.9259339,0 -111.8142378,41.9266296,0 -111.8142012,41.9277348,0 -111.8141556,41.9291136,0 -111.8140903,41.9311179,0 -111.8140327,41.9325201,0 -111.8139876,41.9351055,0 -111.8139096,41.9380273,0 -111.813909,41.9380851,0 -111.8139028,41.9387284,0 -111.8138858,41.9396330999999,0 -111.8138821,41.9397902,0 -111.8138695,41.9405016,0 -111.8138595,41.9410378,0 -111.8138576,41.9411355,0 -111.813785,41.9427971,0 -111.813756,41.9434818,0 -111.8134215,41.9489457,0 -111.813267,41.9522332,0 -111.8132634,41.9525086,0 -111.8132162,41.9536721,0 -111.813179,41.9540648,0 -111.812946,41.956536,0 -111.81294,41.956679,0 -111.8128592,41.9589261,0 -111.8128488,41.9591529,0 -111.8128788,41.961586,0 -111.8128698,41.9633932,0 -111.8128741,41.96709,0 -111.8128461,41.9688026,0 -111.812842,41.976029,0 -111.81282,41.979205,0 -111.8128053,41.9832522,0 -111.8127921,41.9868807,0 -111.812779,41.9904961,0 -111.8127765,41.9940583,0 -111.8127945,41.9956651,0 -111.8128271,41.9989359,0 -111.8128379,41.9992357,0 -111.812821,42.001797,0 -111.8127926,42.0023428,0 -111.812727,42.002747,0 -111.812683,42.002964,0 -111.812608,42.003192,0 -111.812478,42.003549,0 -111.812352,42.003801,0 -111.812198,42.004067,0 -111.812068,42.004333,0 -111.811896,42.004575,0 -111.811432,42.005158,0 -111.8106553,42.0061865,0 -111.810147,42.006914,0 -111.809579,42.007662,0 -111.809165,42.008196,0 -111.808719,42.008712,0 -111.808322,42.009146,0 -111.807844,42.009655,0 -111.8074153,42.0101262,0 -111.806851,42.010785,0 -111.806736,42.010913,0 -111.806423,42.011263,0 -111.805657,42.012127,0 -111.8053569,42.0124408,0 -111.80515,42.012673,0 -111.804864,42.013036,0 -111.804642,42.013374,0 -111.804548,42.013593,0 -111.804486,42.013773,0 -111.804442,42.013966,0 -111.8044267,42.0140517,0 -111.804412,42.014134,0 -111.804396,42.01443,0 -111.804359,42.015134,0 -111.804342,42.0162469,0 -111.8043345,42.0165934,0 -111.8043315,42.0167057,0 -111.8043162,42.0172001,0 -111.8043002,42.0182443,0 -111.804311,42.018561,0 -111.804317,42.018841,0 -111.804358,42.019209,0 -111.804415,42.019437,0 -111.804589,42.019982,0 -111.804829,42.020453,0 -111.80504,42.02082,0 -111.8055135,42.0216002,0 -111.805814,42.022101,0 -111.805973,42.0223739999999,0 -111.8064692,42.0232026,0 -111.806746,42.023668,0 -111.806825,42.023808,0 -111.8069316,42.0239912,0 -111.8084259,42.0265214,0 -111.809218,42.027862,0 -111.8102933,42.0296463,0 -111.811757,42.032075,0 -111.81206,42.032686,0 -111.812155,42.032917,0 -111.81221,42.033033,0 -111.812271,42.033209,0 -111.812444,42.033809,0 -111.812557,42.034285,0 -111.812621,42.034626,0 -111.812641,42.034712,0 -111.812731,42.035214,0 -111.812838,42.03573,0 -111.812883,42.036007,0 -111.812972,42.036491,0 -111.813025,42.036713,0 -111.813202,42.03763,0 -111.813522,42.039239,0 -111.813698,42.0400770000001,0 -111.813867,42.040998,0 -111.814027,42.041735,0 -111.814167,42.042462,0 -111.81429,42.043007,0 -111.814508,42.044139,0 -111.814736,42.04536,0 -111.8148001,42.0456723,0 -111.814973,42.046992,0 -111.815055,42.0476156,0 -111.8151285,42.0483305,0 -111.815173,42.0487987,0 -111.8152036,42.0491909,0 -111.8152251,42.0497344,0 -111.8152535,42.0501611,0 -111.8153232,42.0505395,0 -111.8154289,42.0509277,0 -111.8155523,42.0512543,0 -111.8157095,42.051607,0 -111.8158651,42.0519018,0 -111.8160474,42.0521886000001,0 -111.8163677,42.0526206,0 -111.8165463,42.0528219,0 -111.8168092,42.0531087,0 -111.8172223,42.053467,0 -111.8175993,42.0537589,0 -111.8180604,42.0540694999999,0 -111.8204952,42.0555583,0 -111.8242109,42.0578372,0 -111.826287,42.059063,0 -111.827198,42.059613,0 -111.828042,42.060138,0 -111.828908,42.060666,0 -111.830043,42.06135,0 -111.8303091,42.0615105,0 -111.837505,42.0659583,0 -111.839395,42.067157,0 -111.8422986,42.0689664,0 -111.845297,42.070648,0 -111.8457857,42.0709189,0 -111.8472914,42.0717534,0 -111.8528526,42.0748356,0 -111.8532629,42.0750692999999,0 -111.8570396,42.0772046,0 -111.8576857,42.0775549,0 -111.8619671,42.0798857,0 -111.8645848,42.0813165,0 -111.8652493,42.0817328,0 -111.8659208,42.0822263,0 -111.8665687,42.0827637,0 -111.8668227,42.0829778,0 -111.8669623,42.0830949,0 -111.8676195,42.0836464,0 -111.867919,42.083898,0 -111.8693488,42.0850869,0 -111.8709144,42.0864002,0 -111.8710602,42.0865217,0 -111.8715003,42.0868817,0 -111.8727604,42.0879044,0 -111.8734291,42.0884708,0 -111.8740578,42.0889862,0 -111.8743263,42.0892023,0 -111.8753492,42.090027,0 -111.8759098,42.0904875,0 -111.8762776,42.0907891,0 -111.8764211,42.0909234,0 -111.8764575,42.0909647,0 -111.8765595,42.0910958,0 -111.8766147,42.0912183,0 -111.876648,42.0913462,0 -111.8766466,42.0914263,0 -111.8766437,42.0915839,0 
				
					-111.8766409,42.092117,0 -111.8766411,42.0922296,0 -111.8766397,42.0923228,0 -111.876639,42.092714,0 -111.8766417,42.0930382,0 -111.8766375,42.093205,0 -111.8766373,42.0933343,0 -111.8766369,42.0933804,0 -111.8766356,42.0935644,0 -111.8766347,42.0937635,0 -111.876634,42.0940881,0 -111.8766344,42.0941968,0 -111.8766336,42.0943224,0 -111.8766297,42.0954626,0 -111.8766289,42.0959485,0 -111.8766274,42.0961639,0 -111.8766279,42.096289,0 -111.8766239,42.096392,0 -111.876601,42.0971486,0 -111.8766031,42.0979872,0 -111.876604,42.09837,0 -111.876603,42.098607,0 -111.8766053,42.0990485,0 -111.876606,42.099388,0 -111.8766129,42.0998741,0 -111.8766142,42.1000182,0 -111.8766166,42.1001311,0 -111.876621,42.100442,0 -111.8766289,42.1010498,0 -111.876633,42.101365,0 -111.876633,42.101534,0 -111.876633,42.1016232,0 -111.876633,42.1018322,0 -111.876633,42.102511,0 -111.876628,42.103113,0 -111.8766238,42.1034527,0 -111.876628,42.103992,0 -111.876628,42.1040110000001,0 -111.876628,42.104192,0 -111.876634,42.104358,0 -111.876646,42.104678,0 -111.876656,42.104965,0 -111.876656,42.105112,0 -111.876656,42.106114,0 -111.876666,42.106988,0 -111.8766605,42.1075489000001,0 -111.876657,42.107913,0 -111.87665,42.108327,0 -111.876679,42.108446,0 -111.876705,42.108555,0 -111.87674,42.108757,0 -111.876805,42.108995,0 -111.87686,42.109123,0 -111.876902,42.109191,0 -111.877073,42.109475,0 -111.877149,42.109577,0 -111.877426,42.109883,0 -111.877565,42.110015,0 -111.877722,42.110154,0 -111.877974,42.110317,0 -111.878159,42.110428,0 -111.878306,42.1105,0 -111.878538,42.110603,0 -111.878827,42.110692,0 -111.879199,42.110789,0 -111.879449,42.110839,0 -111.879714,42.110876,0 -111.879992,42.110905,0 -111.880223,42.110907,0 -111.881236,42.110924,0 -111.882404,42.110922,0 -111.88268,42.110925,0 -111.884612,42.110949,0 -111.885089,42.110953,0 -111.886479,42.1109530000001,0 -111.886992,42.11097,0 -111.887792,42.110978,0 -111.888708,42.110986,0 -111.889366,42.11099,0 -111.891494,42.111002,0 -111.892298,42.111019,0 -111.894034,42.111037,0 -111.8952045,42.1110646,0 -111.8961646,42.1110755,0 -111.8969689,42.1110721,0 -111.8972256,42.1110702,0 -111.8978071,42.1110733,0 -111.8987156,42.1110845,0 -111.8997191,42.1110915,0 -111.90063,42.111096,0 -111.9010598,42.1110987,0 -111.904021,42.111117,0 -111.905532,42.111133,0 -111.905791,42.111136,0 -111.905817,42.111136,0 -111.907446,42.111152,0 -111.908159,42.111147,0 -111.908482,42.11116,0 -111.908979,42.111168,0 -111.909222,42.111182,0 -111.909583,42.111226,0 -111.910275,42.111356,0 -111.910519,42.111421,0 -111.91104,42.11159,0 -111.911375,42.111725,0 -111.911784,42.111914,0 -111.912335,42.112271,0 -111.912538,42.1124300000001,0 -111.912747,42.112602,0 -111.912951,42.112813,0 -111.913107,42.113004,0 -111.913287,42.113234,0 -111.913333,42.113293,0 -111.913485,42.113524,0 -111.9137277,42.1140434,0 -111.913763,42.114119,0 -111.913841,42.114367,0 -111.913914,42.114704,0 -111.914042,42.115867,0 -111.914096,42.11628,0 -111.914163,42.116897,0 -111.914307,42.118106,0 -111.914352,42.118573,0 -111.914461,42.11954,0 -111.91454,42.120057,0 -111.914661,42.1211399999999,0 -111.914693,42.1213910000001,0 -111.914841,42.122705,0 -111.915091,42.124829,0 -111.915129,42.125151,0 -111.915164,42.125612,0 -111.915175,42.126051,0 -111.91517,42.126302,0 -111.915135,42.126547,0 -111.915024,42.127168,0 -111.91493,42.127569,0 -111.914699,42.128453,0 -111.914587,42.1289219999999,0 -111.91442,42.129582,0 -111.914322,42.130039,0 -111.913673,42.1327189999999,0 -111.9135952,42.1330414,0 -111.913555,42.133208,0 -111.913502,42.133426,0 -111.913476,42.13353,0 -111.913451,42.133635,0 -111.913425,42.133744,0 -111.9133187,42.1341682,0 -111.913046,42.135256,0 -111.912776,42.136428,0 -111.912078,42.139293,0 -111.911834,42.140285,0 -111.911704,42.140847,0 -111.911535,42.141589,0 -111.911474,42.1418719999999,0 -111.910981,42.143869,0 -111.910776,42.144707,0 -111.910274,42.146826,0 -111.910241,42.146965,0 -111.910144,42.14738,0 -111.9098037,42.1487001,0 -111.909714,42.149057,0 -111.909593,42.149551,0 -111.909248,42.150937,0 -111.909026,42.151892,0 -111.908462,42.154209,0 -111.908255,42.155037,0 -111.908095,42.155735,0 -111.908027,42.155986,0 -111.907794,42.156607,0 -111.90738,42.1575331,0 -111.90727,42.157779,0 -111.907027,42.15834,0 -111.906885,42.1587079999999,0 -111.906329,42.159957,0 -111.906077,42.160546,0 -111.905914,42.161058,0 -111.905752,42.161682,0 -111.90573,42.161846,0 -111.905688,42.162151,0 -111.905683,42.162258,0 -111.905669,42.162573,0 -111.905666,42.162934,0 -111.905685,42.163374,0 -111.905713,42.163629,0 -111.905749,42.163857,0 -111.905798,42.164088,0 -111.905904,42.164498,0 -111.906081,42.164992,0 -111.90627,42.1654160000001,0 -111.906536,42.165922,0 -111.907129,42.16705,0 -111.907892,42.1685,0 -111.908712,42.1700390000001,0 -111.908842,42.170301,0 -111.908964,42.170549,0 -111.910138,42.17276,0 -111.911686,42.175689,0 -111.911984,42.1762480000001,0 -111.912079,42.1763899999999,0 -111.912186,42.176603,0 -111.912752,42.177724,0 -111.914004,42.180082,0 -111.914717,42.181434,0 -111.915765,42.183394,0 -111.915892,42.183702,0 -111.916042,42.183957,0 -111.91621,42.184241,0 -111.916487,42.184754,0 -111.916996,42.1857520000001,0 -111.917398,42.18648,0 -111.917859,42.18734,0 -111.918082,42.187779,0 -111.919319,42.19014,0 -111.919495,42.1904619999999,0 -111.920491,42.192331,0 -111.920677,42.192681,0 -111.920774,42.1928740000001,0 -111.921467,42.194185,0 -111.922126,42.195452,0 -111.922411,42.195973,0 -111.922423,42.195995,0 -111.922895,42.196938,0 -111.923592,42.198241,0 -111.923914,42.198792,0 -111.924098,42.19915,0 -111.92438,42.199696,0 -111.924913,42.200748,0 -111.925471,42.201784,0 -111.925988,42.202803,0 -111.92665,42.203997,0 -111.926843,42.204377,0 -111.927422,42.205471,0 -111.928829,42.208118,0 -111.929429,42.209269,0 -111.930038,42.210399,0 -111.930341,42.210994,0 -111.930765,42.211795,0 -111.930891,42.212019,0 -111.93102,42.212248,0 -111.931281,42.212806,0 -111.931503,42.213194,0 -111.932105,42.2143699999999,0 -111.932611,42.215274,0 -111.932784,42.215612,0 -111.933535,42.217007,0 -111.934296,42.218467,0 -111.935044,42.219872,0 -111.935708,42.221159,0 -111.93645,42.222531,0 -111.936673,42.222962,0 -111.937024,42.223617,0 -111.937223,42.22399,0 -111.937362,42.224274,0 -111.938459,42.2263220000001,0 -111.93905,42.227357,0 -111.939104,42.227451,0 -111.939751,42.2284259999999,0 -111.94058,42.229608,0 -111.941341,42.230702,0 -111.941539,42.230974,0 -111.941612,42.231075,0 -111.94228,42.232063,0 -111.943247,42.233372,0 -111.943489,42.23373,0 -111.944273,42.234859,0 -111.944305,42.234906,0 -111.945075,42.236048,0 -111.945203,42.236238,0 -111.946668,42.238345,0 -111.946709,42.2384029999999,0 -111.947803,42.239961,0 -111.948144,42.240407,0 -111.948813,42.241382,0 -111.950774,42.244187,0 -111.951099,42.244642,0 -111.951546,42.245267,0 -111.952214,42.246236,0 -111.953273,42.247717,0 -111.954371,42.24931,0 -111.955101,42.250333,0 -111.95592,42.251534,0 -111.956934,42.25294,0 -111.957946,42.254452,0 -111.958237,42.254851,0 -111.95922,42.25627,0 -111.959476,42.256623,0 -111.960297,42.257774,0 -111.96188,42.260088,0 -111.962795,42.261363,0 -111.964873,42.264331,0 -111.967628,42.2682629999999,0 -111.967853,42.268581,0 -111.969134,42.27039,0 -111.971785,42.274192,0 -111.97188,42.274327,0 -111.973282,42.276312,0 -111.973911,42.277228,0 -111.97465,42.278267,0 -111.975452,42.2793840000001,0 -111.975919,42.280073,0 -111.975994,42.280183,0 -111.97688,42.281445,0 -111.977558,42.282428,0 -111.977709,42.282647,0 -111.978496,42.283741,0 -111.979514,42.285215,0 -111.980219,42.286222,0 -111.982008,42.288756,0 -111.982476,42.289446,0 -111.982525,42.289515,0 -111.9829947,42.2901304,0 -111.98346,42.290849,0 -111.983936,42.291524,0 -111.984247,42.291891,0 -111.984873,42.292451,0 -111.986222,42.293536,0 -111.987246,42.294349,0 -111.987709,42.29475,0 -111.988676,42.295498,0 -111.989424,42.296112,0 -111.989888,42.296519,0 -111.990254,42.296831,0 -111.99049,42.297055,0 -111.990873,42.297439,0 -111.991371,42.297959,0 -111.991902,42.298574,0 -111.993016,42.300054,0 -111.993853,42.301186,0 -111.995157,42.302964,0 -111.996091,42.304215,0 -111.997592,42.306272,0 -111.997898,42.306684,0 -111.998389,42.307397,0 -111.998724,42.3078070000001,0 -112.000052,42.309559,0 -112.001388,42.311336,0 -112.0023694,42.3126697,0 -112.0028224,42.3132545,0 -112.003568,42.314147,0 -112.003607,42.314186,0 -112.0045387,42.3151036,0 -112.007653,42.318171,0 -112.008949,42.319434,0 -112.009773,42.320225,0 -112.010293,42.320739,0 -112.011045,42.321465,0 -112.013769,42.324141,0 -112.01478,42.325115,0 -112.015407,42.32567,0 -112.016139,42.326248,0 -112.017382,42.32719,0 -112.019233,42.328553,0 -112.020794,42.329702,0 -112.020901,42.329781,0 -112.02138,42.330152,0 -112.022315,42.33084,0 -112.022982,42.331346,0 -112.023379,42.331647,0 -112.0242,42.332241,0 -112.024712,42.33263,0 -112.025077,42.332898,0 -112.026191,42.333714,0 -112.026686,42.334037,0 -112.027148,42.334319,0 -112.027569,42.334536,0 -112.028224,42.334828,0 -112.029485,42.335353,0 -112.030763,42.335877,0 -112.031296,42.336105,0 -112.032129,42.336443,0 -112.032913,42.336781,0 -112.033901,42.337291,0 -112.034177,42.3374489999999,0 -112.034875,42.337937,0 -112.035364,42.338344,0 -112.035983,42.338886,0 -112.036822,42.339605,0 -112.037286,42.34003,0 -112.037856,42.340519,0 -112.038223,42.340844,0 -112.038517,42.341115,0 -112.038778,42.341393,0 -112.039007,42.341623,0 -112.039269,42.341942,0 -112.039754,42.342616,0 -112.040076,42.343167,0 -112.04039,42.343676,0 -112.040605,42.344091,0 -112.040763,42.344419,0 -112.040939,42.344828,0 -112.04115,42.345458,0 -112.04143,42.346356,0 -112.041742,42.3472820000001,0 -112.042165,42.348566,0 -112.042453,42.349421,0 -112.042503,42.349569,0 -112.042671,42.350032,0 -112.042895,42.350477,0 -112.043207,42.350891,0 -112.043444,42.351157,0 -112.043681,42.351369,0 -112.043983,42.351607,0 -112.044356,42.351859,0 -112.044961,42.352157,0 -112.045423,42.352318,0 -112.0455443,42.3523642,0 -112.045819,42.3524504,0 -112.0461325,42.3525412,0 -112.0469558,42.3527703,0 -112.047262,42.352863,0 -112.047948,42.353077,0 -112.048531,42.353352,0 -112.048951,42.3536209999999,0 -112.049105,42.353721,0 -112.049309,42.3538920000001,0 -112.049458,42.354027,0 -112.049561,42.354122,0 -112.049734,42.354322,0 -112.049766,42.354358,0 -112.049921,42.3545679999999,0 -112.050095,42.3548140000001,0 -112.050235,42.355051,0 -112.050369,42.355341,0 -112.050453,42.355603,0 -112.050489,42.355811,0 -112.050582,42.35658,0 -112.050792,42.358538,0 -112.050828,42.358793,0 -112.050905,42.359108,0 -112.050999,42.3594,0 -112.051166,42.359791,0 -112.051481,42.360402,0 -112.051912,42.36116,0 -112.05464,42.365829,0 -112.054857,42.366195,0 -112.056195,42.368454,0 -112.057667,42.3709720000001,0 -112.058845,42.372978,0 -112.06014,42.375182,0 -112.061224,42.377051,0 -112.061869,42.378164,0 -112.062199,42.378703,0 -112.06238,42.378946,0 -112.062557,42.379152,0 -112.062749,42.379347,0 -112.063002,42.379577,0 -112.064387,42.380714,0 -112.066505,42.38244,0 -112.070117,42.385359,0 -112.070774,42.385867,0 -112.071416,42.386332,0 -112.071936,42.3866779999999,0 -112.0744939,42.3881579,0 -112.076214,42.389194,0 -112.07908,42.390906,0 -112.082393,42.3928590000001,0 -112.083813,42.393697,0 -112.084666,42.394207,0 -112.086363,42.39521,0 -112.087394,42.395807,0 -112.089862,42.397261,0 -112.091438,42.398199,0 -112.091933,42.398498,0 -112.092485,42.398815,0 -112.092858,42.399014,0 -112.093175,42.399172,0 -112.093474,42.399306,0 -112.094211,42.399591,0 -112.097705,42.400886,0 -112.098239,42.401095,0 -112.098596,42.401241,0 -112.098952,42.401404,0 -112.099301,42.401585,0 -112.100316,42.402171,0 -112.101721,42.403004,0 -112.10333,42.403989,0 -112.106303,42.405777,0 -112.106595,42.405959,0 -112.108426,42.40721,0 -112.110152,42.408424,0 -112.113317,42.410621,0 -112.113643,42.4108680000001,0 -112.11405,42.411168,0 -112.114434,42.411492,0 -112.114949,42.411973,0 -112.11545,42.412558,0 -112.116296,42.413598,0 -112.119008,42.416913,0 -112.119121,42.41705,0 -112.120135,42.418277,0 -112.120747,42.419018,0 -112.121392,42.419811,0 -112.121659,42.42014,0 -112.124306,42.423375,0 -112.124881,42.424055,0 -112.1252293,42.424468,0 -112.125673,42.424994,0 -112.1262379,42.4256166,0 -112.1264769,42.4259118,0 -112.1277421,42.4274541,0 -112.128715,42.42874,0 -112.129405,42.4300379999999,0 -112.129564,42.430337,0 -112.129867,42.43084,0 -112.130177,42.431353,0 -112.130816,42.432467,0 -112.1311151,42.4329883,0 -112.13189,42.434339,0 -112.132637,42.435642,0 -112.133991,42.437964,0 -112.137902,42.444725,0 -112.138162,42.445169,0 -112.138764,42.446196,0 -112.139492,42.447459,0 -112.14036,42.448946,0 -112.141432,42.450805,0 -112.142421,42.452497,0 -112.144294,42.455738,0 -112.144983,42.456929,0 -112.146481,42.459509,0 -112.146648,42.459794,0 -112.147341,42.461004,0 -112.147531,42.461329,0 -112.148633,42.463214,0 -112.149875,42.465357,0 -112.150085,42.465721,0 -112.152911,42.470594,0 -112.153166,42.471022,0 -112.154782,42.473823,0 -112.155064,42.4742970000001,0 -112.155934,42.475791,0 -112.156209,42.476279,0 -112.157168,42.477921,0 -112.157956,42.479297,0 -112.159525,42.4820119999999,0 -112.159575,42.482095,0 -112.161478,42.485256,0 -112.162065,42.486249,0 -112.162222,42.486556,0 -112.162365,42.486906,0 -112.162442,42.487135,0 -112.162536,42.487595,0 -112.162552,42.487672,0 -112.16257,42.487826,0 -112.162584,42.488791,0 -112.162639,42.491756,0 -112.162643,42.492111,0 -112.162648,42.492495,0 -112.162665,42.4939,0 -112.16269,42.49487,0 -112.162698,42.495301,0 -112.162705,42.495477,0 -112.16271,42.495605,0 -112.162742,42.495822,0 -112.16275,42.49585,0 -112.162869,42.49629,0 -112.162943,42.496496,0 -112.163067,42.496782,0 -112.163112,42.4968465000001,0 -112.163199,42.496971,0 -112.163289,42.4971,0 -112.163604,42.49751,0 -112.163781,42.497689,0 -112.164116,42.4979877,0 -112.1647343,42.4984648,0 -112.1649158,42.4985957,0 -112.1654923,42.4990168,0 -112.165953,42.499347,0 -112.166915,42.50005,0 -112.167342,42.500369,0 -112.167679,42.500622,0 -112.1690652,42.5016393,0 -112.1698963,42.5022352,0 -112.170331,42.50256,0 -112.170561,42.502757,0 -112.170247,42.503237,0 -112.170174,42.50337,0 -112.170123,42.503496,0 -112.170089,42.503579,0 -112.170017,42.5037779999999,0 -112.169991,42.503895,0 -112.169968,42.504119,0 -112.169933,42.504811,0 -112.169918,42.5054940000001,0 -112.169917,42.50617,0 -112.169904,42.5070139999999,0 -112.1718044,42.5393269,0 -112.1719246,42.5403071,0 -112.1720276,42.5408952000001,0 -112.1756325,42.5547242,0 -112.176671,42.5583533,0 -112.1781559,42.5628671,0 -112.1794348,42.5668750000001,0 -112.179615,42.5673807,0 -112.1813831,42.5718118,0 -112.1848421,42.5803885,0 -112.1936312,42.6021317,0 -112.1971073,42.6106854,0 -112.1975193,42.6118414,0 -112.1980944,42.6135784,0 -112.1984119,42.6146017,0 -112.2001629,42.6205137,0 -112.2063255,42.6416115,0 -112.2064714,42.6421797,0 -112.2107768,42.6571266,0 -112.2118702,42.6611053,0 -112.2124023,42.6630872,0 -112.2130906,42.6652972,0 -112.2134924,42.6668172,0 -112.2139988,42.6683319,0 -112.2145567,42.6700926,0 -112.2207107,42.6918423,0 -112.2210455,42.6930157,0 -112.2213116,42.694208,0 -112.2215948,42.6957914,0 -112.2218265,42.6972549,0 -112.2259893,42.743224,0 -112.2264786,42.7464512,0 -112.2280235,42.755735,0 -112.2282896,42.7575689,0 -112.2285814,42.7602724,0 -112.2291994,42.7670463,0 -112.2295256,42.7703354,0 -112.2298174,42.7752056,0 -112.2300835,42.7780028,0 -112.2307529,42.7820598,0 -112.2309074,42.7826394,0 -112.2310963,42.7830425,0 -112.2313023,42.7833701,0 -112.2318516,42.7842268,0 -112.2333879,42.7861544,0 -112.2342892,42.7871937,0 -112.2348986,42.7877984,0 -112.2352934,42.7881511,0 -112.2359371,42.7886613,0 -112.2366753,42.7891841,0 -112.23999,42.791126,0 -112.2433958,42.7931144000001,0 -112.243722,42.7933286,0 -112.2495327,42.7966792,0 -112.2500048,42.7969689,0 -112.2506485,42.7972964,0 -112.2515325,42.7977247,0 -112.2521763,42.7979829,0 -112.2527943,42.7981655,0 -112.2537813,42.7983859,0 -112.2546568,42.7985182,0 -112.2555752,42.7985623,0 -112.2585449,42.7985812,0 -112.2594719,42.7986063,0 -112.261446,42.7987449,0 -112.2619781,42.7987764,0 -112.268744,42.799571,0 -112.2731104,42.8000989,0 -112.274518,42.8002438,0 -112.2760029,42.8003445000001,0 -112.2778225,42.8003949,0 -112.2796678,42.8003382,0 -112.28254,42.800263,0 -112.2955544,42.7998885,0 -112.2985849,42.799784,0 -112.3012886,42.799721,0 -112.3028679,42.7997336,0 -112.3043871,42.7997777,0 -112.3060951,42.7998911,0 -112.3076486,42.8000233,0 -112.3235359,42.8015788,0 -112.3254242,42.8017552000001,0 -112.3265829,42.801793,0 -112.3280592,42.8018055,0 -112.3293381,42.8017363,0 -112.3306684,42.801604,0 -112.3321962,42.8013962,0 -112.333518,42.8011191,0 -112.3346596,42.8008357000001,0 -112.3360586,42.8004201,0 -112.3372688,42.7999793,0 -112.3462038,42.7968429,0 -112.3471994,42.7965028,0 -112.3485126,42.7961502,0 -112.3493596,42.7959609,0 -112.3504125,42.7957993,0 -112.3513878,42.7957027,0 -112.3523922,42.7956397,0 -112.3532703,42.7956418,0 -112.3542712,42.7956834,0 -112.3551645,42.7957975,0 -112.35707,42.7961061,0 -112.3583832,42.7964777,0 -112.3597565,42.7969311,0 -112.3609753,42.7974601,0 -112.3628138,42.7983965,0 -112.3631983,42.7986378,0 -112.3636789,42.7988709,0 -112.3671386,42.8007238,0 -112.3691123,42.8018158,0 -112.370237,42.802513,0 -112.3708455,42.8029081000001,0 -112.3714223,42.8033417,0 -112.3720321,42.8037947,0 -112.3725736,42.8042284,0 -112.3730941,42.8046549,0 -112.3735988,42.8051239,0 -112.3742721,42.805784,0 -112.3750598,42.8066162,0 -112.3757068,42.8073791,0 -112.3798626,42.8127073,0 -112.3809266,42.8139234,0 -112.3817248,42.8147245,0 -112.3825622,42.8154693,0 -112.3833431,42.8160613,0 -112.3842279,42.8166595,0 -112.385851,42.8176548,0 -112.4012634,42.8267434,0 -112.4025317,42.8275012,0 -112.4036223,42.8282367,0 -112.404639,42.829033,0 -112.4057617,42.8301125,0 -112.4068549,42.8312377,0 -112.4073988,42.831923,0 -112.407666,42.8323019,0 -112.4079332,42.8326995,0 -112.4083737,42.8334883,0 -112.4088001,42.8342920000001,0 -112.4092743,42.8354282,0 -112.4093936,42.8355423,0 -112.4102795,42.837509,0 -112.4104592,42.83786,0 -112.4106665,42.8381879,0 -112.4109041,42.8385304,0 -112.4111155,42.8388117,0 -112.4113678,42.8391172,0 -112.411669,42.8394297,0 -112.4120842,42.8398519,0 -112.4127523,42.8405327,0 -112.4133522,42.8411508,0 -112.4140896,42.8418977999999,0 -112.4143621,42.8421322,0 -112.4148504,42.8424872,0 -112.4150568,42.8426829,0 -112.4176152,42.8442992999999,0 -112.4183729,42.8447779,0 -112.4193269,42.8453798,0 -112.4203119,42.8459639,0 -112.4208615,42.84627,0 -112.4213808,42.8465582,0 -112.4218603,42.8468282,0 -112.422701,42.847269,0 -112.4230702,42.8475187,0 -112.423651,42.8479207,0 -112.4240832,42.84825,0 -112.4243717,42.8485076999999,0 -112.424794,42.8488908,0 -112.4249416,42.849016,0 -112.4259004,42.8498418,0 -112.426232,42.8501285,0 -112.4271168,42.8508928,0 -112.427738,42.8514294,0 -112.4278659,42.8515403,0 -112.4284102,42.8520118,0 -112.4287025,42.8522651,0 -112.4288564,42.8523984,0 -112.4291615,42.8526664,0 -112.430065,42.853431,0 -112.4305993,42.8538793,0 -112.431448,42.854646,0 -112.4323243,42.8553938,0 -112.4331676,42.8561088000001,0 -112.4340656,42.8568507,0 -112.434944,42.8576002,0 -112.4358105,42.8583473,0 -112.4366826,42.8590995,0 -112.4375793,42.8598585,0 -112.4378285,42.8600739,0 -112.4382175,42.8604181,0 -112.4384362,42.8606112,0 -112.4393418,42.8613657000001,0 -112.4402022,42.8621235,0 -112.4406905,42.8625287,0 -112.441053,42.8628434999999,0 -112.4411396,42.8629219,0 -112.4415933,42.8633239,0 -112.4419583,42.8636336999999,0 -112.4423448,42.864017,0 -112.4428008,42.8644064,0 -112.4436623,42.8651432,0 -112.444527,42.8658829,0 -112.4454033,42.8666337,0 -112.4462749,42.8673878,0 -112.4471331,42.8681533,0 -112.4480212,42.8689403,0 -112.4488943,42.8696981,0 -112.4494167,42.8701466,0 -112.4497251,42.8704638000001,0 -112.4498362,42.8706497,0 -112.44992,42.8708365999999,0 -112.4499694,42.8710403,0 -112.4500274,42.8712892,0 -112.4500768,42.8715734,0 -112.4505094,42.8737564,0 -112.4505668,42.8740819,0 -112.45059,42.8742124,0 -112.4506134,42.8743653,0 -112.4506297,42.8744909,0 -112.4506341,42.8746005,0 -112.4506333,42.8747111,0 -112.4506274,42.8748259,0 -112.450603,42.8751837,0 -112.450551,42.875936,0 -112.450561,42.8763739,0 -112.4506234,42.876754,0 -112.4506425,42.8768689,0 -112.4506807,42.8770013,0 -112.4506846,42.8770191,0 -112.4507344,42.8772121,0 -112.4508153,42.8774156,0 -112.4509355,42.8776131,0 -112.4511306,42.8778667,0 -112.4512668,42.8780465,0 -112.4513744,42.8782082999999,0 -112.4514463,42.8783346,0 -112.4515308,42.8785803,0 -112.4514971,42.8787407,0 -112.4515059,42.8788686,0 -112.4515069,42.8805685,0 -112.4514843,42.8823351,0 -112.451479,42.8841473,0 -112.4514777,42.8847488,0 -112.4514765,42.8852922,0 -112.451475,42.8859888,0 -112.4514742,42.8861829,0 -112.451473,42.8864664,0 -112.451472,42.8867092,0 -112.4514717,42.8867787,0 -112.4514709,42.886961,0 -112.45147,42.88717,0 -112.4514696,42.8872593,0 -112.451469,42.887394,0 -112.4514687,42.8874711,0 -112.451468,42.8876336,0 -112.4514567,42.88774,0 -112.4515069,42.8878691,0 -112.4515079,42.888706,0 -112.4515047,42.8890648,0 -112.4514977,42.8898362,0 -112.4514955,42.8900863,0 -112.4514934,42.890315,0 -112.4514973,42.8913465,0 -112.4514957,42.8914574,0 -112.4514829,42.8922941,0 -112.451489,42.8928362,0 -112.4514107,42.8928982,0 -112.4514122,42.8930511,0 -112.4514055,42.8939438,0 -112.4514055,42.8939694,0 -112.4514059,42.894513,0 -112.451406,42.8946023,0 -112.4514062,42.8949829,0 -112.451403,42.8956651,0 -112.4513949,42.8959627,0 -112.4513858,42.8973072,0 -112.4513863,42.8975854,0 -112.4513887,42.8977875,0 -112.451385,42.8981688,0 -112.4513796,42.8984706,0 -112.4513856,42.8985352,0 -112.4513787,42.8990308,0 -112.4513847,42.9004264,0 -112.4513811,42.9005461,0 -112.4513803,42.9007653,0 -112.4513786,42.9012446,0 -112.4513757,42.9018648,0 -112.451376,42.9019869,0 -112.4513755,42.9021215,0 -112.451375,42.9022588,0 -112.4513725,42.9029861,0 -112.4513702,42.9035539,0 -112.4513688,42.9037422999999,0 -112.4513669,42.9040901,0 -112.4513669,42.9043791,0 -112.4513785,42.9047059,0 -112.451403,42.9048956,0 -112.4514598,42.9050689,0 -112.4515384,42.905218,0 -112.4516511,42.9053459,0 -112.4518154,42.905481,0 -112.452025,42.9056083,0 -112.4523363,42.905738,0 -112.4526489,42.9058142,0 -112.4529851,42.9058462,0 -112.4543008,42.9058517,0 -112.4571482,42.9058858,0 -112.4577334,42.9058891,0 -112.459697,42.90586,0 -112.4606966,42.905856,0 -112.4613079,42.9058550999999,0 -112.4619601,42.9058541,0 -112.462263,42.9058537,0 -112.4625748,42.9058532,0 -112.4627545,42.9058529,0 -112.4631568,42.9058727,0 -112.4635531,42.9058972,0 -112.4636451,42.9059101,0 -112.4639413,42.9059516,0 -112.4643114,42.9060369,0 -112.4646827,42.9061653,0 -112.4650186,42.9063206,0 -112.4653125,42.9064954,0 -112.4653504,42.9065257999999,0 -112.4656435,42.9067581,0 -112.4658378,42.9069662,0 -112.4659518,42.9071185,0 -112.4660391,42.907246,0 -112.4661533,42.9074627,0 -112.4662558,42.9077049,0 -112.4663021,42.9078932,0 -112.4663344,42.9080994,0 -112.4663436,42.9087866,0 -112.4663374,42.908888,0 -112.4664286,42.908969,0 -112.4664366,42.9104265,0 -112.4664288,42.9112522,0 -112.4664359,42.9118047,0 -112.4663416,42.9120614,0 -112.4662288,42.9122535,0 -112.46618,42.9123597,0 -112.4661386,42.9125247,0 -112.4661402,42.9131221,0 -112.466178,42.9132901,0 -112.4662311,42.9134383,0 -112.4663459,42.9136486,0 -112.4663953,42.9137582999999,0 -112.4664383,42.9138504000001,0 -112.4664628,42.9140279,0 -112.4664653,42.9142366,0 -112.4664316,42.9144606,0 -112.4663518,42.9145913,0 -112.4663521,42.9146302,0 -112.466354,42.9148604,0 -112.4663564,42.9151432,0 -112.4663579,42.915326,0 -112.4663618,42.9155938,0 -112.4663655,42.9157139000001,0 -112.4663746,42.916255,0 -112.4663638,42.917941,0 -112.4663689,42.9194018,0 -112.4663697,42.9196529,0 -112.4663755,42.9204337,0 -112.4663747,42.9209912,0 -112.4663787,42.9211438,0 -112.466389,42.9215184,0 -112.4663899,42.9217664,0 -112.4663993,42.9223428000001,0 -112.4664047,42.9226041,0 -112.4664097,42.9228463,0 -112.4664103,42.9228749,0 -112.4664031,42.9230378,0 -112.4664179,42.9235318,0 -112.4664363,42.9247228,0 -112.4664397,42.9253461000001,0 -112.46644,42.9259939,0 -112.4664493,42.9261973,0 -112.4664514,42.9266165,0 -112.4664578,42.926895,0 -112.4664692,42.9277033,0 -112.4664748,42.9280983,0 -112.4664874,42.9289948,0 -112.4665017,42.9300447,0 -112.4665099,42.9305614,0 -112.4665164,42.9309778,0 -112.4665377,42.9324605,0 -112.4665519,42.9337427,0 -112.4665516,42.9340426999999,0 -112.4665605,42.9343457,0 -112.466566,42.9349937,0 -112.4665633,42.936537,0 -112.4665796,42.9374157,0 -112.4665653,42.9400911,0 -112.466565,42.9422874,0 -112.4665627,42.9440376,0 -112.4665541,42.947007,0 -112.4665556,42.9495136,0 -112.466559,42.950657,0 -112.466556,42.950938,0 -112.4665563,42.951326,0 -112.4665564,42.9515433,0 -112.466542,42.952204,0 -112.466533,42.952953,0 -112.466535,42.95311,0 -112.466535,42.953172,0 -112.466539,42.953713,0 -112.466539,42.954296,0 -112.466537,42.954944,0 -112.466538,42.955373,0 -112.46654,42.955731,0 -112.466541,42.956233,0 -112.46654,42.956442,0 -112.466539,42.956567,0 -112.466538,42.956801,0 -112.466536,42.957054,0 -112.466534,42.95744,0 -112.466533,42.957681,0 -112.4665299,42.9581732,0 -112.466527,42.958621,0 -112.466537,42.960338,0 -112.4665374,42.9604208,0 -112.466542,42.961331,0 -112.466543,42.961501,0 -112.46654,42.962012,0 -112.466539,42.962188,0 -112.466512,42.962425,0 -112.466497,42.962564,0 -112.4665223,42.9626391,0 -112.4664265,42.9630105,0 -112.4662723,42.9634062,0 -112.466176,42.9636747,0 -112.4660106,42.9639931,0 -112.4657349,42.9644385,0 -112.4652747,42.9651534,0 -112.4647436,42.9659678,0 -112.4644214,42.96647,0 -112.463982,42.9671756,0 -112.463439,42.9680139,0 -112.4631129,42.9685292000001,0 -112.4627725,42.9690713,0 -112.4626093,42.9693256,0 -112.462311,42.9697859,0 -112.462045,42.970189,0 -112.462015,42.970238,0 -112.461691,42.970756,0 -112.4614268,42.9711884999999,0 -112.4612938,42.9713915,0 -112.4605142,42.972736,0 -112.4603295,42.9730178,0 -112.4598844,42.9737287,0 -112.4597074,42.9740028,0 -112.4591911,42.9748178,0 -112.4591632,42.9748588,0 -112.4591181,42.9749251,0 -112.4591038,42.9749461,0 -112.4587518,42.9755188000001,0 -112.458029,42.9766257,0 -112.4579572,42.9767321,0 -112.457638,42.9772548,0 -112.4575674,42.9773767,0 -112.4567594,42.9785793,0 -112.4563189,42.9793336,0 -112.4558469,42.9800495,0 -112.4555422,42.9805626,0 -112.4553841,42.9808332,0 -112.4544794,42.9822142,0 -112.4521596,42.9857426,0 -112.4518316,42.9862645999999,0 -112.4499442,42.9891313,0 -112.4492695,42.9901642,0 -112.4483647,42.9915381,0 -112.4473025,42.9930423,0 -112.4472652,42.9931104,0 -112.4472143,42.9931907,0 -112.4463779,42.9944664,0 -112.4457851,42.9953984,0 -112.4454735,42.9959235,0 -112.4453358,42.9962038,0 -112.4451802,42.9966537,0 -112.4450962,42.9969925,0 -112.4442613,43.0003189,0 -112.4440934,43.0009351,0 -112.4432287,43.0043397,0 -112.4423976,43.0075671,0 -112.441709,43.0102528,0 -112.4414953,43.0111558,0 -112.4412268,43.0121506,0 -112.4411238,43.012531,0 -112.4405542,43.0147471,0 -112.4401569,43.0164112,0 -112.4401445,43.016469,0 -112.4399008,43.017566,0 -112.4396836,43.0183843,0 -112.4391621,43.0202582,0 -112.4389747,43.0209741,0 -112.4386569,43.0222424,0 -112.4385011,43.0229283,0 -112.4384396,43.0236065,0 -112.4384116,43.0244149,0 -112.4383791,43.0247303,0 -112.4382929,43.025189,0 -112.4380233,43.0264602,0 -112.4372722,43.0293267,0 -112.4371006,43.0300734,0 -112.4370152,43.0304214,0 -112.4367733,43.0313804,0 -112.4365001,43.0324178,0 -112.4364049,43.0327848,0 -112.4362382,43.0334569,0 -112.4361147,43.0338336,0 -112.4358308,43.0345275,0 -112.4353877,43.0356055,0 -112.4349975,43.0366071,0 -112.4347546,43.0374451,0 -112.4341685,43.039732,0 -112.4340267,43.040261,0 -112.4330598,43.043981,0 -112.427436,43.0657387,0 -112.4235893,43.0803992,0 -112.4226387,43.0841052,0 -112.4198444,43.0948945,0 -112.417979,43.1020473,0 -112.4160897,43.1093863000001,0 -112.4158272,43.1103662,0 -112.4158049,43.1104491,0 -112.4156702,43.110952,0 -112.4142027,43.1166056,0 -112.413825,43.1180844,0 -112.4132585,43.1203023,0 -112.4128084,43.1219964,0 -112.4123104,43.1239226,0 -112.4117936,43.1259193000001,0 -112.4113121,43.1277252,0 -112.4111632,43.1281266,0 -112.4108939,43.1286902,0 -112.4104538,43.129342,0 -112.4100854,43.1297664,0 -112.4085963,43.1310952,0 -112.407854,43.1317616,0 -112.4065549,43.1329352,0 -112.4029371,43.1362061999999,0 -112.3980053,43.1406583999999,0 -112.3956189,43.142811,0 -112.3945624,43.1437639,0 -112.3937568,43.1445519,0 -112.3920973,43.1459938,0 -112.391938,43.1461364,0 -112.3918674,43.1462015,0 -112.391747,43.1463016,0 -112.3906341,43.147357,0 -112.3900381,43.1478813,0 -112.389986,43.1479293,0 -112.3859187,43.1515996,0 -112.3858919,43.1516238,0 -112.3844835,43.1528389,0 -112.3835636,43.153667,0 -112.3798621,43.1570325,0 -112.3783235,43.1583833,0 -112.3779995,43.1586816,0 -112.3768151,43.1597717,0 -112.3762036,43.1602569,0 -112.374959,43.161376,0 -112.3686357,43.1671582,0 -112.3684153,43.1673597,0 -112.3673094,43.1683877,0 -112.3611345,43.1740507,0 -112.3607681,43.1743782,0 -112.3598605,43.1752705,0 -112.3597103,43.1754391,0 -112.3594572,43.175803,0 -112.359397,43.1759371,0 -112.3592715,43.1762188,0 -112.3588155,43.1770568,0 -112.358415,43.1778138999999,0 -112.3581748,43.1782263,0 -112.3576596,43.1788364,0 -112.3570309,43.1794461999999,0 -112.3566193,43.1798454,0 -112.3564009,43.1800572999999,0 -112.3562157,43.1802204,0 -112.354694,43.1815606,0 -112.3546198,43.1816307,0 -112.3538854,43.1823241,0 -112.3532784,43.1828689,0 -112.3520062,43.1840181,0 -112.3513169,43.1846219,0 -112.3510551,43.1848356,0 -112.3505438,43.1852821,0 -112.3498154,43.1859566000001,0 -112.3489796,43.1865965,0 -112.3487925,43.1867787,0 -112.3484956,43.1870576,0 -112.3482614,43.1872859,0 -112.347919,43.1875412,0 -112.3477034,43.1876389,0 -112.347483,43.1876827,0 -112.3473514,43.1876896,0 -112.347212,43.1876829,0 -112.3468107,43.1876373,0 -112.346653,43.1876321,0 -112.3465016,43.1876407,0 -112.3462991,43.1876926,0 -112.3461117,43.1877685,0 -112.3459556,43.1878734,0 -112.3458414,43.1879781,0 -112.3457783,43.1880359,0 -112.3457046,43.1881003,0 -112.3450789,43.1886466,0 -112.3450144,43.188703,0 -112.3449347,43.1887748,0 -112.3441654,43.1894671,0 -112.3441164,43.1895113,0 -112.3441014,43.1895247,0 -112.3435932,43.1899821,0 -112.3434127,43.1901445,0 -112.3427394,43.1907505,0 -112.3426819,43.1908023,0 -112.3425916,43.1908835,0 -112.3418987,43.1915071,0 -112.34114,43.19219,0 -112.3404254,43.1928331,0 -112.3399936,43.1931346,0 -112.3396173,43.1934059,0 -112.3361627,43.1964869,0 -112.3360526,43.1965863,0 -112.3357771,43.1968443,0 -112.3352059,43.1974154,0 -112.334684,43.1978897,0 -112.3335054,43.1989366,0 -112.3325255,43.1997545,0 -112.3316667,43.2004797,0 -112.3305899,43.2013806,0 -112.3287473,43.2030992,0 -112.3285095,43.203321,0 -112.3276212,43.2040932,0 -112.3267822,43.2048561,0 -112.325702,43.2058146,0 -112.3256839,43.2058306,0 -112.3253719,43.2061077,0 -112.3244452,43.2069766,0 -112.3244203,43.207,0 -112.3236175,43.2076739999999,0 -112.3236093,43.2076809,0 -112.3232905,43.2079486,0 -112.3223158,43.208618,0 -112.3187535,43.2108547,0 -112.3180527,43.2113068,0 -112.3174535,43.2116946,0 -112.3168157,43.2121067,0 -112.3162245,43.2124895,0 -112.311205,43.2156241,0 -112.3107179,43.2159346,0 -112.309748,43.2165459,0 -112.3068816,43.2183453,0 -112.3056598,43.2191255,0 -112.3050045,43.2195573,0 -112.3034228,43.2205582,0 -112.3012669,43.221935,0 -112.3001071,43.222696,0 -112.298825,43.2235392,0 -112.2963139,43.225099,0 -112.2953097,43.22572,0 -112.2948264,43.2260308,0 -112.2933045,43.2270076,0 -112.291921,43.2279218,0 -112.2852574,43.2320851,0 -112.2840369,43.2328239,0 -112.2828814,43.2335794,0 -112.2814073,43.2345596,0 -112.2798607,43.2355148,0 -112.277753,43.2368983,0 -112.2771844,43.2372418000001,0 -112.2763706,43.2377424,0 -112.2751245,43.2385471,0 -112.2726284,43.2401259,0 -112.2708812,43.2412346,0 -112.2698883,43.2418782,0 -112.2681073,43.2429884,0 -112.2665403,43.2439583,0 -112.2650453,43.244875,0 -112.2639236,43.2456053,0 -112.2629885,43.2462118000001,0 -112.2619468,43.2468612,0 -112.2614168,43.2471359,0 -112.2595371,43.2483308,0 -112.2588837,43.2487614,0 -112.2584427,43.2490443,0 -112.257843,43.2494581,0 -112.2505715,43.2540189,0 -112.2485937,43.2552641,0 -112.2440436,43.2581544,0 -112.243675,43.258388,0 -112.2415228,43.2597573,0 -112.2409,43.2601562,0 -112.2401951,43.2605980000001,0 -112.2395273,43.2610441,0 -112.2322172,43.2656444,0 -112.2303455,43.2668502,0 -112.2274048,43.2687021,0 -112.2248009,43.2703485,0 -112.2237886,43.2709989,0 -112.2231728,43.2713894,0 -112.222359,43.2718734,0 -112.221985,43.2721141,0 -112.2192498,43.2738747,0 -112.2181213,43.2745342,0 -112.2164914,43.2757483,0 -112.2160392,43.2761256,0 -112.2159356,43.276216,0 -112.2157877,43.276345,0 -112.2156856,43.2764341000001,0 -112.2149797,43.2771145,0 -112.2136225,43.2783041,0 -112.2128774,43.278943,0 -112.2117535,43.2799647,0 -112.2106533,43.2809137,0 -112.2096684,43.2817857,0 -112.209369,43.2820685,0 -112.2088583,43.2825018999999,0 -112.208376,43.2828647,0 -112.2064684,43.2845353,0 -112.2054251,43.2855275,0 -112.2033222,43.2874101,0 -112.2024403,43.2881981,0 -112.2012993,43.2891715999999,0 -112.2002817,43.2900728,0 -112.1998605,43.2904415,0 -112.1987904,43.2913781,0 -112.1980018,43.2920626,0 -112.1965437,43.2933374,0 -112.194604,43.2950691,0 -112.1932398,43.2962536,0 -112.1923402,43.2970466,0 -112.1885186,43.3004038,0 -112.1875852,43.3012311000001,0 -112.187067,43.3016902,0 -112.1866373,43.3020755,0 -112.1860847,43.3025732,0 -112.1854045,43.3031967,0 -112.1846621,43.3038478,0 -112.1838711,43.3045454,0 -112.1837523,43.3046501,0 -112.1831343,43.3052021,0 -112.1828232,43.3054788,0 -112.1819155,43.3062814,0 -112.179354,43.3085713,0 -112.1792387,43.3087329,0 -112.1788792,43.3092419,0 -112.1773048,43.3114489,0 -112.1771566,43.3116462,0 -112.1765742,43.3124212,0 -112.1754922,43.3138084,0 -112.1738517,43.3158533,0 -112.1728513,43.3171267999999,0 -112.1721332,43.3180315999999,0 -112.1720789,43.3181014,0 -112.171973,43.3182375,0 -112.1719082,43.3183207,0 -112.1713927,43.3190237,0 -112.1703386,43.3204201,0 -112.1699432,43.3209434,0 -112.1689138,43.3221744,0 -112.1686257,43.3225506,0 -112.1678661,43.3235044,0 -112.1659419,43.3260226,0 -112.1648969,43.3273916,0 -112.1614165,43.3319099,0 -112.1603323,43.3332182,0 -112.1596601,43.334166,0 -112.1591307,43.3349128,0 -112.1584365,43.335779,0 -112.1577939,43.336655,0 -112.1577585,43.3366984,0 -112.1576397,43.336844,0 -112.1575208,43.3369897,0 -112.1557704,43.3392777,0 -112.1548799,43.3404239,0 -112.1536198,43.3421066,0 -112.1492784,43.3476939,0 -112.1462695,43.3516408,0 -112.1437118,43.3548978,0 -112.1388919,43.3611976,0 -112.1381382,43.362183,0 -112.1344975,43.3669264,0 -112.1342975,43.3671719,0 -112.1341608,43.3673584,0 -112.1339118,43.3676611,0 -112.1329618,43.3689102,0 -112.1319907,43.3701728,0 -112.1318853,43.3703072,0 -112.1317229,43.3705143,0 -112.1306571,43.3719036,0 -112.130331,43.3723179,0 -112.1300603,43.3726617,0 -112.1297412,43.3730672,0 -112.1296324,43.3732059,0 -112.1294223,43.3734674,0 -112.1292257,43.3737121,0 -112.1289088,43.3741284,0 -112.1288097,43.3742585,0 -112.1287185,43.3743951000001,0 -112.1284746,43.3747605,0 -112.1282311,43.375126,0 -112.1281897,43.3751883000001,0 -112.1279498,43.3755495,0 -112.1278491,43.3756922,0 -112.127408,43.3763176,0 -112.1264507,43.3775689,0 -112.1261581,43.3779514,0 -112.1260726,43.3780743,0 -112.1258838,43.3783457,0 -112.1257795,43.3784956,0 -112.1256753,43.3786454,0 -112.1254738,43.3788935,0 -112.1248582,43.3796514,0 -112.1245943,43.3799726,0 -112.1242523,43.3803889000001,0 -112.1236671,43.3811012,0 -112.123561,43.3812304,0 -112.1234329,43.3813863,0 -112.1232161,43.381662,0 -112.1227996,43.3821916,0 -112.1220972,43.3830862,0 -112.1216554,43.3837445,0 -112.1207666,43.3848625,0 -112.1202735,43.3855063,0 -112.1195863,43.386419,0 -112.1192516,43.386845,0 -112.1190782,43.3870661,0 -112.1189469,43.3872346,0 -112.1183236,43.3880493,0 -112.1180328,43.3884524,0 -112.1175972,43.3890551,0 -112.1172621,43.3894797,0 -112.1171176,43.3896636,0 -112.1168733,43.3899805,0 -112.1168408,43.3900226,0 -112.1168086,43.3900644,0 -112.1165265,43.3903981,0 -112.1162609,43.390761,0 -112.115924,43.3912062,0 -112.1155839,43.3916592,0 -112.1153484,43.3919702,0 -112.1151923,43.3921667,0 -112.1146578,43.3928492,0 -112.1133679,43.3944709,0 -112.1123128,43.3958426,0 -112.1121506,43.3960456,0 -112.1120201,43.3962098,0 -112.1103634,43.3982936,0 -112.109717,43.3991332,0 -112.1090464,43.4000174,0 -112.1067167,43.4030892,0 -112.1047908,43.4054557,0 -112.1039899,43.4065617,0 -112.1038242,43.4067678999999,0 -112.101776,43.4094448,0 -112.101152,43.4102650000001,0 -112.098232,43.414026,0 -112.097585,43.4148879999999,0 -112.096705,43.4159970000001,0 -112.096111,43.416798,0 -112.095766,43.417237,0 -112.095685,43.417341,0 -112.095558,43.417505,0 -112.095461,43.41763,0 -112.095308,43.417828,0 -112.094789,43.4185069999999,0 -112.0941,43.419396,0 -112.093994,43.419534,0 -112.093333,43.420409,0 -112.092354,43.42167,0 -112.091729,43.4224669999999,0 -112.090979,43.423462,0 -112.090596,43.423957,0 -112.0898921,43.4248949,0 -112.0896271,43.4252325,0 -112.088606,43.426534,0 -112.088269,43.426977,0 -112.086881,43.428765,0 -112.085836,43.43013,0 -112.085388,43.43071,0 -112.085022,43.431166,0 -112.084265,43.432156,0 -112.0839632,43.4325473,0 -112.082019,43.435068,0 -112.081358,43.435904,0 -112.080744,43.436722,0 -112.080514,43.437014,0 -112.080142,43.437539,0 -112.079824,43.43799,0 -112.0796509,43.4382142999999,0 -112.079399,43.4385408,0 -112.0791308,43.4388784,0 -112.0788332,43.4392809,0 -112.0787121,43.4394897000001,0 -112.0784487,43.4398846,0 -112.0782947,43.4401360000001,0 -112.0778246,43.4407671,0 -112.0768546,43.4419115000001,0 -112.0759286,43.4430432,0 -112.0756006,43.4434834,0 -112.0754436,43.4436942,0 -112.0748096,43.4445152,0 -112.0740861,43.4453887,0 -112.0740149,43.4454804,0 -112.0738839,43.4456666,0 -112.0732905,43.4464744,0 -112.0730875,43.4467194,0 -112.0724365,43.4475594,0 -112.0720372,43.448077,0 -112.07167,43.4485513,0 -112.0716314,43.4486018,0 -112.0714255,43.4488684,0 -112.0713394,43.4489773,0 -112.0705585,43.4499724,0 -112.0700815,43.4505964,0 -112.0696595,43.4511504,0 -112.0693265,43.4515864,0 -112.0685895,43.4525454,0 -112.0682443,43.4530031,0 -112.0678832,43.4534662,0 -112.067678,43.4537473,0 -112.0674285,43.4540524,0 -112.0663867,43.4553656,0 -112.06488,43.457343,0 -112.0645974,43.4577101,0 -112.0644226,43.4579372,0 -112.0640763,43.4583938,0 -112.0634328,43.4592372,0 -112.0630399,43.4597436,0 -112.062069,43.4610122,0 -112.0613507,43.4619646,0 -112.0612415,43.4620854,0 -112.0591639,43.4647859000001,0 -112.0590566,43.4649278,0 -112.0589258,43.4650664000001,0 -112.0577325,43.4665766,0 -112.057342,43.4670763,0 -112.0571571,43.4673266,0 -112.0571166,43.4673816,0 -112.05659,43.468099,0 -112.056438,43.4682712,0 
				</coordinates>
			</LineString>
		<atom:link rel="app" href="https://www.google.com/earth/about/versions/#earth-pro" title="Google Earth Pro 7.3.6.10201"></atom:link>
	</Placemark>
</Document>
</kml>
