<?xml version="1.0" encoding="UTF-8"?>
<kml xmlns="http://www.opengis.net/kml/2.2" xmlns:gx="http://www.google.com/kml/ext/2.2" xmlns:kml="http://www.opengis.net/kml/2.2" xmlns:atom="http://www.w3.org/2005/Atom">
<Document>
	<name>US.96.kml</name>
	<Placemark>
		<name>US.96</name>
		<LineString>
			<coordinates>
				-93.928755,29.89888,0 -93.9294184,29.8993429,0 -93.92964499999999,29.899501,0 -93.930528,29.900126,0 -93.9310873,29.9005227,0 -93.93133349999999,29.9007008,0 -93.93139800000002,29.900743,0 -93.93149099999999,29.900809,0 -93.9315998,29.9008862,0 -93.93169999999999,29.900957,0 -93.93187310000002,29.9010799,0 -93.9320123,29.9011788,0 -93.93234570000001,29.9014153,0 -93.93287130000002,29.9017882,0 -93.933097,29.901949,0 -93.933959,29.90256,0 -93.93483899999998,29.903185,0 -93.935728,29.903815,0 -93.93616959999999,29.9041301,0 -93.93662500000001,29.904455,0 -93.93731710000002,29.9049459,0 -93.93743910000001,29.9050324,0 -93.93790800000001,29.905365,0 -93.939183,29.906269,0 -93.94029500000001,29.907057,0 -93.94255800000001,29.90867,0 -93.942673,29.908751,0 -93.942863,29.9088867,0 -93.942953,29.908951,0 -93.943076,29.909039,0 -93.94349200000001,29.909336,0 -93.94385499999999,29.9095796,0 -93.9442128,29.9098197,0 -93.94469400000001,29.910192,0 -93.944942,29.910369,0 -93.945621,29.910853,0 -93.946293,29.911332,0 -93.94672799999999,29.911641,0 -93.946759,29.911663,0 -93.948004,29.912643,0 -93.9488025,29.9132805,0 -93.94940799999999,29.913764,0 -93.949701,29.913971,0 -93.95008159999999,29.9142939,0 -93.95033730000002,29.91456,0 -93.95128939999999,29.9152947,0 -93.95165650000001,29.9156045,0 -93.9519095,29.9158207,0 -93.95210769999998,29.9159832,0 -93.9523528,29.9161842,0 -93.95322550000002,29.9168737,0 -93.95362419999998,29.9171992,0 -93.9544339,29.9178724,0 -93.95462190000001,29.9180235,0 -93.95494360000001,29.9182819,0 -93.9554873,29.9187187,0 -93.95560159999999,29.9188105,0 -93.9563917,29.9193788,0 -93.95857199999999,29.920947,0 -93.961832,29.923264,0 -93.96397199999998,29.9247574,0 -93.9640586,29.92482,0 -93.9662239,29.9263529,0 -93.96800020000001,29.9276189,0 -93.97041710000001,29.9293313,0 -93.97417659999999,29.9320074,0 -93.9745733,29.9322887,0 -93.9751073,29.9326652,0 -93.9777526,29.9345545,0 -93.97971769999999,29.9359505,0 -93.9806628,29.9366203,0 -93.98171810000001,29.9373596,0 -93.98243960000001,29.9378729,0 -93.9860372,29.9404298,0 -93.98771400000001,29.941628,0 -93.9901292,29.9433408,0 -93.99137880000001,29.9442225,0 -93.9921126,29.9447282,0 -93.9927356,29.9451396,0 -93.99381579999999,29.9458072,0 -93.99448889999999,29.9462391,0 -93.99525429999998,29.9467243,0 -93.99599940000002,29.9472317,0 -93.99675259999999,29.947762,0 -93.9981894,29.9487775,0 -94.000433,29.9503826,0 -94.0010886,29.9508502,0 -94.0024536,29.9518162,0 -94.00359419999999,29.9526277,0 -94.0043867,29.9531905,0 -94.00506609999999,29.9536807,0 -94.00634839999999,29.9546278,0 -94.0071047,29.9552023,0 -94.0073122,29.9553608,0 -94.007555,29.9555463,0 -94.0086005,29.9563782,0 -94.0100475,29.9575644,0 -94.01077619999998,29.9581833,0 -94.0118804,29.9591725,0 -94.01330110000001,29.9604493,0 -94.01372209999998,29.9608288,0 -94.0141373,29.9612296,0 -94.0146474,29.9617295,0 -94.0159694,29.9630427,0 -94.01650359999999,29.9635979,0 -94.01749599999999,29.9646421,0 -94.0190131,29.966327,0 -94.0195076,29.9668812,0 -94.02054020000001,29.9681125,0 -94.02134929999998,29.9690954,0 -94.0217502,29.9695969,0 -94.0222278,29.9702067,0 -94.02280039999999,29.9709449,0 -94.0231785,29.9714514,0 -94.0236474,29.9720935,0 -94.0239181,29.9724524,0 -94.0247408,29.97361709999999,0 -94.0250393,29.9740686,0 -94.025852,29.9752765,0 -94.0275639,29.9780719,0 -94.02780509999999,29.9784747,0 -94.02876000000001,29.9801336,0 -94.029667,29.9818329,0 -94.0297707,29.9820247,0 -94.03077159999999,29.9839995,0 -94.0312759,29.9849567,0 -94.03227029999999,29.9867716,0 -94.0326043,29.987402,0 -94.03355729999998,29.9891262,0 -94.0336729,29.9893354,0 -94.03522500000001,29.9919951,0 -94.0353456,29.9922017,0 -94.03697290000001,29.995214,0 -94.03785019999999,29.9969593,0 -94.0388021,29.9988578,0 -94.03930219999998,29.9997449,0 -94.04049190000001,30.0019426,0 -94.04291809999998,30.0062308,0 -94.04379870000001,30.0078712,0 -94.04465469999998,30.0094403,0 -94.04613449999998,30.0121229,0 -94.0466986,30.0132262,0 -94.0474316,30.0145257,0 -94.0482669,30.0159526,0 -94.04986390000001,30.0184216,0 -94.0510446,30.0201574,0 -94.05253399999998,30.0221236,0 -94.0537099,30.0235984,0 -94.05386869999998,30.0238045,0 -94.0540194,30.0240191,0 -94.0541443,30.0242109,0 -94.05425889999999,30.0244087,0 -94.05435390000001,30.0245959,0 -94.0544415,30.0247882,0 -94.05452159999999,30.0249896,0 -94.05459980000001,30.025223,0 -94.0548976,30.0261927,0 -94.05541689999998,30.0278241,0 -94.05551579999999,30.0281908,0 -94.05590389999999,30.0295849,0 -94.05610780000001,30.030263,0 -94.05624700000001,30.030654,0 -94.056355,30.030927,0 -94.05648300000001,30.031194,0 -94.05654900000002,30.031314,0 -94.05667699999999,30.03152100000001,0 -94.05689599999999,30.031819,0 -94.05698700000001,30.031931,0 -94.05714500000001,30.032109,0 -94.057277,30.03224,0 -94.057547,30.032483,0 -94.057883,30.032733,0 -94.0580708,30.0328478,0 -94.05827899999998,30.032975,0 -94.05864109999999,30.0331461,0 -94.05955710000001,30.0334303,0 -94.060221,30.033542,0 -94.06058580000001,30.0335715,0 -94.061061,30.0335628,0 -94.062245,30.0334592,0 -94.0630075,30.0333944,0 -94.06434320000001,30.0332713,0 -94.0659161,30.0331446,0 -94.06705700000001,30.033051,0 -94.0680047,30.0329759,0 -94.0704202,30.0327587,0 -94.07306670000001,30.0325183,0 -94.07427560000001,30.0324174,0 -94.0749003,30.0323477,0 -94.07542549999999,30.0322556,0 -94.07608580000002,30.0321063,0 -94.07644670000002,30.0319991,0 -94.0769298,30.0318343,0 -94.078571,30.0311204,0 -94.07915010000001,30.0308969,0 -94.07977179999999,30.0306971,0 -94.0803315,30.0305572,0 -94.0807954,30.0304591,0 -94.08141149999999,30.030354,0 -94.0819934,30.0302916,0 -94.0826893,30.0302597,0 -94.0831223,30.0302653,0 -94.0836175,30.0302757,0 -94.08409460000001,30.0303104,0 -94.0845296,30.030359,0 -94.08498470000002,30.0304302,0 -94.0853937,30.0305013,0 -94.0858267,30.030595,0 -94.0860733,30.030661,0 -94.08669270000001,30.0308346,0 -94.0871839,30.0309769,0 -94.0895574,30.0316587,0 -94.09125950000001,30.0321463,0 -94.09386000000001,30.03288999999999,0 -94.0956375,30.0333833,0 -94.10025160000002,30.0346935,0 -94.10110450000001,30.034935,0 -94.1059486,30.03633749999999,0 -94.10908000000001,30.037232,0 -94.111127,30.037813,0 -94.1153309,30.0389892,0 -94.1162429,30.0392493,0 -94.1180584,30.0397643,0 -94.118735,30.0399387,0 -94.11947560000002,30.0401043,0 -94.1206921,30.0403463,0 -94.1267947,30.0415387,0 -94.129392,30.042054,0 -94.130478,30.042265,0 -94.13135699999998,30.042481,0 -94.1320089,30.0426625,0 -94.1330857,30.0430146,0 -94.133685,30.0432043,0 -94.1342813,30.0434062,0 -94.1346806,30.043556,0 -94.1352813,30.0438231,0 -94.135682,30.0440282,0 -94.13594090000001,30.0441588,0 -94.13616390000001,30.0443138,0 -94.136301,30.0444047,0 -94.13695420000001,30.0448966,0 -94.1388324,30.0463588,0 -94.13956580000001,30.0469007,0 -94.13984640000001,30.0471228,0 -94.14009,30.047344,0 -94.140477,30.047729,0 -94.14073999999999,30.048036,0 -94.1409634,30.0483514,0 -94.1411215,30.0486166,0 -94.14126880000001,30.0488638,0 -94.14137969999999,30.0491262,0 -94.14149690000002,30.0494404,0 -94.14158399999999,30.0496824,0 -94.1416577,30.0499521,0 -94.14171499999999,30.0502379,0 -94.14173809999998,30.0504795,0 -94.14174800000001,30.0507024,0 -94.14175900000001,30.0510457,0 -94.14175069999999,30.0513009,0 -94.1417083,30.0516298,0 -94.1416631,30.0519155,0 -94.14156800000001,30.0522509,0 -94.14141839999999,30.0525965,0 -94.14136999999999,30.05274,0 -94.14099499999999,30.05345000000001,0 -94.1405211,30.0541212,0 -94.1399838,30.0546651,0 -94.13962169999999,30.0550759,0 -94.13936289999998,30.0553322,0 -94.13876320000001,30.0559016,0 -94.13745999999999,30.057208,0 -94.13696600000002,30.057741,0 -94.136359,30.05846500000001,0 -94.13607500000001,30.058878,0 -94.13574800000001,30.059425,0 -94.135305,30.060314,0 -94.135204,30.060574,0 -94.13494900000001,30.061226,0 -94.13475099999999,30.061899,0 -94.1346518,30.0625172,0 -94.13457750000001,30.0629476,0 -94.13448500000001,30.063854,0 -94.13448800000002,30.064573,0 -94.13449570000002,30.0650229,0 -94.134519,30.066377,0 -94.13455870000001,30.0678898,0 -94.13456890000002,30.0685729,0 -94.13457080000001,30.0687168,0 -94.1346231,30.0709569,0 -94.1346238,30.0712304,0 -94.13464490000001,30.0714965,0 -94.134668,30.0718254,0 -94.13470770000001,30.0723898,0 -94.1347595,30.0728185,0 -94.13480749999999,30.0731352,0 -94.1348675,30.0735242,0 -94.1350138,30.0743786,0 -94.1351844,30.0752614,0 -94.1353056,30.0758761,0 -94.13537169999999,30.0762164,0 -94.13544419999999,30.0766205,0 -94.13555890000001,30.0774731,0 -94.1356596,30.0785169,0 -94.1356856,30.0788087,0 -94.13568999999998,30.0791702,0 -94.1357332,30.0806882,0 -94.1357447,30.0814681,0 -94.135757,30.0820787,0 -94.13582210000001,30.0834973,0 -94.13583060000001,30.0840302,0 -94.13584,30.0849169,0 -94.1358414,30.0851943,0 -94.1358472,30.0858254,0 -94.13587380000001,30.0865832,0 -94.13591340000001,30.087175,0 -94.13593520000001,30.0878054,0 -94.135955,30.0888101,0 -94.1358899,30.0890127,0 -94.13588230000001,30.0891682,0 -94.1358659,30.089802,0 -94.13576,30.091227,0 -94.1358211,30.0927174,0 -94.1358407,30.093593,0 -94.13586170000001,30.0941924,0 -94.13587099999999,30.0948195,0 -94.1358903,30.0954519,0 -94.13590139999999,30.0959095,0 -94.13591169999998,30.0963211,0 -94.13593400000001,30.0971181,0 -94.13598200000001,30.0978011,0 -94.1360346,30.0982618,0 -94.13613170000001,30.0988221,0 -94.1363331,30.0999848,0 -94.1364155,30.1006675,0 -94.1364997,30.1014802,0 -94.13653320000002,30.1019266,0 -94.1366218,30.1042044,0 -94.13663029999999,30.1047469,0 -94.13663219999999,30.105048,0 -94.13663370000002,30.1052831,0 -94.1366379,30.1054739,0 -94.1366465,30.1056823,0 -94.13665880000001,30.1061327,0 -94.1367235,30.1067595,0 -94.1367444,30.1069708,0 -94.1368174,30.1072373,0 -94.1369222,30.107701,0 -94.1369943,30.1079342,0 -94.13710270000001,30.1082498,0 -94.13719570000001,30.1084886,0 -94.13730700000001,30.1087455,0 -94.1374804,30.109095,0 -94.13766979999998,30.109426,0 -94.13780060000001,30.1096444,0 -94.13796499999999,30.109895,0 -94.1381528,30.1101431,0 -94.13852679999999,30.1106116,0 -94.13863910000001,30.110739,0 -94.1388199,30.1109253,0 -94.13935530000001,30.1114584,0 -94.1410042,30.113083,0 -94.14184999999999,30.113939,0 -94.14277200000001,30.114836,0 -94.1449393,30.1169595,0 -94.14544789999998,30.1174607,0 -94.1472933,30.1192839,0 -94.14805040000002,30.1200319,0 -94.14984750000001,30.1217855,0 -94.151,30.1229339,0 -94.15147300000001,30.123381,0 -94.1518566,30.1237364,0 -94.152315,30.1240998,0 -94.15281359999999,30.1244647,0 -94.15299080000001,30.1245807,0 -94.15329389999998,30.1247791,0 -94.15398980000001,30.125174,0 -94.1556831,30.1259839,0 -94.15672630000002,30.1264881,0 -94.15689449999999,30.1265726,0 -94.15800199999998,30.127118,0 -94.159496,30.127831,0 -94.15979100000001,30.127972,0 -94.16061800000001,30.128413,0 -94.16162400000002,30.128972,0 -94.16189900000001,30.129141,0 -94.16220800000001,30.129332,0 -94.162817,30.129764,0 -94.16289800000001,30.129821,0 -94.16502820000001,30.1315388,0 -94.16686919999999,30.1330283,0 -94.1678596,30.133831,0 -94.16891399999999,30.134696,0 -94.17001500000001,30.135573,0 -94.17132720000001,30.1366364,0 -94.1718322,30.1370742,0 -94.172495,30.13769,0 -94.17282400000001,30.1380415,0 -94.17307459999999,30.1383229,0 -94.173379,30.13868,0 -94.17405680000002,30.139519,0 -94.17453329999999,30.140132,0 -94.17531830000001,30.1411061,0 -94.175945,30.14189,0 -94.1759843,30.1419274,0 -94.17673000000001,30.1429,0 -94.177089,30.143377,0 -94.177325,30.14372,0 -94.1774709,30.1439465,0 -94.177786,30.144436,0 -94.17805599999998,30.144923,0 -94.17821499999999,30.145219,0 -94.17855400000001,30.145887,0 -94.17904300000001,30.14714,0 -94.179215,30.147657,0 -94.17931900000002,30.148059,0 -94.17944599999998,30.148508,0 -94.17958,30.149104,0 -94.1797016,30.1496885,0 -94.1799929,30.1509616,0 -94.1803273,30.1523372,0 -94.18063520000001,30.1536769,0 -94.180682,30.1538877,0 -94.180853,30.154658,0 -94.1812465,30.1562997,0 -94.18148170000001,30.1572962,0 -94.1816795,30.1582283,0 -94.1818073,30.1587624,0 -94.18196159999999,30.15944199999999,0 -94.1821618,30.1603141,0 -94.18243900000002,30.161521,0 -94.18275920000001,30.16294419999999,0 -94.1828388,30.1632594,0 -94.18311300000001,30.164453,0 -94.1834132,30.1657325,0 -94.18365600000001,30.166767,0 -94.1837641,30.167259,0 -94.18394600000001,30.168084,0 -94.18398710000001,30.168263,0 -94.18446760000002,30.1703573,0 -94.184771,30.1716795,0 -94.185202,30.173558,0 -94.18548300000002,30.174917,0 -94.185593,30.175451,0 -94.185772,30.176475,0 -94.18588560000001,30.1772603,0 -94.1860332,30.178616,0 -94.18626089999999,30.1803317,0 -94.18638319999999,30.1811207,0 -94.1865208,30.1821608,0 -94.18671889999999,30.1836819,0 -94.18681350000001,30.1844497,0 -94.18693070000002,30.1850558,0 -94.18720089999999,30.18613909999999,0 -94.1873667,30.1866506,0 -94.18754360000001,30.1871454,0 -94.1877982,30.187784,0 -94.18836160000001,30.1891587,0 -94.18864209999998,30.1898488,0 -94.18941719999999,30.1917451,0 -94.18985090000001,30.1928041,0 -94.1899386,30.193057,0 -94.190245,30.193903,0 -94.190304,30.194131,0 -94.190349,30.194306,0 -94.190485,30.194829,0 -94.19053,30.195003,0 -94.19070000000002,30.19611,0 -94.19071700000001,30.196223,0 -94.190825,30.197333,0 -94.1908201,30.1997766,0 -94.19082400000001,30.200696,0 -94.1908255,30.201032,0 -94.19082590000001,30.201143,0 -94.1908261,30.20119,0 -94.1908267,30.20133,0 -94.19082760000001,30.201533,0 -94.19083240000001,30.2026626,0 -94.190837,30.20318,0 -94.19086399999999,30.204185,0 -94.1908511,30.2062287,0 -94.1908552,30.2072674,0 -94.1908785,30.2076508,0 -94.190921,30.208068,0 -94.19099899999999,30.208596,0 -94.19115499999999,30.209607,0 -94.19124600000001,30.210192,0 -94.191293,30.210494,0 -94.1913638,30.2109286,0 -94.19145499999999,30.2115251,0 -94.19166199999999,30.212888,0 -94.19187999999998,30.214309,0 -94.192187,30.216359,0 -94.19220199999999,30.216456,0 -94.19236909999999,30.2175298,0 -94.19256540000001,30.2187095,0 -94.19260360000001,30.2189392,0 -94.19270099999999,30.219592,0 -94.19273199999999,30.219787,0 -94.19277099999999,30.220604,0 -94.192778,30.220699,0 -94.192938,30.22288,0 -94.19302,30.223423,0 -94.19314100000001,30.224227,0 -94.19315699999999,30.224325,0 -94.19319799999998,30.224578,0 -94.19332199999999,30.225334,0 -94.19336300000001,30.225586,0 -94.193417,30.225916,0 -94.193538,30.22666,0 -94.19357500000001,30.226903,0 -94.19362599999999,30.227232,0 -94.193665,30.227488,0 -94.193782,30.228253,0 -94.19382060000001,30.2284937,0 -94.19383500000002,30.228598,0 -94.19387699999999,30.228867,0 -94.19389099999999,30.228956,0 -94.19391899999999,30.229129,0 -94.194001,30.229644,0 -94.194028,30.229815,0 -94.1940615,30.2300286,0 -94.19406499999999,30.230051,0 -94.19416900000002,30.230703,0 -94.194176,30.230759,0 -94.1942008,30.2309708,0 -94.19423800000001,30.231283,0 -94.194256,30.231435,0 -94.194351,30.232143,0 -94.19439,30.2324276,0 -94.1944879,30.2326821,0 -94.1945158,30.2328835,0 -94.19454140000001,30.2330271,0 -94.1945533,30.2331072,0 -94.19462350000001,30.2335504,0 -94.1947211,30.2341661,0 -94.19485319999998,30.23499989999999,0 -94.19486499999998,30.2350747,0 -94.19490030000001,30.2352975,0 -94.19496210000001,30.2356871,0 -94.19502180000001,30.2360636,0 -94.1950446,30.236208,0 -94.19509159999998,30.2365044,0 -94.1952247,30.23734,0 -94.19524440000001,30.2374688,0 -94.195274,30.2376555,0 -94.19537750000001,30.2383089,0 -94.1954119,30.2385261,0 -94.1954837,30.2389792,0 -94.19550960000001,30.2391473,0 -94.19555099999999,30.239416,0 -94.1955815,30.2396159,0 -94.19560699999998,30.2397832,0 -94.1956496,30.2400622,0 -94.195763,30.240806,0 -94.19579729999998,30.2410228,0 -94.1958774,30.241528,0 -94.19591440000001,30.2417616,0 -94.19594499999999,30.2419549,0 -94.1959499,30.2419844,0 -94.1960225,30.2424441,0 -94.19608599999999,30.242845,0 -94.1961745,30.2433996,0 -94.19621300000001,30.243641,0 -94.19627699999999,30.24406,0 -94.19632729999999,30.2443914,0 -94.1963827,30.2447568,0 -94.19646800000001,30.245319,0 -94.1965139,30.2456194,0 -94.196532,30.245738,0 -94.1966738,30.2464801,0 -94.19676580000001,30.2470954,0 -94.196887,30.247956,0 -94.19692290000002,30.2481665,0 -94.19694699999999,30.24830800000001,0 -94.19705589999998,30.2489675,0 -94.1970681,30.2490561,0 -94.1971155,30.2493803,0 -94.19714280000001,30.2495461,0 -94.19716870000001,30.2497034,0 -94.19721589999999,30.2500061,0 -94.19729700000001,30.2504618,0 -94.19731869999998,30.2505984,0 -94.1973989,30.251102,0 -94.1974428,30.2513777,0 -94.197453,30.2514421,0 -94.1974661,30.2515321,0 -94.1974901,30.2516974,0 -94.1975121,30.2518485,0 -94.1975214,30.2519125,0 -94.19757450000002,30.2522769,0 -94.19757730000001,30.2522906,0 -94.1976311,30.2526335,0 -94.1977009,30.2530786,0 -94.1977691,30.2535134,0 -94.19781209999998,30.2538214,0 -94.1978957,30.2542998,0 -94.19790859999999,30.2543858,0 -94.19794039999999,30.2545965,0 -94.197991,30.2549423,0 -94.1980408,30.2552551,0 -94.19805890000001,30.25536869999999,0 -94.19808580000002,30.2555476,0 -94.19817070000001,30.2561131,0 -94.19822689999999,30.2563974,0 -94.1982893,30.256853,0 -94.19831339999999,30.2569759,0 -94.1983405,30.2571401,0 -94.19839130000001,30.2574484,0 -94.1984654,30.257898,0 -94.19853740000001,30.2583703,0 -94.198612,30.2588093,0 -94.19866599999999,30.2592166,0 -94.19867379999999,30.2592756,0 -94.19872959999999,30.2596172,0 -94.1987919,30.2599826,0 -94.19881689999998,30.2601289,0 -94.1988403,30.2602704,0 -94.1988975,30.2606158,0 -94.1989581,30.2610808,0 -94.19899000000001,30.261267,0 -94.1990581,30.2616643,0 -94.1991299,30.262083,0 -94.19923910000001,30.2627889,0 -94.19938620000001,30.2637402,0 -94.19957410000001,30.2649216,0 -94.19961610000001,30.2652031,0 -94.1997389,30.2659487,0 -94.1997793,30.2662519,0 -94.1998392,30.26682539999999,0 -94.1998541,30.2670303,0 -94.1998672,30.2678245,0 -94.1998601,30.2681215,0 -94.19982480000002,30.2685036,0 -94.19977779999999,30.2688855,0 -94.19970189999999,30.2692817,0 -94.1996206,30.2697186,0 -94.19951,30.2701059,0 -94.19931220000001,30.270733,0 -94.1989755,30.271864,0 -94.19875759999999,30.2725571,0 -94.19866670000002,30.2728464,0 -94.1986263,30.2729822,0 -94.19848500000001,30.2734578,0 -94.19812829999999,30.2745877,0 -94.19721660000002,30.2775076,0 -94.19705960000002,30.2780215,0 -94.19656430000001,30.2796209,0 -94.19644009999999,30.2800341,0 -94.19629759999999,30.2804788,0 -94.19621720000002,30.2807065,0 -94.1961409,30.2808955,0 -94.19596989999999,30.2812635,0 -94.19577539999999,30.2816488,0 -94.19568990000002,30.2817921,0 -94.19558509999999,30.2819626,0 -94.1954929,30.282098,0 -94.19539159999999,30.2822528,0 -94.19518799999999,30.2825447,0 -94.1949824,30.2828139,0 -94.1947737,30.2830654,0 -94.1945951,30.2832887,0 -94.19421490000002,30.2835746,0 -94.19393549999999,30.2838456,0 -94.19356809999999,30.2841806,0 -94.19314830000002,30.2845537,0 -94.19276499999999,30.2849064,0 -94.1890148,30.28827,0 -94.18816649999998,30.2890112,0 -94.18765860000001,30.2894842,0 -94.1872348,30.2899752,0 -94.1869129,30.2903782,0 -94.1866984,30.2907117,0 -94.1863328,30.2914462,0 -94.18623890000001,30.2916376,0 -94.18615469999999,30.2918421,0 -94.18609109999998,30.2920178,0 -94.18596340000002,30.2923647,0 -94.18586019999999,30.292715,0 -94.1857521,30.2931399,0 -94.1856681,30.2935649,0 -94.18530800000001,30.2956273,0 -94.1851448,30.296529,0 -94.18500549999999,30.2974576,0 -94.1849503,30.2981147,0 -94.1849575,30.29861,0 -94.1850271,30.299294,0 -94.18511840000001,30.2998039,0 -94.1852792,30.3003864,0 -94.18543530000001,30.3009273,0 -94.18548199999999,30.3010897,0 -94.1855563,30.3013477,0 -94.18579499999998,30.302161,0 -94.185973,30.302772,0 -94.18626350000001,30.3037627,0 -94.186542,30.3047265,0 -94.18688300000001,30.3058294,0 -94.18706830000001,30.3064832,0 -94.1871721,30.3069103,0 -94.187225,30.3072724,0 -94.1872494,30.3076766,0 -94.18723019999999,30.30810230000001,0 -94.1871781,30.3085442,0 -94.1871029,30.30891220000001,0 -94.18696439999998,30.3093146,0 -94.1868276,30.3096571,0 -94.18647919999998,30.3102558,0 -94.1861949,30.3106865,0 -94.18579739999998,30.3112181,0 -94.18400629999999,30.3136892,0 -94.182767,30.3153869,0 -94.18118989999999,30.317443,0 -94.1805569,30.3181747,0 -94.1799702,30.3187689,0 -94.1797093,30.3190208,0 -94.1792586,30.319422,0 -94.17882660000001,30.3197875,0 -94.17847770000002,30.32005759999999,0 -94.1778532,30.3205271,0 -94.1773769,30.3208418,0 -94.17675389999999,30.3212205,0 -94.1761008,30.3215935,0 -94.17558080000001,30.3218559,0 -94.1751032,30.3220872,0 -94.1750926,30.3220923,0 -94.1745782,30.3223166,0 -94.17360659999999,30.322705,0 -94.17287159999999,30.3229772,0 -94.1716296,30.3234341,0 -94.17040209999999,30.3238684,0 -94.16911800000001,30.3243667,0 -94.16881189999999,30.3244802,0 -94.1669977,30.3251566,0 -94.16614000000001,30.3254764,0 -94.1613306,30.3272656,0 -94.16085399999999,30.327439,0 -94.1603811,30.3276526,0 -94.15988,30.3279095,0 -94.1596363,30.3280408,0 -94.1594358,30.3281628,0 -94.15923869999999,30.328298,0 -94.1590501,30.3284151,0 -94.1588477,30.3285603,0 -94.15858369999999,30.3287521,0 -94.1583265,30.3289672,0 -94.15815789999999,30.3291108,0 -94.1579334,30.32932,0 -94.1577703,30.3294784,0 -94.1572736,30.3300271,0 -94.15679609999999,30.3306753,0 -94.15668939999999,30.3308319,0 -94.1564743,30.3311476,0 -94.15640989999999,30.3312634,0 -94.15618459999999,30.3315921,0 -94.15498100000001,30.3334211,0 -94.15492930000001,30.3334997,0 -94.15468009999999,30.3338912,0 -94.15413590000001,30.3347464,0 -94.15327600000001,30.3360539,0 -94.15235099999998,30.337466,0 -94.15192639999999,30.3381152,0 -94.15076329999999,30.3398791,0 -94.1502574,30.3406592,0 -94.1492557,30.3421936,0 -94.14785760000001,30.3443163,0 -94.14711930000001,30.3454141,0 -94.14687789999999,30.3458117,0 -94.1462956,30.3466937,0 -94.1456254,30.3477301,0 -94.1449779,30.3487233,0 -94.14458060000001,30.3493266,0 -94.14414370000001,30.3499694,0 -94.14348670000001,30.3509949,0 -94.1428938,30.3518535,0 -94.14238709999999,30.3526607,0 -94.14209020000001,30.3531187,0 -94.1419282,30.3533487,0 -94.1417386,30.3535845,0 -94.1414347,30.3539597,0 -94.1412916,30.3541087,0 -94.140981,30.3544128,0 -94.1406054,30.3547354,0 -94.14028930000001,30.3550048,0 -94.13997949999998,30.3552359,0 -94.1394396,30.3555798,0 -94.1393087,30.3556602,0 -94.1390128,30.3558209,0 -94.138766,30.3559468,0 -94.1384977,30.3560707,0 -94.1382289,30.3561912,0 -94.13791589999998,30.356303,0 -94.13762410000001,30.3564061,0 -94.13742490000001,30.3564764,0 -94.1371457,30.3565625,0 -94.1366994,30.356671,0 -94.13643920000001,30.3567295,0 -94.1361576,30.3567847,0 -94.13593,30.35682449999999,0 -94.13561230000002,30.3568705,0 -94.1351998,30.35690870000001,0 -94.1349014,30.356921,0 -94.13454690000002,30.3569346,0 -94.13426,30.3569367,0 -94.13320210000002,30.3569172,0 -94.1330876,30.3569153,0 -94.13238089999999,30.3569097,0 -94.13067169999999,30.35688469999999,0 -94.13006799999999,30.3568791,0 -94.12766330000001,30.3568417,0 -94.126232,30.356821,0 -94.12574900000001,30.356813,0 -94.123667,30.35678800000001,0 -94.1212148,30.3567578,0 -94.11735849999999,30.356702,0 -94.11723710000001,30.3566993,0 -94.1170577,30.3566971,0 -94.11631250000001,30.3566877,0 -94.11128720000002,30.3566513,0 -94.1086214,30.3566117,0 -94.10629,30.356582,0 -94.10487120000001,30.3565583,0 -94.10217070000002,30.3565175,0 -94.10101330000001,30.3565024,0 -94.09855110000001,30.3564572,0 -94.09752730000001,30.3564486,0 -94.0969527,30.3564379,0 -94.09629239999998,30.3564257,0 -94.09117879999999,30.3563632,0 -94.08916309999999,30.3563563,0 -94.08570810000001,30.3562935,0 -94.08474219999999,30.3562798,0 -94.0824375,30.3562126,0 -94.08125939999999,30.3561592,0 -94.0800629,30.356117,0 -94.07964750000001,30.3561023,0 -94.0761019,30.3559396,0 -94.07571350000001,30.3559334,0 -94.0753437,30.355946,0 -94.07496979999999,30.3559749,0 -94.0745957,30.3560184,0 -94.0742193,30.3560848,0 -94.0738475,30.3561727,0 -94.0734798,30.3562754,0 -94.07312349999999,30.3564,0 -94.0727651,30.3565458,0 -94.07241630000001,30.3567055,0 -94.07206960000001,30.3568924,0 -94.07175699999999,30.3570853,0 -94.07144529999998,30.3573013,0 -94.06946500000001,30.3586985,0 -94.0665324,30.3607787,0 -94.0661705,30.3610361,0 -94.06589510000001,30.361228,0 -94.0642507,30.3623738,0 -94.06314890000002,30.3631911,0 -94.06049280000001,30.3650702,0 -94.05745209999999,30.3672445,0 -94.0482277,30.3737967,0 -94.0476243,30.3742218,0 -94.0430216,30.3774825,0 -94.03768339999999,30.3812457,0 -94.03606679999999,30.38237669999999,0 -94.03562789999999,30.3827049,0 -94.035122,30.3831635,0 -94.0344353,30.3838299,0 -94.03087419999999,30.3876551,0 -94.0290387,30.3896236,0 -94.02503129999999,30.3939353,0 -94.0202991,30.3990063,0 -94.01678200000001,30.4027475,0 -94.01638939999999,30.4031438,0 -94.016024,30.4034592,0 -94.0156617,30.403755,0 -94.01470779999998,30.4044347,0 -94.0097446,30.407899,0 -94.0086754,30.4086402,0 -94.00425849999999,30.4117648,0 -93.997361,30.4166205,0 -93.9882989,30.4229947,0 -93.98798450000001,30.4232099,0 -93.9863594,30.4243227,0 -93.98462670000002,30.4255758,0 -93.9824531,30.4270877,0 -93.9821646,30.4272883,0 -93.98190190000001,30.4274806,0 -93.9812046,30.427991,0 -93.9806703,30.4284253,0 -93.980287,30.4287954,0 -93.9798443,30.4292722,0 -93.97951689999999,30.42964660000001,0 -93.97923919999999,30.4300616,0 -93.97734440000001,30.4321818,0 -93.97622389999999,30.4334477,0 -93.9750435,30.4347771,0 -93.97444059999999,30.4354561,0 -93.9743015,30.4356127,0 -93.97400070000002,30.4359455,0 -93.9737523,30.4362284,0 -93.97357409999999,30.4364281,0 -93.97356189999999,30.4364418,0 -93.97182530000002,30.4383916,0 -93.9713398,30.4389296,0 -93.9710795,30.439218,0 -93.9709603,30.4393501,0 -93.97083189999999,30.4394924,0 -93.97055450000001,30.4398012,0 -93.97031979999998,30.4400624,0 -93.97001109999999,30.4404396,0 -93.96968550000001,30.4408944,0 -93.9696728,30.4409153,0 -93.96958319999999,30.441063,0 -93.96949119999999,30.4412147,0 -93.9694212,30.4413299,0 -93.96922709999998,30.4416495,0 -93.96908879999999,30.4419397,0 -93.96900170000001,30.4421225,0 -93.96895539999998,30.442244,0 -93.9689173,30.4423437,0 -93.96877379999999,30.4427202,0 -93.9686591,30.4430624,0 -93.96854820000001,30.4433932,0 -93.96847690000001,30.4435906,0 -93.968408,30.4437812,0 -93.96831779999999,30.4440309,0 -93.96819750000002,30.4443637,0 -93.9681331,30.4445525,0 -93.96787400000001,30.4453113,0 -93.9674308,30.4465969,0 -93.9673262,30.4468949,0 -93.967302,30.4469637,0 -93.96720340000002,30.4472446,0 -93.9671412,30.4474217,0 -93.96713250000001,30.4474466,0 -93.9664543,30.4493786,0 -93.9662828,30.449867,0 -93.966244,30.4499776,0 -93.96588699999998,30.4510203,0 -93.96571890000001,30.45149199999999,0 -93.96565039999999,30.4516842,0 -93.9652786,30.45272750000001,0 -93.9648869,30.4538534,0 -93.9642893,30.4555712,0 -93.96348040000001,30.4578964,0 -93.96308919999998,30.4590211,0 -93.9630665,30.4590863,0 -93.96303589999999,30.4591743,0 -93.962581,30.460482,0 -93.96233650000001,30.4611847,0 -93.96184430000001,30.4625993,0 -93.96128830000001,30.4641974,0 -93.95977070000002,30.468683,0 -93.9595739,30.4692647,0 -93.95925130000001,30.470218,0 -93.9589162,30.4712084,0 -93.95869149999999,30.471848,0 -93.95842389999999,30.4726099,0 -93.95758700000002,30.474992,0 -93.9573666,30.4756192,0 -93.9561429,30.4791022,0 -93.95382720000002,30.4858873,0 -93.9535616,30.4867472,0 -93.9530913,30.4877583,0 -93.9511364,30.4933022,0 -93.95096740000001,30.493777,0 -93.9493911,30.49835390000001,0 -93.9483644,30.501264,0 -93.94816060000001,30.5018671,0 -93.94737480000002,30.5040967,0 -93.9453613,30.5098473,0 -93.94516899999999,30.510418,0 -93.94341220000001,30.5154388,0 -93.94075110000001,30.523136,0 -93.939379,30.5270731,0 -93.9373392,30.5328599,0 -93.9363309,30.535858,0 -93.9351422,30.5392643,0 -93.93434209999999,30.5416029,0 -93.93422790000001,30.5419431,0 -93.9338508,30.5430116,0 -93.93314220000001,30.5450402,0 -93.93272259999999,30.5461848,0 -93.93251499999998,30.546699,0 -93.93165999999998,30.5488176,0 -93.9307062,30.5511527,0 -93.9302991,30.5522636,0 -93.92893549999999,30.5561408,0 -93.92807380000001,30.5586646,0 -93.92595570000002,30.5647195,0 -93.9254459,30.5661972,0 -93.92403110000001,30.5702737,0 -93.9228607,30.5736443,0 -93.9215904,30.5772788,0 -93.91971150000001,30.58266160000001,0 -93.91850479999999,30.5861586,0 -93.91830579999998,30.5868212,0 -93.9179274,30.5881303,0 -93.91750519999999,30.5895508,0 -93.91742290000001,30.5898438,0 -93.91722129999998,30.5907803,0 -93.91671719999998,30.592354,0 -93.915886,30.5946697,0 -93.91572410000001,30.5951332,0 -93.91523429999999,30.5965488,0 -93.91315069999999,30.6025339,0 -93.91141450000001,30.607531,0 -93.9107097,30.6095498,0 -93.90915889999999,30.6139861,0 -93.90869109999998,30.6153141,0 -93.9077332,30.6180713,0 -93.90685399999998,30.620593,0 -93.9063147,30.622141,0 -93.9062646,30.6222751,0 -93.90317100000001,30.6311515,0 -93.9028182,30.6321699,0 -93.9024651,30.6331644,0 -93.90228399999999,30.633693,0 -93.90207529999999,30.6343022,0 -93.90191709999999,30.6347642,0 -93.9011869,30.6368459,0 -93.90043860000002,30.6389983,0 -93.89954779999998,30.641527,0 -93.8993736,30.6420214,0 -93.89920899999998,30.6424953,0 -93.89907789999999,30.6428726,0 -93.89892419999998,30.6433149,0 -93.89876609999999,30.6437693,0 -93.89827330000001,30.6451859,0 -93.89813300000002,30.645588,0 -93.8977593,30.6466577,0 -93.8975923,30.6471428,0 -93.897445,30.6475704,0 -93.89714080000002,30.648427,0 -93.89651189999999,30.6502396,0 -93.896299,30.6508533,0 -93.89620600000001,30.651119,0 -93.8961613,30.6512466,0 -93.8961269,30.6513449,0 -93.8959687,30.6517966,0 -93.89578059999999,30.6523337,0 -93.8955613,30.6529636,0 -93.8949435,30.6547381,0 -93.8944442,30.6561722,0 -93.89433940000002,30.6564735,0 -93.89423069999999,30.6568038,0 -93.8941588,30.6570776,0 -93.89408070000002,30.6574156,0 -93.8940386,30.65771000000001,0 -93.89398989999999,30.6581293,0 -93.89395709999999,30.6586545,0 -93.89395349999999,30.6587349,0 -93.893912,30.659659,0 -93.8938818,30.6606988,0 -93.8938539,30.6616847,0 -93.89382439999999,30.6627298,0 -93.8937969,30.6637025,0 -93.8937774,30.6643923,0 -93.8937682,30.6647191,0 -93.89375239999998,30.6655218,0 -93.8937356,30.6660419,0 -93.89370849999999,30.6669109,0 -93.89367519999999,30.6681674,0 -93.8936497,30.6685591,0 -93.89360029999999,30.6691938,0 -93.89345609999999,30.6701032,0 -93.89298650000001,30.6725875,0 -93.8929728,30.6726522,0 -93.8926567,30.6743057,0 -93.8925905,30.6746973,0 -93.8925667,30.6749823,0 -93.8925395,30.6754381,0 -93.89254969999999,30.675932,0 -93.89259559999999,30.6763894,0 -93.892672,30.6769068,0 -93.8928063,30.6774533,0 -93.89300110000002,30.678047,0 -93.89330630000001,30.6787228,0 -93.89385729999999,30.6796376,0 -93.89396189999999,30.6798017,0 -93.89483009999999,30.6811642,0 -93.89514389999999,30.6816739,0 -93.89583380000001,30.6827672,0 -93.8960184,30.6830561,0 -93.89646740000001,30.6837759,0 -93.9027888,30.6939321,0 -93.90423509999998,30.6962474,0 -93.90501820000001,30.6974588,0 -93.9092436,30.704149,0 -93.90993280000001,30.7052207,0 -93.91085590000002,30.7066938,0 -93.91113940000001,30.707086,0 -93.91175389999999,30.7077737,0 -93.91535410000002,30.7115952,0 -93.9159691,30.712321,0 -93.91625139999999,30.7127389,0 -93.9164653,30.7131002,0 -93.91729789999999,30.7146227,0 -93.9186354,30.7170866,0 -93.91951950000001,30.7186587,0 -93.92330879999999,30.7255968,0 -93.923671,30.7262506,0 -93.92423749999999,30.7273108,0 -93.92591749999998,30.7303422,0 -93.9266374,30.7316649,0 -93.92702580000001,30.7323728,0 -93.9275951,30.7334216,0 -93.92843589999998,30.7349448,0 -93.93061330000002,30.7389854,0 -93.9305908,30.7391224,0 -93.9309882,30.7399058,0 -93.93256439999999,30.743004,0 -93.93350020000001,30.7447685,0 -93.93551480000001,30.7483046,0 -93.93701160000002,30.7508979,0 -93.9376121,30.7519868,0 -93.9386544,30.7538769,0 -93.9392711,30.7549951,0 -93.9398553,30.7560632,0 -93.9407776,30.757744,0 -93.94279680000001,30.761416,0 -93.9444775,30.7644912,0 -93.94661490000001,30.7683521,0 -93.94800979999999,30.7708856,0 -93.95139069999999,30.7770477,0 -93.95454590000001,30.7827568,0 -93.9581665,30.789305,0 -93.9620784,30.7964012,0 -93.96369150000001,30.7992999,0 -93.9649196,30.80150679999999,0 -93.9680335,30.8071357,0 -93.9682761,30.8076005,0 -93.9685616,30.8082288,0 -93.9687309,30.8087287,0 -93.9688487,30.8092038,0 -93.9689437,30.8096277,0 -93.96900709999998,30.810115,0 -93.96907160000001,30.8112049,0 -93.9691705,30.812875,0 -93.96932710000002,30.8150516,0 -93.9698023,30.8221857,0 -93.96996549999999,30.8247439,0 -93.97011599999999,30.8269056,0 -93.9703238,30.8306614,0 -93.97038070000001,30.8316187,0 -93.9704404,30.8327082,0 -93.97047209999999,30.8332869,0 -93.9705074,30.8338324,0 -93.97053570000001,30.8342687,0 -93.97058739999999,30.83528829999999,0 -93.97064039999999,30.8357748,0 -93.9707296,30.8362487,0 -93.97086030000001,30.8367789,0 -93.970973,30.8371611,0 -93.9711607,30.8376332,0 -93.971636,30.8385359,0 -93.97230450000002,30.8396413,0 -93.97278180000001,30.840398,0 -93.97363370000001,30.8417601,0 -93.97415410000002,30.8426191,0 -93.9743184,30.8429434,0 -93.97450069999999,30.843351,0 -93.97478770000001,30.8441961,0 -93.975292,30.8460476,0 -93.975528,30.8469019,0 -93.9757721,30.8478602,0 -93.97594830000001,30.8484982,0 -93.9762496,30.8495755,0 -93.9768291,30.8517138,0 -93.9773385,30.8535729,0 -93.9774807,30.8541048,0 -93.97771460000001,30.8551546,0 -93.9777998,30.8556263,0 -93.97786439999999,30.8560174,0 -93.9778943,30.8562571,0 -93.9779987,30.8571729,0 -93.9780787,30.8580341,0 -93.97826930000001,30.8598842,0 -93.97833589999999,30.8603467,0 -93.9785795,30.8618008,0 -93.9786536,30.8622754,0 -93.97872,30.8626834,0 -93.9787805,30.8627707,0 -93.978818,30.8631891,0 -93.9788373,30.8634046,0 -93.9788878,30.8639055,0 -93.97900540000002,30.8650067,0 -93.97913839999998,30.8657769,0 -93.97928450000001,30.8664681,0 -93.97942090000001,30.8670129,0 -93.97968250000001,30.8678411,0 -93.98023929999999,30.8691889,0 -93.9826552,30.8737545,0 -93.98345930000001,30.875274,0 -93.9839377,30.8761782,0 -93.9844914,30.8772245,0 -93.98551660000001,30.8791617,0 -93.98700349999999,30.8819713,0 -93.98768200000002,30.8832534,0 -93.9887987,30.8853538,0 -93.9895143,30.8867157,0 -93.99077880000002,30.8891049,0 -93.99104079999998,30.8895878,0 -93.99120360000001,30.8898972,0 -93.9918933,30.89116509999999,0 -93.9920592,30.8915416,0 -93.99221060000001,30.8918935,0 -93.9923071,30.8921621,0 -93.9924183,30.8924933,0 -93.9925815,30.8930957,0 -93.9926047,30.8931979,0 -93.99268469999998,30.8935882,0 -93.9927655,30.894095,0 -93.99279539999999,30.8944288,0 -93.99280280000001,30.894511,0 -93.9928333,30.8950415,0 -93.9928515,30.8954683,0 -93.99291669999999,30.8970013,0 -93.992986,30.8986289,0 -93.99302179999998,30.8995002,0 -93.99302780000001,30.8996456,0 -93.9930573,30.9003634,0 -93.9931241,30.9021494,0 -93.99314439999999,30.9027553,0 -93.993184,30.9036,0 -93.993256,30.9042312,0 -93.99333970000001,30.904677,0 -93.9935073,30.9052751,0 -93.99376619999998,30.9059977,0 -93.99385610000002,30.9062485,0 -93.9941184,30.9069807,0 -93.99439340000001,30.90775560000001,0 -93.9945206,30.908114,0 -93.99457539999999,30.9082626,0 -93.99460999999999,30.9083563,0 -93.99469689999999,30.9085921,0 -93.99473740000001,30.9087019,0 -93.994873,30.9090667,0 -93.99492969999999,30.9092193,0 -93.99501619999999,30.9094518,0 -93.9951994,30.9099447,0 -93.9954066,30.9104998,0 -93.995418,30.9105304,0 -93.9954295,30.9105613,0 -93.99552970000002,30.9108298,0 -93.99561050000001,30.9110354,0 -93.99576750000001,30.9115146,0 -93.9957824,30.9115601,0 -93.9957933,30.9115932,0 -93.9958073,30.9116358,0 -93.9958446,30.9117497,0 -93.9959504,30.9121544,0 -93.99604429999999,30.9125132,0 -93.9961364,30.9128656,0 -93.99621740000001,30.9131616,0 -93.99628920000001,30.9134445,0 -93.99634159999998,30.9136511,0 -93.99639120000002,30.9138464,0 -93.99649160000001,30.9142419,0 -93.99653430000001,30.9144487,0 -93.9966154,30.9148656,0 -93.9966725,30.9152597,0 -93.9966988,30.9154396,0 -93.99671210000001,30.9155565,0 -93.9967552,30.9159343,0 -93.9967632,30.9160411,0 -93.99679950000001,30.9165272,0 -93.9968068,30.9166254,0 -93.9968255,30.9169512,0 -93.99682640000002,30.9170416,0 -93.99683290000002,30.917694,0 -93.99683530000001,30.9179359,0 -93.9968439,30.9188033,0 -93.99684840000002,30.9192615,0 -93.99684980000001,30.9197411,0 -93.99685770000001,30.9202078,0 -93.9968599,30.9203341,0 -93.99686309999998,30.9205269,0 -93.9968671,30.920761,0 -93.99687900000001,30.9218369,0 -93.99689069999999,30.9229049,0 -93.996899,30.9239635,0 -93.9969141,30.9250255,0 -93.9969227,30.9258056,0 -93.99694689999998,30.9279885,0 -93.9969521,30.9284616,0 -93.99695530000001,30.928751,0 -93.9969562,30.9288313,0 -93.99695749999999,30.92895,0 -93.99698429999998,30.9313979,0 -93.9969967,30.9325265,0 -93.99700339999998,30.9331291,0 -93.99702730000001,30.9349269,0 -93.99704,30.9364498,0 -93.997058,30.9379559,0 -93.99705509999998,30.9387945,0 -93.99702360000001,30.9393821,0 -93.996962,30.9399832,0 -93.9968717,30.9406709,0 -93.9968185,30.9409481,0 -93.99671170000002,30.941504,0 -93.99662349999998,30.941916,0 -93.99658790000001,30.9420831,0 -93.9964681,30.9426315,0 -93.9964611,30.9426929,0 -93.9963693,30.9431065,0 -93.99527099999999,30.9482942,0 -93.9951863,30.9486944,0 -93.99499340000001,30.9495985,0 -93.9947808,30.9505122,0 -93.9945823,30.9512724,0 -93.9942635,30.9520015,0 -93.9937499,30.9542176,0 -93.99361450000001,30.9548738,0 -93.99357299999998,30.9550745,0 -93.9935347,30.9552602,0 -93.9929748,30.9579271,0 -93.9928985,30.9582487,0 -93.99265250000001,30.9592853,0 -93.9922037,30.9610758,0 -93.99183640000001,30.9625137,0 -93.99133140000001,30.9642598,0 -93.9905093,30.9669512,0 -93.98923910000001,30.9710948,0 -93.98882620000001,30.9724601,0 -93.98860509999999,30.9731911,0 -93.9880009,30.9751575,0 -93.9876833,30.9762077,0 -93.9874447,30.9770875,0 -93.98713430000001,30.978456,0 -93.9869746,30.9793108,0 -93.98547189999998,30.9876649,0 -93.98538979999998,30.9881215,0 -93.98530319999999,30.9886028,0 -93.98523889999998,30.9889604,0 -93.9850039,30.9898144,0 -93.98487009999999,30.99032529999999,0 -93.9845782,30.99161,0 -93.984386,30.9925726,0 -93.9838987,30.9952968,0 -93.9831145,30.9997275,0 -93.982737,31.0018023,0 -93.9824526,31.003408,0 -93.98163959999998,31.008019,0 -93.98028669999999,31.0156238,0 -93.97910779999999,31.022203,0 -93.977969,31.0286459,0 -93.97787510000001,31.02918590000001,0 -93.97781929999999,31.0297316,0 -93.9777768,31.0302525,0 -93.9777522,31.0308346,0 -93.9777565,31.0315922,0 -93.977807,31.0322367,0 -93.97786500000001,31.0329144,0 -93.9779937,31.033705,0 -93.97813320000002,31.0343577,0 -93.9783156,31.0349829,0 -93.97857309999999,31.0358102,0 -93.97901040000001,31.0371064,0 -93.98023059999998,31.0408587,0 -93.9822004,31.0468903,0 -93.9825854,31.0480648,0 -93.9827602,31.04863750000001,0 -93.98289660000002,31.0492529,0 -93.9829888,31.049814,0 -93.98305019999999,31.0503834,0 -93.9830656,31.0509972,0 -93.98307609999999,31.053945,0 -93.98307970000002,31.0549492,0 -93.98308280000001,31.055818,0 -93.9830848,31.05632629999999,0 -93.98308040000001,31.0568124,0 -93.98307840000001,31.0570422,0 -93.98306959999999,31.0580724,0 -93.9830906,31.059257,0 -93.9831049,31.0604125,0 -93.9831689,31.0610147,0 -93.9832638,31.0616009,0 -93.98340210000001,31.0624373,0 -93.98353030000001,31.0630217,0 -93.98363620000002,31.0632734,0 -93.98397919999999,31.0644137,0 -93.9846436,31.0664465,0 -93.9848552,31.0671678,0 -93.9849384,31.0675285,0 -93.984999,31.0677939,0 -93.98507739999999,31.0682308,0 -93.98514249999998,31.0686434,0 -93.9852118,31.0692117,0 -93.98531509999999,31.0700623,0 -93.9857897,31.0742854,0 -93.98580559999999,31.0745054,0 -93.98582509999999,31.0747979,0 -93.9858385,31.0750932,0 -93.98583739999999,31.0752933,0 -93.98584289999998,31.0788412,0 -93.9858163,31.0823929,0 -93.9858148,31.0824963,0 -93.9858077,31.0837501,0 -93.9858045,31.0859687,0 -93.98579340000001,31.0868816,0 -93.985798,31.0896714,0 -93.98580990000001,31.0900344,0 -93.9858313,31.0904182,0 -93.9858646,31.0907889,0 -93.98591490000001,31.091182,0 -93.98598629999999,31.0916807,0 -93.98606789999999,31.0920931,0 -93.9861532,31.0924492,0 -93.98624609999999,31.0928149,0 -93.9871265,31.0960266,0 -93.98720680000001,31.0963437,0 -93.987279,31.096641,0 -93.9873437,31.0969124,0 -93.98748070000001,31.0976913,0 -93.9875488,31.0981536,0 -93.98758290000001,31.0985223,0 -93.9876038,31.0988969,0 -93.98762300000001,31.0993146,0 -93.98763270000001,31.0997781,0 -93.98762349999998,31.1002093,0 -93.9875874,31.1020887,0 -93.98757999999999,31.1045407,0 -93.98768659999999,31.1053856,0 -93.98786509999999,31.1064009,0 -93.9880926,31.1072991,0 -93.9881496,31.1075117,0 -93.9883598,31.1081289,0 -93.9886999,31.1090858,0 -93.9889814,31.1099269,0 -93.9894015,31.1110385,0 -93.989621,31.1117004,0 -93.98987,31.1125251,0 -93.98995050000001,31.1128431,0 -93.9899824,31.1129724,0 -93.9900567,31.1133213,0 -93.99015129999999,31.1138264,0 -93.9901807,31.1139992,0 -93.9902017,31.1141499,0 -93.99021999999999,31.1142803,0 -93.9902542,31.1145255,0 -93.99028410000001,31.1148261,0 -93.9902986,31.1151814,0 -93.99030930000001,31.1154378,0 -93.9903159,31.1156942,0 -93.99032920000001,31.1174123,0 -93.99036670000001,31.1206033,0 -93.990413,31.1230525,0 -93.990455,31.12517250000001,0 -93.99046889999998,31.1259795,0 -93.9904829,31.1268798,0 -93.9905603,31.1316251,0 -93.9905658,31.1319083,0 -93.99060609999999,31.1339929,0 -93.99060269999998,31.1341999,0 -93.9905947,31.1343737,0 -93.9905835,31.1345467,0 -93.99056969999999,31.1347124,0 -93.9905502,31.1348972,0 -93.99052639999999,31.1350912,0 -93.99050560000001,31.1352254,0 -93.99047129999998,31.1354094,0 -93.99042729999998,31.135586,0 -93.99038179999999,31.1357703,0 -93.9903225,31.1359847,0 -93.99028589999999,31.1361002,0 -93.9902536,31.1361982,0 -93.9901157,31.1365789,0 -93.9900537,31.1367272,0 -93.9899605,31.1369357,0 -93.98988460000001,31.1370981,0 -93.9898183,31.137232,0 -93.9897445,31.137367,0 -93.9896632,31.1375094,0 -93.98956229999999,31.1376742,0 -93.9894549,31.1378455,0 -93.98936499999999,31.137984,0 -93.98885729999999,31.1387147,0 -93.98855280000001,31.13915950000001,0 -93.9884948,31.1392379,0 -93.9880605,31.1398243,0 -93.98766770000002,31.1403815,0 -93.9875882,31.1404943,0 -93.98703079999999,31.1412817,0 -93.98679899999999,31.141619,0 -93.98660030000001,31.1418722,0 -93.98501239999999,31.1440852,0 -93.9848515,31.1443056,0 -93.9845866,31.14466699999999,0 -93.98430519999999,31.1450659,0 -93.98408360000001,31.14537410000001,0 -93.98218559999999,31.1480138,0 -93.9815876,31.1488512,0 -93.978427,31.15325,0 -93.9751097,31.1579681,0 -93.97432219999999,31.1590044,0 -93.9738329,31.1596941,0 -93.9727915,31.1611627,0 -93.9725195,31.161635,0 -93.97222769999999,31.1622221,0 -93.97191290000001,31.1631258,0 -93.9717697,31.1638172,0 -93.97168789999999,31.1644648,0 -93.97167760000001,31.1650913,0 -93.97168600000001,31.1663946,0 -93.97169750000002,31.1671916,0 -93.9717167,31.1744911,0 -93.97177360000002,31.1755383,0 -93.97198220000001,31.1768889,0 -93.97204400000001,31.1771798,0 -93.9720923,31.1774131,0 -93.9721874,31.1777563,0 -93.972737,31.179634,0 -93.97317200000001,31.1811635,0 -93.97344950000002,31.1821012,0 -93.97375450000001,31.1831555,0 -93.97407069999998,31.1842428,0 -93.97461169999998,31.1860734,0 -93.9747869,31.1866575,0 -93.97501939999999,31.1874944,0 -93.97541140000001,31.1887976,0 -93.97563340000001,31.1895574,0 -93.9757886,31.1900857,0 -93.976313,31.19187000000001,0 -93.9768505,31.1936885,0 -93.97752029999999,31.19593679999999,0 -93.9776785,31.1963832,0 -93.9777156,31.1964816,0 -93.97809119999999,31.1973841,0 -93.9785894,31.1983517,0 -93.97911689999999,31.1992258,0 -93.97966519999999,31.2000512,0 -93.97985749999999,31.2003423,0 -93.9843918,31.2069969,0 -93.98465830000001,31.2073497,0 -93.98592270000002,31.2092339,0 -93.9863288,31.2098611,0 -93.9865573,31.2102953,0 -93.98684529999998,31.2109807,0 -93.9870109,31.2114848,0 -93.98711900000002,31.2119087,0 -93.98723459999999,31.2125969,0 -93.9872701,31.2131179,0 -93.9872445,31.2139761,0 -93.9865514,31.2205824,0 -93.986468,31.2214103,0 -93.98629560000001,31.2229776,0 -93.9860966,31.224931,0 -93.985958,31.2262199,0 -93.98568589999998,31.2288474,0 -93.98549920000001,31.2306503,0 -93.9850388,31.2351078,0 -93.9847023,31.2382882,0 -93.98469230000001,31.2386272,0 -93.9846994,31.2390833,0 -93.98472080000001,31.2393675,0 -93.98476499999998,31.2397431,0 -93.98481210000001,31.2400834,0 -93.9849176,31.240665,0 -93.98564949999999,31.244874,0 -93.98573210000001,31.245349,0 -93.98573830000001,31.2453849,0 -93.98585919999999,31.2460803,0 -93.9859728,31.2467335,0 -93.98612970000002,31.2476359,0 -93.98635130000001,31.24891,0 -93.98644469999999,31.2495389,0 -93.98646979999999,31.2497744,0 -93.98652629999999,31.250089,0 -93.98654100000002,31.250188,0 -93.986794,31.251484,0 -93.98691599999998,31.25218,0 -93.987168,31.253614,0 -93.987531,31.255788,0 -93.987784,31.257166,0 -93.98789840000002,31.2579254,0 -93.988372,31.260695,0 -93.98860089999998,31.2620652,0 -93.98883910000001,31.2632491,0 -93.98909500000001,31.26443,0 -93.989558,31.267017,0 -93.98980899999998,31.268417,0 -93.99032320000001,31.2716724,0 -93.9906558,31.2735706,0 -93.99138530000002,31.2776511,0 -93.9917286,31.2797967,0 -93.9926191,31.2848214,0 -93.99272640000001,31.2854357,0 -93.9928444,31.28596750000001,0 -93.99301610000002,31.2870036,0 -93.9931127,31.2876178,0 -93.99321990000001,31.2882321,0 -93.99327359999999,31.2885255,0 -93.9933272,31.2889564,0 -93.99345599999999,31.2897816,0 -93.9936276,31.2905701,0 -93.99386370000001,31.2915877,0 -93.994089,31.2926879,0 -93.9942928,31.2933388,0 -93.9944538,31.2937606,0 -93.9946362,31.2943015,0 -93.99498200000001,31.295065,0 -93.9953979,31.2964192,0 -93.99626689999999,31.2987295,0 -93.99762949999999,31.3020664,0 -93.99861660000001,31.3047156,0 -93.9991852,31.3062557,0 -93.9994105,31.3069707,0 -93.999756,31.307942,0 -94.0000864,31.308804,0 -94.0007409,31.3104173,0 -94.00271499999998,31.3157244,0 -94.00392729999999,31.3187491,0 -94.0049788,31.3214346,0 -94.0069099,31.3252014,0 -94.00811160000001,31.3275476,0 -94.0082725,31.32785,0 -94.0094098,31.3299395,0 -94.01041829999998,31.3319374,0 -94.0107938,31.3325514,0 -94.01095470000001,31.3329179,0 -94.01123370000001,31.3335136,0 -94.01144820000002,31.3339718,0 -94.0116106,31.3346083,0 -94.0131434,31.3404964,0 -94.0133421,31.34137640000001,0 -94.013594,31.3422466,0 -94.0137706,31.3430777,0 -94.01409390000001,31.34433,0 -94.0143479,31.3453231,0 -94.0145626,31.3460314,0 -94.01495799999999,31.3468735,0 -94.0151268,31.3472047,0 -94.01554669999999,31.3479001,0 -94.0161689,31.3487248,0 -94.0181323,31.3514552,0 -94.01982750000002,31.3537183,0 -94.0244301,31.3600124,0 -94.02563180000001,31.3617622,0 -94.026887,31.3634662,0 -94.02710159999999,31.3636861,0 -94.02872170000001,31.3660313,0 -94.03190809999998,31.3703002,0 -94.03364620000001,31.3727186,0 -94.03533059999999,31.3750178,0 -94.03617819999999,31.3762452,0 -94.03840979999998,31.3793778,0 -94.0422722,31.384617,0 -94.0435489,31.3863847,0 -94.04638130000001,31.3903138,0 -94.05271130000001,31.3990964,0 -94.0558363,31.4033524,0 -94.05634809999999,31.4041749,0 -94.05665119999999,31.4045924,0 -94.0571528,31.4053008,0 -94.05811919999999,31.4065988,0 -94.05876060000001,31.4075209,0 -94.05952209999998,31.4084757,0 -94.05970480000002,31.4087614,0 -94.06001799999999,31.4092167,0 -94.061418,31.411262,0 -94.06273210000002,31.4129693,0 -94.0639659,31.4146632,0 -94.0652426,31.4164487,0 -94.0658916,31.4172995,0 -94.06594509999999,31.4174054,0 -94.06795319999999,31.4196388,0 -94.0726913,31.42506150000001,0 -94.0727045,31.4250767,0 -94.07460570000001,31.4271871,0 -94.0755723,31.4281398,0 -94.07636840000001,31.4288725,0 -94.07864700000002,31.43052,0 -94.08088530000001,31.4320309,0 -94.0820118,31.4329738,0 -94.0827414,31.4335963,0 -94.0850695,31.4360954,0 -94.08671099999998,31.43798109999999,0 -94.0896829,31.4410842,0 -94.092495,31.444359,0 -94.0979493,31.4499445,0 -94.0981839,31.4501739,0 -94.10205329999999,31.4544658,0 -94.10223569999999,31.4547221,0 -94.1022368,31.4547236,0 -94.1035875,31.4566257,0 -94.104448,31.457855,0 -94.10606000000001,31.459847,0 -94.11161269999999,31.4660153,0 -94.1146382,31.4694103,0 -94.11624999999999,31.4712078,0 -94.11864,31.4738575,0 -94.1197403,31.475115,0 -94.12063860000001,31.4759322,0 -94.1218665,31.4772156,0 -94.12314550000001,31.4786635,0 -94.1240232,31.4799201,0 -94.12513310000001,31.4812366,0 -94.12547430000001,31.4817265,0 -94.12583909999999,31.4823029,0 -94.12617170000001,31.48298,0 -94.12642920000002,31.4836662,0 -94.12655789999999,31.484389,0 -94.1266759,31.485432,0 -94.1266438,31.487024,0 -94.126361,31.4952142,0 -94.12635420000001,31.4958224,0 -94.1262682,31.4978468,0 -94.1262361,31.4992281,0 -94.1262011,31.5004945,0 -94.1260791,31.504443,0 -94.12603610000001,31.5059184,0 -94.12601739999999,31.5064169,0 -94.1260205,31.507161,0 -94.1260308,31.5074975,0 -94.1260817,31.5081109,0 -94.1261083,31.5083942,0 -94.1261434,31.5086573,0 -94.12619669999999,31.5089939,0 -94.1263404,31.5097476,0 -94.1265221,31.5105929,0 -94.12671799999998,31.511435,0 -94.12733990000001,31.5142349,0 -94.1273997,31.5145194,0 -94.1274464,31.5147916,0 -94.1274806,31.5150211,0 -94.127512,31.5153707,0 -94.12751819999998,31.5156561,0 -94.127521,31.5159424,0 -94.12751110000001,31.5161272,0 -94.1274902,31.5163912,0 -94.1274379,31.5167944,0 -94.12737540000001,31.5171984,0 -94.12635950000001,31.5233518,0 -94.1260553,31.5251497,0 -94.1259235,31.5259638,0 -94.12589199999999,31.526201,0 -94.1257476,31.5270122,0 -94.1257165,31.5272436,0 -94.12563239999999,31.5276682,0 -94.12546710000001,31.5286685,0 -94.12538980000001,31.5291365,0 -94.12534180000002,31.5295763,0 -94.12531260000002,31.5299039,0 -94.12530600000001,31.530238,0 -94.12532160000002,31.5305628,0 -94.12532930000002,31.5308214,0 -94.1253622,31.5311308,0 -94.1255276,31.5326209,0 -94.1256284,31.5333691,0 -94.12566089999999,31.5337042,0 -94.12583689999998,31.5355216,0 -94.1260716,31.5376226,0 -94.12622469999999,31.5391057,0 -94.12634009999999,31.5400026,0 -94.1265257,31.5413905,0 -94.12665450000001,31.5422226,0 -94.12717499999999,31.54403,0 -94.12744499999999,31.545046,0 -94.127869,31.546436,0 -94.12817800000001,31.5473886,0 -94.1297122,31.5525544,0 -94.13006170000001,31.5536585,0 -94.13054909999998,31.5554251,0 -94.13124639999999,31.5577564,0 -94.1320511,31.5603436,0 -94.13289,31.563417,0 -94.13406999999999,31.56759,0 -94.134946,31.570453,0 -94.13551649999999,31.5722639,0 -94.1363534,31.57539,0 -94.1373189,31.5785891,0 -94.1378876,31.58055420000001,0 -94.1381129,31.5813585,0 -94.1383811,31.5823456,0 -94.13855330000001,31.5831256,0 -94.1394111,31.5875552,0 -94.13973290000001,31.588597,0 -94.14019430000002,31.5896023,0 -94.14064490000001,31.5903883,0 -94.14229699999999,31.592911,0 -94.14344699999999,31.59469899999999,0 -94.144276,31.596074,0 -94.145293,31.597541,0 -94.146511,31.599421,0 -94.1474255,31.600861,0 -94.1477903,31.6016103,0 -94.14799410000001,31.6022134,0 -94.1481443,31.6027525,0 -94.1486915,31.6050461,0 -94.1490563,31.60648979999999,0 -94.15092310000001,31.6139547,0 -94.15146459999998,31.6160699,0 -94.1515852,31.6171391,0 -94.1515548,31.6177856,0 -94.151481,31.6187057,0 -94.15077290000001,31.6251648,0 -94.1505476,31.6274852,0 -94.1501506,31.630719,0 -94.15012919999998,31.6314498,0 -94.15018279999998,31.6322354,0 -94.1503759,31.633085,0 -94.1509875,31.6355057,0 -94.15186720000001,31.6391685,0 -94.15245729999999,31.6416347,0 -94.15295090000001,31.6437447,0 -94.15373409999999,31.6469962,0 -94.15569739999999,31.6553529,0 -94.1559549,31.6561201,0 -94.15612659999999,31.6566041,0 -94.1563197,31.6570516,0 -94.15648059999998,31.6575356,0 -94.15666299999999,31.6579009,0 -94.15715660000001,31.6589511,0 -94.1575213,31.659773,0 -94.15810070000001,31.6609967,0 -94.1589697,31.6627683,0 -94.16092239999999,31.6672154,0 -94.1619309,31.6694435,0 -94.16268219999999,31.6710378,0 -94.16448440000001,31.6750864,0 -94.1647955,31.675689,0 -94.1650637,31.6763738,0 -94.16525679999999,31.6770586,0 -94.16536409999999,31.6776247,0 -94.16543919999999,31.678346,0 -94.16545000000001,31.6807929,0 -94.16548210000001,31.6816967,0 -94.1655465,31.6845909,0 -94.16556800000001,31.6865447,0 -94.16563230000001,31.6905616,0 -94.1655251,31.6915658,0 -94.16532119999998,31.69257,0 -94.16511740000001,31.6931998,0 -94.16339000000001,31.6998272,0 -94.16328329999999,31.7006647,0 -94.16330499999999,31.7012778,0 -94.1633592,31.7016633,0 -94.1634657,31.7021141,0 -94.16373329999999,31.7028851,0 -94.1654929,31.7068009,0 -94.1659113,31.7078505,0 -94.1672739,31.7110268,0 -94.16813219999999,31.7131169,0 -94.1687974,31.7147598,0 -94.16907629999999,31.7158093,0 -94.16958060000002,31.7185655,0 -94.1698488,31.7202448,0 -94.17076070000002,31.7240686,0 -94.1712328,31.7259211,0 -94.1722413,31.728896,0 -94.172954,31.731157,0 -94.17409739999999,31.7348821,0 -94.17444070000001,31.7361778,0 -94.1752776,31.739563,0 -94.1760393,31.7424462,0 -94.17655429999999,31.7445173,0 -94.17721839999999,31.7469392,0 -94.17731409999999,31.7473417,0 -94.1774673,31.7480116,0 -94.1776067,31.7486819,0 -94.1779329,31.7503494,0 -94.17793020000002,31.7506295,0 -94.17815419999999,31.7518754,0 -94.17828950000001,31.7525581,0 -94.1784504,31.7532916,0 -94.17854299999999,31.7536993,0 -94.17866720000001,31.7542203,0 -94.1788603,31.7549717,0 -94.178884,31.7550579,0 -94.1793602,31.7568858,0 -94.17953830000002,31.7575428,0 -94.1798174,31.7586249,0 -94.17983220000001,31.7586787,0 -94.1801091,31.7596903,0 -94.18043659999999,31.7607677,0 -94.18071620000001,31.7612448,0 -94.18117890000001,31.7628379,0 -94.1816408,31.764634,0 -94.18216730000002,31.7668864,0 -94.1822365,31.7671912,0 -94.1824958,31.768291,0 -94.1830452,31.7705349,0 -94.18387339999998,31.7740379,0 -94.18470350000001,31.777739,0 -94.18503279999999,31.7790438,0 -94.18514810000001,31.7795189,0 -94.18565820000001,31.7818067,0 -94.18573360000001,31.7822071,0 -94.1857704,31.7824556,0 -94.1857918,31.7828295,0 -94.18574889999999,31.7833585,0 -94.1857167,31.7838965,0 -94.1856094,31.7846353,0 -94.18441850000001,31.78835610000001,0 -94.1843324,31.7887,0 -94.1843112,31.7889679,0 -94.1843315,31.7891273,0 -94.1844195,31.7895312,0 -94.18447219999999,31.7897058,0 -94.18456759999999,31.7899134,0 -94.18473760000001,31.7901104,0 -94.1848911,31.7902185,0 -94.185579,31.7906492,0 -94.18578979999999,31.7907812,0 -94.18593529999998,31.7908723,0 -94.1864035,31.7911606,0 -94.18648899999999,31.791219,0 -94.1868647,31.791402,0 -94.18779620000001,31.7919511,0 -94.1886028,31.7925601,0 -94.18884869999999,31.7927841,0 -94.18902809999999,31.793039,0 -94.1891971,31.7933692,0 -94.1893505,31.7937852,0 -94.1895924,31.7945863,0 -94.1906359,31.7982469,0 -94.1906681,31.7983597,0 -94.1909739,31.7995815,0 -94.1910704,31.7999919,0 -94.1911348,31.800466,0 -94.1912099,31.8011681,0 -94.19128499999999,31.8022441,0 -94.19130060000001,31.8024433,0 -94.19132359999999,31.8027386,0 -94.1913763,31.8034129,0 -94.1914196,31.8039668,0 -94.19147809999998,31.804715,0 -94.19156430000001,31.8055807,0 -94.1915961,31.8059004,0 -94.19168199999999,31.806566,0 -94.19178890000001,31.806922,0 -94.19193970000001,31.8073266,0 -94.19213259999998,31.80779679999999,0 -94.19232940000001,31.8082243,0 -94.1925832,31.8088431,0 -94.19274449999999,31.8092094,0 -94.1928399,31.8094262,0 -94.1929054,31.809575,0 -94.19306850000001,31.809895,0 -94.19328350000001,31.8103415,0 -94.1935737,31.8107829,0 -94.19368259999999,31.8109485,0 -94.19373400000001,31.811039,0 -94.193894,31.811187,0 -94.19614900000001,31.813283,0 -94.19695400000001,31.814176,0 -94.197705,31.815482,0 -94.19824939999999,31.8166321,0 -94.1988137,31.8178245,0 -94.19916000000001,31.8185732,0 -94.19927800000001,31.8189379,0 -94.19983000000001,31.8206617,0 -94.20033719999999,31.8222641,0 -94.20121699999999,31.825142,0 -94.201689,31.8264666,0 -94.20259299999999,31.828752,0 -94.20295500000002,31.8293836,0 -94.2043118,31.8316614,0 -94.20494900000001,31.832731,0 -94.20568009999998,31.8339321,0 -94.2060235,31.834561,0 -94.20629169999999,31.8351444,0 -94.2064312,31.8359009,0 -94.2065492,31.8366665,0 -94.20665649999999,31.8397564,0 -94.20661360000001,31.8427732,0 -94.20651700000001,31.8437849,0 -94.20644190000002,31.8449606,0 -94.20638820000001,31.8458811,0 -94.2063067,31.8469451,0 -94.20610600000002,31.849566,0 -94.206093,31.849848,0 -94.20603199999999,31.851225,0 -94.20615220000001,31.8522514,0 -94.20629169999999,31.8533723,0 -94.20653849999999,31.8559149,0 -94.206678,31.858305,0 -94.2069676,31.860298,0 -94.2075255,31.8622116,0 -94.2082336,31.8645534,0 -94.20976779999999,31.8693553,0 -94.210791,31.8727895,0 -94.2118358,31.8761591,0 -94.21198939999999,31.8766411,0 -94.2120705,31.8769349,0 -94.21213080000001,31.8772046,0 -94.2121738,31.877454,0 -94.2121925,31.8777079,0 -94.21219910000001,31.8780064,0 -94.2121872,31.8782295,0 -94.21216200000001,31.8784841,0 -94.21212550000001,31.8787602,0 -94.2120741,31.8790619,0 -94.21192990000002,31.8796936,0 -94.21187820000002,31.8799735,0 -94.2118358,31.8802088,0 -94.21181009999999,31.8804337,0 -94.2117861,31.8806664,0 -94.2117768,31.8810264,0 -94.21178930000001,31.8813207,0 -94.2118171,31.8816847,0 -94.21186160000002,31.8819847,0 -94.211935,31.8823155,0 -94.21201840000001,31.8826117,0 -94.21210259999999,31.8828602,0 -94.2121971,31.8831236,0 -94.2147138,31.8889976,0 -94.2158618,31.891694,0 -94.2170634,31.8945088,0 -94.22009970000001,31.9018868,0 -94.2206791,31.9031437,0 -94.2228999,31.9083261,0 -94.224361,31.911948,0 -94.2252388,31.9140364,0 -94.22592,31.915522,0 -94.22618900000001,31.91598,0 -94.22716999999999,31.9172967,0 -94.22778150000001,31.9179251,0 -94.2289617,31.9195187,0 -94.23254799999998,31.925193,0 -94.23537760000002,31.9296902,0 -94.23654149999999,31.9314387,0 -94.23724439999999,31.9326312,0 -94.23743750000001,31.9330501,0 -94.237577,31.9334871,0 -94.23766280000001,31.9340061,0 -94.23772719999999,31.9347982,0 -94.23765209999999,31.935381,0 -94.23743750000001,31.9361185,0 -94.23718000000001,31.9367467,0 -94.2366865,31.9375479,0 -94.2360535,31.9383765,0 -94.2354986,31.9391199,0 -94.2352617,31.9394542,0 -94.23503870000002,31.9398201,0 -94.2348492,31.9401761,0 -94.2346972,31.9405173,0 -94.23456520000001,31.9408671,0 -94.234477,31.941142,0 -94.23440719999999,31.9414396,0 -94.2343506,31.941706,0 -94.234314,31.9419837,0 -94.2342845,31.9422863,0 -94.2342749,31.9425653,0 -94.2342888,31.9428699,0 -94.23430999999999,31.9431608,0 -94.23434570000001,31.9434546,0 -94.23440479999999,31.9437399,0 -94.2344729,31.9440319,0 -94.2345488,31.9442694,0 -94.23465159999999,31.9445637,0 -94.2347599,31.9448085,0 -94.2348705,31.94504999999999,0 -94.23499449999998,31.9452816,0 -94.2351353,31.945523,0 -94.23525960000001,31.9457161,0 -94.2354144,31.9459376,0 -94.2358928,31.9465663,0 -94.2361918,31.9469655,0 -94.23647079999999,31.9473732,0 
			</coordinates>
		</LineString>
		<atom:link rel="app" href="https://www.google.com/earth/about/versions/#earth-pro" title="Google Earth Pro 7.3.6.10201"></atom:link>
	</Placemark>
</Document>
</kml>
