<?xml version="1.0" encoding="UTF-8"?>
<kml xmlns="http://www.opengis.net/kml/2.2" xmlns:gx="http://www.google.com/kml/ext/2.2" xmlns:kml="http://www.opengis.net/kml/2.2" xmlns:atom="http://www.w3.org/2005/Atom">
<Document>
	<name>US.90A.TX.kml</name>
	<Placemark>
		<name>US.90A.TX</name>
		<LineString>
			<coordinates>
				-98.00108513527407,29.56862636871793,0 -97.99999470786126,29.56896687908213,0 -97.99869172321351,29.56921309798012,0 -97.99738710075451,29.56925578336723,0 -97.99467329113747,29.56922910637274,0 -97.98893668652704,29.56923196131116,0 -97.98439149915627,29.56922000430309,0 -97.97760978787298,29.56928726335206,0 -97.97494447253248,29.56930755009039,0 -97.97364293075937,29.56917954320232,0 -97.97285294434975,29.56903171231887,0 -97.97228224916779,29.56887352732594,0 -97.97120987872594,29.56883051125691,0 -97.96961012543095,29.5688581636535,0 -97.96632004270737,29.56886304744966,0 -97.96461038327205,29.56887556076931,0 -97.95817074711516,29.56895911846042,0 -97.95500803262519,29.56903895670604,0 -97.94740012122222,29.56907574035518,0 -97.94043834797635,29.56910637166234,0 -97.93895011954784,29.5691409494194,0 -97.93789123909504,29.56925871309349,0 -97.93652711912294,29.56957057773452,0 -97.93201152168429,29.57130245335294,0 -97.92565995569595,29.5737306894706,0 -97.92228313469334,29.57502189558933,0 -97.92041932812387,29.57575648624874,0 -97.91956553407395,29.57607746874677,0 -97.91871328518695,29.57626597405101,0 -97.91784339829293,29.57635236962725,0 -97.91470216983389,29.57639410887471,0 -97.91222744900671,29.57643266241814,0 -97.91121284621926,29.57635070572953,0 -97.91041095666247,29.57621929841151,0 -97.90873078453673,29.57582508707866,0 -97.8993024346294,29.57356226637986,0 -97.89565783856878,29.5726778660785,0 -97.89446378948466,29.57229696064946,0 -97.89265031264659,29.57149349053632,0 -97.889129188696,29.5699322087836,0 -97.88644468662852,29.56876272008949,0 -97.88526941782114,29.56836880984941,0 -97.88411156584371,29.5680375688612,0 -97.88276101763583,29.56781589670853,0 -97.88064103431076,29.56778125890194,0 -97.8720677760828,29.56790165890315,0 -97.86262644847145,29.5680700152746,0 -97.85807532538941,29.568111545888,0 -97.81527986507992,29.56781262756557,0 -97.81375204170094,29.56775293613659,0 -97.81241419274617,29.56752127393058,0 -97.81110511553227,29.56709241396314,0 -97.80989893690236,29.56653082232907,0 -97.80545683339912,29.56396485732117,0 -97.79860818887943,29.559946414096,0 -97.79679281801749,29.55898211383964,0 -97.79528301901207,29.5583073925276,0 -97.79349401402358,29.55772694199343,0 -97.7873865963404,29.5558903692773,0 -97.78627746589936,29.55549334206798,0 -97.7850711585467,29.55487316741057,0 -97.78121771111395,29.5527061407266,0 -97.77677179603448,29.55016627326204,0 -97.7752459530175,29.5493043802479,0 -97.77391265813259,29.54877522255649,0 -97.77169871382219,29.54819198110351,0 -97.76799627610515,29.5471483878344,0 -97.76299530868417,29.54575153488722,0 -97.76184261434518,29.54532597753409,0 -97.76040212916463,29.54475192699705,0 -97.75618286676777,29.54302573773379,0 -97.74958589183549,29.54025851380298,0 -97.74822770024365,29.53981009121074,0 -97.74343163324809,29.5384385424623,0 -97.73937420729081,29.53726519729376,0 -97.73674213366832,29.53660736836245,0 -97.73427838339803,29.53606780193434,0 -97.7313506817065,29.53541702431968,0 -97.72890203315889,29.53481241171919,0 -97.72783780710286,29.53449104367596,0 -97.72656862842061,29.53385163684977,0 -97.72442218714255,29.53270786634228,0 -97.72287573246045,29.5319105788769,0 -97.72162297223366,29.53136575312805,0 -97.72034713999621,29.53096888486654,0 -97.71904097009896,29.5307280476904,0 -97.71754119447124,29.53059419394467,0 -97.71418811115207,29.53057694542261,0 -97.70897654915252,29.53053261351162,0 -97.70753275860692,29.53044941780532,0 -97.7063745667752,29.53028665839856,0 -97.70499818170325,29.52993269651274,0 -97.70347941678457,29.5293750967612,0 -97.69676467725704,29.52610530437312,0 -97.6936502908982,29.52458426438564,0 -97.69276356651905,29.5242400257956,0 -97.69179222161334,29.52402539692327,0 -97.69066039260071,29.52393158484738,0 -97.68811071089941,29.52394150232293,0 -97.68654140054439,29.52393270923201,0 -97.68542111289318,29.5237980914359,0 -97.68449003034544,29.52337923178122,0 -97.68333344129825,29.52278093559311,0 -97.68144674916918,29.52181766030067,0 -97.67894948511847,29.52045543535036,0 -97.67813038328136,29.52013126167781,0 -97.67729377035239,29.51986107816242,0 -97.67512391372672,29.51937329325945,0 -97.66949774559139,29.51800600969762,0 -97.66678688345257,29.51736665323786,0 -97.66565102766302,29.51704533952946,0 -97.6644788055394,29.51666010978325,0 -97.66330468007413,29.51617900410546,0 -97.65725004527096,29.51359861499278,0 -97.65475428868463,29.51252524222856,0 -97.65361843425221,29.51216827822078,0 -97.65237881262752,29.5119649079786,0 -97.64623058188856,29.51152346720192,0 -97.64458947019446,29.51142245940123,0 -97.63710515785502,29.51089102493615,0 -97.63364130384268,29.5106578519499,0 -97.61054673090244,29.50805639653131,0 -97.60825621457755,29.50778499594966,0 -97.60703879356471,29.50760151973543,0 -97.60595614009408,29.50738426319568,0 -97.60494676005794,29.50711694522988,0 -97.60258940173421,29.50624400186695,0 -97.59737533755796,29.50409563166995,0 -97.59414680453368,29.50276882505226,0 -97.58640268753963,29.49955784233155,0 -97.58513124226407,29.49903309644447,0 -97.58426021540404,29.49876139295455,0 -97.58324913431171,29.49853850734233,0 -97.58202594405449,29.49842517330311,0 -97.57638921824454,29.49866380697798,0 -97.56342608270408,29.49920936118842,0 -97.55905350202877,29.49939898730863,0 -97.55816768443951,29.49942457518314,0 -97.55728215405998,29.49938715738121,0 -97.55632037611691,29.49925272011189,0 -97.55513200146947,29.4989255885647,0 -97.55349687252014,29.49839785033504,0 -97.55259534211372,29.49810079774748,0 -97.5517535974523,29.49791276547616,0 -97.55007868165269,29.49761178678862,0 -97.54861016340797,29.49735011339255,0 -97.54284206346395,29.49633520301758,0 -97.53868031814332,29.49557608847728,0 -97.53776195390594,29.4954310439598,0 -97.53674713575667,29.49536791876753,0 -97.53548326527689,29.49538922868976,0 -97.53427616332574,29.49560833317548,0 -97.53220970070696,29.49618897984654,0 -97.52510760356527,29.49825106963401,0 -97.52000877323673,29.49966003428949,0 -97.51873877850763,29.50013221204745,0 -97.5176500944342,29.50072083867728,0 -97.51619710447874,29.50196166007155,0 -97.50844489901506,29.50954751501384,0 -97.50680811997751,29.51095264938565,0 -97.50506678419582,29.51207957083709,0 -97.5031971463002,29.51284836372173,0 -97.50147680689453,29.51331120460686,0 -97.49943002693695,29.51358160021674,0 -97.48203410713791,29.51432548432814,0 -97.46782309251508,29.5149487304286,0 -97.46368283858345,29.51514039397249,0 -97.46268804683497,29.51519793311974,0 -97.46201444452038,29.51539354186851,0 -97.46133909137077,29.51556792838042,0 -97.46017549919648,29.51611340190664,0 -97.45826592547562,29.51685487147979,0 -97.4533227313264,29.51876473817214,0 -97.44821357098726,29.52073578116404,0 -97.44469356501483,29.52196843210118,0 -97.44303437804808,29.52256529890881,0 -97.44062325618758,29.52278671644821,0 -97.43837862530751,29.52221802534752,0 -97.43648356123875,29.52113887033176,0 -97.43351198788146,29.51925697747734,0 -97.43125247624006,29.5173404734593,0 -97.42911490109859,29.51550667575357,0 -97.42875359988979,29.51522205036626,0 -97.42632842794694,29.51365720250022,0 -97.42521925534378,29.51298437466483,0 -97.42340747317456,29.5118878323716,0 -97.4226648044615,29.51152049978614,0 -97.42169476014521,29.51134311861479,0 -97.42081615319432,29.51139550468692,0 -97.41938276113402,29.51158338169905,0 -97.41819660874772,29.51171877377844,0 -97.41750303311767,29.51172889461918,0 -97.41669475832907,29.51167880880402,0 -97.41597416191367,29.51158349239259,0 -97.41514878537022,29.51141246284899,0 -97.41403563090356,29.51104486871026,0 -97.41256301139428,29.51042516586828,0 -97.40786724321566,29.50850630312063,0 -97.40175239479859,29.50599226728863,0 -97.3988547182516,29.50479996656765,0 -97.39305172229288,29.50242941720492,0 -97.38838409385266,29.5005071774963,0 -97.38175534826451,29.49779260385606,0 -97.37637053949504,29.49557213861198,0 -97.37328800940912,29.494450475803,0 -97.37047289814329,29.4934655504771,0 -97.36358905709245,29.49104404260583,0 -97.35570151184528,29.48823701417896,0 -97.3454467575289,29.48458995597435,0 -97.33578027764608,29.48116625112516,0 -97.3231656160533,29.47662430152813,0 -97.31482806210006,29.47369431706525,0 -97.30449493195215,29.46995875631061,0 -97.29475623076273,29.46648041464235,0 -97.29369470497301,29.46615185447454,0 -97.29264852031956,29.46587816186623,0 -97.29137921266702,29.4656482751024,0 -97.28739400813757,29.46514075586536,0 -97.28181092849968,29.46437911904798,0 -97.27265173326337,29.46318545380658,0 -97.2677510997264,29.46254579377721,0 -97.26261625496009,29.46210745823318,0 -97.25916116358722,29.46182500096347,0 -97.25705152482763,29.46153718894509,0 -97.2552857180987,29.46115436914551,0 -97.24285133724229,29.45762563307967,0 -97.23583243377604,29.4555971902417,0 -97.21905511789832,29.45078787677806,0 -97.20572694443833,29.44695295089841,0 -97.19295584079755,29.4432670277113,0 -97.18864187721491,29.44196619728318,0 -97.18670700286097,29.4412330211908,0 -97.18487515060295,29.44034851642747,0 -97.1832167757771,29.43939592854796,0 -97.18186550801541,29.43854439635716,0 -97.18060948195152,29.43759397198207,0 -97.17632814297497,29.43384908254387,0 -97.17264383741777,29.43061774913846,0 -97.16565816328381,29.42449936872602,0 -97.16466949684491,29.42366708360052,0 -97.16378145707489,29.42312243223947,0 -97.16280111360319,29.42270799221938,0 -97.16162280004625,29.42246054233249,0 -97.16054262165561,29.42239765798677,0 -97.15932633895164,29.42255574093314,0 -97.14524896300132,29.42481228533287,0 -97.12988663902742,29.42731881347855,0 -97.12562566551011,29.42800221271617,0 -97.11541276412994,29.42962629955958,0 -97.11274145489111,29.43004572660239,0 -97.11137415713345,29.4301799362825,0 -97.1098661623585,29.43027021641399,0 -97.10838752575643,29.43029198722527,0 -97.10651418663863,29.4302802912461,0 -97.10024327106389,29.43002771356106,0 -97.08834898821766,29.42950680829646,0 -97.07133084460661,29.42880172261489,0 -97.04945510380033,29.42787608019507,0 -97.0386278913482,29.42741425204296,0 -97.03181101547388,29.42712770097886,0 -97.02569543973286,29.42687899075655,0 -97.02344571597536,29.42675970862704,0 -97.01403559006191,29.42636473961175,0 -97.00999812137363,29.42620806408528,0 -97.0046409751457,29.42597728372751,0 -97.00336963287724,29.42591059349626,0 -97.002517206877,29.42582990441814,0 -97.00190640028974,29.42575882230989,0 -97.00137859293768,29.42576215395547,0 -97.00106743325489,29.42583338523715,0 -97.0007645062515,29.42597822072654,0 -97.00039550311287,29.42618830696165,0 -96.99983765612376,29.42643807552235,0 -96.99887462254942,29.42676705704155,0 -96.99778472522181,29.42708670128259,0 -96.9970700815517,29.42720845361671,0 -96.99621252715546,29.42730551508814,0 -96.99378928258854,29.42746163242256,0 -96.9925356656551,29.42748484519296,0 -96.99178896938346,29.42762049721645,0 -96.99106258111397,29.42787206863936,0 -96.99036445907808,29.42822260980233,0 -96.98771464254801,29.42989544462392,0 -96.98631917211846,29.43078885801094,0 -96.98541250424631,29.43126952875062,0 -96.98458238273651,29.43161411628832,0 -96.98379809863383,29.4318466228805,0 -96.98287834995006,29.43207013290895,0 -96.98182354533725,29.43218158404843,0 -96.98050517111814,29.43221880296404,0 -96.97586569144853,29.43226364081072,0 -96.97391626960282,29.43228764119375,0 -96.97299164578372,29.43238334043223,0 -96.97199192576407,29.43257950885087,0 -96.97099968542386,29.43287680536579,0 -96.96808532924035,29.43418740946492,0 -96.96136205025941,29.43726337099148,0 -96.95991594468242,29.43786591431577,0 -96.95887895639139,29.43811597969115,0 -96.95680139114235,29.4386099571285,0 -96.95416727332596,29.43922606697974,0 -96.95361926999763,29.43942056571562,0 -96.95101185348375,29.44067587692372,0 -96.94786261151923,29.4421435667425,0 -96.94697666244282,29.44260568024073,0 -96.94651451843906,29.44300983997066,0 -96.94596702221996,29.44332765012357,0 -96.94535174120202,29.44342575881154,0 -96.94444160714635,29.44359752781401,0 -96.94233013600935,29.44389056359457,0 -96.93960096153839,29.44434294659899,0 -96.93047945508238,29.44577918656189,0 -96.92279668266517,29.44704556208276,0 -96.91685531852727,29.44797728294958,0 -96.9153282851681,29.4483135549498,0 -96.91024733261419,29.44963761657458,0 -96.90444761634393,29.45117440227842,0 -96.89785036018762,29.45283478796902,0 -96.89528765970047,29.45339224698922,0 -96.89433926319202,29.45356658657623,0 -96.89340213773551,29.45370523199292,0 -96.89221229631279,29.45374389767854,0 -96.8859736873351,29.45378006951271,0 -96.86746146520332,29.45383195343378,0 -96.85990577004226,29.4538045202678,0 -96.85621290243262,29.45387393653045,0 -96.85477020955122,29.45394980116982,0 -96.85346389473933,29.45403222588819,0 -96.85219957883356,29.45427898450998,0 -96.85093279653657,29.45455624022719,0 -96.84944306145277,29.45497642720639,0 -96.84733895896582,29.45575839757615,0 -96.84280188700284,29.45736567835919,0 -96.83980503918308,29.45843675492304,0 -96.83345637474116,29.46073040120724,0 -96.8318781423518,29.46132194114902,0 -96.8272333369987,29.46271157058362,0 -96.81947363764655,29.46508768154922,0 -96.81481071937017,29.46652132643299,0 -96.79892959439066,29.47139125795213,0 -96.79142100137213,29.47424536348156,0 -96.78942753754394,29.47482434845712,0 -96.77057066917516,29.47911539484743,0 -96.76381264121126,29.48066339212812,0 -96.75879198682178,29.48181019309043,0 -96.74443824910789,29.48507903391185,0 -96.74328335002585,29.48529996481373,0 -96.74220917141641,29.48544770472456,0 -96.74105223759669,29.48552330000533,0 -96.73898693423133,29.48559632602096,0 -96.7305776981962,29.48586360280877,0 -96.72829503742008,29.48595015633024,0 -96.72127351831661,29.48615744923818,0 -96.71123914195995,29.48650143549751,0 -96.70702651295818,29.4866212182133,0 -96.70595933714132,29.48665190231081,0 -96.70509462893546,29.48657004586382,0 -96.70417100868414,29.48640451217168,0 -96.70277479463716,29.48614964069462,0 -96.70046179376577,29.48571041813589,0 -96.69926640256192,29.48553232380681,0 -96.69822518188214,29.48543951875674,0 -96.69715949406296,29.48552224595092,0 -96.69604942627477,29.48574362020991,0 -96.69458769877845,29.48629435130905,0 -96.68950167981984,29.48835797128026,0 -96.68169143142445,29.49151502458005,0 -96.67411568067766,29.49454992865018,0 -96.66322778904487,29.49891294636609,0 -96.6557853544721,29.50193328594615,0 -96.61177298582299,29.51963211923638,0 -96.60300106392228,29.52318394177114,0 -96.58603998994258,29.52997489889977,0 -96.57843821977254,29.53303544190114,0 -96.56513394768547,29.5383719257676,0 -96.55754604089523,29.54141989510647,0 -96.54270739169024,29.54737268273852,0 -96.53165583515454,29.55183558559574,0 -96.52102707203468,29.55611366875169,0 -96.5036880522905,29.56305787372424,0 -96.50143145447721,29.56394824800207,0 -96.49845148355578,29.56513213589215,0 -96.49703285670346,29.56558137454687,0 -96.49545985400688,29.56586443026256,0 -96.49364804287821,29.56608473009837,0 -96.47746668980341,29.56806994449581,0 -96.47303318669788,29.56860794093905,0 -96.47200285120617,29.56864303410692,0 -96.47093758682324,29.56855394779595,0 -96.4699421292855,29.56846570286523,0 -96.46910616498268,29.56842575582057,0 -96.46802139543519,29.56846068364768,0 -96.46124260700363,29.56931370483267,0 -96.4560598067395,29.56997241363079,0 -96.45444834568316,29.57032183056422,0 -96.45278235377967,29.5708328911412,0 -96.45125068870814,29.5711842557526,0 -96.44956436298386,29.57153445520638,0 -96.44757262365266,29.57177850131778,0 -96.43919961919245,29.57277172300991,0 -96.43004787694434,29.57398832392091,0 -96.42774075428169,29.57420560031374,0 -96.42631501090959,29.57455388273916,0 -96.42493055297834,29.57506452682422,0 -96.4226959598322,29.57657869543307,0 -96.41994641229866,29.5784306863704,0 -96.41431184586543,29.58244436848871,0 -96.41087762729462,29.58507488337779,0 -96.40954746961864,29.58593211675662,0 -96.40833902387568,29.58656111749223,0 -96.4068353307789,29.58710146737405,0 -96.40564629509873,29.58740496624965,0 -96.3998107583899,29.58842524593297,0 -96.39260960808815,29.58960675714194,0 -96.39089079369664,29.58989016813945,0 -96.38927640707649,29.5899348536891,0 -96.38752166117364,29.58980088621989,0 -96.37321080292654,29.5886753792654,0 -96.35885149869083,29.58755220930091,0 -96.35740520289971,29.58743727422408,0 -96.35614009981222,29.5871991393023,0 -96.35455620391897,29.58683151015518,0 -96.35081236535875,29.58580936900566,0 -96.3476453940366,29.58489903916149,0 -96.34498607157329,29.58423005783933,0 -96.34333743002551,29.58385638539745,0 -96.34250282209027,29.58376957787469,0 -96.34177258755268,29.58379170826963,0 -96.3409331695826,29.58395177535786,0 -96.34028703855218,29.58420667171697,0 -96.33956372243773,29.58470800176156,0 -96.33739258481387,29.58643248288776,0 -96.33676202181753,29.5868125384128,0 -96.33608083082387,29.58702148999199,0 -96.33556586442837,29.58703075867858,0 -96.33493792589924,29.58693879389161,0 -96.33292863688126,29.58630574297477,0 -96.33234426098092,29.58615706941443,0 -96.33185619106314,29.58613713866751,0 -96.3314840592994,29.58601947705548,0 -96.32945835402592,29.58412440750461,0 -96.32528880337031,29.58024364605823,0 -96.32490100347731,29.57992825869261,0 -96.32444025450769,29.57967407674801,0 -96.32388559928113,29.57965170013205,0 -96.32315318953461,29.57970524768592,0 -96.32234764232118,29.57978879947558,0 -96.32161721697797,29.57978023084879,0 -96.32073987012032,29.57967612322832,0 -96.31924651117632,29.57934761315228,0 -96.30682501609135,29.57634359288365,0 -96.30381612222318,29.57563877703358,0 -96.28287781848351,29.57068761032039,0 -96.24556554209099,29.56186913134092,0 -96.22996672313222,29.55808198182469,0 -96.21230238356797,29.55390272700538,0 -96.1757296636402,29.54513346047584,0 -96.13655062664587,29.53582157734163,0 -96.11432169350482,29.53052331785769,0 -96.10520908981805,29.52833911839377,0 -96.10391415790865,29.52812550058396,0 -96.10214272176758,29.52797856740158,0 -96.10055062503494,29.52796913934538,0 -96.09789960324338,29.52815344741897,0 -96.08026722551797,29.53009788234617,0 -96.05232848241231,29.5332002185746,0 -96.04813494496295,29.53365261940506,0 -96.01951218042656,29.53682626076009,0 -95.99401334550055,29.5396889393718,0 -95.97924212716028,29.5413219687148,0 -95.96712524483701,29.54267557704125,0 -95.95534862704028,29.54401514849998,0 -95.94025226992765,29.54571801458558,0 -95.9218223970435,29.54781509918076,0 -95.89726675867108,29.55065031205123,0 -95.8669853501994,29.554121993158,0 -95.86221205877625,29.55468214169018,0 -95.83314066146922,29.55796485248942,0 -95.8268710324014,29.55869410134546,0 -95.82344728863551,29.55910184400861,0 -95.82175147206952,29.55907540108234,0 -95.82029409788981,29.55884721691364,0 -95.81948454955963,29.55851056280232,0 -95.81859317843444,29.55815562731691,0 -95.81775061593351,29.55765562965317,0 -95.81702861753953,29.5572593895763,0 -95.81623545262886,29.557009418409,0 -95.81387053616791,29.55705993714529,0 -95.80701237965145,29.55720283010402,0 -95.80224293564021,29.55731569251748,0 -95.79849288449061,29.55736779945069,0 -95.79593251574414,29.55742540220032,0 -95.79515652930377,29.55752009030346,0 -95.79465664838345,29.5578720647344,0 -95.79419926523818,29.5582694939811,0 -95.79368472215438,29.55849120162337,0 -95.79308539047977,29.55860452016909,0 -95.7918588625389,29.5588066127131,0 -95.79070838654805,29.559117023096,0 -95.78957181000102,29.55954657480639,0 -95.78860056565836,29.56002142948036,0 -95.7876619789964,29.56057897758741,0 -95.78664189655885,29.56133103962728,0 -95.78524434813917,29.5625676951659,0 -95.78088950008051,29.56664714720855,0 -95.77571926982156,29.5714440283922,0 -95.77452127915249,29.57259331915843,0 -95.77380613532267,29.57357844052505,0 -95.77309830553912,29.57488070568388,0 -95.77243728682485,29.57605491441819,0 -95.77168772979459,29.57717416859988,0 -95.77100527592818,29.57790140595241,0 -95.77023483028086,29.57854699001537,0 -95.76955917884685,29.57891946030048,0 -95.76829018030081,29.57943960725154,0 -95.76717254866729,29.57983244117135,0 -95.76464956161931,29.58091728634108,0 -95.76310461855677,29.58152787099753,0 -95.76084254347323,29.58235713844095,0 -95.76056819128137,29.58237314633102,0 -95.76024185627753,29.58228601493355,0 -95.7599008106657,29.58216561394633,0 -95.75962118212416,29.5820675922771,0 -95.75934204320198,29.58206970658,0 -95.7589912756477,29.58219829105943,0 -95.75520355564009,29.58420576643496,0 -95.7538206069602,29.5849370756794,0 -95.75288785094035,29.58544979005637,0 -95.75195502585093,29.58606552830247,0 -95.74797388127351,29.58934921227674,0 -95.74595294116308,29.59103432506579,0 -95.74307964936644,29.59340687642102,0 -95.74188495292013,29.59431450502902,0 -95.74082929800156,29.59495759342079,0 -95.73935880983733,29.59546453864529,0 -95.73784621465036,29.5958576569334,0 -95.73621199207008,29.59616903765108,0 -95.73367145923341,29.59644536433248,0 -95.72665271089475,29.59721145490823,0 -95.71605244653738,29.59829326309429,0 -95.70579980368757,29.59938900459017,0 -95.69331406185067,29.60077591495734,0 -95.68880625148111,29.60118193095182,0 -95.6867692908267,29.60117014097784,0 -95.68499708716534,29.60137031773685,0 -95.68284381714841,29.60164516691809,0 -95.68145587768261,29.60188536053183,0 -95.67998255563126,29.60211972925625,0 -95.67902888626499,29.60226939332756,0 -95.67731242326069,29.6024528419123,0 -95.67589536603329,29.60271295941659,0 -95.67401076257066,29.60320101613695,0 -95.67038772588175,29.60458029841683,0 -95.66164449863795,29.60767136053557,0 -95.66009115737218,29.60828331173926,0 -95.65721456902298,29.609532162438,0 -95.65319029680002,29.61156106712778,0 -95.64690396395295,29.614493859391,0 -95.64386957778767,29.61611919441465,0 -95.64159937696152,29.61716135121693,0 -95.63901820248857,29.61848089240331,0 -95.63796623391548,29.61892506918068,0 -95.6370615960394,29.61922754147996,0 -95.63570040316037,29.61964754402083,0 -95.63430862353066,29.61994161273002,0 -95.63287408859568,29.62024459185869,0 -95.62996043202432,29.6208664282165,0 -95.62754655539581,29.62133871823345,0 -95.62263057013966,29.62232592491474,0 -95.61445301639563,29.62395448742207,0 -95.60569766375471,29.62568038070818,0 -95.59851840353846,29.62711685732078,0 -95.59470829473263,29.62779445112148,0 -95.59187718595933,29.62832050206987,0 -95.58992561208062,29.62845978738787,0 -95.58792226960817,29.62848220187176,0 -95.58648808568925,29.62828438726655,0 -95.58388833340327,29.62770343043675,0 -95.58179075248468,29.62699699248446,0 -95.57946115889905,29.62593263952987,0 -95.57309081527316,29.62291240684847,0 -95.56693900522379,29.61998548872044,0 -95.56603116217946,29.61949178536469,0 -95.56533315845445,29.61889697704545,0 -95.56450969647233,29.61830002244326,0 -95.56358415790997,29.6175920833029,0 -95.56269665967821,29.6170485768107,0 -95.561476638757,29.61638986962955,0 -95.56050304570859,29.61597252847098,0 -95.5590300897444,29.61541880053729,0 -95.55815704581647,29.61511172865739,0 -95.55684010576604,29.61470312253159,0 -95.55540962159245,29.61442597217114,0 -95.55388529300244,29.61421659261017,0 -95.55227297081184,29.61409607615656,0 -95.5505100629366,29.61414944532974,0 -95.5491632561243,29.61451564026759,0 -95.54704321825558,29.61525393963576,0 -95.53897055810233,29.61833943932064,0 -95.53622695289016,29.61941383223241,0 -95.5283112116375,29.62248722366533,0 -95.51616804196441,29.62703740809359,0 -95.51059868984545,29.62925904865949,0 -95.49992519542732,29.63341005165196,0 -95.49705504984826,29.63453577223175,0 -95.49138304549669,29.63663332896036,0 -95.48794268766271,29.63792991984246,0 -95.48264809761949,29.63999720530154,0 -95.4775856924704,29.6419631612024,0 -95.47133118411357,29.64444608804998,0 -95.4681478973711,29.64567590533733,0 -95.46368672906543,29.64744296351445,0 -95.45514515296979,29.65068018941949,0 -95.45134261868721,29.65216856114157,0 -95.44874803565313,29.65308786877048,0 -95.44707998799696,29.65343093613159,0 -95.44493837364988,29.65382165314003,0 -95.44384091368629,29.65414259878873,0 -95.44291005250687,29.65459222487719,0 -95.44222693948376,29.655370377263,0 -95.44181786300992,29.65634399258644,0 -95.44173297713975,29.65753982740303,0 -95.44167538596133,29.65880573411805,0 -95.44145790669199,29.65978415616917,0 -95.44094247818191,29.66072500947318,0 -95.42979713440596,29.67474778118788,0 -95.42673354900754,29.6787629142103,0 -95.42079035647232,29.68624919087356,0 -95.41818651441713,29.68945629462769,0 -95.41689788213149,29.69121840740771,0 -95.41640118224231,29.69157415003527,0 -95.41596073122437,29.69185999659875,0 -95.41517914493467,29.6922567838812,0 -95.41407449260636,29.69256544910284,0 -95.40782829049496,29.69407184379559,0 -95.39717880784293,29.69660887348665,0 -95.38899567261228,29.6984363629522,0 -95.38155570455399,29.69990161603624,0 -95.37607348334899,29.7009052276539,0 -95.37529214185319,29.70090433421598,0 -95.37464684396141,29.70094526752109,0 -95.3742109427472,29.70095055982672,0 -95.37338664472574,29.70118860638324,0 -95.37274660292131,29.70136702253344,0 -95.37211397923782,29.70148022169463,0 -95.37139338863746,29.70155805341193,0 -95.36995278481443,29.70164353867042,0 -95.3669597196124,29.70182292513568,0 -95.36414813564389,29.70198628453216,0 -95.36190168132833,29.70211223642719,0 -95.35618642457933,29.70242599229115,0 -95.35418502581069,29.70255471013375,0 -95.35329739928814,29.70265205006843,0 -95.35174662787591,29.70297562161908,0 -95.35038257673511,29.7033692115354,0 -95.3472559040941,29.70460027688862,0 -95.3380893128875,29.70815392434461,0 -95.33610399530529,29.70893596555895,0 -95.33502449678785,29.70924779394621,0 -95.33239265942967,29.70981973408639,0 -95.33181946552556,29.71005998047649,0 -95.3299639850467,29.7105025684515,0 -95.32789059881019,29.71094225671165,0 -95.32640161445491,29.71128843922137,0 -95.32560042977947,29.71143215585875,0 -95.32475036827596,29.71142311659081,0 -95.3241850475431,29.71131644269823,0 -95.32324785506449,29.71105922491119,0 -95.32169012494222,29.71061345766666,0 -95.32099811922573,29.71042098001274,0 -95.32048249616028,29.71039484388942,0 -95.31971994732773,29.71052462832543,0 -95.31877190183445,29.71068808737643,0 -95.31820376192928,29.71084431715063,0 -95.31768426708702,29.7110725271339,0 -95.31730849260053,29.71120269435415,0 -95.31698039223649,29.71131319051848,0 -95.31671608066536,29.71159126142896,0 -95.31656147178832,29.71201316855052,0 -95.31623718256199,29.71291098377406,0 -95.31512864434394,29.71565108256042,0 -95.31437286683443,29.71714667049142,0 -95.31322990280279,29.71955389491375,0 -95.3130990696464,29.71989909561012,0 -95.31232699139035,29.72180372628559,0 -95.31207637200866,29.72235598685946,0 -95.31122912063418,29.72445673251802,0 -95.31040547976193,29.72620177661613,0 -95.31018685704221,29.72691740112293,0 -95.30985931879651,29.72786395297189,0 -95.30893231745728,29.73016905148296,0 -95.30831608254245,29.73170128634783,0 -95.307975095499,29.73227332619323,0 -95.30771202832348,29.7329778861846,0 -95.30732533354444,29.73358420805879,0 -95.30681456488868,29.73400304572494,0 -95.30619925147438,29.73429986208447,0 -95.30564696331076,29.73454338121513,0 -95.3051101404576,29.73493854753688,0 -95.3046701979887,29.73551168164657,0 -95.30430376518493,29.73632652963106,0 -95.30361928780579,29.73788288083422,0 -95.30210540218462,29.74155864059368,0 -95.29907524947258,29.74893891908245,0 -95.29830760429095,29.75087898164495,0 -95.29777976045483,29.75195151929075,0 -95.2974537796002,29.75254422837742,0 -95.29639319973444,29.75385879979174,0 -95.29554345898258,29.75490244415282,0 -95.29518526631958,29.75550936841091,0 -95.29497569228087,29.75622564545726,0 -95.29486951883115,29.75701561035923,0 -95.29454986018192,29.75943515273475,0 -95.29445783667053,29.76035312446933,0 -95.29438241177517,29.76167157434289,0 -95.2944330918249,29.76341063648288,0 -95.29449810947625,29.76388852569292,0 -95.29451155773663,29.76583345349478,0 -95.29452707799884,29.76687379807123,0 -95.294376361025,29.7674832815213,0 -95.29381596586573,29.76834960676269,0 -95.29233128435685,29.77051099667366,0 -95.29187260396412,29.7711788563041,0 -95.29155453683001,29.77185734216677,0 -95.29138680339608,29.7725254641086,0 -95.29134639168892,29.77320930767034,0 -95.29136621993887,29.77388731339883,0 -95.29142584229383,29.77531245026857,0 -95.29131702981259,29.77623081561555,0 -95.29125904474711,29.77682615322706,0 -95.29125995034143,29.77743268616824,0 
			</coordinates>
		</LineString>
		<atom:link rel="app" href="https://www.google.com/earth/about/versions/#earth-pro" title="Google Earth Pro 7.3.6.10201"></atom:link>
	</Placemark>
</Document>
</kml>
