<?xml version="1.0" encoding="UTF-8"?>
<kml xmlns="http://www.opengis.net/kml/2.2" xmlns:gx="http://www.google.com/kml/ext/2.2" xmlns:kml="http://www.opengis.net/kml/2.2" xmlns:atom="http://www.w3.org/2005/Atom">
<Document>
	<name>US.97A.kml</name>
	<Placemark>
		<name>US.97A</name>
		<LineString>
			<coordinates>
				-120.3247490125446,47.47219663293329,0 -120.3247838066745,47.47439830307699,0 -120.3246283364778,47.47519667871726,0 -120.3243058901354,47.47583372733205,0 -120.3235894273429,47.47699008351268,0 -120.3209058273151,47.48082741920784,0 -120.3171521259534,47.48627084616558,0 -120.3159749074849,47.48803358700107,0 -120.3153535546587,47.48922698521314,0 -120.3149710261174,47.49017851679982,0 -120.3141098440748,47.49300313331988,0 -120.3128831655141,47.49665847628774,0 -120.3104530916298,47.50343607173934,0 -120.308965190106,47.50773206293729,0 -120.3086781256945,47.50866960761501,0 -120.3085345171978,47.50965166897107,0 -120.3077608770308,47.51492307994984,0 -120.3071043302525,47.51947622112142,0 -120.3069251685042,47.52040188982402,0 -120.3065832815054,47.52172262133081,0 -120.3056052213101,47.52537244526161,0 -120.3053223716966,47.52617543433437,0 -120.3049598938816,47.52697399635959,0 -120.3033097241689,47.53031812663663,0 -120.3028121726707,47.53099392882438,0 -120.3021445687325,47.53169658897128,0 -120.30152792637,47.53213530048141,0 -120.2996966052228,47.53342482891241,0 -120.2992801099585,47.53392125510581,0 -120.2989721527832,47.53439673485681,0 -120.2987363676925,47.53487688378912,0 -120.2984692212272,47.53618328621477,0 -120.2982482323346,47.53697798497488,0 -120.2979518040517,47.53763006405012,0 -120.2973302994868,47.53861580739009,0 -120.2957911641491,47.54066025694814,0 -120.2951431458854,47.54137778305655,0 -120.2938573978336,47.5427172929972,0 -120.2927583114705,47.54379678296942,0 -120.2921905689614,47.54425286428548,0 -120.2915343816931,47.54459759257949,0 -120.2901401089074,47.54510901611822,0 -120.2891865323778,47.54543945982057,0 -120.2885852486766,47.54578949019444,0 -120.2881021749111,47.5462026070243,0 -120.2876774703796,47.54661926114734,0 -120.2871894321707,47.54728634283687,0 -120.2857087462328,47.54957539679181,0 -120.2837392040996,47.55249431535302,0 -120.2834461303809,47.55286410062298,0 -120.2830389372514,47.55321923010754,0 -120.2827197877158,47.55346321580139,0 -120.2824765272238,47.55363822451651,0 -120.2817358361126,47.55398996734005,0 -120.2807752411794,47.5543440985147,0 -120.2758436482143,47.55608247418792,0 -120.2744877827742,47.55673689725113,0 -120.273271968554,47.55745182995821,0 -120.2721281973026,47.55834321328718,0 -120.2714359840725,47.55897610544535,0 -120.2694151948112,47.56106074437706,0 -120.2633857576445,47.56754709541225,0 -120.2614664518113,47.56966763428628,0 -120.2606901570468,47.57079210195968,0 -120.2583056099807,47.57457507382666,0 -120.2558917898931,47.57893524611287,0 -120.2552013947733,47.57977081461918,0 -120.2524989222014,47.58296901969847,0 -120.2493262881001,47.58673091477017,0 -120.2488849926723,47.58744761921885,0 -120.2486247639109,47.58815767804082,0 -120.248209383575,47.58983531942176,0 -120.2474694832751,47.59284581753417,0 -120.247116110081,47.59370608340714,0 -120.2451775789538,47.59685555824522,0 -120.2430127507473,47.60050922422477,0 -120.2427351820517,47.60138920003537,0 -120.24269333781,47.60228498345058,0 -120.2429774627238,47.60489300940263,0 -120.2429868498541,47.60542356881243,0 -120.242768042203,47.60655015403604,0 -120.2412712045108,47.61289573132041,0 -120.2395382513199,47.61987629935652,0 -120.2392261966898,47.62134740278969,0 -120.2392020537031,47.62179093607553,0 -120.2393003853776,47.6225353681174,0 -120.2396853317727,47.62330113005067,0 -120.2405168187499,47.62445958857288,0 -120.2408094881246,47.62499306060072,0 -120.2410797858904,47.62572973868615,0 -120.2416179789819,47.6291468524351,0 -120.2416529265159,47.62988592103998,0 -120.2416101321939,47.63035407192646,0 -120.2414996049122,47.63086546728212,0 -120.2411610283994,47.63172548988848,0 -120.2403820092196,47.63334239705791,0 -120.2392353878369,47.63504667867201,0 -120.2369730688175,47.63840731331551,0 -120.2334316429485,47.64369911186346,0 -120.230882223231,47.64742315351644,0 -120.2301581165907,47.64823601880057,0 -120.2291993230938,47.64909526498223,0 -120.2284535833953,47.64995626675371,0 -120.22814565314,47.65051600435824,0 -120.2279593980019,47.65110092992412,0 -120.2272839115702,47.65469800104378,0 -120.2270003945576,47.65593973771804,0 -120.2266814137576,47.65674774209052,0 -120.2260941887605,47.65775667784194,0 -120.2256728989536,47.65848357409088,0 -120.2253232247459,47.65930852216129,0 -120.225187885933,47.65989680404795,0 -120.2246706680819,47.66277942824345,0 -120.2245356517651,47.66336072552543,0 -120.2243434863607,47.66382082426866,0 -120.2239369656885,47.66439409357023,0 -120.2233790643503,47.66493471509933,0 -120.2213624886583,47.66633438960267,0 -120.2199318007198,47.66748829554198,0 -120.2181026332243,47.66935120427184,0 -120.2166231959821,47.67076063001166,0 -120.2158386994899,47.67140415466033,0 -120.2151275125673,47.67190820229101,0 -120.2143208850528,47.67231352817815,0 -120.2129284175915,47.67292739595153,0 -120.2100891782103,47.67426487623811,0 -120.2093715626757,47.67472953036432,0 -120.2086678579981,47.67526761336159,0 -120.208256440977,47.67577814852201,0 -120.2078955584554,47.67637308518476,0 -120.2076420700929,47.67705660958353,0 -120.2076026031731,47.67766614002958,0 -120.2073620746563,47.68219436768039,0 -120.2073570158798,47.68631008689236,0 -120.207254947682,47.69040774358344,0 -120.2073061505621,47.6909695740725,0 -120.2075267350858,47.69180876626361,0 -120.2081160308667,47.69347727492818,0 -120.2097808901744,47.69817275922055,0 -120.2103676178799,47.69971295737231,0 -120.2106873433213,47.70029138716517,0 -120.2115668178092,47.70138033897764,0 -120.2132995417593,47.70332311459414,0 -120.2136835284698,47.7038538765289,0 -120.2139803643487,47.70437447996323,0 -120.2154360059566,47.70761622114644,0 -120.2161427980047,47.70916835573571,0 -120.2164677195029,47.70956939228749,0 -120.2172032597403,47.71029805468926,0 -120.220548902189,47.71356121358826,0 -120.2221969910465,47.71520484778696,0 -120.2226061498014,47.7157368969486,0 -120.2230638321756,47.71653827118173,0 -120.2236273537694,47.71756492150346,0 -120.2241117341919,47.71828552041538,0 -120.2246981396466,47.71884453726979,0 -120.2269433697451,47.72098171566853,0 -120.2273501658957,47.72142373628448,0 -120.2276027378386,47.72189267547373,0 -120.227813596782,47.72239060195209,0 -120.2279175382894,47.72293692470386,0 -120.2279099749405,47.72337977414415,0 -120.2278020950054,47.72406401534921,0 -120.2272404243608,47.72695980829036,0 -120.2262995971949,47.73188660790295,0 -120.2260757196689,47.73249100870104,0 -120.2255593979375,47.73334872315238,0 -120.2231520254091,47.73729090190912,0 -120.2228546572828,47.73788436095938,0 -120.222240971675,47.73916669999106,0 -120.2216637762396,47.74000484871402,0 -120.219986173561,47.74221615615664,0 -120.2184781515182,47.74380161649279,0 -120.2177478622086,47.7446092607165,0 -120.2170292428414,47.74555601574576,0 -120.2158366966886,47.74762564362354,0 -120.2147981784915,47.74970522790554,0 -120.2143616228236,47.7503216325661,0 -120.2138849352134,47.75084127591858,0 -120.2130445921814,47.751656976652,0 -120.2124501122072,47.75209594563709,0 -120.2116991626913,47.75255423685849,0 -120.2108835880482,47.75293542495719,0 -120.2085177857711,47.75395031414545,0 -120.2075043008649,47.75447861209165,0 -120.2057619387334,47.75552765754774,0 -120.2023035283929,47.75793463515072,0 -120.1999865169278,47.75945928113364,0 -120.1990171519768,47.75997945530655,0 -120.1978288189251,47.76047993430966,0 -120.1966301295345,47.76090506852255,0 -120.1939492466764,47.76172081011209,0 -120.1916372150757,47.76240972137403,0 -120.1859169259933,47.76405945033206,0 -120.1787628409075,47.76614168506024,0 -120.1774696272102,47.76671036532294,0 -120.1755358329824,47.76764852631543,0 -120.1741313577582,47.76832452985719,0 -120.172913322192,47.76877048989789,0 -120.1711525192422,47.76937913674242,0 -120.1695201683367,47.76975747520749,0 -120.1673177051193,47.77017985335375,0 -120.1658553631276,47.77052924502212,0 -120.1648912722525,47.77090313216936,0 -120.1623268349164,47.77190454132689,0 -120.1593428207485,47.77348589747769,0 -120.1572621499772,47.77470287167159,0 -120.1567520190693,47.77495823288413,0 -120.1562904310058,47.77513469768034,0 -120.1557298607468,47.77526305851197,0 -120.1552037997103,47.77533346100137,0 -120.1547065208222,47.77537355591786,0 -120.1542384053382,47.77537409847,0 -120.1535146358306,47.7753421242788,0 -120.1529042343584,47.77534309766379,0 -120.152504135853,47.77536340500319,0 -120.1520989404288,47.77539595278796,0 -120.1517755225377,47.77544852746771,0 -120.151286852901,47.77558156277656,0 -120.1507838455903,47.77576031796646,0 -120.1499499109137,47.77617346099438,0 -120.1487181551212,47.7767972940586,0 -120.1476292787382,47.77727043641751,0 -120.1445594564629,47.77886626173157,0 -120.1436124172708,47.77934818689998,0 -120.1428277516687,47.77984302684335,0 -120.1424080906731,47.78022377537976,0 -120.1416659468096,47.78104106019398,0 -120.140981753506,47.78176003353594,0 -120.1385117238356,47.7845841205106,0 -120.1353567563352,47.78838687618696,0 -120.1349122098561,47.78906410351852,0 -120.1346231240889,47.78967838763571,0 -120.1344622990062,47.79017888580047,0 -120.133948861653,47.79282012486935,0 -120.1328227058497,47.79844395405831,0 -120.1327859856187,47.79893018368131,0 -120.1328172597917,47.80055324842616,0 -120.1330134316336,47.80553661243771,0 -120.1331619412699,47.81008248816064,0 -120.1331524717459,47.8105113440397,0 -120.1330679554193,47.81096030978063,0 -120.1328933819686,47.81145464531655,0 -120.1325043565153,47.81231104663721,0 -120.131340997198,47.8149068444135,0 -120.1299892995958,47.81790973235739,0 -120.129661557124,47.81859535321254,0 -120.1293419334479,47.81907476006965,0 -120.1288768865863,47.81955197788702,0 -120.1282856625369,47.82001880089879,0 -120.1251935374753,47.82221799456724,0 -120.1247036992814,47.82267783587111,0 -120.1241417443045,47.8233787722191,0 -120.1231437026618,47.82477918525829,0 -120.1227618868343,47.82522365690653,0 -120.122130041595,47.825766294166,0 -120.1202517134635,47.82702985387385,0 -120.115582407284,47.83011882316037,0 -120.113784816484,47.83135609574303,0 -120.1133989782358,47.83172827019525,0 -120.1130030898924,47.83221072937934,0 -120.112429813362,47.83294904105107,0 -120.1121021596749,47.83328386615469,0 -120.1115494319304,47.833725707568,0 -120.1089519735012,47.83587116537505,0 -120.1075924964494,47.83723145876193,0 -120.1065838769185,47.83834858034424,0 -120.1050463532339,47.840135766032,0 -120.1045814691076,47.84059590464539,0 -120.104114995475,47.84091584967701,0 -120.1036322719793,47.84115484270307,0 -120.1029721494087,47.84139962289073,0 -120.1024303331821,47.84151453222474,0 -120.1019661428757,47.84157965438762,0 -120.1014716186595,47.84160608371155,0 -120.1009720628516,47.84159420604964,0 -120.1004860190568,47.84155704748059,0 -120.0996952886594,47.84139665929619,0 -120.0991385513941,47.84120549734196,0 -120.098453896156,47.84086795904264,0 -120.0964464111062,47.83979231869263,0 -120.0954130313758,47.83930890267049,0 -120.094981818599,47.83914937878406,0 -120.0945983157168,47.8390755359485,0 -120.0940559691744,47.83902049223252,0 -120.0937397262362,47.83901563922445,0 -120.093391279662,47.83902728125154,0 -120.0929456430939,47.83910539106498,0 -120.0916930616052,47.83946418825091,0 -120.0908058762757,47.83967920940739,0 -120.0902788780099,47.83973057322865,0 -120.0897608108139,47.83970561615506,0 -120.0892130014618,47.83962498089203,0 -120.0886229459037,47.83948422650634,0 -120.0879649085511,47.83929569823565,0 -120.0831593402267,47.83782156081526,0 -120.0776997378803,47.83615001597917,0 -120.076895601543,47.83598039852357,0 -120.0761913413519,47.83585055098964,0 -120.075480606607,47.83572484530896,0 -120.0744237453832,47.83560065364655,0 -120.0734824306477,47.83555631073487,0 -120.072570974835,47.83556339475564,0 -120.0706423903745,47.83567359401329,0 -120.0692141102229,47.83580429044349,0 -120.0682251196062,47.83584836095179,0 -120.0649881833355,47.83594658491198,0 -120.0618256397488,47.83602888457104,0 -120.0596479447039,47.83605430752188,0 -120.058047593228,47.83608447233048,0 -120.0565198682345,47.83616248363572,0 -120.0559246321887,47.83617439279904,0 -120.0553685221377,47.83615293179524,0 -120.0540012747171,47.83598281988877,0 -120.0466420572611,47.83516518720824,0 -120.045673745989,47.83498851505871,0 -120.0438115058587,47.83461889485907,0 -120.0410963161981,47.83427442952699,0 -120.0396790302549,47.83418034475656,0 -120.0392344012367,47.8342285295448,0 -120.0389006236269,47.8343634195066,0 -120.0385433964799,47.83462536663951,0 -120.0383498500415,47.83491114264373,0 -120.0380482464256,47.83539060138674,0 -120.0377542454815,47.83565355139358,0 -120.0374455949274,47.83579308720887,0 -120.0370807663778,47.83591049534129,0 -120.0365610123598,47.83595950781918,0 -120.0358856451819,47.83591057500433,0 -120.0344156588874,47.83578532111286,0 -120.033959411281,47.83580356807926,0 -120.0334814985706,47.83589792664731,0 -120.0323547967441,47.83626657370239,0 -120.031882747886,47.8363737633272,0 -120.0315843007703,47.83640300400664,0 -120.0312299801871,47.83640162281534,0 -120.0304529631465,47.83636378961676,0 -120.0221292753331,47.83593806624096,0 -120.0179605243554,47.83570150489791,0 -120.0176424991858,47.8357473859916,0 -120.0172259863623,47.83589363325765,0 -120.0153748156371,47.83652237456319,0 -120.0151215072162,47.83670521601417,0 -120.0150211965128,47.83685652733787,0 -120.01495331188,47.83713440411106,0 -120.0148846870215,47.83799558817154,0 -120.0147621847319,47.83985932662262,0 -120.0051040207374,47.83962336372075,0 -119.9989297851387,47.83942598920916,0 -119.9964573291182,47.83919483355391,0 -119.9935559092718,47.83899491832776,0 -119.9927532399566,47.8390306375304,0 -119.991925616424,47.83915046588747,0 -119.9912519904158,47.83934181134896,0 -119.9904394584716,47.83973611534103,0 -119.9893403916801,47.84046376684729,0 -119.9888353402615,47.84072328266327,0 -119.9881339553029,47.84097310784744,0 -119.986583177038,47.84137034108066,0 -119.9852027697854,47.84165213465192,0 -119.9839102001862,47.84182869268113,0 -119.982096557587,47.84205004654861,0 -119.981274139649,47.84226019461742,0 -119.9795685503023,47.84285119587502,0 -119.9759333533573,47.84415369424421,0 -119.9740192549647,47.84484763424981,0 -119.9726053230952,47.8455516982367,0 -119.9713977970505,47.84632879444262,0 -119.9705083735638,47.8470117219541,0 -119.9692090081168,47.84834386508955,0 -119.9677243357911,47.84994267419858,0 -119.9661246110941,47.85198408859011,0 -119.9653360162978,47.85282755355252,0 -119.9646448003588,47.85326740434129,0 -119.9637753993846,47.85366714992759,0 -119.9622415743609,47.85417925485901,0 -119.9606819443191,47.85462560996057,0 -119.9598254472489,47.85493623322844,0 -119.9593559831061,47.85514791600144,0 -119.9588093117204,47.85555492305842,0 -119.9583276307775,47.85606484089729,0 -119.9579938169232,47.85661724520266,0 -119.9576188162442,47.85760164239127,0 -119.9572146601049,47.85830402628216,0 -119.9567949968697,47.8588277949863,0 -119.9562181624425,47.85927488284891,0 -119.9552627857727,47.85978532142933,0 -119.9541798492585,47.86014303613719,0 -119.9495648773867,47.86147609514216,0 -119.9478757587821,47.86189786658474,0 -119.9468361068113,47.86204179011414,0 -119.9460085769099,47.86207577104662,0 -119.9428886853991,47.86206019745261,0 -119.9421702901179,47.86210189619875,0 -119.9408483261085,47.86230059531929,0 -119.9393249193871,47.86256468957726,0 -119.9382419583832,47.86274391872274,0 -119.9375488879599,47.86278013290383,0 -119.9368590179754,47.86275972008777,0 -119.9357628642651,47.86266801019039,0 -119.9343549895296,47.86256605810993,0 -119.9334526281635,47.86256008370967,0 -119.9325559180052,47.86262935795664,0 -119.9317850970615,47.86277649191824,0 -119.9308875967923,47.86300913986814,0 -119.9297199939373,47.86352652084033,0 -119.9276870502542,47.86455910188135,0 -119.9258224219322,47.86544821328532,0 -119.9246046097522,47.86626600769714,0 -119.9238815318246,47.866957306729,0 -119.9234545554632,47.8675059340804,0 -119.9223440530839,47.86950443386327,0 -119.9222512289177,47.86985487743845,0 -119.9222474742437,47.87010703770483,0 -119.9224176873329,47.87061641202416,0 -119.9226734123982,47.87173220152852,0 -119.9226928620407,47.87190172149562,0 -119.9226481016539,47.87205130429009,0 -119.9225091832778,47.87221795982309,0 -119.9223154494091,47.87235853904889,0 -119.9220182640463,47.87250973251685,0 -119.9217247717305,47.872585563144,0 -119.9213308674276,47.87261525604903,0 -119.9209856333458,47.87260814591394,0 -119.9204556129953,47.87256572394149,0 
			</coordinates>
		</LineString>
		<atom:link rel="app" href="https://www.google.com/earth/about/versions/#earth-pro" title="Google Earth Pro 7.3.6.10201"></atom:link>
	</Placemark>
</Document>
</kml>
