<?xml version="1.0" encoding="UTF-8"?>
<kml xmlns="http://www.opengis.net/kml/2.2" xmlns:gx="http://www.google.com/kml/ext/2.2" xmlns:kml="http://www.opengis.net/kml/2.2" xmlns:atom="http://www.w3.org/2005/Atom">
<Document>
	<name>US.90A.FL.kml</name>
	<Placemark>
		<name>US.90A.FL</name>
		<LineString>
			<coordinates>
				-87.41100082130352,30.53485163874418,0 -87.40578800571193,30.53536296994649,0 -87.40444745035218,30.53559996581595,0 -87.40280457196872,30.53576494093653,0 -87.40140371520873,30.53589013554723,0 -87.40042179865381,30.53594104854023,0 -87.39939195287377,30.53598873407637,0 -87.39780101096785,30.53597408771189,0 -87.39293597784034,30.53586957767397,0 -87.38795752058503,30.53576230801476,0 -87.38593816695381,30.5356843792392,0 -87.38486732265035,30.5356528813647,0 -87.3833778703567,30.53554801970215,0 -87.38184597479851,30.53549062916855,0 -87.37913126358021,30.53543738266101,0 -87.37738527210739,30.53541059283507,0 -87.37056157674428,30.53527994755427,0 -87.36683021193744,30.5351966036467,0 -87.35951591646698,30.53504819236353,0 -87.34656810046651,30.53471886796575,0 -87.34284272042842,30.53468824803066,0 -87.33345265819683,30.53450944399426,0 -87.32918322479256,30.53440607804291,0 -87.31771431000698,30.53421237163604,0 -87.3140718789672,30.53415642885048,0 -87.30583906801884,30.53400789939063,0 -87.30382367985973,30.53395792915128,0 -87.29573440833767,30.53376361004737,0 -87.289435197638,30.53358317771416,0 -87.28584210309832,30.53351136746059,0 -87.27776096986567,30.53329357858033,0 -87.27240551063497,30.5330622600597,0 -87.25881888296027,30.53282809199454,0 -87.24581026873692,30.53262074440686,0 -87.23343491536264,30.53242031709651,0 -87.22599223076087,30.53224368657379,0 -87.22225153902488,30.53206663326645,0 -87.21918841542652,30.53195584157254,0 -87.21618912515399,30.53194129632688,0 -87.21277018576161,30.53177059784168,0 -87.21171256229465,30.53185082634874,0 -87.21012836741518,30.53209805239744,0 -87.20872657264914,30.53240401408006,0 -87.2070179917563,30.53300810546676,0 -87.20635943630209,30.53336740816988,0 -87.20530047108785,30.5341252586435,0 -87.20416708442553,30.53478903621468,0 -87.2025851880238,30.53571079954803,0 -87.20117559852284,30.53661486130235,0 -87.19986464940185,30.53742805958457,0 -87.19887339476369,30.53808464365997,0 -87.1983951718145,30.53851516429547,0 -87.19783624763792,30.53920477802623,0 -87.19734859799851,30.54011987404014,0 -87.19712534141931,30.54092995770957,0 -87.19691508552036,30.54199561756999,0 -87.19660863332008,30.54331885167276,0 
			</coordinates>
		</LineString>
		<atom:link rel="app" href="https://www.google.com/earth/about/versions/#earth-pro" title="Google Earth Pro 7.3.6.10201"></atom:link>
	</Placemark>
</Document>
</kml>
