{
"type": "FeatureCollection",
"name": "US.19A",
"crs": { "type": "name", "properties": { "name": "urn:ogc:def:crs:OGC:1.3:CRS84" } },
"features": [
{ "type": "Feature", "properties": { "NAME": "Pinellas", "STUSPS": "FL" }, "geometry": { "type": "MultiPolygon", "coordinates": [ [ [ [ -83.01875, 28.17098 ], [ -82.959072, 28.171462 ], [ -82.906477, 28.171961 ], [ -82.896738, 28.172047 ], [ -82.893331, 28.172076 ], [ -82.880942, 28.172186 ], [ -82.875024, 28.172266 ], [ -82.875018, 28.172212 ], [ -82.875003, 28.17205 ], [ -82.874999, 28.171997 ], [ -82.87046, 28.172049 ], [ -82.856844, 28.172204 ], [ -82.854653, 28.172229 ], [ -82.852306, 28.172257 ], [ -82.851399, 28.172142 ], [ -82.849361, 28.171883 ], [ -82.848679, 28.171797 ], [ -82.847773, 28.171682 ], [ -82.847134, 28.171687 ], [ -82.845217, 28.171704 ], [ -82.844579, 28.17171 ], [ -82.841436, 28.171758 ], [ -82.833312, 28.171884 ], [ -82.833319, 28.172519 ], [ -82.815124, 28.173023 ], [ -82.813021, 28.173036 ], [ -82.805495, 28.173074 ], [ -82.805109, 28.173076 ], [ -82.800727, 28.173111 ], [ -82.800152, 28.173117 ], [ -82.798038, 28.173124 ], [ -82.790192, 28.172915 ], [ -82.790083, 28.172912 ], [ -82.789949, 28.172909 ], [ -82.789401, 28.172914 ], [ -82.789178, 28.172914 ], [ -82.786039, 28.172936 ], [ -82.785652, 28.172699 ], [ -82.78549, 28.172567 ], [ -82.784608, 28.172756 ], [ -82.783716, 28.172863 ], [ -82.783073, 28.172865 ], [ -82.782984, 28.172856 ], [ -82.781861, 28.172854 ], [ -82.781378, 28.172855 ], [ -82.781013, 28.172855 ], [ -82.779828, 28.172858 ], [ -82.779208, 28.172848 ], [ -82.779047, 28.172853 ], [ -82.77856, 28.172868 ], [ -82.778337, 28.172871 ], [ -82.777747, 28.17288 ], [ -82.776807, 28.172875 ], [ -82.773703, 28.172879 ], [ -82.773372, 28.172879 ], [ -82.772735, 28.172879 ], [ -82.767739, 28.17288 ], [ -82.765876, 28.172887 ], [ -82.765518, 28.172888 ], [ -82.765393, 28.172889 ], [ -82.765323, 28.172889 ], [ -82.764808, 28.172891 ], [ -82.764477, 28.172891 ], [ -82.763983, 28.172895 ], [ -82.76397, 28.172895 ], [ -82.763156, 28.172899 ], [ -82.762454, 28.172902 ], [ -82.761632, 28.172908 ], [ -82.761218, 28.172913 ], [ -82.760781, 28.172916 ], [ -82.75992, 28.172923 ], [ -82.759073, 28.172931 ], [ -82.758679, 28.172935 ], [ -82.758232, 28.172939 ], [ -82.757716, 28.172944 ], [ -82.757077, 28.172951 ], [ -82.752903, 28.172993 ], [ -82.750906, 28.173003 ], [ -82.750487, 28.173007 ], [ -82.750435, 28.17298 ], [ -82.750202, 28.172755 ], [ -82.749711, 28.173191 ], [ -82.748975, 28.173201 ], [ -82.748903, 28.173199 ], [ -82.748796, 28.1732 ], [ -82.748671, 28.1732 ], [ -82.748185, 28.173202 ], [ -82.74684, 28.17321 ], [ -82.744061, 28.173219 ], [ -82.743655, 28.173222 ], [ -82.743385, 28.17322 ], [ -82.742835, 28.173223 ], [ -82.742506, 28.173224 ], [ -82.740626, 28.173301 ], [ -82.7404, 28.173309 ], [ -82.740176, 28.173311 ], [ -82.738509, 28.173326 ], [ -82.735493, 28.173352 ], [ -82.733932, 28.173306 ], [ -82.733302, 28.173287 ], [ -82.733118, 28.173289 ], [ -82.731832, 28.173299 ], [ -82.731685, 28.1733 ], [ -82.730892, 28.173302 ], [ -82.730723, 28.173303 ], [ -82.729316, 28.173306 ], [ -82.729315, 28.173264 ], [ -82.729319, 28.17317 ], [ -82.729085, 28.173173 ], [ -82.728127, 28.173181 ], [ -82.725254, 28.173206 ], [ -82.72445, 28.173214 ], [ -82.724297, 28.173215 ], [ -82.72426, 28.173216 ], [ -82.724205, 28.173218 ], [ -82.724149, 28.173219 ], [ -82.724112, 28.17322 ], [ -82.724079, 28.173221 ], [ -82.724035, 28.173216 ], [ -82.723906, 28.173201 ], [ -82.723863, 28.173196 ], [ -82.723683, 28.173188 ], [ -82.723145, 28.173166 ], [ -82.722966, 28.173159 ], [ -82.722937, 28.173159 ], [ -82.722894, 28.17316 ], [ -82.722851, 28.173161 ], [ -82.722823, 28.173162 ], [ -82.722777, 28.173162 ], [ -82.722709, 28.173164 ], [ -82.72264, 28.173165 ], [ -82.722595, 28.173167 ], [ -82.722492, 28.173175 ], [ -82.722184, 28.1732 ], [ -82.722082, 28.173209 ], [ -82.722038, 28.173204 ], [ -82.721973, 28.173198 ], [ -82.721907, 28.173191 ], [ -82.721864, 28.173187 ], [ -82.721815, 28.173181 ], [ -82.721744, 28.173174 ], [ -82.721671, 28.173166 ], [ -82.721623, 28.173162 ], [ -82.721435, 28.173172 ], [ -82.720871, 28.173205 ], [ -82.720684, 28.173216 ], [ -82.720523, 28.173207 ], [ -82.720215, 28.17319 ], [ -82.72004, 28.173181 ], [ -82.719879, 28.173173 ], [ -82.719626, 28.173174 ], [ -82.719362, 28.173176 ], [ -82.718901, 28.173157 ], [ -82.718868, 28.173157 ], [ -82.718616, 28.17316 ], [ -82.718507, 28.173161 ], [ -82.718344, 28.173163 ], [ -82.71818, 28.173164 ], [ -82.718072, 28.173166 ], [ -82.716773, 28.173176 ], [ -82.714595, 28.173194 ], [ -82.712876, 28.173202 ], [ -82.711578, 28.173209 ], [ -82.711324, 28.173215 ], [ -82.711053, 28.173215 ], [ -82.710988, 28.173215 ], [ -82.704853, 28.173241 ], [ -82.699024, 28.173247 ], [ -82.694047, 28.17326 ], [ -82.686738, 28.17328 ], [ -82.681236, 28.173294 ], [ -82.679353, 28.173299 ], [ -82.674455, 28.173312 ], [ -82.673834, 28.173313 ], [ -82.673213, 28.173314 ], [ -82.67278, 28.173315 ], [ -82.672348, 28.173318 ], [ -82.672144, 28.173319 ], [ -82.669225, 28.173331 ], [ -82.666045, 28.173346 ], [ -82.65408, 28.173281 ], [ -82.651165, 28.173266 ], [ -82.651144, 28.171034 ], [ -82.651124, 28.168797 ], [ -82.651056, 28.161491 ], [ -82.650989, 28.154179 ], [ -82.650602, 28.144928 ], [ -82.650594, 28.144073 ], [ -82.650363, 28.1367 ], [ -82.650266, 28.133594 ], [ -82.649938, 28.123113 ], [ -82.649904, 28.122012 ], [ -82.649898, 28.121674 ], [ -82.649898, 28.121661 ], [ -82.649898, 28.121646 ], [ -82.649889, 28.121167 ], [ -82.649874, 28.120968 ], [ -82.649869, 28.120908 ], [ -82.649835, 28.120046 ], [ -82.64982, 28.119629 ], [ -82.6498, 28.119185 ], [ -82.649798, 28.118872 ], [ -82.649794, 28.118632 ], [ -82.649791, 28.118465 ], [ -82.649791, 28.118447 ], [ -82.649791, 28.118431 ], [ -82.649786, 28.118232 ], [ -82.649784, 28.118134 ], [ -82.649783, 28.118109 ], [ -82.649782, 28.118052 ], [ -82.649781, 28.118016 ], [ -82.64978, 28.117975 ], [ -82.649769, 28.117681 ], [ -82.649741, 28.116804 ], [ -82.649726, 28.116361 ], [ -82.649716, 28.116056 ], [ -82.649698, 28.115528 ], [ -82.649565, 28.11162 ], [ -82.649164, 28.099355 ], [ -82.649156, 28.099128 ], [ -82.649149, 28.098901 ], [ -82.649126, 28.095523 ], [ -82.649107, 28.094337 ], [ -82.6491, 28.093867 ], [ -82.649089, 28.091142 ], [ -82.649058, 28.085996 ], [ -82.649042, 28.083245 ], [ -82.64904, 28.082901 ], [ -82.649022, 28.07981 ], [ -82.649012, 28.078411 ], [ -82.64891, 28.063743 ], [ -82.648909, 28.06349 ], [ -82.648649, 28.062215 ], [ -82.648672, 28.061718 ], [ -82.648667, 28.061469 ], [ -82.648662, 28.060731 ], [ -82.64866, 28.06072 ], [ -82.648627, 28.06053 ], [ -82.648616, 28.060465 ], [ -82.64858, 28.060025 ], [ -82.648577, 28.059595 ], [ -82.64851, 28.059172 ], [ -82.648437, 28.057769 ], [ -82.648432, 28.057669 ], [ -82.648432, 28.057659 ], [ -82.648432, 28.057648 ], [ -82.648425, 28.057538 ], [ -82.648374, 28.056558 ], [ -82.648373, 28.056464 ], [ -82.648372, 28.056327 ], [ -82.648372, 28.05623 ], [ -82.648372, 28.056201 ], [ -82.648368, 28.055652 ], [ -82.648366, 28.05527 ], [ -82.648363, 28.054851 ], [ -82.64836, 28.054254 ], [ -82.648544, 28.046887 ], [ -82.648544, 28.046874 ], [ -82.648543, 28.046243 ], [ -82.648543, 28.046163 ], [ -82.648543, 28.045971 ], [ -82.648541, 28.045256 ], [ -82.648539, 28.04485 ], [ -82.648537, 28.044325 ], [ -82.648528, 28.042113 ], [ -82.648526, 28.04169 ], [ -82.648545, 28.040779 ], [ -82.648567, 28.039727 ], [ -82.648557, 28.038651 ], [ -82.648557, 28.03863 ], [ -82.648556, 28.038501 ], [ -82.648556, 28.038301 ], [ -82.648555, 28.037776 ], [ -82.648555, 28.033671 ], [ -82.648565, 28.033407 ], [ -82.648567, 28.033364 ], [ -82.648565, 28.033127 ], [ -82.648559, 28.032228 ], [ -82.648561, 28.031949 ], [ -82.648565, 28.031452 ], [ -82.648562, 28.031319 ], [ -82.64856, 28.031218 ], [ -82.648543, 28.030435 ], [ -82.648541, 28.03031 ], [ -82.648539, 28.030163 ], [ -82.648535, 28.029891 ], [ -82.648518, 28.028804 ], [ -82.648501, 28.027711 ], [ -82.648513, 28.026774 ], [ -82.648514, 28.026673 ], [ -82.648516, 28.026499 ], [ -82.648525, 28.025736 ], [ -82.648526, 28.025678 ], [ -82.648524, 28.024352 ], [ -82.648523, 28.024227 ], [ -82.648515, 28.023445 ], [ -82.648512, 28.02313 ], [ -82.648508, 28.022752 ], [ -82.648508, 28.022629 ], [ -82.64851, 28.022275 ], [ -82.648511, 28.021796 ], [ -82.648512, 28.021508 ], [ -82.648514, 28.021134 ], [ -82.648524, 28.018966 ], [ -82.648525, 28.018809 ], [ -82.648528, 28.01837 ], [ -82.648528, 28.018139 ], [ -82.648527, 28.01808 ], [ -82.648522, 28.017811 ], [ -82.64852, 28.017711 ], [ -82.64852, 28.017688 ], [ -82.64852, 28.017644 ], [ -82.648524, 28.017041 ], [ -82.64853, 28.016433 ], [ -82.64853, 28.016411 ], [ -82.648531, 28.016369 ], [ -82.648532, 28.016239 ], [ -82.648532, 28.016197 ], [ -82.648537, 28.015591 ], [ -82.648539, 28.015281 ], [ -82.648543, 28.014798 ], [ -82.648548, 28.014169 ], [ -82.648548, 28.014132 ], [ -82.648554, 28.013334 ], [ -82.64856, 28.012625 ], [ -82.648599, 28.007683 ], [ -82.648599, 28.00764 ], [ -82.648599, 28.007594 ], [ -82.6486, 28.007492 ], [ -82.648752, 27.988144 ], [ -82.64882, 27.979497 ], [ -82.648817, 27.979178 ], [ -82.648749, 27.971089 ], [ -82.648662, 27.967445 ], [ -82.648638, 27.967078 ], [ -82.648608, 27.966671 ], [ -82.648616, 27.966337 ], [ -82.64859, 27.964715 ], [ -82.64844, 27.955049 ], [ -82.64832, 27.947398 ], [ -82.62262, 27.943099 ], [ -82.617459, 27.941981 ], [ -82.614206, 27.941277 ], [ -82.61292, 27.940999 ], [ -82.601419, 27.937299 ], [ -82.599519, 27.936299 ], [ -82.597219, 27.935199 ], [ -82.591619, 27.931099 ], [ -82.59136, 27.930908 ], [ -82.588284, 27.928642 ], [ -82.587973, 27.928413 ], [ -82.587819, 27.928299 ], [ -82.587701, 27.92817 ], [ -82.587607, 27.928067 ], [ -82.587286, 27.927713 ], [ -82.587102, 27.927511 ], [ -82.58525, 27.925473 ], [ -82.585203, 27.925422 ], [ -82.585117, 27.925327 ], [ -82.585099, 27.925308 ], [ -82.585047, 27.925251 ], [ -82.581819, 27.921699 ], [ -82.580735, 27.920263 ], [ -82.577519, 27.916 ], [ -82.576979, 27.915078 ], [ -82.573419, 27.909 ], [ -82.571409, 27.903622 ], [ -82.570019, 27.8999 ], [ -82.568719, 27.8929 ], [ -82.567935, 27.88389 ], [ -82.567916, 27.883701 ], [ -82.567902, 27.883369 ], [ -82.567419, 27.871701 ], [ -82.567216, 27.867073 ], [ -82.566872, 27.859201 ], [ -82.566819, 27.858002 ], [ -82.566812, 27.857632 ], [ -82.566709, 27.852557 ], [ -82.566139, 27.824413 ], [ -82.566119, 27.823403 ], [ -82.565819, 27.817603 ], [ -82.564946, 27.81337 ], [ -82.563619, 27.806903 ], [ -82.560463, 27.800594 ], [ -82.559618, 27.798904 ], [ -82.558418, 27.797504 ], [ -82.55337, 27.793504 ], [ -82.549906, 27.792306 ], [ -82.546718, 27.791204 ], [ -82.541818, 27.787804 ], [ -82.540618, 27.785004 ], [ -82.541518, 27.782204 ], [ -82.543418, 27.777505 ], [ -82.544818, 27.774505 ], [ -82.546348, 27.770882 ], [ -82.546718, 27.770005 ], [ -82.547218, 27.769005 ], [ -82.549291, 27.764233 ], [ -82.551402, 27.759377 ], [ -82.553118, 27.755605 ], [ -82.558922, 27.743202 ], [ -82.562237, 27.73602 ], [ -82.566366, 27.727076 ], [ -82.567527, 27.724564 ], [ -82.569995, 27.719219 ], [ -82.577707, 27.703635 ], [ -82.579349, 27.700732 ], [ -82.580475, 27.69874 ], [ -82.584349, 27.691926 ], [ -82.588798, 27.685981 ], [ -82.592718, 27.681433 ], [ -82.595199, 27.679066 ], [ -82.598245, 27.67617 ], [ -82.616798, 27.65723 ], [ -82.623081, 27.649773 ], [ -82.626848, 27.645305 ], [ -82.626907, 27.645304 ], [ -82.626945, 27.645304 ], [ -82.627029, 27.645304 ], [ -82.627184, 27.645303 ], [ -82.627442, 27.645302 ], [ -82.628912, 27.645295 ], [ -82.632077, 27.645281 ], [ -82.634597, 27.645269 ], [ -82.637198, 27.645257 ], [ -82.637234, 27.645257 ], [ -82.642215, 27.645234 ], [ -82.64514, 27.64522 ], [ -82.649951, 27.645198 ], [ -82.652743, 27.645185 ], [ -82.656338, 27.645168 ], [ -82.663122, 27.645136 ], [ -82.669902, 27.645103 ], [ -82.672053, 27.645093 ], [ -82.672696, 27.64509 ], [ -82.672918, 27.645089 ], [ -82.672945, 27.645088 ], [ -82.673103, 27.645088 ], [ -82.673142, 27.645087 ], [ -82.677376, 27.645067 ], [ -82.679719, 27.645055 ], [ -82.682398, 27.645042 ], [ -82.68405, 27.645034 ], [ -82.685104, 27.645029 ], [ -82.687485, 27.645017 ], [ -82.688607, 27.645011 ], [ -82.689686, 27.645006 ], [ -82.690449, 27.645002 ], [ -82.691467, 27.644997 ], [ -82.692797, 27.64499 ], [ -82.693796, 27.644985 ], [ -82.694397, 27.644982 ], [ -82.695214, 27.644978 ], [ -82.69565, 27.644976 ], [ -82.695713, 27.644976 ], [ -82.696535, 27.644969 ], [ -82.696535, 27.644709 ], [ -82.696536, 27.644525 ], [ -82.696537, 27.641488 ], [ -82.696538, 27.639223 ], [ -82.696538, 27.639062 ], [ -82.696905, 27.63839 ], [ -82.697542, 27.637226 ], [ -82.697957, 27.636147 ], [ -82.698821, 27.634873 ], [ -82.699278, 27.633838 ], [ -82.699759, 27.632921 ], [ -82.699845, 27.63199 ], [ -82.700393, 27.630747 ], [ -82.700831, 27.630211 ], [ -82.701894, 27.628253 ], [ -82.702368, 27.627721 ], [ -82.702979, 27.626473 ], [ -82.704043, 27.62526 ], [ -82.704231, 27.624999 ], [ -82.704601, 27.624522 ], [ -82.705438, 27.623916 ], [ -82.705765, 27.62378 ], [ -82.707147, 27.623227 ], [ -82.708268, 27.622836 ], [ -82.710203, 27.622116 ], [ -82.711278, 27.621658 ], [ -82.712425, 27.620972 ], [ -82.712949, 27.62061 ], [ -82.713952, 27.62011 ], [ -82.714895, 27.619539 ], [ -82.715407, 27.619387 ], [ -82.716664, 27.618976 ], [ -82.717599, 27.618522 ], [ -82.719183, 27.61806 ], [ -82.720111, 27.617715 ], [ -82.721326, 27.617174 ], [ -82.72282, 27.616557 ], [ -82.724559, 27.615989 ], [ -82.725593, 27.615778 ], [ -82.726715, 27.615241 ], [ -82.728212, 27.614662 ], [ -82.72924, 27.61418 ], [ -82.731729, 27.612784 ], [ -82.73247, 27.612245 ], [ -82.733209, 27.611378 ], [ -82.734407, 27.610506 ], [ -82.734821, 27.610475 ], [ -82.735592, 27.610437 ], [ -82.736701, 27.610648 ], [ -82.737778, 27.611321 ], [ -82.738167, 27.612136 ], [ -82.73858, 27.613333 ], [ -82.738412, 27.61449 ], [ -82.738203, 27.61514 ], [ -82.737586, 27.617314 ], [ -82.737161, 27.619028 ], [ -82.736981, 27.619761 ], [ -82.736937, 27.621801 ], [ -82.736971, 27.622944 ], [ -82.736898, 27.624004 ], [ -82.736942, 27.624924 ], [ -82.736845, 27.625201 ], [ -82.739662, 27.630311 ], [ -82.739757, 27.630652 ], [ -82.740152, 27.631206 ], [ -82.74017, 27.631231 ], [ -82.742069, 27.633896 ], [ -82.743063, 27.634259 ], [ -82.744049, 27.634619 ], [ -82.74486, 27.635237 ], [ -82.745373, 27.635628 ], [ -82.745832, 27.636203 ], [ -82.746057, 27.636485 ], [ -82.746343, 27.636843 ], [ -82.746943, 27.637908 ], [ -82.746977, 27.639508 ], [ -82.747009, 27.640093 ], [ -82.747044, 27.640752 ], [ -82.746751, 27.647347 ], [ -82.81351, 27.646398 ], [ -82.925034, 27.644813 ], [ -82.92409, 27.64749 ], [ -82.92364, 27.6487 ], [ -82.92222, 27.6523 ], [ -82.91986, 27.65771 ], [ -82.91835, 27.66089 ], [ -82.91739, 27.66282 ], [ -82.91721, 27.66408 ], [ -82.91691, 27.66606 ], [ -82.91641, 27.66893 ], [ -82.9162, 27.6718 ], [ -82.91603, 27.67412 ], [ -82.91593, 27.67538 ], [ -82.91581, 27.67663 ], [ -82.91552, 27.67931 ], [ -82.91522, 27.68163 ], [ -82.91521, 27.68327 ], [ -82.91522, 27.68413 ], [ -82.91633, 27.68541 ], [ -82.91682, 27.68599 ], [ -82.9179, 27.68728 ], [ -82.91921, 27.68889 ], [ -82.9205, 27.6905 ], [ -82.92163, 27.69199 ], [ -82.92309, 27.69393 ], [ -82.92424, 27.6954 ], [ -82.9258, 27.69655 ], [ -82.92903, 27.699 ], [ -82.93174, 27.70117 ], [ -82.93613, 27.70487 ], [ -82.93698, 27.70561 ], [ -82.94633, 27.71374 ], [ -82.94821, 27.7154 ], [ -82.94968, 27.71689 ], [ -82.95688, 27.72429 ], [ -82.95847, 27.72594 ], [ -82.96219, 27.73002 ], [ -82.9655, 27.73391 ], [ -82.96981, 27.73942 ], [ -82.97267, 27.74339 ], [ -82.97529, 27.74726 ], [ -82.97758, 27.7509 ], [ -82.97949, 27.75411 ], [ -82.98215, 27.75873 ], [ -82.98703, 27.76622 ], [ -82.98781, 27.7674 ], [ -82.9899, 27.77073 ], [ -82.99227, 27.77474 ], [ -82.99389, 27.77767 ], [ -82.99536, 27.78046 ], [ -82.99668, 27.78311 ], [ -83.00054, 27.7911 ], [ -83.00329, 27.79681 ], [ -83.00695, 27.80544 ], [ -83.00798, 27.80817 ], [ -83.00929, 27.81198 ], [ -83.01044, 27.81564 ], [ -83.0111, 27.81792 ], [ -83.01181, 27.82055 ], [ -83.01251, 27.82338 ], [ -83.01512, 27.83446 ], [ -83.01597, 27.83802 ], [ -83.01681, 27.84193 ], [ -83.0173, 27.84442 ], [ -83.01795, 27.84836 ], [ -83.01838, 27.8514 ], [ -83.01874, 27.85446 ], [ -83.019, 27.85716 ], [ -83.01908, 27.85806 ], [ -83.020159, 27.871866 ], [ -83.02033, 27.87405 ], [ -83.02046, 27.87579 ], [ -83.02054, 27.87831 ], [ -83.02054, 27.88103 ], [ -83.02047, 27.88411 ], [ -83.02043, 27.8852 ], [ -83.02034, 27.88701 ], [ -83.02004, 27.89233 ], [ -83.01998, 27.89341 ], [ -83.01979, 27.89592 ], [ -83.01952, 27.89878 ], [ -83.01935, 27.90039 ], [ -83.01905, 27.90271 ], [ -83.0188, 27.90449 ], [ -83.01853, 27.90627 ], [ -83.017381, 27.913365 ], [ -83.01605, 27.92158 ], [ -83.01474, 27.92968 ], [ -83.0144, 27.93165 ], [ -83.01408, 27.93344 ], [ -83.01361, 27.93576 ], [ -83.013278, 27.937345 ], [ -83.01078, 27.94928 ], [ -83.01017, 27.95206 ], [ -83.00949, 27.95484 ], [ -83.009, 27.95675 ], [ -83.0067, 27.9653 ], [ -83.00508, 27.97131 ], [ -83.00419, 27.97447 ], [ -83.00322, 27.9776 ], [ -83.00242, 27.98002 ], [ -83.0015, 27.9826 ], [ -83.00034, 27.98569 ], [ -82.99938, 27.98807 ], [ -82.99845, 27.99026 ], [ -82.99833, 27.99206 ], [ -82.99757, 28.00569 ], [ -82.99751, 28.00899 ], [ -82.99746, 28.01275 ], [ -82.99838, 28.01438 ], [ -82.99929, 28.0162 ], [ -82.99936, 28.01872 ], [ -82.99937, 28.0209 ], [ -82.99937, 28.02235 ], [ -82.99924, 28.02687 ], [ -82.99989, 28.02915 ], [ -83.00052, 28.03126 ], [ -83.00139, 28.03443 ], [ -83.00242, 28.03774 ], [ -83.00348, 28.04103 ], [ -83.00466, 28.04504 ], [ -83.00562, 28.04873 ], [ -83.00608, 28.05066 ], [ -83.00682, 28.05404 ], [ -83.00753, 28.0578 ], [ -83.00819, 28.06194 ], [ -83.00875, 28.06645 ], [ -83.00916, 28.07098 ], [ -83.00941, 28.07515 ], [ -83.00952, 28.07951 ], [ -83.00953, 28.08132 ], [ -83.0095, 28.08657 ], [ -83.0095, 28.08707 ], [ -83.00961, 28.08878 ], [ -83.01021, 28.09146 ], [ -83.01072, 28.09396 ], [ -83.0112, 28.09665 ], [ -83.01173, 28.09989 ], [ -83.0123, 28.10422 ], [ -83.01261, 28.10729 ], [ -83.01293, 28.11146 ], [ -83.01312, 28.11618 ], [ -83.01316, 28.11817 ], [ -83.01314, 28.12163 ], [ -83.01311, 28.12326 ], [ -83.01303, 28.12544 ], [ -83.0128, 28.12924 ], [ -83.01259, 28.13179 ], [ -83.01251, 28.13374 ], [ -83.01278, 28.1349 ], [ -83.01382, 28.13946 ], [ -83.01427, 28.14161 ], [ -83.01463, 28.14376 ], [ -83.01717, 28.15933 ], [ -83.01751, 28.16148 ], [ -83.01786, 28.16399 ], [ -83.01875, 28.17098 ] ] ] ] } },
{ "type": "Feature", "properties": { "NAME": "Pasco", "STUSPS": "FL" }, "geometry": { "type": "MultiPolygon", "coordinates": [ [ [ [ -82.259741, 28.171462 ], [ -82.269088, 28.171477 ], [ -82.269212, 28.171477 ], [ -82.270662, 28.171476 ], [ -82.286526, 28.171471 ], [ -82.287206, 28.171472 ], [ -82.287281, 28.171472 ], [ -82.288224, 28.171474 ], [ -82.289248, 28.171468 ], [ -82.289929, 28.171465 ], [ -82.29014, 28.171464 ], [ -82.292396, 28.171459 ], [ -82.29445, 28.171454 ], [ -82.297254, 28.171448 ], [ -82.297351, 28.171448 ], [ -82.299798, 28.171443 ], [ -82.302266, 28.171439 ], [ -82.30267, 28.171438 ], [ -82.303885, 28.171435 ], [ -82.30429, 28.171435 ], [ -82.304853, 28.171431 ], [ -82.306541, 28.171421 ], [ -82.307105, 28.171418 ], [ -82.307343, 28.171416 ], [ -82.308059, 28.171411 ], [ -82.308298, 28.17141 ], [ -82.310388, 28.171397 ], [ -82.311067, 28.171393 ], [ -82.312789, 28.171384 ], [ -82.313244, 28.171386 ], [ -82.314222, 28.171392 ], [ -82.31853, 28.17134 ], [ -82.319875, 28.17133 ], [ -82.320089, 28.171335 ], [ -82.320478, 28.171343 ], [ -82.324464, 28.171326 ], [ -82.326478, 28.171343 ], [ -82.326896, 28.171352 ], [ -82.333141, 28.171342 ], [ -82.334584, 28.17134 ], [ -82.336436, 28.17134 ], [ -82.337112, 28.171346 ], [ -82.340211, 28.171353 ], [ -82.343036, 28.171376 ], [ -82.344851, 28.171353 ], [ -82.350207, 28.171287 ], [ -82.351927, 28.171265 ], [ -82.353321, 28.171243 ], [ -82.3537, 28.17128 ], [ -82.353865, 28.171281 ], [ -82.353925, 28.171281 ], [ -82.355721, 28.171286 ], [ -82.355742, 28.171287 ], [ -82.355874, 28.171287 ], [ -82.355889, 28.171287 ], [ -82.356967, 28.171291 ], [ -82.357081, 28.17129 ], [ -82.357141, 28.17129 ], [ -82.358508, 28.171278 ], [ -82.359759, 28.171281 ], [ -82.360365, 28.171282 ], [ -82.361759, 28.171278 ], [ -82.362172, 28.171277 ], [ -82.362209, 28.171277 ], [ -82.362336, 28.171278 ], [ -82.363145, 28.17129 ], [ -82.363874, 28.171251 ], [ -82.363964, 28.171247 ], [ -82.364005, 28.171245 ], [ -82.364022, 28.171242 ], [ -82.364171, 28.171222 ], [ -82.364315, 28.171203 ], [ -82.381861, 28.171044 ], [ -82.382227, 28.171111 ], [ -82.382479, 28.171148 ], [ -82.382787, 28.171188 ], [ -82.383148, 28.171222 ], [ -82.383556, 28.171241 ], [ -82.384239, 28.171242 ], [ -82.385428, 28.171225 ], [ -82.385483, 28.171224 ], [ -82.385884, 28.17122 ], [ -82.388566, 28.171246 ], [ -82.388678, 28.171248 ], [ -82.38959, 28.171253 ], [ -82.391961, 28.171257 ], [ -82.392002, 28.171257 ], [ -82.392154, 28.171257 ], [ -82.392357, 28.171257 ], [ -82.39242, 28.171257 ], [ -82.393694, 28.171257 ], [ -82.393996, 28.17126 ], [ -82.394629, 28.171257 ], [ -82.395858, 28.171245 ], [ -82.4033, 28.171175 ], [ -82.410512, 28.171213 ], [ -82.412389, 28.171223 ], [ -82.412451, 28.171223 ], [ -82.413934, 28.171231 ], [ -82.41703, 28.171247 ], [ -82.417775, 28.171248 ], [ -82.417789, 28.171249 ], [ -82.418398, 28.17125 ], [ -82.420086, 28.171256 ], [ -82.420717, 28.171258 ], [ -82.421629, 28.171261 ], [ -82.421657, 28.171261 ], [ -82.421927, 28.171261 ], [ -82.422064, 28.171262 ], [ -82.422243, 28.171262 ], [ -82.422594, 28.171263 ], [ -82.424592, 28.171269 ], [ -82.425322, 28.171271 ], [ -82.425401, 28.171271 ], [ -82.427849, 28.171278 ], [ -82.428168, 28.17128 ], [ -82.429219, 28.171177 ], [ -82.430216, 28.171163 ], [ -82.431894, 28.17114 ], [ -82.432434, 28.171086 ], [ -82.432928, 28.171098 ], [ -82.433516, 28.171148 ], [ -82.434005, 28.17126 ], [ -82.434478, 28.17138 ], [ -82.434486, 28.171386 ], [ -82.435627, 28.171432 ], [ -82.436047, 28.171449 ], [ -82.43767, 28.171437 ], [ -82.437826, 28.171434 ], [ -82.437841, 28.171434 ], [ -82.438293, 28.171431 ], [ -82.438309, 28.171431 ], [ -82.438449, 28.171429 ], [ -82.438628, 28.171433 ], [ -82.439164, 28.171445 ], [ -82.439344, 28.171449 ], [ -82.440024, 28.171487 ], [ -82.442065, 28.171605 ], [ -82.442746, 28.171644 ], [ -82.442886, 28.171647 ], [ -82.44331, 28.171658 ], [ -82.443451, 28.171662 ], [ -82.444671, 28.171701 ], [ -82.444804, 28.171702 ], [ -82.449167, 28.171769 ], [ -82.454554, 28.171752 ], [ -82.455956, 28.171769 ], [ -82.457229, 28.171759 ], [ -82.457724, 28.171766 ], [ -82.458606, 28.171779 ], [ -82.46099, 28.171815 ], [ -82.461293, 28.17182 ], [ -82.461461, 28.171823 ], [ -82.461702, 28.171828 ], [ -82.461797, 28.17183 ], [ -82.46189, 28.17183 ], [ -82.463518, 28.171842 ], [ -82.464128, 28.171846 ], [ -82.464344, 28.171847 ], [ -82.466257, 28.171859 ], [ -82.466635, 28.171862 ], [ -82.46703, 28.171864 ], [ -82.467723, 28.171871 ], [ -82.469423, 28.171888 ], [ -82.473872, 28.171933 ], [ -82.473982, 28.171934 ], [ -82.474026, 28.171935 ], [ -82.474056, 28.171935 ], [ -82.474328, 28.171939 ], [ -82.475455, 28.171957 ], [ -82.475938, 28.171964 ], [ -82.477078, 28.171981 ], [ -82.478474, 28.171992 ], [ -82.478708, 28.171993 ], [ -82.479443, 28.171999 ], [ -82.480135, 28.172117 ], [ -82.481446, 28.172172 ], [ -82.481698, 28.172171 ], [ -82.482049, 28.172177 ], [ -82.482401, 28.172183 ], [ -82.483686, 28.172206 ], [ -82.483736, 28.172206 ], [ -82.484545, 28.172206 ], [ -82.484911, 28.172214 ], [ -82.487149, 28.172264 ], [ -82.491009, 28.172349 ], [ -82.491104, 28.172348 ], [ -82.491306, 28.172345 ], [ -82.491705, 28.172342 ], [ -82.491914, 28.172346 ], [ -82.492117, 28.172351 ], [ -82.492244, 28.172353 ], [ -82.492627, 28.172359 ], [ -82.492755, 28.172362 ], [ -82.493243, 28.172375 ], [ -82.494707, 28.172414 ], [ -82.495196, 28.172427 ], [ -82.495742, 28.17244 ], [ -82.497383, 28.172481 ], [ -82.49793, 28.172495 ], [ -82.497979, 28.172496 ], [ -82.498311, 28.172463 ], [ -82.498751, 28.17242 ], [ -82.498937, 28.172397 ], [ -82.499454, 28.172344 ], [ -82.499836, 28.172306 ], [ -82.49995, 28.172296 ], [ -82.500295, 28.172268 ], [ -82.500411, 28.172259 ], [ -82.500515, 28.172251 ], [ -82.500814, 28.172247 ], [ -82.500916, 28.172246 ], [ -82.501138, 28.17224 ], [ -82.501808, 28.172225 ], [ -82.502031, 28.17222 ], [ -82.502272, 28.172223 ], [ -82.502995, 28.172232 ], [ -82.503237, 28.172236 ], [ -82.503375, 28.172237 ], [ -82.50379, 28.17224 ], [ -82.503929, 28.172241 ], [ -82.506311, 28.172332 ], [ -82.506904, 28.172355 ], [ -82.509147, 28.172441 ], [ -82.516248, 28.172714 ], [ -82.516484, 28.172719 ], [ -82.516514, 28.17272 ], [ -82.517653, 28.172723 ], [ -82.517755, 28.172723 ], [ -82.517855, 28.172725 ], [ -82.518204, 28.172725 ], [ -82.518292, 28.172725 ], [ -82.518379, 28.172727 ], [ -82.532018, 28.172777 ], [ -82.533896, 28.172784 ], [ -82.535369, 28.172789 ], [ -82.535434, 28.172789 ], [ -82.535499, 28.172789 ], [ -82.535772, 28.17279 ], [ -82.535943, 28.17279 ], [ -82.536009, 28.172576 ], [ -82.555371, 28.172864 ], [ -82.55571, 28.172859 ], [ -82.560034, 28.172869 ], [ -82.562726, 28.172877 ], [ -82.56304, 28.172879 ], [ -82.563289, 28.17288 ], [ -82.563326, 28.172881 ], [ -82.563445, 28.172882 ], [ -82.563547, 28.172882 ], [ -82.564395, 28.172887 ], [ -82.565632, 28.172893 ], [ -82.567272, 28.172901 ], [ -82.567341, 28.172901 ], [ -82.567397, 28.172901 ], [ -82.56745, 28.172902 ], [ -82.567503, 28.172902 ], [ -82.567562, 28.172902 ], [ -82.567574, 28.172901 ], [ -82.567745, 28.172902 ], [ -82.567802, 28.1729 ], [ -82.567857, 28.172899 ], [ -82.567914, 28.172899 ], [ -82.571751, 28.172867 ], [ -82.571782, 28.172867 ], [ -82.572839, 28.17288 ], [ -82.576012, 28.172921 ], [ -82.57707, 28.172935 ], [ -82.577875, 28.172941 ], [ -82.579729, 28.172959 ], [ -82.581316, 28.17297 ], [ -82.582282, 28.17297 ], [ -82.583196, 28.172974 ], [ -82.583214, 28.17297 ], [ -82.585833, 28.173018 ], [ -82.585932, 28.173023 ], [ -82.587105, 28.173079 ], [ -82.588928, 28.173166 ], [ -82.589069, 28.173175 ], [ -82.59001, 28.173201 ], [ -82.590626, 28.173204 ], [ -82.591801, 28.173211 ], [ -82.592068, 28.173213 ], [ -82.592871, 28.173219 ], [ -82.593139, 28.173221 ], [ -82.59331, 28.173221 ], [ -82.593382, 28.173222 ], [ -82.593626, 28.173223 ], [ -82.59381, 28.173224 ], [ -82.593823, 28.173224 ], [ -82.593995, 28.173225 ], [ -82.594364, 28.173227 ], [ -82.595472, 28.173233 ], [ -82.595842, 28.173236 ], [ -82.595964, 28.173236 ], [ -82.596019, 28.173237 ], [ -82.596331, 28.173238 ], [ -82.596454, 28.173239 ], [ -82.59737, 28.173244 ], [ -82.60012, 28.173262 ], [ -82.6005, 28.173264 ], [ -82.601037, 28.173268 ], [ -82.614759, 28.173351 ], [ -82.618354, 28.173372 ], [ -82.618567, 28.173374 ], [ -82.61878, 28.173375 ], [ -82.619278, 28.173378 ], [ -82.619394, 28.173379 ], [ -82.620798, 28.173348 ], [ -82.621004, 28.173344 ], [ -82.621767, 28.173326 ], [ -82.624056, 28.173276 ], [ -82.62482, 28.17326 ], [ -82.628649, 28.173268 ], [ -82.640138, 28.173292 ], [ -82.643968, 28.173301 ], [ -82.645407, 28.173304 ], [ -82.649725, 28.173314 ], [ -82.651165, 28.173266 ], [ -82.65408, 28.173281 ], [ -82.666045, 28.173346 ], [ -82.669225, 28.173331 ], [ -82.672144, 28.173319 ], [ -82.672348, 28.173318 ], [ -82.67278, 28.173315 ], [ -82.673213, 28.173314 ], [ -82.673834, 28.173313 ], [ -82.674455, 28.173312 ], [ -82.679353, 28.173299 ], [ -82.681236, 28.173294 ], [ -82.686738, 28.17328 ], [ -82.694047, 28.17326 ], [ -82.699024, 28.173247 ], [ -82.704853, 28.173241 ], [ -82.710988, 28.173215 ], [ -82.711053, 28.173215 ], [ -82.711324, 28.173215 ], [ -82.711578, 28.173209 ], [ -82.712876, 28.173202 ], [ -82.714595, 28.173194 ], [ -82.716773, 28.173176 ], [ -82.718072, 28.173166 ], [ -82.71818, 28.173164 ], [ -82.718344, 28.173163 ], [ -82.718507, 28.173161 ], [ -82.718616, 28.17316 ], [ -82.718868, 28.173157 ], [ -82.718901, 28.173157 ], [ -82.719362, 28.173176 ], [ -82.719626, 28.173174 ], [ -82.719879, 28.173173 ], [ -82.72004, 28.173181 ], [ -82.720215, 28.17319 ], [ -82.720523, 28.173207 ], [ -82.720684, 28.173216 ], [ -82.720871, 28.173205 ], [ -82.721435, 28.173172 ], [ -82.721623, 28.173162 ], [ -82.721671, 28.173166 ], [ -82.721744, 28.173174 ], [ -82.721815, 28.173181 ], [ -82.721864, 28.173187 ], [ -82.721907, 28.173191 ], [ -82.721973, 28.173198 ], [ -82.722038, 28.173204 ], [ -82.722082, 28.173209 ], [ -82.722184, 28.1732 ], [ -82.722492, 28.173175 ], [ -82.722595, 28.173167 ], [ -82.72264, 28.173165 ], [ -82.722709, 28.173164 ], [ -82.722777, 28.173162 ], [ -82.722823, 28.173162 ], [ -82.722851, 28.173161 ], [ -82.722894, 28.17316 ], [ -82.722937, 28.173159 ], [ -82.722966, 28.173159 ], [ -82.723145, 28.173166 ], [ -82.723683, 28.173188 ], [ -82.723863, 28.173196 ], [ -82.723906, 28.173201 ], [ -82.724035, 28.173216 ], [ -82.724079, 28.173221 ], [ -82.724112, 28.17322 ], [ -82.724149, 28.173219 ], [ -82.724205, 28.173218 ], [ -82.72426, 28.173216 ], [ -82.724297, 28.173215 ], [ -82.72445, 28.173214 ], [ -82.725254, 28.173206 ], [ -82.728127, 28.173181 ], [ -82.729085, 28.173173 ], [ -82.729319, 28.17317 ], [ -82.729315, 28.173264 ], [ -82.729316, 28.173306 ], [ -82.730723, 28.173303 ], [ -82.730892, 28.173302 ], [ -82.731685, 28.1733 ], [ -82.731832, 28.173299 ], [ -82.733118, 28.173289 ], [ -82.733302, 28.173287 ], [ -82.733932, 28.173306 ], [ -82.735493, 28.173352 ], [ -82.738509, 28.173326 ], [ -82.740176, 28.173311 ], [ -82.7404, 28.173309 ], [ -82.740626, 28.173301 ], [ -82.742506, 28.173224 ], [ -82.742835, 28.173223 ], [ -82.743385, 28.17322 ], [ -82.743655, 28.173222 ], [ -82.744061, 28.173219 ], [ -82.74684, 28.17321 ], [ -82.748185, 28.173202 ], [ -82.748671, 28.1732 ], [ -82.748796, 28.1732 ], [ -82.748903, 28.173199 ], [ -82.748975, 28.173201 ], [ -82.749711, 28.173191 ], [ -82.750202, 28.172755 ], [ -82.750435, 28.17298 ], [ -82.750487, 28.173007 ], [ -82.750906, 28.173003 ], [ -82.752903, 28.172993 ], [ -82.757077, 28.172951 ], [ -82.757716, 28.172944 ], [ -82.758232, 28.172939 ], [ -82.758679, 28.172935 ], [ -82.759073, 28.172931 ], [ -82.75992, 28.172923 ], [ -82.760781, 28.172916 ], [ -82.761218, 28.172913 ], [ -82.761632, 28.172908 ], [ -82.762454, 28.172902 ], [ -82.763156, 28.172899 ], [ -82.76397, 28.172895 ], [ -82.763983, 28.172895 ], [ -82.764477, 28.172891 ], [ -82.764808, 28.172891 ], [ -82.765323, 28.172889 ], [ -82.765393, 28.172889 ], [ -82.765518, 28.172888 ], [ -82.765876, 28.172887 ], [ -82.767739, 28.17288 ], [ -82.772735, 28.172879 ], [ -82.773372, 28.172879 ], [ -82.773703, 28.172879 ], [ -82.776807, 28.172875 ], [ -82.777747, 28.17288 ], [ -82.778337, 28.172871 ], [ -82.77856, 28.172868 ], [ -82.779047, 28.172853 ], [ -82.779208, 28.172848 ], [ -82.779828, 28.172858 ], [ -82.781013, 28.172855 ], [ -82.781378, 28.172855 ], [ -82.781861, 28.172854 ], [ -82.782984, 28.172856 ], [ -82.783073, 28.172865 ], [ -82.783716, 28.172863 ], [ -82.784608, 28.172756 ], [ -82.78549, 28.172567 ], [ -82.785652, 28.172699 ], [ -82.786039, 28.172936 ], [ -82.789178, 28.172914 ], [ -82.789401, 28.172914 ], [ -82.789949, 28.172909 ], [ -82.790083, 28.172912 ], [ -82.790192, 28.172915 ], [ -82.798038, 28.173124 ], [ -82.800152, 28.173117 ], [ -82.800727, 28.173111 ], [ -82.805109, 28.173076 ], [ -82.805495, 28.173074 ], [ -82.813021, 28.173036 ], [ -82.815124, 28.173023 ], [ -82.833319, 28.172519 ], [ -82.833312, 28.171884 ], [ -82.841436, 28.171758 ], [ -82.844579, 28.17171 ], [ -82.845217, 28.171704 ], [ -82.847134, 28.171687 ], [ -82.847773, 28.171682 ], [ -82.848679, 28.171797 ], [ -82.849361, 28.171883 ], [ -82.851399, 28.172142 ], [ -82.852306, 28.172257 ], [ -82.854653, 28.172229 ], [ -82.856844, 28.172204 ], [ -82.87046, 28.172049 ], [ -82.874999, 28.171997 ], [ -82.875003, 28.17205 ], [ -82.875018, 28.172212 ], [ -82.875024, 28.172266 ], [ -82.880942, 28.172186 ], [ -82.893331, 28.172076 ], [ -82.896738, 28.172047 ], [ -82.906477, 28.171961 ], [ -82.959072, 28.171462 ], [ -83.01875, 28.17098 ], [ -83.019273, 28.175089 ], [ -83.0202, 28.18233 ], [ -83.02141, 28.19224 ], [ -83.02205, 28.19891 ], [ -83.02236, 28.20559 ], [ -83.02236, 28.21138 ], [ -83.02224, 28.21482 ], [ -83.02163, 28.2211 ], [ -83.02025, 28.23135 ], [ -83.01942, 28.23637 ], [ -83.01856, 28.24019 ], [ -83.01698, 28.24645 ], [ -83.01529, 28.25226 ], [ -83.01399, 28.25609 ], [ -83.0124, 28.26041 ], [ -83.01094, 28.264 ], [ -83.00992, 28.26638 ], [ -83.00916, 28.26807 ], [ -83.0074, 28.27175 ], [ -83.00519, 28.27605 ], [ -83.00282, 28.28029 ], [ -83.00099, 28.28334 ], [ -82.99971, 28.28541 ], [ -82.99647, 28.29026 ], [ -82.99258, 28.29559 ], [ -82.98821, 28.30107 ], [ -82.98381, 28.30609 ], [ -82.97863, 28.31148 ], [ -82.97418, 28.31574 ], [ -82.96895, 28.32034 ], [ -82.96349, 28.32474 ], [ -82.95926, 28.3279 ], [ -82.95378, 28.3317 ], [ -82.94676, 28.33612 ], [ -82.94072, 28.33956 ], [ -82.93773, 28.34115 ], [ -82.93381, 28.34312 ], [ -82.93092, 28.3445 ], [ -82.92709, 28.34623 ], [ -82.92096, 28.34878 ], [ -82.91681, 28.35035 ], [ -82.91281, 28.35191 ], [ -82.91279, 28.3525 ], [ -82.91049, 28.35326 ], [ -82.90489, 28.35499 ], [ -82.90039, 28.35623 ], [ -82.89736, 28.35701 ], [ -82.89664, 28.35864 ], [ -82.89493, 28.36517 ], [ -82.89392, 28.3685 ], [ -82.8933, 28.37042 ], [ -82.89228, 28.37337 ], [ -82.89165, 28.3751 ], [ -82.88963, 28.38024 ], [ -82.88769, 28.38465 ], [ -82.88675, 28.38666 ], [ -82.88476, 28.39064 ], [ -82.8839, 28.39343 ], [ -82.8832, 28.39609 ], [ -82.88175, 28.40101 ], [ -82.88006, 28.40603 ], [ -82.87839, 28.41046 ], [ -82.87761, 28.41268 ], [ -82.87751, 28.41394 ], [ -82.87726, 28.41647 ], [ -82.87662, 28.42152 ], [ -82.87573, 28.4269 ], [ -82.87494, 28.430786 ], [ -82.865823, 28.430985 ], [ -82.763547, 28.432377 ], [ -82.754242, 28.43251 ], [ -82.750001, 28.432592 ], [ -82.688311, 28.433335 ], [ -82.686516, 28.433357 ], [ -82.686002, 28.433363 ], [ -82.683824, 28.433392 ], [ -82.681131, 28.433425 ], [ -82.679337, 28.433448 ], [ -82.679218, 28.433449 ], [ -82.67904, 28.433452 ], [ -82.678861, 28.433454 ], [ -82.678742, 28.433456 ], [ -82.678459, 28.433459 ], [ -82.678063, 28.433464 ], [ -82.678038, 28.433465 ], [ -82.677613, 28.43347 ], [ -82.677331, 28.433474 ], [ -82.677149, 28.433476 ], [ -82.676614, 28.433483 ], [ -82.676603, 28.433483 ], [ -82.676422, 28.433487 ], [ -82.675659, 28.433503 ], [ -82.674011, 28.433539 ], [ -82.672777, 28.43355 ], [ -82.672627, 28.433551 ], [ -82.67203, 28.433557 ], [ -82.671432, 28.433562 ], [ -82.671338, 28.433563 ], [ -82.670697, 28.43357 ], [ -82.670057, 28.433575 ], [ -82.66828, 28.433582 ], [ -82.667976, 28.433584 ], [ -82.667888, 28.433584 ], [ -82.667803, 28.433584 ], [ -82.667578, 28.433586 ], [ -82.667338, 28.433586 ], [ -82.667092, 28.433588 ], [ -82.666987, 28.433588 ], [ -82.666409, 28.433589 ], [ -82.665303, 28.433598 ], [ -82.664476, 28.433602 ], [ -82.663825, 28.433604 ], [ -82.663749, 28.433604 ], [ -82.663673, 28.433604 ], [ -82.663472, 28.433605 ], [ -82.663055, 28.433606 ], [ -82.662405, 28.43361 ], [ -82.661805, 28.433613 ], [ -82.661754, 28.433614 ], [ -82.657459, 28.433624 ], [ -82.657179, 28.433625 ], [ -82.654137, 28.433651 ], [ -82.649466, 28.433693 ], [ -82.648674, 28.4337 ], [ -82.639965, 28.433842 ], [ -82.639762, 28.433843 ], [ -82.638528, 28.433846 ], [ -82.638387, 28.433846 ], [ -82.637254, 28.433848 ], [ -82.635698, 28.43385 ], [ -82.6352, 28.433852 ], [ -82.634563, 28.433853 ], [ -82.633599, 28.433854 ], [ -82.632971, 28.433853 ], [ -82.632656, 28.433853 ], [ -82.631679, 28.433853 ], [ -82.630721, 28.433852 ], [ -82.627828, 28.43385 ], [ -82.627452, 28.43385 ], [ -82.627337, 28.43385 ], [ -82.625131, 28.433848 ], [ -82.624824, 28.433848 ], [ -82.622948, 28.433846 ], [ -82.619735, 28.433844 ], [ -82.617656, 28.433843 ], [ -82.617183, 28.433843 ], [ -82.616692, 28.433844 ], [ -82.615838, 28.433848 ], [ -82.61572, 28.433848 ], [ -82.614925, 28.433852 ], [ -82.614731, 28.433853 ], [ -82.61435, 28.433854 ], [ -82.61397, 28.433856 ], [ -82.612981, 28.43386 ], [ -82.612943, 28.43386 ], [ -82.61256, 28.433862 ], [ -82.612027, 28.433864 ], [ -82.61123, 28.433867 ], [ -82.611122, 28.433868 ], [ -82.611053, 28.433868 ], [ -82.610863, 28.433868 ], [ -82.607134, 28.433884 ], [ -82.606998, 28.433884 ], [ -82.606985, 28.433885 ], [ -82.606176, 28.433888 ], [ -82.605795, 28.433888 ], [ -82.60562, 28.43389 ], [ -82.605204, 28.433892 ], [ -82.603932, 28.433897 ], [ -82.603804, 28.433898 ], [ -82.602149, 28.433904 ], [ -82.601084, 28.433908 ], [ -82.60069, 28.43391 ], [ -82.600636, 28.43391 ], [ -82.600507, 28.43391 ], [ -82.599014, 28.433906 ], [ -82.59823, 28.433904 ], [ -82.598192, 28.433904 ], [ -82.598049, 28.433904 ], [ -82.5967, 28.433901 ], [ -82.594889, 28.433897 ], [ -82.594472, 28.433896 ], [ -82.593153, 28.433893 ], [ -82.592443, 28.433891 ], [ -82.592142, 28.433891 ], [ -82.592071, 28.433891 ], [ -82.591289, 28.433888 ], [ -82.591135, 28.433888 ], [ -82.591029, 28.433888 ], [ -82.590123, 28.433886 ], [ -82.58997, 28.433886 ], [ -82.588725, 28.433883 ], [ -82.587033, 28.433879 ], [ -82.586068, 28.433877 ], [ -82.585104, 28.433875 ], [ -82.58255, 28.433869 ], [ -82.58157, 28.433867 ], [ -82.580605, 28.433865 ], [ -82.580507, 28.433865 ], [ -82.58001, 28.433864 ], [ -82.578424, 28.433862 ], [ -82.57834, 28.433861 ], [ -82.571889, 28.433854 ], [ -82.568314, 28.43385 ], [ -82.568302, 28.43385 ], [ -82.568104, 28.43385 ], [ -82.567828, 28.43385 ], [ -82.566881, 28.433849 ], [ -82.566733, 28.433848 ], [ -82.565566, 28.433847 ], [ -82.563666, 28.433845 ], [ -82.562922, 28.433845 ], [ -82.562842, 28.433844 ], [ -82.559554, 28.433843 ], [ -82.558251, 28.433843 ], [ -82.556149, 28.433845 ], [ -82.555438, 28.433846 ], [ -82.553392, 28.433847 ], [ -82.551808, 28.433849 ], [ -82.551332, 28.433849 ], [ -82.551281, 28.433848 ], [ -82.550876, 28.433846 ], [ -82.550014, 28.433841 ], [ -82.548661, 28.433834 ], [ -82.546154, 28.43382 ], [ -82.546129, 28.433819 ], [ -82.543408, 28.433805 ], [ -82.54335, 28.433804 ], [ -82.541987, 28.433797 ], [ -82.538375, 28.433777 ], [ -82.537959, 28.433774 ], [ -82.536231, 28.433765 ], [ -82.535192, 28.433759 ], [ -82.532394, 28.433752 ], [ -82.532074, 28.433751 ], [ -82.530953, 28.433749 ], [ -82.528328, 28.433742 ], [ -82.527948, 28.433741 ], [ -82.519742, 28.433721 ], [ -82.519731, 28.433721 ], [ -82.519283, 28.43372 ], [ -82.518788, 28.433719 ], [ -82.517761, 28.433718 ], [ -82.516773, 28.433716 ], [ -82.514591, 28.433713 ], [ -82.513893, 28.433712 ], [ -82.512913, 28.433711 ], [ -82.512887, 28.433683 ], [ -82.512886, 28.43371 ], [ -82.51126, 28.43371 ], [ -82.508465, 28.433708 ], [ -82.506836, 28.433707 ], [ -82.50286, 28.433706 ], [ -82.499195, 28.433705 ], [ -82.499169, 28.433705 ], [ -82.497775, 28.433705 ], [ -82.496627, 28.433705 ], [ -82.496609, 28.433705 ], [ -82.495968, 28.433705 ], [ -82.490847, 28.433709 ], [ -82.49043, 28.433709 ], [ -82.490173, 28.433709 ], [ -82.488406, 28.433705 ], [ -82.486364, 28.4337 ], [ -82.48615, 28.4337 ], [ -82.485899, 28.433698 ], [ -82.485564, 28.433697 ], [ -82.485241, 28.433697 ], [ -82.485112, 28.433697 ], [ -82.484968, 28.433698 ], [ -82.4844, 28.4337 ], [ -82.483699, 28.433703 ], [ -82.481225, 28.433714 ], [ -82.480813, 28.433716 ], [ -82.479792, 28.43372 ], [ -82.47978, 28.43372 ], [ -82.477616, 28.43373 ], [ -82.47759, 28.43373 ], [ -82.474927, 28.433741 ], [ -82.472478, 28.433753 ], [ -82.472261, 28.433754 ], [ -82.469355, 28.433767 ], [ -82.467965, 28.433769 ], [ -82.467795, 28.433769 ], [ -82.466701, 28.433771 ], [ -82.466196, 28.433771 ], [ -82.464065, 28.433774 ], [ -82.463636, 28.433774 ], [ -82.463517, 28.433774 ], [ -82.463466, 28.433775 ], [ -82.462114, 28.433776 ], [ -82.461889, 28.433776 ], [ -82.459181, 28.433687 ], [ -82.457684, 28.433731 ], [ -82.457577, 28.433733 ], [ -82.457477, 28.433736 ], [ -82.457054, 28.433745 ], [ -82.456849, 28.433746 ], [ -82.454458, 28.433749 ], [ -82.453881, 28.433749 ], [ -82.452909, 28.433751 ], [ -82.448301, 28.433756 ], [ -82.448041, 28.433756 ], [ -82.444743, 28.43376 ], [ -82.440553, 28.433764 ], [ -82.437985, 28.433767 ], [ -82.436472, 28.433769 ], [ -82.435868, 28.433773 ], [ -82.427749, 28.433838 ], [ -82.419934, 28.4339 ], [ -82.409929, 28.433969 ], [ -82.40987, 28.433969 ], [ -82.409787, 28.433969 ], [ -82.40954, 28.433971 ], [ -82.409458, 28.433972 ], [ -82.409371, 28.433972 ], [ -82.409242, 28.433974 ], [ -82.409113, 28.433974 ], [ -82.409027, 28.433975 ], [ -82.407694, 28.433983 ], [ -82.403697, 28.434011 ], [ -82.402365, 28.43402 ], [ -82.40179, 28.434023 ], [ -82.400066, 28.434035 ], [ -82.399492, 28.434039 ], [ -82.398575, 28.434045 ], [ -82.394556, 28.434072 ], [ -82.387217, 28.434122 ], [ -82.38392, 28.434145 ], [ -82.379748, 28.434082 ], [ -82.374813, 28.434009 ], [ -82.374469, 28.434012 ], [ -82.37344, 28.434025 ], [ -82.373097, 28.43403 ], [ -82.372389, 28.434038 ], [ -82.370756, 28.434058 ], [ -82.370601, 28.43406 ], [ -82.370162, 28.434067 ], [ -82.355384, 28.434298 ], [ -82.352495, 28.434343 ], [ -82.348349, 28.434408 ], [ -82.347168, 28.434427 ], [ -82.343874, 28.434478 ], [ -82.340636, 28.434529 ], [ -82.326878, 28.434744 ], [ -82.320301, 28.434847 ], [ -82.319425, 28.434965 ], [ -82.31941, 28.434955 ], [ -82.319373, 28.434939 ], [ -82.315283, 28.434908 ], [ -82.315259, 28.434908 ], [ -82.31523, 28.434908 ], [ -82.315209, 28.434908 ], [ -82.313159, 28.434896 ], [ -82.310555, 28.434894 ], [ -82.3071, 28.434877 ], [ -82.306976, 28.434879 ], [ -82.305873, 28.434896 ], [ -82.305316, 28.434896 ], [ -82.305284, 28.434899 ], [ -82.303548, 28.434908 ], [ -82.302823, 28.434897 ], [ -82.285472, 28.434782 ], [ -82.285345, 28.434782 ], [ -82.284816, 28.434782 ], [ -82.28323, 28.434786 ], [ -82.282702, 28.434787 ], [ -82.282616, 28.434787 ], [ -82.282361, 28.434787 ], [ -82.282277, 28.434788 ], [ -82.282244, 28.434788 ], [ -82.282146, 28.434788 ], [ -82.282114, 28.434789 ], [ -82.281394, 28.43479 ], [ -82.281206, 28.43479 ], [ -82.281121, 28.43479 ], [ -82.280979, 28.43479 ], [ -82.279566, 28.434792 ], [ -82.269946, 28.434804 ], [ -82.269823, 28.434804 ], [ -82.269809, 28.434804 ], [ -82.253439, 28.434824 ], [ -82.253437, 28.435257 ], [ -82.253436, 28.435578 ], [ -82.253433, 28.437521 ], [ -82.253433, 28.437633 ], [ -82.253431, 28.4378 ], [ -82.253426, 28.438305 ], [ -82.253425, 28.438473 ], [ -82.253419, 28.439035 ], [ -82.253405, 28.440721 ], [ -82.2534, 28.441284 ], [ -82.253398, 28.441476 ], [ -82.253392, 28.442056 ], [ -82.253391, 28.442249 ], [ -82.253359, 28.445764 ], [ -82.253358, 28.445958 ], [ -82.253357, 28.446024 ], [ -82.25331, 28.456782 ], [ -82.253312, 28.456939 ], [ -82.253296, 28.457716 ], [ -82.253321, 28.459749 ], [ -82.253326, 28.460532 ], [ -82.253309, 28.463771 ], [ -82.253307, 28.464198 ], [ -82.253307, 28.464229 ], [ -82.253317, 28.4659 ], [ -82.25332, 28.468104 ], [ -82.253333, 28.472053 ], [ -82.253316, 28.476812 ], [ -82.253316, 28.476851 ], [ -82.253293, 28.478431 ], [ -82.253293, 28.478491 ], [ -82.252084, 28.478751 ], [ -82.251907, 28.478794 ], [ -82.251726, 28.478807 ], [ -82.25164, 28.478806 ], [ -82.251625, 28.478816 ], [ -82.251308, 28.478837 ], [ -82.249799, 28.478823 ], [ -82.249212, 28.478818 ], [ -82.246505, 28.478786 ], [ -82.245465, 28.478771 ], [ -82.245132, 28.478767 ], [ -82.244931, 28.478764 ], [ -82.243136, 28.47874 ], [ -82.242971, 28.478738 ], [ -82.240021, 28.478707 ], [ -82.236775, 28.478666 ], [ -82.236765, 28.478656 ], [ -82.232552, 28.478635 ], [ -82.231194, 28.478633 ], [ -82.231176, 28.478632 ], [ -82.227139, 28.478626 ], [ -82.222359, 28.478716 ], [ -82.220325, 28.478614 ], [ -82.220072, 28.478602 ], [ -82.217706, 28.478604 ], [ -82.215567, 28.478605 ], [ -82.211926, 28.478594 ], [ -82.2118, 28.478593 ], [ -82.209689, 28.47859 ], [ -82.208634, 28.478589 ], [ -82.20778, 28.478588 ], [ -82.20663, 28.478584 ], [ -82.204231, 28.478722 ], [ -82.204121, 28.478727 ], [ -82.204203, 28.47857 ], [ -82.200286, 28.478502 ], [ -82.200192, 28.4785 ], [ -82.200075, 28.478504 ], [ -82.199279, 28.478546 ], [ -82.19898, 28.478525 ], [ -82.198742, 28.478508 ], [ -82.198693, 28.478509 ], [ -82.198661, 28.478509 ], [ -82.198402, 28.47851 ], [ -82.198191, 28.478511 ], [ -82.197898, 28.478511 ], [ -82.197446, 28.478513 ], [ -82.197328, 28.478514 ], [ -82.197305, 28.478514 ], [ -82.197095, 28.478516 ], [ -82.196744, 28.478519 ], [ -82.195978, 28.478522 ], [ -82.195932, 28.478522 ], [ -82.19582, 28.478459 ], [ -82.189811, 28.478471 ], [ -82.18979, 28.478471 ], [ -82.189728, 28.478471 ], [ -82.189708, 28.478471 ], [ -82.189691, 28.478471 ], [ -82.189643, 28.478471 ], [ -82.189627, 28.478471 ], [ -82.185012, 28.478481 ], [ -82.178276, 28.478496 ], [ -82.177655, 28.478498 ], [ -82.175524, 28.47849 ], [ -82.175397, 28.478489 ], [ -82.175257, 28.478488 ], [ -82.175191, 28.478488 ], [ -82.175125, 28.478488 ], [ -82.175026, 28.478487 ], [ -82.174785, 28.478486 ], [ -82.173767, 28.478483 ], [ -82.173428, 28.478482 ], [ -82.171083, 28.478472 ], [ -82.170417, 28.478469 ], [ -82.16842, 28.47846 ], [ -82.167755, 28.478458 ], [ -82.167686, 28.478457 ], [ -82.167584, 28.478457 ], [ -82.16748, 28.478457 ], [ -82.167412, 28.478457 ], [ -82.16734, 28.478456 ], [ -82.167233, 28.478456 ], [ -82.167125, 28.478456 ], [ -82.167054, 28.478456 ], [ -82.166754, 28.478454 ], [ -82.165855, 28.47845 ], [ -82.165556, 28.478449 ], [ -82.165444, 28.478448 ], [ -82.165276, 28.478448 ], [ -82.165108, 28.478447 ], [ -82.164996, 28.478447 ], [ -82.164938, 28.478446 ], [ -82.164768, 28.478446 ], [ -82.164711, 28.478446 ], [ -82.164605, 28.478445 ], [ -82.164289, 28.478444 ], [ -82.164184, 28.478444 ], [ -82.16411, 28.478443 ], [ -82.164037, 28.478443 ], [ -82.163879, 28.478442 ], [ -82.163717, 28.478441 ], [ -82.163299, 28.478419 ], [ -82.162611, 28.478425 ], [ -82.161755, 28.478435 ], [ -82.155158, 28.478428 ], [ -82.154814, 28.478428 ], [ -82.154569, 28.478427 ], [ -82.154088, 28.478427 ], [ -82.153923, 28.478427 ], [ -82.153819, 28.478427 ], [ -82.152775, 28.478426 ], [ -82.147938, 28.478422 ], [ -82.147131, 28.478421 ], [ -82.146815, 28.478421 ], [ -82.14038, 28.478416 ], [ -82.124802, 28.478533 ], [ -82.121045, 28.478499 ], [ -82.117006, 28.478461 ], [ -82.112691, 28.47845 ], [ -82.111979, 28.478449 ], [ -82.111957, 28.478455 ], [ -82.098965, 28.478546 ], [ -82.098749, 28.478546 ], [ -82.095634, 28.478535 ], [ -82.08629, 28.478504 ], [ -82.083176, 28.478494 ], [ -82.083045, 28.478493 ], [ -82.082849, 28.478492 ], [ -82.082652, 28.478491 ], [ -82.082522, 28.478491 ], [ -82.079585, 28.478481 ], [ -82.075529, 28.478467 ], [ -82.070775, 28.478452 ], [ -82.068171, 28.478444 ], [ -82.067839, 28.478442 ], [ -82.06779, 28.478439 ], [ -82.063127, 28.478424 ], [ -82.054694, 28.478397 ], [ -82.0547, 28.47462 ], [ -82.05483, 28.45868 ], [ -82.05483, 28.458654 ], [ -82.054841, 28.456893 ], [ -82.054876, 28.451616 ], [ -82.05489, 28.449858 ], [ -82.054894, 28.449048 ], [ -82.054899, 28.448311 ], [ -82.054935, 28.443672 ], [ -82.054948, 28.442127 ], [ -82.05495, 28.44197 ], [ -82.054963, 28.439188 ], [ -82.054989, 28.434241 ], [ -82.055012, 28.430368 ], [ -82.05503, 28.427429 ], [ -82.055031, 28.427231 ], [ -82.055036, 28.426639 ], [ -82.055038, 28.426442 ], [ -82.05505, 28.42484 ], [ -82.05509, 28.420035 ], [ -82.055091, 28.419827 ], [ -82.055103, 28.418434 ], [ -82.055105, 28.418072 ], [ -82.05511, 28.417531 ], [ -82.055114, 28.416988 ], [ -82.055117, 28.416627 ], [ -82.055125, 28.415612 ], [ -82.055128, 28.415292 ], [ -82.055139, 28.413957 ], [ -82.055148, 28.412756 ], [ -82.055149, 28.41257 ], [ -82.055158, 28.411556 ], [ -82.055165, 28.411309 ], [ -82.05519, 28.410568 ], [ -82.0552, 28.410322 ], [ -82.055202, 28.410264 ], [ -82.055198, 28.410071 ], [ -82.055196, 28.409964 ], [ -82.055181, 28.409321 ], [ -82.055176, 28.409071 ], [ -82.055179, 28.408483 ], [ -82.05519, 28.406721 ], [ -82.055194, 28.406134 ], [ -82.055212, 28.404247 ], [ -82.055269, 28.398594 ], [ -82.05529, 28.39671 ], [ -82.0553, 28.39242 ], [ -82.055305, 28.390609 ], [ -82.055337, 28.379553 ], [ -82.055351, 28.375266 ], [ -82.055359, 28.37496 ], [ -82.055389, 28.374043 ], [ -82.0554, 28.37374 ], [ -82.055399, 28.373705 ], [ -82.055418, 28.368332 ], [ -82.055474, 28.352116 ], [ -82.055495, 28.346711 ], [ -82.055498, 28.346508 ], [ -82.055509, 28.345898 ], [ -82.055513, 28.345696 ], [ -82.055531, 28.339735 ], [ -82.055552, 28.333283 ], [ -82.055658, 28.328234 ], [ -82.055709, 28.325823 ], [ -82.055742, 28.321855 ], [ -82.055754, 28.32056 ], [ -82.055775, 28.315895 ], [ -82.055787, 28.313096 ], [ -82.055819, 28.312794 ], [ -82.055811, 28.31198 ], [ -82.05581, 28.311874 ], [ -82.055809, 28.311773 ], [ -82.055836, 28.305732 ], [ -82.055838, 28.303794 ], [ -82.055846, 28.302879 ], [ -82.055847, 28.302768 ], [ -82.055853, 28.302123 ], [ -82.055854, 28.302009 ], [ -82.055854, 28.301944 ], [ -82.055855, 28.301355 ], [ -82.055851, 28.300895 ], [ -82.05585, 28.300808 ], [ -82.055847, 28.300492 ], [ -82.055818, 28.299628 ], [ -82.055739, 28.298574 ], [ -82.055644, 28.297492 ], [ -82.055574, 28.296638 ], [ -82.055573, 28.296625 ], [ -82.055549, 28.296327 ], [ -82.055516, 28.295683 ], [ -82.055501, 28.295038 ], [ -82.055501, 28.294644 ], [ -82.055501, 28.294603 ], [ -82.055501, 28.293645 ], [ -82.055502, 28.293623 ], [ -82.055502, 28.292064 ], [ -82.055503, 28.29199 ], [ -82.055503, 28.286617 ], [ -82.055508, 28.28539 ], [ -82.055504, 28.284453 ], [ -82.055502, 28.282297 ], [ -82.055502, 28.282192 ], [ -82.055496, 28.275968 ], [ -82.055491, 28.274958 ], [ -82.055504, 28.270499 ], [ -82.055501, 28.268676 ], [ -82.05551, 28.267823 ], [ -82.055505, 28.266995 ], [ -82.055513, 28.266244 ], [ -82.055512, 28.265638 ], [ -82.055529, 28.2602 ], [ -82.055529, 28.260044 ], [ -82.055528, 28.259889 ], [ -82.055528, 28.259635 ], [ -82.055531, 28.25896 ], [ -82.055531, 28.258928 ], [ -82.055764, 28.25894 ], [ -82.057579, 28.259023 ], [ -82.06257, 28.259125 ], [ -82.063851, 28.259151 ], [ -82.065017, 28.259153 ], [ -82.065195, 28.259154 ], [ -82.065371, 28.259156 ], [ -82.07076, 28.259177 ], [ -82.071571, 28.25918 ], [ -82.072434, 28.259184 ], [ -82.072582, 28.259187 ], [ -82.073635, 28.25921 ], [ -82.075588, 28.259196 ], [ -82.075753, 28.259249 ], [ -82.075825, 28.259264 ], [ -82.075971, 28.259277 ], [ -82.07612, 28.259277 ], [ -82.076491, 28.25928 ], [ -82.078774, 28.259278 ], [ -82.080356, 28.259281 ], [ -82.081282, 28.259276 ], [ -82.08219, 28.259279 ], [ -82.083057, 28.259276 ], [ -82.083771, 28.259279 ], [ -82.084942, 28.259277 ], [ -82.08939, 28.259273 ], [ -82.090799, 28.259273 ], [ -82.091776, 28.259266 ], [ -82.092674, 28.259267 ], [ -82.096568, 28.259259 ], [ -82.096711, 28.259259 ], [ -82.097643, 28.259261 ], [ -82.099341, 28.259254 ], [ -82.105401, 28.259242 ], [ -82.105482, 28.259241 ], [ -82.106206, 28.25924 ], [ -82.106205, 28.259226 ], [ -82.106204, 28.259092 ], [ -82.106204, 28.257786 ], [ -82.106236, 28.250237 ], [ -82.106226, 28.243842 ], [ -82.10622, 28.237919 ], [ -82.10622, 28.237807 ], [ -82.106219, 28.2375 ], [ -82.106205, 28.224196 ], [ -82.106018, 28.219675 ], [ -82.105845, 28.215452 ], [ -82.105836, 28.215232 ], [ -82.105857, 28.197322 ], [ -82.105869, 28.187794 ], [ -82.105885, 28.186498 ], [ -82.105885, 28.184949 ], [ -82.105885, 28.180302 ], [ -82.105885, 28.178754 ], [ -82.105882, 28.178271 ], [ -82.105876, 28.176822 ], [ -82.105874, 28.176339 ], [ -82.105869, 28.175401 ], [ -82.105857, 28.172587 ], [ -82.105853, 28.17165 ], [ -82.124806, 28.172149 ], [ -82.138758, 28.171802 ], [ -82.138839, 28.171801 ], [ -82.139035, 28.171688 ], [ -82.139296, 28.171655 ], [ -82.143424, 28.171657 ], [ -82.151245, 28.171658 ], [ -82.155623, 28.17166 ], [ -82.155648, 28.171661 ], [ -82.155736, 28.171662 ], [ -82.156023, 28.171665 ], [ -82.157749, 28.171667 ], [ -82.158907, 28.171668 ], [ -82.15931, 28.171668 ], [ -82.160837, 28.17167 ], [ -82.161126, 28.17167 ], [ -82.161754, 28.171671 ], [ -82.1636, 28.171672 ], [ -82.1646, 28.171732 ], [ -82.164905, 28.17173 ], [ -82.167651, 28.171722 ], [ -82.167803, 28.171722 ], [ -82.169207, 28.171737 ], [ -82.16958, 28.171741 ], [ -82.171783, 28.171764 ], [ -82.174245, 28.171777 ], [ -82.175383, 28.171784 ], [ -82.175604, 28.171785 ], [ -82.175859, 28.171786 ], [ -82.17588, 28.171683 ], [ -82.17997, 28.171669 ], [ -82.181185, 28.171664 ], [ -82.18192, 28.171661 ], [ -82.184055, 28.171653 ], [ -82.188412, 28.171724 ], [ -82.194826, 28.171898 ], [ -82.211647, 28.171868 ], [ -82.21196, 28.171868 ], [ -82.218753, 28.171853 ], [ -82.228388, 28.171611 ], [ -82.231662, 28.171582 ], [ -82.237667, 28.171528 ], [ -82.241488, 28.171495 ], [ -82.244763, 28.171467 ], [ -82.246672, 28.171468 ], [ -82.249808, 28.171471 ], [ -82.252399, 28.171468 ], [ -82.25412, 28.171459 ], [ -82.254309, 28.171467 ], [ -82.258084, 28.171463 ], [ -82.259741, 28.171462 ] ] ] ] } }
]
}
