{
"type": "FeatureCollection",
"name": "US.412A",
"crs": { "type": "name", "properties": { "name": "urn:ogc:def:crs:OGC:1.3:CRS84" } },
"features": [
{ "type": "Feature", "properties": { "NAME": "Mayes", "STUSPS": "OK" }, "geometry": { "type": "MultiPolygon", "coordinates": [ [ [ [ -95.435623, 36.393542 ], [ -95.435557, 36.394208 ], [ -95.435558, 36.395683 ], [ -95.435615, 36.395689 ], [ -95.435588, 36.402688 ], [ -95.435581, 36.404611 ], [ -95.435566, 36.408539 ], [ -95.435562, 36.40945 ], [ -95.435562, 36.409832 ], [ -95.435563, 36.411169 ], [ -95.435563, 36.411409 ], [ -95.435563, 36.411853 ], [ -95.435563, 36.412279 ], [ -95.435563, 36.412488 ], [ -95.435564, 36.413898 ], [ -95.435564, 36.414158 ], [ -95.43556, 36.41422 ], [ -95.435564, 36.414681 ], [ -95.435564, 36.414705 ], [ -95.43557, 36.41536 ], [ -95.435576, 36.417027 ], [ -95.43558, 36.41781 ], [ -95.43558, 36.417891 ], [ -95.43558, 36.418134 ], [ -95.435581, 36.418216 ], [ -95.435583, 36.41921 ], [ -95.43559, 36.42154 ], [ -95.435586, 36.422195 ], [ -95.43558, 36.42319 ], [ -95.43558, 36.42515 ], [ -95.43558, 36.425202 ], [ -95.43558, 36.42756 ], [ -95.435589, 36.429931 ], [ -95.43559, 36.43008 ], [ -95.43558, 36.43051 ], [ -95.43558, 36.4308 ], [ -95.43558, 36.43122 ], [ -95.43558, 36.431237 ], [ -95.43559, 36.43267 ], [ -95.43559, 36.43325 ], [ -95.43559, 36.433624 ], [ -95.43559, 36.434746 ], [ -95.43559, 36.43512 ], [ -95.435584, 36.435635 ], [ -95.43558, 36.43606 ], [ -95.43558, 36.437183 ], [ -95.43558, 36.4377 ], [ -95.435573, 36.437833 ], [ -95.435555, 36.438235 ], [ -95.43555, 36.43837 ], [ -95.43557, 36.4404 ], [ -95.43557, 36.441133 ], [ -95.43557, 36.442497 ], [ -95.43557, 36.449425 ], [ -95.43557, 36.45219 ], [ -95.43557, 36.453438 ], [ -95.43557, 36.45393 ], [ -95.43558, 36.45482 ], [ -95.43558, 36.455 ], [ -95.43558, 36.45588 ], [ -95.435585, 36.457181 ], [ -95.43559, 36.45843 ], [ -95.43559, 36.45941 ], [ -95.43559, 36.459614 ], [ -95.43559, 36.46308 ], [ -95.43559, 36.463166 ], [ -95.43559, 36.46435 ], [ -95.435592, 36.464819 ], [ -95.435598, 36.466229 ], [ -95.435599, 36.466354 ], [ -95.4356, 36.4667 ], [ -95.4356, 36.46724 ], [ -95.435603, 36.468093 ], [ -95.43561, 36.47006 ], [ -95.4356, 36.47137 ], [ -95.435597, 36.472274 ], [ -95.435592, 36.473667 ], [ -95.43559, 36.47476 ], [ -95.43559, 36.475172 ], [ -95.43559, 36.47556 ], [ -95.43559, 36.47794 ], [ -95.4356, 36.47884 ], [ -95.4356, 36.47941 ], [ -95.4356, 36.47963 ], [ -95.4356, 36.479685 ], [ -95.43561, 36.48023 ], [ -95.43561, 36.480854 ], [ -95.43561, 36.48119 ], [ -95.435606, 36.483359 ], [ -95.4356, 36.48677 ], [ -95.4356, 36.4878 ], [ -95.4356, 36.489869 ], [ -95.4356, 36.4901 ], [ -95.4356, 36.49073 ], [ -95.4356, 36.49204 ], [ -95.4356, 36.492708 ], [ -95.4356, 36.4931 ], [ -95.435609, 36.494711 ], [ -95.43561, 36.4948 ], [ -95.43561, 36.49538 ], [ -95.435611, 36.495441 ], [ -95.435617, 36.495628 ], [ -95.43562, 36.49569 ], [ -95.43562, 36.496016 ], [ -95.43562, 36.49721 ], [ -95.43562, 36.49741 ], [ -95.43562, 36.49768 ], [ -95.43561, 36.49833 ], [ -95.435607, 36.498583 ], [ -95.4356, 36.49945 ], [ -95.43561, 36.50007 ], [ -95.43561, 36.50015 ], [ -95.43561, 36.50028 ], [ -95.43561, 36.50299 ], [ -95.435617, 36.505683 ], [ -95.43562, 36.50687 ], [ -95.435617, 36.507265 ], [ -95.43561, 36.50829 ], [ -95.43561, 36.51016 ], [ -95.435408, 36.510164 ], [ -95.434801, 36.510175 ], [ -95.4346, 36.51018 ], [ -95.43311, 36.51019 ], [ -95.43181, 36.51018 ], [ -95.43091, 36.51019 ], [ -95.426832, 36.51019 ], [ -95.426669, 36.510189 ], [ -95.422649, 36.510195 ], [ -95.420008, 36.510199 ], [ -95.412909, 36.510209 ], [ -95.409993, 36.51021 ], [ -95.40835, 36.51021 ], [ -95.39994, 36.5102 ], [ -95.39914, 36.51021 ], [ -95.397258, 36.51021 ], [ -95.39514, 36.51021 ], [ -95.3926, 36.5102 ], [ -95.39144, 36.51021 ], [ -95.389212, 36.51021 ], [ -95.38653, 36.51021 ], [ -95.385904, 36.51021 ], [ -95.384026, 36.51021 ], [ -95.383401, 36.51021 ], [ -95.38322, 36.51021 ], [ -95.3831, 36.51021 ], [ -95.38289, 36.51019 ], [ -95.38224, 36.510196 ], [ -95.38195, 36.5102 ], [ -95.378698, 36.510185 ], [ -95.37747, 36.51018 ], [ -95.377226, 36.51018 ], [ -95.37707, 36.51018 ], [ -95.37298, 36.51019 ], [ -95.372169, 36.510193 ], [ -95.37065, 36.5102 ], [ -95.368942, 36.5102 ], [ -95.36569, 36.5102 ], [ -95.364473, 36.51008 ], [ -95.36424, 36.510086 ], [ -95.364061, 36.510138 ], [ -95.36359, 36.5102 ], [ -95.362957, 36.510211 ], [ -95.3625, 36.51022 ], [ -95.36087, 36.5102 ], [ -95.360379, 36.510203 ], [ -95.35952, 36.51021 ], [ -95.358827, 36.510211 ], [ -95.356747, 36.510216 ], [ -95.356055, 36.510218 ], [ -95.354064, 36.510222 ], [ -95.35084, 36.51023 ], [ -95.348091, 36.51023 ], [ -95.3461, 36.51023 ], [ -95.344771, 36.510224 ], [ -95.34345, 36.51022 ], [ -95.340786, 36.51024 ], [ -95.33964, 36.51025 ], [ -95.339458, 36.510249 ], [ -95.33737, 36.51024 ], [ -95.3372, 36.510242 ], [ -95.3336, 36.51029 ], [ -95.33272, 36.51028 ], [ -95.33192, 36.51026 ], [ -95.33086, 36.51025 ], [ -95.330427, 36.510248 ], [ -95.32817, 36.51024 ], [ -95.327492, 36.510238 ], [ -95.325458, 36.510232 ], [ -95.32478, 36.51023 ], [ -95.324069, 36.51023 ], [ -95.32331, 36.51023 ], [ -95.322163, 36.510228 ], [ -95.321936, 36.510228 ], [ -95.321224, 36.510229 ], [ -95.31822, 36.51028 ], [ -95.317819, 36.510282 ], [ -95.31475, 36.5103 ], [ -95.31292, 36.51033 ], [ -95.30983, 36.51028 ], [ -95.30927, 36.510246 ], [ -95.30917, 36.51024 ], [ -95.308481, 36.510247 ], [ -95.307625, 36.510248 ], [ -95.30558, 36.5103 ], [ -95.30452, 36.51033 ], [ -95.30418, 36.51032 ], [ -95.303613, 36.510313 ], [ -95.30334, 36.51031 ], [ -95.301912, 36.51031 ], [ -95.301346, 36.51031 ], [ -95.301154, 36.51031 ], [ -95.300581, 36.51031 ], [ -95.30039, 36.51031 ], [ -95.30028, 36.5103 ], [ -95.298736, 36.510296 ], [ -95.295232, 36.510288 ], [ -95.293774, 36.510284 ], [ -95.29212, 36.51028 ], [ -95.291573, 36.510282 ], [ -95.291123, 36.510284 ], [ -95.290534, 36.510286 ], [ -95.289961, 36.510288 ], [ -95.288726, 36.510293 ], [ -95.288457, 36.510294 ], [ -95.287098, 36.5103 ], [ -95.28675, 36.510309 ], [ -95.286718, 36.51031 ], [ -95.286463, 36.5103 ], [ -95.285448, 36.5103 ], [ -95.283585, 36.5103 ], [ -95.282052, 36.5103 ], [ -95.281001, 36.5103 ], [ -95.280583, 36.5103 ], [ -95.280201, 36.510301 ], [ -95.279828, 36.510301 ], [ -95.279577, 36.510302 ], [ -95.27913, 36.510303 ], [ -95.278755, 36.510304 ], [ -95.278358, 36.510306 ], [ -95.277941, 36.510307 ], [ -95.27683, 36.51031 ], [ -95.275982, 36.51031 ], [ -95.27531, 36.510305 ], [ -95.274506, 36.5103 ], [ -95.27416, 36.5103 ], [ -95.273772, 36.510382 ], [ -95.270747, 36.510379 ], [ -95.270572, 36.510382 ], [ -95.266839, 36.510379 ], [ -95.265292, 36.510378 ], [ -95.26426, 36.510377 ], [ -95.263983, 36.510326 ], [ -95.26312, 36.51032 ], [ -95.262747, 36.51032 ], [ -95.261631, 36.510324 ], [ -95.26126, 36.510326 ], [ -95.260249, 36.510328 ], [ -95.25978, 36.51033 ], [ -95.257219, 36.510344 ], [ -95.25621, 36.51035 ], [ -95.25365, 36.51034 ], [ -95.253331, 36.51034 ], [ -95.245909, 36.510356 ], [ -95.244697, 36.510358 ], [ -95.24377, 36.51036 ], [ -95.24205, 36.51035 ], [ -95.24182, 36.51037 ], [ -95.241668, 36.51037 ], [ -95.24146, 36.51037 ], [ -95.241214, 36.510366 ], [ -95.241063, 36.510365 ], [ -95.2406, 36.51036 ], [ -95.24039, 36.51035 ], [ -95.239632, 36.510355 ], [ -95.23609, 36.51038 ], [ -95.23534, 36.510376 ], [ -95.23391, 36.510371 ], [ -95.23358, 36.51037 ], [ -95.233472, 36.51037 ], [ -95.232159, 36.510374 ], [ -95.231722, 36.510376 ], [ -95.230835, 36.510378 ], [ -95.228176, 36.510386 ], [ -95.22729, 36.51039 ], [ -95.225892, 36.51039 ], [ -95.221697, 36.51039 ], [ -95.2203, 36.51039 ], [ -95.219218, 36.510474 ], [ -95.204297, 36.51049 ], [ -95.20277, 36.5104 ], [ -95.201143, 36.510407 ], [ -95.19842, 36.51042 ], [ -95.196265, 36.510408 ], [ -95.19464, 36.5104 ], [ -95.192953, 36.510506 ], [ -95.184814, 36.510508 ], [ -95.180599, 36.510509 ], [ -95.170812, 36.510513 ], [ -95.167527, 36.510513 ], [ -95.16682, 36.51044 ], [ -95.165031, 36.510441 ], [ -95.16423, 36.51045 ], [ -95.16298, 36.51044 ], [ -95.16133, 36.51042 ], [ -95.15966, 36.51042 ], [ -95.159154, 36.51042 ], [ -95.15787, 36.51042 ], [ -95.156944, 36.51041 ], [ -95.15689, 36.51041 ], [ -95.154166, 36.510417 ], [ -95.15324, 36.51042 ], [ -95.151638, 36.510508 ], [ -95.149953, 36.510512 ], [ -95.149708, 36.510513 ], [ -95.145378, 36.510523 ], [ -95.145159, 36.510523 ], [ -95.143747, 36.510527 ], [ -95.123812, 36.510577 ], [ -95.123202, 36.510509 ], [ -95.123038, 36.510509 ], [ -95.121048, 36.510485 ], [ -95.1192, 36.5105 ], [ -95.11685, 36.51049 ], [ -95.1154, 36.51051 ], [ -95.114952, 36.510511 ], [ -95.11292, 36.51052 ], [ -95.112556, 36.510556 ], [ -95.111916, 36.510619 ], [ -95.10378, 36.510557 ], [ -95.10375, 36.510557 ], [ -95.102756, 36.510501 ], [ -95.095535, 36.510488 ], [ -95.094727, 36.510478 ], [ -95.094246, 36.510477 ], [ -95.094174, 36.510452 ], [ -95.09408, 36.51042 ], [ -95.09371, 36.51035 ], [ -95.092195, 36.510354 ], [ -95.09046, 36.51036 ], [ -95.08884, 36.51034 ], [ -95.087654, 36.510335 ], [ -95.08614, 36.51033 ], [ -95.084423, 36.51033 ], [ -95.08212, 36.51033 ], [ -95.079275, 36.510317 ], [ -95.078312, 36.510313 ], [ -95.077667, 36.51031 ], [ -95.07756, 36.51031 ], [ -95.076292, 36.51031 ], [ -95.07613, 36.51031 ], [ -95.07547, 36.5103 ], [ -95.074572, 36.510296 ], [ -95.06597, 36.51026 ], [ -95.065607, 36.510258 ], [ -95.06411, 36.51025 ], [ -95.06262, 36.51026 ], [ -95.06201, 36.510238 ], [ -95.06176, 36.51023 ], [ -95.06018, 36.510222 ], [ -95.059757, 36.51022 ], [ -95.05957, 36.51022 ], [ -95.0594, 36.510218 ], [ -95.05869, 36.51021 ], [ -95.058065, 36.51021 ], [ -95.057912, 36.51021 ], [ -95.057512, 36.51021 ], [ -95.057304, 36.51021 ], [ -95.05717, 36.51021 ], [ -95.056269, 36.51021 ], [ -95.05598, 36.51021 ], [ -95.052939, 36.510198 ], [ -95.051282, 36.510193 ], [ -95.051041, 36.510191 ], [ -95.05057, 36.51019 ], [ -95.05032, 36.51019 ], [ -95.05008, 36.51019 ], [ -95.0498, 36.51018 ], [ -95.049351, 36.510176 ], [ -95.048846, 36.51017 ], [ -95.04878, 36.51017 ], [ -95.04624, 36.51015 ], [ -95.045144, 36.510145 ], [ -95.04391, 36.51014 ], [ -95.043451, 36.510138 ], [ -95.042077, 36.510132 ], [ -95.04162, 36.51013 ], [ -95.040316, 36.510126 ], [ -95.03749, 36.51012 ], [ -95.036407, 36.510126 ], [ -95.03571, 36.51013 ], [ -95.035105, 36.510122 ], [ -95.034721, 36.510117 ], [ -95.033572, 36.510103 ], [ -95.03329, 36.5101 ], [ -95.03319, 36.51011 ], [ -95.033078, 36.51011 ], [ -95.032742, 36.51011 ], [ -95.03263, 36.51011 ], [ -95.032062, 36.51011 ], [ -95.03131, 36.51011 ], [ -95.030358, 36.51011 ], [ -95.02979, 36.51011 ], [ -95.029652, 36.51011 ], [ -95.029238, 36.51011 ], [ -95.0291, 36.51011 ], [ -95.02874, 36.51011 ], [ -95.0283, 36.5101 ], [ -95.028046, 36.5101 ], [ -95.02773, 36.5101 ], [ -95.027634, 36.5101 ], [ -95.027284, 36.5101 ], [ -95.02703, 36.5101 ], [ -95.027016, 36.5101 ], [ -95.026974, 36.5101 ], [ -95.02696, 36.5101 ], [ -95.026835, 36.510098 ], [ -95.02646, 36.510092 ], [ -95.026335, 36.51009 ], [ -95.02624, 36.510088 ], [ -95.025957, 36.510083 ], [ -95.025863, 36.510082 ], [ -95.02571, 36.51008 ], [ -95.025575, 36.51008 ], [ -95.02546, 36.51008 ], [ -95.024715, 36.510113 ], [ -95.02458, 36.51012 ], [ -95.02443, 36.5101 ], [ -95.024336, 36.510088 ], [ -95.023625, 36.51006 ], [ -95.021104, 36.509957 ], [ -95.020922, 36.509956 ], [ -95.020427, 36.50995 ], [ -95.019657, 36.509942 ], [ -95.019237, 36.509938 ], [ -95.018899, 36.509934 ], [ -95.01671, 36.509913 ], [ -95.016594, 36.509912 ], [ -95.016376, 36.50991 ], [ -95.015573, 36.509902 ], [ -95.015464, 36.509901 ], [ -95.014984, 36.509896 ], [ -95.014786, 36.509894 ], [ -95.014505, 36.509891 ], [ -95.013182, 36.509878 ], [ -95.012742, 36.509873 ], [ -95.012651, 36.509873 ], [ -95.012386, 36.50987 ], [ -95.012254, 36.509869 ], [ -95.012086, 36.509867 ], [ -95.0111, 36.509857 ], [ -95.010866, 36.509855 ], [ -95.010416, 36.50985 ], [ -95.008226, 36.509828 ], [ -95.006086, 36.509807 ], [ -95.006026, 36.509822 ], [ -95.005765, 36.509882 ], [ -95.00573, 36.50989 ], [ -95.005724, 36.505153 ], [ -95.005694, 36.505108 ], [ -95.005603, 36.504974 ], [ -95.005564, 36.504106 ], [ -95.005541, 36.503786 ], [ -95.005471, 36.501604 ], [ -95.005469, 36.501525 ], [ -95.005714, 36.500442 ], [ -95.005739, 36.50033 ], [ -95.005763, 36.500218 ], [ -95.005779, 36.500152 ], [ -95.005772, 36.498698 ], [ -95.005763, 36.498151 ], [ -95.005758, 36.497786 ], [ -95.005758, 36.497597 ], [ -95.005719, 36.491925 ], [ -95.005718, 36.491894 ], [ -95.005718, 36.491803 ], [ -95.005718, 36.491773 ], [ -95.005717, 36.491743 ], [ -95.005717, 36.491653 ], [ -95.005717, 36.491624 ], [ -95.005708, 36.490338 ], [ -95.0057, 36.489053 ], [ -95.005694, 36.488183 ], [ -95.005688, 36.487313 ], [ -95.005665, 36.483785 ], [ -95.005678, 36.482458 ], [ -95.00576, 36.481212 ], [ -95.005761, 36.481063 ], [ -95.005761, 36.480553 ], [ -95.00576, 36.479426 ], [ -95.005759, 36.479 ], [ -95.005758, 36.476965 ], [ -95.005758, 36.476228 ], [ -95.005757, 36.474277 ], [ -95.005755, 36.468856 ], [ -95.005753, 36.464619 ], [ -95.005752, 36.463888 ], [ -95.00587, 36.463108 ], [ -95.005794, 36.462004 ], [ -95.005776, 36.461791 ], [ -95.005531, 36.461135 ], [ -95.005537, 36.459527 ], [ -95.005543, 36.457912 ], [ -95.005555, 36.4545 ], [ -95.00559, 36.444709 ], [ -95.005601, 36.441966 ], [ -95.005617, 36.437373 ], [ -95.005622, 36.436159 ], [ -95.00564, 36.430868 ], [ -95.005642, 36.430486 ], [ -95.005659, 36.425791 ], [ -95.00566, 36.425548 ], [ -95.00566, 36.4254 ], [ -95.005729, 36.425206 ], [ -95.0057, 36.424617 ], [ -95.005699, 36.424202 ], [ -95.005723, 36.423742 ], [ -95.005729, 36.423187 ], [ -95.005712, 36.422567 ], [ -95.005709, 36.422408 ], [ -95.005713, 36.422042 ], [ -95.005727, 36.420902 ], [ -95.00572, 36.420594 ], [ -95.005707, 36.420007 ], [ -95.005738, 36.416474 ], [ -95.005737, 36.415975 ], [ -95.00574, 36.41529 ], [ -95.005745, 36.414641 ], [ -95.00573, 36.41231 ], [ -95.005714, 36.410012 ], [ -95.005699, 36.409656 ], [ -95.005574, 36.409467 ], [ -95.005447, 36.406108 ], [ -95.005434, 36.405795 ], [ -95.005435, 36.401424 ], [ -95.005432, 36.396557 ], [ -95.005431, 36.396193 ], [ -95.005439, 36.394278 ], [ -95.005452, 36.389933 ], [ -95.005498, 36.376453 ], [ -95.005499, 36.376098 ], [ -95.005502, 36.375135 ], [ -95.005503, 36.374882 ], [ -95.005504, 36.374574 ], [ -95.005506, 36.374049 ], [ -95.005523, 36.368839 ], [ -95.005534, 36.365612 ], [ -95.005537, 36.364736 ], [ -95.005541, 36.363534 ], [ -95.005563, 36.356905 ], [ -95.005575, 36.353665 ], [ -95.005594, 36.347731 ], [ -95.005615, 36.347556 ], [ -95.005667, 36.347174 ], [ -95.005691, 36.346926 ], [ -95.005738, 36.346469 ], [ -95.005743, 36.346085 ], [ -95.005757, 36.345152 ], [ -95.00577, 36.344934 ], [ -95.005788, 36.344663 ], [ -95.005783, 36.344552 ], [ -95.005782, 36.344535 ], [ -95.005779, 36.344483 ], [ -95.005779, 36.344467 ], [ -95.005784, 36.344161 ], [ -95.005608, 36.343604 ], [ -95.005626, 36.338372 ], [ -95.005628, 36.337563 ], [ -95.005714, 36.311884 ], [ -95.005716, 36.311768 ], [ -95.005722, 36.309722 ], [ -95.005721, 36.309499 ], [ -95.005723, 36.309346 ], [ -95.005729, 36.30737 ], [ -95.005732, 36.306546 ], [ -95.005763, 36.305338 ], [ -95.005785, 36.30359 ], [ -95.005799, 36.303128 ], [ -95.005821, 36.302426 ], [ -95.005876, 36.301942 ], [ -95.005808, 36.300889 ], [ -95.005806, 36.300852 ], [ -95.005808, 36.300816 ], [ -95.005923, 36.29911 ], [ -95.005876, 36.292908 ], [ -95.00587, 36.292125 ], [ -95.005869, 36.292025 ], [ -95.005857, 36.290386 ], [ -95.005832, 36.287196 ], [ -95.005813, 36.285232 ], [ -95.005813, 36.284716 ], [ -95.0058, 36.282945 ], [ -95.005764, 36.278298 ], [ -95.005758, 36.277422 ], [ -95.005728, 36.273544 ], [ -95.005663, 36.264847 ], [ -95.005654, 36.263855 ], [ -95.005648, 36.263088 ], [ -95.005597, 36.256237 ], [ -95.005578, 36.253824 ], [ -95.005574, 36.25335 ], [ -95.005538, 36.248706 ], [ -95.010173, 36.248822 ], [ -95.010473, 36.241072 ], [ -95.010641, 36.236754 ], [ -95.010733, 36.234372 ], [ -95.010734, 36.234356 ], [ -95.010769, 36.233465 ], [ -95.011306, 36.219609 ], [ -95.011318, 36.219302 ], [ -95.011315, 36.217518 ], [ -95.011316, 36.217414 ], [ -95.011315, 36.216521 ], [ -95.011297, 36.215962 ], [ -95.01129, 36.215736 ], [ -95.011308, 36.21503 ], [ -95.011301, 36.21379 ], [ -95.01131, 36.213333 ], [ -95.011313, 36.213163 ], [ -95.011314, 36.213107 ], [ -95.011314, 36.213013 ], [ -95.011313, 36.21296 ], [ -95.011313, 36.212934 ], [ -95.01131, 36.21249 ], [ -95.011317, 36.211949 ], [ -95.01132, 36.211707 ], [ -95.011322, 36.211172 ], [ -95.011333, 36.209223 ], [ -95.011333, 36.209165 ], [ -95.011333, 36.209098 ], [ -95.011334, 36.208952 ], [ -95.011333, 36.208843 ], [ -95.011328, 36.208067 ], [ -95.011326, 36.207777 ], [ -95.011324, 36.205641 ], [ -95.011331, 36.20511 ], [ -95.011334, 36.203521 ], [ -95.011326, 36.20275 ], [ -95.011325, 36.202503 ], [ -95.01133, 36.201973 ], [ -95.01134, 36.201102 ], [ -95.011341, 36.200975 ], [ -95.011354, 36.200297 ], [ -95.011353, 36.200257 ], [ -95.011336, 36.199676 ], [ -95.011285, 36.198432 ], [ -95.011323, 36.196789 ], [ -95.01133, 36.195849 ], [ -95.011339, 36.194498 ], [ -95.011331, 36.193491 ], [ -95.01132, 36.192133 ], [ -95.011287, 36.190594 ], [ -95.011272, 36.187209 ], [ -95.01128, 36.18542 ], [ -95.011282, 36.185018 ], [ -95.011272, 36.184286 ], [ -95.011275, 36.183849 ], [ -95.011276, 36.183637 ], [ -95.011282, 36.182725 ], [ -95.01128, 36.181875 ], [ -95.011272, 36.180576 ], [ -95.011271, 36.180386 ], [ -95.011302, 36.179247 ], [ -95.011304, 36.178253 ], [ -95.011295, 36.177919 ], [ -95.01128, 36.177435 ], [ -95.0113, 36.17652 ], [ -95.011284, 36.175885 ], [ -95.011286, 36.173084 ], [ -95.011292, 36.17156 ], [ -95.011294, 36.16936 ], [ -95.011289, 36.168552 ], [ -95.011282, 36.167537 ], [ -95.01129, 36.167049 ], [ -95.011301, 36.16621 ], [ -95.011301, 36.166025 ], [ -95.011288, 36.165999 ], [ -95.011272, 36.165745 ], [ -95.011141, 36.165109 ], [ -95.011136, 36.165074 ], [ -95.01103, 36.164669 ], [ -95.010985, 36.164398 ], [ -95.010991, 36.164227 ], [ -95.011063, 36.163782 ], [ -95.011101, 36.163548 ], [ -95.011112, 36.163417 ], [ -95.011059, 36.163231 ], [ -95.011041, 36.163095 ], [ -95.011004, 36.163009 ], [ -95.011011, 36.162914 ], [ -95.01107, 36.16275 ], [ -95.011234, 36.162441 ], [ -95.011262, 36.162176 ], [ -95.011269, 36.162112 ], [ -95.011275, 36.161994 ], [ -95.011303, 36.161828 ], [ -95.011311, 36.161801 ], [ -95.011328, 36.161763 ], [ -95.011429, 36.161764 ], [ -95.011729, 36.161764 ], [ -95.017797, 36.161759 ], [ -95.01836, 36.161756 ], [ -95.026398, 36.161751 ], [ -95.028351, 36.161749 ], [ -95.028865, 36.161741 ], [ -95.030218, 36.161747 ], [ -95.039541, 36.161739 ], [ -95.058089, 36.161718 ], [ -95.059088, 36.161562 ], [ -95.059161, 36.161512 ], [ -95.059267, 36.16153 ], [ -95.059439, 36.161496 ], [ -95.059481, 36.16149 ], [ -95.059554, 36.16148 ], [ -95.059754, 36.161508 ], [ -95.060007, 36.161549 ], [ -95.060186, 36.16157 ], [ -95.060367, 36.161564 ], [ -95.060566, 36.161518 ], [ -95.060725, 36.161488 ], [ -95.060876, 36.161477 ], [ -95.061066, 36.161489 ], [ -95.061316, 36.161559 ], [ -95.061559, 36.161633 ], [ -95.061681, 36.161642 ], [ -95.061774, 36.161648 ], [ -95.062239, 36.16163 ], [ -95.06481, 36.161587 ], [ -95.064862, 36.161587 ], [ -95.065307, 36.16158 ], [ -95.066672, 36.161588 ], [ -95.067103, 36.161589 ], [ -95.068832, 36.161586 ], [ -95.070004, 36.161583 ], [ -95.0717, 36.161597 ], [ -95.073909, 36.161566 ], [ -95.07402, 36.161566 ], [ -95.074065, 36.161567 ], [ -95.075102, 36.161573 ], [ -95.075795, 36.161564 ], [ -95.0761, 36.16156 ], [ -95.078637, 36.16152 ], [ -95.078732, 36.161521 ], [ -95.079841, 36.161545 ], [ -95.081116, 36.161571 ], [ -95.081783, 36.161585 ], [ -95.082669, 36.161576 ], [ -95.082681, 36.161576 ], [ -95.083651, 36.161565 ], [ -95.085755, 36.161554 ], [ -95.087793, 36.161554 ], [ -95.089607, 36.161589 ], [ -95.089933, 36.16159 ], [ -95.091541, 36.161595 ], [ -95.091616, 36.161595 ], [ -95.092643, 36.1616 ], [ -95.095594, 36.16158 ], [ -95.096099, 36.161576 ], [ -95.096881, 36.16149 ], [ -95.097149, 36.161488 ], [ -95.097992, 36.161554 ], [ -95.098456, 36.16156 ], [ -95.098742, 36.161563 ], [ -95.100604, 36.161585 ], [ -95.102412, 36.161582 ], [ -95.104002, 36.161587 ], [ -95.104531, 36.16159 ], [ -95.105063, 36.161586 ], [ -95.106409, 36.161576 ], [ -95.109505, 36.161596 ], [ -95.111486, 36.161602 ], [ -95.111811, 36.161601 ], [ -95.113983, 36.161596 ], [ -95.115698, 36.161597 ], [ -95.118457, 36.161631 ], [ -95.1185, 36.16163 ], [ -95.118482, 36.14921 ], [ -95.118471, 36.14432 ], [ -95.118474, 36.143458 ], [ -95.118474, 36.143409 ], [ -95.118473, 36.142501 ], [ -95.118472, 36.141783 ], [ -95.118421, 36.141412 ], [ -95.118409, 36.136275 ], [ -95.118404, 36.133983 ], [ -95.118403, 36.133851 ], [ -95.118401, 36.133007 ], [ -95.118391, 36.128919 ], [ -95.118391, 36.12861 ], [ -95.118381, 36.124531 ], [ -95.11838, 36.12402 ], [ -95.118379, 36.123741 ], [ -95.118371, 36.120455 ], [ -95.11837, 36.120153 ], [ -95.118366, 36.118445 ], [ -95.118438, 36.118094 ], [ -95.11843, 36.116986 ], [ -95.118422, 36.115915 ], [ -95.118422, 36.115542 ], [ -95.118424, 36.114362 ], [ -95.118423, 36.112972 ], [ -95.11841, 36.11076 ], [ -95.118411, 36.109673 ], [ -95.118395, 36.106821 ], [ -95.118417, 36.105829 ], [ -95.118414, 36.10539 ], [ -95.11841, 36.104769 ], [ -95.118411, 36.103558 ], [ -95.118422, 36.102772 ], [ -95.118428, 36.101481 ], [ -95.118431, 36.100951 ], [ -95.118433, 36.100699 ], [ -95.11842, 36.099885 ], [ -95.118414, 36.099464 ], [ -95.11841, 36.097969 ], [ -95.118389, 36.09664 ], [ -95.118391, 36.096317 ], [ -95.118399, 36.095242 ], [ -95.11839, 36.093814 ], [ -95.118396, 36.090903 ], [ -95.118389, 36.089567 ], [ -95.118404, 36.089026 ], [ -95.118402, 36.087586 ], [ -95.118395, 36.086646 ], [ -95.118394, 36.086442 ], [ -95.118393, 36.086304 ], [ -95.118405, 36.085152 ], [ -95.118402, 36.08421 ], [ -95.118372, 36.08201 ], [ -95.11835, 36.080216 ], [ -95.118357, 36.079807 ], [ -95.118365, 36.079416 ], [ -95.118365, 36.07912 ], [ -95.118364, 36.078442 ], [ -95.118383, 36.077775 ], [ -95.118391, 36.076794 ], [ -95.118393, 36.075456 ], [ -95.118377, 36.074544 ], [ -95.118468, 36.074544 ], [ -95.119091, 36.074567 ], [ -95.120788, 36.07457 ], [ -95.122242, 36.074583 ], [ -95.124069, 36.074563 ], [ -95.126535, 36.074582 ], [ -95.126674, 36.074583 ], [ -95.128168, 36.074559 ], [ -95.129547, 36.074554 ], [ -95.130589, 36.074563 ], [ -95.132349, 36.074581 ], [ -95.13301, 36.074575 ], [ -95.133097, 36.074575 ], [ -95.133511, 36.074576 ], [ -95.134114, 36.074577 ], [ -95.134165, 36.074577 ], [ -95.134191, 36.074577 ], [ -95.135169, 36.074579 ], [ -95.135275, 36.074579 ], [ -95.13549, 36.07458 ], [ -95.137021, 36.074582 ], [ -95.138887, 36.074586 ], [ -95.141852, 36.074591 ], [ -95.143878, 36.074595 ], [ -95.146032, 36.074598 ], [ -95.149546, 36.074605 ], [ -95.153976, 36.074612 ], [ -95.154104, 36.074613 ], [ -95.15574, 36.074616 ], [ -95.160113, 36.074623 ], [ -95.160732, 36.074624 ], [ -95.162886, 36.074628 ], [ -95.169376, 36.07464 ], [ -95.171975, 36.074644 ], [ -95.189947, 36.074677 ], [ -95.190686, 36.074677 ], [ -95.192077, 36.07468 ], [ -95.193065, 36.074682 ], [ -95.194244, 36.074684 ], [ -95.194869, 36.074757 ], [ -95.207943, 36.074772 ], [ -95.208553, 36.074773 ], [ -95.217199, 36.074783 ], [ -95.217484, 36.074764 ], [ -95.224648, 36.074796 ], [ -95.229614, 36.074818 ], [ -95.231901, 36.074828 ], [ -95.232346, 36.074824 ], [ -95.234243, 36.074829 ], [ -95.235676, 36.074833 ], [ -95.23582, 36.074833 ], [ -95.235937, 36.074801 ], [ -95.236051, 36.074801 ], [ -95.236707, 36.074802 ], [ -95.23786, 36.074759 ], [ -95.23855, 36.074716 ], [ -95.238575, 36.074717 ], [ -95.239007, 36.074725 ], [ -95.239543, 36.074728 ], [ -95.240112, 36.074722 ], [ -95.240516, 36.074719 ], [ -95.240784, 36.074718 ], [ -95.241069, 36.074728 ], [ -95.241207, 36.074733 ], [ -95.241442, 36.074749 ], [ -95.241566, 36.074753 ], [ -95.241669, 36.074753 ], [ -95.241743, 36.074753 ], [ -95.243155, 36.074754 ], [ -95.24324, 36.07474 ], [ -95.243827, 36.074729 ], [ -95.244526, 36.07473 ], [ -95.245038, 36.074731 ], [ -95.245053, 36.074731 ], [ -95.24526, 36.074733 ], [ -95.246399, 36.074744 ], [ -95.24696, 36.074746 ], [ -95.24703, 36.074744 ], [ -95.247301, 36.074737 ], [ -95.248092, 36.074835 ], [ -95.252374, 36.074807 ], [ -95.25351, 36.074819 ], [ -95.254171, 36.074825 ], [ -95.254776, 36.074832 ], [ -95.255429, 36.074838 ], [ -95.256297, 36.074847 ], [ -95.256864, 36.074852 ], [ -95.257933, 36.074863 ], [ -95.258993, 36.074874 ], [ -95.260064, 36.074885 ], [ -95.262068, 36.074905 ], [ -95.262324, 36.074907 ], [ -95.26643, 36.074949 ], [ -95.267583, 36.07496 ], [ -95.280775, 36.075091 ], [ -95.285458, 36.075137 ], [ -95.285627, 36.07509 ], [ -95.285935, 36.075034 ], [ -95.286384, 36.075048 ], [ -95.28669, 36.075052 ], [ -95.286763, 36.075052 ], [ -95.287901, 36.075062 ], [ -95.288281, 36.075066 ], [ -95.288638, 36.075069 ], [ -95.28868, 36.07507 ], [ -95.28966, 36.07506 ], [ -95.289712, 36.075061 ], [ -95.29007, 36.07507 ], [ -95.290524, 36.075132 ], [ -95.29058, 36.07514 ], [ -95.2907, 36.07515 ], [ -95.2913, 36.07528 ], [ -95.291863, 36.075448 ], [ -95.2921, 36.07552 ], [ -95.2923, 36.07559 ], [ -95.29261, 36.0757 ], [ -95.292805, 36.07574 ], [ -95.29317, 36.07575 ], [ -95.2934, 36.0757 ], [ -95.2936, 36.07562 ], [ -95.29423, 36.07529 ], [ -95.294283, 36.075268 ], [ -95.29455, 36.07516 ], [ -95.29479, 36.07514 ], [ -95.29535, 36.07515 ], [ -95.295478, 36.075148 ], [ -95.29671, 36.07513 ], [ -95.29689, 36.07513 ], [ -95.297542, 36.07513 ], [ -95.29758, 36.07513 ], [ -95.29823, 36.07517 ], [ -95.29853, 36.07521 ], [ -95.298698, 36.075259 ], [ -95.29894, 36.07533 ], [ -95.29947, 36.07545 ], [ -95.29998, 36.07553 ], [ -95.300102, 36.07554 ], [ -95.30045, 36.07557 ], [ -95.300579, 36.07557 ], [ -95.30107, 36.07557 ], [ -95.301219, 36.075559 ], [ -95.30151, 36.07554 ], [ -95.30208, 36.07542 ], [ -95.30287, 36.07527 ], [ -95.303112, 36.075237 ], [ -95.30332, 36.07521 ], [ -95.30375, 36.07518 ], [ -95.30436, 36.07518 ], [ -95.30701, 36.07521 ], [ -95.30897, 36.07521 ], [ -95.31358, 36.07524 ], [ -95.313793, 36.075236 ], [ -95.314681, 36.075219 ], [ -95.31507, 36.075209 ], [ -95.31658, 36.075199 ], [ -95.31794, 36.075229 ], [ -95.319724, 36.075229 ], [ -95.31986, 36.075229 ], [ -95.32067, 36.07524 ], [ -95.32156, 36.07525 ], [ -95.323222, 36.075258 ], [ -95.32352, 36.075258 ], [ -95.324416, 36.075259 ], [ -95.324715, 36.07526 ], [ -95.32548, 36.07526 ], [ -95.325634, 36.075262 ], [ -95.32693, 36.07528 ], [ -95.32839, 36.075286 ], [ -95.32931, 36.07529 ], [ -95.32976, 36.075298 ], [ -95.32986, 36.0753 ], [ -95.33103, 36.07531 ], [ -95.331113, 36.07531 ], [ -95.331565, 36.075316 ], [ -95.331769, 36.075318 ], [ -95.332381, 36.075325 ], [ -95.332585, 36.075328 ], [ -95.332632, 36.075328 ], [ -95.332775, 36.075329 ], [ -95.332823, 36.07533 ], [ -95.332853, 36.07533 ], [ -95.332945, 36.07533 ], [ -95.332976, 36.075331 ], [ -95.33506, 36.07534 ], [ -95.3376, 36.07532 ], [ -95.339135, 36.075313 ], [ -95.33986, 36.07531 ], [ -95.3461, 36.07531 ], [ -95.34699, 36.0753 ], [ -95.35068, 36.0753 ], [ -95.351289, 36.075299 ], [ -95.352409, 36.075309 ], [ -95.354338, 36.075293 ], [ -95.354787, 36.075289 ], [ -95.359575, 36.075289 ], [ -95.364483, 36.075289 ], [ -95.364665, 36.07529 ], [ -95.36472, 36.07529 ], [ -95.365193, 36.07529 ], [ -95.365369, 36.07529 ], [ -95.36569, 36.075281 ], [ -95.36913, 36.07529 ], [ -95.36935, 36.07529 ], [ -95.370801, 36.075271 ], [ -95.3709, 36.07527 ], [ -95.372016, 36.075279 ], [ -95.37322, 36.07529 ], [ -95.375663, 36.07529 ], [ -95.376879, 36.07529 ], [ -95.37718, 36.07529 ], [ -95.37838, 36.07528 ], [ -95.378481, 36.07528 ], [ -95.381182, 36.07528 ], [ -95.382647, 36.075281 ], [ -95.384903, 36.075272 ], [ -95.386481, 36.075284 ], [ -95.3875, 36.075375 ], [ -95.398378, 36.075353 ], [ -95.398779, 36.075352 ], [ -95.404395, 36.07534 ], [ -95.405605, 36.075338 ], [ -95.409319, 36.07533 ], [ -95.412468, 36.075324 ], [ -95.414941, 36.075319 ], [ -95.416195, 36.075316 ], [ -95.427354, 36.075293 ], [ -95.430667, 36.075286 ], [ -95.430975, 36.075286 ], [ -95.439377, 36.075268 ], [ -95.439948, 36.075267 ], [ -95.43997, 36.075268 ], [ -95.43997, 36.075543 ], [ -95.43997, 36.07643 ], [ -95.439969, 36.076572 ], [ -95.439967, 36.076915 ], [ -95.439965, 36.077148 ], [ -95.43996, 36.07783 ], [ -95.43996, 36.077847 ], [ -95.43997, 36.07808 ], [ -95.43997, 36.07876 ], [ -95.43996, 36.08023 ], [ -95.43996, 36.08041 ], [ -95.43996, 36.08527 ], [ -95.43997, 36.08576 ], [ -95.43996, 36.08679 ], [ -95.439968, 36.087399 ], [ -95.43997, 36.08748 ], [ -95.43997, 36.08973 ], [ -95.439979, 36.09118 ], [ -95.43998, 36.091259 ], [ -95.43999, 36.09273 ], [ -95.439964, 36.09553 ], [ -95.43996, 36.09603 ], [ -95.43997, 36.09657 ], [ -95.43998, 36.09675 ], [ -95.43998, 36.09698 ], [ -95.43998, 36.098008 ], [ -95.43998, 36.09811 ], [ -95.43997, 36.09854 ], [ -95.43998, 36.10022 ], [ -95.439975, 36.101091 ], [ -95.43997, 36.10212 ], [ -95.43997, 36.102548 ], [ -95.43997, 36.103832 ], [ -95.43997, 36.10426 ], [ -95.43997, 36.10649 ], [ -95.43997, 36.10717 ], [ -95.43997, 36.10788 ], [ -95.43996, 36.10816 ], [ -95.43998, 36.1108 ], [ -95.43997, 36.11532 ], [ -95.43997, 36.115899 ], [ -95.43997, 36.1174 ], [ -95.43997, 36.11881 ], [ -95.43997, 36.119066 ], [ -95.43997, 36.120254 ], [ -95.43997, 36.12191 ], [ -95.43997, 36.12222 ], [ -95.43998, 36.12343 ], [ -95.43998, 36.124585 ], [ -95.43998, 36.12603 ], [ -95.43998, 36.126869 ], [ -95.43998, 36.129388 ], [ -95.43998, 36.130228 ], [ -95.43998, 36.13039 ], [ -95.43998, 36.13044 ], [ -95.43998, 36.13083 ], [ -95.43998, 36.13089 ], [ -95.43997, 36.13197 ], [ -95.43997, 36.132637 ], [ -95.43997, 36.13324 ], [ -95.439969, 36.13335 ], [ -95.43998, 36.13357 ], [ -95.439969, 36.13437 ], [ -95.439969, 36.1369 ], [ -95.439979, 36.138779 ], [ -95.439979, 36.13889 ], [ -95.43997, 36.13977 ], [ -95.439969, 36.14028 ], [ -95.439968, 36.140467 ], [ -95.439962, 36.14122 ], [ -95.43996, 36.141401 ], [ -95.43996, 36.142546 ], [ -95.43996, 36.1429 ], [ -95.43997, 36.14388 ], [ -95.43997, 36.146523 ], [ -95.43997, 36.14785 ], [ -95.43998, 36.14966 ], [ -95.439974, 36.150291 ], [ -95.43997, 36.15081 ], [ -95.43998, 36.15312 ], [ -95.439988, 36.156864 ], [ -95.43999, 36.1576 ], [ -95.43999, 36.157617 ], [ -95.43999, 36.160059 ], [ -95.43999, 36.160525 ], [ -95.43999, 36.16171 ], [ -95.439983, 36.161923 ], [ -95.43997, 36.16239 ], [ -95.43998, 36.16284 ], [ -95.43997, 36.163585 ], [ -95.43997, 36.1636 ], [ -95.43999, 36.16456 ], [ -95.439989, 36.164635 ], [ -95.43997, 36.16578 ], [ -95.43998, 36.16706 ], [ -95.439979, 36.167172 ], [ -95.43997, 36.16834 ], [ -95.43997, 36.168368 ], [ -95.43997, 36.168738 ], [ -95.43997, 36.169849 ], [ -95.43997, 36.1699 ], [ -95.43998, 36.17022 ], [ -95.43998, 36.17024 ], [ -95.43998, 36.1703 ], [ -95.43998, 36.170321 ], [ -95.43998, 36.170519 ], [ -95.43998, 36.171113 ], [ -95.43998, 36.171311 ], [ -95.43998, 36.17214 ], [ -95.43998, 36.172428 ], [ -95.43998, 36.17412 ], [ -95.439974, 36.175782 ], [ -95.43997, 36.1769 ], [ -95.43997, 36.177218 ], [ -95.43997, 36.178174 ], [ -95.439971, 36.178493 ], [ -95.439973, 36.181078 ], [ -95.439976, 36.183639 ], [ -95.43998, 36.18777 ], [ -95.43998, 36.188834 ], [ -95.43998, 36.19142 ], [ -95.439982, 36.192243 ], [ -95.439984, 36.192771 ], [ -95.43999, 36.19457 ], [ -95.43999, 36.194713 ], [ -95.43999, 36.195537 ], [ -95.43999, 36.196 ], [ -95.439983, 36.197629 ], [ -95.43998, 36.19869 ], [ -95.43998, 36.20349 ], [ -95.439973, 36.203908 ], [ -95.43997, 36.20411 ], [ -95.43997, 36.20526 ], [ -95.43998, 36.20596 ], [ -95.44002, 36.20597 ], [ -95.439914, 36.206223 ], [ -95.439827, 36.208836 ], [ -95.43956, 36.216759 ], [ -95.43943, 36.220574 ], [ -95.439407, 36.221306 ], [ -95.439142, 36.229148 ], [ -95.438959, 36.234593 ], [ -95.438948, 36.234901 ], [ -95.438911, 36.236017 ], [ -95.438631, 36.24432 ], [ -95.438522, 36.247527 ], [ -95.438504, 36.248043 ], [ -95.438472, 36.24903 ], [ -95.438463, 36.249322 ], [ -95.43695, 36.24931 ], [ -95.43628, 36.24931 ], [ -95.43576, 36.24932 ], [ -95.435518, 36.24932 ], [ -95.43552, 36.24936 ], [ -95.43552, 36.24945 ], [ -95.43553, 36.24958 ], [ -95.43553, 36.249658 ], [ -95.43553, 36.24969 ], [ -95.435527, 36.250248 ], [ -95.435524, 36.250714 ], [ -95.43551, 36.25327 ], [ -95.435517, 36.254779 ], [ -95.435524, 36.256135 ], [ -95.43553, 36.25733 ], [ -95.435528, 36.257669 ], [ -95.43552, 36.25964 ], [ -95.43552, 36.259827 ], [ -95.43552, 36.262274 ], [ -95.43552, 36.26381 ], [ -95.43553, 36.26531 ], [ -95.43552, 36.26632 ], [ -95.435523, 36.266714 ], [ -95.435524, 36.26681 ], [ -95.43554, 36.2688 ], [ -95.43558, 36.27144 ], [ -95.43558, 36.27188 ], [ -95.43557, 36.27261 ], [ -95.43557, 36.27349 ], [ -95.43558, 36.27491 ], [ -95.43558, 36.275429 ], [ -95.43558, 36.27554 ], [ -95.43554, 36.27579 ], [ -95.43551, 36.27642 ], [ -95.435505, 36.277023 ], [ -95.4355, 36.27754 ], [ -95.43551, 36.27808 ], [ -95.43552, 36.27833 ], [ -95.43552, 36.27868 ], [ -95.43554, 36.27936 ], [ -95.43554, 36.279711 ], [ -95.435548, 36.283857 ], [ -95.43555, 36.28472 ], [ -95.43553, 36.28509 ], [ -95.435527, 36.285293 ], [ -95.435524, 36.28544 ], [ -95.435527, 36.286131 ], [ -95.435527, 36.288087 ], [ -95.435528, 36.291079 ], [ -95.435528, 36.292365 ], [ -95.435528, 36.292757 ], [ -95.435528, 36.292831 ], [ -95.435528, 36.292975 ], [ -95.435528, 36.293489 ], [ -95.435528, 36.294407 ], [ -95.435528, 36.295031 ], [ -95.435529, 36.295882 ], [ -95.435529, 36.296226 ], [ -95.435529, 36.296568 ], [ -95.435529, 36.297919 ], [ -95.435529, 36.298384 ], [ -95.435529, 36.298997 ], [ -95.43551, 36.2998 ], [ -95.435506, 36.299885 ], [ -95.4355, 36.30008 ], [ -95.4355, 36.300142 ], [ -95.4355, 36.300228 ], [ -95.4355, 36.300258 ], [ -95.4355, 36.30035 ], [ -95.4355, 36.300381 ], [ -95.4355, 36.301752 ], [ -95.4355, 36.3048 ], [ -95.4355, 36.305868 ], [ -95.4355, 36.30706 ], [ -95.435531, 36.30724 ], [ -95.435532, 36.308608 ], [ -95.435531, 36.30927 ], [ -95.435531, 36.310117 ], [ -95.435531, 36.31053 ], [ -95.435532, 36.312564 ], [ -95.435532, 36.313507 ], [ -95.435532, 36.313841 ], [ -95.43553, 36.313951 ], [ -95.435533, 36.318123 ], [ -95.435533, 36.318475 ], [ -95.435533, 36.321818 ], [ -95.435533, 36.322313 ], [ -95.435533, 36.322392 ], [ -95.435534, 36.324065 ], [ -95.435534, 36.325395 ], [ -95.435534, 36.327025 ], [ -95.435534, 36.327119 ], [ -95.435534, 36.327605 ], [ -95.435534, 36.327664 ], [ -95.435534, 36.327754 ], [ -95.435534, 36.328594 ], [ -95.435535, 36.329167 ], [ -95.435535, 36.332063 ], [ -95.435535, 36.3333 ], [ -95.435536, 36.334574 ], [ -95.435534, 36.334741 ], [ -95.435536, 36.335262 ], [ -95.435536, 36.336114 ], [ -95.435536, 36.336319 ], [ -95.435536, 36.336482 ], [ -95.435537, 36.337741 ], [ -95.435536, 36.3382 ], [ -95.435537, 36.338235 ], [ -95.435537, 36.338355 ], [ -95.435537, 36.34012 ], [ -95.435537, 36.34038 ], [ -95.435536, 36.340733 ], [ -95.435538, 36.341066 ], [ -95.435538, 36.341655 ], [ -95.435538, 36.342232 ], [ -95.435538, 36.342364 ], [ -95.435538, 36.342398 ], [ -95.435538, 36.342459 ], [ -95.435537, 36.342912 ], [ -95.435538, 36.342948 ], [ -95.435539, 36.345321 ], [ -95.43555, 36.346179 ], [ -95.435548, 36.346582 ], [ -95.43554, 36.347177 ], [ -95.43554, 36.348553 ], [ -95.435541, 36.349843 ], [ -95.435532, 36.350531 ], [ -95.43554, 36.35082 ], [ -95.435468, 36.351019 ], [ -95.435493, 36.351523 ], [ -95.435454, 36.352029 ], [ -95.435453, 36.352051 ], [ -95.43545, 36.352117 ], [ -95.43545, 36.35214 ], [ -95.43546, 36.35238 ], [ -95.435486, 36.353006 ], [ -95.435459, 36.354766 ], [ -95.435465, 36.356003 ], [ -95.435479, 36.35887 ], [ -95.435486, 36.360242 ], [ -95.435497, 36.362644 ], [ -95.43551, 36.36527 ], [ -95.435521, 36.366709 ], [ -95.435535, 36.368445 ], [ -95.43554, 36.36905 ], [ -95.43553, 36.371028 ], [ -95.43553, 36.37112 ], [ -95.435535, 36.372468 ], [ -95.435535, 36.37253 ], [ -95.435535, 36.372717 ], [ -95.435536, 36.37278 ], [ -95.435538, 36.373571 ], [ -95.435546, 36.375945 ], [ -95.435549, 36.376737 ], [ -95.435549, 36.376769 ], [ -95.435549, 36.376867 ], [ -95.43555, 36.3769 ], [ -95.435547, 36.377221 ], [ -95.435473, 36.37734 ], [ -95.43533, 36.377729 ], [ -95.435174, 36.377979 ], [ -95.434954, 36.378246 ], [ -95.434646, 36.378629 ], [ -95.434472, 36.378846 ], [ -95.434343, 36.379181 ], [ -95.434282, 36.379465 ], [ -95.434313, 36.379836 ], [ -95.434345, 36.379957 ], [ -95.434358, 36.379989 ], [ -95.434594, 36.38042 ], [ -95.43461, 36.38045 ], [ -95.434654, 36.380544 ], [ -95.43503, 36.381223 ], [ -95.435219, 36.381625 ], [ -95.435281, 36.381752 ], [ -95.435368, 36.381929 ], [ -95.4355, 36.382386 ], [ -95.435581, 36.382847 ], [ -95.435583, 36.383027 ], [ -95.43559, 36.38391 ], [ -95.43558, 36.38641 ], [ -95.43559, 36.38741 ], [ -95.43561, 36.38838 ], [ -95.435611, 36.388631 ], [ -95.43562, 36.39059 ], [ -95.435634, 36.390688 ], [ -95.435623, 36.393542 ] ] ] ] } },
{ "type": "Feature", "properties": { "NAME": "Delaware", "STUSPS": "OK" }, "geometry": { "type": "MultiPolygon", "coordinates": [ [ [ [ -95.00578, 36.53664 ], [ -95.00574, 36.53714 ], [ -95.005735, 36.537156 ], [ -95.0057, 36.5373 ], [ -95.00566, 36.53799 ], [ -95.005666, 36.538206 ], [ -95.005684, 36.538854 ], [ -95.00569, 36.53907 ], [ -95.00569, 36.539282 ], [ -95.00569, 36.539702 ], [ -95.00569, 36.53979 ], [ -95.00569, 36.539923 ], [ -95.00569, 36.54195 ], [ -95.00569, 36.54267 ], [ -95.005689, 36.542682 ], [ -95.00568, 36.544 ], [ -95.00568, 36.544851 ], [ -95.00568, 36.546125 ], [ -95.00568, 36.547315 ], [ -95.00568, 36.54742 ], [ -95.005679, 36.547727 ], [ -95.005678, 36.548028 ], [ -95.00567, 36.55113 ], [ -95.005671, 36.551398 ], [ -95.00568, 36.55353 ], [ -95.00568, 36.55358 ], [ -95.005673, 36.555029 ], [ -95.00567, 36.55572 ], [ -95.00567, 36.55715 ], [ -95.00567, 36.559379 ], [ -95.00567, 36.56083 ], [ -95.005669, 36.560932 ], [ -95.005667, 36.561241 ], [ -95.005667, 36.561344 ], [ -95.005663, 36.562022 ], [ -95.00565, 36.564059 ], [ -95.005647, 36.564738 ], [ -95.005646, 36.564784 ], [ -95.005646, 36.564925 ], [ -95.005646, 36.564972 ], [ -95.005643, 36.565387 ], [ -95.00564, 36.56598 ], [ -95.005652, 36.566634 ], [ -95.00566, 36.56705 ], [ -95.005729, 36.567674 ], [ -95.005728, 36.568163 ], [ -95.005728, 36.569158 ], [ -95.00571, 36.569904 ], [ -95.005693, 36.570638 ], [ -95.00566, 36.572023 ], [ -95.005645, 36.572462 ], [ -95.00565, 36.572471 ], [ -95.00565, 36.57272 ], [ -95.00566, 36.57403 ], [ -95.005656, 36.574711 ], [ -95.005654, 36.575106 ], [ -95.00563, 36.57917 ], [ -95.00564, 36.580506 ], [ -95.00564, 36.580687 ], [ -95.00564, 36.58268 ], [ -95.00564, 36.582865 ], [ -95.00564, 36.583423 ], [ -95.00564, 36.583609 ], [ -95.00564, 36.583908 ], [ -95.00564, 36.584571 ], [ -95.00564, 36.58636 ], [ -95.005655, 36.587457 ], [ -95.005669, 36.588411 ], [ -95.005665, 36.588425 ], [ -95.00567, 36.588575 ], [ -95.00567, 36.589044 ], [ -95.00567, 36.5892 ], [ -95.00567, 36.589277 ], [ -95.00567, 36.58951 ], [ -95.005671, 36.589588 ], [ -95.005671, 36.589648 ], [ -95.005671, 36.589831 ], [ -95.005672, 36.589892 ], [ -95.005675, 36.591269 ], [ -95.00568, 36.59267 ], [ -95.00566, 36.595 ], [ -95.005667, 36.595402 ], [ -95.005694, 36.59678 ], [ -95.005697, 36.596956 ], [ -95.0057, 36.59711 ], [ -95.005693, 36.597483 ], [ -95.00569, 36.59766 ], [ -95.005677, 36.597705 ], [ -95.005641, 36.597843 ], [ -95.00563, 36.59789 ], [ -95.005564, 36.597934 ], [ -95.00548, 36.59799 ], [ -95.00534, 36.59801 ], [ -95.005097, 36.59801 ], [ -95.003404, 36.59801 ], [ -95.00284, 36.59801 ], [ -95.002161, 36.598013 ], [ -95.000127, 36.598026 ], [ -94.99945, 36.59803 ], [ -94.99945, 36.600232 ], [ -94.99945, 36.605232 ], [ -94.99945, 36.60582 ], [ -94.999432, 36.60684 ], [ -94.99943, 36.60702 ], [ -94.999434, 36.609043 ], [ -94.999435, 36.609746 ], [ -94.999438, 36.611856 ], [ -94.99944, 36.61256 ], [ -94.999438, 36.613081 ], [ -94.999434, 36.614646 ], [ -94.999434, 36.615168 ], [ -94.999428, 36.617546 ], [ -94.99942, 36.62151 ], [ -94.99944, 36.623295 ], [ -94.99944, 36.624681 ], [ -94.99944, 36.62497 ], [ -94.999436, 36.62562 ], [ -94.99943, 36.62706 ], [ -94.999434, 36.62837 ], [ -94.999435, 36.628524 ], [ -94.99944, 36.62986 ], [ -94.99943, 36.63137 ], [ -94.99943, 36.632915 ], [ -94.99943, 36.63438 ], [ -94.999416, 36.635172 ], [ -94.9994, 36.63608 ], [ -94.999413, 36.637551 ], [ -94.99942, 36.6383 ], [ -94.99942, 36.638345 ], [ -94.999417, 36.639 ], [ -94.99941, 36.64079 ], [ -94.999405, 36.640965 ], [ -94.99939, 36.64162 ], [ -94.999394, 36.643016 ], [ -94.9994, 36.64469 ], [ -94.99938, 36.64575 ], [ -94.999387, 36.647204 ], [ -94.999394, 36.648601 ], [ -94.9994, 36.64984 ], [ -94.999394, 36.650113 ], [ -94.99937, 36.65121 ], [ -94.99936, 36.6527 ], [ -94.99938, 36.65384 ], [ -94.99935, 36.65451 ], [ -94.999355, 36.654648 ], [ -94.99941, 36.65616 ], [ -94.999413, 36.657931 ], [ -94.999413, 36.658257 ], [ -94.999409, 36.663315 ], [ -94.999404, 36.665071 ], [ -94.999407, 36.665232 ], [ -94.999407, 36.665592 ], [ -94.999406, 36.665722 ], [ -94.999404, 36.6667 ], [ -94.999401, 36.669648 ], [ -94.999403, 36.670631 ], [ -94.999301, 36.670651 ], [ -94.998667, 36.670664 ], [ -94.996339, 36.670652 ], [ -94.994305, 36.670661 ], [ -94.991637, 36.670664 ], [ -94.988712, 36.670659 ], [ -94.985761, 36.670637 ], [ -94.983904, 36.670654 ], [ -94.982861, 36.67065 ], [ -94.982671, 36.670649 ], [ -94.982437, 36.67065 ], [ -94.9816, 36.670653 ], [ -94.98137, 36.670642 ], [ -94.978232, 36.670633 ], [ -94.976628, 36.670621 ], [ -94.973699, 36.670614 ], [ -94.973211, 36.670612 ], [ -94.972383, 36.670607 ], [ -94.972051, 36.670605 ], [ -94.971711, 36.670603 ], [ -94.970872, 36.6706 ], [ -94.969864, 36.670596 ], [ -94.969502, 36.670592 ], [ -94.96915, 36.670589 ], [ -94.965172, 36.670573 ], [ -94.96333, 36.67057 ], [ -94.95886, 36.670572 ], [ -94.958701, 36.670571 ], [ -94.956336, 36.670563 ], [ -94.953804, 36.670548 ], [ -94.951634, 36.670549 ], [ -94.949983, 36.670543 ], [ -94.947379, 36.670534 ], [ -94.947327, 36.670534 ], [ -94.94528, 36.670525 ], [ -94.943361, 36.670521 ], [ -94.941749, 36.670521 ], [ -94.936376, 36.67052 ], [ -94.935645, 36.670518 ], [ -94.932321, 36.670515 ], [ -94.927379, 36.670494 ], [ -94.922938, 36.670469 ], [ -94.919796, 36.670471 ], [ -94.918399, 36.670468 ], [ -94.916301, 36.670471 ], [ -94.914858, 36.670465 ], [ -94.914774, 36.670465 ], [ -94.91388, 36.67047 ], [ -94.913172, 36.670472 ], [ -94.91059, 36.670422 ], [ -94.9103, 36.67043 ], [ -94.910107, 36.670487 ], [ -94.909991, 36.670487 ], [ -94.909644, 36.670486 ], [ -94.909294, 36.670486 ], [ -94.908938, 36.670484 ], [ -94.908582, 36.670509 ], [ -94.907003, 36.670489 ], [ -94.905693, 36.670457 ], [ -94.90456, 36.67046 ], [ -94.903304, 36.670482 ], [ -94.903188, 36.670485 ], [ -94.901691, 36.670465 ], [ -94.900419, 36.670444 ], [ -94.900001, 36.670437 ], [ -94.899478, 36.670424 ], [ -94.898872, 36.6704 ], [ -94.896351, 36.670358 ], [ -94.895567, 36.670389 ], [ -94.894753, 36.670428 ], [ -94.893283, 36.670477 ], [ -94.892885, 36.670473 ], [ -94.892709, 36.670466 ], [ -94.892353, 36.670453 ], [ -94.891812, 36.670451 ], [ -94.891323, 36.670448 ], [ -94.890977, 36.670449 ], [ -94.889394, 36.670451 ], [ -94.886524, 36.67045 ], [ -94.881636, 36.670465 ], [ -94.880798, 36.670495 ], [ -94.880231, 36.670479 ], [ -94.87945, 36.67048 ], [ -94.878213, 36.670509 ], [ -94.87806, 36.670503 ], [ -94.877729, 36.670509 ], [ -94.875823, 36.670526 ], [ -94.874044, 36.670525 ], [ -94.87342, 36.67052 ], [ -94.872517, 36.670513 ], [ -94.872114, 36.670509 ], [ -94.871925, 36.670511 ], [ -94.871545, 36.670513 ], [ -94.870833, 36.670519 ], [ -94.869312, 36.67052 ], [ -94.868877, 36.670521 ], [ -94.867643, 36.670522 ], [ -94.866698, 36.670513 ], [ -94.866599, 36.670512 ], [ -94.866361, 36.670509 ], [ -94.864507, 36.670517 ], [ -94.864008, 36.670518 ], [ -94.861186, 36.670496 ], [ -94.861078, 36.670505 ], [ -94.858698, 36.670517 ], [ -94.857162, 36.670519 ], [ -94.85546, 36.670507 ], [ -94.854032, 36.670522 ], [ -94.851658, 36.670521 ], [ -94.849158, 36.670532 ], [ -94.848178, 36.670525 ], [ -94.846351, 36.67055 ], [ -94.845296, 36.670564 ], [ -94.844253, 36.670565 ], [ -94.843534, 36.670565 ], [ -94.842332, 36.670551 ], [ -94.841028, 36.670546 ], [ -94.840798, 36.670557 ], [ -94.840374, 36.670573 ], [ -94.839461, 36.670564 ], [ -94.838562, 36.67054 ], [ -94.837639, 36.670535 ], [ -94.837409, 36.670531 ], [ -94.836885, 36.670519 ], [ -94.836103, 36.670509 ], [ -94.835163, 36.670506 ], [ -94.83429, 36.670503 ], [ -94.832815, 36.670525 ], [ -94.831611, 36.670544 ], [ -94.82863, 36.670577 ], [ -94.828105, 36.670599 ], [ -94.827795, 36.670563 ], [ -94.825954, 36.670551 ], [ -94.81939, 36.670563 ], [ -94.81454, 36.670564 ], [ -94.813262, 36.670566 ], [ -94.811497, 36.670568 ], [ -94.810429, 36.670512 ], [ -94.808485, 36.670531 ], [ -94.807847, 36.670524 ], [ -94.806389, 36.670508 ], [ -94.804624, 36.670519 ], [ -94.803502, 36.670515 ], [ -94.8014, 36.6705 ], [ -94.799517, 36.670519 ], [ -94.798841, 36.670521 ], [ -94.796635, 36.670526 ], [ -94.796099, 36.670521 ], [ -94.794713, 36.67051 ], [ -94.792956, 36.670512 ], [ -94.792443, 36.670511 ], [ -94.790643, 36.670512 ], [ -94.79005, 36.67052 ], [ -94.78914, 36.670525 ], [ -94.788445, 36.670539 ], [ -94.787827, 36.670593 ], [ -94.786544, 36.670594 ], [ -94.784691, 36.670596 ], [ -94.783674, 36.670597 ], [ -94.782482, 36.670613 ], [ -94.782362, 36.670617 ], [ -94.782235, 36.670622 ], [ -94.781157, 36.669592 ], [ -94.779243, 36.667763 ], [ -94.776677, 36.667788 ], [ -94.77494, 36.667806 ], [ -94.774772, 36.667807 ], [ -94.774672, 36.667808 ], [ -94.774603, 36.667809 ], [ -94.774104, 36.667814 ], [ -94.773871, 36.667816 ], [ -94.773604, 36.667819 ], [ -94.771788, 36.667821 ], [ -94.77149, 36.667822 ], [ -94.769377, 36.667824 ], [ -94.766953, 36.667816 ], [ -94.766338, 36.667814 ], [ -94.764509, 36.66781 ], [ -94.763513, 36.667804 ], [ -94.763059, 36.667802 ], [ -94.758085, 36.667785 ], [ -94.753956, 36.667772 ], [ -94.752985, 36.667769 ], [ -94.750052, 36.667759 ], [ -94.749595, 36.667472 ], [ -94.748398, 36.667477 ], [ -94.748151, 36.667478 ], [ -94.747909, 36.667479 ], [ -94.745671, 36.667489 ], [ -94.744939, 36.667491 ], [ -94.743363, 36.667498 ], [ -94.742691, 36.667501 ], [ -94.740072, 36.667512 ], [ -94.739315, 36.667515 ], [ -94.738964, 36.667517 ], [ -94.738704, 36.667517 ], [ -94.738137, 36.667521 ], [ -94.736041, 36.667529 ], [ -94.734332, 36.667543 ], [ -94.734114, 36.667536 ], [ -94.732982, 36.667781 ], [ -94.7308, 36.66779 ], [ -94.729956, 36.667785 ], [ -94.72924, 36.66778 ], [ -94.72903, 36.667775 ], [ -94.72693, 36.66779 ], [ -94.725868, 36.667799 ], [ -94.72475, 36.667792 ], [ -94.724626, 36.667793 ], [ -94.723839, 36.667797 ], [ -94.723638, 36.667799 ], [ -94.722833, 36.667803 ], [ -94.722582, 36.667802 ], [ -94.721106, 36.667797 ], [ -94.720196, 36.667795 ], [ -94.71864, 36.667794 ], [ -94.71769, 36.667781 ], [ -94.716279, 36.667772 ], [ -94.716155, 36.667771 ], [ -94.7156, 36.667764 ], [ -94.71512, 36.667759 ], [ -94.71224, 36.66776 ], [ -94.709918, 36.667762 ], [ -94.708758, 36.667763 ], [ -94.708685, 36.667762 ], [ -94.708129, 36.667755 ], [ -94.707792, 36.66775 ], [ -94.70679, 36.66775 ], [ -94.70573, 36.667759 ], [ -94.70426, 36.667753 ], [ -94.703864, 36.667754 ], [ -94.700856, 36.667768 ], [ -94.698606, 36.667773 ], [ -94.6975, 36.66777 ], [ -94.696081, 36.667775 ], [ -94.695591, 36.667778 ], [ -94.69333, 36.667784 ], [ -94.693079, 36.667787 ], [ -94.692993, 36.667787 ], [ -94.692636, 36.667788 ], [ -94.691568, 36.667794 ], [ -94.691212, 36.667797 ], [ -94.691147, 36.667797 ], [ -94.686968, 36.667812 ], [ -94.68564, 36.667813 ], [ -94.685443, 36.667813 ], [ -94.684445, 36.667815 ], [ -94.683855, 36.667815 ], [ -94.683373, 36.667811 ], [ -94.683211, 36.667807 ], [ -94.683105, 36.667807 ], [ -94.68287, 36.667805 ], [ -94.682735, 36.667803 ], [ -94.682577, 36.667802 ], [ -94.682182, 36.667798 ], [ -94.67961, 36.667792 ], [ -94.67552, 36.667809 ], [ -94.673276, 36.667833 ], [ -94.67253, 36.667838 ], [ -94.671391, 36.667846 ], [ -94.669685, 36.667851 ], [ -94.668108, 36.667847 ], [ -94.667079, 36.667833 ], [ -94.666941, 36.667832 ], [ -94.666098, 36.667828 ], [ -94.665971, 36.667827 ], [ -94.665171, 36.667826 ], [ -94.665081, 36.667826 ], [ -94.663973, 36.667825 ], [ -94.662393, 36.667813 ], [ -94.661953, 36.66781 ], [ -94.66148, 36.667815 ], [ -94.661468, 36.667815 ], [ -94.661061, 36.667816 ], [ -94.65906, 36.667824 ], [ -94.658148, 36.667823 ], [ -94.65692, 36.66783 ], [ -94.655688, 36.667841 ], [ -94.654062, 36.667856 ], [ -94.653309, 36.667868 ], [ -94.652304, 36.667881 ], [ -94.651231, 36.667876 ], [ -94.650737, 36.667873 ], [ -94.650586, 36.667873 ], [ -94.650517, 36.667873 ], [ -94.649816, 36.667884 ], [ -94.648955, 36.667898 ], [ -94.647901, 36.667909 ], [ -94.647197, 36.667913 ], [ -94.646465, 36.667916 ], [ -94.644756, 36.667926 ], [ -94.643319, 36.667934 ], [ -94.641899, 36.667933 ], [ -94.64096, 36.667937 ], [ -94.639708, 36.667937 ], [ -94.639664, 36.667937 ], [ -94.639117, 36.667936 ], [ -94.639072, 36.667936 ], [ -94.638921, 36.667936 ], [ -94.638765, 36.667936 ], [ -94.638692, 36.667935 ], [ -94.636633, 36.667932 ], [ -94.635173, 36.667937 ], [ -94.635065, 36.667936 ], [ -94.63345, 36.667928 ], [ -94.631888, 36.667925 ], [ -94.630844, 36.667923 ], [ -94.62961, 36.66792 ], [ -94.628866, 36.66792 ], [ -94.627326, 36.667914 ], [ -94.626829, 36.667915 ], [ -94.62375, 36.667917 ], [ -94.622173, 36.667928 ], [ -94.620585, 36.667926 ], [ -94.619351, 36.667917 ], [ -94.618429, 36.667915 ], [ -94.618077, 36.667921 ], [ -94.618078, 36.667848 ], [ -94.618057, 36.665276 ], [ -94.618056, 36.665189 ], [ -94.618056, 36.665103 ], [ -94.618055, 36.665016 ], [ -94.618054, 36.664926 ], [ -94.618054, 36.664836 ], [ -94.618054, 36.664801 ], [ -94.618053, 36.664717 ], [ -94.618053, 36.664657 ], [ -94.618036, 36.661804 ], [ -94.618036, 36.661693 ], [ -94.618035, 36.661582 ], [ -94.618034, 36.661426 ], [ -94.618033, 36.661269 ], [ -94.618026, 36.659972 ], [ -94.618025, 36.659884 ], [ -94.618021, 36.658761 ], [ -94.618012, 36.655392 ], [ -94.61801, 36.654331 ], [ -94.61801, 36.65427 ], [ -94.618009, 36.654217 ], [ -94.618007, 36.654055 ], [ -94.618001, 36.653413 ], [ -94.618, 36.6532 ], [ -94.617997, 36.65304 ], [ -94.617993, 36.652563 ], [ -94.617994, 36.652488 ], [ -94.617993, 36.652405 ], [ -94.617992, 36.652358 ], [ -94.617992, 36.652324 ], [ -94.617991, 36.652197 ], [ -94.61799, 36.652138 ], [ -94.61799, 36.652078 ], [ -94.617985, 36.65161 ], [ -94.617964, 36.649228 ], [ -94.617957, 36.648434 ], [ -94.617939, 36.64652 ], [ -94.617908, 36.642918 ], [ -94.617888, 36.640778 ], [ -94.617872, 36.638864 ], [ -94.617862, 36.637787 ], [ -94.617834, 36.63456 ], [ -94.617826, 36.633544 ], [ -94.617825, 36.633484 ], [ -94.617811, 36.631892 ], [ -94.617769, 36.627117 ], [ -94.617756, 36.625526 ], [ -94.617756, 36.625509 ], [ -94.617757, 36.625458 ], [ -94.617758, 36.625442 ], [ -94.617759, 36.625368 ], [ -94.617764, 36.625145 ], [ -94.617766, 36.625072 ], [ -94.617752, 36.625006 ], [ -94.617727, 36.624885 ], [ -94.617711, 36.624811 ], [ -94.617709, 36.624799 ], [ -94.617709, 36.624745 ], [ -94.617708, 36.624631 ], [ -94.617708, 36.624519 ], [ -94.617708, 36.624058 ], [ -94.617705, 36.622315 ], [ -94.617699, 36.618046 ], [ -94.617694, 36.615031 ], [ -94.617692, 36.612602 ], [ -94.617692, 36.612575 ], [ -94.617725, 36.611759 ], [ -94.61781, 36.609774 ], [ -94.617832, 36.609227 ], [ -94.617868, 36.608385 ], [ -94.61787, 36.60828 ], [ -94.617865, 36.608058 ], [ -94.617864, 36.608001 ], [ -94.617838, 36.607658 ], [ -94.617829, 36.607078 ], [ -94.617828, 36.606977 ], [ -94.617821, 36.606827 ], [ -94.617796, 36.606756 ], [ -94.617798, 36.60674 ], [ -94.617844, 36.606438 ], [ -94.617838, 36.60633 ], [ -94.617843, 36.605601 ], [ -94.617848, 36.604921 ], [ -94.617851, 36.602125 ], [ -94.617853, 36.600967 ], [ -94.617853, 36.600586 ], [ -94.617855, 36.599447 ], [ -94.617856, 36.599067 ], [ -94.617856, 36.598853 ], [ -94.617856, 36.598215 ], [ -94.617857, 36.598129 ], [ -94.617857, 36.598002 ], [ -94.617856, 36.597863 ], [ -94.617852, 36.597126 ], [ -94.617851, 36.596785 ], [ -94.617858, 36.594497 ], [ -94.617859, 36.594299 ], [ -94.617856, 36.593622 ], [ -94.617851, 36.592694 ], [ -94.61785, 36.592363 ], [ -94.617848, 36.591156 ], [ -94.617863, 36.590178 ], [ -94.617862, 36.589911 ], [ -94.617861, 36.588984 ], [ -94.61786, 36.588856 ], [ -94.61786, 36.588755 ], [ -94.61786, 36.588474 ], [ -94.61786, 36.588347 ], [ -94.617859, 36.588165 ], [ -94.617858, 36.587622 ], [ -94.617858, 36.587441 ], [ -94.617858, 36.587216 ], [ -94.617858, 36.586666 ], [ -94.61786, 36.585488 ], [ -94.617883, 36.584344 ], [ -94.6179, 36.583571 ], [ -94.617901, 36.583509 ], [ -94.617905, 36.583323 ], [ -94.617907, 36.583262 ], [ -94.617909, 36.583175 ], [ -94.617915, 36.582918 ], [ -94.617916, 36.582896 ], [ -94.617915, 36.582836 ], [ -94.617902, 36.581806 ], [ -94.617901, 36.581646 ], [ -94.617902, 36.580153 ], [ -94.617905, 36.578729 ], [ -94.617908, 36.577704 ], [ -94.617904, 36.57667 ], [ -94.617914, 36.57608 ], [ -94.617916, 36.575907 ], [ -94.617925, 36.575428 ], [ -94.617919, 36.570519 ], [ -94.617919, 36.569881 ], [ -94.617918, 36.568723 ], [ -94.617918, 36.568708 ], [ -94.617922, 36.567716 ], [ -94.617916, 36.566146 ], [ -94.617916, 36.566008 ], [ -94.61791, 36.563385 ], [ -94.617911, 36.561763 ], [ -94.617912, 36.560442 ], [ -94.617916, 36.559773 ], [ -94.617914, 36.559003 ], [ -94.617916, 36.558415 ], [ -94.617922, 36.557144 ], [ -94.617918, 36.556372 ], [ -94.617926, 36.555839 ], [ -94.617922, 36.554739 ], [ -94.617922, 36.554388 ], [ -94.617922, 36.553555 ], [ -94.617918, 36.550038 ], [ -94.617917, 36.548778 ], [ -94.617921, 36.548589 ], [ -94.617925, 36.548362 ], [ -94.617937, 36.547823 ], [ -94.617935, 36.547681 ], [ -94.617932, 36.547455 ], [ -94.617929, 36.547277 ], [ -94.617923, 36.546745 ], [ -94.617921, 36.546568 ], [ -94.617916, 36.546162 ], [ -94.617909, 36.544833 ], [ -94.617886, 36.539628 ], [ -94.617879, 36.537907 ], [ -94.617879, 36.537894 ], [ -94.617874, 36.537697 ], [ -94.617873, 36.537639 ], [ -94.617894, 36.53719 ], [ -94.617889, 36.537107 ], [ -94.617879, 36.536911 ], [ -94.617855, 36.536756 ], [ -94.617783, 36.536291 ], [ -94.617759, 36.536137 ], [ -94.617866, 36.534229 ], [ -94.617872, 36.53417 ], [ -94.617894, 36.53399 ], [ -94.617902, 36.533933 ], [ -94.617919, 36.533678 ], [ -94.617968, 36.532914 ], [ -94.617985, 36.53266 ], [ -94.617974, 36.531099 ], [ -94.617971, 36.530602 ], [ -94.617941, 36.526416 ], [ -94.617931, 36.524856 ], [ -94.617929, 36.52423 ], [ -94.617906, 36.523254 ], [ -94.617855, 36.518156 ], [ -94.617888, 36.51784 ], [ -94.617876, 36.517102 ], [ -94.617862, 36.51675 ], [ -94.617852, 36.51649 ], [ -94.617835, 36.51639 ], [ -94.617823, 36.516378 ], [ -94.617827, 36.516081 ], [ -94.617838, 36.515353 ], [ -94.61784, 36.515191 ], [ -94.617845, 36.514895 ], [ -94.617847, 36.51437 ], [ -94.617852, 36.512795 ], [ -94.617855, 36.512271 ], [ -94.61785, 36.511694 ], [ -94.617835, 36.509965 ], [ -94.617831, 36.509389 ], [ -94.617832, 36.50922 ], [ -94.617834, 36.508714 ], [ -94.617836, 36.508546 ], [ -94.617836, 36.508433 ], [ -94.617838, 36.508093 ], [ -94.617839, 36.507981 ], [ -94.617841, 36.507524 ], [ -94.617843, 36.507308 ], [ -94.617843, 36.507117 ], [ -94.617844, 36.506923 ], [ -94.617844, 36.506894 ], [ -94.617845, 36.506848 ], [ -94.617846, 36.506623 ], [ -94.617847, 36.506525 ], [ -94.617853, 36.505373 ], [ -94.617855, 36.505049 ], [ -94.617857, 36.50442 ], [ -94.617859, 36.504216 ], [ -94.617862, 36.503753 ], [ -94.617862, 36.503637 ], [ -94.617864, 36.503407 ], [ -94.617868, 36.502551 ], [ -94.617868, 36.502408 ], [ -94.61787, 36.501923 ], [ -94.617875, 36.501008 ], [ -94.61793, 36.500085 ], [ -94.617929, 36.500041 ], [ -94.617859, 36.499431 ], [ -94.617814, 36.499199 ], [ -94.617772, 36.498937 ], [ -94.617696, 36.498461 ], [ -94.616952, 36.493987 ], [ -94.615544, 36.485183 ], [ -94.614987, 36.481697 ], [ -94.614948, 36.481442 ], [ -94.614181, 36.4766 ], [ -94.614132, 36.476297 ], [ -94.613436, 36.471982 ], [ -94.612896, 36.468635 ], [ -94.611804, 36.461523 ], [ -94.61163, 36.460409 ], [ -94.610406, 36.452593 ], [ -94.610184, 36.451176 ], [ -94.610103, 36.450662 ], [ -94.609814, 36.448843 ], [ -94.608574, 36.441038 ], [ -94.608095, 36.438028 ], [ -94.607891, 36.436673 ], [ -94.607096, 36.431693 ], [ -94.605793, 36.423537 ], [ -94.60559, 36.422241 ], [ -94.605539, 36.421936 ], [ -94.604112, 36.413659 ], [ -94.603876, 36.412294 ], [ -94.603395, 36.409507 ], [ -94.603036, 36.407428 ], [ -94.602935, 36.406806 ], [ -94.60272, 36.405485 ], [ -94.60258, 36.40463 ], [ -94.602506, 36.404173 ], [ -94.602459, 36.403886 ], [ -94.602324, 36.403054 ], [ -94.60217, 36.402111 ], [ -94.600985, 36.394831 ], [ -94.600945, 36.394582 ], [ -94.600648, 36.392672 ], [ -94.599709, 36.386624 ], [ -94.598127, 36.376448 ], [ -94.598096, 36.376261 ], [ -94.597904, 36.375058 ], [ -94.597817, 36.374629 ], [ -94.59665, 36.367033 ], [ -94.59656, 36.366459 ], [ -94.596481, 36.365955 ], [ -94.596412, 36.365472 ], [ -94.596347, 36.365421 ], [ -94.595997, 36.362802 ], [ -94.59592, 36.362391 ], [ -94.595631, 36.360352 ], [ -94.595388, 36.358722 ], [ -94.595367, 36.358582 ], [ -94.595337, 36.35838 ], [ -94.594893, 36.355408 ], [ -94.594817, 36.354901 ], [ -94.594752, 36.354484 ], [ -94.594482, 36.352655 ], [ -94.594226, 36.350946 ], [ -94.594223, 36.350925 ], [ -94.594162, 36.350544 ], [ -94.594083, 36.350051 ], [ -94.594038, 36.349773 ], [ -94.594015, 36.349628 ], [ -94.593993, 36.34949 ], [ -94.593973, 36.349367 ], [ -94.593958, 36.349279 ], [ -94.593396, 36.345742 ], [ -94.593375, 36.345614 ], [ -94.593231, 36.344646 ], [ -94.593196, 36.344421 ], [ -94.59316, 36.34419 ], [ -94.593136, 36.344041 ], [ -94.593108, 36.343871 ], [ -94.593074, 36.343643 ], [ -94.592271, 36.338538 ], [ -94.59221, 36.338151 ], [ -94.591802, 36.335555 ], [ -94.591762, 36.335299 ], [ -94.591696, 36.334878 ], [ -94.591693, 36.334862 ], [ -94.591648, 36.334613 ], [ -94.591618, 36.334446 ], [ -94.591591, 36.3343 ], [ -94.59133, 36.332526 ], [ -94.590964, 36.330291 ], [ -94.590879, 36.32977 ], [ -94.590798, 36.329276 ], [ -94.59064, 36.32831 ], [ -94.590568, 36.327869 ], [ -94.590289, 36.325856 ], [ -94.590101, 36.32465 ], [ -94.588947, 36.317449 ], [ -94.588813, 36.316599 ], [ -94.588527, 36.314791 ], [ -94.588377, 36.313842 ], [ -94.588301, 36.31336 ], [ -94.587987, 36.312114 ], [ -94.588094, 36.312055 ], [ -94.588028, 36.311636 ], [ -94.587929, 36.311014 ], [ -94.58782, 36.310319 ], [ -94.587744, 36.309841 ], [ -94.58714, 36.306055 ], [ -94.586861, 36.304345 ], [ -94.586181, 36.300192 ], [ -94.586151, 36.300005 ], [ -94.586142, 36.299949 ], [ -94.586132, 36.299889 ], [ -94.586065, 36.29948 ], [ -94.586053, 36.299409 ], [ -94.586036, 36.2993 ], [ -94.586026, 36.299242 ], [ -94.585996, 36.299094 ], [ -94.585945, 36.298773 ], [ -94.585884, 36.298372 ], [ -94.585772, 36.297689 ], [ -94.585575, 36.296548 ], [ -94.585564, 36.296267 ], [ -94.585441, 36.295665 ], [ -94.585428, 36.295583 ], [ -94.585379, 36.295432 ], [ -94.585337, 36.29532 ], [ -94.585329, 36.295297 ], [ -94.585306, 36.295228 ], [ -94.585295, 36.29519 ], [ -94.585264, 36.295057 ], [ -94.585055, 36.293788 ], [ -94.584948, 36.293208 ], [ -94.584844, 36.292578 ], [ -94.584633, 36.291173 ], [ -94.58456, 36.290648 ], [ -94.584478, 36.290209 ], [ -94.584231, 36.288741 ], [ -94.583587, 36.284781 ], [ -94.583421, 36.28391 ], [ -94.583416, 36.283633 ], [ -94.583179, 36.282196 ], [ -94.583067, 36.281502 ], [ -94.582724, 36.279359 ], [ -94.582603, 36.278668 ], [ -94.582566, 36.278307 ], [ -94.582557, 36.27826 ], [ -94.582537, 36.278147 ], [ -94.582514, 36.278026 ], [ -94.582457, 36.2777 ], [ -94.582436, 36.27759 ], [ -94.582427, 36.277537 ], [ -94.582308, 36.276828 ], [ -94.582159, 36.275944 ], [ -94.581527, 36.272129 ], [ -94.581418, 36.271476 ], [ -94.581381, 36.271094 ], [ -94.581347, 36.270794 ], [ -94.581109, 36.269303 ], [ -94.581031, 36.268894 ], [ -94.580572, 36.265903 ], [ -94.580391, 36.264929 ], [ -94.580203, 36.263858 ], [ -94.580048, 36.262975 ], [ -94.579902, 36.262129 ], [ -94.579847, 36.26181 ], [ -94.579835, 36.261745 ], [ -94.579391, 36.259308 ], [ -94.579347, 36.259066 ], [ -94.579256, 36.258571 ], [ -94.579211, 36.258379 ], [ -94.579071, 36.257634 ], [ -94.57901, 36.257247 ], [ -94.578967, 36.257061 ], [ -94.578874, 36.256513 ], [ -94.578721, 36.255551 ], [ -94.578661, 36.255241 ], [ -94.578576, 36.254729 ], [ -94.578536, 36.254525 ], [ -94.578521, 36.25445 ], [ -94.578516, 36.254423 ], [ -94.578498, 36.254303 ], [ -94.578443, 36.254033 ], [ -94.578436, 36.253996 ], [ -94.578242, 36.252953 ], [ -94.577954, 36.251306 ], [ -94.577869, 36.250833 ], [ -94.57775, 36.250177 ], [ -94.577734, 36.250087 ], [ -94.577716, 36.249937 ], [ -94.577708, 36.249701 ], [ -94.577705, 36.249684 ], [ -94.577173, 36.246263 ], [ -94.577134, 36.245972 ], [ -94.577009, 36.245272 ], [ -94.576177, 36.240223 ], [ -94.576115, 36.239835 ], [ -94.576094, 36.239706 ], [ -94.576059, 36.239488 ], [ -94.576017, 36.239223 ], [ -94.575867, 36.238283 ], [ -94.575824, 36.23795 ], [ -94.575575, 36.236613 ], [ -94.575473, 36.236045 ], [ -94.575352, 36.235364 ], [ -94.575267, 36.234889 ], [ -94.575194, 36.23448 ], [ -94.575181, 36.234406 ], [ -94.57504, 36.233529 ], [ -94.574963, 36.233071 ], [ -94.574604, 36.230864 ], [ -94.574541, 36.230481 ], [ -94.574479, 36.230146 ], [ -94.574478, 36.2301 ], [ -94.574461, 36.229998 ], [ -94.574226, 36.228572 ], [ -94.573939, 36.227139 ], [ -94.573877, 36.226752 ], [ -94.573855, 36.226618 ], [ -94.573807, 36.22632 ], [ -94.573794, 36.226235 ], [ -94.573773, 36.226104 ], [ -94.573759, 36.226019 ], [ -94.573751, 36.22597 ], [ -94.573708, 36.2257 ], [ -94.573686, 36.225562 ], [ -94.57365, 36.225341 ], [ -94.57329, 36.223071 ], [ -94.573195, 36.222476 ], [ -94.573032, 36.22145 ], [ -94.572045, 36.215414 ], [ -94.571806, 36.213748 ], [ -94.571766, 36.213671 ], [ -94.571266, 36.210974 ], [ -94.571252, 36.210901 ], [ -94.569291, 36.199492 ], [ -94.569091, 36.198373 ], [ -94.568775, 36.196499 ], [ -94.56807, 36.192372 ], [ -94.567808, 36.190873 ], [ -94.567786, 36.190748 ], [ -94.567553, 36.189392 ], [ -94.56754, 36.189322 ], [ -94.567177, 36.187204 ], [ -94.56716, 36.187104 ], [ -94.567042, 36.186447 ], [ -94.566678, 36.184296 ], [ -94.566486, 36.183569 ], [ -94.566449, 36.183196 ], [ -94.566325, 36.182423 ], [ -94.566317, 36.182372 ], [ -94.566155, 36.181431 ], [ -94.565944, 36.180401 ], [ -94.565895, 36.180134 ], [ -94.565781, 36.179518 ], [ -94.565761, 36.179404 ], [ -94.565598, 36.178596 ], [ -94.565214, 36.176456 ], [ -94.565188, 36.176311 ], [ -94.565037, 36.175111 ], [ -94.564985, 36.174695 ], [ -94.564251, 36.170558 ], [ -94.564125, 36.169753 ], [ -94.564111, 36.169685 ], [ -94.563925, 36.168727 ], [ -94.56382, 36.168115 ], [ -94.563693, 36.16744 ], [ -94.563689, 36.167421 ], [ -94.563683, 36.167391 ], [ -94.563658, 36.167255 ], [ -94.563654, 36.167235 ], [ -94.563303, 36.165347 ], [ -94.56326, 36.165116 ], [ -94.563255, 36.165089 ], [ -94.562983, 36.163568 ], [ -94.562897, 36.163082 ], [ -94.562844, 36.162787 ], [ -94.562827, 36.162657 ], [ -94.562823, 36.162626 ], [ -94.562731, 36.161909 ], [ -94.562727, 36.161893 ], [ -94.563337, 36.161896 ], [ -94.565195, 36.161899 ], [ -94.565815, 36.1619 ], [ -94.56659, 36.161898 ], [ -94.570177, 36.161891 ], [ -94.572997, 36.161902 ], [ -94.573981, 36.16189 ], [ -94.575573, 36.161854 ], [ -94.576425, 36.161832 ], [ -94.576635, 36.161826 ], [ -94.576745, 36.161826 ], [ -94.576986, 36.161827 ], [ -94.58353, 36.161793 ], [ -94.590908, 36.161776 ], [ -94.593123, 36.16177 ], [ -94.594306, 36.16177 ], [ -94.596727, 36.161764 ], [ -94.596887, 36.161764 ], [ -94.599437, 36.161758 ], [ -94.599794, 36.161757 ], [ -94.601367, 36.161753 ], [ -94.601584, 36.161753 ], [ -94.601687, 36.161752 ], [ -94.60433, 36.161746 ], [ -94.609157, 36.161727 ], [ -94.610341, 36.161805 ], [ -94.612161, 36.161828 ], [ -94.612291, 36.161805 ], [ -94.612413, 36.161726 ], [ -94.617823, 36.161714 ], [ -94.621116, 36.161706 ], [ -94.623374, 36.1617 ], [ -94.624622, 36.161697 ], [ -94.624638, 36.161729 ], [ -94.624714, 36.161769 ], [ -94.624804, 36.161787 ], [ -94.628175, 36.161767 ], [ -94.628201, 36.161767 ], [ -94.628334, 36.161767 ], [ -94.630236, 36.161761 ], [ -94.630426, 36.161769 ], [ -94.632318, 36.161753 ], [ -94.632601, 36.161748 ], [ -94.632943, 36.161741 ], [ -94.635092, 36.161726 ], [ -94.637157, 36.161729 ], [ -94.641104, 36.161701 ], [ -94.642589, 36.161701 ], [ -94.643686, 36.161685 ], [ -94.644617, 36.161691 ], [ -94.646063, 36.161683 ], [ -94.646898, 36.161678 ], [ -94.647801, 36.161684 ], [ -94.649983, 36.16168 ], [ -94.650575, 36.161679 ], [ -94.655068, 36.161659 ], [ -94.655757, 36.16167 ], [ -94.656355, 36.161679 ], [ -94.658131, 36.161678 ], [ -94.659986, 36.161685 ], [ -94.662128, 36.161677 ], [ -94.663251, 36.161657 ], [ -94.663804, 36.161643 ], [ -94.664001, 36.16162 ], [ -94.664032, 36.161592 ], [ -94.665787, 36.161587 ], [ -94.666606, 36.161585 ], [ -94.669157, 36.161577 ], [ -94.673922, 36.161563 ], [ -94.67512, 36.16156 ], [ -94.687595, 36.161523 ], [ -94.697388, 36.161525 ], [ -94.698506, 36.161527 ], [ -94.698788, 36.161533 ], [ -94.700851, 36.161533 ], [ -94.703528, 36.161534 ], [ -94.705198, 36.161537 ], [ -94.708177, 36.161541 ], [ -94.709221, 36.161543 ], [ -94.713399, 36.161549 ], [ -94.713862, 36.16155 ], [ -94.714562, 36.161551 ], [ -94.735114, 36.161582 ], [ -94.735271, 36.161582 ], [ -94.735653, 36.161582 ], [ -94.737411, 36.161585 ], [ -94.737533, 36.161585 ], [ -94.737638, 36.161585 ], [ -94.738158, 36.161586 ], [ -94.739044, 36.161587 ], [ -94.742883, 36.161593 ], [ -94.744586, 36.161596 ], [ -94.746367, 36.161598 ], [ -94.748364, 36.1616 ], [ -94.749306, 36.161601 ], [ -94.752796, 36.161605 ], [ -94.755611, 36.161607 ], [ -94.759435, 36.161612 ], [ -94.761724, 36.161614 ], [ -94.763027, 36.161612 ], [ -94.764074, 36.161617 ], [ -94.764749, 36.161618 ], [ -94.768323, 36.16162 ], [ -94.770331, 36.161618 ], [ -94.773459, 36.161627 ], [ -94.775177, 36.161639 ], [ -94.777163, 36.161632 ], [ -94.778975, 36.161632 ], [ -94.781741, 36.161635 ], [ -94.782361, 36.161636 ], [ -94.784879, 36.161641 ], [ -94.785202, 36.161639 ], [ -94.79277, 36.161647 ], [ -94.797409, 36.161652 ], [ -94.79787, 36.161651 ], [ -94.80086, 36.161649 ], [ -94.801596, 36.161649 ], [ -94.804663, 36.161647 ], [ -94.807609, 36.161645 ], [ -94.813991, 36.161641 ], [ -94.814441, 36.161641 ], [ -94.814551, 36.161641 ], [ -94.814706, 36.161642 ], [ -94.814945, 36.161644 ], [ -94.817356, 36.161655 ], [ -94.824325, 36.161634 ], [ -94.826328, 36.161633 ], [ -94.8281, 36.161632 ], [ -94.828444, 36.161631 ], [ -94.828618, 36.161631 ], [ -94.828722, 36.161629 ], [ -94.828741, 36.161629 ], [ -94.82942, 36.161631 ], [ -94.831959, 36.161629 ], [ -94.832787, 36.161629 ], [ -94.832893, 36.161629 ], [ -94.837838, 36.161625 ], [ -94.842202, 36.161623 ], [ -94.842312, 36.161622 ], [ -94.842644, 36.161639 ], [ -94.842947, 36.161642 ], [ -94.843337, 36.161647 ], [ -94.84397, 36.161638 ], [ -94.84594, 36.161609 ], [ -94.846384, 36.161626 ], [ -94.846401, 36.161626 ], [ -94.847146, 36.161656 ], [ -94.847307, 36.161662 ], [ -94.847372, 36.161665 ], [ -94.847451, 36.161665 ], [ -94.848117, 36.161665 ], [ -94.848139, 36.161665 ], [ -94.84873, 36.161665 ], [ -94.848814, 36.161666 ], [ -94.848836, 36.161666 ], [ -94.850072, 36.161675 ], [ -94.850166, 36.161676 ], [ -94.850241, 36.161677 ], [ -94.850988, 36.161687 ], [ -94.851337, 36.161691 ], [ -94.851375, 36.16169 ], [ -94.851575, 36.161684 ], [ -94.851971, 36.161673 ], [ -94.852487, 36.161659 ], [ -94.853336, 36.161608 ], [ -94.85436, 36.161618 ], [ -94.854583, 36.161615 ], [ -94.855509, 36.161601 ], [ -94.857681, 36.161607 ], [ -94.857865, 36.161608 ], [ -94.858471, 36.161608 ], [ -94.858562, 36.161608 ], [ -94.858793, 36.161608 ], [ -94.858965, 36.161629 ], [ -94.859662, 36.161624 ], [ -94.861133, 36.161631 ], [ -94.862319, 36.16165 ], [ -94.862525, 36.161645 ], [ -94.863108, 36.16163 ], [ -94.863124, 36.16163 ], [ -94.863217, 36.161636 ], [ -94.863454, 36.161649 ], [ -94.86368, 36.161625 ], [ -94.863854, 36.161608 ], [ -94.864615, 36.161602 ], [ -94.86553, 36.161601 ], [ -94.866018, 36.1616 ], [ -94.866424, 36.1616 ], [ -94.868038, 36.161598 ], [ -94.868591, 36.161599 ], [ -94.869134, 36.161598 ], [ -94.870863, 36.161596 ], [ -94.871238, 36.161595 ], [ -94.871886, 36.161594 ], [ -94.874982, 36.161591 ], [ -94.881984, 36.161582 ], [ -94.885509, 36.161575 ], [ -94.887881, 36.161575 ], [ -94.894771, 36.161568 ], [ -94.89593, 36.161565 ], [ -94.896372, 36.161564 ], [ -94.904543, 36.161554 ], [ -94.909761, 36.161566 ], [ -94.915202, 36.161579 ], [ -94.916615, 36.161583 ], [ -94.916991, 36.161584 ], [ -94.917872, 36.161555 ], [ -94.918556, 36.161541 ], [ -94.919662, 36.161531 ], [ -94.921275, 36.161543 ], [ -94.922362, 36.161543 ], [ -94.923177, 36.161569 ], [ -94.924482, 36.161528 ], [ -94.924708, 36.161525 ], [ -94.9266, 36.161505 ], [ -94.928363, 36.161497 ], [ -94.928715, 36.161495 ], [ -94.93022, 36.161481 ], [ -94.9313, 36.161482 ], [ -94.932278, 36.161485 ], [ -94.932454, 36.161483 ], [ -94.934806, 36.161478 ], [ -94.935987, 36.161477 ], [ -94.937509, 36.161463 ], [ -94.93939, 36.161468 ], [ -94.93944, 36.161469 ], [ -94.940069, 36.161461 ], [ -94.940285, 36.161455 ], [ -94.941994, 36.161638 ], [ -94.943884, 36.161642 ], [ -94.946188, 36.161647 ], [ -94.948931, 36.161653 ], [ -94.949265, 36.161653 ], [ -94.950759, 36.161542 ], [ -94.950883, 36.161532 ], [ -94.950943, 36.161534 ], [ -94.953236, 36.161521 ], [ -94.953761, 36.161578 ], [ -94.954583, 36.161665 ], [ -94.958728, 36.161679 ], [ -94.965679, 36.161685 ], [ -94.972035, 36.161696 ], [ -94.974156, 36.1617 ], [ -94.976343, 36.161704 ], [ -94.977016, 36.161705 ], [ -94.979231, 36.161709 ], [ -94.981311, 36.161713 ], [ -94.983296, 36.161716 ], [ -94.989473, 36.161732 ], [ -94.993295, 36.161734 ], [ -94.997004, 36.161741 ], [ -95.000502, 36.161747 ], [ -95.002598, 36.161751 ], [ -95.002811, 36.161751 ], [ -95.003573, 36.161752 ], [ -95.007077, 36.161758 ], [ -95.00876, 36.16176 ], [ -95.008841, 36.161761 ], [ -95.009249, 36.161761 ], [ -95.011029, 36.161764 ], [ -95.011144, 36.161764 ], [ -95.011309, 36.161763 ], [ -95.011328, 36.161763 ], [ -95.011311, 36.161801 ], [ -95.011303, 36.161828 ], [ -95.011275, 36.161994 ], [ -95.011269, 36.162112 ], [ -95.011262, 36.162176 ], [ -95.011234, 36.162441 ], [ -95.01107, 36.16275 ], [ -95.011011, 36.162914 ], [ -95.011004, 36.163009 ], [ -95.011041, 36.163095 ], [ -95.011059, 36.163231 ], [ -95.011112, 36.163417 ], [ -95.011101, 36.163548 ], [ -95.011063, 36.163782 ], [ -95.010991, 36.164227 ], [ -95.010985, 36.164398 ], [ -95.01103, 36.164669 ], [ -95.011136, 36.165074 ], [ -95.011141, 36.165109 ], [ -95.011272, 36.165745 ], [ -95.011288, 36.165999 ], [ -95.011301, 36.166025 ], [ -95.011301, 36.16621 ], [ -95.01129, 36.167049 ], [ -95.011282, 36.167537 ], [ -95.011289, 36.168552 ], [ -95.011294, 36.16936 ], [ -95.011292, 36.17156 ], [ -95.011286, 36.173084 ], [ -95.011284, 36.175885 ], [ -95.0113, 36.17652 ], [ -95.01128, 36.177435 ], [ -95.011295, 36.177919 ], [ -95.011304, 36.178253 ], [ -95.011302, 36.179247 ], [ -95.011271, 36.180386 ], [ -95.011272, 36.180576 ], [ -95.01128, 36.181875 ], [ -95.011282, 36.182725 ], [ -95.011276, 36.183637 ], [ -95.011275, 36.183849 ], [ -95.011272, 36.184286 ], [ -95.011282, 36.185018 ], [ -95.01128, 36.18542 ], [ -95.011272, 36.187209 ], [ -95.011287, 36.190594 ], [ -95.01132, 36.192133 ], [ -95.011331, 36.193491 ], [ -95.011339, 36.194498 ], [ -95.01133, 36.195849 ], [ -95.011323, 36.196789 ], [ -95.011285, 36.198432 ], [ -95.011336, 36.199676 ], [ -95.011353, 36.200257 ], [ -95.011354, 36.200297 ], [ -95.011341, 36.200975 ], [ -95.01134, 36.201102 ], [ -95.01133, 36.201973 ], [ -95.011325, 36.202503 ], [ -95.011326, 36.20275 ], [ -95.011334, 36.203521 ], [ -95.011331, 36.20511 ], [ -95.011324, 36.205641 ], [ -95.011326, 36.207777 ], [ -95.011328, 36.208067 ], [ -95.011333, 36.208843 ], [ -95.011334, 36.208952 ], [ -95.011333, 36.209098 ], [ -95.011333, 36.209165 ], [ -95.011333, 36.209223 ], [ -95.011322, 36.211172 ], [ -95.01132, 36.211707 ], [ -95.011317, 36.211949 ], [ -95.01131, 36.21249 ], [ -95.011313, 36.212934 ], [ -95.011313, 36.21296 ], [ -95.011314, 36.213013 ], [ -95.011314, 36.213107 ], [ -95.011313, 36.213163 ], [ -95.01131, 36.213333 ], [ -95.011301, 36.21379 ], [ -95.011308, 36.21503 ], [ -95.01129, 36.215736 ], [ -95.011297, 36.215962 ], [ -95.011315, 36.216521 ], [ -95.011316, 36.217414 ], [ -95.011315, 36.217518 ], [ -95.011318, 36.219302 ], [ -95.011306, 36.219609 ], [ -95.010769, 36.233465 ], [ -95.010734, 36.234356 ], [ -95.010733, 36.234372 ], [ -95.010641, 36.236754 ], [ -95.010473, 36.241072 ], [ -95.010173, 36.248822 ], [ -95.005538, 36.248706 ], [ -95.005574, 36.25335 ], [ -95.005578, 36.253824 ], [ -95.005597, 36.256237 ], [ -95.005648, 36.263088 ], [ -95.005654, 36.263855 ], [ -95.005663, 36.264847 ], [ -95.005728, 36.273544 ], [ -95.005758, 36.277422 ], [ -95.005764, 36.278298 ], [ -95.0058, 36.282945 ], [ -95.005813, 36.284716 ], [ -95.005813, 36.285232 ], [ -95.005832, 36.287196 ], [ -95.005857, 36.290386 ], [ -95.005869, 36.292025 ], [ -95.00587, 36.292125 ], [ -95.005876, 36.292908 ], [ -95.005923, 36.29911 ], [ -95.005808, 36.300816 ], [ -95.005806, 36.300852 ], [ -95.005808, 36.300889 ], [ -95.005876, 36.301942 ], [ -95.005821, 36.302426 ], [ -95.005799, 36.303128 ], [ -95.005785, 36.30359 ], [ -95.005763, 36.305338 ], [ -95.005732, 36.306546 ], [ -95.005729, 36.30737 ], [ -95.005723, 36.309346 ], [ -95.005721, 36.309499 ], [ -95.005722, 36.309722 ], [ -95.005716, 36.311768 ], [ -95.005714, 36.311884 ], [ -95.005628, 36.337563 ], [ -95.005626, 36.338372 ], [ -95.005608, 36.343604 ], [ -95.005784, 36.344161 ], [ -95.005779, 36.344467 ], [ -95.005779, 36.344483 ], [ -95.005782, 36.344535 ], [ -95.005783, 36.344552 ], [ -95.005788, 36.344663 ], [ -95.00577, 36.344934 ], [ -95.005757, 36.345152 ], [ -95.005743, 36.346085 ], [ -95.005738, 36.346469 ], [ -95.005691, 36.346926 ], [ -95.005667, 36.347174 ], [ -95.005615, 36.347556 ], [ -95.005594, 36.347731 ], [ -95.005575, 36.353665 ], [ -95.005563, 36.356905 ], [ -95.005541, 36.363534 ], [ -95.005537, 36.364736 ], [ -95.005534, 36.365612 ], [ -95.005523, 36.368839 ], [ -95.005506, 36.374049 ], [ -95.005504, 36.374574 ], [ -95.005503, 36.374882 ], [ -95.005502, 36.375135 ], [ -95.005499, 36.376098 ], [ -95.005498, 36.376453 ], [ -95.005452, 36.389933 ], [ -95.005439, 36.394278 ], [ -95.005431, 36.396193 ], [ -95.005432, 36.396557 ], [ -95.005435, 36.401424 ], [ -95.005434, 36.405795 ], [ -95.005447, 36.406108 ], [ -95.005574, 36.409467 ], [ -95.005699, 36.409656 ], [ -95.005714, 36.410012 ], [ -95.00573, 36.41231 ], [ -95.005745, 36.414641 ], [ -95.00574, 36.41529 ], [ -95.005737, 36.415975 ], [ -95.005738, 36.416474 ], [ -95.005707, 36.420007 ], [ -95.00572, 36.420594 ], [ -95.005727, 36.420902 ], [ -95.005713, 36.422042 ], [ -95.005709, 36.422408 ], [ -95.005712, 36.422567 ], [ -95.005729, 36.423187 ], [ -95.005723, 36.423742 ], [ -95.005699, 36.424202 ], [ -95.0057, 36.424617 ], [ -95.005729, 36.425206 ], [ -95.00566, 36.4254 ], [ -95.00566, 36.425548 ], [ -95.005659, 36.425791 ], [ -95.005642, 36.430486 ], [ -95.00564, 36.430868 ], [ -95.005622, 36.436159 ], [ -95.005617, 36.437373 ], [ -95.005601, 36.441966 ], [ -95.00559, 36.444709 ], [ -95.005555, 36.4545 ], [ -95.005543, 36.457912 ], [ -95.005537, 36.459527 ], [ -95.005531, 36.461135 ], [ -95.005776, 36.461791 ], [ -95.005794, 36.462004 ], [ -95.00587, 36.463108 ], [ -95.005752, 36.463888 ], [ -95.005753, 36.464619 ], [ -95.005755, 36.468856 ], [ -95.005757, 36.474277 ], [ -95.005758, 36.476228 ], [ -95.005758, 36.476965 ], [ -95.005759, 36.479 ], [ -95.00576, 36.479426 ], [ -95.005761, 36.480553 ], [ -95.005761, 36.481063 ], [ -95.00576, 36.481212 ], [ -95.005678, 36.482458 ], [ -95.005665, 36.483785 ], [ -95.005688, 36.487313 ], [ -95.005694, 36.488183 ], [ -95.0057, 36.489053 ], [ -95.005708, 36.490338 ], [ -95.005717, 36.491624 ], [ -95.005717, 36.491653 ], [ -95.005717, 36.491743 ], [ -95.005718, 36.491773 ], [ -95.005718, 36.491803 ], [ -95.005718, 36.491894 ], [ -95.005719, 36.491925 ], [ -95.005758, 36.497597 ], [ -95.005758, 36.497786 ], [ -95.005763, 36.498151 ], [ -95.005772, 36.498698 ], [ -95.005779, 36.500152 ], [ -95.005763, 36.500218 ], [ -95.005739, 36.50033 ], [ -95.005714, 36.500442 ], [ -95.005469, 36.501525 ], [ -95.005471, 36.501604 ], [ -95.005541, 36.503786 ], [ -95.005564, 36.504106 ], [ -95.005603, 36.504974 ], [ -95.005694, 36.505108 ], [ -95.005724, 36.505153 ], [ -95.00573, 36.50989 ], [ -95.00574, 36.50999 ], [ -95.005754, 36.510211 ], [ -95.00577, 36.51044 ], [ -95.005768, 36.510669 ], [ -95.005761, 36.511725 ], [ -95.005754, 36.512798 ], [ -95.00575, 36.51335 ], [ -95.005777, 36.515433 ], [ -95.00578, 36.51565 ], [ -95.00574, 36.51684 ], [ -95.00573, 36.51713 ], [ -95.005732, 36.517235 ], [ -95.005749, 36.518046 ], [ -95.00577, 36.51904 ], [ -95.00576, 36.51907 ], [ -95.00576, 36.519095 ], [ -95.00576, 36.51912 ], [ -95.00576, 36.519173 ], [ -95.00576, 36.519199 ], [ -95.00576, 36.519277 ], [ -95.00576, 36.519359 ], [ -95.00576, 36.51964 ], [ -95.005759, 36.519665 ], [ -95.00575, 36.52 ], [ -95.005742, 36.520686 ], [ -95.00574, 36.520918 ], [ -95.00574, 36.52094 ], [ -95.00575, 36.5225 ], [ -95.00575, 36.522744 ], [ -95.00575, 36.523431 ], [ -95.00575, 36.523517 ], [ -95.00575, 36.523777 ], [ -95.00575, 36.523864 ], [ -95.00575, 36.523995 ], [ -95.00575, 36.524388 ], [ -95.00575, 36.52452 ], [ -95.005747, 36.524721 ], [ -95.005747, 36.524814 ], [ -95.005741, 36.525695 ], [ -95.00574, 36.52599 ], [ -95.005738, 36.527427 ], [ -95.005737, 36.527553 ], [ -95.005731, 36.532245 ], [ -95.00573, 36.53381 ], [ -95.005735, 36.534648 ], [ -95.00574, 36.53548 ], [ -95.00581, 36.53587 ], [ -95.00578, 36.53664 ] ] ] ] } }
]
}
